{
"type": "FeatureCollection",
"features": [
{ "type": "Feature", "properties": { "index": "0", "label": "Within 300 m on foot", "color": "#2b8cbe" }, "geometry": { "type": "MultiPolygon", "coordinates": [ [ [ [ 39.2944622, -6.814353 ], [ 39.2947257, -6.8143138 ], [ 39.2949841, -6.8142489 ], [ 39.2949913, -6.8142464 ], [ 39.2951264, -6.8142396 ], [ 39.2953899, -6.8142004 ], [ 39.2956483, -6.8141355 ], [ 39.2958991, -6.8140457 ], [ 39.2961399, -6.8139317 ], [ 39.2963684, -6.8137946 ], [ 39.2965823, -6.8136358 ], [ 39.2967796, -6.8134569 ], [ 39.2969584, -6.8132594 ], [ 39.297117, -6.8130454 ], [ 39.2972538, -6.8128169 ], [ 39.2973676, -6.8125761 ], [ 39.2974572, -6.8123253 ], [ 39.2975218, -6.8120669 ], [ 39.2975607, -6.8118034 ], [ 39.2975736, -6.8115374 ], [ 39.2975604, -6.8112714 ], [ 39.2975211, -6.811008 ], [ 39.297489, -6.8108803 ], [ 39.297484, -6.8108467 ], [ 39.2974191, -6.8105884 ], [ 39.2973292, -6.8103377 ], [ 39.2972151, -6.8100971 ], [ 39.297078, -6.8098687 ], [ 39.2969192, -6.8096549 ], [ 39.2967401, -6.8094577 ], [ 39.2965426, -6.809279 ], [ 39.2963285, -6.8091205 ], [ 39.2960999, -6.8089837 ], [ 39.295859, -6.80887 ], [ 39.295608, -6.8087804 ], [ 39.2953495, -6.8087158 ], [ 39.295086, -6.8086769 ], [ 39.2948198, -6.808664 ], [ 39.2945537, -6.8086773 ], [ 39.2942902, -6.8087165 ], [ 39.2940318, -6.8087814 ], [ 39.293781, -6.8088712 ], [ 39.2936686, -6.8089244 ], [ 39.293504, -6.8089658 ], [ 39.2932532, -6.8090556 ], [ 39.2930124, -6.8091696 ], [ 39.2927839, -6.8093067 ], [ 39.29257, -6.8094655 ], [ 39.2923727, -6.8096444 ], [ 39.2923716, -6.8096457 ], [ 39.2922734, -6.8097347 ], [ 39.2920946, -6.8099322 ], [ 39.291936, -6.8101462 ], [ 39.2917992, -6.8103747 ], [ 39.2916854, -6.8106155 ], [ 39.2915958, -6.8108663 ], [ 39.2915312, -6.8111247 ], [ 39.2914923, -6.8113881 ], [ 39.2914794, -6.8116541 ], [ 39.2914926, -6.8119201 ], [ 39.2915319, -6.8121835 ], [ 39.2915968, -6.8124418 ], [ 39.2916867, -6.8126925 ], [ 39.2918007, -6.8129332 ], [ 39.2919378, -6.8131616 ], [ 39.2920967, -6.8133754 ], [ 39.2922757, -6.8135726 ], [ 39.2924733, -6.8137513 ], [ 39.2926874, -6.8139098 ], [ 39.292916, -6.8140466 ], [ 39.2931569, -6.8141603 ], [ 39.2934078, -6.8142499 ], [ 39.2936663, -6.8143145 ], [ 39.2939299, -6.8143534 ], [ 39.2941961, -6.8143663 ], [ 39.2944622, -6.814353 ] ] ], [ [ [ 39.2486383, -6.7849463 ], [ 39.2487521, -6.7847055 ], [ 39.2488417, -6.7844547 ], [ 39.2489063, -6.7841964 ], [ 39.2489452, -6.7839329 ], [ 39.2489582, -6.7836669 ], [ 39.248945, -6.7834009 ], [ 39.2489057, -6.7831375 ], [ 39.2488409, -6.7828792 ], [ 39.248751, -6.7826285 ], [ 39.248637, -6.7823878 ], [ 39.2484999, -6.7821594 ], [ 39.248341, -6.7819456 ], [ 39.248162, -6.7817484 ], [ 39.2479645, -6.7815696 ], [ 39.2477505, -6.7814111 ], [ 39.2475219, -6.7812743 ], [ 39.247281, -6.7811606 ], [ 39.2470301, -6.781071 ], [ 39.2467716, -6.7810064 ], [ 39.246508, -6.7809674 ], [ 39.2462419, -6.7809545 ], [ 39.2459758, -6.7809677 ], [ 39.2457123, -6.7810069 ], [ 39.2454539, -6.7810718 ], [ 39.2452031, -6.7811616 ], [ 39.2449623, -6.7812756 ], [ 39.2447339, -6.7814126 ], [ 39.2445199, -6.7815714 ], [ 39.2443226, -6.7817503 ], [ 39.2441438, -6.7819478 ], [ 39.2439852, -6.7821617 ], [ 39.2438483, -6.7823902 ], [ 39.2437346, -6.782631 ], [ 39.2436449, -6.7828818 ], [ 39.2435803, -6.7831402 ], [ 39.2435414, -6.7834037 ], [ 39.2435284, -6.7836697 ], [ 39.2435416, -6.7839357 ], [ 39.2435809, -6.7841991 ], [ 39.2436457, -6.7844574 ], [ 39.2437356, -6.7847081 ], [ 39.2438496, -6.7849488 ], [ 39.2439867, -6.7851771 ], [ 39.2441455, -6.785391 ], [ 39.2443246, -6.7855882 ], [ 39.2445221, -6.785767 ], [ 39.2447361, -6.7859255 ], [ 39.2449647, -6.7860623 ], [ 39.2452056, -6.786176 ], [ 39.2454565, -6.7862656 ], [ 39.245715, -6.7863302 ], [ 39.2459786, -6.7863692 ], [ 39.2462447, -6.7863821 ], [ 39.2465108, -6.7863689 ], [ 39.2467743, -6.7863297 ], [ 39.2470327, -6.7862648 ], [ 39.2472835, -6.786175 ], [ 39.2475243, -6.786061 ], [ 39.2477528, -6.785924 ], [ 39.2479667, -6.7857652 ], [ 39.248164, -6.7855863 ], [ 39.2483428, -6.7853888 ], [ 39.2485014, -6.7851748 ], [ 39.2486383, -6.7849463 ] ] ] ] } },
{ "type": "Feature", "properties": { "index": "1", "label": "Beyond 300 m", "color": "#d9d9d9" }, "geometry": { "type": "Polygon", "coordinates": [ [ [ 39.22, -6.78 ], [ 39.22, -6.85 ], [ 39.3, -6.85 ], [ 39.3, -6.78 ], [ 39.22, -6.78 ] ], [ [ 39.2949913, -6.8142464 ], [ 39.2949841, -6.8142489 ], [ 39.2947257, -6.8143138 ], [ 39.2944622, -6.814353 ], [ 39.2941961, -6.8143663 ], [ 39.2939299, -6.8143534 ], [ 39.2936663, -6.8143145 ], [ 39.2934078, -6.8142499 ], [ 39.2931569, -6.8141603 ], [ 39.292916, -6.8140466 ], [ 39.2926874, -6.8139098 ], [ 39.2924733, -6.8137513 ], [ 39.2922757, -6.8135726 ], [ 39.2920967, -6.8133754 ], [ 39.2919378, -6.8131616 ], [ 39.2918007, -6.8129332 ], [ 39.2916867, -6.8126925 ], [ 39.2915968, -6.8124418 ], [ 39.2915319, -6.8121835 ], [ 39.2914926, -6.8119201 ], [ 39.2914794, -6.8116541 ], [ 39.2914923, -6.8113881 ], [ 39.2915312, -6.8111247 ], [ 39.2915958, -6.8108663 ], [ 39.2916854, -6.8106155 ], [ 39.2917992, -6.8103747 ], [ 39.291936, -6.8101462 ], [ 39.2920946, -6.8099322 ], [ 39.2922734, -6.8097347 ], [ 39.2923716, -6.8096457 ], [ 39.2923727, -6.8096444 ], [ 39.29257, -6.8094655 ], [ 39.2927839, -6.8093067 ], [ 39.2930124, -6.8091696 ], [ 39.2932532, -6.8090556 ], [ 39.293504, -6.8089658 ], [ 39.2936686, -6.8089244 ], [ 39.293781, -6.8088712 ], [ 39.2940318, -6.8087814 ], [ 39.2942902, -6.8087165 ], [ 39.2945537, -6.8086773 ], [ 39.2948198, -6.808664 ], [ 39.295086, -6.8086769 ], [ 39.2953495, -6.8087158 ], [ 39.295608, -6.8087804 ], [ 39.295859, -6.80887 ], [ 39.2960999, -6.8089837 ], [ 39.2963285, -6.8091205 ], [ 39.2965426, -6.809279 ], [ 39.2967401, -6.8094577 ], [ 39.2969192, -6.8096549 ], [ 39.297078, -6.8098687 ], [ 39.2972151, -6.8100971 ], [ 39.2973292, -6.8103377 ], [ 39.2974191, -6.8105884 ], [ 39.297484, -6.8108467 ], [ 39.297489, -6.8108803 ], [ 39.2975211, -6.811008 ], [ 39.2975604, -6.8112714 ], [ 39.2975736, -6.8115374 ], [ 39.2975607, -6.8118034 ], [ 39.2975218, -6.8120669 ], [ 39.2974572, -6.8123253 ], [ 39.2973676, -6.8125761 ], [ 39.2972538, -6.8128169 ], [ 39.297117, -6.8130454 ], [ 39.2969584, -6.8132594 ], [ 39.2967796, -6.8134569 ], [ 39.2965823, -6.8136358 ], [ 39.2963684, -6.8137946 ], [ 39.2961399, -6.8139317 ], [ 39.2958991, -6.8140457 ], [ 39.2956483, -6.8141355 ], [ 39.2953899, -6.8142004 ], [ 39.2951264, -6.8142396 ], [ 39.2949913, -6.8142464 ] ], [ [ 39.2489063, -6.7841964 ], [ 39.2488417, -6.7844547 ], [ 39.2487521, -6.7847055 ], [ 39.2486383, -6.7849463 ], [ 39.2485014, -6.7851748 ], [ 39.2483428, -6.7853888 ], [ 39.248164, -6.7855863 ], [ 39.2479667, -6.7857652 ], [ 39.2477528, -6.785924 ], [ 39.2475243, -6.786061 ], [ 39.2472835, -6.786175 ], [ 39.2470327, -6.7862648 ], [ 39.2467743, -6.7863297 ], [ 39.2465108, -6.7863689 ], [ 39.2462447, -6.7863821 ], [ 39.2459786, -6.7863692 ], [ 39.245715, -6.7863302 ], [ 39.2454565, -6.7862656 ], [ 39.2452056, -6.786176 ], [ 39.2449647, -6.7860623 ], [ 39.2447361, -6.7859255 ], [ 39.2445221, -6.785767 ], [ 39.2443246, -6.7855882 ], [ 39.2441455, -6.785391 ], [ 39.2439867, -6.7851771 ], [ 39.2438496, -6.7849488 ], [ 39.2437356, -6.7847081 ], [ 39.2436457, -6.7844574 ], [ 39.2435809, -6.7841991 ], [ 39.2435416, -6.7839357 ], [ 39.2435284, -6.7836697 ], [ 39.2435414, -6.7834037 ], [ 39.2435803, -6.7831402 ], [ 39.2436449, -6.7828818 ], [ 39.2437346, -6.782631 ], [ 39.2438483, -6.7823902 ], [ 39.2439852, -6.7821617 ], [ 39.2441438, -6.7819478 ], [ 39.2443226, -6.7817503 ], [ 39.2445199, -6.7815714 ], [ 39.2447339, -6.7814126 ], [ 39.2449623, -6.7812756 ], [ 39.2452031, -6.7811616 ], [ 39.2454539, -6.7810718 ], [ 39.2457123, -6.7810069 ], [ 39.2459758, -6.7809677 ], [ 39.2462419, -6.7809545 ], [ 39.246508, -6.7809674 ], [ 39.2467716, -6.7810064 ], [ 39.2470301, -6.781071 ], [ 39.247281, -6.7811606 ], [ 39.2475219, -6.7812743 ], [ 39.2477505, -6.7814111 ], [ 39.2479645, -6.7815696 ], [ 39.248162, -6.7817484 ], [ 39.248341, -6.7819456 ], [ 39.2484999, -6.7821594 ], [ 39.248637, -6.7823878 ], [ 39.248751, -6.7826285 ], [ 39.2488409, -6.7828792 ], [ 39.2489057, -6.7831375 ], [ 39.248945, -6.7834009 ], [ 39.2489582, -6.7836669 ], [ 39.2489452, -6.7839329 ], [ 39.2489063, -6.7841964 ] ] ] } }
]
}
