{
"type": "FeatureCollection",
"features": [
{ "type": "Feature", "properties": { "index": "0", "label": "Within 255 m by wheelchair", "color": "#2b8cbe" }, "geometry": { "type": "MultiPolygon", "coordinates": [ [ [ [ 39.294422, -6.813948 ], [ 39.294646, -6.8139146 ], [ 39.2948657, -6.8138595 ], [ 39.2949109, -6.8138433 ], [ 39.2950862, -6.8138346 ], [ 39.2953102, -6.8138012 ], [ 39.2955299, -6.8137461 ], [ 39.2957431, -6.8136697 ], [ 39.2959477, -6.8135728 ], [ 39.2961419, -6.8134563 ], [ 39.2963237, -6.8133213 ], [ 39.2964914, -6.8131692 ], [ 39.2966434, -6.8130014 ], [ 39.2967782, -6.8128195 ], [ 39.2968945, -6.8126252 ], [ 39.2969912, -6.8124205 ], [ 39.2970674, -6.8122073 ], [ 39.2971223, -6.8119877 ], [ 39.2971554, -6.8117638 ], [ 39.2971664, -6.8115377 ], [ 39.2971551, -6.8113116 ], [ 39.2971218, -6.8110877 ], [ 39.2970896, -6.8109599 ], [ 39.2970847, -6.8109264 ], [ 39.2970295, -6.8107068 ], [ 39.2969531, -6.8104938 ], [ 39.2968561, -6.8102892 ], [ 39.2967396, -6.8100951 ], [ 39.2966045, -6.8099133 ], [ 39.2964523, -6.8097457 ], [ 39.2962844, -6.8095938 ], [ 39.2961025, -6.8094591 ], [ 39.2959081, -6.8093428 ], [ 39.2957033, -6.8092461 ], [ 39.2954901, -6.80917 ], [ 39.2952703, -6.8091151 ], [ 39.2950463, -6.8090821 ], [ 39.2948201, -6.8090711 ], [ 39.2945939, -6.8090823 ], [ 39.2943699, -6.8091157 ], [ 39.2941502, -6.8091708 ], [ 39.2939371, -6.8092472 ], [ 39.2938065, -6.809309 ], [ 39.2936224, -6.8093552 ], [ 39.2934093, -6.8094316 ], [ 39.2932046, -6.8095285 ], [ 39.2930104, -6.809645 ], [ 39.2928286, -6.80978 ], [ 39.2926609, -6.8099321 ], [ 39.2926597, -6.8099334 ], [ 39.2925616, -6.8100224 ], [ 39.2924096, -6.8101902 ], [ 39.2922748, -6.8103721 ], [ 39.2921585, -6.8105664 ], [ 39.2920618, -6.8107711 ], [ 39.2919856, -6.8109842 ], [ 39.2919307, -6.8112039 ], [ 39.2918976, -6.8114278 ], [ 39.2918866, -6.8116539 ], [ 39.2918979, -6.81188 ], [ 39.2919312, -6.8121039 ], [ 39.2919864, -6.8123234 ], [ 39.2920628, -6.8125365 ], [ 39.2921598, -6.8127411 ], [ 39.2922763, -6.8129352 ], [ 39.2924114, -6.8131169 ], [ 39.2925635, -6.8132846 ], [ 39.2927314, -6.8134365 ], [ 39.2929134, -6.8135712 ], [ 39.2931078, -6.8136875 ], [ 39.2933125, -6.8137842 ], [ 39.2935258, -6.8138603 ], [ 39.2937456, -6.8139152 ], [ 39.2939696, -6.8139482 ], [ 39.2941958, -6.8139592 ], [ 39.294422, -6.813948 ] ] ], [ [ [ 39.248279, -6.7847546 ], [ 39.2483757, -6.78455 ], [ 39.2484519, -6.7843368 ], [ 39.2485068, -6.7841172 ], [ 39.24854, -6.7838932 ], [ 39.2485509, -6.7836671 ], [ 39.2485397, -6.783441 ], [ 39.2485064, -6.7832171 ], [ 39.2484512, -6.7829976 ], [ 39.2483748, -6.7827845 ], [ 39.2482779, -6.7825799 ], [ 39.2481614, -6.7823858 ], [ 39.2480264, -6.782204 ], [ 39.2478742, -6.7820364 ], [ 39.2477063, -6.7818844 ], [ 39.2475244, -6.7817497 ], [ 39.2473301, -6.7816334 ], [ 39.2471253, -6.7815367 ], [ 39.2469121, -6.7814606 ], [ 39.2466923, -6.7814057 ], [ 39.2464683, -6.7813726 ], [ 39.2462421, -6.7813616 ], [ 39.2460159, -6.7813728 ], [ 39.245792, -6.7814061 ], [ 39.2455723, -6.7814612 ], [ 39.2453591, -6.7815376 ], [ 39.2451545, -6.7816345 ], [ 39.2449603, -6.781751 ], [ 39.2447784, -6.7818859 ], [ 39.2446107, -6.782038 ], [ 39.2444587, -6.7822058 ], [ 39.2443239, -6.7823877 ], [ 39.2442076, -6.7825819 ], [ 39.2441109, -6.7827866 ], [ 39.2440347, -6.7829998 ], [ 39.2439798, -6.7832194 ], [ 39.2439467, -6.7834434 ], [ 39.2439357, -6.7836695 ], [ 39.2439469, -6.7838956 ], [ 39.2439802, -6.7841195 ], [ 39.2440354, -6.784339 ], [ 39.2441118, -6.7845521 ], [ 39.2442087, -6.7847567 ], [ 39.2443252, -6.7849508 ], [ 39.2444602, -6.7851326 ], [ 39.2446124, -6.7853002 ], [ 39.2447802, -6.7854522 ], [ 39.2449622, -6.7855869 ], [ 39.2451565, -6.7857032 ], [ 39.2453613, -6.7857999 ], [ 39.2455745, -6.785876 ], [ 39.2457942, -6.7859309 ], [ 39.2460183, -6.785964 ], [ 39.2462445, -6.785975 ], [ 39.2464707, -6.7859638 ], [ 39.2466947, -6.7859305 ], [ 39.2469143, -6.7858754 ], [ 39.2471275, -6.785799 ], [ 39.2473322, -6.7857021 ], [ 39.2475263, -6.7855856 ], [ 39.2477082, -6.7854507 ], [ 39.2478759, -6.7852986 ], [ 39.2480279, -6.7851308 ], [ 39.2481627, -6.7849489 ], [ 39.248279, -6.7847546 ] ] ] ] } },
{ "type": "Feature", "properties": { "index": "1", "label": "Beyond 255 m", "color": "#d9d9d9" }, "geometry": { "type": "Polygon", "coordinates": [ [ [ 39.22, -6.78 ], [ 39.22, -6.85 ], [ 39.3, -6.85 ], [ 39.3, -6.78 ], [ 39.22, -6.78 ] ], [ [ 39.2949109, -6.8138433 ], [ 39.2948657, -6.8138595 ], [ 39.294646, -6.8139146 ], [ 39.294422, -6.813948 ], [ 39.2941958, -6.8139592 ], [ 39.2939696, -6.8139482 ], [ 39.2937456, -6.8139152 ], [ 39.2935258, -6.8138603 ], [ 39.2933125, -6.8137842 ], [ 39.2931078, -6.8136875 ], [ 39.2929134, -6.8135712 ], [ 39.2927314, -6.8134365 ], [ 39.2925635, -6.8132846 ], [ 39.2924114, -6.8131169 ], [ 39.2922763, -6.8129352 ], [ 39.2921598, -6.8127411 ], [ 39.2920628, -6.8125365 ], [ 39.2919864, -6.8123234 ], [ 39.2919312, -6.8121039 ], [ 39.2918979, -6.81188 ], [ 39.2918866, -6.8116539 ], [ 39.2918976, -6.8114278 ], [ 39.2919307, -6.8112039 ], [ 39.2919856, -6.8109842 ], [ 39.2920618, -6.8107711 ], [ 39.2921585, -6.8105664 ], [ 39.2922748, -6.8103721 ], [ 39.2924096, -6.8101902 ], [ 39.2925616, -6.8100224 ], [ 39.2926597, -6.8099334 ], [ 39.2926609, -6.8099321 ], [ 39.2928286, -6.80978 ], [ 39.2930104, -6.809645 ], [ 39.2932046, -6.8095285 ], [ 39.2934093, -6.8094316 ], [ 39.2936224, -6.8093552 ], [ 39.2938065, -6.809309 ], [ 39.2939371, -6.8092472 ], [ 39.2941502, -6.8091708 ], [ 39.2943699, -6.8091157 ], [ 39.2945939, -6.8090823 ], [ 39.2948201, -6.8090711 ], [ 39.2950463, -6.8090821 ], [ 39.2952703, -6.8091151 ], [ 39.2954901, -6.80917 ], [ 39.2957033, -6.8092461 ], [ 39.2959081, -6.8093428 ], [ 39.2961025, -6.8094591 ], [ 39.2962844, -6.8095938 ], [ 39.2964523, -6.8097457 ], [ 39.2966045, -6.8099133 ], [ 39.2967396, -6.8100951 ], [ 39.2968561, -6.8102892 ], [ 39.2969531, -6.8104938 ], [ 39.2970295, -6.8107068 ], [ 39.2970847, -6.8109264 ], [ 39.2970896, -6.8109599 ], [ 39.2971218, -6.8110877 ], [ 39.2971551, -6.8113116 ], [ 39.2971664, -6.8115377 ], [ 39.2971554, -6.8117638 ], [ 39.2971223, -6.8119877 ], [ 39.2970674, -6.8122073 ], [ 39.2969912, -6.8124205 ], [ 39.2968945, -6.8126252 ], [ 39.2967782, -6.8128195 ], [ 39.2966434, -6.8130014 ], [ 39.2964914, -6.8131692 ], [ 39.2963237, -6.8133213 ], [ 39.2961419, -6.8134563 ], [ 39.2959477, -6.8135728 ], [ 39.2957431, -6.8136697 ], [ 39.2955299, -6.8137461 ], [ 39.2953102, -6.8138012 ], [ 39.2950862, -6.8138346 ], [ 39.2949109, -6.8138433 ] ], [ [ 39.2485068, -6.7841172 ], [ 39.2484519, -6.7843368 ], [ 39.2483757, -6.78455 ], [ 39.248279, -6.7847546 ], [ 39.2481627, -6.7849489 ], [ 39.2480279, -6.7851308 ], [ 39.2478759, -6.7852986 ], [ 39.2477082, -6.7854507 ], [ 39.2475263, -6.7855856 ], [ 39.2473322, -6.7857021 ], [ 39.2471275, -6.785799 ], [ 39.2469143, -6.7858754 ], [ 39.2466947, -6.7859305 ], [ 39.2464707, -6.7859638 ], [ 39.2462445, -6.785975 ], [ 39.2460183, -6.785964 ], [ 39.2457942, -6.7859309 ], [ 39.2455745, -6.785876 ], [ 39.2453613, -6.7857999 ], [ 39.2451565, -6.7857032 ], [ 39.2449622, -6.7855869 ], [ 39.2447802, -6.7854522 ], [ 39.2446124, -6.7853002 ], [ 39.2444602, -6.7851326 ], [ 39.2443252, -6.7849508 ], [ 39.2442087, -6.7847567 ], [ 39.2441118, -6.7845521 ], [ 39.2440354, -6.784339 ], [ 39.2439802, -6.7841195 ], [ 39.2439469, -6.7838956 ], [ 39.2439357, -6.7836695 ], [ 39.2439467, -6.7834434 ], [ 39.2439798, -6.7832194 ], [ 39.2440347, -6.7829998 ], [ 39.2441109, -6.7827866 ], [ 39.2442076, -6.7825819 ], [ 39.2443239, -6.7823877 ], [ 39.2444587, -6.7822058 ], [ 39.2446107, -6.782038 ], [ 39.2447784, -6.7818859 ], [ 39.2449603, -6.781751 ], [ 39.2451545, -6.7816345 ], [ 39.2453591, -6.7815376 ], [ 39.2455723, -6.7814612 ], [ 39.245792, -6.7814061 ], [ 39.2460159, -6.7813728 ], [ 39.2462421, -6.7813616 ], [ 39.2464683, -6.7813726 ], [ 39.2466923, -6.7814057 ], [ 39.2469121, -6.7814606 ], [ 39.2471253, -6.7815367 ], [ 39.2473301, -6.7816334 ], [ 39.2475244, -6.7817497 ], [ 39.2477063, -6.7818844 ], [ 39.2478742, -6.7820364 ], [ 39.2480264, -6.782204 ], [ 39.2481614, -6.7823858 ], [ 39.2482779, -6.7825799 ], [ 39.2483748, -6.7827845 ], [ 39.2484512, -6.7829976 ], [ 39.2485064, -6.7832171 ], [ 39.2485397, -6.783441 ], [ 39.2485509, -6.7836671 ], [ 39.24854, -6.7838932 ], [ 39.2485068, -6.7841172 ] ] ] } }
]
}
