{
"type": "FeatureCollection",
"features": [
{ "type": "Feature", "properties": { "index": "0", "label": "Within 1500 m by bike", "color": "#2b8cbe" }, "geometry": { "type": "Polygon", "coordinates": [ [ [ 8.6615694, 49.4176797 ], [ 8.6602133, 49.4166946 ], [ 8.66, 49.4165053 ], [ 8.66, 49.398 ], [ 8.7103926, 49.3980021 ], [ 8.7115761, 49.3985796 ], [ 8.7117956, 49.3987104 ], [ 8.7125755, 49.3987373 ], [ 8.7145812, 49.3989366 ], [ 8.7165473, 49.3992631 ], [ 8.7184549, 49.3997139 ], [ 8.72, 49.4001954 ], [ 8.72, 49.422 ], [ 8.6731106, 49.4220027 ], [ 8.6726077, 49.4214499 ], [ 8.6721339, 49.4214027 ], [ 8.6701672, 49.4210754 ], [ 8.6682591, 49.4206239 ], [ 8.6664282, 49.4200525 ], [ 8.6646919, 49.4193667 ], [ 8.6630671, 49.4185733 ], [ 8.6615694, 49.4176797 ] ] ] } },
{ "type": "Feature", "properties": { "index": "1", "label": "Beyond 1500 m", "color": "#d9d9d9" }, "geometry": { "type": "MultiPolygon", "coordinates": [ [ [ [ 8.7117956, 49.3987104 ], [ 8.7115761, 49.3985796 ], [ 8.7103926, 49.3980021 ], [ 8.72, 49.398 ], [ 8.72, 49.4001954 ], [ 8.7184549, 49.3997139 ], [ 8.7165473, 49.3992631 ], [ 8.7145812, 49.3989366 ], [ 8.7125755, 49.3987373 ], [ 8.7117956, 49.3987104 ] ] ], [ [ [ 8.6701672, 49.4210754 ], [ 8.6721339, 49.4214027 ], [ 8.6726077, 49.4214499 ], [ 8.6731106, 49.4220027 ], [ 8.66, 49.422 ], [ 8.66, 49.4165053 ], [ 8.6602133, 49.4166946 ], [ 8.6615694, 49.4176797 ], [ 8.6630671, 49.4185733 ], [ 8.6646919, 49.4193667 ], [ 8.6664282, 49.4200525 ], [ 8.6682591, 49.4206239 ], [ 8.6701672, 49.4210754 ] ] ] ] } }
]
}
