{
"type": "FeatureCollection",
"features": [
{ "type": "Feature", "properties": { "index": "0", "label": "Within 300 m on foot", "color": "#2b8cbe" }, "geometry": { "type": "MultiPolygon", "coordinates": [ [ [ [ 8.6697619, 49.4017038 ], [ 8.669897, 49.4019535 ], [ 8.6699938, 49.4022107 ], [ 8.6700516, 49.4024728 ], [ 8.6700698, 49.4027374 ], [ 8.6700481, 49.4030018 ], [ 8.6699868, 49.4032636 ], [ 8.6698865, 49.4035202 ], [ 8.6697481, 49.4037691 ], [ 8.669573, 49.404008 ], [ 8.6693628, 49.4042346 ], [ 8.6691197, 49.4044466 ], [ 8.6688458, 49.404642 ], [ 8.6685439, 49.404819 ], [ 8.6682169, 49.4049758 ], [ 8.667868, 49.4051109 ], [ 8.6675003, 49.4052231 ], [ 8.6671177, 49.4053112 ], [ 8.6667236, 49.4053744 ], [ 8.6663219, 49.4054121 ], [ 8.6659165, 49.4054239 ], [ 8.6655113, 49.4054098 ], [ 8.6651101, 49.4053698 ], [ 8.6647169, 49.4053043 ], [ 8.6643354, 49.405214 ], [ 8.6639694, 49.4050997 ], [ 8.6636222, 49.4049625 ], [ 8.6632974, 49.4048038 ], [ 8.6629979, 49.4046251 ], [ 8.6627267, 49.4044281 ], [ 8.6624864, 49.4042147 ], [ 8.6622794, 49.4039869 ], [ 8.6621075, 49.4037471 ], [ 8.6619725, 49.4034973 ], [ 8.6618757, 49.4032402 ], [ 8.6618179, 49.402978 ], [ 8.6617998, 49.4027135 ], [ 8.6618216, 49.402449 ], [ 8.6618829, 49.4021873 ], [ 8.6619833, 49.4019307 ], [ 8.6621217, 49.4016817 ], [ 8.6622968, 49.4014429 ], [ 8.662507, 49.4012163 ], [ 8.6627502, 49.4010043 ], [ 8.663024, 49.4008089 ], [ 8.6633259, 49.400632 ], [ 8.6636529, 49.4004752 ], [ 8.6640018, 49.40034 ], [ 8.6643694, 49.4002279 ], [ 8.6647521, 49.4001398 ], [ 8.6651461, 49.4000766 ], [ 8.6655477, 49.4000389 ], [ 8.6659531, 49.400027 ], [ 8.6663583, 49.4000412 ], [ 8.6667594, 49.4000812 ], [ 8.6671526, 49.4001467 ], [ 8.667534, 49.400237 ], [ 8.6679001, 49.4003513 ], [ 8.6682472, 49.4004884 ], [ 8.668572, 49.4006471 ], [ 8.6688715, 49.4008258 ], [ 8.6691427, 49.4010228 ], [ 8.669383, 49.4012362 ], [ 8.66959, 49.4014639 ], [ 8.6697619, 49.4017038 ] ] ], [ [ [ 8.6911488, 49.4019328 ], [ 8.6913208, 49.4021726 ], [ 8.691456, 49.4024223 ], [ 8.6915529, 49.4026794 ], [ 8.6916108, 49.4029416 ], [ 8.6916291, 49.4032061 ], [ 8.6916075, 49.4034705 ], [ 8.6915464, 49.4037323 ], [ 8.6914461, 49.4039889 ], [ 8.6913079, 49.4042379 ], [ 8.6911329, 49.4044768 ], [ 8.6909228, 49.4047034 ], [ 8.6906797, 49.4049155 ], [ 8.690406, 49.405111 ], [ 8.6901042, 49.405288 ], [ 8.6897772, 49.4054449 ], [ 8.6894283, 49.4055801 ], [ 8.6890608, 49.4056923 ], [ 8.6886781, 49.4057805 ], [ 8.688284, 49.4058438 ], [ 8.6878824, 49.4058816 ], [ 8.687477, 49.4058935 ], [ 8.6870717, 49.4058794 ], [ 8.6866706, 49.4058394 ], [ 8.6862773, 49.405774 ], [ 8.6858958, 49.4056838 ], [ 8.6855297, 49.4055695 ], [ 8.6851825, 49.4054325 ], [ 8.6848575, 49.4052738 ], [ 8.684558, 49.4050952 ], [ 8.6842867, 49.4048982 ], [ 8.6840464, 49.4046848 ], [ 8.6838392, 49.4044571 ], [ 8.6836672, 49.4042173 ], [ 8.6835321, 49.4039676 ], [ 8.6834352, 49.4037104 ], [ 8.6833773, 49.4034483 ], [ 8.6833591, 49.4031838 ], [ 8.6833807, 49.4029193 ], [ 8.6834419, 49.4026575 ], [ 8.6835422, 49.4024009 ], [ 8.6836805, 49.402152 ], [ 8.6838555, 49.401913 ], [ 8.6840656, 49.4016865 ], [ 8.6843087, 49.4014744 ], [ 8.6845824, 49.401279 ], [ 8.6848842, 49.4011019 ], [ 8.6852112, 49.4009451 ], [ 8.6855601, 49.4008099 ], [ 8.6859276, 49.4006977 ], [ 8.6863102, 49.4006095 ], [ 8.6867042, 49.4005462 ], [ 8.6871059, 49.4005084 ], [ 8.6875112, 49.4004965 ], [ 8.6879164, 49.4005106 ], [ 8.6883175, 49.4005506 ], [ 8.6887108, 49.400616 ], [ 8.6890922, 49.4007062 ], [ 8.6894583, 49.4008204 ], [ 8.6898055, 49.4009575 ], [ 8.6901304, 49.4011161 ], [ 8.69043, 49.4012948 ], [ 8.6907013, 49.4014917 ], [ 8.6909416, 49.4017051 ], [ 8.6911488, 49.4019328 ] ] ], [ [ [ 8.6799113, 49.4069192 ], [ 8.6800832, 49.4071591 ], [ 8.6802183, 49.4074088 ], [ 8.6803153, 49.4076659 ], [ 8.6803731, 49.4079281 ], [ 8.6803913, 49.4081926 ], [ 8.6803697, 49.408457 ], [ 8.6803084, 49.4087188 ], [ 8.6802082, 49.4089754 ], [ 8.6800698, 49.4092244 ], [ 8.6798947, 49.4094633 ], [ 8.6796846, 49.4096899 ], [ 8.6794415, 49.4099019 ], [ 8.6791676, 49.4100973 ], [ 8.6788658, 49.4102743 ], [ 8.6785388, 49.4104312 ], [ 8.6781898, 49.4105664 ], [ 8.6778221, 49.4106786 ], [ 8.6774394, 49.4107667 ], [ 8.6770453, 49.41083 ], [ 8.6766436, 49.4108677 ], [ 8.6762382, 49.4108795 ], [ 8.6758329, 49.4108654 ], [ 8.6754317, 49.4108254 ], [ 8.6750384, 49.41076 ], [ 8.6746569, 49.4106697 ], [ 8.6742907, 49.4105554 ], [ 8.6739435, 49.4104183 ], [ 8.6736186, 49.4102597 ], [ 8.6733191, 49.410081 ], [ 8.6730478, 49.409884 ], [ 8.6728075, 49.4096706 ], [ 8.6726003, 49.4094429 ], [ 8.6724284, 49.409203 ], [ 8.6722933, 49.4089533 ], [ 8.6721964, 49.4086961 ], [ 8.6721386, 49.408434 ], [ 8.6721205, 49.4081694 ], [ 8.6721422, 49.407905 ], [ 8.6722035, 49.4076432 ], [ 8.6723038, 49.4073866 ], [ 8.6724421, 49.4071377 ], [ 8.6726172, 49.4068988 ], [ 8.6728274, 49.4066722 ], [ 8.6730705, 49.4064602 ], [ 8.6733444, 49.4062648 ], [ 8.6736462, 49.4060878 ], [ 8.6739732, 49.405931 ], [ 8.6743222, 49.4057958 ], [ 8.6746898, 49.4056836 ], [ 8.6750725, 49.4055955 ], [ 8.6754666, 49.4055322 ], [ 8.6758682, 49.4054945 ], [ 8.6762736, 49.4054826 ], [ 8.6766789, 49.4054968 ], [ 8.67708, 49.4055368 ], [ 8.6774733, 49.4056022 ], [ 8.6778548, 49.4056925 ], [ 8.6782209, 49.4058067 ], [ 8.6785681, 49.4059438 ], [ 8.678893, 49.4061025 ], [ 8.6791925, 49.4062812 ], [ 8.6794638, 49.4064781 ], [ 8.6797041, 49.4066915 ], [ 8.6799113, 49.4069192 ] ] ], [ [ [ 8.7022243, 49.407953 ], [ 8.7023596, 49.4082027 ], [ 8.7024566, 49.4084599 ], [ 8.7025146, 49.408722 ], [ 8.7025329, 49.4089865 ], [ 8.7025114, 49.409251 ], [ 8.7024502, 49.4095128 ], [ 8.7023501, 49.4097694 ], [ 8.7022118, 49.4100184 ], [ 8.7020369, 49.4102573 ], [ 8.7018269, 49.4104839 ], [ 8.7015838, 49.410696 ], [ 8.7013101, 49.4108915 ], [ 8.7010083, 49.4110685 ], [ 8.7006813, 49.4112255 ], [ 8.7003324, 49.4113607 ], [ 8.6999648, 49.411473 ], [ 8.6995821, 49.4115612 ], [ 8.699188, 49.4116245 ], [ 8.6987863, 49.4116623 ], [ 8.6983809, 49.4116743 ], [ 8.6979756, 49.4116602 ], [ 8.6975743, 49.4116203 ], [ 8.697181, 49.4115549 ], [ 8.6967995, 49.4114647 ], [ 8.6964333, 49.4113505 ], [ 8.696086, 49.4112135 ], [ 8.695761, 49.4110549 ], [ 8.6954614, 49.4108762 ], [ 8.69519, 49.4106793 ], [ 8.6949496, 49.410466 ], [ 8.6947423, 49.4102383 ], [ 8.6945703, 49.4099984 ], [ 8.6944351, 49.4097487 ], [ 8.6943381, 49.4094916 ], [ 8.6942802, 49.4092295 ], [ 8.6942619, 49.4089649 ], [ 8.6942835, 49.4087005 ], [ 8.6943446, 49.4084387 ], [ 8.6944448, 49.4081821 ], [ 8.6945831, 49.4079331 ], [ 8.6947581, 49.4076942 ], [ 8.6949682, 49.4074676 ], [ 8.6952112, 49.4072555 ], [ 8.695485, 49.40706 ], [ 8.6957868, 49.406883 ], [ 8.6961137, 49.4067261 ], [ 8.6964626, 49.4065909 ], [ 8.6968302, 49.4064786 ], [ 8.6972128, 49.4063904 ], [ 8.6976069, 49.4063271 ], [ 8.6980085, 49.4062893 ], [ 8.6984139, 49.4062773 ], [ 8.6988192, 49.4062914 ], [ 8.6992204, 49.4063313 ], [ 8.6996136, 49.4063967 ], [ 8.6999952, 49.4064869 ], [ 8.7003613, 49.406601 ], [ 8.7007086, 49.4067381 ], [ 8.7010336, 49.4068967 ], [ 8.7013332, 49.4070753 ], [ 8.7016046, 49.4072722 ], [ 8.701845, 49.4074855 ], [ 8.7020523, 49.4077132 ], [ 8.7022243, 49.407953 ] ] ], [ [ [ 8.714125, 49.4108966 ], [ 8.7142971, 49.4111364 ], [ 8.7144324, 49.4113861 ], [ 8.7145295, 49.4116432 ], [ 8.7145876, 49.4119053 ], [ 8.714606, 49.4121699 ], [ 8.7145845, 49.4124343 ], [ 8.7145234, 49.4126961 ], [ 8.7144233, 49.4129528 ], [ 8.7142852, 49.4132018 ], [ 8.7141102, 49.4134407 ], [ 8.7139002, 49.4136673 ], [ 8.7136572, 49.4138794 ], [ 8.7133835, 49.414075 ], [ 8.7130817, 49.4142521 ], [ 8.7127548, 49.414409 ], [ 8.7124059, 49.4145443 ], [ 8.7120383, 49.4146566 ], [ 8.7116556, 49.4147449 ], [ 8.7112615, 49.4148082 ], [ 8.7108598, 49.4148461 ], [ 8.7104543, 49.4148581 ], [ 8.710049, 49.414844 ], [ 8.7096477, 49.4148042 ], [ 8.7092544, 49.4147388 ], [ 8.7088728, 49.4146487 ], [ 8.7085065, 49.4145345 ], [ 8.7081592, 49.4143975 ], [ 8.7078341, 49.4142389 ], [ 8.7075344, 49.4140603 ], [ 8.707263, 49.4138634 ], [ 8.7070225, 49.4136501 ], [ 8.7068152, 49.4134225 ], [ 8.7066431, 49.4131826 ], [ 8.7065079, 49.4129329 ], [ 8.7064108, 49.4126758 ], [ 8.7063528, 49.4124137 ], [ 8.7063344, 49.4121492 ], [ 8.7063559, 49.4118847 ], [ 8.706417, 49.4116229 ], [ 8.7065172, 49.4113663 ], [ 8.7066554, 49.4111173 ], [ 8.7068304, 49.4108784 ], [ 8.7070404, 49.4106518 ], [ 8.7072834, 49.4104397 ], [ 8.7075571, 49.4102441 ], [ 8.7078589, 49.4100671 ], [ 8.7081858, 49.4099101 ], [ 8.7085347, 49.4097749 ], [ 8.7089023, 49.4096626 ], [ 8.7092849, 49.4095743 ], [ 8.709679, 49.409511 ], [ 8.7100806, 49.4094731 ], [ 8.7104861, 49.4094611 ], [ 8.7108913, 49.4094752 ], [ 8.7112926, 49.409515 ], [ 8.7116859, 49.4095803 ], [ 8.7120675, 49.4096705 ], [ 8.7124337, 49.4097846 ], [ 8.712781, 49.4099216 ], [ 8.7131061, 49.4100802 ], [ 8.7134057, 49.4102588 ], [ 8.7136771, 49.4104557 ], [ 8.7139177, 49.410669 ], [ 8.714125, 49.4108966 ] ] ], [ [ [ 8.6941315, 49.4134248 ], [ 8.6943035, 49.4136646 ], [ 8.6944387, 49.4139143 ], [ 8.6945358, 49.4141714 ], [ 8.6945937, 49.4144335 ], [ 8.694612, 49.4146981 ], [ 8.6945904, 49.4149625 ], [ 8.6945292, 49.4152243 ], [ 8.694429, 49.4154809 ], [ 8.6942907, 49.4157299 ], [ 8.6941157, 49.4159688 ], [ 8.6939056, 49.4161954 ], [ 8.6936625, 49.4164075 ], [ 8.6933887, 49.416603 ], [ 8.6930868, 49.41678 ], [ 8.6927598, 49.4169369 ], [ 8.6924108, 49.4170721 ], [ 8.6920432, 49.4171844 ], [ 8.6916604, 49.4172726 ], [ 8.6912663, 49.4173359 ], [ 8.6908645, 49.4173736 ], [ 8.690459, 49.4173856 ], [ 8.6900537, 49.4173715 ], [ 8.6896524, 49.4173315 ], [ 8.6892591, 49.4172661 ], [ 8.6888775, 49.4171759 ], [ 8.6885113, 49.4170617 ], [ 8.688164, 49.4169246 ], [ 8.6878389, 49.416766 ], [ 8.6875393, 49.4165873 ], [ 8.687268, 49.4163904 ], [ 8.6870275, 49.416177 ], [ 8.6868203, 49.4159493 ], [ 8.6866483, 49.4157095 ], [ 8.6865131, 49.4154598 ], [ 8.6864162, 49.4152026 ], [ 8.6863583, 49.4149405 ], [ 8.68634, 49.414676 ], [ 8.6863616, 49.4144115 ], [ 8.6864229, 49.4141497 ], [ 8.6865231, 49.4138931 ], [ 8.6866614, 49.4136442 ], [ 8.6868365, 49.4134052 ], [ 8.6870466, 49.4131787 ], [ 8.6872897, 49.4129666 ], [ 8.6875635, 49.4127711 ], [ 8.6878654, 49.4125941 ], [ 8.6881924, 49.4124372 ], [ 8.6885414, 49.412302 ], [ 8.688909, 49.4121898 ], [ 8.6892917, 49.4121016 ], [ 8.6896858, 49.4120383 ], [ 8.6900875, 49.4120006 ], [ 8.690493, 49.4119886 ], [ 8.6908983, 49.4120027 ], [ 8.6912995, 49.4120427 ], [ 8.6916928, 49.4121081 ], [ 8.6920744, 49.4121983 ], [ 8.6924406, 49.4123125 ], [ 8.6927878, 49.4124495 ], [ 8.6931128, 49.4126082 ], [ 8.6934125, 49.4127868 ], [ 8.6936838, 49.4129837 ], [ 8.6939243, 49.4131971 ], [ 8.6941315, 49.4134248 ] ] ] ] } },
{ "type": "Feature", "properties": { "index": "1", "label": "Beyond 300 m", "color": "#d9d9d9" }, "geometry": { "type": "Polygon", "coordinates": [ [ [ 8.66, 49.422 ], [ 8.66, 49.398 ], [ 8.72, 49.398 ], [ 8.72, 49.422 ], [ 8.66, 49.422 ] ], [ [ 8.6700516, 49.4024728 ], [ 8.6699938, 49.4022107 ], [ 8.669897, 49.4019535 ], [ 8.6697619, 49.4017038 ], [ 8.66959, 49.4014639 ], [ 8.669383, 49.4012362 ], [ 8.6691427, 49.4010228 ], [ 8.6688715, 49.4008258 ], [ 8.668572, 49.4006471 ], [ 8.6682472, 49.4004884 ], [ 8.6679001, 49.4003513 ], [ 8.667534, 49.400237 ], [ 8.6671526, 49.4001467 ], [ 8.6667594, 49.4000812 ], [ 8.6663583, 49.4000412 ], [ 8.6659531, 49.400027 ], [ 8.6655477, 49.4000389 ], [ 8.6651461, 49.4000766 ], [ 8.6647521, 49.4001398 ], [ 8.6643694, 49.4002279 ], [ 8.6640018, 49.40034 ], [ 8.6636529, 49.4004752 ], [ 8.6633259, 49.400632 ], [ 8.663024, 49.4008089 ], [ 8.6627502, 49.4010043 ], [ 8.662507, 49.4012163 ], [ 8.6622968, 49.4014429 ], [ 8.6621217, 49.4016817 ], [ 8.6619833, 49.4019307 ], [ 8.6618829, 49.4021873 ], [ 8.6618216, 49.402449 ], [ 8.6617998, 49.4027135 ], [ 8.6618179, 49.402978 ], [ 8.6618757, 49.4032402 ], [ 8.6619725, 49.4034973 ], [ 8.6621075, 49.4037471 ], [ 8.6622794, 49.4039869 ], [ 8.6624864, 49.4042147 ], [ 8.6627267, 49.4044281 ], [ 8.6629979, 49.4046251 ], [ 8.6632974, 49.4048038 ], [ 8.6636222, 49.4049625 ], [ 8.6639694, 49.4050997 ], [ 8.6643354, 49.405214 ], [ 8.6647169, 49.4053043 ], [ 8.6651101, 49.4053698 ], [ 8.6655113, 49.4054098 ], [ 8.6659165, 49.4054239 ], [ 8.6663219, 49.4054121 ], [ 8.6667236, 49.4053744 ], [ 8.6671177, 49.4053112 ], [ 8.6675003, 49.4052231 ], [ 8.667868, 49.4051109 ], [ 8.6682169, 49.4049758 ], [ 8.6685439, 49.404819 ], [ 8.6688458, 49.404642 ], [ 8.6691197, 49.4044466 ], [ 8.6693628, 49.4042346 ], [ 8.669573, 49.404008 ], [ 8.6697481, 49.4037691 ], [ 8.6698865, 49.4035202 ], [ 8.6699868, 49.4032636 ], [ 8.6700481, 49.4030018 ], [ 8.6700698, 49.4027374 ], [ 8.6700516, 49.4024728 ] ], [ [ 8.6915529, 49.4026794 ], [ 8.691456, 49.4024223 ], [ 8.6913208, 49.4021726 ], [ 8.6911488, 49.4019328 ], [ 8.6909416, 49.4017051 ], [ 8.6907013, 49.4014917 ], [ 8.69043, 49.4012948 ], [ 8.6901304, 49.4011161 ], [ 8.6898055, 49.4009575 ], [ 8.6894583, 49.4008204 ], [ 8.6890922, 49.4007062 ], [ 8.6887108, 49.400616 ], [ 8.6883175, 49.4005506 ], [ 8.6879164, 49.4005106 ], [ 8.6875112, 49.4004965 ], [ 8.6871059, 49.4005084 ], [ 8.6867042, 49.4005462 ], [ 8.6863102, 49.4006095 ], [ 8.6859276, 49.4006977 ], [ 8.6855601, 49.4008099 ], [ 8.6852112, 49.4009451 ], [ 8.6848842, 49.4011019 ], [ 8.6845824, 49.401279 ], [ 8.6843087, 49.4014744 ], [ 8.6840656, 49.4016865 ], [ 8.6838555, 49.401913 ], [ 8.6836805, 49.402152 ], [ 8.6835422, 49.4024009 ], [ 8.6834419, 49.4026575 ], [ 8.6833807, 49.4029193 ], [ 8.6833591, 49.4031838 ], [ 8.6833773, 49.4034483 ], [ 8.6834352, 49.4037104 ], [ 8.6835321, 49.4039676 ], [ 8.6836672, 49.4042173 ], [ 8.6838392, 49.4044571 ], [ 8.6840464, 49.4046848 ], [ 8.6842867, 49.4048982 ], [ 8.684558, 49.4050952 ], [ 8.6848575, 49.4052738 ], [ 8.6851825, 49.4054325 ], [ 8.6855297, 49.4055695 ], [ 8.6858958, 49.4056838 ], [ 8.6862773, 49.405774 ], [ 8.6866706, 49.4058394 ], [ 8.6870717, 49.4058794 ], [ 8.687477, 49.4058935 ], [ 8.6878824, 49.4058816 ], [ 8.688284, 49.4058438 ], [ 8.6886781, 49.4057805 ], [ 8.6890608, 49.4056923 ], [ 8.6894283, 49.4055801 ], [ 8.6897772, 49.4054449 ], [ 8.6901042, 49.405288 ], [ 8.690406, 49.405111 ], [ 8.6906797, 49.4049155 ], [ 8.6909228, 49.4047034 ], [ 8.6911329, 49.4044768 ], [ 8.6913079, 49.4042379 ], [ 8.6914461, 49.4039889 ], [ 8.6915464, 49.4037323 ], [ 8.6916075, 49.4034705 ], [ 8.6916291, 49.4032061 ], [ 8.6916108, 49.4029416 ], [ 8.6915529, 49.4026794 ] ], [ [ 8.6803153, 49.4076659 ], [ 8.6802183, 49.4074088 ], [ 8.6800832, 49.4071591 ], [ 8.6799113, 49.4069192 ], [ 8.6797041, 49.4066915 ], [ 8.6794638, 49.4064781 ], [ 8.6791925, 49.4062812 ], [ 8.678893, 49.4061025 ], [ 8.6785681, 49.4059438 ], [ 8.6782209, 49.4058067 ], [ 8.6778548, 49.4056925 ], [ 8.6774733, 49.4056022 ], [ 8.67708, 49.4055368 ], [ 8.6766789, 49.4054968 ], [ 8.6762736, 49.4054826 ], [ 8.6758682, 49.4054945 ], [ 8.6754666, 49.4055322 ], [ 8.6750725, 49.4055955 ], [ 8.6746898, 49.4056836 ], [ 8.6743222, 49.4057958 ], [ 8.6739732, 49.405931 ], [ 8.6736462, 49.4060878 ], [ 8.6733444, 49.4062648 ], [ 8.6730705, 49.4064602 ], [ 8.6728274, 49.4066722 ], [ 8.6726172, 49.4068988 ], [ 8.6724421, 49.4071377 ], [ 8.6723038, 49.4073866 ], [ 8.6722035, 49.4076432 ], [ 8.6721422, 49.407905 ], [ 8.6721205, 49.4081694 ], [ 8.6721386, 49.408434 ], [ 8.6721964, 49.4086961 ], [ 8.6722933, 49.4089533 ], [ 8.6724284, 49.409203 ], [ 8.6726003, 49.4094429 ], [ 8.6728075, 49.4096706 ], [ 8.6730478, 49.409884 ], [ 8.6733191, 49.410081 ], [ 8.6736186, 49.4102597 ], [ 8.6739435, 49.4104183 ], [ 8.6742907, 49.4105554 ], [ 8.6746569, 49.4106697 ], [ 8.6750384, 49.41076 ], [ 8.6754317, 49.4108254 ], [ 8.6758329, 49.4108654 ], [ 8.6762382, 49.4108795 ], [ 8.6766436, 49.4108677 ], [ 8.6770453, 49.41083 ], [ 8.6774394, 49.4107667 ], [ 8.6778221, 49.4106786 ], [ 8.6781898, 49.4105664 ], [ 8.6785388, 49.4104312 ], [ 8.6788658, 49.4102743 ], [ 8.6791676, 49.4100973 ], [ 8.6794415, 49.4099019 ], [ 8.6796846, 49.4096899 ], [ 8.6798947, 49.4094633 ], [ 8.6800698, 49.4092244 ], [ 8.6802082, 49.4089754 ], [ 8.6803084, 49.4087188 ], [ 8.6803697, 49.408457 ], [ 8.6803913, 49.4081926 ], [ 8.6803731, 49.4079281 ], [ 8.6803153, 49.4076659 ] ], [ [ 8.7025146, 49.408722 ], [ 8.7024566, 49.4084599 ], [ 8.7023596, 49.4082027 ], [ 8.7022243, 49.407953 ], [ 8.7020523, 49.4077132 ], [ 8.701845, 49.4074855 ], [ 8.7016046, 49.4072722 ], [ 8.7013332, 49.4070753 ], [ 8.7010336, 49.4068967 ], [ 8.7007086, 49.4067381 ], [ 8.7003613, 49.406601 ], [ 8.6999952, 49.4064869 ], [ 8.6996136, 49.4063967 ], [ 8.6992204, 49.4063313 ], [ 8.6988192, 49.4062914 ], [ 8.6984139, 49.4062773 ], [ 8.6980085, 49.4062893 ], [ 8.6976069, 49.4063271 ], [ 8.6972128, 49.4063904 ], [ 8.6968302, 49.4064786 ], [ 8.6964626, 49.4065909 ], [ 8.6961137, 49.4067261 ], [ 8.6957868, 49.406883 ], [ 8.695485, 49.40706 ], [ 8.6952112, 49.4072555 ], [ 8.6949682, 49.4074676 ], [ 8.6947581, 49.4076942 ], [ 8.6945831, 49.4079331 ], [ 8.6944448, 49.4081821 ], [ 8.6943446, 49.4084387 ], [ 8.6942835, 49.4087005 ], [ 8.6942619, 49.4089649 ], [ 8.6942802, 49.4092295 ], [ 8.6943381, 49.4094916 ], [ 8.6944351, 49.4097487 ], [ 8.6945703, 49.4099984 ], [ 8.6947423, 49.4102383 ], [ 8.6949496, 49.410466 ], [ 8.69519, 49.4106793 ], [ 8.6954614, 49.4108762 ], [ 8.695761, 49.4110549 ], [ 8.696086, 49.4112135 ], [ 8.6964333, 49.4113505 ], [ 8.6967995, 49.4114647 ], [ 8.697181, 49.4115549 ], [ 8.6975743, 49.4116203 ], [ 8.6979756, 49.4116602 ], [ 8.6983809, 49.4116743 ], [ 8.6987863, 49.4116623 ], [ 8.699188, 49.4116245 ], [ 8.6995821, 49.4115612 ], [ 8.6999648, 49.411473 ], [ 8.7003324, 49.4113607 ], [ 8.7006813, 49.4112255 ], [ 8.7010083, 49.4110685 ], [ 8.7013101, 49.4108915 ], [ 8.7015838, 49.410696 ], [ 8.7018269, 49.4104839 ], [ 8.7020369, 49.4102573 ], [ 8.7022118, 49.4100184 ], [ 8.7023501, 49.4097694 ], [ 8.7024502, 49.4095128 ], [ 8.7025114, 49.409251 ], [ 8.7025329, 49.4089865 ], [ 8.7025146, 49.408722 ] ], [ [ 8.7145295, 49.4116432 ], [ 8.7144324, 49.4113861 ], [ 8.7142971, 49.4111364 ], [ 8.714125, 49.4108966 ], [ 8.7139177, 49.410669 ], [ 8.7136771, 49.4104557 ], [ 8.7134057, 49.4102588 ], [ 8.7131061, 49.4100802 ], [ 8.712781, 49.4099216 ], [ 8.7124337, 49.4097846 ], [ 8.7120675, 49.4096705 ], [ 8.7116859, 49.4095803 ], [ 8.7112926, 49.409515 ], [ 8.7108913, 49.4094752 ], [ 8.7104861, 49.4094611 ], [ 8.7100806, 49.4094731 ], [ 8.709679, 49.409511 ], [ 8.7092849, 49.4095743 ], [ 8.7089023, 49.4096626 ], [ 8.7085347, 49.4097749 ], [ 8.7081858, 49.4099101 ], [ 8.7078589, 49.4100671 ], [ 8.7075571, 49.4102441 ], [ 8.7072834, 49.4104397 ], [ 8.7070404, 49.4106518 ], [ 8.7068304, 49.4108784 ], [ 8.7066554, 49.4111173 ], [ 8.7065172, 49.4113663 ], [ 8.706417, 49.4116229 ], [ 8.7063559, 49.4118847 ], [ 8.7063344, 49.4121492 ], [ 8.7063528, 49.4124137 ], [ 8.7064108, 49.4126758 ], [ 8.7065079, 49.4129329 ], [ 8.7066431, 49.4131826 ], [ 8.7068152, 49.4134225 ], [ 8.7070225, 49.4136501 ], [ 8.707263, 49.4138634 ], [ 8.7075344, 49.4140603 ], [ 8.7078341, 49.4142389 ], [ 8.7081592, 49.4143975 ], [ 8.7085065, 49.4145345 ], [ 8.7088728, 49.4146487 ], [ 8.7092544, 49.4147388 ], [ 8.7096477, 49.4148042 ], [ 8.710049, 49.414844 ], [ 8.7104543, 49.4148581 ], [ 8.7108598, 49.4148461 ], [ 8.7112615, 49.4148082 ], [ 8.7116556, 49.4147449 ], [ 8.7120383, 49.4146566 ], [ 8.7124059, 49.4145443 ], [ 8.7127548, 49.414409 ], [ 8.7130817, 49.4142521 ], [ 8.7133835, 49.414075 ], [ 8.7136572, 49.4138794 ], [ 8.7139002, 49.4136673 ], [ 8.7141102, 49.4134407 ], [ 8.7142852, 49.4132018 ], [ 8.7144233, 49.4129528 ], [ 8.7145234, 49.4126961 ], [ 8.7145845, 49.4124343 ], [ 8.714606, 49.4121699 ], [ 8.7145876, 49.4119053 ], [ 8.7145295, 49.4116432 ] ], [ [ 8.6945358, 49.4141714 ], [ 8.6944387, 49.4139143 ], [ 8.6943035, 49.4136646 ], [ 8.6941315, 49.4134248 ], [ 8.6939243, 49.4131971 ], [ 8.6936838, 49.4129837 ], [ 8.6934125, 49.4127868 ], [ 8.6931128, 49.4126082 ], [ 8.6927878, 49.4124495 ], [ 8.6924406, 49.4123125 ], [ 8.6920744, 49.4121983 ], [ 8.6916928, 49.4121081 ], [ 8.6912995, 49.4120427 ], [ 8.6908983, 49.4120027 ], [ 8.690493, 49.4119886 ], [ 8.6900875, 49.4120006 ], [ 8.6896858, 49.4120383 ], [ 8.6892917, 49.4121016 ], [ 8.688909, 49.4121898 ], [ 8.6885414, 49.412302 ], [ 8.6881924, 49.4124372 ], [ 8.6878654, 49.4125941 ], [ 8.6875635, 49.4127711 ], [ 8.6872897, 49.4129666 ], [ 8.6870466, 49.4131787 ], [ 8.6868365, 49.4134052 ], [ 8.6866614, 49.4136442 ], [ 8.6865231, 49.4138931 ], [ 8.6864229, 49.4141497 ], [ 8.6863616, 49.4144115 ], [ 8.68634, 49.414676 ], [ 8.6863583, 49.4149405 ], [ 8.6864162, 49.4152026 ], [ 8.6865131, 49.4154598 ], [ 8.6866483, 49.4157095 ], [ 8.6868203, 49.4159493 ], [ 8.6870275, 49.416177 ], [ 8.687268, 49.4163904 ], [ 8.6875393, 49.4165873 ], [ 8.6878389, 49.416766 ], [ 8.688164, 49.4169246 ], [ 8.6885113, 49.4170617 ], [ 8.6888775, 49.4171759 ], [ 8.6892591, 49.4172661 ], [ 8.6896524, 49.4173315 ], [ 8.6900537, 49.4173715 ], [ 8.690459, 49.4173856 ], [ 8.6908645, 49.4173736 ], [ 8.6912663, 49.4173359 ], [ 8.6916604, 49.4172726 ], [ 8.6920432, 49.4171844 ], [ 8.6924108, 49.4170721 ], [ 8.6927598, 49.4169369 ], [ 8.6930868, 49.41678 ], [ 8.6933887, 49.416603 ], [ 8.6936625, 49.4164075 ], [ 8.6939056, 49.4161954 ], [ 8.6941157, 49.4159688 ], [ 8.6942907, 49.4157299 ], [ 8.694429, 49.4154809 ], [ 8.6945292, 49.4152243 ], [ 8.6945904, 49.4149625 ], [ 8.694612, 49.4146981 ], [ 8.6945937, 49.4144335 ], [ 8.6945358, 49.4141714 ] ] ] } }
]
}
