{
"type": "FeatureCollection",
"features": [
{ "type": "Feature", "properties": { "index": "0", "last_edit_year": 2026, "years_since_edit": 0, "label": "0.0–1.0 yr", "color": "#ffc" }, "geometry": { "type": "Point", "coordinates": [ 8.6874941, 49.403195 ] } },
{ "type": "Feature", "properties": { "index": "1", "last_edit_year": 2025, "years_since_edit": 1, "label": "1.0–1.5 yr", "color": "#a9db8e" }, "geometry": { "type": "Point", "coordinates": [ 8.6983974, 49.4089758 ] } },
{ "type": "Feature", "properties": { "index": "2", "last_edit_year": 2025, "years_since_edit": 1, "label": "1.0–1.5 yr", "color": "#a9db8e" }, "geometry": { "type": "Point", "coordinates": [ 8.690476, 49.4146871 ] } },
{ "type": "Feature", "properties": { "index": "3", "last_edit_year": 2024, "years_since_edit": 2, "label": "2.0–4.0 yr", "color": "#006837" }, "geometry": { "type": "Point", "coordinates": [ 8.6762559, 49.4081811 ] } },
{ "type": "Feature", "properties": { "index": "4", "last_edit_year": 2022, "years_since_edit": 4, "label": "2.0–4.0 yr", "color": "#006837" }, "geometry": { "type": "Point", "coordinates": [ 8.6659348, 49.4027255 ] } },
{ "type": "Feature", "properties": { "index": "5", "last_edit_year": 2024, "years_since_edit": 2, "label": "2.0–4.0 yr", "color": "#006837" }, "geometry": { "type": "Point", "coordinates": [ 8.7104702, 49.4121596 ] } }
]
}
