{
"type": "FeatureCollection",
"features": [
{ "type": "Feature", "properties": { "index": "0", "@osmId": "node/251342960", "name": "Piscine Pitot", "opening_hours": null, "label": "Public swimming & bathing", "color": "#2b8cbe" }, "geometry": { "type": "Point", "coordinates": [ 3.8703977, 43.6125261 ] } },
{ "type": "Feature", "properties": { "index": "1", "@osmId": "node/1920390090", "name": "Piscine Joffre", "opening_hours": null, "label": "Public swimming & bathing", "color": "#2b8cbe" }, "geometry": { "type": "Point", "coordinates": [ 3.8864744, 43.6128043 ] } },
{ "type": "Feature", "properties": { "index": "2", "@osmId": "node/9623212571", "name": "Le Bain d'Epices", "opening_hours": null, "label": "Public swimming & bathing", "color": "#2b8cbe" }, "geometry": { "type": "Point", "coordinates": [ 3.873717, 43.6107038 ] } },
{ "type": "Feature", "properties": { "index": "3", "@osmId": "way/248979129", "name": "Piscine olympique Angelotti", "opening_hours": "Mo-Fr 09:00-21:30; Sa 09:00-19:15; Su 09:00-13:15, 15:00-19:15", "label": "Public swimming & bathing", "color": "#2b8cbe" }, "geometry": { "type": "Point", "coordinates": [ 3.8931911, 43.6074096 ] } },
{ "type": "Feature", "properties": { "index": "4", "@osmId": "way/76184031", "name": "Piscine Jean Taris", "opening_hours": null, "label": "Public swimming & bathing", "color": "#2b8cbe" }, "geometry": { "type": "Point", "coordinates": [ 3.9009891, 43.6204177 ] } },
{ "type": "Feature", "properties": { "index": "5", "@osmId": "way/75395677", "name": "Église de l'Immaculée Conception", "opening_hours": null, "label": "Places of worship", "color": "#8856a7" }, "geometry": { "type": "Point", "coordinates": [ 3.8667262, 43.606478 ] } },
{ "type": "Feature", "properties": { "index": "6", "@osmId": "way/75780921", "name": "Église Sainte-Thérèse de Lisieux", "opening_hours": null, "label": "Places of worship", "color": "#8856a7" }, "geometry": { "type": "Point", "coordinates": [ 3.8644205, 43.6154342 ] } },
{ "type": "Feature", "properties": { "index": "7", "@osmId": "way/60201500", "name": "Église Sainte-Jeanne d'Arc", "opening_hours": null, "label": "Places of worship", "color": "#8856a7" }, "geometry": { "type": "Point", "coordinates": [ 3.8914575, 43.6175169 ] } },
{ "type": "Feature", "properties": { "index": "8", "@osmId": "way/75130283", "name": "Église Don Bosco", "opening_hours": null, "label": "Places of worship", "color": "#8856a7" }, "geometry": { "type": "Point", "coordinates": [ 3.8902311, 43.6073799 ] } },
{ "type": "Feature", "properties": { "index": "9", "@osmId": "way/76169444", "name": "Église évangélique de Pentecôte", "opening_hours": null, "label": "Places of worship", "color": "#8856a7" }, "geometry": { "type": "Point", "coordinates": [ 3.9016708, 43.6051443 ] } },
{ "type": "Feature", "properties": { "index": "10", "@osmId": "way/60436054", "name": "Église Saint-Léon", "opening_hours": null, "label": "Places of worship", "color": "#8856a7" }, "geometry": { "type": "Point", "coordinates": [ 3.8809653, 43.6186997 ] } },
{ "type": "Feature", "properties": { "index": "11", "@osmId": "way/76198901", "name": "Église Saint-François de la Pierre-Rouge, de l'enclos Saint-François", "opening_hours": null, "label": "Places of worship", "color": "#8856a7" }, "geometry": { "type": "Point", "coordinates": [ 3.8823091, 43.6202911 ] } },
{ "type": "Feature", "properties": { "index": "12", "@osmId": "way/166162797", "name": "Chapelle des Carmes", "opening_hours": null, "label": "Places of worship", "color": "#8856a7" }, "geometry": { "type": "Point", "coordinates": [ 3.8715853, 43.6198294 ] } },
{ "type": "Feature", "properties": { "index": "13", "@osmId": "way/170970757", "name": "Chapelle des Petites Sœurs des Pauvres", "opening_hours": null, "label": "Places of worship", "color": "#8856a7" }, "geometry": { "type": "Point", "coordinates": [ 3.8772161, 43.6166296 ] } },
{ "type": "Feature", "properties": { "index": "14", "@osmId": "way/532679205", "name": "Maison diocésaine Villa Maguelone", "opening_hours": null, "label": "Places of worship", "color": "#8856a7" }, "geometry": { "type": "Point", "coordinates": [ 3.887815, 43.6232921 ] } },
{ "type": "Feature", "properties": { "index": "15", "@osmId": "way/543185526", "name": "Chapelle Notre-Dame de Lourdes", "opening_hours": null, "label": "Places of worship", "color": "#8856a7" }, "geometry": { "type": "Point", "coordinates": [ 3.8698801, 43.6204648 ] } },
{ "type": "Feature", "properties": { "index": "16", "@osmId": "way/75040019", "name": "Église des Saints-François", "opening_hours": "closed \"Temporarily closed\"", "label": "Places of worship", "color": "#8856a7" }, "geometry": { "type": "Point", "coordinates": [ 3.8831824, 43.6030027 ] } },
{ "type": "Feature", "properties": { "index": "17", "@osmId": "way/75263875", "name": "Chapelle des Augustins", "opening_hours": null, "label": "Places of worship", "color": "#8856a7" }, "geometry": { "type": "Point", "coordinates": [ 3.8798014, 43.6104402 ] } },
{ "type": "Feature", "properties": { "index": "18", "@osmId": "way/75264238", "name": "Chapelle Sainte-Foy des Pénitents Blancs", "opening_hours": null, "label": "Places of worship", "color": "#8856a7" }, "geometry": { "type": "Point", "coordinates": [ 3.8794993, 43.6096526 ] } },
{ "type": "Feature", "properties": { "index": "19", "@osmId": "way/75274846", "name": "Temple Maguelone", "opening_hours": null, "label": "Places of worship", "color": "#8856a7" }, "geometry": { "type": "Point", "coordinates": [ 3.8806177, 43.6058251 ] } },
{ "type": "Feature", "properties": { "index": "20", "@osmId": "way/75279091", "name": "Chapelle des Pénitents Bleus", "opening_hours": null, "label": "Places of worship", "color": "#8856a7" }, "geometry": { "type": "Point", "coordinates": [ 3.8776134, 43.6071808 ] } },
{ "type": "Feature", "properties": { "index": "21", "@osmId": "way/75319947", "name": "Ancienne chapelle de la Visitation", "opening_hours": null, "label": "Places of worship", "color": "#8856a7" }, "geometry": { "type": "Point", "coordinates": [ 3.8770691, 43.6142425 ] } },
{ "type": "Feature", "properties": { "index": "22", "@osmId": "way/75320200", "name": "Église Saint-Matthieu", "opening_hours": null, "label": "Places of worship", "color": "#8856a7" }, "geometry": { "type": "Point", "coordinates": [ 3.8777763, 43.6125626 ] } },
{ "type": "Feature", "properties": { "index": "23", "@osmId": "way/75320213", "name": "Basilique Notre-Dame des Tables", "opening_hours": null, "label": "Places of worship", "color": "#8856a7" }, "geometry": { "type": "Point", "coordinates": [ 3.8795687, 43.6120339 ] } },
{ "type": "Feature", "properties": { "index": "24", "@osmId": "way/75383109", "name": "Église Sainte-Eulalie", "opening_hours": null, "label": "Places of worship", "color": "#8856a7" }, "geometry": { "type": "Point", "coordinates": [ 3.8704211, 43.6095436 ] } },
{ "type": "Feature", "properties": { "index": "25", "@osmId": "way/75396839", "name": "Église Saint-Denis", "opening_hours": null, "label": "Places of worship", "color": "#8856a7" }, "geometry": { "type": "Point", "coordinates": [ 3.8747874, 43.6049958 ] } },
{ "type": "Feature", "properties": { "index": "26", "@osmId": "way/75398222", "name": "Mosquée En-Nour", "opening_hours": null, "label": "Places of worship", "color": "#8856a7" }, "geometry": { "type": "Point", "coordinates": [ 3.869495, 43.6055765 ] } },
{ "type": "Feature", "properties": { "index": "27", "@osmId": "way/75398318", "name": "Temple Brueys", "opening_hours": null, "label": "Places of worship", "color": "#8856a7" }, "geometry": { "type": "Point", "coordinates": [ 3.8735866, 43.6054892 ] } },
{ "type": "Feature", "properties": { "index": "28", "@osmId": "way/272804945", "name": "Cathédrale Saint-Pierre", "opening_hours": "Mo-Su 10:45-11:45,14:30-18:00", "label": "Places of worship", "color": "#8856a7" }, "geometry": { "type": "Point", "coordinates": [ 3.8740327, 43.6133276 ] } },
{ "type": "Feature", "properties": { "index": "29", "@osmId": "way/273288906", "name": "Église Saint-Roch", "opening_hours": null, "label": "Places of worship", "color": "#8856a7" }, "geometry": { "type": "Point", "coordinates": [ 3.8758702, 43.608696 ] } },
{ "type": "Feature", "properties": { "index": "30", "@osmId": "way/1057106429", "name": "Chapelle Saint-Charles", "opening_hours": null, "label": "Places of worship", "color": "#8856a7" }, "geometry": { "type": "Point", "coordinates": [ 3.8740625, 43.6158353 ] } },
{ "type": "Feature", "properties": { "index": "31", "@osmId": "node/251346688", "name": "Église de l'ancien couvent des Sœurs de Saint-Joseph", "opening_hours": null, "label": "Places of worship", "color": "#8856a7" }, "geometry": { "type": "Point", "coordinates": [ 3.8689858, 43.6134209 ] } },
{ "type": "Feature", "properties": { "index": "32", "@osmId": "node/579783609", "name": "Synagogue Mazal Tov", "opening_hours": null, "label": "Places of worship", "color": "#8856a7" }, "geometry": { "type": "Point", "coordinates": [ 3.8785566, 43.6175488 ] } },
{ "type": "Feature", "properties": { "index": "33", "@osmId": "node/611601643", "name": "Église Orthodoxe", "opening_hours": null, "label": "Places of worship", "color": "#8856a7" }, "geometry": { "type": "Point", "coordinates": [ 3.8769363, 43.6089025 ] } },
{ "type": "Feature", "properties": { "index": "34", "@osmId": "node/2296504346", "name": "International Chapel", "opening_hours": null, "label": "Places of worship", "color": "#8856a7" }, "geometry": { "type": "Point", "coordinates": [ 3.8840466, 43.6146254 ] } },
{ "type": "Feature", "properties": { "index": "35", "@osmId": "node/11360708448", "name": "Synagogue Beth Menahem Mendel Lubavitch", "opening_hours": null, "label": "Places of worship", "color": "#8856a7" }, "geometry": { "type": "Point", "coordinates": [ 3.8741317, 43.6002374 ] } },
{ "type": "Feature", "properties": { "index": "36", "@osmId": "node/11360708454", "name": "Grande synagogue Ben Zakaï", "opening_hours": null, "label": "Places of worship", "color": "#8856a7" }, "geometry": { "type": "Point", "coordinates": [ 3.8763486, 43.6046765 ] } },
{ "type": "Feature", "properties": { "index": "37", "@osmId": "way/22913747", "name": "Médiathèque centrale Émile Zola", "opening_hours": "Mo off; Tu 12:00-19:00; We 10:00-19:00; Th 12:00-21:00; Fr 12:00-19:00; Sa 10:00-18:30; Su 14:30-18:00", "label": "Public libraries", "color": "#756bb1" }, "geometry": { "type": "Point", "coordinates": [ 3.8933029, 43.6084043 ] } },
{ "type": "Feature", "properties": { "index": "38", "@osmId": "way/76169365", "name": "Bibliothèque universitaire de Richter", "opening_hours": null, "label": "Public libraries", "color": "#756bb1" }, "geometry": { "type": "Point", "coordinates": [ 3.8987105, 43.605032 ] } },
{ "type": "Feature", "properties": { "index": "39", "@osmId": "node/635867540", "name": "Librairie Juridique des Étudiants", "opening_hours": "Mo-Fr 09:00-19:00", "label": "Public libraries", "color": "#756bb1" }, "geometry": { "type": "Point", "coordinates": [ 3.8771451, 43.613544 ] } },
{ "type": "Feature", "properties": { "index": "40", "@osmId": "node/1614311612", "name": "Bibliothèque universitaire Montpellier 3 : Site de Saint-Charles", "opening_hours": "Oct-May: Mo-Fr 09:00-21:00; Oct-May: Sa 09:00-17:00; Jun: Mo-Fr 09:00-18:00; Jul: Mo-Fr 09:00-16:00", "label": "Public libraries", "color": "#756bb1" }, "geometry": { "type": "Point", "coordinates": [ 3.8735835, 43.6161721 ] } },
{ "type": "Feature", "properties": { "index": "41", "@osmId": "node/1624095376", "name": "Bibliothèque pour Tous", "opening_hours": "Tu,We,Fr,Sa 10:00-12:00", "label": "Public libraries", "color": "#756bb1" }, "geometry": { "type": "Point", "coordinates": [ 3.8736884, 43.6195005 ] } },
{ "type": "Feature", "properties": { "index": "42", "@osmId": "node/1756984369", "name": null, "opening_hours": null, "label": "Public libraries", "color": "#756bb1" }, "geometry": { "type": "Point", "coordinates": [ 3.8989028, 43.6049592 ] } },
{ "type": "Feature", "properties": { "index": "43", "@osmId": "node/4401150535", "name": "Archives Municipales", "opening_hours": "Mo-Fr 10:00-17:00", "label": "Public libraries", "color": "#756bb1" }, "geometry": { "type": "Point", "coordinates": [ 3.8936898, 43.608388 ] } },
{ "type": "Feature", "properties": { "index": "44", "@osmId": "node/5107691934", "name": "CDI", "opening_hours": null, "label": "Public libraries", "color": "#756bb1" }, "geometry": { "type": "Point", "coordinates": [ 3.8864352, 43.6108232 ] } },
{ "type": "Feature", "properties": { "index": "45", "@osmId": "node/5115528140", "name": "CDI", "opening_hours": null, "label": "Public libraries", "color": "#756bb1" }, "geometry": { "type": "Point", "coordinates": [ 3.8905405, 43.6109387 ] } },
{ "type": "Feature", "properties": { "index": "46", "@osmId": "node/12505089948", "name": "Centre de Ressources Documentaires", "opening_hours": "Mo 12:00-17:30; Tu-We 08:30-17:30; Th-Fr 09:30-17:30; PH off", "label": "Public libraries", "color": "#756bb1" }, "geometry": { "type": "Point", "coordinates": [ 3.868639, 43.620201 ] } },
{ "type": "Feature", "properties": { "index": "47", "@osmId": "node/13355592606", "name": "Médiathèque de la Cité des Arts", "opening_hours": null, "label": "Public libraries", "color": "#756bb1" }, "geometry": { "type": "Point", "coordinates": [ 3.8679892, 43.622134 ] } },
{ "type": "Feature", "properties": { "index": "48", "@osmId": "relation/1226892", "name": "Musée Fabre", "opening_hours": "Tu-Su 10:00-18:00", "label": "Museums & galleries", "color": "#dd3497" }, "geometry": { "type": "Point", "coordinates": [ 3.8798972, 43.6117266 ] } },
{ "type": "Feature", "properties": { "index": "49", "@osmId": "way/60178250", "name": "Galerie Annie Gabrielli", "opening_hours": "We-Sa 15:00-19:00", "label": "Museums & galleries", "color": "#dd3497" }, "geometry": { "type": "Point", "coordinates": [ 3.8862598, 43.6180665 ] } },
{ "type": "Feature", "properties": { "index": "50", "@osmId": "way/667055642", "name": "Musée d'Art Brut", "opening_hours": null, "label": "Museums & galleries", "color": "#dd3497" }, "geometry": { "type": "Point", "coordinates": [ 3.8822813, 43.6184504 ] } },
{ "type": "Feature", "properties": { "index": "51", "@osmId": "way/26576910", "name": "Pavillon Populaire", "opening_hours": "off", "label": "Museums & galleries", "color": "#dd3497" }, "geometry": { "type": "Point", "coordinates": [ 3.8821617, 43.6102252 ] } },
{ "type": "Feature", "properties": { "index": "52", "@osmId": "way/26577008", "name": "Salle Dominique Bagouet", "opening_hours": null, "label": "Museums & galleries", "color": "#dd3497" }, "geometry": { "type": "Point", "coordinates": [ 3.8818139, 43.6099918 ] } },
{ "type": "Feature", "properties": { "index": "53", "@osmId": "way/103676805", "name": "Fondation Pioch Pelat - ARPAC", "opening_hours": null, "label": "Museums & galleries", "color": "#dd3497" }, "geometry": { "type": "Point", "coordinates": [ 3.9011951, 43.6241733 ] } },
{ "type": "Feature", "properties": { "index": "54", "@osmId": "way/75264144", "name": "Musée Sabatier d'Espeyran", "opening_hours": "Tu,Sa,Su 14:00-17:00", "label": "Museums & galleries", "color": "#dd3497" }, "geometry": { "type": "Point", "coordinates": [ 3.8804732, 43.611105 ] } },
{ "type": "Feature", "properties": { "index": "55", "@osmId": "way/75278752", "name": "Mo.Co Hôtel des Collections", "opening_hours": null, "label": "Museums & galleries", "color": "#dd3497" }, "geometry": { "type": "Point", "coordinates": [ 3.8791144, 43.606381 ] } },
{ "type": "Feature", "properties": { "index": "56", "@osmId": "node/147054273", "name": "Atelier Galerie d'art Jean-Luc Turlure", "opening_hours": "\"by appointment\"", "label": "Museums & galleries", "color": "#dd3497" }, "geometry": { "type": "Point", "coordinates": [ 3.8876303, 43.6209792 ] } },
{ "type": "Feature", "properties": { "index": "57", "@osmId": "node/265363031", "name": "Galerie municipale Saint-Ravy", "opening_hours": "Tu-Su 13:00-19:00", "label": "Museums & galleries", "color": "#dd3497" }, "geometry": { "type": "Point", "coordinates": [ 3.8769117, 43.6091823 ] } },
{ "type": "Feature", "properties": { "index": "58", "@osmId": "node/660200997", "name": "Studio 411", "opening_hours": "Tu-Fr 14:00-18:00", "label": "Museums & galleries", "color": "#dd3497" }, "geometry": { "type": "Point", "coordinates": [ 3.8731017, 43.6038366 ] } },
{ "type": "Feature", "properties": { "index": "59", "@osmId": "node/724215479", "name": "Aga", "opening_hours": null, "label": "Museums & galleries", "color": "#dd3497" }, "geometry": { "type": "Point", "coordinates": [ 3.8759548, 43.6112949 ] } },
{ "type": "Feature", "properties": { "index": "60", "@osmId": "node/1165324328", "name": "Musée Languedocien", "opening_hours": null, "label": "Museums & galleries", "color": "#dd3497" }, "geometry": { "type": "Point", "coordinates": [ 3.8791384, 43.6095397 ] } },
{ "type": "Feature", "properties": { "index": "61", "@osmId": "node/4402339752", "name": "Pharmacie et Chapelle de la Miséricorde", "opening_hours": null, "label": "Museums & galleries", "color": "#dd3497" }, "geometry": { "type": "Point", "coordinates": [ 3.8792357, 43.6107381 ] } },
{ "type": "Feature", "properties": { "index": "62", "@osmId": "node/5732648015", "name": "Nicolas Xavier", "opening_hours": "Tu-Th 09:30-12:30,14:00-18:00", "label": "Museums & galleries", "color": "#dd3497" }, "geometry": { "type": "Point", "coordinates": [ 3.8788846, 43.6110788 ] } },
{ "type": "Feature", "properties": { "index": "63", "@osmId": "node/5747891370", "name": "Galerie Chantiers Boîte Noire", "opening_hours": "Th-Sa 15:30-19:00", "label": "Museums & galleries", "color": "#dd3497" }, "geometry": { "type": "Point", "coordinates": [ 3.8785574, 43.6118726 ] } },
{ "type": "Feature", "properties": { "index": "64", "@osmId": "node/5747891397", "name": "Gallerie de la Chapelle", "opening_hours": null, "label": "Museums & galleries", "color": "#dd3497" }, "geometry": { "type": "Point", "coordinates": [ 3.8786948, 43.6132771 ] } },
{ "type": "Feature", "properties": { "index": "65", "@osmId": "node/6299916603", "name": "Chez Pablo - Art school", "opening_hours": null, "label": "Museums & galleries", "color": "#dd3497" }, "geometry": { "type": "Point", "coordinates": [ 3.8733881, 43.6107429 ] } },
{ "type": "Feature", "properties": { "index": "66", "@osmId": "node/12229780417", "name": "Iconoscope", "opening_hours": "We-Fr 14:00-18:00; Sa by appointment", "label": "Museums & galleries", "color": "#dd3497" }, "geometry": { "type": "Point", "coordinates": [ 3.8701877, 43.6051573 ] } },
{ "type": "Feature", "properties": { "index": "67", "@osmId": "node/12758347868", "name": "Carré d'Artistes", "opening_hours": null, "label": "Museums & galleries", "color": "#dd3497" }, "geometry": { "type": "Point", "coordinates": [ 3.8774666, 43.6083111 ] } },
{ "type": "Feature", "properties": { "index": "68", "@osmId": "node/13508792408", "name": "Mille formes - Centre d'initiation à l'art pour els 0-6 ans", "opening_hours": null, "label": "Museums & galleries", "color": "#dd3497" }, "geometry": { "type": "Point", "coordinates": [ 3.8861193, 43.6082555 ] } },
{ "type": "Feature", "properties": { "index": "69", "@osmId": "node/13748589401", "name": "UP / SIDE TOWN", "opening_hours": null, "label": "Museums & galleries", "color": "#dd3497" }, "geometry": { "type": "Point", "coordinates": [ 3.8770373, 43.6119835 ] } },
{ "type": "Feature", "properties": { "index": "70", "@osmId": "way/103661125", "name": null, "opening_hours": null, "label": "Shopping centres", "color": "#636363" }, "geometry": { "type": "Point", "coordinates": [ 3.8992306, 43.6226079 ] } },
{ "type": "Feature", "properties": { "index": "71", "@osmId": "way/75247315", "name": null, "opening_hours": null, "label": "Shopping centres", "color": "#636363" }, "geometry": { "type": "Point", "coordinates": [ 3.889376, 43.6132199 ] } },
{ "type": "Feature", "properties": { "index": "72", "@osmId": "way/83601954", "name": "Polygone", "opening_hours": null, "label": "Shopping centres", "color": "#636363" }, "geometry": { "type": "Point", "coordinates": [ 3.8848435, 43.608422 ] } },
{ "type": "Feature", "properties": { "index": "73", "@osmId": "relation/19313832", "name": null, "opening_hours": null, "label": "Fountains & water features", "color": "#41b6c4" }, "geometry": { "type": "Point", "coordinates": [ 3.8809604, 43.6096233 ] } },
{ "type": "Feature", "properties": { "index": "74", "@osmId": "relation/19313833", "name": null, "opening_hours": null, "label": "Fountains & water features", "color": "#41b6c4" }, "geometry": { "type": "Point", "coordinates": [ 3.880786, 43.609921 ] } },
{ "type": "Feature", "properties": { "index": "75", "@osmId": "way/472297429", "name": null, "opening_hours": null, "label": "Fountains & water features", "color": "#41b6c4" }, "geometry": { "type": "Point", "coordinates": [ 3.893943, 43.6014505 ] } },
{ "type": "Feature", "properties": { "index": "76", "@osmId": "way/661169211", "name": "Thessalie", "opening_hours": null, "label": "Fountains & water features", "color": "#41b6c4" }, "geometry": { "type": "Point", "coordinates": [ 3.8915441, 43.6079305 ] } },
{ "type": "Feature", "properties": { "index": "77", "@osmId": "way/661171014", "name": "Fontaine de la Révolution", "opening_hours": null, "label": "Fountains & water features", "color": "#41b6c4" }, "geometry": { "type": "Point", "coordinates": [ 3.8981198, 43.6041794 ] } },
{ "type": "Feature", "properties": { "index": "78", "@osmId": "way/1351657442", "name": null, "opening_hours": null, "label": "Fountains & water features", "color": "#41b6c4" }, "geometry": { "type": "Point", "coordinates": [ 3.8677119, 43.6200442 ] } },
{ "type": "Feature", "properties": { "index": "79", "@osmId": "way/159557100", "name": null, "opening_hours": null, "label": "Fountains & water features", "color": "#41b6c4" }, "geometry": { "type": "Point", "coordinates": [ 3.8855022, 43.6072792 ] } },
{ "type": "Feature", "properties": { "index": "80", "@osmId": "way/273289566", "name": null, "opening_hours": null, "label": "Fountains & water features", "color": "#41b6c4" }, "geometry": { "type": "Point", "coordinates": [ 3.8762599, 43.6088786 ] } },
{ "type": "Feature", "properties": { "index": "81", "@osmId": "way/435438119", "name": "Fontaine des Licornes", "opening_hours": null, "label": "Fountains & water features", "color": "#41b6c4" }, "geometry": { "type": "Point", "coordinates": [ 3.8747864, 43.6120575 ] } },
{ "type": "Feature", "properties": { "index": "82", "@osmId": "way/435459742", "name": null, "opening_hours": null, "label": "Fountains & water features", "color": "#41b6c4" }, "geometry": { "type": "Point", "coordinates": [ 3.8758994, 43.6131486 ] } },
{ "type": "Feature", "properties": { "index": "83", "@osmId": "way/661168848", "name": "Fontaine du Nombre d'Or", "opening_hours": null, "label": "Fountains & water features", "color": "#41b6c4" }, "geometry": { "type": "Point", "coordinates": [ 3.8876361, 43.6082036 ] } },
{ "type": "Feature", "properties": { "index": "84", "@osmId": "way/700846414", "name": null, "opening_hours": null, "label": "Fountains & water features", "color": "#41b6c4" }, "geometry": { "type": "Point", "coordinates": [ 3.8787239, 43.605917 ] } },
{ "type": "Feature", "properties": { "index": "85", "@osmId": "way/1432013470", "name": null, "opening_hours": null, "label": "Fountains & water features", "color": "#41b6c4" }, "geometry": { "type": "Point", "coordinates": [ 3.8679986, 43.6117595 ] } },
{ "type": "Feature", "properties": { "index": "86", "@osmId": "node/4322996570", "name": "Fontaine Galot", "opening_hours": null, "label": "Fountains & water features", "color": "#41b6c4" }, "geometry": { "type": "Point", "coordinates": [ 3.8590582, 43.6130973 ] } },
{ "type": "Feature", "properties": { "index": "87", "@osmId": "node/4325258566", "name": null, "opening_hours": null, "label": "Fountains & water features", "color": "#41b6c4" }, "geometry": { "type": "Point", "coordinates": [ 3.8592808, 43.6062245 ] } },
{ "type": "Feature", "properties": { "index": "88", "@osmId": "node/280713386", "name": null, "opening_hours": null, "label": "Fountains & water features", "color": "#41b6c4" }, "geometry": { "type": "Point", "coordinates": [ 3.8971991, 43.6075433 ] } },
{ "type": "Feature", "properties": { "index": "89", "@osmId": "node/1261296254", "name": null, "opening_hours": null, "label": "Fountains & water features", "color": "#41b6c4" }, "geometry": { "type": "Point", "coordinates": [ 3.8757692, 43.6065624 ] } },
{ "type": "Feature", "properties": { "index": "90", "@osmId": "node/1342191083", "name": "Font Putanelle", "opening_hours": null, "label": "Fountains & water features", "color": "#41b6c4" }, "geometry": { "type": "Point", "coordinates": [ 3.8698701, 43.6176977 ] } },
{ "type": "Feature", "properties": { "index": "91", "@osmId": "node/1732258236", "name": null, "opening_hours": null, "label": "Fountains & water features", "color": "#41b6c4" }, "geometry": { "type": "Point", "coordinates": [ 3.8798752, 43.6054642 ] } },
{ "type": "Feature", "properties": { "index": "92", "@osmId": "node/2950822138", "name": null, "opening_hours": null, "label": "Fountains & water features", "color": "#41b6c4" }, "geometry": { "type": "Point", "coordinates": [ 3.8774746, 43.6080101 ] } },
{ "type": "Feature", "properties": { "index": "93", "@osmId": "node/3182976439", "name": null, "opening_hours": null, "label": "Fountains & water features", "color": "#41b6c4" }, "geometry": { "type": "Point", "coordinates": [ 3.8721597, 43.6126432 ] } },
{ "type": "Feature", "properties": { "index": "94", "@osmId": "node/4102123273", "name": null, "opening_hours": null, "label": "Fountains & water features", "color": "#41b6c4" }, "geometry": { "type": "Point", "coordinates": [ 3.8727009, 43.6234328 ] } },
{ "type": "Feature", "properties": { "index": "95", "@osmId": "node/4315054490", "name": "Fontaine des Augustins", "opening_hours": null, "label": "Fountains & water features", "color": "#41b6c4" }, "geometry": { "type": "Point", "coordinates": [ 3.8795297, 43.6104386 ] } },
{ "type": "Feature", "properties": { "index": "96", "@osmId": "node/4322996560", "name": null, "opening_hours": null, "label": "Fountains & water features", "color": "#41b6c4" }, "geometry": { "type": "Point", "coordinates": [ 3.8814846, 43.616178 ] } },
{ "type": "Feature", "properties": { "index": "97", "@osmId": "node/4324774179", "name": null, "opening_hours": null, "label": "Fountains & water features", "color": "#41b6c4" }, "geometry": { "type": "Point", "coordinates": [ 3.8744047, 43.6104716 ] } },
{ "type": "Feature", "properties": { "index": "98", "@osmId": "node/4324800421", "name": "Fontaine de la Préfecture", "opening_hours": null, "label": "Fountains & water features", "color": "#41b6c4" }, "geometry": { "type": "Point", "coordinates": [ 3.8761732, 43.6113415 ] } },
{ "type": "Feature", "properties": { "index": "99", "@osmId": "node/4324801262", "name": null, "opening_hours": null, "label": "Fountains & water features", "color": "#41b6c4" }, "geometry": { "type": "Point", "coordinates": [ 3.8774628, 43.6114052 ] } },
{ "type": "Feature", "properties": { "index": "100", "@osmId": "node/4324810090", "name": null, "opening_hours": null, "label": "Fountains & water features", "color": "#41b6c4" }, "geometry": { "type": "Point", "coordinates": [ 3.8774928, 43.6145796 ] } },
{ "type": "Feature", "properties": { "index": "101", "@osmId": "node/4324819927", "name": null, "opening_hours": null, "label": "Fountains & water features", "color": "#41b6c4" }, "geometry": { "type": "Point", "coordinates": [ 3.8781211, 43.613388 ] } },
{ "type": "Feature", "properties": { "index": "102", "@osmId": "node/4324834278", "name": null, "opening_hours": null, "label": "Fountains & water features", "color": "#41b6c4" }, "geometry": { "type": "Point", "coordinates": [ 3.8788888, 43.6132312 ] } },
{ "type": "Feature", "properties": { "index": "103", "@osmId": "node/4324847149", "name": null, "opening_hours": null, "label": "Fountains & water features", "color": "#41b6c4" }, "geometry": { "type": "Point", "coordinates": [ 3.8815954, 43.6133301 ] } },
{ "type": "Feature", "properties": { "index": "104", "@osmId": "node/4324847150", "name": null, "opening_hours": null, "label": "Fountains & water features", "color": "#41b6c4" }, "geometry": { "type": "Point", "coordinates": [ 3.8816468, 43.6135188 ] } },
{ "type": "Feature", "properties": { "index": "105", "@osmId": "node/4324847151", "name": null, "opening_hours": null, "label": "Fountains & water features", "color": "#41b6c4" }, "geometry": { "type": "Point", "coordinates": [ 3.8816511, 43.6135563 ] } },
{ "type": "Feature", "properties": { "index": "106", "@osmId": "node/4324847152", "name": null, "opening_hours": null, "label": "Fountains & water features", "color": "#41b6c4" }, "geometry": { "type": "Point", "coordinates": [ 3.8816628, 43.6136112 ] } },
{ "type": "Feature", "properties": { "index": "107", "@osmId": "node/4324847153", "name": null, "opening_hours": null, "label": "Fountains & water features", "color": "#41b6c4" }, "geometry": { "type": "Point", "coordinates": [ 3.8816712, 43.6136476 ] } },
{ "type": "Feature", "properties": { "index": "108", "@osmId": "node/4324847154", "name": null, "opening_hours": null, "label": "Fountains & water features", "color": "#41b6c4" }, "geometry": { "type": "Point", "coordinates": [ 3.8816836, 43.6137048 ] } },
{ "type": "Feature", "properties": { "index": "109", "@osmId": "node/4324847155", "name": null, "opening_hours": null, "label": "Fountains & water features", "color": "#41b6c4" }, "geometry": { "type": "Point", "coordinates": [ 3.8816916, 43.6137402 ] } },
{ "type": "Feature", "properties": { "index": "110", "@osmId": "node/4324848887", "name": null, "opening_hours": null, "label": "Fountains & water features", "color": "#41b6c4" }, "geometry": { "type": "Point", "coordinates": [ 3.8825497, 43.6148433 ] } },
{ "type": "Feature", "properties": { "index": "111", "@osmId": "node/4324886075", "name": "Fontaine des Trois Grâces", "opening_hours": null, "label": "Fountains & water features", "color": "#41b6c4" }, "geometry": { "type": "Point", "coordinates": [ 3.8795, 43.6084697 ] } },
{ "type": "Feature", "properties": { "index": "112", "@osmId": "node/4324907024", "name": null, "opening_hours": null, "label": "Fountains & water features", "color": "#41b6c4" }, "geometry": { "type": "Point", "coordinates": [ 3.8771257, 43.6092815 ] } },
{ "type": "Feature", "properties": { "index": "113", "@osmId": "node/4324946080", "name": null, "opening_hours": null, "label": "Fountains & water features", "color": "#41b6c4" }, "geometry": { "type": "Point", "coordinates": [ 3.885745, 43.6077428 ] } },
{ "type": "Feature", "properties": { "index": "114", "@osmId": "node/4324971370", "name": "Fontaine Danseuse", "opening_hours": null, "label": "Fountains & water features", "color": "#41b6c4" }, "geometry": { "type": "Point", "coordinates": [ 3.8907068, 43.6101721 ] } },
{ "type": "Feature", "properties": { "index": "115", "@osmId": "node/4324971371", "name": null, "opening_hours": null, "label": "Fountains & water features", "color": "#41b6c4" }, "geometry": { "type": "Point", "coordinates": [ 3.8952661, 43.609183 ] } },
{ "type": "Feature", "properties": { "index": "116", "@osmId": "node/4324972010", "name": null, "opening_hours": null, "label": "Fountains & water features", "color": "#41b6c4" }, "geometry": { "type": "Point", "coordinates": [ 3.8952177, 43.6093456 ] } },
{ "type": "Feature", "properties": { "index": "117", "@osmId": "node/4324979613", "name": "Fontaine Faulquier", "opening_hours": null, "label": "Fountains & water features", "color": "#41b6c4" }, "geometry": { "type": "Point", "coordinates": [ 3.8914678, 43.6055899 ] } },
{ "type": "Feature", "properties": { "index": "118", "@osmId": "node/4330970862", "name": "Fontaine Saint-Cléophas", "opening_hours": null, "label": "Fountains & water features", "color": "#41b6c4" }, "geometry": { "type": "Point", "coordinates": [ 3.8675719, 43.6002862 ] } },
{ "type": "Feature", "properties": { "index": "119", "@osmId": "node/4330970863", "name": null, "opening_hours": null, "label": "Fountains & water features", "color": "#41b6c4" }, "geometry": { "type": "Point", "coordinates": [ 3.893738, 43.6179774 ] } },
{ "type": "Feature", "properties": { "index": "120", "@osmId": "node/4333879833", "name": null, "opening_hours": null, "label": "Fountains & water features", "color": "#41b6c4" }, "geometry": { "type": "Point", "coordinates": [ 3.8693813, 43.6196097 ] } },
{ "type": "Feature", "properties": { "index": "121", "@osmId": "node/4333879845", "name": null, "opening_hours": null, "label": "Fountains & water features", "color": "#41b6c4" }, "geometry": { "type": "Point", "coordinates": [ 3.8695594, 43.6196297 ] } },
{ "type": "Feature", "properties": { "index": "122", "@osmId": "node/5519224908", "name": "Le reservoir", "opening_hours": null, "label": "Fountains & water features", "color": "#41b6c4" }, "geometry": { "type": "Point", "coordinates": [ 3.8698603, 43.6130596 ] } },
{ "type": "Feature", "properties": { "index": "123", "@osmId": "node/6721204076", "name": null, "opening_hours": null, "label": "Fountains & water features", "color": "#41b6c4" }, "geometry": { "type": "Point", "coordinates": [ 3.8892102, 43.6041928 ] } },
{ "type": "Feature", "properties": { "index": "124", "@osmId": "node/6721204077", "name": null, "opening_hours": null, "label": "Fountains & water features", "color": "#41b6c4" }, "geometry": { "type": "Point", "coordinates": [ 3.8686567, 43.6117667 ] } },
{ "type": "Feature", "properties": { "index": "125", "@osmId": "node/6721204078", "name": null, "opening_hours": null, "label": "Fountains & water features", "color": "#41b6c4" }, "geometry": { "type": "Point", "coordinates": [ 3.8685585, 43.611061 ] } },
{ "type": "Feature", "properties": { "index": "126", "@osmId": "node/12956385404", "name": null, "opening_hours": null, "label": "Fountains & water features", "color": "#41b6c4" }, "geometry": { "type": "Point", "coordinates": [ 3.8814761, 43.6107255 ] } },
{ "type": "Feature", "properties": { "index": "127", "@osmId": "node/13340485718", "name": null, "opening_hours": null, "label": "Fountains & water features", "color": "#41b6c4" }, "geometry": { "type": "Point", "coordinates": [ 3.8766913, 43.6107418 ] } },
{ "type": "Feature", "properties": { "index": "128", "@osmId": "node/13340485720", "name": null, "opening_hours": null, "label": "Fountains & water features", "color": "#41b6c4" }, "geometry": { "type": "Point", "coordinates": [ 3.8766273, 43.6107632 ] } },
{ "type": "Feature", "properties": { "index": "129", "@osmId": "node/13340485722", "name": null, "opening_hours": null, "label": "Fountains & water features", "color": "#41b6c4" }, "geometry": { "type": "Point", "coordinates": [ 3.8765053, 43.6107978 ] } },
{ "type": "Feature", "properties": { "index": "130", "@osmId": "relation/5604750", "name": "Bassin Jacques Cœur", "opening_hours": null, "label": "Parks & green spaces", "color": "#31a354" }, "geometry": { "type": "Point", "coordinates": [ 3.9002866, 43.600093 ] } },
{ "type": "Feature", "properties": { "index": "131", "@osmId": "way/23232712", "name": "Parc Magnol", "opening_hours": null, "label": "Parks & green spaces", "color": "#31a354" }, "geometry": { "type": "Point", "coordinates": [ 3.8631644, 43.6173228 ] } },
{ "type": "Feature", "properties": { "index": "132", "@osmId": "way/31339324", "name": "Parc Montcalm", "opening_hours": "Jan-Feb Mo-Su 08:00-17:30; Mar-May Mo-Su 08:00-20:00; Jun-Aug Mo-Su 08:00-21:00; Sep-Oct Mo-Su 08:00-20:00; Nov-Dec Mo-Su 08:00-17:30", "label": "Parks & green spaces", "color": "#31a354" }, "geometry": { "type": "Point", "coordinates": [ 3.8592214, 43.6000897 ] } },
{ "type": "Feature", "properties": { "index": "133", "@osmId": "way/31437736", "name": "Parc de la Guirlande", "opening_hours": "07:30-21:00", "label": "Parks & green spaces", "color": "#31a354" }, "geometry": { "type": "Point", "coordinates": [ 3.8605919, 43.6072377 ] } },
{ "type": "Feature", "properties": { "index": "134", "@osmId": "way/60962376", "name": "Square de Diane", "opening_hours": null, "label": "Parks & green spaces", "color": "#31a354" }, "geometry": { "type": "Point", "coordinates": [ 3.8600526, 43.6000343 ] } },
{ "type": "Feature", "properties": { "index": "135", "@osmId": "way/110676928", "name": "Square du Père Bonnet", "opening_hours": null, "label": "Parks & green spaces", "color": "#31a354" }, "geometry": { "type": "Point", "coordinates": [ 3.866192, 43.6068378 ] } },
{ "type": "Feature", "properties": { "index": "136", "@osmId": "way/124190975", "name": "Square des Arceaux", "opening_hours": null, "label": "Parks & green spaces", "color": "#31a354" }, "geometry": { "type": "Point", "coordinates": [ 3.8611, 43.6119647 ] } },
{ "type": "Feature", "properties": { "index": "137", "@osmId": "way/433033047", "name": "Square Maquis Bir-hakeim", "opening_hours": null, "label": "Parks & green spaces", "color": "#31a354" }, "geometry": { "type": "Point", "coordinates": [ 3.8584834, 43.6111191 ] } },
{ "type": "Feature", "properties": { "index": "138", "@osmId": "way/433245944", "name": "Square Figuerolles", "opening_hours": null, "label": "Parks & green spaces", "color": "#31a354" }, "geometry": { "type": "Point", "coordinates": [ 3.8615899, 43.6060934 ] } },
{ "type": "Feature", "properties": { "index": "139", "@osmId": "way/543507368", "name": "Square de la Libération", "opening_hours": null, "label": "Parks & green spaces", "color": "#31a354" }, "geometry": { "type": "Point", "coordinates": [ 3.8578608, 43.6106861 ] } },
{ "type": "Feature", "properties": { "index": "140", "@osmId": "way/552095218", "name": null, "opening_hours": null, "label": "Parks & green spaces", "color": "#31a354" }, "geometry": { "type": "Point", "coordinates": [ 3.8631918, 43.6080698 ] } },
{ "type": "Feature", "properties": { "index": "141", "@osmId": "way/1000772508", "name": "Square Abbé Coursindel", "opening_hours": null, "label": "Parks & green spaces", "color": "#31a354" }, "geometry": { "type": "Point", "coordinates": [ 3.8640593, 43.6072951 ] } },
{ "type": "Feature", "properties": { "index": "142", "@osmId": "way/1059558030", "name": "Square Christine Boumeester", "opening_hours": null, "label": "Parks & green spaces", "color": "#31a354" }, "geometry": { "type": "Point", "coordinates": [ 3.8673133, 43.6217132 ] } },
{ "type": "Feature", "properties": { "index": "143", "@osmId": "way/25677040", "name": "Place des Patriotes", "opening_hours": null, "label": "Parks & green spaces", "color": "#31a354" }, "geometry": { "type": "Point", "coordinates": [ 3.8937374, 43.6016564 ] } },
{ "type": "Feature", "properties": { "index": "144", "@osmId": "way/159340845", "name": null, "opening_hours": null, "label": "Parks & green spaces", "color": "#31a354" }, "geometry": { "type": "Point", "coordinates": [ 3.8950846, 43.6031174 ] } },
{ "type": "Feature", "properties": { "index": "145", "@osmId": "way/228053349", "name": "Parc du Mas de Costebelle", "opening_hours": null, "label": "Parks & green spaces", "color": "#31a354" }, "geometry": { "type": "Point", "coordinates": [ 3.901938, 43.610563 ] } },
{ "type": "Feature", "properties": { "index": "146", "@osmId": "way/235641857", "name": "Parc Georges Charpak", "opening_hours": null, "label": "Parks & green spaces", "color": "#31a354" }, "geometry": { "type": "Point", "coordinates": [ 3.9038633, 43.6007401 ] } },
{ "type": "Feature", "properties": { "index": "147", "@osmId": "way/377463400", "name": "Parc Richter", "opening_hours": null, "label": "Parks & green spaces", "color": "#31a354" }, "geometry": { "type": "Point", "coordinates": [ 3.8969278, 43.6027471 ] } },
{ "type": "Feature", "properties": { "index": "148", "@osmId": "way/433249425", "name": "Parc Urbain ouest", "opening_hours": null, "label": "Parks & green spaces", "color": "#31a354" }, "geometry": { "type": "Point", "coordinates": [ 3.9045241, 43.6077285 ] } },
{ "type": "Feature", "properties": { "index": "149", "@osmId": "way/455743605", "name": "Parc Richter", "opening_hours": null, "label": "Parks & green spaces", "color": "#31a354" }, "geometry": { "type": "Point", "coordinates": [ 3.8978537, 43.6049967 ] } },
{ "type": "Feature", "properties": { "index": "150", "@osmId": "way/674927517", "name": null, "opening_hours": null, "label": "Parks & green spaces", "color": "#31a354" }, "geometry": { "type": "Point", "coordinates": [ 3.9026104, 43.6015017 ] } },
{ "type": "Feature", "properties": { "index": "151", "@osmId": "way/728327871", "name": null, "opening_hours": null, "label": "Parks & green spaces", "color": "#31a354" }, "geometry": { "type": "Point", "coordinates": [ 3.8942571, 43.6034332 ] } },
{ "type": "Feature", "properties": { "index": "152", "@osmId": "way/22940347", "name": "Parc Rimbaud", "opening_hours": null, "label": "Parks & green spaces", "color": "#31a354" }, "geometry": { "type": "Point", "coordinates": [ 3.8949065, 43.6180703 ] } },
{ "type": "Feature", "properties": { "index": "153", "@osmId": "way/290507792", "name": "Parc des Pastourelles", "opening_hours": null, "label": "Parks & green spaces", "color": "#31a354" }, "geometry": { "type": "Point", "coordinates": [ 3.8999008, 43.6211362 ] } },
{ "type": "Feature", "properties": { "index": "154", "@osmId": "way/388511466", "name": "Square du cadran solaire", "opening_hours": null, "label": "Parks & green spaces", "color": "#31a354" }, "geometry": { "type": "Point", "coordinates": [ 3.9007102, 43.6197683 ] } },
{ "type": "Feature", "properties": { "index": "155", "@osmId": "relation/3186606", "name": "Jardins du Peyrou", "opening_hours": null, "label": "Parks & green spaces", "color": "#31a354" }, "geometry": { "type": "Point", "coordinates": [ 3.8700366, 43.611312 ] } },
{ "type": "Feature", "properties": { "index": "156", "@osmId": "way/12871886", "name": "Parc Sainte-Odile", "opening_hours": null, "label": "Parks & green spaces", "color": "#31a354" }, "geometry": { "type": "Point", "coordinates": [ 3.8722724, 43.6239591 ] } },
{ "type": "Feature", "properties": { "index": "157", "@osmId": "way/14882681", "name": "Parc Edith Piaf", "opening_hours": null, "label": "Parks & green spaces", "color": "#31a354" }, "geometry": { "type": "Point", "coordinates": [ 3.8883543, 43.6218967 ] } },
{ "type": "Feature", "properties": { "index": "158", "@osmId": "way/17921136", "name": "Esplanade de la Musique", "opening_hours": null, "label": "Parks & green spaces", "color": "#31a354" }, "geometry": { "type": "Point", "coordinates": [ 3.8821649, 43.6167808 ] } },
{ "type": "Feature", "properties": { "index": "159", "@osmId": "way/129749172", "name": "Jardin des Beaux-Arts", "opening_hours": "Mo-Su 08:00-23:00", "label": "Parks & green spaces", "color": "#31a354" }, "geometry": { "type": "Point", "coordinates": [ 3.8838529, 43.6159964 ] } },
{ "type": "Feature", "properties": { "index": "160", "@osmId": "way/149425256", "name": "Square Camille Ernst", "opening_hours": null, "label": "Parks & green spaces", "color": "#31a354" }, "geometry": { "type": "Point", "coordinates": [ 3.8785874, 43.6185564 ] } },
{ "type": "Feature", "properties": { "index": "161", "@osmId": "way/156452571", "name": "Square Charles Flahault", "opening_hours": null, "label": "Parks & green spaces", "color": "#31a354" }, "geometry": { "type": "Point", "coordinates": [ 3.8785201, 43.61706 ] } },
{ "type": "Feature", "properties": { "index": "162", "@osmId": "way/411703732", "name": "Square de la Rue des Loutres", "opening_hours": null, "label": "Parks & green spaces", "color": "#31a354" }, "geometry": { "type": "Point", "coordinates": [ 3.8768842, 43.6239716 ] } },
{ "type": "Feature", "properties": { "index": "163", "@osmId": "way/552145109", "name": "Place Albin Tixador", "opening_hours": null, "label": "Parks & green spaces", "color": "#31a354" }, "geometry": { "type": "Point", "coordinates": [ 3.8831879, 43.6174064 ] } },
{ "type": "Feature", "properties": { "index": "164", "@osmId": "way/674933361", "name": "Square des Castors", "opening_hours": null, "label": "Parks & green spaces", "color": "#31a354" }, "geometry": { "type": "Point", "coordinates": [ 3.8763798, 43.6233356 ] } },
{ "type": "Feature", "properties": { "index": "165", "@osmId": "way/996878051", "name": "Parc Suzanne-Babut", "opening_hours": null, "label": "Parks & green spaces", "color": "#31a354" }, "geometry": { "type": "Point", "coordinates": [ 3.8757759, 43.6180725 ] } },
{ "type": "Feature", "properties": { "index": "166", "@osmId": "way/8105305", "name": "Jardin des Plantes", "opening_hours": "Oct-May: Tu-Su 12:00-18:00; Jun-Sep: Tu-Su 12:00-20:00", "label": "Parks & green spaces", "color": "#31a354" }, "geometry": { "type": "Point", "coordinates": [ 3.8718541, 43.6141754 ] } },
{ "type": "Feature", "properties": { "index": "167", "@osmId": "way/8597466", "name": "Square Planchon", "opening_hours": null, "label": "Parks & green spaces", "color": "#31a354" }, "geometry": { "type": "Point", "coordinates": [ 3.8799245, 43.6055553 ] } },
{ "type": "Feature", "properties": { "index": "168", "@osmId": "way/8597467", "name": "Jardin des cinq continents, Parc Emmanuel Roblès", "opening_hours": null, "label": "Parks & green spaces", "color": "#31a354" }, "geometry": { "type": "Point", "coordinates": [ 3.8787602, 43.6059928 ] } },
{ "type": "Feature", "properties": { "index": "169", "@osmId": "way/8599077", "name": "Jardins du Champ de Mars", "opening_hours": null, "label": "Parks & green spaces", "color": "#31a354" }, "geometry": { "type": "Point", "coordinates": [ 3.8822423, 43.6112223 ] } },
{ "type": "Feature", "properties": { "index": "170", "@osmId": "way/10067843", "name": "Jardin archéologique des potiers", "opening_hours": null, "label": "Parks & green spaces", "color": "#31a354" }, "geometry": { "type": "Point", "coordinates": [ 3.8812303, 43.613759 ] } },
{ "type": "Feature", "properties": { "index": "171", "@osmId": "way/23638864", "name": "Square Jean Monnet", "opening_hours": null, "label": "Parks & green spaces", "color": "#31a354" }, "geometry": { "type": "Point", "coordinates": [ 3.8891505, 43.604116 ] } },
{ "type": "Feature", "properties": { "index": "172", "@osmId": "way/25534782", "name": "Parc René Dumont", "opening_hours": "Mo-Su 08:00-20:00", "label": "Parks & green spaces", "color": "#31a354" }, "geometry": { "type": "Point", "coordinates": [ 3.8759619, 43.6010865 ] } },
{ "type": "Feature", "properties": { "index": "173", "@osmId": "way/25741111", "name": "Square de Marathon", "opening_hours": null, "label": "Parks & green spaces", "color": "#31a354" }, "geometry": { "type": "Point", "coordinates": [ 3.8895508, 43.6075962 ] } },
{ "type": "Feature", "properties": { "index": "174", "@osmId": "way/26930621", "name": "Espaces des Pertuisanes", "opening_hours": null, "label": "Parks & green spaces", "color": "#31a354" }, "geometry": { "type": "Point", "coordinates": [ 3.8861396, 43.6077234 ] } },
{ "type": "Feature", "properties": { "index": "175", "@osmId": "way/27817003", "name": "Parc Georges Clemenceau", "opening_hours": null, "label": "Parks & green spaces", "color": "#31a354" }, "geometry": { "type": "Point", "coordinates": [ 3.871733, 43.6041145 ] } },
{ "type": "Feature", "properties": { "index": "176", "@osmId": "way/35465288", "name": "Jardin de l'Hôtel de Sully", "opening_hours": "Mo-Fr 09:00-12:00, 14:00-17:00", "label": "Parks & green spaces", "color": "#31a354" }, "geometry": { "type": "Point", "coordinates": [ 3.8807325, 43.6132116 ] } },
{ "type": "Feature", "properties": { "index": "177", "@osmId": "way/48274235", "name": "Place François Jaumes", "opening_hours": null, "label": "Parks & green spaces", "color": "#31a354" }, "geometry": { "type": "Point", "coordinates": [ 3.8841746, 43.605421 ] } },
{ "type": "Feature", "properties": { "index": "178", "@osmId": "way/78195773", "name": "Square de la Tour des Pins", "opening_hours": null, "label": "Parks & green spaces", "color": "#31a354" }, "geometry": { "type": "Point", "coordinates": [ 3.8737493, 43.614002 ] } },
{ "type": "Feature", "properties": { "index": "179", "@osmId": "way/110521269", "name": "Square de l'Intendance du Languedoc", "opening_hours": null, "label": "Parks & green spaces", "color": "#31a354" }, "geometry": { "type": "Point", "coordinates": [ 3.8759736, 43.612339 ] } },
{ "type": "Feature", "properties": { "index": "180", "@osmId": "way/110521621", "name": "Plan Cavaillé Coll", "opening_hours": null, "label": "Parks & green spaces", "color": "#31a354" }, "geometry": { "type": "Point", "coordinates": [ 3.8784845, 43.613511 ] } },
{ "type": "Feature", "properties": { "index": "181", "@osmId": "way/116984605", "name": "Jardin de la Reine", "opening_hours": null, "label": "Parks & green spaces", "color": "#31a354" }, "geometry": { "type": "Point", "coordinates": [ 3.870185, 43.6133703 ] } },
{ "type": "Feature", "properties": { "index": "182", "@osmId": "way/181565280", "name": "Square Dominique Bagouet", "opening_hours": null, "label": "Parks & green spaces", "color": "#31a354" }, "geometry": { "type": "Point", "coordinates": [ 3.8761182, 43.6086816 ] } },
{ "type": "Feature", "properties": { "index": "183", "@osmId": "way/195749636", "name": "Square Théophraste Renaudot", "opening_hours": null, "label": "Parks & green spaces", "color": "#31a354" }, "geometry": { "type": "Point", "coordinates": [ 3.8757543, 43.6149779 ] } },
{ "type": "Feature", "properties": { "index": "184", "@osmId": "way/433245937", "name": "Square Saint-Cléophas", "opening_hours": null, "label": "Parks & green spaces", "color": "#31a354" }, "geometry": { "type": "Point", "coordinates": [ 3.8676123, 43.6002261 ] } },
{ "type": "Feature", "properties": { "index": "185", "@osmId": "way/433272720", "name": "Square de la Providence", "opening_hours": null, "label": "Parks & green spaces", "color": "#31a354" }, "geometry": { "type": "Point", "coordinates": [ 3.8754301, 43.6138664 ] } },
{ "type": "Feature", "properties": { "index": "186", "@osmId": "way/433272721", "name": "Square Louis Boffet", "opening_hours": null, "label": "Parks & green spaces", "color": "#31a354" }, "geometry": { "type": "Point", "coordinates": [ 3.8749247, 43.6136614 ] } },
{ "type": "Feature", "properties": { "index": "187", "@osmId": "way/433272722", "name": "Jardin des Arceaux", "opening_hours": null, "label": "Parks & green spaces", "color": "#31a354" }, "geometry": { "type": "Point", "coordinates": [ 3.8680145, 43.6113321 ] } },
{ "type": "Feature", "properties": { "index": "188", "@osmId": "way/480210780", "name": "Jardin de la Panacée", "opening_hours": null, "label": "Parks & green spaces", "color": "#31a354" }, "geometry": { "type": "Point", "coordinates": [ 3.8780906, 43.6128159 ] } },
{ "type": "Feature", "properties": { "index": "189", "@osmId": "way/615932591", "name": "Promenade du Peyrou", "opening_hours": "07:00-20:00; Mar-May,Sep,Oct 07:00-21:30; Jun-Aug 07:00-00:00", "label": "Parks & green spaces", "color": "#31a354" }, "geometry": { "type": "Point", "coordinates": [ 3.8700358, 43.6113121 ] } },
{ "type": "Feature", "properties": { "index": "190", "@osmId": "way/1089425502", "name": null, "opening_hours": null, "label": "Parks & green spaces", "color": "#31a354" }, "geometry": { "type": "Point", "coordinates": [ 3.8866753, 43.6030821 ] } },
{ "type": "Feature", "properties": { "index": "191", "@osmId": "way/1090231660", "name": "Jardin partagé de Candolle", "opening_hours": null, "label": "Parks & green spaces", "color": "#31a354" }, "geometry": { "type": "Point", "coordinates": [ 3.8758091, 43.6123422 ] } },
{ "type": "Feature", "properties": { "index": "192", "@osmId": "way/1451459370", "name": "Square forain", "opening_hours": null, "label": "Parks & green spaces", "color": "#31a354" }, "geometry": { "type": "Point", "coordinates": [ 3.8815954, 43.6097546 ] } },
{ "type": "Feature", "properties": { "index": "193", "@osmId": "way/8658124", "name": "Cimetière Saint-Lazare", "opening_hours": null, "label": "Cemeteries", "color": "#78c679" }, "geometry": { "type": "Point", "coordinates": [ 3.8916131, 43.624538 ] } },
{ "type": "Feature", "properties": { "index": "194", "@osmId": "way/14880928", "name": "Annexe Cimetière Saint-Lazare", "opening_hours": null, "label": "Cemeteries", "color": "#78c679" }, "geometry": { "type": "Point", "coordinates": [ 3.8903934, 43.623725 ] } },
{ "type": "Feature", "properties": { "index": "195", "@osmId": "way/25787377", "name": "Cimetière des Protestants", "opening_hours": null, "label": "Cemeteries", "color": "#78c679" }, "geometry": { "type": "Point", "coordinates": [ 3.8854133, 43.6026495 ] } },
{ "type": "Feature", "properties": { "index": "196", "@osmId": "way/44602855", "name": null, "opening_hours": null, "label": "Forests & woodland", "color": "#006837" }, "geometry": { "type": "Point", "coordinates": [ 3.8555188, 43.6194129 ] } },
{ "type": "Feature", "properties": { "index": "197", "@osmId": "way/505539128", "name": null, "opening_hours": null, "label": "Forests & woodland", "color": "#006837" }, "geometry": { "type": "Point", "coordinates": [ 3.8558376, 43.6246917 ] } },
{ "type": "Feature", "properties": { "index": "198", "@osmId": "way/510483321", "name": null, "opening_hours": null, "label": "Forests & woodland", "color": "#006837" }, "geometry": { "type": "Point", "coordinates": [ 3.8614915, 43.6210418 ] } },
{ "type": "Feature", "properties": { "index": "199", "@osmId": "way/510483322", "name": null, "opening_hours": null, "label": "Forests & woodland", "color": "#006837" }, "geometry": { "type": "Point", "coordinates": [ 3.8563135, 43.6224953 ] } },
{ "type": "Feature", "properties": { "index": "200", "@osmId": "way/1194042352", "name": null, "opening_hours": null, "label": "Forests & woodland", "color": "#006837" }, "geometry": { "type": "Point", "coordinates": [ 3.8558048, 43.609618 ] } },
{ "type": "Feature", "properties": { "index": "201", "@osmId": "way/26187723", "name": null, "opening_hours": null, "label": "Forests & woodland", "color": "#006837" }, "geometry": { "type": "Point", "coordinates": [ 3.8940307, 43.6168739 ] } },
{ "type": "Feature", "properties": { "index": "202", "@osmId": "way/1215072452", "name": null, "opening_hours": null, "label": "Forests & woodland", "color": "#006837" }, "geometry": { "type": "Point", "coordinates": [ 3.9001562, 43.6215584 ] } },
{ "type": "Feature", "properties": { "index": "203", "@osmId": "way/510481133", "name": null, "opening_hours": null, "label": "Forests & woodland", "color": "#006837" }, "geometry": { "type": "Point", "coordinates": [ 3.867351, 43.6196117 ] } },
{ "type": "Feature", "properties": { "index": "204", "@osmId": "way/26930626", "name": null, "opening_hours": null, "label": "Forests & woodland", "color": "#006837" }, "geometry": { "type": "Point", "coordinates": [ 3.8911746, 43.6086751 ] } },
{ "type": "Feature", "properties": { "index": "205", "@osmId": "way/26930627", "name": null, "opening_hours": null, "label": "Forests & woodland", "color": "#006837" }, "geometry": { "type": "Point", "coordinates": [ 3.8920756, 43.6086159 ] } },
{ "type": "Feature", "properties": { "index": "206", "@osmId": "way/26930991", "name": "Parc Richter", "opening_hours": null, "label": "Forests & woodland", "color": "#006837" }, "geometry": { "type": "Point", "coordinates": [ 3.8968097, 43.6013497 ] } },
{ "type": "Feature", "properties": { "index": "207", "@osmId": "way/26930992", "name": "Parc Richter", "opening_hours": null, "label": "Forests & woodland", "color": "#006837" }, "geometry": { "type": "Point", "coordinates": [ 3.8967346, 43.6020765 ] } },
{ "type": "Feature", "properties": { "index": "208", "@osmId": "way/26931046", "name": null, "opening_hours": null, "label": "Forests & woodland", "color": "#006837" }, "geometry": { "type": "Point", "coordinates": [ 3.900037, 43.6090689 ] } },
{ "type": "Feature", "properties": { "index": "209", "@osmId": "way/26931761", "name": null, "opening_hours": null, "label": "Forests & woodland", "color": "#006837" }, "geometry": { "type": "Point", "coordinates": [ 3.8989716, 43.6058361 ] } },
{ "type": "Feature", "properties": { "index": "210", "@osmId": "way/26935222", "name": null, "opening_hours": null, "label": "Forests & woodland", "color": "#006837" }, "geometry": { "type": "Point", "coordinates": [ 3.8982453, 43.6095475 ] } },
{ "type": "Feature", "properties": { "index": "211", "@osmId": "way/26935223", "name": null, "opening_hours": null, "label": "Forests & woodland", "color": "#006837" }, "geometry": { "type": "Point", "coordinates": [ 3.9004556, 43.6098832 ] } },
{ "type": "Feature", "properties": { "index": "212", "@osmId": "way/26935224", "name": null, "opening_hours": null, "label": "Forests & woodland", "color": "#006837" }, "geometry": { "type": "Point", "coordinates": [ 3.900292, 43.6093557 ] } },
{ "type": "Feature", "properties": { "index": "213", "@osmId": "way/26935227", "name": null, "opening_hours": null, "label": "Forests & woodland", "color": "#006837" }, "geometry": { "type": "Point", "coordinates": [ 3.9014182, 43.6095191 ] } },
{ "type": "Feature", "properties": { "index": "214", "@osmId": "way/26935228", "name": null, "opening_hours": null, "label": "Forests & woodland", "color": "#006837" }, "geometry": { "type": "Point", "coordinates": [ 3.9023665, 43.6100321 ] } },
{ "type": "Feature", "properties": { "index": "215", "@osmId": "way/26935295", "name": null, "opening_hours": null, "label": "Forests & woodland", "color": "#006837" }, "geometry": { "type": "Point", "coordinates": [ 3.9049708, 43.6097908 ] } },
{ "type": "Feature", "properties": { "index": "216", "@osmId": "way/26937707", "name": null, "opening_hours": null, "label": "Forests & woodland", "color": "#006837" }, "geometry": { "type": "Point", "coordinates": [ 3.8898195, 43.6109742 ] } },
{ "type": "Feature", "properties": { "index": "217", "@osmId": "way/26938756", "name": null, "opening_hours": null, "label": "Forests & woodland", "color": "#006837" }, "geometry": { "type": "Point", "coordinates": [ 3.9044768, 43.6102872 ] } },
{ "type": "Feature", "properties": { "index": "218", "@osmId": "way/362926207", "name": null, "opening_hours": null, "label": "Forests & woodland", "color": "#006837" }, "geometry": { "type": "Point", "coordinates": [ 3.9016559, 43.6083811 ] } },
{ "type": "Feature", "properties": { "index": "219", "@osmId": "way/455743600", "name": null, "opening_hours": null, "label": "Forests & woodland", "color": "#006837" }, "geometry": { "type": "Point", "coordinates": [ 3.8977386, 43.6051323 ] } },
{ "type": "Feature", "properties": { "index": "220", "@osmId": "way/456762001", "name": null, "opening_hours": null, "label": "Forests & woodland", "color": "#006837" }, "geometry": { "type": "Point", "coordinates": [ 3.8975216, 43.6102693 ] } },
{ "type": "Feature", "properties": { "index": "221", "@osmId": "way/457177923", "name": null, "opening_hours": null, "label": "Forests & woodland", "color": "#006837" }, "geometry": { "type": "Point", "coordinates": [ 3.8961539, 43.6116978 ] } },
{ "type": "Feature", "properties": { "index": "222", "@osmId": "way/459162041", "name": null, "opening_hours": null, "label": "Forests & woodland", "color": "#006837" }, "geometry": { "type": "Point", "coordinates": [ 3.903709, 43.6062328 ] } },
{ "type": "Feature", "properties": { "index": "223", "@osmId": "way/540202290", "name": null, "opening_hours": null, "label": "Forests & woodland", "color": "#006837" }, "geometry": { "type": "Point", "coordinates": [ 3.9022283, 43.6095462 ] } },
{ "type": "Feature", "properties": { "index": "224", "@osmId": "way/555423189", "name": null, "opening_hours": null, "label": "Forests & woodland", "color": "#006837" }, "geometry": { "type": "Point", "coordinates": [ 3.8966579, 43.6000927 ] } },
{ "type": "Feature", "properties": { "index": "225", "@osmId": "way/785931757", "name": null, "opening_hours": null, "label": "Forests & woodland", "color": "#006837" }, "geometry": { "type": "Point", "coordinates": [ 3.89225, 43.6151488 ] } },
{ "type": "Feature", "properties": { "index": "226", "@osmId": "way/785931758", "name": null, "opening_hours": null, "label": "Forests & woodland", "color": "#006837" }, "geometry": { "type": "Point", "coordinates": [ 3.8935122, 43.6156587 ] } },
{ "type": "Feature", "properties": { "index": "227", "@osmId": "way/788211096", "name": null, "opening_hours": null, "label": "Forests & woodland", "color": "#006837" }, "geometry": { "type": "Point", "coordinates": [ 3.8937939, 43.6149538 ] } },
{ "type": "Feature", "properties": { "index": "228", "@osmId": "way/1190119816", "name": null, "opening_hours": null, "label": "Forests & woodland", "color": "#006837" }, "geometry": { "type": "Point", "coordinates": [ 3.8941355, 43.6142857 ] } },
{ "type": "Feature", "properties": { "index": "229", "@osmId": "way/1190120667", "name": null, "opening_hours": null, "label": "Forests & woodland", "color": "#006837" }, "geometry": { "type": "Point", "coordinates": [ 3.8941484, 43.6148016 ] } },
{ "type": "Feature", "properties": { "index": "230", "@osmId": "way/1207466459", "name": null, "opening_hours": null, "label": "Forests & woodland", "color": "#006837" }, "geometry": { "type": "Point", "coordinates": [ 3.9023358, 43.608419 ] } },
{ "type": "Feature", "properties": { "index": "231", "@osmId": "way/1207466464", "name": null, "opening_hours": null, "label": "Forests & woodland", "color": "#006837" }, "geometry": { "type": "Point", "coordinates": [ 3.9021774, 43.6090539 ] } },
{ "type": "Feature", "properties": { "index": "232", "@osmId": "way/1445753368", "name": null, "opening_hours": null, "label": "Forests & woodland", "color": "#006837" }, "geometry": { "type": "Point", "coordinates": [ 3.9035649, 43.6056243 ] } },
{ "type": "Feature", "properties": { "index": "233", "@osmId": "way/510705395", "name": null, "opening_hours": null, "label": "Forests & woodland", "color": "#006837" }, "geometry": { "type": "Point", "coordinates": [ 3.8702322, 43.6242213 ] } },
{ "type": "Feature", "properties": { "index": "234", "@osmId": "way/510705396", "name": null, "opening_hours": null, "label": "Forests & woodland", "color": "#006837" }, "geometry": { "type": "Point", "coordinates": [ 3.8709302, 43.6230287 ] } },
{ "type": "Feature", "properties": { "index": "235", "@osmId": "way/1215010789", "name": null, "opening_hours": null, "label": "Forests & woodland", "color": "#006837" }, "geometry": { "type": "Point", "coordinates": [ 3.8723737, 43.6239441 ] } },
{ "type": "Feature", "properties": { "index": "236", "@osmId": "way/1215063300", "name": null, "opening_hours": null, "label": "Forests & woodland", "color": "#006837" }, "geometry": { "type": "Point", "coordinates": [ 3.8883636, 43.6218938 ] } },
{ "type": "Feature", "properties": { "index": "237", "@osmId": "way/1215065606", "name": null, "opening_hours": null, "label": "Forests & woodland", "color": "#006837" }, "geometry": { "type": "Point", "coordinates": [ 3.8838412, 43.6159897 ] } },
{ "type": "Feature", "properties": { "index": "238", "@osmId": "way/456754069", "name": null, "opening_hours": null, "label": "Forests & woodland", "color": "#006837" }, "geometry": { "type": "Point", "coordinates": [ 3.8973274, 43.6002461 ] } },
{ "type": "Feature", "properties": { "index": "239", "@osmId": "way/26930622", "name": null, "opening_hours": null, "label": "Forests & woodland", "color": "#006837" }, "geometry": { "type": "Point", "coordinates": [ 3.8875497, 43.6090293 ] } },
{ "type": "Feature", "properties": { "index": "240", "@osmId": "way/26930623", "name": null, "opening_hours": null, "label": "Forests & woodland", "color": "#006837" }, "geometry": { "type": "Point", "coordinates": [ 3.889038, 43.6091008 ] } },
{ "type": "Feature", "properties": { "index": "241", "@osmId": "way/26936669", "name": null, "opening_hours": null, "label": "Forests & woodland", "color": "#006837" }, "geometry": { "type": "Point", "coordinates": [ 3.8869722, 43.6134876 ] } },
{ "type": "Feature", "properties": { "index": "242", "@osmId": "way/26936827", "name": null, "opening_hours": null, "label": "Forests & woodland", "color": "#006837" }, "geometry": { "type": "Point", "coordinates": [ 3.8840529, 43.6130768 ] } },
{ "type": "Feature", "properties": { "index": "243", "@osmId": "way/26937383", "name": null, "opening_hours": null, "label": "Forests & woodland", "color": "#006837" }, "geometry": { "type": "Point", "coordinates": [ 3.8826538, 43.6107877 ] } },
{ "type": "Feature", "properties": { "index": "244", "@osmId": "way/26937385", "name": null, "opening_hours": null, "label": "Forests & woodland", "color": "#006837" }, "geometry": { "type": "Point", "coordinates": [ 3.8824677, 43.6117055 ] } },
{ "type": "Feature", "properties": { "index": "245", "@osmId": "way/26937831", "name": null, "opening_hours": null, "label": "Forests & woodland", "color": "#006837" }, "geometry": { "type": "Point", "coordinates": [ 3.8888356, 43.6099449 ] } },
{ "type": "Feature", "properties": { "index": "246", "@osmId": "way/26937975", "name": null, "opening_hours": null, "label": "Forests & woodland", "color": "#006837" }, "geometry": { "type": "Point", "coordinates": [ 3.887918, 43.6099027 ] } },
{ "type": "Feature", "properties": { "index": "247", "@osmId": "way/575117855", "name": null, "opening_hours": null, "label": "Forests & woodland", "color": "#006837" }, "geometry": { "type": "Point", "coordinates": [ 3.8702095, 43.6133726 ] } },
{ "type": "Feature", "properties": { "index": "248", "@osmId": "way/1215006836", "name": null, "opening_hours": null, "label": "Forests & woodland", "color": "#006837" }, "geometry": { "type": "Point", "coordinates": [ 3.8724848, 43.6150221 ] } },
{ "type": "Feature", "properties": { "index": "249", "@osmId": "way/1215006837", "name": null, "opening_hours": null, "label": "Forests & woodland", "color": "#006837" }, "geometry": { "type": "Point", "coordinates": [ 3.8723026, 43.614646 ] } },
{ "type": "Feature", "properties": { "index": "250", "@osmId": "way/1215006838", "name": null, "opening_hours": null, "label": "Forests & woodland", "color": "#006837" }, "geometry": { "type": "Point", "coordinates": [ 3.8716943, 43.6145872 ] } },
{ "type": "Feature", "properties": { "index": "251", "@osmId": "way/1215006850", "name": null, "opening_hours": null, "label": "Forests & woodland", "color": "#006837" }, "geometry": { "type": "Point", "coordinates": [ 3.872057, 43.612933 ] } },
{ "type": "Feature", "properties": { "index": "252", "@osmId": "way/1352130652", "name": null, "opening_hours": null, "label": "Forests & woodland", "color": "#006837" }, "geometry": { "type": "Point", "coordinates": [ 3.883395, 43.610566 ] } },
{ "type": "Feature", "properties": { "index": "253", "@osmId": "way/1352130653", "name": null, "opening_hours": null, "label": "Forests & woodland", "color": "#006837" }, "geometry": { "type": "Point", "coordinates": [ 3.8830411, 43.6120506 ] } }
]
}
