{
"type": "FeatureCollection",
"features": [
{ "type": "Feature", "properties": { "index": "0", "label": "Within 300 m on foot", "color": "#2b8cbe" }, "geometry": { "type": "MultiPolygon", "coordinates": [ [ [ [ 3.8555265, 43.6003822 ], [ 3.8555048, 43.6001176 ], [ 3.8555111, 43.6000001 ], [ 3.8637688, 43.6000016 ], [ 3.8637692, 43.6000063 ], [ 3.863755, 43.6002712 ], [ 3.8637053, 43.6005337 ], [ 3.8636203, 43.6007915 ], [ 3.863501, 43.601042 ], [ 3.8633485, 43.6012828 ], [ 3.8631643, 43.6015116 ], [ 3.86295, 43.6017261 ], [ 3.8627079, 43.6019243 ], [ 3.8624402, 43.6021044 ], [ 3.8621495, 43.6022645 ], [ 3.8618386, 43.6024031 ], [ 3.8615105, 43.6025189 ], [ 3.8611683, 43.6026108 ], [ 3.8608154, 43.6026779 ], [ 3.8604552, 43.6027195 ], [ 3.8600911, 43.6027352 ], [ 3.8599891, 43.6027324 ], [ 3.8599842, 43.6027333 ], [ 3.859624, 43.6027749 ], [ 3.8592598, 43.6027906 ], [ 3.8588954, 43.6027804 ], [ 3.858534, 43.6027442 ], [ 3.8581793, 43.6026824 ], [ 3.8578346, 43.6025957 ], [ 3.8575033, 43.6024849 ], [ 3.8571885, 43.6023509 ], [ 3.8568933, 43.6021953 ], [ 3.8566205, 43.6020193 ], [ 3.8563728, 43.6018247 ], [ 3.8561525, 43.6016134 ], [ 3.8559617, 43.6013875 ], [ 3.8558024, 43.6011491 ], [ 3.855676, 43.6009004 ], [ 3.8555837, 43.600644 ], [ 3.8555265, 43.6003822 ] ] ], [ [ [ 3.8638553, 43.6003143 ], [ 3.8638694, 43.6000495 ], [ 3.8638785, 43.6000016 ], [ 3.8793646, 43.6000027 ], [ 3.8793805, 43.6000265 ], [ 3.879507, 43.6002752 ], [ 3.8795994, 43.6005316 ], [ 3.8796568, 43.6007934 ], [ 3.8796785, 43.601058 ], [ 3.8796645, 43.6013228 ], [ 3.8796148, 43.6015854 ], [ 3.8795299, 43.6018432 ], [ 3.8794107, 43.6020937 ], [ 3.8792582, 43.6023345 ], [ 3.879074, 43.6025633 ], [ 3.8789138, 43.6027238 ], [ 3.878949, 43.6027465 ], [ 3.8790569, 43.6028311 ], [ 3.8791115, 43.6028208 ], [ 3.8794717, 43.6027791 ], [ 3.8794791, 43.6027788 ], [ 3.8794797, 43.6027665 ], [ 3.8795294, 43.6025039 ], [ 3.8796143, 43.6022461 ], [ 3.8797335, 43.6019956 ], [ 3.879886, 43.6017548 ], [ 3.8800702, 43.601526 ], [ 3.8802844, 43.6013114 ], [ 3.8805264, 43.6011131 ], [ 3.8807941, 43.6009331 ], [ 3.8810847, 43.6007729 ], [ 3.8813956, 43.6006342 ], [ 3.8817236, 43.6005184 ], [ 3.8820657, 43.6004264 ], [ 3.8824186, 43.6003593 ], [ 3.8827788, 43.6003176 ], [ 3.8831429, 43.6003018 ], [ 3.8835074, 43.600312 ], [ 3.883548, 43.600316 ], [ 3.8836264, 43.6002811 ], [ 3.8839544, 43.6001652 ], [ 3.8842965, 43.6000732 ], [ 3.8846494, 43.6000061 ], [ 3.8846792, 43.6000026 ], [ 3.8861439, 43.6000026 ], [ 3.8864542, 43.6000565 ], [ 3.886799, 43.6001432 ], [ 3.8871303, 43.6002539 ], [ 3.8874452, 43.6003878 ], [ 3.8875987, 43.6004687 ], [ 3.8877162, 43.6004891 ], [ 3.8880609, 43.6005757 ], [ 3.8883923, 43.6006865 ], [ 3.8887071, 43.6008203 ], [ 3.8890024, 43.600976 ], [ 3.8892753, 43.6011518 ], [ 3.8895231, 43.6013463 ], [ 3.8896206, 43.6014398 ], [ 3.8898366, 43.6014613 ], [ 3.8900308, 43.6014951 ], [ 3.8900348, 43.6014205 ], [ 3.8900844, 43.6011579 ], [ 3.8901692, 43.6009001 ], [ 3.8902884, 43.6006496 ], [ 3.8904408, 43.6004088 ], [ 3.890625, 43.60018 ], [ 3.8908024, 43.6000022 ], [ 3.905, 43.6 ], [ 3.905, 43.6129585 ], [ 3.9048814, 43.6129722 ], [ 3.9045173, 43.6129881 ], [ 3.9041527, 43.612978 ], [ 3.9037913, 43.6129419 ], [ 3.9037268, 43.6129307 ], [ 3.9037259, 43.6129311 ], [ 3.9033978, 43.6130471 ], [ 3.9030557, 43.6131391 ], [ 3.9027028, 43.6132063 ], [ 3.9023425, 43.613248 ], [ 3.9019784, 43.6132639 ], [ 3.9016138, 43.6132538 ], [ 3.9012524, 43.6132177 ], [ 3.9008975, 43.6131561 ], [ 3.9005527, 43.6130695 ], [ 3.9002213, 43.6129588 ], [ 3.8999063, 43.612825 ], [ 3.8996184, 43.6126733 ], [ 3.8996036, 43.6127044 ], [ 3.8994512, 43.6129452 ], [ 3.899267, 43.6131741 ], [ 3.8990529, 43.6133887 ], [ 3.8988108, 43.613587 ], [ 3.8985432, 43.6137671 ], [ 3.8982525, 43.6139273 ], [ 3.8979416, 43.614066 ], [ 3.8978401, 43.6141019 ], [ 3.8978529, 43.6142566 ], [ 3.8978405, 43.6144919 ], [ 3.897844, 43.6145079 ], [ 3.8978658, 43.6147725 ], [ 3.8978519, 43.6150373 ], [ 3.8978022, 43.6152999 ], [ 3.8977174, 43.6155577 ], [ 3.8975982, 43.6158083 ], [ 3.8975146, 43.6159404 ], [ 3.8975765, 43.616062 ], [ 3.8976432, 43.6162468 ], [ 3.8977548, 43.6163343 ], [ 3.8979753, 43.6165455 ], [ 3.8981662, 43.6167714 ], [ 3.8983258, 43.6170098 ], [ 3.8984524, 43.6172584 ], [ 3.8985449, 43.6175148 ], [ 3.8985567, 43.6175689 ], [ 3.8986113, 43.6175388 ], [ 3.8989222, 43.6174001 ], [ 3.8992503, 43.6172842 ], [ 3.8995925, 43.6171922 ], [ 3.8999454, 43.617125 ], [ 3.9003057, 43.6170833 ], [ 3.9006699, 43.6170674 ], [ 3.9010345, 43.6170775 ], [ 3.9013959, 43.6171136 ], [ 3.9017508, 43.6171752 ], [ 3.9020956, 43.6172618 ], [ 3.9024271, 43.6173725 ], [ 3.9027421, 43.6175063 ], [ 3.9030375, 43.6176619 ], [ 3.9033104, 43.6178377 ], [ 3.9035584, 43.6180322 ], [ 3.9037789, 43.6182434 ], [ 3.9039699, 43.6184692 ], [ 3.9041294, 43.6187076 ], [ 3.9042561, 43.6189562 ], [ 3.9043486, 43.6192126 ], [ 3.9043666, 43.6192946 ], [ 3.9044084, 43.619357 ], [ 3.904535, 43.6196056 ], [ 3.9046275, 43.619862 ], [ 3.904685, 43.6201237 ], [ 3.9047069, 43.6203883 ], [ 3.9046929, 43.6206532 ], [ 3.9046433, 43.6209158 ], [ 3.9045585, 43.6211736 ], [ 3.9044394, 43.6214242 ], [ 3.904287, 43.621665 ], [ 3.9041028, 43.6218938 ], [ 3.9038886, 43.6221084 ], [ 3.9037583, 43.6222152 ], [ 3.9037573, 43.6222181 ], [ 3.9037955, 43.6222427 ], [ 3.9040435, 43.6224372 ], [ 3.904264, 43.6226483 ], [ 3.904455, 43.6228742 ], [ 3.9046146, 43.6231126 ], [ 3.9047412, 43.6233612 ], [ 3.9048338, 43.6236176 ], [ 3.9048912, 43.6238793 ], [ 3.9049131, 43.6241439 ], [ 3.9048992, 43.6244088 ], [ 3.9048496, 43.6246714 ], [ 3.9047648, 43.6249292 ], [ 3.9047311, 43.6250001 ], [ 3.8975081, 43.6250014 ], [ 3.8971984, 43.6248698 ], [ 3.896903, 43.6247143 ], [ 3.89663, 43.6245384 ], [ 3.8963821, 43.6243439 ], [ 3.8961616, 43.6241327 ], [ 3.8959706, 43.6239068 ], [ 3.895811, 43.6236685 ], [ 3.8956844, 43.6234199 ], [ 3.8955919, 43.6231634 ], [ 3.8955345, 43.6229017 ], [ 3.8955127, 43.6226371 ], [ 3.8955267, 43.6223722 ], [ 3.8955763, 43.6221096 ], [ 3.8956611, 43.6218518 ], [ 3.8957803, 43.6216013 ], [ 3.8959328, 43.6213605 ], [ 3.896117, 43.6211316 ], [ 3.8961885, 43.6210599 ], [ 3.8961969, 43.6209005 ], [ 3.8962466, 43.6206379 ], [ 3.8962651, 43.6205817 ], [ 3.8960241, 43.6206464 ], [ 3.8956711, 43.6207136 ], [ 3.8953108, 43.6207553 ], [ 3.8949466, 43.6207712 ], [ 3.894582, 43.6207611 ], [ 3.8942205, 43.620725 ], [ 3.8939169, 43.6206723 ], [ 3.893778, 43.6206783 ], [ 3.8934134, 43.6206681 ], [ 3.8930519, 43.6206321 ], [ 3.8926971, 43.6205704 ], [ 3.8923522, 43.6204838 ], [ 3.8920207, 43.6203731 ], [ 3.8917058, 43.6202393 ], [ 3.8916523, 43.6202111 ], [ 3.8914974, 43.6202178 ], [ 3.891268, 43.6202114 ], [ 3.8914327, 43.6203692 ], [ 3.8916237, 43.6205951 ], [ 3.8917832, 43.6208335 ], [ 3.8919098, 43.6210821 ], [ 3.8919836, 43.6212869 ], [ 3.8921108, 43.6213294 ], [ 3.8924258, 43.6214632 ], [ 3.8927212, 43.6216188 ], [ 3.8929941, 43.6217947 ], [ 3.8932421, 43.6219891 ], [ 3.893459, 43.6221969 ], [ 3.8936455, 43.6222762 ], [ 3.8939409, 43.6224318 ], [ 3.8942138, 43.6226076 ], [ 3.8944618, 43.6228021 ], [ 3.8946823, 43.6230133 ], [ 3.8948732, 43.6232392 ], [ 3.8950328, 43.6234776 ], [ 3.8951594, 43.6237262 ], [ 3.8952519, 43.6239826 ], [ 3.8953093, 43.6242443 ], [ 3.8953311, 43.6245089 ], [ 3.8953172, 43.6247738 ], [ 3.8952741, 43.6250017 ], [ 3.8849398, 43.6250026 ], [ 3.8847456, 43.6248166 ], [ 3.8845547, 43.6245907 ], [ 3.8843952, 43.6243523 ], [ 3.8842686, 43.6241037 ], [ 3.8841762, 43.6238473 ], [ 3.8841188, 43.6235855 ], [ 3.884097, 43.6233209 ], [ 3.8841111, 43.623056 ], [ 3.8841608, 43.6227934 ], [ 3.8842235, 43.6226029 ], [ 3.8840966, 43.6226595 ], [ 3.8837684, 43.6227754 ], [ 3.8834262, 43.6228674 ], [ 3.8830732, 43.6229345 ], [ 3.8827128, 43.6229762 ], [ 3.8823486, 43.622992 ], [ 3.881984, 43.6229818 ], [ 3.8816225, 43.6229457 ], [ 3.8812676, 43.622884 ], [ 3.8809228, 43.6227974 ], [ 3.8805913, 43.6226866 ], [ 3.8802764, 43.6225528 ], [ 3.879981, 43.6223971 ], [ 3.8798032, 43.6222825 ], [ 3.8798236, 43.6223226 ], [ 3.8799537, 43.6224473 ], [ 3.8801446, 43.6226732 ], [ 3.8803041, 43.6229116 ], [ 3.8804307, 43.6231602 ], [ 3.8805231, 43.6234166 ], [ 3.8805804, 43.6236784 ], [ 3.8806022, 43.623943 ], [ 3.8805882, 43.6242079 ], [ 3.8805385, 43.6244705 ], [ 3.8804536, 43.6247283 ], [ 3.8803343, 43.6249788 ], [ 3.8803191, 43.6250027 ], [ 3.8666746, 43.625002 ], [ 3.8665932, 43.6247759 ], [ 3.8665604, 43.6246261 ], [ 3.8662708, 43.6245293 ], [ 3.8659559, 43.6243954 ], [ 3.8656605, 43.6242397 ], [ 3.8653876, 43.6240638 ], [ 3.8652618, 43.623965 ], [ 3.8649846, 43.6238189 ], [ 3.8647117, 43.623643 ], [ 3.8644639, 43.6234484 ], [ 3.8642435, 43.6232372 ], [ 3.8640527, 43.6230112 ], [ 3.8640455, 43.6230006 ], [ 3.86388, 43.6231118 ], [ 3.8635892, 43.623272 ], [ 3.8632782, 43.6234106 ], [ 3.86295, 43.6235264 ], [ 3.8626077, 43.6236183 ], [ 3.8622547, 43.6236854 ], [ 3.8618943, 43.623727 ], [ 3.8615301, 43.6237427 ], [ 3.8611655, 43.6237325 ], [ 3.860804, 43.6236963 ], [ 3.8604491, 43.6236346 ], [ 3.8601043, 43.6235478 ], [ 3.8597917, 43.6234433 ], [ 3.8597632, 43.6235031 ], [ 3.8596106, 43.6237439 ], [ 3.8594262, 43.6239727 ], [ 3.8594198, 43.6239791 ], [ 3.8594767, 43.6241374 ], [ 3.859534, 43.6243992 ], [ 3.8595557, 43.6246638 ], [ 3.8595415, 43.6249287 ], [ 3.8595278, 43.6250009 ], [ 3.855, 43.625 ], [ 3.855, 43.6167411 ], [ 3.8551163, 43.6167277 ], [ 3.8554805, 43.616712 ], [ 3.8558451, 43.6167222 ], [ 3.8562065, 43.6167584 ], [ 3.8565613, 43.6168202 ], [ 3.8569061, 43.6169069 ], [ 3.8572375, 43.6170178 ], [ 3.8575524, 43.6171517 ], [ 3.8578476, 43.6173074 ], [ 3.8581205, 43.6174833 ], [ 3.8583683, 43.6176779 ], [ 3.8585886, 43.6178892 ], [ 3.8587794, 43.6181151 ], [ 3.8589388, 43.6183535 ], [ 3.8590653, 43.6186022 ], [ 3.8591576, 43.6188586 ], [ 3.8591738, 43.6189328 ], [ 3.859394, 43.6188116 ], [ 3.859705, 43.618673 ], [ 3.8598942, 43.6186062 ], [ 3.8597445, 43.6183823 ], [ 3.859618, 43.6181336 ], [ 3.8595257, 43.6178772 ], [ 3.8594684, 43.6176154 ], [ 3.8594468, 43.6173508 ], [ 3.8594609, 43.6170859 ], [ 3.8595107, 43.6168233 ], [ 3.8595957, 43.6165656 ], [ 3.859715, 43.6163151 ], [ 3.8598676, 43.6160743 ], [ 3.8600519, 43.6158455 ], [ 3.8602415, 43.6156557 ], [ 3.8601741, 43.6156738 ], [ 3.8598212, 43.6157409 ], [ 3.8594608, 43.6157825 ], [ 3.8590967, 43.6157982 ], [ 3.8587321, 43.615788 ], [ 3.8583707, 43.6157518 ], [ 3.8580159, 43.61569 ], [ 3.8576711, 43.6156033 ], [ 3.8573397, 43.6154925 ], [ 3.8570248, 43.6153585 ], [ 3.8567296, 43.6152028 ], [ 3.8564567, 43.6150269 ], [ 3.8562089, 43.6148323 ], [ 3.8559886, 43.614621 ], [ 3.8557978, 43.6143951 ], [ 3.8556385, 43.6141567 ], [ 3.855512, 43.613908 ], [ 3.8554197, 43.6136516 ], [ 3.8553625, 43.6133898 ], [ 3.8553408, 43.6131252 ], [ 3.855355, 43.6128603 ], [ 3.8553859, 43.6126973 ], [ 3.8552594, 43.6126156 ], [ 3.8550116, 43.6124211 ], [ 3.855, 43.6124099 ], [ 3.855, 43.6069824 ], [ 3.8550421, 43.6069744 ], [ 3.8554024, 43.6069328 ], [ 3.8556936, 43.6069202 ], [ 3.8556427, 43.6067788 ], [ 3.8555855, 43.606517 ], [ 3.8555639, 43.6062524 ], [ 3.855578, 43.6059875 ], [ 3.8556278, 43.6057249 ], [ 3.8557128, 43.6054671 ], [ 3.8558321, 43.6052167 ], [ 3.8559847, 43.6049759 ], [ 3.856169, 43.6047471 ], [ 3.8563833, 43.6045326 ], [ 3.8566254, 43.6043344 ], [ 3.8568932, 43.6041543 ], [ 3.8571839, 43.6039943 ], [ 3.8574948, 43.6038556 ], [ 3.8578229, 43.6037398 ], [ 3.8581651, 43.603648 ], [ 3.858518, 43.6035809 ], [ 3.8588782, 43.6035393 ], [ 3.8592424, 43.6035236 ], [ 3.8596068, 43.6035338 ], [ 3.8599682, 43.60357 ], [ 3.8601551, 43.6036025 ], [ 3.8604741, 43.6035169 ], [ 3.860827, 43.6034498 ], [ 3.8611872, 43.6034082 ], [ 3.8615514, 43.6033925 ], [ 3.8619158, 43.6034027 ], [ 3.8622772, 43.6034389 ], [ 3.8626319, 43.6035006 ], [ 3.8629766, 43.6035873 ], [ 3.863308, 43.6036982 ], [ 3.8636228, 43.6038321 ], [ 3.863918, 43.6039878 ], [ 3.8641908, 43.6041637 ], [ 3.8644345, 43.604355 ], [ 3.864629, 43.6042479 ], [ 3.8649399, 43.6041093 ], [ 3.865268, 43.6039934 ], [ 3.8656102, 43.6039015 ], [ 3.8659631, 43.6038345 ], [ 3.8663233, 43.6037928 ], [ 3.8666874, 43.6037771 ], [ 3.8667275, 43.6037782 ], [ 3.8668393, 43.6036866 ], [ 3.867107, 43.6035066 ], [ 3.8673977, 43.6033464 ], [ 3.8674807, 43.6033094 ], [ 3.867532, 43.6032674 ], [ 3.8677997, 43.6030874 ], [ 3.8680198, 43.6029662 ], [ 3.8679748, 43.6029714 ], [ 3.8676107, 43.6029871 ], [ 3.8672462, 43.6029769 ], [ 3.8668849, 43.6029407 ], [ 3.8665301, 43.602879 ], [ 3.8661854, 43.6027923 ], [ 3.8658541, 43.6026815 ], [ 3.8655393, 43.6025476 ], [ 3.8652441, 43.6023919 ], [ 3.8649713, 43.602216 ], [ 3.8647235, 43.6020214 ], [ 3.8645032, 43.6018102 ], [ 3.8643124, 43.6015842 ], [ 3.864153, 43.6013458 ], [ 3.8640266, 43.6010972 ], [ 3.8639343, 43.6008407 ], [ 3.863877, 43.6005789 ], [ 3.8638553, 43.6003143 ] ], [ [ 3.8788859, 43.6213443 ], [ 3.878837, 43.6212482 ], [ 3.8787431, 43.6212523 ], [ 3.8788859, 43.6213443 ] ], [ [ 3.8643975, 43.6107226 ], [ 3.8644337, 43.6106125 ], [ 3.8643364, 43.6106386 ], [ 3.8643601, 43.6106667 ], [ 3.8643975, 43.6107226 ] ] ] ] } },
{ "type": "Feature", "properties": { "index": "1", "label": "Beyond 300 m", "color": "#d9d9d9" }, "geometry": { "type": "MultiPolygon", "coordinates": [ [ [ [ 3.905, 43.6129585 ], [ 3.905, 43.625 ], [ 3.9047311, 43.6250001 ], [ 3.9047648, 43.6249292 ], [ 3.9048496, 43.6246714 ], [ 3.9048992, 43.6244088 ], [ 3.9049131, 43.6241439 ], [ 3.9048912, 43.6238793 ], [ 3.9048338, 43.6236176 ], [ 3.9047412, 43.6233612 ], [ 3.9046146, 43.6231126 ], [ 3.904455, 43.6228742 ], [ 3.904264, 43.6226483 ], [ 3.9040435, 43.6224372 ], [ 3.9037955, 43.6222427 ], [ 3.9037573, 43.6222181 ], [ 3.9037583, 43.6222152 ], [ 3.9038886, 43.6221084 ], [ 3.9041028, 43.6218938 ], [ 3.904287, 43.621665 ], [ 3.9044394, 43.6214242 ], [ 3.9045585, 43.6211736 ], [ 3.9046433, 43.6209158 ], [ 3.9046929, 43.6206532 ], [ 3.9047069, 43.6203883 ], [ 3.904685, 43.6201237 ], [ 3.9046275, 43.619862 ], [ 3.904535, 43.6196056 ], [ 3.9044084, 43.619357 ], [ 3.9043666, 43.6192946 ], [ 3.9043486, 43.6192126 ], [ 3.9042561, 43.6189562 ], [ 3.9041294, 43.6187076 ], [ 3.9039699, 43.6184692 ], [ 3.9037789, 43.6182434 ], [ 3.9035584, 43.6180322 ], [ 3.9033104, 43.6178377 ], [ 3.9030375, 43.6176619 ], [ 3.9027421, 43.6175063 ], [ 3.9024271, 43.6173725 ], [ 3.9020956, 43.6172618 ], [ 3.9017508, 43.6171752 ], [ 3.9013959, 43.6171136 ], [ 3.9010345, 43.6170775 ], [ 3.9006699, 43.6170674 ], [ 3.9003057, 43.6170833 ], [ 3.8999454, 43.617125 ], [ 3.8995925, 43.6171922 ], [ 3.8992503, 43.6172842 ], [ 3.8989222, 43.6174001 ], [ 3.8986113, 43.6175388 ], [ 3.8985567, 43.6175689 ], [ 3.8985449, 43.6175148 ], [ 3.8984524, 43.6172584 ], [ 3.8983258, 43.6170098 ], [ 3.8981662, 43.6167714 ], [ 3.8979753, 43.6165455 ], [ 3.8977548, 43.6163343 ], [ 3.8976432, 43.6162468 ], [ 3.8975765, 43.616062 ], [ 3.8975146, 43.6159404 ], [ 3.8975982, 43.6158083 ], [ 3.8977174, 43.6155577 ], [ 3.8978022, 43.6152999 ], [ 3.8978519, 43.6150373 ], [ 3.8978658, 43.6147725 ], [ 3.897844, 43.6145079 ], [ 3.8978405, 43.6144919 ], [ 3.8978529, 43.6142566 ], [ 3.8978401, 43.6141019 ], [ 3.8979416, 43.614066 ], [ 3.8982525, 43.6139273 ], [ 3.8985432, 43.6137671 ], [ 3.8988108, 43.613587 ], [ 3.8990529, 43.6133887 ], [ 3.899267, 43.6131741 ], [ 3.8994512, 43.6129452 ], [ 3.8996036, 43.6127044 ], [ 3.8996184, 43.6126733 ], [ 3.8999063, 43.612825 ], [ 3.9002213, 43.6129588 ], [ 3.9005527, 43.6130695 ], [ 3.9008975, 43.6131561 ], [ 3.9012524, 43.6132177 ], [ 3.9016138, 43.6132538 ], [ 3.9019784, 43.6132639 ], [ 3.9023425, 43.613248 ], [ 3.9027028, 43.6132063 ], [ 3.9030557, 43.6131391 ], [ 3.9033978, 43.6130471 ], [ 3.9037259, 43.6129311 ], [ 3.9037268, 43.6129307 ], [ 3.9037913, 43.6129419 ], [ 3.9041527, 43.612978 ], [ 3.9045173, 43.6129881 ], [ 3.9048814, 43.6129722 ], [ 3.905, 43.6129585 ] ] ], [ [ [ 3.8971984, 43.6248698 ], [ 3.8975081, 43.6250014 ], [ 3.8952741, 43.6250017 ], [ 3.8953172, 43.6247738 ], [ 3.8953311, 43.6245089 ], [ 3.8953093, 43.6242443 ], [ 3.8952519, 43.6239826 ], [ 3.8951594, 43.6237262 ], [ 3.8950328, 43.6234776 ], [ 3.8948732, 43.6232392 ], [ 3.8946823, 43.6230133 ], [ 3.8944618, 43.6228021 ], [ 3.8942138, 43.6226076 ], [ 3.8939409, 43.6224318 ], [ 3.8936455, 43.6222762 ], [ 3.893459, 43.6221969 ], [ 3.8932421, 43.6219891 ], [ 3.8929941, 43.6217947 ], [ 3.8927212, 43.6216188 ], [ 3.8924258, 43.6214632 ], [ 3.8921108, 43.6213294 ], [ 3.8919836, 43.6212869 ], [ 3.8919098, 43.6210821 ], [ 3.8917832, 43.6208335 ], [ 3.8916237, 43.6205951 ], [ 3.8914327, 43.6203692 ], [ 3.891268, 43.6202114 ], [ 3.8914974, 43.6202178 ], [ 3.8916523, 43.6202111 ], [ 3.8917058, 43.6202393 ], [ 3.8920207, 43.6203731 ], [ 3.8923522, 43.6204838 ], [ 3.8926971, 43.6205704 ], [ 3.8930519, 43.6206321 ], [ 3.8934134, 43.6206681 ], [ 3.893778, 43.6206783 ], [ 3.8939169, 43.6206723 ], [ 3.8942205, 43.620725 ], [ 3.894582, 43.6207611 ], [ 3.8949466, 43.6207712 ], [ 3.8953108, 43.6207553 ], [ 3.8956711, 43.6207136 ], [ 3.8960241, 43.6206464 ], [ 3.8962651, 43.6205817 ], [ 3.8962466, 43.6206379 ], [ 3.8961969, 43.6209005 ], [ 3.8961885, 43.6210599 ], [ 3.896117, 43.6211316 ], [ 3.8959328, 43.6213605 ], [ 3.8957803, 43.6216013 ], [ 3.8956611, 43.6218518 ], [ 3.8955763, 43.6221096 ], [ 3.8955267, 43.6223722 ], [ 3.8955127, 43.6226371 ], [ 3.8955345, 43.6229017 ], [ 3.8955919, 43.6231634 ], [ 3.8956844, 43.6234199 ], [ 3.895811, 43.6236685 ], [ 3.8959706, 43.6239068 ], [ 3.8961616, 43.6241327 ], [ 3.8963821, 43.6243439 ], [ 3.89663, 43.6245384 ], [ 3.896903, 43.6247143 ], [ 3.8971984, 43.6248698 ] ] ], [ [ [ 3.8847456, 43.6248166 ], [ 3.8849398, 43.6250026 ], [ 3.8803191, 43.6250027 ], [ 3.8803343, 43.6249788 ], [ 3.8804536, 43.6247283 ], [ 3.8805385, 43.6244705 ], [ 3.8805882, 43.6242079 ], [ 3.8806022, 43.623943 ], [ 3.8805804, 43.6236784 ], [ 3.8805231, 43.6234166 ], [ 3.8804307, 43.6231602 ], [ 3.8803041, 43.6229116 ], [ 3.8801446, 43.6226732 ], [ 3.8799537, 43.6224473 ], [ 3.8798236, 43.6223226 ], [ 3.8798032, 43.6222825 ], [ 3.879981, 43.6223971 ], [ 3.8802764, 43.6225528 ], [ 3.8805913, 43.6226866 ], [ 3.8809228, 43.6227974 ], [ 3.8812676, 43.622884 ], [ 3.8816225, 43.6229457 ], [ 3.881984, 43.6229818 ], [ 3.8823486, 43.622992 ], [ 3.8827128, 43.6229762 ], [ 3.8830732, 43.6229345 ], [ 3.8834262, 43.6228674 ], [ 3.8837684, 43.6227754 ], [ 3.8840966, 43.6226595 ], [ 3.8842235, 43.6226029 ], [ 3.8841608, 43.6227934 ], [ 3.8841111, 43.623056 ], [ 3.884097, 43.6233209 ], [ 3.8841188, 43.6235855 ], [ 3.8841762, 43.6238473 ], [ 3.8842686, 43.6241037 ], [ 3.8843952, 43.6243523 ], [ 3.8845547, 43.6245907 ], [ 3.8847456, 43.6248166 ] ] ], [ [ [ 3.8665932, 43.6247759 ], [ 3.8666746, 43.625002 ], [ 3.8595278, 43.6250009 ], [ 3.8595415, 43.6249287 ], [ 3.8595557, 43.6246638 ], [ 3.859534, 43.6243992 ], [ 3.8594767, 43.6241374 ], [ 3.8594198, 43.6239791 ], [ 3.8594262, 43.6239727 ], [ 3.8596106, 43.6237439 ], [ 3.8597632, 43.6235031 ], [ 3.8597917, 43.6234433 ], [ 3.8601043, 43.6235478 ], [ 3.8604491, 43.6236346 ], [ 3.860804, 43.6236963 ], [ 3.8611655, 43.6237325 ], [ 3.8615301, 43.6237427 ], [ 3.8618943, 43.623727 ], [ 3.8622547, 43.6236854 ], [ 3.8626077, 43.6236183 ], [ 3.86295, 43.6235264 ], [ 3.8632782, 43.6234106 ], [ 3.8635892, 43.623272 ], [ 3.86388, 43.6231118 ], [ 3.8640455, 43.6230006 ], [ 3.8640527, 43.6230112 ], [ 3.8642435, 43.6232372 ], [ 3.8644639, 43.6234484 ], [ 3.8647117, 43.623643 ], [ 3.8649846, 43.6238189 ], [ 3.8652618, 43.623965 ], [ 3.8653876, 43.6240638 ], [ 3.8656605, 43.6242397 ], [ 3.8659559, 43.6243954 ], [ 3.8662708, 43.6245293 ], [ 3.8665604, 43.6246261 ], [ 3.8665932, 43.6247759 ] ] ], [ [ [ 3.8551163, 43.6167277 ], [ 3.855, 43.6167411 ], [ 3.855, 43.6124099 ], [ 3.8550116, 43.6124211 ], [ 3.8552594, 43.6126156 ], [ 3.8553859, 43.6126973 ], [ 3.855355, 43.6128603 ], [ 3.8553408, 43.6131252 ], [ 3.8553625, 43.6133898 ], [ 3.8554197, 43.6136516 ], [ 3.855512, 43.613908 ], [ 3.8556385, 43.6141567 ], [ 3.8557978, 43.6143951 ], [ 3.8559886, 43.614621 ], [ 3.8562089, 43.6148323 ], [ 3.8564567, 43.6150269 ], [ 3.8567296, 43.6152028 ], [ 3.8570248, 43.6153585 ], [ 3.8573397, 43.6154925 ], [ 3.8576711, 43.6156033 ], [ 3.8580159, 43.61569 ], [ 3.8583707, 43.6157518 ], [ 3.8587321, 43.615788 ], [ 3.8590967, 43.6157982 ], [ 3.8594608, 43.6157825 ], [ 3.8598212, 43.6157409 ], [ 3.8601741, 43.6156738 ], [ 3.8602415, 43.6156557 ], [ 3.8600519, 43.6158455 ], [ 3.8598676, 43.6160743 ], [ 3.859715, 43.6163151 ], [ 3.8595957, 43.6165656 ], [ 3.8595107, 43.6168233 ], [ 3.8594609, 43.6170859 ], [ 3.8594468, 43.6173508 ], [ 3.8594684, 43.6176154 ], [ 3.8595257, 43.6178772 ], [ 3.859618, 43.6181336 ], [ 3.8597445, 43.6183823 ], [ 3.8598942, 43.6186062 ], [ 3.859705, 43.618673 ], [ 3.859394, 43.6188116 ], [ 3.8591738, 43.6189328 ], [ 3.8591576, 43.6188586 ], [ 3.8590653, 43.6186022 ], [ 3.8589388, 43.6183535 ], [ 3.8587794, 43.6181151 ], [ 3.8585886, 43.6178892 ], [ 3.8583683, 43.6176779 ], [ 3.8581205, 43.6174833 ], [ 3.8578476, 43.6173074 ], [ 3.8575524, 43.6171517 ], [ 3.8572375, 43.6170178 ], [ 3.8569061, 43.6169069 ], [ 3.8565613, 43.6168202 ], [ 3.8562065, 43.6167584 ], [ 3.8558451, 43.6167222 ], [ 3.8554805, 43.616712 ], [ 3.8551163, 43.6167277 ] ] ], [ [ [ 3.855, 43.6069824 ], [ 3.855, 43.6 ], [ 3.8555111, 43.6000001 ], [ 3.8555048, 43.6001176 ], [ 3.8555265, 43.6003822 ], [ 3.8555837, 43.600644 ], [ 3.855676, 43.6009004 ], [ 3.8558024, 43.6011491 ], [ 3.8559617, 43.6013875 ], [ 3.8561525, 43.6016134 ], [ 3.8563728, 43.6018247 ], [ 3.8566205, 43.6020193 ], [ 3.8568933, 43.6021953 ], [ 3.8571885, 43.6023509 ], [ 3.8575033, 43.6024849 ], [ 3.8578346, 43.6025957 ], [ 3.8581793, 43.6026824 ], [ 3.858534, 43.6027442 ], [ 3.8588954, 43.6027804 ], [ 3.8592598, 43.6027906 ], [ 3.859624, 43.6027749 ], [ 3.8599842, 43.6027333 ], [ 3.8599891, 43.6027324 ], [ 3.8600911, 43.6027352 ], [ 3.8604552, 43.6027195 ], [ 3.8608154, 43.6026779 ], [ 3.8611683, 43.6026108 ], [ 3.8615105, 43.6025189 ], [ 3.8618386, 43.6024031 ], [ 3.8621495, 43.6022645 ], [ 3.8624402, 43.6021044 ], [ 3.8627079, 43.6019243 ], [ 3.86295, 43.6017261 ], [ 3.8631643, 43.6015116 ], [ 3.8633485, 43.6012828 ], [ 3.863501, 43.601042 ], [ 3.8636203, 43.6007915 ], [ 3.8637053, 43.6005337 ], [ 3.863755, 43.6002712 ], [ 3.8637692, 43.6000063 ], [ 3.8637688, 43.6000016 ], [ 3.8638785, 43.6000016 ], [ 3.8638694, 43.6000495 ], [ 3.8638553, 43.6003143 ], [ 3.863877, 43.6005789 ], [ 3.8639343, 43.6008407 ], [ 3.8640266, 43.6010972 ], [ 3.864153, 43.6013458 ], [ 3.8643124, 43.6015842 ], [ 3.8645032, 43.6018102 ], [ 3.8647235, 43.6020214 ], [ 3.8649713, 43.602216 ], [ 3.8652441, 43.6023919 ], [ 3.8655393, 43.6025476 ], [ 3.8658541, 43.6026815 ], [ 3.8661854, 43.6027923 ], [ 3.8665301, 43.602879 ], [ 3.8668849, 43.6029407 ], [ 3.8672462, 43.6029769 ], [ 3.8676107, 43.6029871 ], [ 3.8679748, 43.6029714 ], [ 3.8680198, 43.6029662 ], [ 3.8677997, 43.6030874 ], [ 3.867532, 43.6032674 ], [ 3.8674807, 43.6033094 ], [ 3.8673977, 43.6033464 ], [ 3.867107, 43.6035066 ], [ 3.8668393, 43.6036866 ], [ 3.8667275, 43.6037782 ], [ 3.8666874, 43.6037771 ], [ 3.8663233, 43.6037928 ], [ 3.8659631, 43.6038345 ], [ 3.8656102, 43.6039015 ], [ 3.865268, 43.6039934 ], [ 3.8649399, 43.6041093 ], [ 3.864629, 43.6042479 ], [ 3.8644345, 43.604355 ], [ 3.8641908, 43.6041637 ], [ 3.863918, 43.6039878 ], [ 3.8636228, 43.6038321 ], [ 3.863308, 43.6036982 ], [ 3.8629766, 43.6035873 ], [ 3.8626319, 43.6035006 ], [ 3.8622772, 43.6034389 ], [ 3.8619158, 43.6034027 ], [ 3.8615514, 43.6033925 ], [ 3.8611872, 43.6034082 ], [ 3.860827, 43.6034498 ], [ 3.8604741, 43.6035169 ], [ 3.8601551, 43.6036025 ], [ 3.8599682, 43.60357 ], [ 3.8596068, 43.6035338 ], [ 3.8592424, 43.6035236 ], [ 3.8588782, 43.6035393 ], [ 3.858518, 43.6035809 ], [ 3.8581651, 43.603648 ], [ 3.8578229, 43.6037398 ], [ 3.8574948, 43.6038556 ], [ 3.8571839, 43.6039943 ], [ 3.8568932, 43.6041543 ], [ 3.8566254, 43.6043344 ], [ 3.8563833, 43.6045326 ], [ 3.856169, 43.6047471 ], [ 3.8559847, 43.6049759 ], [ 3.8558321, 43.6052167 ], [ 3.8557128, 43.6054671 ], [ 3.8556278, 43.6057249 ], [ 3.855578, 43.6059875 ], [ 3.8555639, 43.6062524 ], [ 3.8555855, 43.606517 ], [ 3.8556427, 43.6067788 ], [ 3.8556936, 43.6069202 ], [ 3.8554024, 43.6069328 ], [ 3.8550421, 43.6069744 ], [ 3.855, 43.6069824 ] ] ], [ [ [ 3.8793805, 43.6000265 ], [ 3.8793646, 43.6000027 ], [ 3.8846792, 43.6000026 ], [ 3.8846494, 43.6000061 ], [ 3.8842965, 43.6000732 ], [ 3.8839544, 43.6001652 ], [ 3.8836264, 43.6002811 ], [ 3.883548, 43.600316 ], [ 3.8835074, 43.600312 ], [ 3.8831429, 43.6003018 ], [ 3.8827788, 43.6003176 ], [ 3.8824186, 43.6003593 ], [ 3.8820657, 43.6004264 ], [ 3.8817236, 43.6005184 ], [ 3.8813956, 43.6006342 ], [ 3.8810847, 43.6007729 ], [ 3.8807941, 43.6009331 ], [ 3.8805264, 43.6011131 ], [ 3.8802844, 43.6013114 ], [ 3.8800702, 43.601526 ], [ 3.879886, 43.6017548 ], [ 3.8797335, 43.6019956 ], [ 3.8796143, 43.6022461 ], [ 3.8795294, 43.6025039 ], [ 3.8794797, 43.6027665 ], [ 3.8794791, 43.6027788 ], [ 3.8794717, 43.6027791 ], [ 3.8791115, 43.6028208 ], [ 3.8790569, 43.6028311 ], [ 3.878949, 43.6027465 ], [ 3.8789138, 43.6027238 ], [ 3.879074, 43.6025633 ], [ 3.8792582, 43.6023345 ], [ 3.8794107, 43.6020937 ], [ 3.8795299, 43.6018432 ], [ 3.8796148, 43.6015854 ], [ 3.8796645, 43.6013228 ], [ 3.8796785, 43.601058 ], [ 3.8796568, 43.6007934 ], [ 3.8795994, 43.6005316 ], [ 3.879507, 43.6002752 ], [ 3.8793805, 43.6000265 ] ] ], [ [ [ 3.8864542, 43.6000565 ], [ 3.8861439, 43.6000026 ], [ 3.8908024, 43.6000022 ], [ 3.890625, 43.60018 ], [ 3.8904408, 43.6004088 ], [ 3.8902884, 43.6006496 ], [ 3.8901692, 43.6009001 ], [ 3.8900844, 43.6011579 ], [ 3.8900348, 43.6014205 ], [ 3.8900308, 43.6014951 ], [ 3.8898366, 43.6014613 ], [ 3.8896206, 43.6014398 ], [ 3.8895231, 43.6013463 ], [ 3.8892753, 43.6011518 ], [ 3.8890024, 43.600976 ], [ 3.8887071, 43.6008203 ], [ 3.8883923, 43.6006865 ], [ 3.8880609, 43.6005757 ], [ 3.8877162, 43.6004891 ], [ 3.8875987, 43.6004687 ], [ 3.8874452, 43.6003878 ], [ 3.8871303, 43.6002539 ], [ 3.886799, 43.6001432 ], [ 3.8864542, 43.6000565 ] ] ], [ [ [ 3.8788859, 43.6213443 ], [ 3.8787431, 43.6212523 ], [ 3.878837, 43.6212482 ], [ 3.8788859, 43.6213443 ] ] ], [ [ [ 3.8643601, 43.6106667 ], [ 3.8643364, 43.6106386 ], [ 3.8644337, 43.6106125 ], [ 3.8643975, 43.6107226 ], [ 3.8643601, 43.6106667 ] ] ] ] } }
]
}
