{
"type": "FeatureCollection",
"features": [
{ "type": "Feature", "properties": { "index": "0", "label": "Within 255 m by wheelchair", "color": "#2b8cbe" }, "geometry": { "type": "MultiPolygon", "coordinates": [ [ [ [ 3.8560807, 43.6003383 ], [ 3.8560623, 43.6001134 ], [ 3.8560684, 43.6000002 ], [ 3.8632109, 43.6000015 ], [ 3.8632117, 43.6000105 ], [ 3.8631997, 43.6002356 ], [ 3.8631574, 43.6004588 ], [ 3.8630852, 43.600678 ], [ 3.8629838, 43.6008909 ], [ 3.8628541, 43.6010955 ], [ 3.8626975, 43.60129 ], [ 3.8625154, 43.6014723 ], [ 3.8623096, 43.6016408 ], [ 3.862082, 43.6017939 ], [ 3.8618349, 43.60193 ], [ 3.8615707, 43.6020478 ], [ 3.8612918, 43.6021462 ], [ 3.861001, 43.6022243 ], [ 3.860701, 43.6022813 ], [ 3.8603948, 43.6023167 ], [ 3.8600853, 43.6023301 ], [ 3.8599281, 43.6023257 ], [ 3.8598698, 43.6023367 ], [ 3.8595636, 43.6023721 ], [ 3.8592541, 43.6023855 ], [ 3.8589443, 43.6023768 ], [ 3.8586371, 43.602346 ], [ 3.8583356, 43.6022935 ], [ 3.8580426, 43.6022198 ], [ 3.857761, 43.6021256 ], [ 3.8574934, 43.6020118 ], [ 3.8572425, 43.6018794 ], [ 3.8570106, 43.6017298 ], [ 3.8568001, 43.6015645 ], [ 3.8566128, 43.6013849 ], [ 3.8564507, 43.6011928 ], [ 3.8563153, 43.6009902 ], [ 3.8562078, 43.6007788 ], [ 3.8561294, 43.6005608 ], [ 3.8560807, 43.6003383 ] ] ], [ [ [ 3.8644128, 43.6003101 ], [ 3.8644248, 43.600085 ], [ 3.8644406, 43.6000017 ], [ 3.870755, 43.6000024 ], [ 3.8707714, 43.6002021 ], [ 3.8707594, 43.6004272 ], [ 3.8707171, 43.6006504 ], [ 3.870645, 43.6008695 ], [ 3.8705436, 43.6010825 ], [ 3.870414, 43.6012871 ], [ 3.870403, 43.6013007 ], [ 3.8703736, 43.6013473 ], [ 3.870217, 43.6015417 ], [ 3.8700349, 43.6017241 ], [ 3.8698291, 43.6018926 ], [ 3.8696016, 43.6020456 ], [ 3.8693545, 43.6021817 ], [ 3.8690902, 43.6022996 ], [ 3.8688114, 43.6023981 ], [ 3.8685205, 43.6024762 ], [ 3.8682206, 43.6025332 ], [ 3.8679144, 43.6025686 ], [ 3.8676049, 43.602582 ], [ 3.8672951, 43.6025733 ], [ 3.8669879, 43.6025426 ], [ 3.8666864, 43.6024901 ], [ 3.8663934, 43.6024164 ], [ 3.8661118, 43.6023222 ], [ 3.8658442, 43.6022084 ], [ 3.8655932, 43.6020761 ], [ 3.8653614, 43.6019265 ], [ 3.8651508, 43.6017611 ], [ 3.8649635, 43.6015816 ], [ 3.8648013, 43.6013895 ], [ 3.8646659, 43.6011869 ], [ 3.8645584, 43.6009755 ], [ 3.8644799, 43.6007576 ], [ 3.8644313, 43.600535 ], [ 3.8644128, 43.6003101 ] ] ], [ [ [ 3.8669803, 43.6041903 ], [ 3.8670319, 43.6041386 ], [ 3.8672377, 43.6039701 ], [ 3.8674652, 43.6038171 ], [ 3.8677123, 43.603681 ], [ 3.8678424, 43.6036229 ], [ 3.8679304, 43.6035509 ], [ 3.8681579, 43.6033979 ], [ 3.868405, 43.6032618 ], [ 3.8686693, 43.6031439 ], [ 3.8689335, 43.6030506 ], [ 3.8690878, 43.602859 ], [ 3.8692699, 43.6026767 ], [ 3.8694757, 43.6025081 ], [ 3.8697032, 43.6023551 ], [ 3.8699503, 43.602219 ], [ 3.8702145, 43.6021011 ], [ 3.8704934, 43.6020027 ], [ 3.8707842, 43.6019246 ], [ 3.8710842, 43.6018675 ], [ 3.8713904, 43.6018321 ], [ 3.8715819, 43.6018238 ], [ 3.8715832, 43.6018233 ], [ 3.8717685, 43.6017578 ], [ 3.8717107, 43.6017125 ], [ 3.8715234, 43.6015329 ], [ 3.8713613, 43.6013409 ], [ 3.8712258, 43.6011382 ], [ 3.8711183, 43.6009269 ], [ 3.8710398, 43.6007089 ], [ 3.8709911, 43.6004864 ], [ 3.8709726, 43.6002615 ], [ 3.8709846, 43.6000364 ], [ 3.870991, 43.6000024 ], [ 3.8787455, 43.6000027 ], [ 3.8788678, 43.6001855 ], [ 3.8789753, 43.6003969 ], [ 3.8790538, 43.6006148 ], [ 3.8791025, 43.6008373 ], [ 3.879121, 43.6010622 ], [ 3.8791091, 43.6012874 ], [ 3.8790668, 43.6015106 ], [ 3.8789947, 43.6017297 ], [ 3.8788933, 43.6019427 ], [ 3.8787637, 43.6021473 ], [ 3.8786072, 43.6023418 ], [ 3.8784251, 43.6025242 ], [ 3.8782193, 43.6026927 ], [ 3.8781052, 43.6027695 ], [ 3.878327, 43.6028865 ], [ 3.8785589, 43.603036 ], [ 3.8787696, 43.6032013 ], [ 3.8788633, 43.6032912 ], [ 3.8789261, 43.6032743 ], [ 3.879226, 43.6032173 ], [ 3.8795322, 43.6031819 ], [ 3.8798417, 43.6031684 ], [ 3.8800353, 43.6031738 ], [ 3.8800232, 43.6030271 ], [ 3.8800351, 43.6028019 ], [ 3.8800774, 43.6025787 ], [ 3.8801495, 43.6023596 ], [ 3.8802509, 43.6021467 ], [ 3.8803804, 43.601942 ], [ 3.880537, 43.6017475 ], [ 3.880719, 43.6015651 ], [ 3.8809248, 43.6013966 ], [ 3.8811523, 43.6012435 ], [ 3.8813994, 43.6011074 ], [ 3.8816636, 43.6009895 ], [ 3.8819424, 43.600891 ], [ 3.8822332, 43.6008129 ], [ 3.8825332, 43.6007558 ], [ 3.8828393, 43.6007204 ], [ 3.8831488, 43.6007069 ], [ 3.8834586, 43.6007156 ], [ 3.8836696, 43.6007367 ], [ 3.8838944, 43.6006363 ], [ 3.8841733, 43.6005378 ], [ 3.884464, 43.6004597 ], [ 3.884764, 43.6004026 ], [ 3.8850701, 43.6003672 ], [ 3.8853796, 43.6003537 ], [ 3.8856894, 43.6003624 ], [ 3.8859966, 43.6003931 ], [ 3.8862981, 43.6004455 ], [ 3.8865911, 43.6005191 ], [ 3.8868728, 43.6006133 ], [ 3.8871404, 43.600727 ], [ 3.8873615, 43.6008435 ], [ 3.8875601, 43.6008781 ], [ 3.8878531, 43.6009517 ], [ 3.8881348, 43.6010458 ], [ 3.8884024, 43.6011596 ], [ 3.8886534, 43.6012919 ], [ 3.8888853, 43.6014414 ], [ 3.889096, 43.6016067 ], [ 3.8892833, 43.6017862 ], [ 3.8893167, 43.6018258 ], [ 3.8894265, 43.6018289 ], [ 3.8897337, 43.6018595 ], [ 3.8900352, 43.6019119 ], [ 3.8903282, 43.6019856 ], [ 3.8906099, 43.6020797 ], [ 3.8906375, 43.6020914 ], [ 3.8905968, 43.601906 ], [ 3.8905783, 43.6016811 ], [ 3.8905902, 43.6014559 ], [ 3.8906324, 43.6012327 ], [ 3.8907045, 43.6010136 ], [ 3.8908058, 43.6008006 ], [ 3.8909353, 43.6005959 ], [ 3.8910919, 43.6004014 ], [ 3.8912739, 43.600219 ], [ 3.8912876, 43.6002078 ], [ 3.8912975, 43.6001955 ], [ 3.8914795, 43.6000131 ], [ 3.8914929, 43.6000022 ], [ 3.905, 43.6 ], [ 3.905, 43.6029997 ], [ 3.9048686, 43.6031074 ], [ 3.9046411, 43.6032605 ], [ 3.9043941, 43.6033967 ], [ 3.9043717, 43.6034067 ], [ 3.9044491, 43.6034201 ], [ 3.9047421, 43.6034937 ], [ 3.905, 43.6035799 ], [ 3.905, 43.6125487 ], [ 3.9048207, 43.6125695 ], [ 3.9045112, 43.612583 ], [ 3.9042013, 43.6125744 ], [ 3.9038941, 43.6125437 ], [ 3.9036319, 43.6124982 ], [ 3.9034577, 43.6125759 ], [ 3.9031789, 43.6126745 ], [ 3.902888, 43.6127527 ], [ 3.9025881, 43.6128098 ], [ 3.9022819, 43.6128453 ], [ 3.9019723, 43.6128588 ], [ 3.9016624, 43.6128502 ], [ 3.9013552, 43.6128195 ], [ 3.9010536, 43.6127671 ], [ 3.9007605, 43.6126935 ], [ 3.9004788, 43.6125994 ], [ 3.9002111, 43.6124857 ], [ 3.89996, 43.6123535 ], [ 3.899728, 43.612204 ], [ 3.8995817, 43.6120892 ], [ 3.8995712, 43.6120873 ], [ 3.8994846, 43.6120656 ], [ 3.8993054, 43.6121644 ], [ 3.899235, 43.6121958 ], [ 3.8991874, 43.6123405 ], [ 3.8990861, 43.6125534 ], [ 3.8989566, 43.6127581 ], [ 3.8988001, 43.6129526 ], [ 3.898618, 43.613135 ], [ 3.8984123, 43.6133036 ], [ 3.8981848, 43.6134567 ], [ 3.8979377, 43.6135929 ], [ 3.8976735, 43.6137108 ], [ 3.8973946, 43.6138093 ], [ 3.8972363, 43.6138519 ], [ 3.8972767, 43.614036 ], [ 3.8972953, 43.6142609 ], [ 3.8972834, 43.6144861 ], [ 3.8972796, 43.6145062 ], [ 3.8972897, 43.6145519 ], [ 3.8973082, 43.6147768 ], [ 3.8972963, 43.615002 ], [ 3.8972542, 43.6152252 ], [ 3.8971821, 43.6154443 ], [ 3.8970808, 43.6156573 ], [ 3.8969512, 43.615862 ], [ 3.8969031, 43.6159218 ], [ 3.896937, 43.6159725 ], [ 3.8970447, 43.6161838 ], [ 3.8971232, 43.6164017 ], [ 3.8971319, 43.6164413 ], [ 3.8973275, 43.6165947 ], [ 3.897515, 43.6167742 ], [ 3.8976773, 43.6169662 ], [ 3.8978129, 43.6171689 ], [ 3.8979205, 43.6173802 ], [ 3.8979991, 43.6175981 ], [ 3.8980479, 43.6178206 ], [ 3.8980665, 43.6180455 ], [ 3.8980546, 43.6182707 ], [ 3.8980124, 43.6184939 ], [ 3.8979661, 43.6186348 ], [ 3.8980637, 43.6185135 ], [ 3.8982457, 43.6183311 ], [ 3.8984515, 43.6181625 ], [ 3.898679, 43.6180094 ], [ 3.8989261, 43.6178733 ], [ 3.8991904, 43.6177553 ], [ 3.8994693, 43.6176568 ], [ 3.8997601, 43.6175786 ], [ 3.9000601, 43.6175215 ], [ 3.9003664, 43.617486 ], [ 3.9006759, 43.6174725 ], [ 3.9009858, 43.6174811 ], [ 3.9012931, 43.6175118 ], [ 3.9015947, 43.6175642 ], [ 3.9018878, 43.6176378 ], [ 3.9021696, 43.6177319 ], [ 3.9024373, 43.6178456 ], [ 3.9026884, 43.6179778 ], [ 3.9029204, 43.6181273 ], [ 3.9031312, 43.6182926 ], [ 3.9033186, 43.6184721 ], [ 3.9034809, 43.6186641 ], [ 3.9036166, 43.6188667 ], [ 3.9037242, 43.619078 ], [ 3.9038028, 43.619296 ], [ 3.9038295, 43.6194176 ], [ 3.9038955, 43.6195161 ], [ 3.9040031, 43.6197274 ], [ 3.9040818, 43.6199453 ], [ 3.9041306, 43.6201678 ], [ 3.9041492, 43.6203927 ], [ 3.9041374, 43.6206179 ], [ 3.9040952, 43.6208411 ], [ 3.9040231, 43.6210602 ], [ 3.9039218, 43.6212732 ], [ 3.9037923, 43.6214779 ], [ 3.9036357, 43.6216724 ], [ 3.9034537, 43.6218548 ], [ 3.9032489, 43.6220226 ], [ 3.9031903, 43.622201 ], [ 3.9031177, 43.6223535 ], [ 3.9031734, 43.6223828 ], [ 3.9034055, 43.6225323 ], [ 3.9036162, 43.6226976 ], [ 3.9038037, 43.6228771 ], [ 3.903966, 43.6230691 ], [ 3.9041017, 43.6232717 ], [ 3.9042093, 43.623483 ], [ 3.904288, 43.6237009 ], [ 3.9043368, 43.6239234 ], [ 3.9043554, 43.6241483 ], [ 3.9043436, 43.6243735 ], [ 3.9043014, 43.6245967 ], [ 3.9042293, 43.6248158 ], [ 3.9041416, 43.6250002 ], [ 3.898251, 43.6250013 ], [ 3.8981808, 43.6248635 ], [ 3.8981439, 43.6247613 ], [ 3.8980528, 43.6247384 ], [ 3.897771, 43.6246443 ], [ 3.8975033, 43.6245306 ], [ 3.8972522, 43.6243983 ], [ 3.8970201, 43.6242488 ], [ 3.8968094, 43.6240835 ], [ 3.8966219, 43.623904 ], [ 3.8964596, 43.623712 ], [ 3.896324, 43.6235094 ], [ 3.8962164, 43.6232981 ], [ 3.8961378, 43.6230801 ], [ 3.8960889, 43.6228576 ], [ 3.8960704, 43.6226327 ], [ 3.8960822, 43.6224076 ], [ 3.8961244, 43.6221844 ], [ 3.8961966, 43.6219652 ], [ 3.8962979, 43.6217523 ], [ 3.8964274, 43.6215476 ], [ 3.896584, 43.6213531 ], [ 3.8967433, 43.6211935 ], [ 3.8967407, 43.621161 ], [ 3.8967525, 43.6209359 ], [ 3.8967947, 43.6207127 ], [ 3.8968668, 43.6204935 ], [ 3.8969681, 43.6202806 ], [ 3.8970977, 43.6200759 ], [ 3.8972543, 43.6198814 ], [ 3.8974363, 43.619699 ], [ 3.8975605, 43.6195973 ], [ 3.897562, 43.619568 ], [ 3.8976042, 43.6193448 ], [ 3.8976506, 43.6192038 ], [ 3.8975529, 43.6193252 ], [ 3.8973709, 43.6195076 ], [ 3.8971651, 43.6196761 ], [ 3.8969376, 43.6198292 ], [ 3.8966905, 43.6199654 ], [ 3.8964262, 43.6200833 ], [ 3.8961473, 43.6201818 ], [ 3.8958564, 43.62026 ], [ 3.8955564, 43.6203171 ], [ 3.8952501, 43.6203526 ], [ 3.8949406, 43.6203661 ], [ 3.8946306, 43.6203574 ], [ 3.8943234, 43.6203268 ], [ 3.8940218, 43.6202744 ], [ 3.8939807, 43.6202641 ], [ 3.893772, 43.6202732 ], [ 3.8934621, 43.6202645 ], [ 3.8931548, 43.6202339 ], [ 3.8928532, 43.6201815 ], [ 3.8925601, 43.6201079 ], [ 3.8922783, 43.6200137 ], [ 3.8920106, 43.6199 ], [ 3.891816, 43.6197975 ], [ 3.891801, 43.6197992 ], [ 3.8914914, 43.6198127 ], [ 3.8911815, 43.619804 ], [ 3.8908743, 43.6197734 ], [ 3.8905726, 43.619721 ], [ 3.8902795, 43.6196473 ], [ 3.8901597, 43.6196073 ], [ 3.890239, 43.6196833 ], [ 3.8904013, 43.6198753 ], [ 3.8905369, 43.6200779 ], [ 3.8906445, 43.6202893 ], [ 3.8906541, 43.6203157 ], [ 3.890785, 43.6204184 ], [ 3.8909724, 43.6205979 ], [ 3.8911347, 43.6207899 ], [ 3.8912703, 43.6209925 ], [ 3.8913779, 43.6212038 ], [ 3.8914565, 43.6214218 ], [ 3.8914898, 43.6215741 ], [ 3.8915714, 43.6215946 ], [ 3.8918532, 43.6216887 ], [ 3.8921209, 43.6218024 ], [ 3.892372, 43.6219347 ], [ 3.892604, 43.6220842 ], [ 3.8928148, 43.6222495 ], [ 3.8930022, 43.622429 ], [ 3.89306, 43.6224974 ], [ 3.8930729, 43.6225017 ], [ 3.8933406, 43.6226154 ], [ 3.8935917, 43.6227477 ], [ 3.8938237, 43.6228972 ], [ 3.8940345, 43.6230625 ], [ 3.8942219, 43.623242 ], [ 3.8943842, 43.623434 ], [ 3.8945198, 43.6236366 ], [ 3.8946275, 43.6238479 ], [ 3.8947061, 43.6240659 ], [ 3.8947549, 43.6242884 ], [ 3.8947734, 43.6245133 ], [ 3.8947615, 43.6247384 ], [ 3.8947193, 43.6249617 ], [ 3.8947061, 43.6250018 ], [ 3.8857125, 43.6250026 ], [ 3.8856042, 43.6249328 ], [ 3.8853935, 43.6247675 ], [ 3.885206, 43.6245879 ], [ 3.8850438, 43.6243959 ], [ 3.8849082, 43.6241933 ], [ 3.8848006, 43.623982 ], [ 3.884722, 43.623764 ], [ 3.8846732, 43.6235415 ], [ 3.8846547, 43.6233166 ], [ 3.8846666, 43.6230915 ], [ 3.8847089, 43.6228682 ], [ 3.884781, 43.6226491 ], [ 3.8848824, 43.6224362 ], [ 3.8850003, 43.62225 ], [ 3.8848592, 43.622083 ], [ 3.8847236, 43.6218804 ], [ 3.8846837, 43.621802 ], [ 3.8845674, 43.6218972 ], [ 3.8843399, 43.6220503 ], [ 3.8840927, 43.6221864 ], [ 3.8838284, 43.6223043 ], [ 3.8835495, 43.6224028 ], [ 3.8832586, 43.6224809 ], [ 3.8829586, 43.622538 ], [ 3.8826523, 43.6225734 ], [ 3.8823427, 43.6225869 ], [ 3.8820328, 43.6225782 ], [ 3.8817255, 43.6225475 ], [ 3.8814239, 43.6224951 ], [ 3.8811308, 43.6224214 ], [ 3.880849, 43.6223273 ], [ 3.8805813, 43.6222135 ], [ 3.8803302, 43.6220812 ], [ 3.8800982, 43.6219317 ], [ 3.8798875, 43.6217664 ], [ 3.8797002, 43.6215868 ], [ 3.8795379, 43.6213948 ], [ 3.8794023, 43.6211922 ], [ 3.8792948, 43.6209808 ], [ 3.879231, 43.620804 ], [ 3.8789304, 43.6208387 ], [ 3.8786208, 43.6208522 ], [ 3.8783109, 43.6208435 ], [ 3.8780037, 43.6208128 ], [ 3.8777021, 43.6207604 ], [ 3.877409, 43.6206867 ], [ 3.8771272, 43.6205925 ], [ 3.8768595, 43.6204788 ], [ 3.8766222, 43.6203537 ], [ 3.8766207, 43.6203567 ], [ 3.8764911, 43.6205614 ], [ 3.8763344, 43.6207559 ], [ 3.8761523, 43.6209382 ], [ 3.8760077, 43.6210566 ], [ 3.8760369, 43.6210533 ], [ 3.8763464, 43.6210398 ], [ 3.8766564, 43.6210485 ], [ 3.8769636, 43.6210792 ], [ 3.8772652, 43.6211316 ], [ 3.8775583, 43.6212053 ], [ 3.8778401, 43.6212995 ], [ 3.8781078, 43.6214133 ], [ 3.8783588, 43.6215456 ], [ 3.8785908, 43.6216951 ], [ 3.8788015, 43.6218604 ], [ 3.8789889, 43.62204 ], [ 3.8791511, 43.622232 ], [ 3.8792867, 43.6224346 ], [ 3.8793298, 43.6225193 ], [ 3.8794933, 43.6226759 ], [ 3.8796556, 43.622868 ], [ 3.8797911, 43.6230706 ], [ 3.8798987, 43.6232819 ], [ 3.8799773, 43.6234999 ], [ 3.880026, 43.6237224 ], [ 3.8800445, 43.6239473 ], [ 3.8800326, 43.6241725 ], [ 3.8799903, 43.6243957 ], [ 3.8799182, 43.6246148 ], [ 3.8798168, 43.6248277 ], [ 3.8797059, 43.6250027 ], [ 3.867264, 43.625002 ], [ 3.8672175, 43.6249107 ], [ 3.867139, 43.6246927 ], [ 3.8670903, 43.6244702 ], [ 3.867079, 43.6243317 ], [ 3.8668103, 43.6242642 ], [ 3.8665286, 43.62417 ], [ 3.8662609, 43.6240562 ], [ 3.8660098, 43.6239239 ], [ 3.8657779, 43.6237743 ], [ 3.8656197, 43.6236501 ], [ 3.865585, 43.6236354 ], [ 3.8653339, 43.6235031 ], [ 3.865102, 43.6233535 ], [ 3.8648913, 43.6231881 ], [ 3.864704, 43.6230086 ], [ 3.8645418, 43.6228165 ], [ 3.8644062, 43.6226139 ], [ 3.8642987, 43.6224025 ], [ 3.8642227, 43.6221915 ], [ 3.8641374, 43.6222974 ], [ 3.8639552, 43.6224798 ], [ 3.8637493, 43.6226483 ], [ 3.8635217, 43.6228013 ], [ 3.8632745, 43.6229374 ], [ 3.8630102, 43.6230553 ], [ 3.8627312, 43.6231537 ], [ 3.8624403, 43.6232318 ], [ 3.8621402, 43.6232888 ], [ 3.8618339, 43.6233242 ], [ 3.8615243, 43.6233376 ], [ 3.8612144, 43.6233289 ], [ 3.8609071, 43.6232981 ], [ 3.8606055, 43.6232456 ], [ 3.8603124, 43.6231719 ], [ 3.8600307, 43.6230777 ], [ 3.859763, 43.6229639 ], [ 3.859512, 43.6228316 ], [ 3.8594444, 43.622788 ], [ 3.8594194, 43.6229199 ], [ 3.8593472, 43.623139 ], [ 3.8592457, 43.623352 ], [ 3.859116, 43.6235566 ], [ 3.8589593, 43.6237511 ], [ 3.8588037, 43.6239068 ], [ 3.8588524, 43.6240026 ], [ 3.8589309, 43.6242206 ], [ 3.8589795, 43.6244431 ], [ 3.858998, 43.624668 ], [ 3.858986, 43.6248931 ], [ 3.8589655, 43.6250008 ], [ 3.855, 43.625 ], [ 3.855, 43.6171509 ], [ 3.8551767, 43.6171305 ], [ 3.8554862, 43.6171171 ], [ 3.8557961, 43.6171258 ], [ 3.8561034, 43.6171566 ], [ 3.8564049, 43.6172091 ], [ 3.856698, 43.6172828 ], [ 3.8569797, 43.617377 ], [ 3.8572473, 43.6174909 ], [ 3.8574983, 43.6176232 ], [ 3.8577302, 43.6177728 ], [ 3.8579409, 43.6179382 ], [ 3.8581282, 43.6181177 ], [ 3.8582904, 43.6183098 ], [ 3.8584258, 43.6185125 ], [ 3.8585333, 43.6187238 ], [ 3.8586118, 43.6189418 ], [ 3.8586605, 43.6191643 ], [ 3.8586789, 43.6193892 ], [ 3.8586669, 43.6196143 ], [ 3.8586245, 43.6198375 ], [ 3.8585523, 43.6200567 ], [ 3.8584508, 43.6202696 ], [ 3.8583211, 43.6204742 ], [ 3.8581819, 43.620647 ], [ 3.8582931, 43.6207056 ], [ 3.8583607, 43.6207492 ], [ 3.8583857, 43.6206172 ], [ 3.8584579, 43.6203981 ], [ 3.8585594, 43.6201852 ], [ 3.8586891, 43.6199805 ], [ 3.8588458, 43.6197861 ], [ 3.8590279, 43.6196038 ], [ 3.8592338, 43.6194353 ], [ 3.8594614, 43.6192822 ], [ 3.8597086, 43.6191461 ], [ 3.8599729, 43.6190283 ], [ 3.8602519, 43.6189299 ], [ 3.8605428, 43.6188518 ], [ 3.8607591, 43.6188107 ], [ 3.8607425, 43.6187977 ], [ 3.8605552, 43.6186181 ], [ 3.860393, 43.618426 ], [ 3.8602575, 43.6182234 ], [ 3.86015, 43.618012 ], [ 3.8600715, 43.617794 ], [ 3.8600228, 43.6175715 ], [ 3.8600044, 43.6173466 ], [ 3.8600164, 43.6171215 ], [ 3.8600588, 43.6168983 ], [ 3.860131, 43.6166792 ], [ 3.8602324, 43.6164662 ], [ 3.8603621, 43.6162616 ], [ 3.8605188, 43.6160671 ], [ 3.8607009, 43.6158848 ], [ 3.8609068, 43.6157163 ], [ 3.8611344, 43.6155632 ], [ 3.8612634, 43.6154922 ], [ 3.8612606, 43.6154581 ], [ 3.8612726, 43.6152329 ], [ 3.8613149, 43.6150097 ], [ 3.8613872, 43.6147906 ], [ 3.8614886, 43.6145777 ], [ 3.8615089, 43.6145457 ], [ 3.8613157, 43.6147039 ], [ 3.8610881, 43.6148569 ], [ 3.8608409, 43.614993 ], [ 3.8605766, 43.6151108 ], [ 3.8602976, 43.6152092 ], [ 3.8600067, 43.6152873 ], [ 3.8597067, 43.6153443 ], [ 3.8594004, 43.6153797 ], [ 3.8590909, 43.6153931 ], [ 3.858781, 43.6153844 ], [ 3.8584738, 43.6153536 ], [ 3.8581722, 43.6153011 ], [ 3.8578792, 43.6152274 ], [ 3.8575975, 43.6151332 ], [ 3.8573299, 43.6150194 ], [ 3.8570789, 43.614887 ], [ 3.856847, 43.6147374 ], [ 3.8566363, 43.6145721 ], [ 3.8564491, 43.6143925 ], [ 3.8562869, 43.6142004 ], [ 3.8561514, 43.6139978 ], [ 3.856044, 43.6137864 ], [ 3.8559655, 43.6135684 ], [ 3.8559168, 43.6133459 ], [ 3.8558984, 43.613121 ], [ 3.8559105, 43.6128959 ], [ 3.8559528, 43.6126727 ], [ 3.8559975, 43.612537 ], [ 3.8558815, 43.6124758 ], [ 3.8556496, 43.6123262 ], [ 3.855439, 43.6121608 ], [ 3.8552517, 43.6119813 ], [ 3.8551513, 43.6118623 ], [ 3.855, 43.6118359 ], [ 3.855, 43.6074007 ], [ 3.8551565, 43.6073709 ], [ 3.8554627, 43.6073356 ], [ 3.8557722, 43.6073222 ], [ 3.8560821, 43.6073309 ], [ 3.8563893, 43.6073617 ], [ 3.8565643, 43.6073922 ], [ 3.8565098, 43.6073276 ], [ 3.8563744, 43.607125 ], [ 3.8562669, 43.6069136 ], [ 3.8561885, 43.6066956 ], [ 3.8561398, 43.6064731 ], [ 3.8561214, 43.6062482 ], [ 3.8561334, 43.6060231 ], [ 3.8561758, 43.6057999 ], [ 3.856248, 43.6055808 ], [ 3.8563494, 43.6053678 ], [ 3.8564791, 43.6051632 ], [ 3.8566358, 43.6049687 ], [ 3.8568179, 43.6047864 ], [ 3.8570237, 43.6046179 ], [ 3.8572513, 43.6044649 ], [ 3.8574984, 43.6043288 ], [ 3.8577627, 43.604211 ], [ 3.8580416, 43.6041125 ], [ 3.8583324, 43.6040345 ], [ 3.8586324, 43.6039774 ], [ 3.8589386, 43.6039421 ], [ 3.8592481, 43.6039287 ], [ 3.8595579, 43.6039374 ], [ 3.8598651, 43.6039682 ], [ 3.8601666, 43.6040207 ], [ 3.8602092, 43.6040314 ], [ 3.8603506, 43.6039815 ], [ 3.8606415, 43.6039034 ], [ 3.8609414, 43.6038464 ], [ 3.8612476, 43.603811 ], [ 3.8615571, 43.6037976 ], [ 3.861867, 43.6038063 ], [ 3.8621741, 43.6038371 ], [ 3.8624756, 43.6038895 ], [ 3.8627686, 43.6039632 ], [ 3.8630503, 43.6040575 ], [ 3.8633179, 43.6041713 ], [ 3.8635688, 43.6043036 ], [ 3.8638007, 43.6044532 ], [ 3.8640113, 43.6046185 ], [ 3.8641986, 43.6047981 ], [ 3.8643457, 43.6049724 ], [ 3.8644689, 43.6048715 ], [ 3.8646965, 43.6047185 ], [ 3.8649436, 43.6045824 ], [ 3.8652078, 43.6044646 ], [ 3.8654867, 43.6043661 ], [ 3.8657776, 43.604288 ], [ 3.8660775, 43.604231 ], [ 3.8663837, 43.6041956 ], [ 3.8666932, 43.6041822 ], [ 3.8669803, 43.6041903 ] ], [ [ 3.8642136, 43.61988 ], [ 3.8642093, 43.6198605 ], [ 3.8641909, 43.6196356 ], [ 3.8641987, 43.6194898 ], [ 3.8641132, 43.6195128 ], [ 3.8638969, 43.6195539 ], [ 3.8639135, 43.6195669 ], [ 3.8641008, 43.6197465 ], [ 3.8642136, 43.61988 ] ], [ [ 3.866884, 43.6168721 ], [ 3.8666782, 43.6170406 ], [ 3.8664506, 43.6171937 ], [ 3.8663216, 43.6172647 ], [ 3.8663244, 43.6172989 ], [ 3.8663166, 43.6174447 ], [ 3.8664021, 43.6174217 ], [ 3.8667022, 43.6173647 ], [ 3.8667481, 43.6173594 ], [ 3.8667644, 43.6172734 ], [ 3.8668366, 43.6170542 ], [ 3.866938, 43.6168413 ], [ 3.8669783, 43.6167778 ], [ 3.866884, 43.6168721 ] ], [ [ 3.8724082, 43.6076195 ], [ 3.8721265, 43.6075253 ], [ 3.8718589, 43.6074115 ], [ 3.8716087, 43.6072796 ], [ 3.8715249, 43.6073359 ], [ 3.8714518, 43.6073762 ], [ 3.8715996, 43.6074134 ], [ 3.8718813, 43.6075075 ], [ 3.8721489, 43.6076213 ], [ 3.8723999, 43.6077537 ], [ 3.8726318, 43.6079032 ], [ 3.872834, 43.608062 ], [ 3.8728371, 43.6080527 ], [ 3.8729385, 43.6078398 ], [ 3.8729986, 43.6077448 ], [ 3.8727013, 43.6076931 ], [ 3.8724082, 43.6076195 ] ], [ [ 3.8649745, 43.6099654 ], [ 3.8647102, 43.6100833 ], [ 3.8644313, 43.6101817 ], [ 3.8641404, 43.6102598 ], [ 3.8638404, 43.6103168 ], [ 3.8635342, 43.6103522 ], [ 3.8633561, 43.6103599 ], [ 3.8635216, 43.6104898 ], [ 3.8637089, 43.6106694 ], [ 3.8638711, 43.6108614 ], [ 3.8640066, 43.6110641 ], [ 3.8641141, 43.6112755 ], [ 3.8641926, 43.6114934 ], [ 3.8642413, 43.6117159 ], [ 3.8642597, 43.6119409 ], [ 3.8642477, 43.612166 ], [ 3.8642054, 43.6123892 ], [ 3.8641332, 43.6126083 ], [ 3.8640318, 43.6128212 ], [ 3.8639021, 43.6130259 ], [ 3.8637722, 43.6131871 ], [ 3.8640781, 43.6131518 ], [ 3.8643876, 43.6131384 ], [ 3.8646975, 43.6131471 ], [ 3.8650047, 43.6131779 ], [ 3.8653063, 43.6132303 ], [ 3.8655993, 43.613304 ], [ 3.8657149, 43.6133427 ], [ 3.865577, 43.6132345 ], [ 3.8653897, 43.6130549 ], [ 3.8652275, 43.6128629 ], [ 3.865092, 43.6126602 ], [ 3.8649845, 43.6124489 ], [ 3.864906, 43.6122309 ], [ 3.8648574, 43.6120084 ], [ 3.8648389, 43.6117834 ], [ 3.8648509, 43.6115583 ], [ 3.8648652, 43.6114828 ], [ 3.8648548, 43.611356 ], [ 3.8648668, 43.6111309 ], [ 3.8649091, 43.6109077 ], [ 3.8649813, 43.6106886 ], [ 3.8650828, 43.6104757 ], [ 3.8652124, 43.610271 ], [ 3.865369, 43.6100765 ], [ 3.8655512, 43.6098942 ], [ 3.865757, 43.6097257 ], [ 3.8659846, 43.6095726 ], [ 3.8662317, 43.6094365 ], [ 3.866496, 43.6093187 ], [ 3.8665109, 43.6093134 ], [ 3.8665286, 43.6093015 ], [ 3.8667757, 43.6091654 ], [ 3.86704, 43.6090476 ], [ 3.8670441, 43.6090461 ], [ 3.8668407, 43.6090848 ], [ 3.8665345, 43.6091202 ], [ 3.8662249, 43.6091336 ], [ 3.8659962, 43.6091272 ], [ 3.8659937, 43.609131 ], [ 3.8658371, 43.6093254 ], [ 3.865655, 43.6095078 ], [ 3.8654492, 43.6096763 ], [ 3.8652216, 43.6098293 ], [ 3.8649745, 43.6099654 ] ], [ [ 3.8674065, 43.6162598 ], [ 3.8676123, 43.6160913 ], [ 3.8678399, 43.6159383 ], [ 3.868087, 43.6158022 ], [ 3.8683514, 43.6156843 ], [ 3.8683814, 43.6156737 ], [ 3.8681002, 43.6156248 ], [ 3.8678071, 43.6155511 ], [ 3.867577, 43.6154742 ], [ 3.8675684, 43.6156354 ], [ 3.8675261, 43.6158586 ], [ 3.8674539, 43.6160777 ], [ 3.8673525, 43.6162906 ], [ 3.8673122, 43.6163542 ], [ 3.8674065, 43.6162598 ] ], [ [ 3.8877196, 43.6160303 ], [ 3.8879873, 43.616144 ], [ 3.8882384, 43.6162763 ], [ 3.8884703, 43.6164258 ], [ 3.8886065, 43.6165326 ], [ 3.8886547, 43.6164564 ], [ 3.8888113, 43.6162619 ], [ 3.8889934, 43.6160795 ], [ 3.8891991, 43.6159109 ], [ 3.889254, 43.615874 ], [ 3.889236, 43.6158388 ], [ 3.8891575, 43.6156208 ], [ 3.8891327, 43.6155079 ], [ 3.8891, 43.615507 ], [ 3.8887927, 43.6154764 ], [ 3.8886153, 43.6154455 ], [ 3.8884915, 43.6155007 ], [ 3.8882126, 43.6155992 ], [ 3.8879218, 43.6156774 ], [ 3.8876218, 43.6157345 ], [ 3.8873155, 43.6157699 ], [ 3.8870059, 43.6157834 ], [ 3.8869972, 43.6157831 ], [ 3.8870017, 43.6158376 ], [ 3.8871448, 43.6158625 ], [ 3.8874379, 43.6159361 ], [ 3.8877196, 43.6160303 ] ] ] ] } },
{ "type": "Feature", "properties": { "index": "1", "label": "Beyond 255 m", "color": "#d9d9d9" }, "geometry": { "type": "MultiPolygon", "coordinates": [ [ [ [ 3.8563893, 43.6073617 ], [ 3.8560821, 43.6073309 ], [ 3.8557722, 43.6073222 ], [ 3.8554627, 43.6073356 ], [ 3.8551565, 43.6073709 ], [ 3.855, 43.6074007 ], [ 3.855, 43.6 ], [ 3.8560684, 43.6000002 ], [ 3.8560623, 43.6001134 ], [ 3.8560807, 43.6003383 ], [ 3.8561294, 43.6005608 ], [ 3.8562078, 43.6007788 ], [ 3.8563153, 43.6009902 ], [ 3.8564507, 43.6011928 ], [ 3.8566128, 43.6013849 ], [ 3.8568001, 43.6015645 ], [ 3.8570106, 43.6017298 ], [ 3.8572425, 43.6018794 ], [ 3.8574934, 43.6020118 ], [ 3.857761, 43.6021256 ], [ 3.8580426, 43.6022198 ], [ 3.8583356, 43.6022935 ], [ 3.8586371, 43.602346 ], [ 3.8589443, 43.6023768 ], [ 3.8592541, 43.6023855 ], [ 3.8595636, 43.6023721 ], [ 3.8598698, 43.6023367 ], [ 3.8599281, 43.6023257 ], [ 3.8600853, 43.6023301 ], [ 3.8603948, 43.6023167 ], [ 3.860701, 43.6022813 ], [ 3.861001, 43.6022243 ], [ 3.8612918, 43.6021462 ], [ 3.8615707, 43.6020478 ], [ 3.8618349, 43.60193 ], [ 3.862082, 43.6017939 ], [ 3.8623096, 43.6016408 ], [ 3.8625154, 43.6014723 ], [ 3.8626975, 43.60129 ], [ 3.8628541, 43.6010955 ], [ 3.8629838, 43.6008909 ], [ 3.8630852, 43.600678 ], [ 3.8631574, 43.6004588 ], [ 3.8631997, 43.6002356 ], [ 3.8632117, 43.6000105 ], [ 3.8632109, 43.6000015 ], [ 3.866936, 43.600002 ], [ 3.8644406, 43.6000017 ], [ 3.8644248, 43.600085 ], [ 3.8644128, 43.6003101 ], [ 3.8644313, 43.600535 ], [ 3.8644799, 43.6007576 ], [ 3.8645584, 43.6009755 ], [ 3.8646659, 43.6011869 ], [ 3.8648013, 43.6013895 ], [ 3.8649635, 43.6015816 ], [ 3.8651508, 43.6017611 ], [ 3.8653614, 43.6019265 ], [ 3.8655932, 43.6020761 ], [ 3.8658442, 43.6022084 ], [ 3.8661118, 43.6023222 ], [ 3.8663934, 43.6024164 ], [ 3.8666864, 43.6024901 ], [ 3.8669879, 43.6025426 ], [ 3.8672951, 43.6025733 ], [ 3.8676049, 43.602582 ], [ 3.8679144, 43.6025686 ], [ 3.8682206, 43.6025332 ], [ 3.8685205, 43.6024762 ], [ 3.8688114, 43.6023981 ], [ 3.8690902, 43.6022996 ], [ 3.8693545, 43.6021817 ], [ 3.8696016, 43.6020456 ], [ 3.8698291, 43.6018926 ], [ 3.8700349, 43.6017241 ], [ 3.870217, 43.6015417 ], [ 3.8703736, 43.6013473 ], [ 3.870403, 43.6013007 ], [ 3.870414, 43.6012871 ], [ 3.8705436, 43.6010825 ], [ 3.870645, 43.6008695 ], [ 3.8707171, 43.6006504 ], [ 3.8707594, 43.6004272 ], [ 3.8707714, 43.6002021 ], [ 3.870755, 43.6000024 ], [ 3.870991, 43.6000024 ], [ 3.8709846, 43.6000364 ], [ 3.8709726, 43.6002615 ], [ 3.8709911, 43.6004864 ], [ 3.8710398, 43.6007089 ], [ 3.8711183, 43.6009269 ], [ 3.8712258, 43.6011382 ], [ 3.8713613, 43.6013409 ], [ 3.8715234, 43.6015329 ], [ 3.8717107, 43.6017125 ], [ 3.8717685, 43.6017578 ], [ 3.8715832, 43.6018233 ], [ 3.8715819, 43.6018238 ], [ 3.8713904, 43.6018321 ], [ 3.8710842, 43.6018675 ], [ 3.8707842, 43.6019246 ], [ 3.8704934, 43.6020027 ], [ 3.8702145, 43.6021011 ], [ 3.8699503, 43.602219 ], [ 3.8697032, 43.6023551 ], [ 3.8694757, 43.6025081 ], [ 3.8692699, 43.6026767 ], [ 3.8690878, 43.602859 ], [ 3.8689335, 43.6030506 ], [ 3.8686693, 43.6031439 ], [ 3.868405, 43.6032618 ], [ 3.8681579, 43.6033979 ], [ 3.8679304, 43.6035509 ], [ 3.8678424, 43.6036229 ], [ 3.8677123, 43.603681 ], [ 3.8674652, 43.6038171 ], [ 3.8672377, 43.6039701 ], [ 3.8670319, 43.6041386 ], [ 3.8669803, 43.6041903 ], [ 3.8666932, 43.6041822 ], [ 3.8663837, 43.6041956 ], [ 3.8660775, 43.604231 ], [ 3.8657776, 43.604288 ], [ 3.8654867, 43.6043661 ], [ 3.8652078, 43.6044646 ], [ 3.8649436, 43.6045824 ], [ 3.8646965, 43.6047185 ], [ 3.8644689, 43.6048715 ], [ 3.8643457, 43.6049724 ], [ 3.8641986, 43.6047981 ], [ 3.8640113, 43.6046185 ], [ 3.8638007, 43.6044532 ], [ 3.8635688, 43.6043036 ], [ 3.8633179, 43.6041713 ], [ 3.8630503, 43.6040575 ], [ 3.8627686, 43.6039632 ], [ 3.8624756, 43.6038895 ], [ 3.8621741, 43.6038371 ], [ 3.861867, 43.6038063 ], [ 3.8615571, 43.6037976 ], [ 3.8612476, 43.603811 ], [ 3.8609414, 43.6038464 ], [ 3.8606415, 43.6039034 ], [ 3.8603506, 43.6039815 ], [ 3.8602092, 43.6040314 ], [ 3.8601666, 43.6040207 ], [ 3.8598651, 43.6039682 ], [ 3.8595579, 43.6039374 ], [ 3.8592481, 43.6039287 ], [ 3.8589386, 43.6039421 ], [ 3.8586324, 43.6039774 ], [ 3.8583324, 43.6040345 ], [ 3.8580416, 43.6041125 ], [ 3.8577627, 43.604211 ], [ 3.8574984, 43.6043288 ], [ 3.8572513, 43.6044649 ], [ 3.8570237, 43.6046179 ], [ 3.8568179, 43.6047864 ], [ 3.8566358, 43.6049687 ], [ 3.8564791, 43.6051632 ], [ 3.8563494, 43.6053678 ], [ 3.856248, 43.6055808 ], [ 3.8561758, 43.6057999 ], [ 3.8561334, 43.6060231 ], [ 3.8561214, 43.6062482 ], [ 3.8561398, 43.6064731 ], [ 3.8561885, 43.6066956 ], [ 3.8562669, 43.6069136 ], [ 3.8563744, 43.607125 ], [ 3.8565098, 43.6073276 ], [ 3.8565643, 43.6073922 ], [ 3.8563893, 43.6073617 ] ] ], [ [ [ 3.8721489, 43.6076213 ], [ 3.8718813, 43.6075075 ], [ 3.8715996, 43.6074134 ], [ 3.8714518, 43.6073762 ], [ 3.8715249, 43.6073359 ], [ 3.8716087, 43.6072796 ], [ 3.8718589, 43.6074115 ], [ 3.8721265, 43.6075253 ], [ 3.8724082, 43.6076195 ], [ 3.8727013, 43.6076931 ], [ 3.8729986, 43.6077448 ], [ 3.8729385, 43.6078398 ], [ 3.8728371, 43.6080527 ], [ 3.872834, 43.608062 ], [ 3.8726318, 43.6079032 ], [ 3.8723999, 43.6077537 ], [ 3.8721489, 43.6076213 ] ] ], [ [ [ 3.8637089, 43.6106694 ], [ 3.8635216, 43.6104898 ], [ 3.8633561, 43.6103599 ], [ 3.8635342, 43.6103522 ], [ 3.8638404, 43.6103168 ], [ 3.8641404, 43.6102598 ], [ 3.8644313, 43.6101817 ], [ 3.8647102, 43.6100833 ], [ 3.8649745, 43.6099654 ], [ 3.8652216, 43.6098293 ], [ 3.8654492, 43.6096763 ], [ 3.865655, 43.6095078 ], [ 3.8658371, 43.6093254 ], [ 3.8659937, 43.609131 ], [ 3.8659962, 43.6091272 ], [ 3.8662249, 43.6091336 ], [ 3.8665345, 43.6091202 ], [ 3.8668407, 43.6090848 ], [ 3.8670441, 43.6090461 ], [ 3.86704, 43.6090476 ], [ 3.8667757, 43.6091654 ], [ 3.8665286, 43.6093015 ], [ 3.8665109, 43.6093134 ], [ 3.866496, 43.6093187 ], [ 3.8662317, 43.6094365 ], [ 3.8659846, 43.6095726 ], [ 3.865757, 43.6097257 ], [ 3.8655512, 43.6098942 ], [ 3.865369, 43.6100765 ], [ 3.8652124, 43.610271 ], [ 3.8650828, 43.6104757 ], [ 3.8649813, 43.6106886 ], [ 3.8649091, 43.6109077 ], [ 3.8648668, 43.6111309 ], [ 3.8648548, 43.611356 ], [ 3.8648652, 43.6114828 ], [ 3.8648509, 43.6115583 ], [ 3.8648389, 43.6117834 ], [ 3.8648574, 43.6120084 ], [ 3.864906, 43.6122309 ], [ 3.8649845, 43.6124489 ], [ 3.865092, 43.6126602 ], [ 3.8652275, 43.6128629 ], [ 3.8653897, 43.6130549 ], [ 3.865577, 43.6132345 ], [ 3.8657149, 43.6133427 ], [ 3.8655993, 43.613304 ], [ 3.8653063, 43.6132303 ], [ 3.8650047, 43.6131779 ], [ 3.8646975, 43.6131471 ], [ 3.8643876, 43.6131384 ], [ 3.8640781, 43.6131518 ], [ 3.8637722, 43.6131871 ], [ 3.8639021, 43.6130259 ], [ 3.8640318, 43.6128212 ], [ 3.8641332, 43.6126083 ], [ 3.8642054, 43.6123892 ], [ 3.8642477, 43.612166 ], [ 3.8642597, 43.6119409 ], [ 3.8642413, 43.6117159 ], [ 3.8641926, 43.6114934 ], [ 3.8641141, 43.6112755 ], [ 3.8640066, 43.6110641 ], [ 3.8638711, 43.6108614 ], [ 3.8637089, 43.6106694 ] ] ], [ [ [ 3.867577, 43.6154742 ], [ 3.8678071, 43.6155511 ], [ 3.8681002, 43.6156248 ], [ 3.8683814, 43.6156737 ], [ 3.8683514, 43.6156843 ], [ 3.868087, 43.6158022 ], [ 3.8678399, 43.6159383 ], [ 3.8676123, 43.6160913 ], [ 3.8674065, 43.6162598 ], [ 3.8673122, 43.6163542 ], [ 3.8673525, 43.6162906 ], [ 3.8674539, 43.6160777 ], [ 3.8675261, 43.6158586 ], [ 3.8675684, 43.6156354 ], [ 3.867577, 43.6154742 ] ] ], [ [ [ 3.8564049, 43.6172091 ], [ 3.8561034, 43.6171566 ], [ 3.8557961, 43.6171258 ], [ 3.8554862, 43.6171171 ], [ 3.8551767, 43.6171305 ], [ 3.855, 43.6171509 ], [ 3.855, 43.6118359 ], [ 3.8551513, 43.6118623 ], [ 3.8552517, 43.6119813 ], [ 3.855439, 43.6121608 ], [ 3.8556496, 43.6123262 ], [ 3.8558815, 43.6124758 ], [ 3.8559975, 43.612537 ], [ 3.8559528, 43.6126727 ], [ 3.8559105, 43.6128959 ], [ 3.8558984, 43.613121 ], [ 3.8559168, 43.6133459 ], [ 3.8559655, 43.6135684 ], [ 3.856044, 43.6137864 ], [ 3.8561514, 43.6139978 ], [ 3.8562869, 43.6142004 ], [ 3.8564491, 43.6143925 ], [ 3.8566363, 43.6145721 ], [ 3.856847, 43.6147374 ], [ 3.8570789, 43.614887 ], [ 3.8573299, 43.6150194 ], [ 3.8575975, 43.6151332 ], [ 3.8578792, 43.6152274 ], [ 3.8581722, 43.6153011 ], [ 3.8584738, 43.6153536 ], [ 3.858781, 43.6153844 ], [ 3.8590909, 43.6153931 ], [ 3.8594004, 43.6153797 ], [ 3.8597067, 43.6153443 ], [ 3.8600067, 43.6152873 ], [ 3.8602976, 43.6152092 ], [ 3.8605766, 43.6151108 ], [ 3.8608409, 43.614993 ], [ 3.8610881, 43.6148569 ], [ 3.8613157, 43.6147039 ], [ 3.8615089, 43.6145457 ], [ 3.8614886, 43.6145777 ], [ 3.8613872, 43.6147906 ], [ 3.8613149, 43.6150097 ], [ 3.8612726, 43.6152329 ], [ 3.8612606, 43.6154581 ], [ 3.8612634, 43.6154922 ], [ 3.8611344, 43.6155632 ], [ 3.8609068, 43.6157163 ], [ 3.8607009, 43.6158848 ], [ 3.8605188, 43.6160671 ], [ 3.8603621, 43.6162616 ], [ 3.8602324, 43.6164662 ], [ 3.860131, 43.6166792 ], [ 3.8600588, 43.6168983 ], [ 3.8600164, 43.6171215 ], [ 3.8600044, 43.6173466 ], [ 3.8600228, 43.6175715 ], [ 3.8600715, 43.617794 ], [ 3.86015, 43.618012 ], [ 3.8602575, 43.6182234 ], [ 3.860393, 43.618426 ], [ 3.8605552, 43.6186181 ], [ 3.8607425, 43.6187977 ], [ 3.8607591, 43.6188107 ], [ 3.8605428, 43.6188518 ], [ 3.8602519, 43.6189299 ], [ 3.8599729, 43.6190283 ], [ 3.8597086, 43.6191461 ], [ 3.8594614, 43.6192822 ], [ 3.8592338, 43.6194353 ], [ 3.8590279, 43.6196038 ], [ 3.8588458, 43.6197861 ], [ 3.8586891, 43.6199805 ], [ 3.8585594, 43.6201852 ], [ 3.8584579, 43.6203981 ], [ 3.8583857, 43.6206172 ], [ 3.8583607, 43.6207492 ], [ 3.8582931, 43.6207056 ], [ 3.8581819, 43.620647 ], [ 3.8583211, 43.6204742 ], [ 3.8584508, 43.6202696 ], [ 3.8585523, 43.6200567 ], [ 3.8586245, 43.6198375 ], [ 3.8586669, 43.6196143 ], [ 3.8586789, 43.6193892 ], [ 3.8586605, 43.6191643 ], [ 3.8586118, 43.6189418 ], [ 3.8585333, 43.6187238 ], [ 3.8584258, 43.6185125 ], [ 3.8582904, 43.6183098 ], [ 3.8581282, 43.6181177 ], [ 3.8579409, 43.6179382 ], [ 3.8577302, 43.6177728 ], [ 3.8574983, 43.6176232 ], [ 3.8572473, 43.6174909 ], [ 3.8569797, 43.617377 ], [ 3.856698, 43.6172828 ], [ 3.8564049, 43.6172091 ] ] ], [ [ [ 3.8667481, 43.6173594 ], [ 3.8667022, 43.6173647 ], [ 3.8664021, 43.6174217 ], [ 3.8663166, 43.6174447 ], [ 3.8663244, 43.6172989 ], [ 3.8663216, 43.6172647 ], [ 3.8664506, 43.6171937 ], [ 3.8666782, 43.6170406 ], [ 3.866884, 43.6168721 ], [ 3.8669783, 43.6167778 ], [ 3.866938, 43.6168413 ], [ 3.8668366, 43.6170542 ], [ 3.8667644, 43.6172734 ], [ 3.8667481, 43.6173594 ] ] ], [ [ [ 3.8642093, 43.6198605 ], [ 3.8642136, 43.61988 ], [ 3.8641008, 43.6197465 ], [ 3.8639135, 43.6195669 ], [ 3.8638969, 43.6195539 ], [ 3.8641132, 43.6195128 ], [ 3.8641987, 43.6194898 ], [ 3.8641909, 43.6196356 ], [ 3.8642093, 43.6198605 ] ] ], [ [ [ 3.8662609, 43.6240562 ], [ 3.8665286, 43.62417 ], [ 3.8668103, 43.6242642 ], [ 3.867079, 43.6243317 ], [ 3.8670903, 43.6244702 ], [ 3.867139, 43.6246927 ], [ 3.8672175, 43.6249107 ], [ 3.8672639, 43.6250018 ], [ 3.8589655, 43.6250008 ], [ 3.858986, 43.6248931 ], [ 3.858998, 43.624668 ], [ 3.8589795, 43.6244431 ], [ 3.8589309, 43.6242206 ], [ 3.8588524, 43.6240026 ], [ 3.8588037, 43.6239068 ], [ 3.8589593, 43.6237511 ], [ 3.859116, 43.6235566 ], [ 3.8592457, 43.623352 ], [ 3.8593472, 43.623139 ], [ 3.8594194, 43.6229199 ], [ 3.8594444, 43.622788 ], [ 3.859512, 43.6228316 ], [ 3.859763, 43.6229639 ], [ 3.8600307, 43.6230777 ], [ 3.8603124, 43.6231719 ], [ 3.8606055, 43.6232456 ], [ 3.8609071, 43.6232981 ], [ 3.8612144, 43.6233289 ], [ 3.8615243, 43.6233376 ], [ 3.8618339, 43.6233242 ], [ 3.8621402, 43.6232888 ], [ 3.8624403, 43.6232318 ], [ 3.8627312, 43.6231537 ], [ 3.8630102, 43.6230553 ], [ 3.8632745, 43.6229374 ], [ 3.8635217, 43.6228013 ], [ 3.8637493, 43.6226483 ], [ 3.8639552, 43.6224798 ], [ 3.8641374, 43.6222974 ], [ 3.8642227, 43.6221915 ], [ 3.8642987, 43.6224025 ], [ 3.8644062, 43.6226139 ], [ 3.8645418, 43.6228165 ], [ 3.864704, 43.6230086 ], [ 3.8648913, 43.6231881 ], [ 3.865102, 43.6233535 ], [ 3.8653339, 43.6235031 ], [ 3.865585, 43.6236354 ], [ 3.8656197, 43.6236501 ], [ 3.8657779, 43.6237743 ], [ 3.8660098, 43.6239239 ], [ 3.8662609, 43.6240562 ] ] ], [ [ [ 3.8672639, 43.6250018 ], [ 3.874549, 43.6250026 ], [ 3.867264, 43.625002 ], [ 3.8672639, 43.6250018 ] ] ], [ [ [ 3.8791091, 43.6012874 ], [ 3.879121, 43.6010622 ], [ 3.8791025, 43.6008373 ], [ 3.8790538, 43.6006148 ], [ 3.8789753, 43.6003969 ], [ 3.8788678, 43.6001855 ], [ 3.8787455, 43.6000027 ], [ 3.8914929, 43.6000022 ], [ 3.8914795, 43.6000131 ], [ 3.8912975, 43.6001955 ], [ 3.8912876, 43.6002078 ], [ 3.8912739, 43.600219 ], [ 3.8910919, 43.6004014 ], [ 3.8909353, 43.6005959 ], [ 3.8908058, 43.6008006 ], [ 3.8907045, 43.6010136 ], [ 3.8906324, 43.6012327 ], [ 3.8905902, 43.6014559 ], [ 3.8905783, 43.6016811 ], [ 3.8905968, 43.601906 ], [ 3.8906375, 43.6020914 ], [ 3.8906099, 43.6020797 ], [ 3.8903282, 43.6019856 ], [ 3.8900352, 43.6019119 ], [ 3.8897337, 43.6018595 ], [ 3.8894265, 43.6018289 ], [ 3.8893167, 43.6018258 ], [ 3.8892833, 43.6017862 ], [ 3.889096, 43.6016067 ], [ 3.8888853, 43.6014414 ], [ 3.8886534, 43.6012919 ], [ 3.8884024, 43.6011596 ], [ 3.8881348, 43.6010458 ], [ 3.8878531, 43.6009517 ], [ 3.8875601, 43.6008781 ], [ 3.8873615, 43.6008435 ], [ 3.8871404, 43.600727 ], [ 3.8868728, 43.6006133 ], [ 3.8865911, 43.6005191 ], [ 3.8862981, 43.6004455 ], [ 3.8859966, 43.6003931 ], [ 3.8856894, 43.6003624 ], [ 3.8853796, 43.6003537 ], [ 3.8850701, 43.6003672 ], [ 3.884764, 43.6004026 ], [ 3.884464, 43.6004597 ], [ 3.8841733, 43.6005378 ], [ 3.8838944, 43.6006363 ], [ 3.8836696, 43.6007367 ], [ 3.8834586, 43.6007156 ], [ 3.8831488, 43.6007069 ], [ 3.8828393, 43.6007204 ], [ 3.8825332, 43.6007558 ], [ 3.8822332, 43.6008129 ], [ 3.8819424, 43.600891 ], [ 3.8816636, 43.6009895 ], [ 3.8813994, 43.6011074 ], [ 3.8811523, 43.6012435 ], [ 3.8809248, 43.6013966 ], [ 3.880719, 43.6015651 ], [ 3.880537, 43.6017475 ], [ 3.8803804, 43.601942 ], [ 3.8802509, 43.6021467 ], [ 3.8801495, 43.6023596 ], [ 3.8800774, 43.6025787 ], [ 3.8800351, 43.6028019 ], [ 3.8800232, 43.6030271 ], [ 3.8800353, 43.6031738 ], [ 3.8798417, 43.6031684 ], [ 3.8795322, 43.6031819 ], [ 3.879226, 43.6032173 ], [ 3.8789261, 43.6032743 ], [ 3.8788633, 43.6032912 ], [ 3.8787696, 43.6032013 ], [ 3.8785589, 43.603036 ], [ 3.878327, 43.6028865 ], [ 3.8781052, 43.6027695 ], [ 3.8782193, 43.6026927 ], [ 3.8784251, 43.6025242 ], [ 3.8786072, 43.6023418 ], [ 3.8787637, 43.6021473 ], [ 3.8788933, 43.6019427 ], [ 3.8789947, 43.6017297 ], [ 3.8790668, 43.6015106 ], [ 3.8791091, 43.6012874 ] ] ], [ [ [ 3.9047421, 43.6034937 ], [ 3.9044491, 43.6034201 ], [ 3.9043717, 43.6034067 ], [ 3.9043941, 43.6033967 ], [ 3.9046411, 43.6032605 ], [ 3.9048686, 43.6031074 ], [ 3.905, 43.6029997 ], [ 3.905, 43.6035799 ], [ 3.9047421, 43.6034937 ] ] ], [ [ [ 3.889254, 43.615874 ], [ 3.8891991, 43.6159109 ], [ 3.8889934, 43.6160795 ], [ 3.8888113, 43.6162619 ], [ 3.8886547, 43.6164564 ], [ 3.8886065, 43.6165326 ], [ 3.8884703, 43.6164258 ], [ 3.8882384, 43.6162763 ], [ 3.8879873, 43.616144 ], [ 3.8877196, 43.6160303 ], [ 3.8874379, 43.6159361 ], [ 3.8871448, 43.6158625 ], [ 3.8870017, 43.6158376 ], [ 3.8869972, 43.6157831 ], [ 3.8870059, 43.6157834 ], [ 3.8873155, 43.6157699 ], [ 3.8876218, 43.6157345 ], [ 3.8879218, 43.6156774 ], [ 3.8882126, 43.6155992 ], [ 3.8884915, 43.6155007 ], [ 3.8886153, 43.6154455 ], [ 3.8887927, 43.6154764 ], [ 3.8891, 43.615507 ], [ 3.8891327, 43.6155079 ], [ 3.8891575, 43.6156208 ], [ 3.889236, 43.6158388 ], [ 3.889254, 43.615874 ] ] ], [ [ [ 3.9036319, 43.6124982 ], [ 3.9038941, 43.6125437 ], [ 3.9042013, 43.6125744 ], [ 3.9045112, 43.612583 ], [ 3.9048207, 43.6125695 ], [ 3.905, 43.6125487 ], [ 3.905, 43.625 ], [ 3.9041417, 43.6250001 ], [ 3.9042293, 43.6248158 ], [ 3.9043014, 43.6245967 ], [ 3.9043436, 43.6243735 ], [ 3.9043554, 43.6241483 ], [ 3.9043368, 43.6239234 ], [ 3.904288, 43.6237009 ], [ 3.9042093, 43.623483 ], [ 3.9041017, 43.6232717 ], [ 3.903966, 43.6230691 ], [ 3.9038037, 43.6228771 ], [ 3.9036162, 43.6226976 ], [ 3.9034055, 43.6225323 ], [ 3.9031734, 43.6223828 ], [ 3.9031177, 43.6223535 ], [ 3.9031903, 43.622201 ], [ 3.9032489, 43.6220226 ], [ 3.9034537, 43.6218548 ], [ 3.9036357, 43.6216724 ], [ 3.9037923, 43.6214779 ], [ 3.9039218, 43.6212732 ], [ 3.9040231, 43.6210602 ], [ 3.9040952, 43.6208411 ], [ 3.9041374, 43.6206179 ], [ 3.9041492, 43.6203927 ], [ 3.9041306, 43.6201678 ], [ 3.9040818, 43.6199453 ], [ 3.9040031, 43.6197274 ], [ 3.9038955, 43.6195161 ], [ 3.9038295, 43.6194176 ], [ 3.9038028, 43.619296 ], [ 3.9037242, 43.619078 ], [ 3.9036166, 43.6188667 ], [ 3.9034809, 43.6186641 ], [ 3.9033186, 43.6184721 ], [ 3.9031312, 43.6182926 ], [ 3.9029204, 43.6181273 ], [ 3.9026884, 43.6179778 ], [ 3.9024373, 43.6178456 ], [ 3.9021696, 43.6177319 ], [ 3.9018878, 43.6176378 ], [ 3.9015947, 43.6175642 ], [ 3.9012931, 43.6175118 ], [ 3.9009858, 43.6174811 ], [ 3.9006759, 43.6174725 ], [ 3.9003664, 43.617486 ], [ 3.9000601, 43.6175215 ], [ 3.8997601, 43.6175786 ], [ 3.8994693, 43.6176568 ], [ 3.8991904, 43.6177553 ], [ 3.8989261, 43.6178733 ], [ 3.898679, 43.6180094 ], [ 3.8984515, 43.6181625 ], [ 3.8982457, 43.6183311 ], [ 3.8980637, 43.6185135 ], [ 3.8979661, 43.6186348 ], [ 3.8980124, 43.6184939 ], [ 3.8980546, 43.6182707 ], [ 3.8980665, 43.6180455 ], [ 3.8980479, 43.6178206 ], [ 3.8979991, 43.6175981 ], [ 3.8979205, 43.6173802 ], [ 3.8978129, 43.6171689 ], [ 3.8976773, 43.6169662 ], [ 3.897515, 43.6167742 ], [ 3.8973275, 43.6165947 ], [ 3.8971319, 43.6164413 ], [ 3.8971232, 43.6164017 ], [ 3.8970447, 43.6161838 ], [ 3.896937, 43.6159725 ], [ 3.8969031, 43.6159218 ], [ 3.8969512, 43.615862 ], [ 3.8970808, 43.6156573 ], [ 3.8971821, 43.6154443 ], [ 3.8972542, 43.6152252 ], [ 3.8972963, 43.615002 ], [ 3.8973082, 43.6147768 ], [ 3.8972897, 43.6145519 ], [ 3.8972796, 43.6145062 ], [ 3.8972834, 43.6144861 ], [ 3.8972953, 43.6142609 ], [ 3.8972767, 43.614036 ], [ 3.8972363, 43.6138519 ], [ 3.8973946, 43.6138093 ], [ 3.8976735, 43.6137108 ], [ 3.8979377, 43.6135929 ], [ 3.8981848, 43.6134567 ], [ 3.8984123, 43.6133036 ], [ 3.898618, 43.613135 ], [ 3.8988001, 43.6129526 ], [ 3.8989566, 43.6127581 ], [ 3.8990861, 43.6125534 ], [ 3.8991874, 43.6123405 ], [ 3.899235, 43.6121958 ], [ 3.8993054, 43.6121644 ], [ 3.8994846, 43.6120656 ], [ 3.8995712, 43.6120873 ], [ 3.8995817, 43.6120892 ], [ 3.899728, 43.612204 ], [ 3.89996, 43.6123535 ], [ 3.9002111, 43.6124857 ], [ 3.9004788, 43.6125994 ], [ 3.9007605, 43.6126935 ], [ 3.9010536, 43.6127671 ], [ 3.9013552, 43.6128195 ], [ 3.9016624, 43.6128502 ], [ 3.9019723, 43.6128588 ], [ 3.9022819, 43.6128453 ], [ 3.9025881, 43.6128098 ], [ 3.902888, 43.6127527 ], [ 3.9031789, 43.6126745 ], [ 3.9034577, 43.6125759 ], [ 3.9036319, 43.6124982 ] ] ], [ [ [ 3.8972522, 43.6243983 ], [ 3.8975033, 43.6245306 ], [ 3.897771, 43.6246443 ], [ 3.8980528, 43.6247384 ], [ 3.8981439, 43.6247613 ], [ 3.8981808, 43.6248635 ], [ 3.8982507, 43.6250007 ], [ 3.8947064, 43.6250011 ], [ 3.8947193, 43.6249617 ], [ 3.8947615, 43.6247384 ], [ 3.8947734, 43.6245133 ], [ 3.8947549, 43.6242884 ], [ 3.8947061, 43.6240659 ], [ 3.8946275, 43.6238479 ], [ 3.8945198, 43.6236366 ], [ 3.8943842, 43.623434 ], [ 3.8942219, 43.623242 ], [ 3.8940345, 43.6230625 ], [ 3.8938237, 43.6228972 ], [ 3.8935917, 43.6227477 ], [ 3.8933406, 43.6226154 ], [ 3.8930729, 43.6225017 ], [ 3.89306, 43.6224974 ], [ 3.8930022, 43.622429 ], [ 3.8928148, 43.6222495 ], [ 3.892604, 43.6220842 ], [ 3.892372, 43.6219347 ], [ 3.8921209, 43.6218024 ], [ 3.8918532, 43.6216887 ], [ 3.8915714, 43.6215946 ], [ 3.8914898, 43.6215741 ], [ 3.8914565, 43.6214218 ], [ 3.8913779, 43.6212038 ], [ 3.8912703, 43.6209925 ], [ 3.8911347, 43.6207899 ], [ 3.8909724, 43.6205979 ], [ 3.890785, 43.6204184 ], [ 3.8906541, 43.6203157 ], [ 3.8906445, 43.6202893 ], [ 3.8905369, 43.6200779 ], [ 3.8904013, 43.6198753 ], [ 3.890239, 43.6196833 ], [ 3.8901597, 43.6196073 ], [ 3.8902795, 43.6196473 ], [ 3.8905726, 43.619721 ], [ 3.8908743, 43.6197734 ], [ 3.8911815, 43.619804 ], [ 3.8914914, 43.6198127 ], [ 3.891801, 43.6197992 ], [ 3.891816, 43.6197975 ], [ 3.8920106, 43.6199 ], [ 3.8922783, 43.6200137 ], [ 3.8925601, 43.6201079 ], [ 3.8928532, 43.6201815 ], [ 3.8931548, 43.6202339 ], [ 3.8934621, 43.6202645 ], [ 3.893772, 43.6202732 ], [ 3.8939807, 43.6202641 ], [ 3.8940218, 43.6202744 ], [ 3.8943234, 43.6203268 ], [ 3.8946306, 43.6203574 ], [ 3.8949406, 43.6203661 ], [ 3.8952501, 43.6203526 ], [ 3.8955564, 43.6203171 ], [ 3.8958564, 43.62026 ], [ 3.8961473, 43.6201818 ], [ 3.8964262, 43.6200833 ], [ 3.8966905, 43.6199654 ], [ 3.8969376, 43.6198292 ], [ 3.8971651, 43.6196761 ], [ 3.8973709, 43.6195076 ], [ 3.8975529, 43.6193252 ], [ 3.8976506, 43.6192038 ], [ 3.8976042, 43.6193448 ], [ 3.897562, 43.619568 ], [ 3.8975605, 43.6195973 ], [ 3.8974363, 43.619699 ], [ 3.8972543, 43.6198814 ], [ 3.8970977, 43.6200759 ], [ 3.8969681, 43.6202806 ], [ 3.8968668, 43.6204935 ], [ 3.8967947, 43.6207127 ], [ 3.8967525, 43.6209359 ], [ 3.8967407, 43.621161 ], [ 3.8967433, 43.6211935 ], [ 3.896584, 43.6213531 ], [ 3.8964274, 43.6215476 ], [ 3.8962979, 43.6217523 ], [ 3.8961966, 43.6219652 ], [ 3.8961244, 43.6221844 ], [ 3.8960822, 43.6224076 ], [ 3.8960704, 43.6226327 ], [ 3.8960889, 43.6228576 ], [ 3.8961378, 43.6230801 ], [ 3.8962164, 43.6232981 ], [ 3.896324, 43.6235094 ], [ 3.8964596, 43.623712 ], [ 3.8966219, 43.623904 ], [ 3.8968094, 43.6240835 ], [ 3.8970201, 43.6242488 ], [ 3.8972522, 43.6243983 ] ] ], [ [ [ 3.8848006, 43.623982 ], [ 3.8849082, 43.6241933 ], [ 3.8850438, 43.6243959 ], [ 3.885206, 43.6245879 ], [ 3.8853935, 43.6247675 ], [ 3.8856042, 43.6249328 ], [ 3.8857117, 43.6250021 ], [ 3.8797059, 43.6250027 ], [ 3.8798168, 43.6248277 ], [ 3.8799182, 43.6246148 ], [ 3.8799903, 43.6243957 ], [ 3.8800326, 43.6241725 ], [ 3.8800445, 43.6239473 ], [ 3.880026, 43.6237224 ], [ 3.8799773, 43.6234999 ], [ 3.8798987, 43.6232819 ], [ 3.8797911, 43.6230706 ], [ 3.8796556, 43.622868 ], [ 3.8794933, 43.6226759 ], [ 3.8793298, 43.6225193 ], [ 3.8792867, 43.6224346 ], [ 3.8791511, 43.622232 ], [ 3.8789889, 43.62204 ], [ 3.8788015, 43.6218604 ], [ 3.8785908, 43.6216951 ], [ 3.8783588, 43.6215456 ], [ 3.8781078, 43.6214133 ], [ 3.8778401, 43.6212995 ], [ 3.8775583, 43.6212053 ], [ 3.8772652, 43.6211316 ], [ 3.8769636, 43.6210792 ], [ 3.8766564, 43.6210485 ], [ 3.8763464, 43.6210398 ], [ 3.8760369, 43.6210533 ], [ 3.8760077, 43.6210566 ], [ 3.8761523, 43.6209382 ], [ 3.8763344, 43.6207559 ], [ 3.8764911, 43.6205614 ], [ 3.8766207, 43.6203567 ], [ 3.8766222, 43.6203537 ], [ 3.8768595, 43.6204788 ], [ 3.8771272, 43.6205925 ], [ 3.877409, 43.6206867 ], [ 3.8777021, 43.6207604 ], [ 3.8780037, 43.6208128 ], [ 3.8783109, 43.6208435 ], [ 3.8786208, 43.6208522 ], [ 3.8789304, 43.6208387 ], [ 3.879231, 43.620804 ], [ 3.8792948, 43.6209808 ], [ 3.8794023, 43.6211922 ], [ 3.8795379, 43.6213948 ], [ 3.8797002, 43.6215868 ], [ 3.8798875, 43.6217664 ], [ 3.8800982, 43.6219317 ], [ 3.8803302, 43.6220812 ], [ 3.8805813, 43.6222135 ], [ 3.880849, 43.6223273 ], [ 3.8811308, 43.6224214 ], [ 3.8814239, 43.6224951 ], [ 3.8817255, 43.6225475 ], [ 3.8820328, 43.6225782 ], [ 3.8823427, 43.6225869 ], [ 3.8826523, 43.6225734 ], [ 3.8829586, 43.622538 ], [ 3.8832586, 43.6224809 ], [ 3.8835495, 43.6224028 ], [ 3.8838284, 43.6223043 ], [ 3.8840927, 43.6221864 ], [ 3.8843399, 43.6220503 ], [ 3.8845674, 43.6218972 ], [ 3.8846837, 43.621802 ], [ 3.8847236, 43.6218804 ], [ 3.8848592, 43.622083 ], [ 3.8850003, 43.62225 ], [ 3.8848824, 43.6224362 ], [ 3.884781, 43.6226491 ], [ 3.8847089, 43.6228682 ], [ 3.8846666, 43.6230915 ], [ 3.8846547, 43.6233166 ], [ 3.8846732, 43.6235415 ], [ 3.884722, 43.623764 ], [ 3.8848006, 43.623982 ] ] ], [ [ [ 3.9041417, 43.6250001 ], [ 3.9041416, 43.6250002 ], [ 3.898251, 43.6250013 ], [ 3.8982507, 43.6250007 ], [ 3.9041417, 43.6250001 ] ] ], [ [ [ 3.8947064, 43.6250011 ], [ 3.8947061, 43.6250018 ], [ 3.8857125, 43.6250026 ], [ 3.8857117, 43.6250021 ], [ 3.8947064, 43.6250011 ] ] ] ] } }
]
}
