{
"type": "FeatureCollection",
"features": [
{ "type": "Feature", "properties": { "index": "0", "last_edit_year": 2025, "years_since_edit": 1, "label": "0.5–1.5 yr", "color": "#ceeba3" }, "geometry": { "type": "Point", "coordinates": [ 3.9002866, 43.600093 ] } },
{ "type": "Feature", "properties": { "index": "1", "last_edit_year": 2019, "years_since_edit": 7, "label": "5.5–8.5 yr", "color": "#27974e" }, "geometry": { "type": "Point", "coordinates": [ 3.8916131, 43.624538 ] } },
{ "type": "Feature", "properties": { "index": "2", "last_edit_year": 2023, "years_since_edit": 3, "label": "1.5–3.5 yr", "color": "#96d386" }, "geometry": { "type": "Point", "coordinates": [ 3.8949065, 43.6180703 ] } },
{ "type": "Feature", "properties": { "index": "3", "last_edit_year": 2020, "years_since_edit": 6, "label": "5.5–8.5 yr", "color": "#27974e" }, "geometry": { "type": "Point", "coordinates": [ 3.8940307, 43.6168739 ] } },
{ "type": "Feature", "properties": { "index": "4", "last_edit_year": 2024, "years_since_edit": 2, "label": "1.5–3.5 yr", "color": "#96d386" }, "geometry": { "type": "Point", "coordinates": [ 3.8914575, 43.6175169 ] } },
{ "type": "Feature", "properties": { "index": "5", "last_edit_year": 2026, "years_since_edit": 0, "label": "0.0–0.5 yr", "color": "#ffc" }, "geometry": { "type": "Point", "coordinates": [ 3.9009891, 43.6204177 ] } },
{ "type": "Feature", "properties": { "index": "6", "last_edit_year": 2020, "years_since_edit": 6, "label": "5.5–8.5 yr", "color": "#27974e" }, "geometry": { "type": "Point", "coordinates": [ 3.8992306, 43.6226079 ] } },
{ "type": "Feature", "properties": { "index": "7", "last_edit_year": 2019, "years_since_edit": 7, "label": "5.5–8.5 yr", "color": "#27974e" }, "geometry": { "type": "Point", "coordinates": [ 3.9011951, 43.6241733 ] } },
{ "type": "Feature", "properties": { "index": "8", "last_edit_year": 2024, "years_since_edit": 2, "label": "1.5–3.5 yr", "color": "#96d386" }, "geometry": { "type": "Point", "coordinates": [ 3.8999008, 43.6211362 ] } },
{ "type": "Feature", "properties": { "index": "9", "last_edit_year": 2017, "years_since_edit": 9, "label": "8.5–12.0 yr", "color": "#006837" }, "geometry": { "type": "Point", "coordinates": [ 3.9007102, 43.6197683 ] } },
{ "type": "Feature", "properties": { "index": "10", "last_edit_year": 2023, "years_since_edit": 3, "label": "1.5–3.5 yr", "color": "#96d386" }, "geometry": { "type": "Point", "coordinates": [ 3.9001562, 43.6215584 ] } },
{ "type": "Feature", "properties": { "index": "11", "last_edit_year": 2019, "years_since_edit": 7, "label": "5.5–8.5 yr", "color": "#27974e" }, "geometry": { "type": "Point", "coordinates": [ 3.8973274, 43.6002461 ] } },
{ "type": "Feature", "properties": { "index": "12", "last_edit_year": 2025, "years_since_edit": 1, "label": "0.5–1.5 yr", "color": "#ceeba3" }, "geometry": { "type": "Point", "coordinates": [ 3.867351, 43.6196117 ] } },
{ "type": "Feature", "properties": { "index": "13", "last_edit_year": 2026, "years_since_edit": 0, "label": "0.0–0.5 yr", "color": "#ffc" }, "geometry": { "type": "Point", "coordinates": [ 3.8673133, 43.6217132 ] } },
{ "type": "Feature", "properties": { "index": "14", "last_edit_year": 2025, "years_since_edit": 1, "label": "0.5–1.5 yr", "color": "#ceeba3" }, "geometry": { "type": "Point", "coordinates": [ 3.8933029, 43.6084043 ] } },
{ "type": "Feature", "properties": { "index": "15", "last_edit_year": 2024, "years_since_edit": 2, "label": "1.5–3.5 yr", "color": "#96d386" }, "geometry": { "type": "Point", "coordinates": [ 3.8937374, 43.6016564 ] } },
{ "type": "Feature", "properties": { "index": "16", "last_edit_year": 2019, "years_since_edit": 7, "label": "5.5–8.5 yr", "color": "#27974e" }, "geometry": { "type": "Point", "coordinates": [ 3.8911746, 43.6086751 ] } },
{ "type": "Feature", "properties": { "index": "17", "last_edit_year": 2023, "years_since_edit": 3, "label": "1.5–3.5 yr", "color": "#96d386" }, "geometry": { "type": "Point", "coordinates": [ 3.8920756, 43.6086159 ] } },
{ "type": "Feature", "properties": { "index": "18", "last_edit_year": 2025, "years_since_edit": 1, "label": "0.5–1.5 yr", "color": "#ceeba3" }, "geometry": { "type": "Point", "coordinates": [ 3.8968097, 43.6013497 ] } },
{ "type": "Feature", "properties": { "index": "19", "last_edit_year": 2022, "years_since_edit": 4, "label": "3.5–5.5 yr", "color": "#5cb86a" }, "geometry": { "type": "Point", "coordinates": [ 3.8967346, 43.6020765 ] } },
{ "type": "Feature", "properties": { "index": "20", "last_edit_year": 2016, "years_since_edit": 10, "label": "8.5–12.0 yr", "color": "#006837" }, "geometry": { "type": "Point", "coordinates": [ 3.900037, 43.6090689 ] } },
{ "type": "Feature", "properties": { "index": "21", "last_edit_year": 2025, "years_since_edit": 1, "label": "0.5–1.5 yr", "color": "#ceeba3" }, "geometry": { "type": "Point", "coordinates": [ 3.8989716, 43.6058361 ] } },
{ "type": "Feature", "properties": { "index": "22", "last_edit_year": 2025, "years_since_edit": 1, "label": "0.5–1.5 yr", "color": "#ceeba3" }, "geometry": { "type": "Point", "coordinates": [ 3.8982453, 43.6095475 ] } },
{ "type": "Feature", "properties": { "index": "23", "last_edit_year": 2024, "years_since_edit": 2, "label": "1.5–3.5 yr", "color": "#96d386" }, "geometry": { "type": "Point", "coordinates": [ 3.9004556, 43.6098832 ] } },
{ "type": "Feature", "properties": { "index": "24", "last_edit_year": 2018, "years_since_edit": 8, "label": "5.5–8.5 yr", "color": "#27974e" }, "geometry": { "type": "Point", "coordinates": [ 3.900292, 43.6093557 ] } },
{ "type": "Feature", "properties": { "index": "25", "last_edit_year": 2018, "years_since_edit": 8, "label": "5.5–8.5 yr", "color": "#27974e" }, "geometry": { "type": "Point", "coordinates": [ 3.9014182, 43.6095191 ] } },
{ "type": "Feature", "properties": { "index": "26", "last_edit_year": 2025, "years_since_edit": 1, "label": "0.5–1.5 yr", "color": "#ceeba3" }, "geometry": { "type": "Point", "coordinates": [ 3.9023665, 43.6100321 ] } },
{ "type": "Feature", "properties": { "index": "27", "last_edit_year": 2021, "years_since_edit": 5, "label": "3.5–5.5 yr", "color": "#5cb86a" }, "geometry": { "type": "Point", "coordinates": [ 3.9049708, 43.6097908 ] } },
{ "type": "Feature", "properties": { "index": "28", "last_edit_year": 2019, "years_since_edit": 7, "label": "5.5–8.5 yr", "color": "#27974e" }, "geometry": { "type": "Point", "coordinates": [ 3.8898195, 43.6109742 ] } },
{ "type": "Feature", "properties": { "index": "29", "last_edit_year": 2017, "years_since_edit": 9, "label": "8.5–12.0 yr", "color": "#006837" }, "geometry": { "type": "Point", "coordinates": [ 3.9044768, 43.6102872 ] } },
{ "type": "Feature", "properties": { "index": "30", "last_edit_year": 2024, "years_since_edit": 2, "label": "1.5–3.5 yr", "color": "#96d386" }, "geometry": { "type": "Point", "coordinates": [ 3.8902311, 43.6073799 ] } },
{ "type": "Feature", "properties": { "index": "31", "last_edit_year": 2021, "years_since_edit": 5, "label": "3.5–5.5 yr", "color": "#5cb86a" }, "geometry": { "type": "Point", "coordinates": [ 3.8987105, 43.605032 ] } },
{ "type": "Feature", "properties": { "index": "32", "last_edit_year": 2023, "years_since_edit": 3, "label": "1.5–3.5 yr", "color": "#96d386" }, "geometry": { "type": "Point", "coordinates": [ 3.9016708, 43.6051443 ] } },
{ "type": "Feature", "properties": { "index": "33", "last_edit_year": 2025, "years_since_edit": 1, "label": "0.5–1.5 yr", "color": "#ceeba3" }, "geometry": { "type": "Point", "coordinates": [ 3.8950846, 43.6031174 ] } },
{ "type": "Feature", "properties": { "index": "34", "last_edit_year": 2016, "years_since_edit": 10, "label": "8.5–12.0 yr", "color": "#006837" }, "geometry": { "type": "Point", "coordinates": [ 3.901938, 43.610563 ] } },
{ "type": "Feature", "properties": { "index": "35", "last_edit_year": 2025, "years_since_edit": 1, "label": "0.5–1.5 yr", "color": "#ceeba3" }, "geometry": { "type": "Point", "coordinates": [ 3.9038633, 43.6007401 ] } },
{ "type": "Feature", "properties": { "index": "36", "last_edit_year": 2026, "years_since_edit": 0, "label": "0.0–0.5 yr", "color": "#ffc" }, "geometry": { "type": "Point", "coordinates": [ 3.8931911, 43.6074096 ] } },
{ "type": "Feature", "properties": { "index": "37", "last_edit_year": 2019, "years_since_edit": 7, "label": "5.5–8.5 yr", "color": "#27974e" }, "geometry": { "type": "Point", "coordinates": [ 3.9016559, 43.6083811 ] } },
{ "type": "Feature", "properties": { "index": "38", "last_edit_year": 2018, "years_since_edit": 8, "label": "5.5–8.5 yr", "color": "#27974e" }, "geometry": { "type": "Point", "coordinates": [ 3.8969278, 43.6027471 ] } },
{ "type": "Feature", "properties": { "index": "39", "last_edit_year": 2022, "years_since_edit": 4, "label": "3.5–5.5 yr", "color": "#5cb86a" }, "geometry": { "type": "Point", "coordinates": [ 3.9045241, 43.6077285 ] } },
{ "type": "Feature", "properties": { "index": "40", "last_edit_year": 2025, "years_since_edit": 1, "label": "0.5–1.5 yr", "color": "#ceeba3" }, "geometry": { "type": "Point", "coordinates": [ 3.8977386, 43.6051323 ] } },
{ "type": "Feature", "properties": { "index": "41", "last_edit_year": 2023, "years_since_edit": 3, "label": "1.5–3.5 yr", "color": "#96d386" }, "geometry": { "type": "Point", "coordinates": [ 3.8978537, 43.6049967 ] } },
{ "type": "Feature", "properties": { "index": "42", "last_edit_year": 2025, "years_since_edit": 1, "label": "0.5–1.5 yr", "color": "#ceeba3" }, "geometry": { "type": "Point", "coordinates": [ 3.8975216, 43.6102693 ] } },
{ "type": "Feature", "properties": { "index": "43", "last_edit_year": 2026, "years_since_edit": 0, "label": "0.0–0.5 yr", "color": "#ffc" }, "geometry": { "type": "Point", "coordinates": [ 3.8961539, 43.6116978 ] } },
{ "type": "Feature", "properties": { "index": "44", "last_edit_year": 2023, "years_since_edit": 3, "label": "1.5–3.5 yr", "color": "#96d386" }, "geometry": { "type": "Point", "coordinates": [ 3.903709, 43.6062328 ] } },
{ "type": "Feature", "properties": { "index": "45", "last_edit_year": 2017, "years_since_edit": 9, "label": "8.5–12.0 yr", "color": "#006837" }, "geometry": { "type": "Point", "coordinates": [ 3.893943, 43.6014505 ] } },
{ "type": "Feature", "properties": { "index": "46", "last_edit_year": 2017, "years_since_edit": 9, "label": "8.5–12.0 yr", "color": "#006837" }, "geometry": { "type": "Point", "coordinates": [ 3.9022283, 43.6095462 ] } },
{ "type": "Feature", "properties": { "index": "47", "last_edit_year": 2025, "years_since_edit": 1, "label": "0.5–1.5 yr", "color": "#ceeba3" }, "geometry": { "type": "Point", "coordinates": [ 3.8966579, 43.6000927 ] } },
{ "type": "Feature", "properties": { "index": "48", "last_edit_year": 2025, "years_since_edit": 1, "label": "0.5–1.5 yr", "color": "#ceeba3" }, "geometry": { "type": "Point", "coordinates": [ 3.8915441, 43.6079305 ] } },
{ "type": "Feature", "properties": { "index": "49", "last_edit_year": 2024, "years_since_edit": 2, "label": "1.5–3.5 yr", "color": "#96d386" }, "geometry": { "type": "Point", "coordinates": [ 3.8981198, 43.6041794 ] } },
{ "type": "Feature", "properties": { "index": "50", "last_edit_year": 2020, "years_since_edit": 6, "label": "5.5–8.5 yr", "color": "#27974e" }, "geometry": { "type": "Point", "coordinates": [ 3.9026104, 43.6015017 ] } },
{ "type": "Feature", "properties": { "index": "51", "last_edit_year": 2019, "years_since_edit": 7, "label": "5.5–8.5 yr", "color": "#27974e" }, "geometry": { "type": "Point", "coordinates": [ 3.8942571, 43.6034332 ] } },
{ "type": "Feature", "properties": { "index": "52", "last_edit_year": 2020, "years_since_edit": 6, "label": "5.5–8.5 yr", "color": "#27974e" }, "geometry": { "type": "Point", "coordinates": [ 3.89225, 43.6151488 ] } },
{ "type": "Feature", "properties": { "index": "53", "last_edit_year": 2020, "years_since_edit": 6, "label": "5.5–8.5 yr", "color": "#27974e" }, "geometry": { "type": "Point", "coordinates": [ 3.8935122, 43.6156587 ] } },
{ "type": "Feature", "properties": { "index": "54", "last_edit_year": 2020, "years_since_edit": 6, "label": "5.5–8.5 yr", "color": "#27974e" }, "geometry": { "type": "Point", "coordinates": [ 3.8937939, 43.6149538 ] } },
{ "type": "Feature", "properties": { "index": "55", "last_edit_year": 2023, "years_since_edit": 3, "label": "1.5–3.5 yr", "color": "#96d386" }, "geometry": { "type": "Point", "coordinates": [ 3.8941355, 43.6142857 ] } },
{ "type": "Feature", "properties": { "index": "56", "last_edit_year": 2023, "years_since_edit": 3, "label": "1.5–3.5 yr", "color": "#96d386" }, "geometry": { "type": "Point", "coordinates": [ 3.8941484, 43.6148016 ] } },
{ "type": "Feature", "properties": { "index": "57", "last_edit_year": 2023, "years_since_edit": 3, "label": "1.5–3.5 yr", "color": "#96d386" }, "geometry": { "type": "Point", "coordinates": [ 3.9023358, 43.608419 ] } },
{ "type": "Feature", "properties": { "index": "58", "last_edit_year": 2023, "years_since_edit": 3, "label": "1.5–3.5 yr", "color": "#96d386" }, "geometry": { "type": "Point", "coordinates": [ 3.9021774, 43.6090539 ] } },
{ "type": "Feature", "properties": { "index": "59", "last_edit_year": 2025, "years_since_edit": 1, "label": "0.5–1.5 yr", "color": "#ceeba3" }, "geometry": { "type": "Point", "coordinates": [ 3.9035649, 43.6056243 ] } },
{ "type": "Feature", "properties": { "index": "60", "last_edit_year": 2023, "years_since_edit": 3, "label": "1.5–3.5 yr", "color": "#96d386" }, "geometry": { "type": "Point", "coordinates": [ 3.8631644, 43.6173228 ] } },
{ "type": "Feature", "properties": { "index": "61", "last_edit_year": 2025, "years_since_edit": 1, "label": "0.5–1.5 yr", "color": "#ceeba3" }, "geometry": { "type": "Point", "coordinates": [ 3.8555188, 43.6194129 ] } },
{ "type": "Feature", "properties": { "index": "62", "last_edit_year": 2019, "years_since_edit": 7, "label": "5.5–8.5 yr", "color": "#27974e" }, "geometry": { "type": "Point", "coordinates": [ 3.8558376, 43.6246917 ] } },
{ "type": "Feature", "properties": { "index": "63", "last_edit_year": 2019, "years_since_edit": 7, "label": "5.5–8.5 yr", "color": "#27974e" }, "geometry": { "type": "Point", "coordinates": [ 3.8614915, 43.6210418 ] } },
{ "type": "Feature", "properties": { "index": "64", "last_edit_year": 2017, "years_since_edit": 9, "label": "8.5–12.0 yr", "color": "#006837" }, "geometry": { "type": "Point", "coordinates": [ 3.8563135, 43.6224953 ] } },
{ "type": "Feature", "properties": { "index": "65", "last_edit_year": 2026, "years_since_edit": 0, "label": "0.0–0.5 yr", "color": "#ffc" }, "geometry": { "type": "Point", "coordinates": [ 3.8592214, 43.6000897 ] } },
{ "type": "Feature", "properties": { "index": "66", "last_edit_year": 2024, "years_since_edit": 2, "label": "1.5–3.5 yr", "color": "#96d386" }, "geometry": { "type": "Point", "coordinates": [ 3.8605919, 43.6072377 ] } },
{ "type": "Feature", "properties": { "index": "67", "last_edit_year": 2021, "years_since_edit": 5, "label": "3.5–5.5 yr", "color": "#5cb86a" }, "geometry": { "type": "Point", "coordinates": [ 3.8600526, 43.6000343 ] } },
{ "type": "Feature", "properties": { "index": "68", "last_edit_year": 2024, "years_since_edit": 2, "label": "1.5–3.5 yr", "color": "#96d386" }, "geometry": { "type": "Point", "coordinates": [ 3.8667262, 43.606478 ] } },
{ "type": "Feature", "properties": { "index": "69", "last_edit_year": 2017, "years_since_edit": 9, "label": "8.5–12.0 yr", "color": "#006837" }, "geometry": { "type": "Point", "coordinates": [ 3.8644205, 43.6154342 ] } },
{ "type": "Feature", "properties": { "index": "70", "last_edit_year": 2024, "years_since_edit": 2, "label": "1.5–3.5 yr", "color": "#96d386" }, "geometry": { "type": "Point", "coordinates": [ 3.866192, 43.6068378 ] } },
{ "type": "Feature", "properties": { "index": "71", "last_edit_year": 2024, "years_since_edit": 2, "label": "1.5–3.5 yr", "color": "#96d386" }, "geometry": { "type": "Point", "coordinates": [ 3.8611, 43.6119647 ] } },
{ "type": "Feature", "properties": { "index": "72", "last_edit_year": 2025, "years_since_edit": 1, "label": "0.5–1.5 yr", "color": "#ceeba3" }, "geometry": { "type": "Point", "coordinates": [ 3.8584834, 43.6111191 ] } },
{ "type": "Feature", "properties": { "index": "73", "last_edit_year": 2022, "years_since_edit": 4, "label": "3.5–5.5 yr", "color": "#5cb86a" }, "geometry": { "type": "Point", "coordinates": [ 3.8615899, 43.6060934 ] } },
{ "type": "Feature", "properties": { "index": "74", "last_edit_year": 2020, "years_since_edit": 6, "label": "5.5–8.5 yr", "color": "#27974e" }, "geometry": { "type": "Point", "coordinates": [ 3.8578608, 43.6106861 ] } },
{ "type": "Feature", "properties": { "index": "75", "last_edit_year": 2026, "years_since_edit": 0, "label": "0.0–0.5 yr", "color": "#ffc" }, "geometry": { "type": "Point", "coordinates": [ 3.8631918, 43.6080698 ] } },
{ "type": "Feature", "properties": { "index": "76", "last_edit_year": 2026, "years_since_edit": 0, "label": "0.0–0.5 yr", "color": "#ffc" }, "geometry": { "type": "Point", "coordinates": [ 3.8640593, 43.6072951 ] } },
{ "type": "Feature", "properties": { "index": "77", "last_edit_year": 2023, "years_since_edit": 3, "label": "1.5–3.5 yr", "color": "#96d386" }, "geometry": { "type": "Point", "coordinates": [ 3.8558048, 43.609618 ] } },
{ "type": "Feature", "properties": { "index": "78", "last_edit_year": 2025, "years_since_edit": 1, "label": "0.5–1.5 yr", "color": "#ceeba3" }, "geometry": { "type": "Point", "coordinates": [ 3.8798972, 43.6117266 ] } },
{ "type": "Feature", "properties": { "index": "79", "last_edit_year": 2024, "years_since_edit": 2, "label": "1.5–3.5 yr", "color": "#96d386" }, "geometry": { "type": "Point", "coordinates": [ 3.8700366, 43.611312 ] } },
{ "type": "Feature", "properties": { "index": "80", "last_edit_year": 2025, "years_since_edit": 1, "label": "0.5–1.5 yr", "color": "#ceeba3" }, "geometry": { "type": "Point", "coordinates": [ 3.8809604, 43.6096233 ] } },
{ "type": "Feature", "properties": { "index": "81", "last_edit_year": 2025, "years_since_edit": 1, "label": "0.5–1.5 yr", "color": "#ceeba3" }, "geometry": { "type": "Point", "coordinates": [ 3.880786, 43.609921 ] } },
{ "type": "Feature", "properties": { "index": "82", "last_edit_year": 2024, "years_since_edit": 2, "label": "1.5–3.5 yr", "color": "#96d386" }, "geometry": { "type": "Point", "coordinates": [ 3.8722724, 43.6239591 ] } },
{ "type": "Feature", "properties": { "index": "83", "last_edit_year": 2019, "years_since_edit": 7, "label": "5.5–8.5 yr", "color": "#27974e" }, "geometry": { "type": "Point", "coordinates": [ 3.8903934, 43.623725 ] } },
{ "type": "Feature", "properties": { "index": "84", "last_edit_year": 2024, "years_since_edit": 2, "label": "1.5–3.5 yr", "color": "#96d386" }, "geometry": { "type": "Point", "coordinates": [ 3.8883543, 43.6218967 ] } },
{ "type": "Feature", "properties": { "index": "85", "last_edit_year": 2024, "years_since_edit": 2, "label": "1.5–3.5 yr", "color": "#96d386" }, "geometry": { "type": "Point", "coordinates": [ 3.8821649, 43.6167808 ] } },
{ "type": "Feature", "properties": { "index": "86", "last_edit_year": 2024, "years_since_edit": 2, "label": "1.5–3.5 yr", "color": "#96d386" }, "geometry": { "type": "Point", "coordinates": [ 3.8862598, 43.6180665 ] } },
{ "type": "Feature", "properties": { "index": "87", "last_edit_year": 2024, "years_since_edit": 2, "label": "1.5–3.5 yr", "color": "#96d386" }, "geometry": { "type": "Point", "coordinates": [ 3.8809653, 43.6186997 ] } },
{ "type": "Feature", "properties": { "index": "88", "last_edit_year": 2019, "years_since_edit": 7, "label": "5.5–8.5 yr", "color": "#27974e" }, "geometry": { "type": "Point", "coordinates": [ 3.8823091, 43.6202911 ] } },
{ "type": "Feature", "properties": { "index": "89", "last_edit_year": 2019, "years_since_edit": 7, "label": "5.5–8.5 yr", "color": "#27974e" }, "geometry": { "type": "Point", "coordinates": [ 3.8838529, 43.6159964 ] } },
{ "type": "Feature", "properties": { "index": "90", "last_edit_year": 2019, "years_since_edit": 7, "label": "5.5–8.5 yr", "color": "#27974e" }, "geometry": { "type": "Point", "coordinates": [ 3.8785874, 43.6185564 ] } },
{ "type": "Feature", "properties": { "index": "91", "last_edit_year": 2019, "years_since_edit": 7, "label": "5.5–8.5 yr", "color": "#27974e" }, "geometry": { "type": "Point", "coordinates": [ 3.8785201, 43.61706 ] } },
{ "type": "Feature", "properties": { "index": "92", "last_edit_year": 2024, "years_since_edit": 2, "label": "1.5–3.5 yr", "color": "#96d386" }, "geometry": { "type": "Point", "coordinates": [ 3.8715853, 43.6198294 ] } },
{ "type": "Feature", "properties": { "index": "93", "last_edit_year": 2026, "years_since_edit": 0, "label": "0.0–0.5 yr", "color": "#ffc" }, "geometry": { "type": "Point", "coordinates": [ 3.8772161, 43.6166296 ] } },
{ "type": "Feature", "properties": { "index": "94", "last_edit_year": 2023, "years_since_edit": 3, "label": "1.5–3.5 yr", "color": "#96d386" }, "geometry": { "type": "Point", "coordinates": [ 3.8768842, 43.6239716 ] } },
{ "type": "Feature", "properties": { "index": "95", "last_edit_year": 2017, "years_since_edit": 9, "label": "8.5–12.0 yr", "color": "#006837" }, "geometry": { "type": "Point", "coordinates": [ 3.8702322, 43.6242213 ] } },
{ "type": "Feature", "properties": { "index": "96", "last_edit_year": 2025, "years_since_edit": 1, "label": "0.5–1.5 yr", "color": "#ceeba3" }, "geometry": { "type": "Point", "coordinates": [ 3.8709302, 43.6230287 ] } },
{ "type": "Feature", "properties": { "index": "97", "last_edit_year": 2024, "years_since_edit": 2, "label": "1.5–3.5 yr", "color": "#96d386" }, "geometry": { "type": "Point", "coordinates": [ 3.887815, 43.6232921 ] } },
{ "type": "Feature", "properties": { "index": "98", "last_edit_year": 2024, "years_since_edit": 2, "label": "1.5–3.5 yr", "color": "#96d386" }, "geometry": { "type": "Point", "coordinates": [ 3.8698801, 43.6204648 ] } },
{ "type": "Feature", "properties": { "index": "99", "last_edit_year": 2019, "years_since_edit": 7, "label": "5.5–8.5 yr", "color": "#27974e" }, "geometry": { "type": "Point", "coordinates": [ 3.8831879, 43.6174064 ] } },
{ "type": "Feature", "properties": { "index": "100", "last_edit_year": 2019, "years_since_edit": 7, "label": "5.5–8.5 yr", "color": "#27974e" }, "geometry": { "type": "Point", "coordinates": [ 3.8822813, 43.6184504 ] } },
{ "type": "Feature", "properties": { "index": "101", "last_edit_year": 2025, "years_since_edit": 1, "label": "0.5–1.5 yr", "color": "#ceeba3" }, "geometry": { "type": "Point", "coordinates": [ 3.8763798, 43.6233356 ] } },
{ "type": "Feature", "properties": { "index": "102", "last_edit_year": 2023, "years_since_edit": 3, "label": "1.5–3.5 yr", "color": "#96d386" }, "geometry": { "type": "Point", "coordinates": [ 3.8757759, 43.6180725 ] } },
{ "type": "Feature", "properties": { "index": "103", "last_edit_year": 2023, "years_since_edit": 3, "label": "1.5–3.5 yr", "color": "#96d386" }, "geometry": { "type": "Point", "coordinates": [ 3.8723737, 43.6239441 ] } },
{ "type": "Feature", "properties": { "index": "104", "last_edit_year": 2023, "years_since_edit": 3, "label": "1.5–3.5 yr", "color": "#96d386" }, "geometry": { "type": "Point", "coordinates": [ 3.8883636, 43.6218938 ] } },
{ "type": "Feature", "properties": { "index": "105", "last_edit_year": 2023, "years_since_edit": 3, "label": "1.5–3.5 yr", "color": "#96d386" }, "geometry": { "type": "Point", "coordinates": [ 3.8838412, 43.6159897 ] } },
{ "type": "Feature", "properties": { "index": "106", "last_edit_year": 2025, "years_since_edit": 1, "label": "0.5–1.5 yr", "color": "#ceeba3" }, "geometry": { "type": "Point", "coordinates": [ 3.8677119, 43.6200442 ] } },
{ "type": "Feature", "properties": { "index": "107", "last_edit_year": 2026, "years_since_edit": 0, "label": "0.0–0.5 yr", "color": "#ffc" }, "geometry": { "type": "Point", "coordinates": [ 3.8718541, 43.6141754 ] } },
{ "type": "Feature", "properties": { "index": "108", "last_edit_year": 2025, "years_since_edit": 1, "label": "0.5–1.5 yr", "color": "#ceeba3" }, "geometry": { "type": "Point", "coordinates": [ 3.8799245, 43.6055553 ] } },
{ "type": "Feature", "properties": { "index": "109", "last_edit_year": 2023, "years_since_edit": 3, "label": "1.5–3.5 yr", "color": "#96d386" }, "geometry": { "type": "Point", "coordinates": [ 3.8787602, 43.6059928 ] } },
{ "type": "Feature", "properties": { "index": "110", "last_edit_year": 2025, "years_since_edit": 1, "label": "0.5–1.5 yr", "color": "#ceeba3" }, "geometry": { "type": "Point", "coordinates": [ 3.8822423, 43.6112223 ] } },
{ "type": "Feature", "properties": { "index": "111", "last_edit_year": 2019, "years_since_edit": 7, "label": "5.5–8.5 yr", "color": "#27974e" }, "geometry": { "type": "Point", "coordinates": [ 3.8812303, 43.613759 ] } },
{ "type": "Feature", "properties": { "index": "112", "last_edit_year": 2025, "years_since_edit": 1, "label": "0.5–1.5 yr", "color": "#ceeba3" }, "geometry": { "type": "Point", "coordinates": [ 3.8891505, 43.604116 ] } },
{ "type": "Feature", "properties": { "index": "113", "last_edit_year": 2024, "years_since_edit": 2, "label": "1.5–3.5 yr", "color": "#96d386" }, "geometry": { "type": "Point", "coordinates": [ 3.8759619, 43.6010865 ] } },
{ "type": "Feature", "properties": { "index": "114", "last_edit_year": 2019, "years_since_edit": 7, "label": "5.5–8.5 yr", "color": "#27974e" }, "geometry": { "type": "Point", "coordinates": [ 3.8895508, 43.6075962 ] } },
{ "type": "Feature", "properties": { "index": "115", "last_edit_year": 2024, "years_since_edit": 2, "label": "1.5–3.5 yr", "color": "#96d386" }, "geometry": { "type": "Point", "coordinates": [ 3.8854133, 43.6026495 ] } },
{ "type": "Feature", "properties": { "index": "116", "last_edit_year": 2025, "years_since_edit": 1, "label": "0.5–1.5 yr", "color": "#ceeba3" }, "geometry": { "type": "Point", "coordinates": [ 3.8821617, 43.6102252 ] } },
{ "type": "Feature", "properties": { "index": "117", "last_edit_year": 2023, "years_since_edit": 3, "label": "1.5–3.5 yr", "color": "#96d386" }, "geometry": { "type": "Point", "coordinates": [ 3.8818139, 43.6099918 ] } },
{ "type": "Feature", "properties": { "index": "118", "last_edit_year": 2016, "years_since_edit": 10, "label": "8.5–12.0 yr", "color": "#006837" }, "geometry": { "type": "Point", "coordinates": [ 3.8861396, 43.6077234 ] } },
{ "type": "Feature", "properties": { "index": "119", "last_edit_year": 2021, "years_since_edit": 5, "label": "3.5–5.5 yr", "color": "#5cb86a" }, "geometry": { "type": "Point", "coordinates": [ 3.8875497, 43.6090293 ] } },
{ "type": "Feature", "properties": { "index": "120", "last_edit_year": 2019, "years_since_edit": 7, "label": "5.5–8.5 yr", "color": "#27974e" }, "geometry": { "type": "Point", "coordinates": [ 3.889038, 43.6091008 ] } },
{ "type": "Feature", "properties": { "index": "121", "last_edit_year": 2019, "years_since_edit": 7, "label": "5.5–8.5 yr", "color": "#27974e" }, "geometry": { "type": "Point", "coordinates": [ 3.8869722, 43.6134876 ] } },
{ "type": "Feature", "properties": { "index": "122", "last_edit_year": 2023, "years_since_edit": 3, "label": "1.5–3.5 yr", "color": "#96d386" }, "geometry": { "type": "Point", "coordinates": [ 3.8840529, 43.6130768 ] } },
{ "type": "Feature", "properties": { "index": "123", "last_edit_year": 2025, "years_since_edit": 1, "label": "0.5–1.5 yr", "color": "#ceeba3" }, "geometry": { "type": "Point", "coordinates": [ 3.8826538, 43.6107877 ] } },
{ "type": "Feature", "properties": { "index": "124", "last_edit_year": 2023, "years_since_edit": 3, "label": "1.5–3.5 yr", "color": "#96d386" }, "geometry": { "type": "Point", "coordinates": [ 3.8824677, 43.6117055 ] } },
{ "type": "Feature", "properties": { "index": "125", "last_edit_year": 2019, "years_since_edit": 7, "label": "5.5–8.5 yr", "color": "#27974e" }, "geometry": { "type": "Point", "coordinates": [ 3.8888356, 43.6099449 ] } },
{ "type": "Feature", "properties": { "index": "126", "last_edit_year": 2019, "years_since_edit": 7, "label": "5.5–8.5 yr", "color": "#27974e" }, "geometry": { "type": "Point", "coordinates": [ 3.887918, 43.6099027 ] } },
{ "type": "Feature", "properties": { "index": "127", "last_edit_year": 2026, "years_since_edit": 0, "label": "0.0–0.5 yr", "color": "#ffc" }, "geometry": { "type": "Point", "coordinates": [ 3.871733, 43.6041145 ] } },
{ "type": "Feature", "properties": { "index": "128", "last_edit_year": 2020, "years_since_edit": 6, "label": "5.5–8.5 yr", "color": "#27974e" }, "geometry": { "type": "Point", "coordinates": [ 3.8807325, 43.6132116 ] } },
{ "type": "Feature", "properties": { "index": "129", "last_edit_year": 2023, "years_since_edit": 3, "label": "1.5–3.5 yr", "color": "#96d386" }, "geometry": { "type": "Point", "coordinates": [ 3.8841746, 43.605421 ] } },
{ "type": "Feature", "properties": { "index": "130", "last_edit_year": 2024, "years_since_edit": 2, "label": "1.5–3.5 yr", "color": "#96d386" }, "geometry": { "type": "Point", "coordinates": [ 3.8831824, 43.6030027 ] } },
{ "type": "Feature", "properties": { "index": "131", "last_edit_year": 2019, "years_since_edit": 7, "label": "5.5–8.5 yr", "color": "#27974e" }, "geometry": { "type": "Point", "coordinates": [ 3.889376, 43.6132199 ] } },
{ "type": "Feature", "properties": { "index": "132", "last_edit_year": 2026, "years_since_edit": 0, "label": "0.0–0.5 yr", "color": "#ffc" }, "geometry": { "type": "Point", "coordinates": [ 3.8798014, 43.6104402 ] } },
{ "type": "Feature", "properties": { "index": "133", "last_edit_year": 2023, "years_since_edit": 3, "label": "1.5–3.5 yr", "color": "#96d386" }, "geometry": { "type": "Point", "coordinates": [ 3.8804732, 43.611105 ] } },
{ "type": "Feature", "properties": { "index": "134", "last_edit_year": 2023, "years_since_edit": 3, "label": "1.5–3.5 yr", "color": "#96d386" }, "geometry": { "type": "Point", "coordinates": [ 3.8794993, 43.6096526 ] } },
{ "type": "Feature", "properties": { "index": "135", "last_edit_year": 2024, "years_since_edit": 2, "label": "1.5–3.5 yr", "color": "#96d386" }, "geometry": { "type": "Point", "coordinates": [ 3.8806177, 43.6058251 ] } },
{ "type": "Feature", "properties": { "index": "136", "last_edit_year": 2023, "years_since_edit": 3, "label": "1.5–3.5 yr", "color": "#96d386" }, "geometry": { "type": "Point", "coordinates": [ 3.8791144, 43.606381 ] } },
{ "type": "Feature", "properties": { "index": "137", "last_edit_year": 2024, "years_since_edit": 2, "label": "1.5–3.5 yr", "color": "#96d386" }, "geometry": { "type": "Point", "coordinates": [ 3.8776134, 43.6071808 ] } },
{ "type": "Feature", "properties": { "index": "138", "last_edit_year": 2024, "years_since_edit": 2, "label": "1.5–3.5 yr", "color": "#96d386" }, "geometry": { "type": "Point", "coordinates": [ 3.8770691, 43.6142425 ] } },
{ "type": "Feature", "properties": { "index": "139", "last_edit_year": 2025, "years_since_edit": 1, "label": "0.5–1.5 yr", "color": "#ceeba3" }, "geometry": { "type": "Point", "coordinates": [ 3.8777763, 43.6125626 ] } },
{ "type": "Feature", "properties": { "index": "140", "last_edit_year": 2022, "years_since_edit": 4, "label": "3.5–5.5 yr", "color": "#5cb86a" }, "geometry": { "type": "Point", "coordinates": [ 3.8795687, 43.6120339 ] } },
{ "type": "Feature", "properties": { "index": "141", "last_edit_year": 2019, "years_since_edit": 7, "label": "5.5–8.5 yr", "color": "#27974e" }, "geometry": { "type": "Point", "coordinates": [ 3.8704211, 43.6095436 ] } },
{ "type": "Feature", "properties": { "index": "142", "last_edit_year": 2025, "years_since_edit": 1, "label": "0.5–1.5 yr", "color": "#ceeba3" }, "geometry": { "type": "Point", "coordinates": [ 3.8747874, 43.6049958 ] } },
{ "type": "Feature", "properties": { "index": "143", "last_edit_year": 2023, "years_since_edit": 3, "label": "1.5–3.5 yr", "color": "#96d386" }, "geometry": { "type": "Point", "coordinates": [ 3.869495, 43.6055765 ] } },
{ "type": "Feature", "properties": { "index": "144", "last_edit_year": 2019, "years_since_edit": 7, "label": "5.5–8.5 yr", "color": "#27974e" }, "geometry": { "type": "Point", "coordinates": [ 3.8735866, 43.6054892 ] } },
{ "type": "Feature", "properties": { "index": "145", "last_edit_year": 2024, "years_since_edit": 2, "label": "1.5–3.5 yr", "color": "#96d386" }, "geometry": { "type": "Point", "coordinates": [ 3.8737493, 43.614002 ] } },
{ "type": "Feature", "properties": { "index": "146", "last_edit_year": 2025, "years_since_edit": 1, "label": "0.5–1.5 yr", "color": "#ceeba3" }, "geometry": { "type": "Point", "coordinates": [ 3.8848435, 43.608422 ] } },
{ "type": "Feature", "properties": { "index": "147", "last_edit_year": 2025, "years_since_edit": 1, "label": "0.5–1.5 yr", "color": "#ceeba3" }, "geometry": { "type": "Point", "coordinates": [ 3.8759736, 43.612339 ] } },
{ "type": "Feature", "properties": { "index": "148", "last_edit_year": 2019, "years_since_edit": 7, "label": "5.5–8.5 yr", "color": "#27974e" }, "geometry": { "type": "Point", "coordinates": [ 3.8784845, 43.613511 ] } },
{ "type": "Feature", "properties": { "index": "149", "last_edit_year": 2019, "years_since_edit": 7, "label": "5.5–8.5 yr", "color": "#27974e" }, "geometry": { "type": "Point", "coordinates": [ 3.870185, 43.6133703 ] } },
{ "type": "Feature", "properties": { "index": "150", "last_edit_year": 2014, "years_since_edit": 12, "label": "8.5–12.0 yr", "color": "#006837" }, "geometry": { "type": "Point", "coordinates": [ 3.8855022, 43.6072792 ] } },
{ "type": "Feature", "properties": { "index": "151", "last_edit_year": 2025, "years_since_edit": 1, "label": "0.5–1.5 yr", "color": "#ceeba3" }, "geometry": { "type": "Point", "coordinates": [ 3.8761182, 43.6086816 ] } },
{ "type": "Feature", "properties": { "index": "152", "last_edit_year": 2024, "years_since_edit": 2, "label": "1.5–3.5 yr", "color": "#96d386" }, "geometry": { "type": "Point", "coordinates": [ 3.8757543, 43.6149779 ] } },
{ "type": "Feature", "properties": { "index": "153", "last_edit_year": 2026, "years_since_edit": 0, "label": "0.0–0.5 yr", "color": "#ffc" }, "geometry": { "type": "Point", "coordinates": [ 3.8740327, 43.6133276 ] } },
{ "type": "Feature", "properties": { "index": "154", "last_edit_year": 2024, "years_since_edit": 2, "label": "1.5–3.5 yr", "color": "#96d386" }, "geometry": { "type": "Point", "coordinates": [ 3.8758702, 43.608696 ] } },
{ "type": "Feature", "properties": { "index": "155", "last_edit_year": 2025, "years_since_edit": 1, "label": "0.5–1.5 yr", "color": "#ceeba3" }, "geometry": { "type": "Point", "coordinates": [ 3.8762599, 43.6088786 ] } },
{ "type": "Feature", "properties": { "index": "156", "last_edit_year": 2016, "years_since_edit": 10, "label": "8.5–12.0 yr", "color": "#006837" }, "geometry": { "type": "Point", "coordinates": [ 3.8676123, 43.6002261 ] } },
{ "type": "Feature", "properties": { "index": "157", "last_edit_year": 2016, "years_since_edit": 10, "label": "8.5–12.0 yr", "color": "#006837" }, "geometry": { "type": "Point", "coordinates": [ 3.8754301, 43.6138664 ] } },
{ "type": "Feature", "properties": { "index": "158", "last_edit_year": 2019, "years_since_edit": 7, "label": "5.5–8.5 yr", "color": "#27974e" }, "geometry": { "type": "Point", "coordinates": [ 3.8749247, 43.6136614 ] } },
{ "type": "Feature", "properties": { "index": "159", "last_edit_year": 2025, "years_since_edit": 1, "label": "0.5–1.5 yr", "color": "#ceeba3" }, "geometry": { "type": "Point", "coordinates": [ 3.8680145, 43.6113321 ] } },
{ "type": "Feature", "properties": { "index": "160", "last_edit_year": 2025, "years_since_edit": 1, "label": "0.5–1.5 yr", "color": "#ceeba3" }, "geometry": { "type": "Point", "coordinates": [ 3.8747864, 43.6120575 ] } },
{ "type": "Feature", "properties": { "index": "161", "last_edit_year": 2024, "years_since_edit": 2, "label": "1.5–3.5 yr", "color": "#96d386" }, "geometry": { "type": "Point", "coordinates": [ 3.8758994, 43.6131486 ] } },
{ "type": "Feature", "properties": { "index": "162", "last_edit_year": 2020, "years_since_edit": 6, "label": "5.5–8.5 yr", "color": "#27974e" }, "geometry": { "type": "Point", "coordinates": [ 3.8780906, 43.6128159 ] } },
{ "type": "Feature", "properties": { "index": "163", "last_edit_year": 2019, "years_since_edit": 7, "label": "5.5–8.5 yr", "color": "#27974e" }, "geometry": { "type": "Point", "coordinates": [ 3.8702095, 43.6133726 ] } },
{ "type": "Feature", "properties": { "index": "164", "last_edit_year": 2026, "years_since_edit": 0, "label": "0.0–0.5 yr", "color": "#ffc" }, "geometry": { "type": "Point", "coordinates": [ 3.8700358, 43.6113121 ] } },
{ "type": "Feature", "properties": { "index": "165", "last_edit_year": 2021, "years_since_edit": 5, "label": "3.5–5.5 yr", "color": "#5cb86a" }, "geometry": { "type": "Point", "coordinates": [ 3.8876361, 43.6082036 ] } },
{ "type": "Feature", "properties": { "index": "166", "last_edit_year": 2019, "years_since_edit": 7, "label": "5.5–8.5 yr", "color": "#27974e" }, "geometry": { "type": "Point", "coordinates": [ 3.8787239, 43.605917 ] } },
{ "type": "Feature", "properties": { "index": "167", "last_edit_year": 2024, "years_since_edit": 2, "label": "1.5–3.5 yr", "color": "#96d386" }, "geometry": { "type": "Point", "coordinates": [ 3.8740625, 43.6158353 ] } },
{ "type": "Feature", "properties": { "index": "168", "last_edit_year": 2025, "years_since_edit": 1, "label": "0.5–1.5 yr", "color": "#ceeba3" }, "geometry": { "type": "Point", "coordinates": [ 3.8866753, 43.6030821 ] } },
{ "type": "Feature", "properties": { "index": "169", "last_edit_year": 2023, "years_since_edit": 3, "label": "1.5–3.5 yr", "color": "#96d386" }, "geometry": { "type": "Point", "coordinates": [ 3.8758091, 43.6123422 ] } },
{ "type": "Feature", "properties": { "index": "170", "last_edit_year": 2026, "years_since_edit": 0, "label": "0.0–0.5 yr", "color": "#ffc" }, "geometry": { "type": "Point", "coordinates": [ 3.8724848, 43.6150221 ] } },
{ "type": "Feature", "properties": { "index": "171", "last_edit_year": 2024, "years_since_edit": 2, "label": "1.5–3.5 yr", "color": "#96d386" }, "geometry": { "type": "Point", "coordinates": [ 3.8723026, 43.614646 ] } },
{ "type": "Feature", "properties": { "index": "172", "last_edit_year": 2024, "years_since_edit": 2, "label": "1.5–3.5 yr", "color": "#96d386" }, "geometry": { "type": "Point", "coordinates": [ 3.8716943, 43.6145872 ] } },
{ "type": "Feature", "properties": { "index": "173", "last_edit_year": 2023, "years_since_edit": 3, "label": "1.5–3.5 yr", "color": "#96d386" }, "geometry": { "type": "Point", "coordinates": [ 3.872057, 43.612933 ] } },
{ "type": "Feature", "properties": { "index": "174", "last_edit_year": 2026, "years_since_edit": 0, "label": "0.0–0.5 yr", "color": "#ffc" }, "geometry": { "type": "Point", "coordinates": [ 3.883395, 43.610566 ] } },
{ "type": "Feature", "properties": { "index": "175", "last_edit_year": 2025, "years_since_edit": 1, "label": "0.5–1.5 yr", "color": "#ceeba3" }, "geometry": { "type": "Point", "coordinates": [ 3.8830411, 43.6120506 ] } },
{ "type": "Feature", "properties": { "index": "176", "last_edit_year": 2025, "years_since_edit": 1, "label": "0.5–1.5 yr", "color": "#ceeba3" }, "geometry": { "type": "Point", "coordinates": [ 3.8679986, 43.6117595 ] } },
{ "type": "Feature", "properties": { "index": "177", "last_edit_year": 2026, "years_since_edit": 0, "label": "0.0–0.5 yr", "color": "#ffc" }, "geometry": { "type": "Point", "coordinates": [ 3.8815954, 43.6097546 ] } },
{ "type": "Feature", "properties": { "index": "178", "last_edit_year": 2016, "years_since_edit": 10, "label": "8.5–12.0 yr", "color": "#006837" }, "geometry": { "type": "Point", "coordinates": [ 3.8590582, 43.6130973 ] } },
{ "type": "Feature", "properties": { "index": "179", "last_edit_year": 2016, "years_since_edit": 10, "label": "8.5–12.0 yr", "color": "#006837" }, "geometry": { "type": "Point", "coordinates": [ 3.8592808, 43.6062245 ] } },
{ "type": "Feature", "properties": { "index": "180", "last_edit_year": 2025, "years_since_edit": 1, "label": "0.5–1.5 yr", "color": "#ceeba3" }, "geometry": { "type": "Point", "coordinates": [ 3.8876303, 43.6209792 ] } },
{ "type": "Feature", "properties": { "index": "181", "last_edit_year": 2023, "years_since_edit": 3, "label": "1.5–3.5 yr", "color": "#96d386" }, "geometry": { "type": "Point", "coordinates": [ 3.8703977, 43.6125261 ] } },
{ "type": "Feature", "properties": { "index": "182", "last_edit_year": 2023, "years_since_edit": 3, "label": "1.5–3.5 yr", "color": "#96d386" }, "geometry": { "type": "Point", "coordinates": [ 3.8689858, 43.6134209 ] } },
{ "type": "Feature", "properties": { "index": "183", "last_edit_year": 2023, "years_since_edit": 3, "label": "1.5–3.5 yr", "color": "#96d386" }, "geometry": { "type": "Point", "coordinates": [ 3.8769117, 43.6091823 ] } },
{ "type": "Feature", "properties": { "index": "184", "last_edit_year": 2015, "years_since_edit": 11, "label": "8.5–12.0 yr", "color": "#006837" }, "geometry": { "type": "Point", "coordinates": [ 3.8971991, 43.6075433 ] } },
{ "type": "Feature", "properties": { "index": "185", "last_edit_year": 2023, "years_since_edit": 3, "label": "1.5–3.5 yr", "color": "#96d386" }, "geometry": { "type": "Point", "coordinates": [ 3.8785566, 43.6175488 ] } },
{ "type": "Feature", "properties": { "index": "186", "last_edit_year": 2023, "years_since_edit": 3, "label": "1.5–3.5 yr", "color": "#96d386" }, "geometry": { "type": "Point", "coordinates": [ 3.8769363, 43.6089025 ] } },
{ "type": "Feature", "properties": { "index": "187", "last_edit_year": 2026, "years_since_edit": 0, "label": "0.0–0.5 yr", "color": "#ffc" }, "geometry": { "type": "Point", "coordinates": [ 3.8771451, 43.613544 ] } },
{ "type": "Feature", "properties": { "index": "188", "last_edit_year": 2023, "years_since_edit": 3, "label": "1.5–3.5 yr", "color": "#96d386" }, "geometry": { "type": "Point", "coordinates": [ 3.8731017, 43.6038366 ] } },
{ "type": "Feature", "properties": { "index": "189", "last_edit_year": 2025, "years_since_edit": 1, "label": "0.5–1.5 yr", "color": "#ceeba3" }, "geometry": { "type": "Point", "coordinates": [ 3.8759548, 43.6112949 ] } },
{ "type": "Feature", "properties": { "index": "190", "last_edit_year": 2020, "years_since_edit": 6, "label": "5.5–8.5 yr", "color": "#27974e" }, "geometry": { "type": "Point", "coordinates": [ 3.8791384, 43.6095397 ] } },
{ "type": "Feature", "properties": { "index": "191", "last_edit_year": 2024, "years_since_edit": 2, "label": "1.5–3.5 yr", "color": "#96d386" }, "geometry": { "type": "Point", "coordinates": [ 3.8757692, 43.6065624 ] } },
{ "type": "Feature", "properties": { "index": "192", "last_edit_year": 2021, "years_since_edit": 5, "label": "3.5–5.5 yr", "color": "#5cb86a" }, "geometry": { "type": "Point", "coordinates": [ 3.8698701, 43.6176977 ] } },
{ "type": "Feature", "properties": { "index": "193", "last_edit_year": 2021, "years_since_edit": 5, "label": "3.5–5.5 yr", "color": "#5cb86a" }, "geometry": { "type": "Point", "coordinates": [ 3.8735835, 43.6161721 ] } },
{ "type": "Feature", "properties": { "index": "194", "last_edit_year": 2025, "years_since_edit": 1, "label": "0.5–1.5 yr", "color": "#ceeba3" }, "geometry": { "type": "Point", "coordinates": [ 3.8736884, 43.6195005 ] } },
{ "type": "Feature", "properties": { "index": "195", "last_edit_year": 2016, "years_since_edit": 10, "label": "8.5–12.0 yr", "color": "#006837" }, "geometry": { "type": "Point", "coordinates": [ 3.8798752, 43.6054642 ] } },
{ "type": "Feature", "properties": { "index": "196", "last_edit_year": 2014, "years_since_edit": 12, "label": "8.5–12.0 yr", "color": "#006837" }, "geometry": { "type": "Point", "coordinates": [ 3.8989028, 43.6049592 ] } },
{ "type": "Feature", "properties": { "index": "197", "last_edit_year": 2018, "years_since_edit": 8, "label": "5.5–8.5 yr", "color": "#27974e" }, "geometry": { "type": "Point", "coordinates": [ 3.8864744, 43.6128043 ] } },
{ "type": "Feature", "properties": { "index": "198", "last_edit_year": 2026, "years_since_edit": 0, "label": "0.0–0.5 yr", "color": "#ffc" }, "geometry": { "type": "Point", "coordinates": [ 3.8840466, 43.6146254 ] } },
{ "type": "Feature", "properties": { "index": "199", "last_edit_year": 2014, "years_since_edit": 12, "label": "8.5–12.0 yr", "color": "#006837" }, "geometry": { "type": "Point", "coordinates": [ 3.8774746, 43.6080101 ] } },
{ "type": "Feature", "properties": { "index": "200", "last_edit_year": 2014, "years_since_edit": 12, "label": "8.5–12.0 yr", "color": "#006837" }, "geometry": { "type": "Point", "coordinates": [ 3.8721597, 43.6126432 ] } },
{ "type": "Feature", "properties": { "index": "201", "last_edit_year": 2023, "years_since_edit": 3, "label": "1.5–3.5 yr", "color": "#96d386" }, "geometry": { "type": "Point", "coordinates": [ 3.8727009, 43.6234328 ] } },
{ "type": "Feature", "properties": { "index": "202", "last_edit_year": 2016, "years_since_edit": 10, "label": "8.5–12.0 yr", "color": "#006837" }, "geometry": { "type": "Point", "coordinates": [ 3.8795297, 43.6104386 ] } },
{ "type": "Feature", "properties": { "index": "203", "last_edit_year": 2016, "years_since_edit": 10, "label": "8.5–12.0 yr", "color": "#006837" }, "geometry": { "type": "Point", "coordinates": [ 3.8814846, 43.616178 ] } },
{ "type": "Feature", "properties": { "index": "204", "last_edit_year": 2016, "years_since_edit": 10, "label": "8.5–12.0 yr", "color": "#006837" }, "geometry": { "type": "Point", "coordinates": [ 3.8744047, 43.6104716 ] } },
{ "type": "Feature", "properties": { "index": "205", "last_edit_year": 2024, "years_since_edit": 2, "label": "1.5–3.5 yr", "color": "#96d386" }, "geometry": { "type": "Point", "coordinates": [ 3.8761732, 43.6113415 ] } },
{ "type": "Feature", "properties": { "index": "206", "last_edit_year": 2016, "years_since_edit": 10, "label": "8.5–12.0 yr", "color": "#006837" }, "geometry": { "type": "Point", "coordinates": [ 3.8774628, 43.6114052 ] } },
{ "type": "Feature", "properties": { "index": "207", "last_edit_year": 2016, "years_since_edit": 10, "label": "8.5–12.0 yr", "color": "#006837" }, "geometry": { "type": "Point", "coordinates": [ 3.8774928, 43.6145796 ] } },
{ "type": "Feature", "properties": { "index": "208", "last_edit_year": 2016, "years_since_edit": 10, "label": "8.5–12.0 yr", "color": "#006837" }, "geometry": { "type": "Point", "coordinates": [ 3.8781211, 43.613388 ] } },
{ "type": "Feature", "properties": { "index": "209", "last_edit_year": 2016, "years_since_edit": 10, "label": "8.5–12.0 yr", "color": "#006837" }, "geometry": { "type": "Point", "coordinates": [ 3.8788888, 43.6132312 ] } },
{ "type": "Feature", "properties": { "index": "210", "last_edit_year": 2019, "years_since_edit": 7, "label": "5.5–8.5 yr", "color": "#27974e" }, "geometry": { "type": "Point", "coordinates": [ 3.8815954, 43.6133301 ] } },
{ "type": "Feature", "properties": { "index": "211", "last_edit_year": 2016, "years_since_edit": 10, "label": "8.5–12.0 yr", "color": "#006837" }, "geometry": { "type": "Point", "coordinates": [ 3.8816468, 43.6135188 ] } },
{ "type": "Feature", "properties": { "index": "212", "last_edit_year": 2016, "years_since_edit": 10, "label": "8.5–12.0 yr", "color": "#006837" }, "geometry": { "type": "Point", "coordinates": [ 3.8816511, 43.6135563 ] } },
{ "type": "Feature", "properties": { "index": "213", "last_edit_year": 2016, "years_since_edit": 10, "label": "8.5–12.0 yr", "color": "#006837" }, "geometry": { "type": "Point", "coordinates": [ 3.8816628, 43.6136112 ] } },
{ "type": "Feature", "properties": { "index": "214", "last_edit_year": 2016, "years_since_edit": 10, "label": "8.5–12.0 yr", "color": "#006837" }, "geometry": { "type": "Point", "coordinates": [ 3.8816712, 43.6136476 ] } },
{ "type": "Feature", "properties": { "index": "215", "last_edit_year": 2016, "years_since_edit": 10, "label": "8.5–12.0 yr", "color": "#006837" }, "geometry": { "type": "Point", "coordinates": [ 3.8816836, 43.6137048 ] } },
{ "type": "Feature", "properties": { "index": "216", "last_edit_year": 2016, "years_since_edit": 10, "label": "8.5–12.0 yr", "color": "#006837" }, "geometry": { "type": "Point", "coordinates": [ 3.8816916, 43.6137402 ] } },
{ "type": "Feature", "properties": { "index": "217", "last_edit_year": 2016, "years_since_edit": 10, "label": "8.5–12.0 yr", "color": "#006837" }, "geometry": { "type": "Point", "coordinates": [ 3.8825497, 43.6148433 ] } },
{ "type": "Feature", "properties": { "index": "218", "last_edit_year": 2022, "years_since_edit": 4, "label": "3.5–5.5 yr", "color": "#5cb86a" }, "geometry": { "type": "Point", "coordinates": [ 3.8795, 43.6084697 ] } },
{ "type": "Feature", "properties": { "index": "219", "last_edit_year": 2016, "years_since_edit": 10, "label": "8.5–12.0 yr", "color": "#006837" }, "geometry": { "type": "Point", "coordinates": [ 3.8771257, 43.6092815 ] } },
{ "type": "Feature", "properties": { "index": "220", "last_edit_year": 2016, "years_since_edit": 10, "label": "8.5–12.0 yr", "color": "#006837" }, "geometry": { "type": "Point", "coordinates": [ 3.885745, 43.6077428 ] } },
{ "type": "Feature", "properties": { "index": "221", "last_edit_year": 2016, "years_since_edit": 10, "label": "8.5–12.0 yr", "color": "#006837" }, "geometry": { "type": "Point", "coordinates": [ 3.8907068, 43.6101721 ] } },
{ "type": "Feature", "properties": { "index": "222", "last_edit_year": 2016, "years_since_edit": 10, "label": "8.5–12.0 yr", "color": "#006837" }, "geometry": { "type": "Point", "coordinates": [ 3.8952661, 43.609183 ] } },
{ "type": "Feature", "properties": { "index": "223", "last_edit_year": 2016, "years_since_edit": 10, "label": "8.5–12.0 yr", "color": "#006837" }, "geometry": { "type": "Point", "coordinates": [ 3.8952177, 43.6093456 ] } },
{ "type": "Feature", "properties": { "index": "224", "last_edit_year": 2016, "years_since_edit": 10, "label": "8.5–12.0 yr", "color": "#006837" }, "geometry": { "type": "Point", "coordinates": [ 3.8914678, 43.6055899 ] } },
{ "type": "Feature", "properties": { "index": "225", "last_edit_year": 2016, "years_since_edit": 10, "label": "8.5–12.0 yr", "color": "#006837" }, "geometry": { "type": "Point", "coordinates": [ 3.8675719, 43.6002862 ] } },
{ "type": "Feature", "properties": { "index": "226", "last_edit_year": 2023, "years_since_edit": 3, "label": "1.5–3.5 yr", "color": "#96d386" }, "geometry": { "type": "Point", "coordinates": [ 3.893738, 43.6179774 ] } },
{ "type": "Feature", "properties": { "index": "227", "last_edit_year": 2016, "years_since_edit": 10, "label": "8.5–12.0 yr", "color": "#006837" }, "geometry": { "type": "Point", "coordinates": [ 3.8693813, 43.6196097 ] } },
{ "type": "Feature", "properties": { "index": "228", "last_edit_year": 2024, "years_since_edit": 2, "label": "1.5–3.5 yr", "color": "#96d386" }, "geometry": { "type": "Point", "coordinates": [ 3.8695594, 43.6196297 ] } },
{ "type": "Feature", "properties": { "index": "229", "last_edit_year": 2025, "years_since_edit": 1, "label": "0.5–1.5 yr", "color": "#ceeba3" }, "geometry": { "type": "Point", "coordinates": [ 3.8936898, 43.608388 ] } },
{ "type": "Feature", "properties": { "index": "230", "last_edit_year": 2024, "years_since_edit": 2, "label": "1.5–3.5 yr", "color": "#96d386" }, "geometry": { "type": "Point", "coordinates": [ 3.8792357, 43.6107381 ] } },
{ "type": "Feature", "properties": { "index": "231", "last_edit_year": 2017, "years_since_edit": 9, "label": "8.5–12.0 yr", "color": "#006837" }, "geometry": { "type": "Point", "coordinates": [ 3.8864352, 43.6108232 ] } },
{ "type": "Feature", "properties": { "index": "232", "last_edit_year": 2017, "years_since_edit": 9, "label": "8.5–12.0 yr", "color": "#006837" }, "geometry": { "type": "Point", "coordinates": [ 3.8905405, 43.6109387 ] } },
{ "type": "Feature", "properties": { "index": "233", "last_edit_year": 2018, "years_since_edit": 8, "label": "5.5–8.5 yr", "color": "#27974e" }, "geometry": { "type": "Point", "coordinates": [ 3.8698603, 43.6130596 ] } },
{ "type": "Feature", "properties": { "index": "234", "last_edit_year": 2024, "years_since_edit": 2, "label": "1.5–3.5 yr", "color": "#96d386" }, "geometry": { "type": "Point", "coordinates": [ 3.8788846, 43.6110788 ] } },
{ "type": "Feature", "properties": { "index": "235", "last_edit_year": 2018, "years_since_edit": 8, "label": "5.5–8.5 yr", "color": "#27974e" }, "geometry": { "type": "Point", "coordinates": [ 3.8785574, 43.6118726 ] } },
{ "type": "Feature", "properties": { "index": "236", "last_edit_year": 2023, "years_since_edit": 3, "label": "1.5–3.5 yr", "color": "#96d386" }, "geometry": { "type": "Point", "coordinates": [ 3.8786948, 43.6132771 ] } },
{ "type": "Feature", "properties": { "index": "237", "last_edit_year": 2019, "years_since_edit": 7, "label": "5.5–8.5 yr", "color": "#27974e" }, "geometry": { "type": "Point", "coordinates": [ 3.8733881, 43.6107429 ] } },
{ "type": "Feature", "properties": { "index": "238", "last_edit_year": 2019, "years_since_edit": 7, "label": "5.5–8.5 yr", "color": "#27974e" }, "geometry": { "type": "Point", "coordinates": [ 3.8892102, 43.6041928 ] } },
{ "type": "Feature", "properties": { "index": "239", "last_edit_year": 2019, "years_since_edit": 7, "label": "5.5–8.5 yr", "color": "#27974e" }, "geometry": { "type": "Point", "coordinates": [ 3.8686567, 43.6117667 ] } },
{ "type": "Feature", "properties": { "index": "240", "last_edit_year": 2019, "years_since_edit": 7, "label": "5.5–8.5 yr", "color": "#27974e" }, "geometry": { "type": "Point", "coordinates": [ 3.8685585, 43.611061 ] } },
{ "type": "Feature", "properties": { "index": "241", "last_edit_year": 2025, "years_since_edit": 1, "label": "0.5–1.5 yr", "color": "#ceeba3" }, "geometry": { "type": "Point", "coordinates": [ 3.873717, 43.6107038 ] } },
{ "type": "Feature", "properties": { "index": "242", "last_edit_year": 2023, "years_since_edit": 3, "label": "1.5–3.5 yr", "color": "#96d386" }, "geometry": { "type": "Point", "coordinates": [ 3.8741317, 43.6002374 ] } },
{ "type": "Feature", "properties": { "index": "243", "last_edit_year": 2023, "years_since_edit": 3, "label": "1.5–3.5 yr", "color": "#96d386" }, "geometry": { "type": "Point", "coordinates": [ 3.8763486, 43.6046765 ] } },
{ "type": "Feature", "properties": { "index": "244", "last_edit_year": 2024, "years_since_edit": 2, "label": "1.5–3.5 yr", "color": "#96d386" }, "geometry": { "type": "Point", "coordinates": [ 3.8701877, 43.6051573 ] } },
{ "type": "Feature", "properties": { "index": "245", "last_edit_year": 2025, "years_since_edit": 1, "label": "0.5–1.5 yr", "color": "#ceeba3" }, "geometry": { "type": "Point", "coordinates": [ 3.868639, 43.620201 ] } },
{ "type": "Feature", "properties": { "index": "246", "last_edit_year": 2025, "years_since_edit": 1, "label": "0.5–1.5 yr", "color": "#ceeba3" }, "geometry": { "type": "Point", "coordinates": [ 3.8774666, 43.6083111 ] } },
{ "type": "Feature", "properties": { "index": "247", "last_edit_year": 2025, "years_since_edit": 1, "label": "0.5–1.5 yr", "color": "#ceeba3" }, "geometry": { "type": "Point", "coordinates": [ 3.8814761, 43.6107255 ] } },
{ "type": "Feature", "properties": { "index": "248", "last_edit_year": 2025, "years_since_edit": 1, "label": "0.5–1.5 yr", "color": "#ceeba3" }, "geometry": { "type": "Point", "coordinates": [ 3.8766913, 43.6107418 ] } },
{ "type": "Feature", "properties": { "index": "249", "last_edit_year": 2025, "years_since_edit": 1, "label": "0.5–1.5 yr", "color": "#ceeba3" }, "geometry": { "type": "Point", "coordinates": [ 3.8766273, 43.6107632 ] } },
{ "type": "Feature", "properties": { "index": "250", "last_edit_year": 2025, "years_since_edit": 1, "label": "0.5–1.5 yr", "color": "#ceeba3" }, "geometry": { "type": "Point", "coordinates": [ 3.8765053, 43.6107978 ] } },
{ "type": "Feature", "properties": { "index": "251", "last_edit_year": 2025, "years_since_edit": 1, "label": "0.5–1.5 yr", "color": "#ceeba3" }, "geometry": { "type": "Point", "coordinates": [ 3.8679892, 43.622134 ] } },
{ "type": "Feature", "properties": { "index": "252", "last_edit_year": 2026, "years_since_edit": 0, "label": "0.0–0.5 yr", "color": "#ffc" }, "geometry": { "type": "Point", "coordinates": [ 3.8861193, 43.6082555 ] } },
{ "type": "Feature", "properties": { "index": "253", "last_edit_year": 2026, "years_since_edit": 0, "label": "0.0–0.5 yr", "color": "#ffc" }, "geometry": { "type": "Point", "coordinates": [ 3.8770373, 43.6119835 ] } }
]
}
