{
"type": "FeatureCollection",
"features": [
{ "type": "Feature", "properties": { "index": "0", "@osmId": "way/525630302", "name": null, "opening_hours": null, "label": "Public & community pools", "color": "#2b8cbe" }, "geometry": { "type": "Point", "coordinates": [ 39.2750483, -6.7805355 ] } },
{ "type": "Feature", "properties": { "index": "1", "@osmId": "way/179005391", "name": null, "opening_hours": null, "label": "Private & residential pools", "color": "#a6bddb" }, "geometry": { "type": "Point", "coordinates": [ 39.2869572, -6.7832164 ] } },
{ "type": "Feature", "properties": { "index": "2", "@osmId": "way/179005392", "name": null, "opening_hours": null, "label": "Private & residential pools", "color": "#a6bddb" }, "geometry": { "type": "Point", "coordinates": [ 39.2848873, -6.7841876 ] } },
{ "type": "Feature", "properties": { "index": "3", "@osmId": "way/179005393", "name": null, "opening_hours": null, "label": "Private & residential pools", "color": "#a6bddb" }, "geometry": { "type": "Point", "coordinates": [ 39.2863705, -6.7838197 ] } },
{ "type": "Feature", "properties": { "index": "4", "@osmId": "way/362909853", "name": null, "opening_hours": null, "label": "Private & residential pools", "color": "#a6bddb" }, "geometry": { "type": "Point", "coordinates": [ 39.2827582, -6.7831495 ] } },
{ "type": "Feature", "properties": { "index": "5", "@osmId": "way/362914145", "name": null, "opening_hours": null, "label": "Private & residential pools", "color": "#a6bddb" }, "geometry": { "type": "Point", "coordinates": [ 39.2819678, -6.7817911 ] } },
{ "type": "Feature", "properties": { "index": "6", "@osmId": "way/362932987", "name": null, "opening_hours": null, "label": "Private & residential pools", "color": "#a6bddb" }, "geometry": { "type": "Point", "coordinates": [ 39.2819948, -6.7853219 ] } },
{ "type": "Feature", "properties": { "index": "7", "@osmId": "way/362932988", "name": null, "opening_hours": null, "label": "Private & residential pools", "color": "#a6bddb" }, "geometry": { "type": "Point", "coordinates": [ 39.280651, -6.7857302 ] } },
{ "type": "Feature", "properties": { "index": "8", "@osmId": "way/362952552", "name": null, "opening_hours": null, "label": "Private & residential pools", "color": "#a6bddb" }, "geometry": { "type": "Point", "coordinates": [ 39.2803148, -6.7892147 ] } },
{ "type": "Feature", "properties": { "index": "9", "@osmId": "way/362952553", "name": null, "opening_hours": null, "label": "Private & residential pools", "color": "#a6bddb" }, "geometry": { "type": "Point", "coordinates": [ 39.2803429, -6.7888068 ] } },
{ "type": "Feature", "properties": { "index": "10", "@osmId": "way/362952554", "name": null, "opening_hours": null, "label": "Private & residential pools", "color": "#a6bddb" }, "geometry": { "type": "Point", "coordinates": [ 39.2808782, -6.7888129 ] } },
{ "type": "Feature", "properties": { "index": "11", "@osmId": "way/362952556", "name": null, "opening_hours": null, "label": "Private & residential pools", "color": "#a6bddb" }, "geometry": { "type": "Point", "coordinates": [ 39.2812807, -6.7884619 ] } },
{ "type": "Feature", "properties": { "index": "12", "@osmId": "way/362952578", "name": null, "opening_hours": null, "label": "Private & residential pools", "color": "#a6bddb" }, "geometry": { "type": "Point", "coordinates": [ 39.2805863, -6.7890567 ] } },
{ "type": "Feature", "properties": { "index": "13", "@osmId": "way/362953059", "name": null, "opening_hours": null, "label": "Private & residential pools", "color": "#a6bddb" }, "geometry": { "type": "Point", "coordinates": [ 39.2800627, -6.7874489 ] } },
{ "type": "Feature", "properties": { "index": "14", "@osmId": "way/362953060", "name": null, "opening_hours": null, "label": "Private & residential pools", "color": "#a6bddb" }, "geometry": { "type": "Point", "coordinates": [ 39.2805163, -6.7877512 ] } },
{ "type": "Feature", "properties": { "index": "15", "@osmId": "way/362953061", "name": null, "opening_hours": null, "label": "Private & residential pools", "color": "#a6bddb" }, "geometry": { "type": "Point", "coordinates": [ 39.2811938, -6.7858657 ] } },
{ "type": "Feature", "properties": { "index": "16", "@osmId": "way/362961044", "name": null, "opening_hours": null, "label": "Private & residential pools", "color": "#a6bddb" }, "geometry": { "type": "Point", "coordinates": [ 39.2861962, -6.7806584 ] } },
{ "type": "Feature", "properties": { "index": "17", "@osmId": "way/363089587", "name": null, "opening_hours": null, "label": "Private & residential pools", "color": "#a6bddb" }, "geometry": { "type": "Point", "coordinates": [ 39.280483, -6.7805408 ] } },
{ "type": "Feature", "properties": { "index": "18", "@osmId": "way/363144456", "name": null, "opening_hours": null, "label": "Private & residential pools", "color": "#a6bddb" }, "geometry": { "type": "Point", "coordinates": [ 39.2837544, -6.7865069 ] } },
{ "type": "Feature", "properties": { "index": "19", "@osmId": "way/363144463", "name": null, "opening_hours": null, "label": "Private & residential pools", "color": "#a6bddb" }, "geometry": { "type": "Point", "coordinates": [ 39.2829108, -6.7865085 ] } },
{ "type": "Feature", "properties": { "index": "20", "@osmId": "way/363144464", "name": null, "opening_hours": null, "label": "Private & residential pools", "color": "#a6bddb" }, "geometry": { "type": "Point", "coordinates": [ 39.2834485, -6.7871284 ] } },
{ "type": "Feature", "properties": { "index": "21", "@osmId": "way/363144466", "name": null, "opening_hours": null, "label": "Private & residential pools", "color": "#a6bddb" }, "geometry": { "type": "Point", "coordinates": [ 39.2817749, -6.78775 ] } },
{ "type": "Feature", "properties": { "index": "22", "@osmId": "way/363144467", "name": null, "opening_hours": null, "label": "Private & residential pools", "color": "#a6bddb" }, "geometry": { "type": "Point", "coordinates": [ 39.2834676, -6.7856128 ] } },
{ "type": "Feature", "properties": { "index": "23", "@osmId": "way/363144471", "name": null, "opening_hours": null, "label": "Private & residential pools", "color": "#a6bddb" }, "geometry": { "type": "Point", "coordinates": [ 39.2838196, -6.786143 ] } },
{ "type": "Feature", "properties": { "index": "24", "@osmId": "way/363220988", "name": null, "opening_hours": null, "label": "Private & residential pools", "color": "#a6bddb" }, "geometry": { "type": "Point", "coordinates": [ 39.2825941, -6.7851092 ] } },
{ "type": "Feature", "properties": { "index": "25", "@osmId": "way/524409117", "name": null, "opening_hours": null, "label": "Private & residential pools", "color": "#a6bddb" }, "geometry": { "type": "Point", "coordinates": [ 39.2730542, -6.7844663 ] } },
{ "type": "Feature", "properties": { "index": "26", "@osmId": "way/524409128", "name": null, "opening_hours": null, "label": "Private & residential pools", "color": "#a6bddb" }, "geometry": { "type": "Point", "coordinates": [ 39.2723119, -6.7821515 ] } },
{ "type": "Feature", "properties": { "index": "27", "@osmId": "way/866901848", "name": null, "opening_hours": null, "label": "Private & residential pools", "color": "#a6bddb" }, "geometry": { "type": "Point", "coordinates": [ 39.2864872, -6.7856027 ] } },
{ "type": "Feature", "properties": { "index": "28", "@osmId": "way/868583457", "name": null, "opening_hours": null, "label": "Private & residential pools", "color": "#a6bddb" }, "geometry": { "type": "Point", "coordinates": [ 39.2846842, -6.7829804 ] } },
{ "type": "Feature", "properties": { "index": "29", "@osmId": "way/868583460", "name": null, "opening_hours": null, "label": "Private & residential pools", "color": "#a6bddb" }, "geometry": { "type": "Point", "coordinates": [ 39.2847618, -6.7825587 ] } },
{ "type": "Feature", "properties": { "index": "30", "@osmId": "way/868583470", "name": null, "opening_hours": null, "label": "Private & residential pools", "color": "#a6bddb" }, "geometry": { "type": "Point", "coordinates": [ 39.2855756, -6.7834818 ] } },
{ "type": "Feature", "properties": { "index": "31", "@osmId": "way/1327734769", "name": null, "opening_hours": null, "label": "Private & residential pools", "color": "#a6bddb" }, "geometry": { "type": "Point", "coordinates": [ 39.2804964, -6.7815941 ] } },
{ "type": "Feature", "properties": { "index": "32", "@osmId": "way/1343461989", "name": null, "opening_hours": null, "label": "Private & residential pools", "color": "#a6bddb" }, "geometry": { "type": "Point", "coordinates": [ 39.2703395, -6.7802131 ] } },
{ "type": "Feature", "properties": { "index": "33", "@osmId": "way/373012307", "name": "Serena Hotel's Swimming Pool", "opening_hours": null, "label": "Private & residential pools", "color": "#a6bddb" }, "geometry": { "type": "Point", "coordinates": [ 39.2884861, -6.8100975 ] } },
{ "type": "Feature", "properties": { "index": "34", "@osmId": "way/622462014", "name": null, "opening_hours": null, "label": "Private & residential pools", "color": "#a6bddb" }, "geometry": { "type": "Point", "coordinates": [ 39.2907063, -6.8090366 ] } },
{ "type": "Feature", "properties": { "index": "35", "@osmId": "way/869060787", "name": null, "opening_hours": null, "label": "Private & residential pools", "color": "#a6bddb" }, "geometry": { "type": "Point", "coordinates": [ 39.2778786, -6.8289066 ] } },
{ "type": "Feature", "properties": { "index": "36", "@osmId": "way/277374441", "name": null, "opening_hours": null, "label": "Private & residential pools", "color": "#a6bddb" }, "geometry": { "type": "Point", "coordinates": [ 39.2838003, -6.7974684 ] } },
{ "type": "Feature", "properties": { "index": "37", "@osmId": "way/364364413", "name": null, "opening_hours": null, "label": "Private & residential pools", "color": "#a6bddb" }, "geometry": { "type": "Point", "coordinates": [ 39.2815352, -6.8060372 ] } },
{ "type": "Feature", "properties": { "index": "38", "@osmId": "way/365704704", "name": null, "opening_hours": null, "label": "Private & residential pools", "color": "#a6bddb" }, "geometry": { "type": "Point", "coordinates": [ 39.2761844, -6.792665 ] } },
{ "type": "Feature", "properties": { "index": "39", "@osmId": "way/365713166", "name": null, "opening_hours": null, "label": "Private & residential pools", "color": "#a6bddb" }, "geometry": { "type": "Point", "coordinates": [ 39.2761143, -6.7925844 ] } },
{ "type": "Feature", "properties": { "index": "40", "@osmId": "way/367420068", "name": null, "opening_hours": null, "label": "Private & residential pools", "color": "#a6bddb" }, "geometry": { "type": "Point", "coordinates": [ 39.2754063, -6.7915201 ] } },
{ "type": "Feature", "properties": { "index": "41", "@osmId": "way/367420069", "name": null, "opening_hours": null, "label": "Private & residential pools", "color": "#a6bddb" }, "geometry": { "type": "Point", "coordinates": [ 39.2751519, -6.7922866 ] } },
{ "type": "Feature", "properties": { "index": "42", "@osmId": "way/367421582", "name": null, "opening_hours": null, "label": "Private & residential pools", "color": "#a6bddb" }, "geometry": { "type": "Point", "coordinates": [ 39.2751517, -6.7911088 ] } },
{ "type": "Feature", "properties": { "index": "43", "@osmId": "way/368936166", "name": null, "opening_hours": null, "label": "Private & residential pools", "color": "#a6bddb" }, "geometry": { "type": "Point", "coordinates": [ 39.2854504, -6.8013813 ] } },
{ "type": "Feature", "properties": { "index": "44", "@osmId": "way/524394028", "name": null, "opening_hours": null, "label": "Private & residential pools", "color": "#a6bddb" }, "geometry": { "type": "Point", "coordinates": [ 39.2781763, -6.7913691 ] } },
{ "type": "Feature", "properties": { "index": "45", "@osmId": "way/631813793", "name": null, "opening_hours": null, "label": "Private & residential pools", "color": "#a6bddb" }, "geometry": { "type": "Point", "coordinates": [ 39.2794953, -6.8066342 ] } },
{ "type": "Feature", "properties": { "index": "46", "@osmId": "way/989354610", "name": null, "opening_hours": null, "label": "Private & residential pools", "color": "#a6bddb" }, "geometry": { "type": "Point", "coordinates": [ 39.27675, -6.7926286 ] } },
{ "type": "Feature", "properties": { "index": "47", "@osmId": "way/989354612", "name": null, "opening_hours": null, "label": "Private & residential pools", "color": "#a6bddb" }, "geometry": { "type": "Point", "coordinates": [ 39.2784799, -6.7930073 ] } },
{ "type": "Feature", "properties": { "index": "48", "@osmId": "way/1089867189", "name": null, "opening_hours": null, "label": "Private & residential pools", "color": "#a6bddb" }, "geometry": { "type": "Point", "coordinates": [ 39.2776588, -6.7990972 ] } },
{ "type": "Feature", "properties": { "index": "49", "@osmId": "way/1120615777", "name": null, "opening_hours": null, "label": "Private & residential pools", "color": "#a6bddb" }, "geometry": { "type": "Point", "coordinates": [ 39.2772589, -6.7898204 ] } },
{ "type": "Feature", "properties": { "index": "50", "@osmId": "way/1120616135", "name": null, "opening_hours": null, "label": "Private & residential pools", "color": "#a6bddb" }, "geometry": { "type": "Point", "coordinates": [ 39.2767863, -6.791895 ] } },
{ "type": "Feature", "properties": { "index": "51", "@osmId": "way/1120616226", "name": null, "opening_hours": null, "label": "Private & residential pools", "color": "#a6bddb" }, "geometry": { "type": "Point", "coordinates": [ 39.2787392, -6.7921619 ] } },
{ "type": "Feature", "properties": { "index": "52", "@osmId": "way/620609590", "name": null, "opening_hours": null, "label": "Private & residential pools", "color": "#a6bddb" }, "geometry": { "type": "Point", "coordinates": [ 39.2613613, -6.8248362 ] } },
{ "type": "Feature", "properties": { "index": "53", "@osmId": "node/3685177179", "name": null, "opening_hours": null, "label": "Private & residential pools", "color": "#a6bddb" }, "geometry": { "type": "Point", "coordinates": [ 39.2748818, -6.7870384 ] } },
{ "type": "Feature", "properties": { "index": "54", "@osmId": "way/362345827", "name": null, "opening_hours": null, "label": "Private & residential pools", "color": "#a6bddb" }, "geometry": { "type": "Point", "coordinates": [ 39.240774, -6.8081228 ] } }
]
}
