{
"type": "FeatureCollection",
"features": [
{ "type": "Feature", "properties": { "index": "0", "last_edit_year": 2015, "years_since_edit": 11, "label": "11.0–12.0 yr", "color": "#006837" }, "geometry": { "type": "Point", "coordinates": [ 39.2869572, -6.7832164 ] } },
{ "type": "Feature", "properties": { "index": "1", "last_edit_year": 2015, "years_since_edit": 11, "label": "11.0–12.0 yr", "color": "#006837" }, "geometry": { "type": "Point", "coordinates": [ 39.2884861, -6.8100975 ] } },
{ "type": "Feature", "properties": { "index": "2", "last_edit_year": 2019, "years_since_edit": 7, "label": "7.0–9.8 yr", "color": "#78c679" }, "geometry": { "type": "Point", "coordinates": [ 39.2848873, -6.7841876 ] } },
{ "type": "Feature", "properties": { "index": "3", "last_edit_year": 2018, "years_since_edit": 8, "label": "7.0–9.8 yr", "color": "#78c679" }, "geometry": { "type": "Point", "coordinates": [ 39.2907063, -6.8090366 ] } },
{ "type": "Feature", "properties": { "index": "4", "last_edit_year": 2019, "years_since_edit": 7, "label": "7.0–9.8 yr", "color": "#78c679" }, "geometry": { "type": "Point", "coordinates": [ 39.2863705, -6.7838197 ] } },
{ "type": "Feature", "properties": { "index": "5", "last_edit_year": 2019, "years_since_edit": 7, "label": "7.0–9.8 yr", "color": "#78c679" }, "geometry": { "type": "Point", "coordinates": [ 39.2827582, -6.7831495 ] } },
{ "type": "Feature", "properties": { "index": "6", "last_edit_year": 2015, "years_since_edit": 11, "label": "11.0–12.0 yr", "color": "#006837" }, "geometry": { "type": "Point", "coordinates": [ 39.2819678, -6.7817911 ] } },
{ "type": "Feature", "properties": { "index": "7", "last_edit_year": 2015, "years_since_edit": 11, "label": "11.0–12.0 yr", "color": "#006837" }, "geometry": { "type": "Point", "coordinates": [ 39.2819948, -6.7853219 ] } },
{ "type": "Feature", "properties": { "index": "8", "last_edit_year": 2015, "years_since_edit": 11, "label": "11.0–12.0 yr", "color": "#006837" }, "geometry": { "type": "Point", "coordinates": [ 39.280651, -6.7857302 ] } },
{ "type": "Feature", "properties": { "index": "9", "last_edit_year": 2015, "years_since_edit": 11, "label": "11.0–12.0 yr", "color": "#006837" }, "geometry": { "type": "Point", "coordinates": [ 39.2803148, -6.7892147 ] } },
{ "type": "Feature", "properties": { "index": "10", "last_edit_year": 2019, "years_since_edit": 7, "label": "7.0–9.8 yr", "color": "#78c679" }, "geometry": { "type": "Point", "coordinates": [ 39.2803429, -6.7888068 ] } },
{ "type": "Feature", "properties": { "index": "11", "last_edit_year": 2019, "years_since_edit": 7, "label": "7.0–9.8 yr", "color": "#78c679" }, "geometry": { "type": "Point", "coordinates": [ 39.2808782, -6.7888129 ] } },
{ "type": "Feature", "properties": { "index": "12", "last_edit_year": 2015, "years_since_edit": 11, "label": "11.0–12.0 yr", "color": "#006837" }, "geometry": { "type": "Point", "coordinates": [ 39.2812807, -6.7884619 ] } },
{ "type": "Feature", "properties": { "index": "13", "last_edit_year": 2019, "years_since_edit": 7, "label": "7.0–9.8 yr", "color": "#78c679" }, "geometry": { "type": "Point", "coordinates": [ 39.2805863, -6.7890567 ] } },
{ "type": "Feature", "properties": { "index": "14", "last_edit_year": 2015, "years_since_edit": 11, "label": "11.0–12.0 yr", "color": "#006837" }, "geometry": { "type": "Point", "coordinates": [ 39.2800627, -6.7874489 ] } },
{ "type": "Feature", "properties": { "index": "15", "last_edit_year": 2019, "years_since_edit": 7, "label": "7.0–9.8 yr", "color": "#78c679" }, "geometry": { "type": "Point", "coordinates": [ 39.2805163, -6.7877512 ] } },
{ "type": "Feature", "properties": { "index": "16", "last_edit_year": 2015, "years_since_edit": 11, "label": "11.0–12.0 yr", "color": "#006837" }, "geometry": { "type": "Point", "coordinates": [ 39.2811938, -6.7858657 ] } },
{ "type": "Feature", "properties": { "index": "17", "last_edit_year": 2015, "years_since_edit": 11, "label": "11.0–12.0 yr", "color": "#006837" }, "geometry": { "type": "Point", "coordinates": [ 39.2861962, -6.7806584 ] } },
{ "type": "Feature", "properties": { "index": "18", "last_edit_year": 2015, "years_since_edit": 11, "label": "11.0–12.0 yr", "color": "#006837" }, "geometry": { "type": "Point", "coordinates": [ 39.280483, -6.7805408 ] } },
{ "type": "Feature", "properties": { "index": "19", "last_edit_year": 2015, "years_since_edit": 11, "label": "11.0–12.0 yr", "color": "#006837" }, "geometry": { "type": "Point", "coordinates": [ 39.2837544, -6.7865069 ] } },
{ "type": "Feature", "properties": { "index": "20", "last_edit_year": 2015, "years_since_edit": 11, "label": "11.0–12.0 yr", "color": "#006837" }, "geometry": { "type": "Point", "coordinates": [ 39.2829108, -6.7865085 ] } },
{ "type": "Feature", "properties": { "index": "21", "last_edit_year": 2015, "years_since_edit": 11, "label": "11.0–12.0 yr", "color": "#006837" }, "geometry": { "type": "Point", "coordinates": [ 39.2834485, -6.7871284 ] } },
{ "type": "Feature", "properties": { "index": "22", "last_edit_year": 2015, "years_since_edit": 11, "label": "11.0–12.0 yr", "color": "#006837" }, "geometry": { "type": "Point", "coordinates": [ 39.2817749, -6.78775 ] } },
{ "type": "Feature", "properties": { "index": "23", "last_edit_year": 2015, "years_since_edit": 11, "label": "11.0–12.0 yr", "color": "#006837" }, "geometry": { "type": "Point", "coordinates": [ 39.2834676, -6.7856128 ] } },
{ "type": "Feature", "properties": { "index": "24", "last_edit_year": 2015, "years_since_edit": 11, "label": "11.0–12.0 yr", "color": "#006837" }, "geometry": { "type": "Point", "coordinates": [ 39.2838196, -6.786143 ] } },
{ "type": "Feature", "properties": { "index": "25", "last_edit_year": 2015, "years_since_edit": 11, "label": "11.0–12.0 yr", "color": "#006837" }, "geometry": { "type": "Point", "coordinates": [ 39.2825941, -6.7851092 ] } },
{ "type": "Feature", "properties": { "index": "26", "last_edit_year": 2017, "years_since_edit": 9, "label": "7.0–9.8 yr", "color": "#78c679" }, "geometry": { "type": "Point", "coordinates": [ 39.2730542, -6.7844663 ] } },
{ "type": "Feature", "properties": { "index": "27", "last_edit_year": 2018, "years_since_edit": 8, "label": "7.0–9.8 yr", "color": "#78c679" }, "geometry": { "type": "Point", "coordinates": [ 39.2723119, -6.7821515 ] } },
{ "type": "Feature", "properties": { "index": "28", "last_edit_year": 2023, "years_since_edit": 3, "label": "1.0–5.0 yr", "color": "#ffc" }, "geometry": { "type": "Point", "coordinates": [ 39.2750483, -6.7805355 ] } },
{ "type": "Feature", "properties": { "index": "29", "last_edit_year": 2020, "years_since_edit": 6, "label": "5.0–7.0 yr", "color": "#c2e699" }, "geometry": { "type": "Point", "coordinates": [ 39.2864872, -6.7856027 ] } },
{ "type": "Feature", "properties": { "index": "30", "last_edit_year": 2020, "years_since_edit": 6, "label": "5.0–7.0 yr", "color": "#c2e699" }, "geometry": { "type": "Point", "coordinates": [ 39.2846842, -6.7829804 ] } },
{ "type": "Feature", "properties": { "index": "31", "last_edit_year": 2020, "years_since_edit": 6, "label": "5.0–7.0 yr", "color": "#c2e699" }, "geometry": { "type": "Point", "coordinates": [ 39.2847618, -6.7825587 ] } },
{ "type": "Feature", "properties": { "index": "32", "last_edit_year": 2020, "years_since_edit": 6, "label": "5.0–7.0 yr", "color": "#c2e699" }, "geometry": { "type": "Point", "coordinates": [ 39.2855756, -6.7834818 ] } },
{ "type": "Feature", "properties": { "index": "33", "last_edit_year": 2024, "years_since_edit": 2, "label": "1.0–5.0 yr", "color": "#ffc" }, "geometry": { "type": "Point", "coordinates": [ 39.2804964, -6.7815941 ] } },
{ "type": "Feature", "properties": { "index": "34", "last_edit_year": 2024, "years_since_edit": 2, "label": "1.0–5.0 yr", "color": "#ffc" }, "geometry": { "type": "Point", "coordinates": [ 39.2703395, -6.7802131 ] } },
{ "type": "Feature", "properties": { "index": "35", "last_edit_year": 2024, "years_since_edit": 2, "label": "1.0–5.0 yr", "color": "#ffc" }, "geometry": { "type": "Point", "coordinates": [ 39.2778786, -6.8289066 ] } },
{ "type": "Feature", "properties": { "index": "36", "last_edit_year": 2014, "years_since_edit": 12, "label": "11.0–12.0 yr", "color": "#006837" }, "geometry": { "type": "Point", "coordinates": [ 39.2838003, -6.7974684 ] } },
{ "type": "Feature", "properties": { "index": "37", "last_edit_year": 2015, "years_since_edit": 11, "label": "11.0–12.0 yr", "color": "#006837" }, "geometry": { "type": "Point", "coordinates": [ 39.2815352, -6.8060372 ] } },
{ "type": "Feature", "properties": { "index": "38", "last_edit_year": 2018, "years_since_edit": 8, "label": "7.0–9.8 yr", "color": "#78c679" }, "geometry": { "type": "Point", "coordinates": [ 39.2761844, -6.792665 ] } },
{ "type": "Feature", "properties": { "index": "39", "last_edit_year": 2018, "years_since_edit": 8, "label": "7.0–9.8 yr", "color": "#78c679" }, "geometry": { "type": "Point", "coordinates": [ 39.2761143, -6.7925844 ] } },
{ "type": "Feature", "properties": { "index": "40", "last_edit_year": 2021, "years_since_edit": 5, "label": "5.0–7.0 yr", "color": "#c2e699" }, "geometry": { "type": "Point", "coordinates": [ 39.2754063, -6.7915201 ] } },
{ "type": "Feature", "properties": { "index": "41", "last_edit_year": 2021, "years_since_edit": 5, "label": "5.0–7.0 yr", "color": "#c2e699" }, "geometry": { "type": "Point", "coordinates": [ 39.2751519, -6.7922866 ] } },
{ "type": "Feature", "properties": { "index": "42", "last_edit_year": 2015, "years_since_edit": 11, "label": "11.0–12.0 yr", "color": "#006837" }, "geometry": { "type": "Point", "coordinates": [ 39.2751517, -6.7911088 ] } },
{ "type": "Feature", "properties": { "index": "43", "last_edit_year": 2018, "years_since_edit": 8, "label": "7.0–9.8 yr", "color": "#78c679" }, "geometry": { "type": "Point", "coordinates": [ 39.2854504, -6.8013813 ] } },
{ "type": "Feature", "properties": { "index": "44", "last_edit_year": 2017, "years_since_edit": 9, "label": "7.0–9.8 yr", "color": "#78c679" }, "geometry": { "type": "Point", "coordinates": [ 39.2781763, -6.7913691 ] } },
{ "type": "Feature", "properties": { "index": "45", "last_edit_year": 2021, "years_since_edit": 5, "label": "5.0–7.0 yr", "color": "#c2e699" }, "geometry": { "type": "Point", "coordinates": [ 39.2794953, -6.8066342 ] } },
{ "type": "Feature", "properties": { "index": "46", "last_edit_year": 2021, "years_since_edit": 5, "label": "5.0–7.0 yr", "color": "#c2e699" }, "geometry": { "type": "Point", "coordinates": [ 39.27675, -6.7926286 ] } },
{ "type": "Feature", "properties": { "index": "47", "last_edit_year": 2021, "years_since_edit": 5, "label": "5.0–7.0 yr", "color": "#c2e699" }, "geometry": { "type": "Point", "coordinates": [ 39.2784799, -6.7930073 ] } },
{ "type": "Feature", "properties": { "index": "48", "last_edit_year": 2022, "years_since_edit": 4, "label": "1.0–5.0 yr", "color": "#ffc" }, "geometry": { "type": "Point", "coordinates": [ 39.2776588, -6.7990972 ] } },
{ "type": "Feature", "properties": { "index": "49", "last_edit_year": 2022, "years_since_edit": 4, "label": "1.0–5.0 yr", "color": "#ffc" }, "geometry": { "type": "Point", "coordinates": [ 39.2772589, -6.7898204 ] } },
{ "type": "Feature", "properties": { "index": "50", "last_edit_year": 2022, "years_since_edit": 4, "label": "1.0–5.0 yr", "color": "#ffc" }, "geometry": { "type": "Point", "coordinates": [ 39.2767863, -6.791895 ] } },
{ "type": "Feature", "properties": { "index": "51", "last_edit_year": 2022, "years_since_edit": 4, "label": "1.0–5.0 yr", "color": "#ffc" }, "geometry": { "type": "Point", "coordinates": [ 39.2787392, -6.7921619 ] } },
{ "type": "Feature", "properties": { "index": "52", "last_edit_year": 2023, "years_since_edit": 3, "label": "1.0–5.0 yr", "color": "#ffc" }, "geometry": { "type": "Point", "coordinates": [ 39.2613613, -6.8248362 ] } },
{ "type": "Feature", "properties": { "index": "53", "last_edit_year": 2015, "years_since_edit": 11, "label": "11.0–12.0 yr", "color": "#006837" }, "geometry": { "type": "Point", "coordinates": [ 39.2748818, -6.7870384 ] } },
{ "type": "Feature", "properties": { "index": "54", "last_edit_year": 2025, "years_since_edit": 1, "label": "1.0–5.0 yr", "color": "#ffc" }, "geometry": { "type": "Point", "coordinates": [ 39.240774, -6.8081228 ] } }
]
}
