{
"type": "FeatureCollection",
"features": [
{ "type": "Feature", "properties": { "index": "0", "@osmId": "way/525630302", "name": null, "opening_hours": null, "label": "Public & community pools", "color": "#2b8cbe" }, "geometry": { "type": "Polygon", "coordinates": [ [ [ 39.2751021, -6.7805031 ], [ 39.2750488, -6.7804731 ], [ 39.2749946, -6.780568 ], [ 39.2750478, -6.780598 ], [ 39.2751021, -6.7805031 ] ] ] } },
{ "type": "Feature", "properties": { "index": "1", "@osmId": "way/179005391", "name": null, "opening_hours": null, "label": "Private & residential pools", "color": "#a6bddb" }, "geometry": { "type": "Polygon", "coordinates": [ [ [ 39.2869827, -6.7832758 ], [ 39.2870042, -6.7832412 ], [ 39.2869774, -6.7831693 ], [ 39.2869479, -6.7831586 ], [ 39.286915, -6.7831593 ], [ 39.2869076, -6.7831772 ], [ 39.2869183, -6.7832065 ], [ 39.2869369, -6.7832314 ], [ 39.2869371, -6.7832651 ], [ 39.2869583, -6.7832847 ], [ 39.2869827, -6.7832758 ] ] ] } },
{ "type": "Feature", "properties": { "index": "2", "@osmId": "way/179005392", "name": null, "opening_hours": null, "label": "Private & residential pools", "color": "#a6bddb" }, "geometry": { "type": "Polygon", "coordinates": [ [ [ 39.2848745, -6.7842501 ], [ 39.2849014, -6.7842341 ], [ 39.2849217, -6.7841468 ], [ 39.2848949, -6.7841308 ], [ 39.2848704, -6.7841397 ], [ 39.2848563, -6.7842261 ], [ 39.2848745, -6.7842501 ] ] ] } },
{ "type": "Feature", "properties": { "index": "3", "@osmId": "way/179005393", "name": null, "opening_hours": null, "label": "Private & residential pools", "color": "#a6bddb" }, "geometry": { "type": "Polygon", "coordinates": [ [ [ 39.2863624, -6.7837543 ], [ 39.2863198, -6.7837772 ], [ 39.2863786, -6.7838851 ], [ 39.2864211, -6.7838622 ], [ 39.2863624, -6.7837543 ] ] ] } },
{ "type": "Feature", "properties": { "index": "4", "@osmId": "way/362909853", "name": null, "opening_hours": null, "label": "Private & residential pools", "color": "#a6bddb" }, "geometry": { "type": "Polygon", "coordinates": [ [ [ 39.28277, -6.7831127 ], [ 39.2827375, -6.7831168 ], [ 39.2827464, -6.7831864 ], [ 39.2827788, -6.7831823 ], [ 39.28277, -6.7831127 ] ] ] } },
{ "type": "Feature", "properties": { "index": "5", "@osmId": "way/362914145", "name": null, "opening_hours": null, "label": "Private & residential pools", "color": "#a6bddb" }, "geometry": { "type": "Polygon", "coordinates": [ [ [ 39.2819867, -6.7817496 ], [ 39.2819454, -6.7817513 ], [ 39.2819489, -6.7818327 ], [ 39.2819902, -6.7818309 ], [ 39.2819867, -6.7817496 ] ] ] } },
{ "type": "Feature", "properties": { "index": "6", "@osmId": "way/362932987", "name": null, "opening_hours": null, "label": "Private & residential pools", "color": "#a6bddb" }, "geometry": { "type": "Polygon", "coordinates": [ [ [ 39.2819782, -6.7852564 ], [ 39.2819403, -6.7852815 ], [ 39.2820115, -6.7853875 ], [ 39.2820493, -6.7853624 ], [ 39.2819782, -6.7852564 ] ] ] } },
{ "type": "Feature", "properties": { "index": "7", "@osmId": "way/362932988", "name": null, "opening_hours": null, "label": "Private & residential pools", "color": "#a6bddb" }, "geometry": { "type": "Polygon", "coordinates": [ [ [ 39.2806998, -6.7856648 ], [ 39.2805693, -6.7857371 ], [ 39.2806022, -6.7857957 ], [ 39.2807327, -6.7857234 ], [ 39.2806998, -6.7856648 ] ] ] } },
{ "type": "Feature", "properties": { "index": "8", "@osmId": "way/362952552", "name": null, "opening_hours": null, "label": "Private & residential pools", "color": "#a6bddb" }, "geometry": { "type": "Polygon", "coordinates": [ [ [ 39.2803589, -6.7891812 ], [ 39.2803075, -6.78916 ], [ 39.2802707, -6.7892483 ], [ 39.2803221, -6.7892695 ], [ 39.2803589, -6.7891812 ] ] ] } },
{ "type": "Feature", "properties": { "index": "9", "@osmId": "way/362952553", "name": null, "opening_hours": null, "label": "Private & residential pools", "color": "#a6bddb" }, "geometry": { "type": "Polygon", "coordinates": [ [ [ 39.2804041, -6.7887899 ], [ 39.280353, -6.7887445 ], [ 39.2802817, -6.7888237 ], [ 39.2803328, -6.7888691 ], [ 39.2804041, -6.7887899 ] ] ] } },
{ "type": "Feature", "properties": { "index": "10", "@osmId": "way/362952554", "name": null, "opening_hours": null, "label": "Private & residential pools", "color": "#a6bddb" }, "geometry": { "type": "Polygon", "coordinates": [ [ [ 39.2809551, -6.7888018 ], [ 39.2808281, -6.7887539 ], [ 39.2808013, -6.788824 ], [ 39.2809283, -6.7888718 ], [ 39.2809551, -6.7888018 ] ] ] } },
{ "type": "Feature", "properties": { "index": "11", "@osmId": "way/362952556", "name": null, "opening_hours": null, "label": "Private & residential pools", "color": "#a6bddb" }, "geometry": { "type": "Polygon", "coordinates": [ [ [ 39.2812785, -6.7884027 ], [ 39.2812245, -6.7884419 ], [ 39.2812829, -6.7885211 ], [ 39.2813369, -6.7884819 ], [ 39.2812785, -6.7884027 ] ] ] } },
{ "type": "Feature", "properties": { "index": "12", "@osmId": "way/362952578", "name": null, "opening_hours": null, "label": "Private & residential pools", "color": "#a6bddb" }, "geometry": { "type": "Polygon", "coordinates": [ [ [ 39.2806943, -6.7890821 ], [ 39.2805219, -6.7889669 ], [ 39.2804783, -6.7890314 ], [ 39.2806507, -6.7891465 ], [ 39.2806943, -6.7890821 ] ] ] } },
{ "type": "Feature", "properties": { "index": "13", "@osmId": "way/362953059", "name": null, "opening_hours": null, "label": "Private & residential pools", "color": "#a6bddb" }, "geometry": { "type": "Polygon", "coordinates": [ [ [ 39.2800211, -6.787416 ], [ 39.2800047, -6.7874374 ], [ 39.2800108, -6.7874735 ], [ 39.280039, -6.7874949 ], [ 39.2800528, -6.7875097 ], [ 39.2800831, -6.787501 ], [ 39.2801164, -6.7874593 ], [ 39.2801174, -6.7874196 ], [ 39.2800882, -6.7873972 ], [ 39.2800621, -6.7873987 ], [ 39.2800385, -6.7874012 ], [ 39.2800211, -6.787416 ] ] ] } },
{ "type": "Feature", "properties": { "index": "14", "@osmId": "way/362953060", "name": null, "opening_hours": null, "label": "Private & residential pools", "color": "#a6bddb" }, "geometry": { "type": "Polygon", "coordinates": [ [ [ 39.2805013, -6.7877077 ], [ 39.2804947, -6.787724 ], [ 39.2804808, -6.7877458 ], [ 39.2804762, -6.7877581 ], [ 39.2804716, -6.7877708 ], [ 39.2804829, -6.7877845 ], [ 39.2805003, -6.7877906 ], [ 39.2805157, -6.7877952 ], [ 39.2805336, -6.7877998 ], [ 39.2805418, -6.7877947 ], [ 39.2805434, -6.7877789 ], [ 39.28055, -6.7877586 ], [ 39.2805495, -6.7877433 ], [ 39.2805526, -6.787724 ], [ 39.2805418, -6.7877092 ], [ 39.2805249, -6.7876985 ], [ 39.2805013, -6.7877077 ] ] ] } },
{ "type": "Feature", "properties": { "index": "15", "@osmId": "way/362953061", "name": null, "opening_hours": null, "label": "Private & residential pools", "color": "#a6bddb" }, "geometry": { "type": "Polygon", "coordinates": [ [ [ 39.2812134, -6.7858376 ], [ 39.2811757, -6.7858366 ], [ 39.2811742, -6.7858939 ], [ 39.2812119, -6.7858949 ], [ 39.2812134, -6.7858376 ] ] ] } },
{ "type": "Feature", "properties": { "index": "16", "@osmId": "way/362961044", "name": null, "opening_hours": null, "label": "Private & residential pools", "color": "#a6bddb" }, "geometry": { "type": "Polygon", "coordinates": [ [ [ 39.286241, -6.780604 ], [ 39.2861682, -6.7805939 ], [ 39.2861515, -6.7807128 ], [ 39.2862242, -6.780723 ], [ 39.286241, -6.780604 ] ] ] } },
{ "type": "Feature", "properties": { "index": "17", "@osmId": "way/363089587", "name": null, "opening_hours": null, "label": "Private & residential pools", "color": "#a6bddb" }, "geometry": { "type": "Polygon", "coordinates": [ [ [ 39.2804813, -6.7804962 ], [ 39.2804485, -6.7805687 ], [ 39.2804855, -6.7805854 ], [ 39.2805171, -6.7805122 ], [ 39.2804813, -6.7804962 ] ] ] } },
{ "type": "Feature", "properties": { "index": "18", "@osmId": "way/363144456", "name": null, "opening_hours": null, "label": "Private & residential pools", "color": "#a6bddb" }, "geometry": { "type": "Polygon", "coordinates": [ [ [ 39.2837563, -6.7864346 ], [ 39.2837416, -6.7864277 ], [ 39.2837321, -6.7864354 ], [ 39.2837261, -6.7864474 ], [ 39.2837295, -6.7865513 ], [ 39.2837313, -6.7865616 ], [ 39.283739, -6.7865719 ], [ 39.2837511, -6.7865796 ], [ 39.2837607, -6.7865788 ], [ 39.2837736, -6.7865719 ], [ 39.2837797, -6.7865625 ], [ 39.2837857, -6.786547 ], [ 39.2837875, -6.7865144 ], [ 39.283771, -6.7864509 ], [ 39.2837563, -6.7864346 ] ] ] } },
{ "type": "Feature", "properties": { "index": "19", "@osmId": "way/363144463", "name": null, "opening_hours": null, "label": "Private & residential pools", "color": "#a6bddb" }, "geometry": { "type": "Polygon", "coordinates": [ [ [ 39.2830078, -6.7864894 ], [ 39.2828145, -6.7864859 ], [ 39.2828138, -6.7865276 ], [ 39.2830071, -6.7865311 ], [ 39.2830078, -6.7864894 ] ] ] } },
{ "type": "Feature", "properties": { "index": "20", "@osmId": "way/363144464", "name": null, "opening_hours": null, "label": "Private & residential pools", "color": "#a6bddb" }, "geometry": { "type": "Polygon", "coordinates": [ [ [ 39.2834725, -6.7870871 ], [ 39.2834006, -6.7871325 ], [ 39.2834244, -6.7871697 ], [ 39.2834963, -6.7871243 ], [ 39.2834725, -6.7870871 ] ] ] } },
{ "type": "Feature", "properties": { "index": "21", "@osmId": "way/363144466", "name": null, "opening_hours": null, "label": "Private & residential pools", "color": "#a6bddb" }, "geometry": { "type": "Polygon", "coordinates": [ [ [ 39.2818111, -6.7877174 ], [ 39.2817612, -6.7877034 ], [ 39.2817387, -6.7877825 ], [ 39.2817885, -6.7877966 ], [ 39.2818111, -6.7877174 ] ] ] } },
{ "type": "Feature", "properties": { "index": "22", "@osmId": "way/363144467", "name": null, "opening_hours": null, "label": "Private & residential pools", "color": "#a6bddb" }, "geometry": { "type": "Polygon", "coordinates": [ [ [ 39.2834732, -6.7855632 ], [ 39.2834278, -6.7855823 ], [ 39.2834621, -6.7856624 ], [ 39.2835075, -6.7856433 ], [ 39.2834732, -6.7855632 ] ] ] } },
{ "type": "Feature", "properties": { "index": "23", "@osmId": "way/363144471", "name": null, "opening_hours": null, "label": "Private & residential pools", "color": "#a6bddb" }, "geometry": { "type": "Polygon", "coordinates": [ [ [ 39.2837776, -6.7861407 ], [ 39.2837798, -6.7861489 ], [ 39.2838528, -6.7861656 ], [ 39.2838615, -6.786163 ], [ 39.2838632, -6.7861484 ], [ 39.2838598, -6.786139 ], [ 39.2837919, -6.7861197 ], [ 39.2837776, -6.7861261 ], [ 39.2837776, -6.7861407 ] ] ] } },
{ "type": "Feature", "properties": { "index": "24", "@osmId": "way/363220988", "name": null, "opening_hours": null, "label": "Private & residential pools", "color": "#a6bddb" }, "geometry": { "type": "Polygon", "coordinates": [ [ [ 39.2826492, -6.7851094 ], [ 39.2826191, -6.7850605 ], [ 39.2825391, -6.785109 ], [ 39.2825691, -6.7851579 ], [ 39.2826492, -6.7851094 ] ] ] } },
{ "type": "Feature", "properties": { "index": "25", "@osmId": "way/524409117", "name": null, "opening_hours": null, "label": "Private & residential pools", "color": "#a6bddb" }, "geometry": { "type": "Polygon", "coordinates": [ [ [ 39.2730358, -6.7844452 ], [ 39.2730211, -6.7844614 ], [ 39.2730249, -6.7844815 ], [ 39.2730467, -6.7844898 ], [ 39.2730703, -6.7844866 ], [ 39.2730878, -6.7844765 ], [ 39.2730831, -6.7844521 ], [ 39.273062, -6.7844425 ], [ 39.2730358, -6.7844452 ] ] ] } },
{ "type": "Feature", "properties": { "index": "26", "@osmId": "way/524409128", "name": null, "opening_hours": null, "label": "Private & residential pools", "color": "#a6bddb" }, "geometry": { "type": "Polygon", "coordinates": [ [ [ 39.2723322, -6.7821501 ], [ 39.2723086, -6.7821321 ], [ 39.2722967, -6.7821332 ], [ 39.2722899, -6.7821419 ], [ 39.2722921, -6.782153 ], [ 39.2723171, -6.7821723 ], [ 39.2723291, -6.782168 ], [ 39.2723337, -6.7821593 ], [ 39.2723322, -6.7821501 ] ] ] } },
{ "type": "Feature", "properties": { "index": "27", "@osmId": "way/866901848", "name": null, "opening_hours": null, "label": "Private & residential pools", "color": "#a6bddb" }, "geometry": { "type": "Polygon", "coordinates": [ [ [ 39.2865286, -6.7855374 ], [ 39.2864496, -6.7855353 ], [ 39.2864459, -6.7856681 ], [ 39.2865249, -6.7856702 ], [ 39.2865286, -6.7855374 ] ] ] } },
{ "type": "Feature", "properties": { "index": "28", "@osmId": "way/868583457", "name": null, "opening_hours": null, "label": "Private & residential pools", "color": "#a6bddb" }, "geometry": { "type": "Polygon", "coordinates": [ [ [ 39.2846812, -6.7829075 ], [ 39.2846389, -6.7829229 ], [ 39.2846872, -6.7830534 ], [ 39.2847294, -6.783038 ], [ 39.2846812, -6.7829075 ] ] ] } },
{ "type": "Feature", "properties": { "index": "29", "@osmId": "way/868583460", "name": null, "opening_hours": null, "label": "Private & residential pools", "color": "#a6bddb" }, "geometry": { "type": "Polygon", "coordinates": [ [ [ 39.2847995, -6.7825212 ], [ 39.2847083, -6.7825582 ], [ 39.284724, -6.7825962 ], [ 39.2848152, -6.7825592 ], [ 39.2847995, -6.7825212 ] ] ] } },
{ "type": "Feature", "properties": { "index": "30", "@osmId": "way/868583470", "name": null, "opening_hours": null, "label": "Private & residential pools", "color": "#a6bddb" }, "geometry": { "type": "Polygon", "coordinates": [ [ [ 39.2855823, -6.7834248 ], [ 39.2855356, -6.7834403 ], [ 39.2855688, -6.7835388 ], [ 39.2856155, -6.7835233 ], [ 39.2855823, -6.7834248 ] ] ] } },
{ "type": "Feature", "properties": { "index": "31", "@osmId": "way/1327734769", "name": null, "opening_hours": null, "label": "Private & residential pools", "color": "#a6bddb" }, "geometry": { "type": "Polygon", "coordinates": [ [ [ 39.2805552, -6.7814922 ], [ 39.2804695, -6.7814815 ], [ 39.2804554, -6.7816516 ], [ 39.2804218, -6.781672 ], [ 39.2804251, -6.7817151 ], [ 39.2804674, -6.7817097 ], [ 39.2804706, -6.7816774 ], [ 39.2805346, -6.7816817 ], [ 39.2805552, -6.7814922 ] ] ] } },
{ "type": "Feature", "properties": { "index": "32", "@osmId": "way/1343461989", "name": null, "opening_hours": null, "label": "Private & residential pools", "color": "#a6bddb" }, "geometry": { "type": "Polygon", "coordinates": [ [ [ 39.2703192, -6.7800869 ], [ 39.2702219, -6.7801614 ], [ 39.2703598, -6.7803392 ], [ 39.2704571, -6.7802648 ], [ 39.2703192, -6.7800869 ] ] ] } },
{ "type": "Feature", "properties": { "index": "33", "@osmId": "way/373012307", "name": "Serena Hotel's Swimming Pool", "opening_hours": null, "label": "Private & residential pools", "color": "#a6bddb" }, "geometry": { "type": "Polygon", "coordinates": [ [ [ 39.2885633, -6.8100748 ], [ 39.2884825, -6.81003 ], [ 39.2884352, -6.8100012 ], [ 39.2883876, -6.8100285 ], [ 39.2883829, -6.8100547 ], [ 39.2883935, -6.8100836 ], [ 39.2884375, -6.8101125 ], [ 39.2884669, -6.8101751 ], [ 39.28854, -6.8101937 ], [ 39.2885866, -6.8101304 ], [ 39.2885633, -6.8100748 ] ] ] } },
{ "type": "Feature", "properties": { "index": "34", "@osmId": "way/622462014", "name": null, "opening_hours": null, "label": "Private & residential pools", "color": "#a6bddb" }, "geometry": { "type": "Polygon", "coordinates": [ [ [ 39.2906449, -6.8091481 ], [ 39.2907594, -6.8091522 ], [ 39.2907676, -6.8089251 ], [ 39.2906531, -6.808921 ], [ 39.2906449, -6.8091481 ] ] ] } },
{ "type": "Feature", "properties": { "index": "35", "@osmId": "way/869060787", "name": null, "opening_hours": null, "label": "Private & residential pools", "color": "#a6bddb" }, "geometry": { "type": "Polygon", "coordinates": [ [ [ 39.2778679, -6.8290145 ], [ 39.2779711, -6.8288539 ], [ 39.2778844, -6.8287975 ], [ 39.277788, -6.8289667 ], [ 39.2778679, -6.8290145 ] ] ] } },
{ "type": "Feature", "properties": { "index": "36", "@osmId": "way/277374441", "name": null, "opening_hours": null, "label": "Private & residential pools", "color": "#a6bddb" }, "geometry": { "type": "Polygon", "coordinates": [ [ [ 39.2838796, -6.7974608 ], [ 39.2837464, -6.7974101 ], [ 39.2837209, -6.797476 ], [ 39.2838542, -6.7975268 ], [ 39.2838796, -6.7974608 ] ] ] } },
{ "type": "Feature", "properties": { "index": "37", "@osmId": "way/364364413", "name": null, "opening_hours": null, "label": "Private & residential pools", "color": "#a6bddb" }, "geometry": { "type": "Polygon", "coordinates": [ [ [ 39.2815708, -6.8059193 ], [ 39.281459, -6.8059401 ], [ 39.2814995, -6.8061551 ], [ 39.2816114, -6.8061343 ], [ 39.2815708, -6.8059193 ] ] ] } },
{ "type": "Feature", "properties": { "index": "38", "@osmId": "way/365704704", "name": null, "opening_hours": null, "label": "Private & residential pools", "color": "#a6bddb" }, "geometry": { "type": "Polygon", "coordinates": [ [ [ 39.2761681, -6.7926301 ], [ 39.2761258, -6.7926696 ], [ 39.2761222, -6.7926835 ], [ 39.2761283, -6.7927005 ], [ 39.2761544, -6.7927116 ], [ 39.2761718, -6.7927387 ], [ 39.2761819, -6.7927397 ], [ 39.2761916, -6.792737 ], [ 39.2762025, -6.7927301 ], [ 39.2762054, -6.7927178 ], [ 39.2762011, -6.7926891 ], [ 39.2762046, -6.7926746 ], [ 39.2762147, -6.7926614 ], [ 39.27622, -6.7926565 ], [ 39.276222, -6.7926473 ], [ 39.2762263, -6.7926411 ], [ 39.2762322, -6.7926346 ], [ 39.2762539, -6.7926165 ], [ 39.2762352, -6.7925918 ], [ 39.2762054, -6.7926017 ], [ 39.2761681, -6.7926301 ] ] ] } },
{ "type": "Feature", "properties": { "index": "39", "@osmId": "way/365713166", "name": null, "opening_hours": null, "label": "Private & residential pools", "color": "#a6bddb" }, "geometry": { "type": "Polygon", "coordinates": [ [ [ 39.276077, -6.7925722 ], [ 39.2760689, -6.7925795 ], [ 39.276058, -6.7925915 ], [ 39.2760559, -6.7926027 ], [ 39.276058, -6.7926145 ], [ 39.2760642, -6.7926218 ], [ 39.2760734, -6.7926258 ], [ 39.2760853, -6.7926276 ], [ 39.2760948, -6.7926257 ], [ 39.2761056, -6.7926219 ], [ 39.2761449, -6.7925981 ], [ 39.2761604, -6.7925851 ], [ 39.2761663, -6.7925768 ], [ 39.2761699, -6.7925683 ], [ 39.2761731, -6.7925579 ], [ 39.2761725, -6.7925488 ], [ 39.2761675, -6.7925427 ], [ 39.2761607, -6.7925391 ], [ 39.2761543, -6.7925368 ], [ 39.2761484, -6.7925365 ], [ 39.2761395, -6.7925423 ], [ 39.2761306, -6.7925521 ], [ 39.2761104, -6.7925608 ], [ 39.2760986, -6.7925627 ], [ 39.2760871, -6.7925656 ], [ 39.276077, -6.7925722 ] ] ] } },
{ "type": "Feature", "properties": { "index": "40", "@osmId": "way/367420068", "name": null, "opening_hours": null, "label": "Private & residential pools", "color": "#a6bddb" }, "geometry": { "type": "Polygon", "coordinates": [ [ [ 39.2754412, -6.7914708 ], [ 39.275374, -6.7914704 ], [ 39.2753734, -6.7915726 ], [ 39.2754246, -6.791573 ], [ 39.2754247, -6.7915573 ], [ 39.2754407, -6.7915574 ], [ 39.2754412, -6.7914708 ] ] ] } },
{ "type": "Feature", "properties": { "index": "41", "@osmId": "way/367420069", "name": null, "opening_hours": null, "label": "Private & residential pools", "color": "#a6bddb" }, "geometry": { "type": "Polygon", "coordinates": [ [ [ 39.2751462, -6.7922582 ], [ 39.2751105, -6.792315 ], [ 39.2751444, -6.7923361 ], [ 39.2751933, -6.7922582 ], [ 39.2751593, -6.7922372 ], [ 39.2751462, -6.7922582 ] ] ] } },
{ "type": "Feature", "properties": { "index": "42", "@osmId": "way/367421582", "name": null, "opening_hours": null, "label": "Private & residential pools", "color": "#a6bddb" }, "geometry": { "type": "Polygon", "coordinates": [ [ [ 39.2751998, -6.7910687 ], [ 39.2751051, -6.7910671 ], [ 39.2751036, -6.7911488 ], [ 39.2751984, -6.7911505 ], [ 39.2751998, -6.7910687 ] ] ] } },
{ "type": "Feature", "properties": { "index": "43", "@osmId": "way/368936166", "name": null, "opening_hours": null, "label": "Private & residential pools", "color": "#a6bddb" }, "geometry": { "type": "Polygon", "coordinates": [ [ [ 39.2854315, -6.8013587 ], [ 39.2853946, -6.8013997 ], [ 39.2853954, -6.8014168 ], [ 39.2854198, -6.8014314 ], [ 39.2854302, -6.8014254 ], [ 39.2854399, -6.8014251 ], [ 39.2854589, -6.8014026 ], [ 39.2854742, -6.8013888 ], [ 39.2855007, -6.8013809 ], [ 39.2855105, -6.8013617 ], [ 39.2854996, -6.8013416 ], [ 39.2854795, -6.80134 ], [ 39.2854761, -6.8013329 ], [ 39.2854315, -6.8013587 ] ] ] } },
{ "type": "Feature", "properties": { "index": "44", "@osmId": "way/524394028", "name": null, "opening_hours": null, "label": "Private & residential pools", "color": "#a6bddb" }, "geometry": { "type": "Polygon", "coordinates": [ [ [ 39.2782024, -6.7913429 ], [ 39.2781512, -6.791342 ], [ 39.2781502, -6.7913953 ], [ 39.2782015, -6.7913963 ], [ 39.2782024, -6.7913429 ] ] ] } },
{ "type": "Feature", "properties": { "index": "45", "@osmId": "way/631813793", "name": null, "opening_hours": null, "label": "Private & residential pools", "color": "#a6bddb" }, "geometry": { "type": "Polygon", "coordinates": [ [ [ 39.279464, -6.8065279 ], [ 39.2794144, -6.8067164 ], [ 39.2795202, -6.8067439 ], [ 39.2795478, -6.8066392 ], [ 39.2795588, -6.806642 ], [ 39.2795808, -6.8065582 ], [ 39.279464, -6.8065279 ] ] ] } },
{ "type": "Feature", "properties": { "index": "46", "@osmId": "way/989354610", "name": null, "opening_hours": null, "label": "Private & residential pools", "color": "#a6bddb" }, "geometry": { "type": "Polygon", "coordinates": [ [ [ 39.2767139, -6.7926455 ], [ 39.2767425, -6.7926435 ], [ 39.2767488, -6.7926472 ], [ 39.2767531, -6.7926515 ], [ 39.2767548, -6.7926543 ], [ 39.276758, -6.7926572 ], [ 39.276762, -6.792664 ], [ 39.2767674, -6.7926694 ], [ 39.2767777, -6.7926714 ], [ 39.2767952, -6.7926722 ], [ 39.2768078, -6.7926609 ], [ 39.2768103, -6.7926518 ], [ 39.2768075, -6.7926376 ], [ 39.2768009, -6.7926273 ], [ 39.2767883, -6.7926177 ], [ 39.2767666, -6.7926174 ], [ 39.2767542, -6.7926091 ], [ 39.2767482, -6.7925989 ], [ 39.2767391, -6.7925878 ], [ 39.2767302, -6.7925847 ], [ 39.2767125, -6.7925839 ], [ 39.2766999, -6.7925898 ], [ 39.2766982, -6.7925966 ], [ 39.2766944, -6.7926143 ], [ 39.2766939, -6.7926236 ], [ 39.2766984, -6.7926327 ], [ 39.2767053, -6.7926393 ], [ 39.2767139, -6.7926455 ] ] ] } },
{ "type": "Feature", "properties": { "index": "47", "@osmId": "way/989354612", "name": null, "opening_hours": null, "label": "Private & residential pools", "color": "#a6bddb" }, "geometry": { "type": "Polygon", "coordinates": [ [ [ 39.2785432, -6.7929733 ], [ 39.2784227, -6.7929641 ], [ 39.2784166, -6.7930413 ], [ 39.2785371, -6.7930505 ], [ 39.2785432, -6.7929733 ] ] ] } },
{ "type": "Feature", "properties": { "index": "48", "@osmId": "way/1089867189", "name": null, "opening_hours": null, "label": "Private & residential pools", "color": "#a6bddb" }, "geometry": { "type": "Polygon", "coordinates": [ [ [ 39.2777775, -6.7990531 ], [ 39.2775415, -6.7990494 ], [ 39.27754, -6.7991414 ], [ 39.277776, -6.7991451 ], [ 39.2777775, -6.7990531 ] ] ] } },
{ "type": "Feature", "properties": { "index": "49", "@osmId": "way/1120615777", "name": null, "opening_hours": null, "label": "Private & residential pools", "color": "#a6bddb" }, "geometry": { "type": "Polygon", "coordinates": [ [ [ 39.2772241, -6.7897683 ], [ 39.2772154, -6.7897769 ], [ 39.2772075, -6.7897856 ], [ 39.2772075, -6.7897927 ], [ 39.277206, -6.789799 ], [ 39.2772105, -6.7898144 ], [ 39.2772165, -6.7898298 ], [ 39.2772282, -6.789847 ], [ 39.2772562, -6.789874 ], [ 39.277278, -6.7898792 ], [ 39.2772924, -6.7898736 ], [ 39.277301, -6.7898657 ], [ 39.2773056, -6.7898575 ], [ 39.2773075, -6.7898429 ], [ 39.2773082, -6.7898193 ], [ 39.2773082, -6.7898133 ], [ 39.2772965, -6.789802 ], [ 39.277281, -6.7897867 ], [ 39.2772731, -6.7897736 ], [ 39.2772622, -6.7897676 ], [ 39.2772497, -6.7897657 ], [ 39.2772301, -6.7897661 ], [ 39.2772241, -6.7897683 ] ] ] } },
{ "type": "Feature", "properties": { "index": "50", "@osmId": "way/1120616135", "name": null, "opening_hours": null, "label": "Private & residential pools", "color": "#a6bddb" }, "geometry": { "type": "Polygon", "coordinates": [ [ [ 39.2767717, -6.7918734 ], [ 39.2767215, -6.7918976 ], [ 39.2767423, -6.7919454 ], [ 39.2767661, -6.7919338 ], [ 39.2768173, -6.7919097 ], [ 39.2768503, -6.7918895 ], [ 39.2768472, -6.7918785 ], [ 39.276834, -6.7918503 ], [ 39.2768117, -6.7918518 ], [ 39.2767717, -6.7918734 ] ] ] } },
{ "type": "Feature", "properties": { "index": "51", "@osmId": "way/1120616226", "name": null, "opening_hours": null, "label": "Private & residential pools", "color": "#a6bddb" }, "geometry": { "type": "Polygon", "coordinates": [ [ [ 39.2787807, -6.7920892 ], [ 39.2787082, -6.7920904 ], [ 39.27871, -6.7922468 ], [ 39.2787575, -6.7922491 ], [ 39.2787641, -6.7921518 ], [ 39.2787688, -6.792147 ], [ 39.2787747, -6.7921388 ], [ 39.2787807, -6.7921323 ], [ 39.2787807, -6.7920892 ] ] ] } },
{ "type": "Feature", "properties": { "index": "52", "@osmId": "node/3685177179", "name": null, "opening_hours": null, "label": "Private & residential pools", "color": "#a6bddb" }, "geometry": { "type": "Point", "coordinates": [ 39.2748818, -6.7870384 ] } },
{ "type": "Feature", "properties": { "index": "53", "@osmId": "way/620609590", "name": null, "opening_hours": null, "label": "Private & residential pools", "color": "#a6bddb" }, "geometry": { "type": "Polygon", "coordinates": [ [ [ 39.2614112, -6.8247772 ], [ 39.2613674, -6.8247594 ], [ 39.2613114, -6.8248953 ], [ 39.2613551, -6.8249131 ], [ 39.2614112, -6.8247772 ] ] ] } },
{ "type": "Feature", "properties": { "index": "54", "@osmId": "way/362345827", "name": null, "opening_hours": null, "label": "Private & residential pools", "color": "#a6bddb" }, "geometry": { "type": "Polygon", "coordinates": [ [ [ 39.2407744, -6.8080933 ], [ 39.2407457, -6.8081141 ], [ 39.2407515, -6.8081221 ], [ 39.2407713, -6.808149 ], [ 39.2407737, -6.8081523 ], [ 39.2407842, -6.8081446 ], [ 39.2408024, -6.8081314 ], [ 39.2407744, -6.8080933 ] ] ] } }
]
}
