{
"type": "FeatureCollection",
"features": [
{ "type": "Feature", "properties": { "index": "0", "label": "Within 300 m on foot", "color": "#2b8cbe" }, "geometry": { "type": "MultiPolygon", "coordinates": [ [ [ [ 39.2799784, -6.830627 ], [ 39.280137, -6.830413 ], [ 39.2802739, -6.8301845 ], [ 39.2803877, -6.8299437 ], [ 39.2804773, -6.8296929 ], [ 39.2805419, -6.8294345 ], [ 39.2805808, -6.829171 ], [ 39.2805937, -6.828905 ], [ 39.2805805, -6.828639 ], [ 39.2805412, -6.8283756 ], [ 39.2804764, -6.8281173 ], [ 39.2803864, -6.8278666 ], [ 39.2802724, -6.8276259 ], [ 39.2801353, -6.8273976 ], [ 39.2799764, -6.8271838 ], [ 39.2797974, -6.8269866 ], [ 39.2795998, -6.8268078 ], [ 39.2793857, -6.8266493 ], [ 39.2791571, -6.8265125 ], [ 39.2789162, -6.8263988 ], [ 39.2786653, -6.8263092 ], [ 39.2784068, -6.8262447 ], [ 39.2781432, -6.8262057 ], [ 39.277877, -6.8261928 ], [ 39.2776109, -6.826206 ], [ 39.2773474, -6.8262453 ], [ 39.2770889, -6.8263101 ], [ 39.2768381, -6.8264 ], [ 39.2765973, -6.826514 ], [ 39.2763689, -6.826651 ], [ 39.2761549, -6.8268098 ], [ 39.2759576, -6.8269888 ], [ 39.2757788, -6.8271862 ], [ 39.2756202, -6.8274002 ], [ 39.2754833, -6.8276287 ], [ 39.2753696, -6.8278695 ], [ 39.2752799, -6.8281203 ], [ 39.2752153, -6.8283787 ], [ 39.2751764, -6.8286422 ], [ 39.2751635, -6.8289082 ], [ 39.2751767, -6.8291741 ], [ 39.2752159, -6.8294376 ], [ 39.2752808, -6.8296959 ], [ 39.2753707, -6.8299466 ], [ 39.2754848, -6.8301872 ], [ 39.2756219, -6.8304156 ], [ 39.2757808, -6.8306294 ], [ 39.2759598, -6.8308266 ], [ 39.2761573, -6.8310054 ], [ 39.2763715, -6.8311639 ], [ 39.2766001, -6.8313007 ], [ 39.276841, -6.8314144 ], [ 39.2770919, -6.831504 ], [ 39.2773504, -6.8315685 ], [ 39.277614, -6.8316075 ], [ 39.2778802, -6.8316204 ], [ 39.2781463, -6.8316072 ], [ 39.2784098, -6.8315679 ], [ 39.2786683, -6.8315031 ], [ 39.2789191, -6.8314132 ], [ 39.2791599, -6.8312992 ], [ 39.2793884, -6.8311622 ], [ 39.2796023, -6.8310034 ], [ 39.2797996, -6.8308244 ], [ 39.2799784, -6.830627 ] ] ], [ [ [ 39.2632822, -6.8267541 ], [ 39.263461, -6.8265567 ], [ 39.2636197, -6.8263427 ], [ 39.2637565, -6.8261142 ], [ 39.2638703, -6.8258734 ], [ 39.2639599, -6.8256226 ], [ 39.2640245, -6.8253642 ], [ 39.2640635, -6.8251007 ], [ 39.2640764, -6.8248347 ], [ 39.2640632, -6.8245687 ], [ 39.2640239, -6.8243053 ], [ 39.2639591, -6.824047 ], [ 39.2638692, -6.8237963 ], [ 39.2637551, -6.8235556 ], [ 39.263618, -6.8233273 ], [ 39.2634592, -6.8231135 ], [ 39.2632801, -6.8229162 ], [ 39.2630826, -6.8227375 ], [ 39.2628685, -6.822579 ], [ 39.2626399, -6.8224422 ], [ 39.262399, -6.8223284 ], [ 39.262148, -6.8222388 ], [ 39.2618895, -6.8221743 ], [ 39.261626, -6.8221353 ], [ 39.2613598, -6.8221224 ], [ 39.2610937, -6.8221356 ], [ 39.2608302, -6.8221749 ], [ 39.2605717, -6.8222397 ], [ 39.2603209, -6.8223296 ], [ 39.2600801, -6.8224436 ], [ 39.2598517, -6.8225806 ], [ 39.2596377, -6.8227393 ], [ 39.2594404, -6.8229183 ], [ 39.2592616, -6.8231157 ], [ 39.259103, -6.8233297 ], [ 39.2589661, -6.8235582 ], [ 39.2588523, -6.823799 ], [ 39.2587627, -6.8240498 ], [ 39.2586981, -6.8243082 ], [ 39.2586591, -6.8245717 ], [ 39.2586462, -6.8248377 ], [ 39.2586594, -6.8251037 ], [ 39.2586986, -6.8253671 ], [ 39.2587635, -6.8256254 ], [ 39.2588534, -6.8258761 ], [ 39.2589675, -6.8261168 ], [ 39.2591046, -6.8263451 ], [ 39.2592634, -6.8265589 ], [ 39.2594425, -6.8267562 ], [ 39.25964, -6.8269349 ], [ 39.2598541, -6.8270934 ], [ 39.2600827, -6.8272302 ], [ 39.2603236, -6.827344 ], [ 39.2605746, -6.8274336 ], [ 39.260833, -6.8274981 ], [ 39.2610966, -6.8275371 ], [ 39.2613628, -6.82755 ], [ 39.2616289, -6.8275368 ], [ 39.2618924, -6.8274975 ], [ 39.2621509, -6.8274327 ], [ 39.2624017, -6.8273428 ], [ 39.2626425, -6.8272288 ], [ 39.262871, -6.8270918 ], [ 39.2630849, -6.826933 ], [ 39.2632822, -6.8267541 ] ] ], [ [ [ 39.2426948, -6.8100408 ], [ 39.2428736, -6.8098434 ], [ 39.2430322, -6.8096294 ], [ 39.2431691, -6.8094009 ], [ 39.2432829, -6.8091601 ], [ 39.2433725, -6.8089093 ], [ 39.2434371, -6.8086509 ], [ 39.2434761, -6.8083874 ], [ 39.243489, -6.8081214 ], [ 39.2434758, -6.8078554 ], [ 39.2434366, -6.807592 ], [ 39.2433717, -6.8073337 ], [ 39.2432818, -6.807083 ], [ 39.2431678, -6.8068423 ], [ 39.2430307, -6.806614 ], [ 39.2428719, -6.8064001 ], [ 39.2426928, -6.8062029 ], [ 39.2424953, -6.8060242 ], [ 39.2422813, -6.8058656 ], [ 39.2420527, -6.8057288 ], [ 39.2418117, -6.8056151 ], [ 39.2415608, -6.8055255 ], [ 39.2413023, -6.8054609 ], [ 39.2410388, -6.8054219 ], [ 39.2407726, -6.805409 ], [ 39.2405065, -6.8054222 ], [ 39.240243, -6.8054614 ], [ 39.2399846, -6.8055263 ], [ 39.2397338, -6.8056161 ], [ 39.239493, -6.8057301 ], [ 39.2392645, -6.8058671 ], [ 39.2390506, -6.8060259 ], [ 39.2388532, -6.8062048 ], [ 39.2386744, -6.8064022 ], [ 39.2385158, -6.8066162 ], [ 39.2383789, -6.8068447 ], [ 39.2382651, -6.8070855 ], [ 39.2381755, -6.8073363 ], [ 39.2381109, -6.8075947 ], [ 39.2380719, -6.8078581 ], [ 39.238059, -6.8081241 ], [ 39.2380722, -6.8083901 ], [ 39.2381114, -6.8086536 ], [ 39.2381763, -6.8089119 ], [ 39.2382662, -6.8091626 ], [ 39.2383802, -6.8094033 ], [ 39.2385173, -6.8096316 ], [ 39.2386761, -6.8098454 ], [ 39.2388551, -6.8100427 ], [ 39.2390526, -6.8102214 ], [ 39.2392667, -6.81038 ], [ 39.2394953, -6.8105168 ], [ 39.2397363, -6.8106305 ], [ 39.2399872, -6.8107201 ], [ 39.2402457, -6.8107847 ], [ 39.2405092, -6.8108237 ], [ 39.2407754, -6.8108366 ], [ 39.2410415, -6.8108234 ], [ 39.241305, -6.8107842 ], [ 39.2415634, -6.8107193 ], [ 39.2418142, -6.8106295 ], [ 39.242055, -6.8105155 ], [ 39.2422835, -6.8103785 ], [ 39.2424974, -6.8102197 ], [ 39.2426948, -6.8100408 ] ] ], [ [ [ 39.2797585, -6.8008176 ], [ 39.2799171, -6.8006036 ], [ 39.2800539, -6.8003751 ], [ 39.2801677, -6.8001343 ], [ 39.2802573, -6.7998835 ], [ 39.2803219, -6.7996251 ], [ 39.2803608, -6.7993616 ], [ 39.2803738, -6.7990956 ], [ 39.2803605, -6.7988296 ], [ 39.2803213, -6.7985662 ], [ 39.2802564, -6.7983079 ], [ 39.2801665, -6.7980572 ], [ 39.2800524, -6.7978166 ], [ 39.2799153, -6.7975882 ], [ 39.2797565, -6.7973744 ], [ 39.2795775, -6.7971772 ], [ 39.2793799, -6.7969984 ], [ 39.2791658, -6.7968399 ], [ 39.2789372, -6.7967031 ], [ 39.2786963, -6.7965894 ], [ 39.2784454, -6.7964998 ], [ 39.2781869, -6.7964353 ], [ 39.2779234, -6.7963963 ], [ 39.2776572, -6.7963834 ], [ 39.2773911, -6.7963966 ], [ 39.2771276, -6.7964359 ], [ 39.2768692, -6.7965007 ], [ 39.2766184, -6.7965906 ], [ 39.2763776, -6.7967046 ], [ 39.2761492, -6.7968416 ], [ 39.2759353, -6.7970004 ], [ 39.2757379, -6.7971794 ], [ 39.2755591, -6.7973768 ], [ 39.2754005, -6.7975908 ], [ 39.2752637, -6.7978193 ], [ 39.2751499, -6.7980601 ], [ 39.2750603, -6.7983109 ], [ 39.2749957, -6.7985693 ], [ 39.2749568, -6.7988327 ], [ 39.2749438, -6.7990987 ], [ 39.2749571, -6.7993647 ], [ 39.2749963, -6.7996282 ], [ 39.2750612, -6.7998865 ], [ 39.2751511, -6.8001372 ], [ 39.2752651, -6.8003778 ], [ 39.2754023, -6.8006062 ], [ 39.2755611, -6.80082 ], [ 39.2757401, -6.8010172 ], [ 39.2759376, -6.801196 ], [ 39.2761517, -6.8013545 ], [ 39.2763803, -6.8014913 ], [ 39.2766213, -6.801605 ], [ 39.2768722, -6.8016946 ], [ 39.2771307, -6.8017591 ], [ 39.2773942, -6.8017981 ], [ 39.2776604, -6.801811 ], [ 39.2779265, -6.8017978 ], [ 39.27819, -6.8017585 ], [ 39.2784484, -6.8016937 ], [ 39.2786992, -6.8016038 ], [ 39.27894, -6.8014898 ], [ 39.2791685, -6.8013528 ], [ 39.2793824, -6.801194 ], [ 39.2795797, -6.801015 ], [ 39.2797585, -6.8008176 ] ] ], [ [ [ 39.2804008, -6.7949251 ], [ 39.2805796, -6.7947277 ], [ 39.2807382, -6.7945137 ], [ 39.280875, -6.7942852 ], [ 39.2809888, -6.7940444 ], [ 39.2810784, -6.7937936 ], [ 39.281143, -6.7935352 ], [ 39.2811674, -6.7933696 ], [ 39.2812481, -6.793199 ], [ 39.2813377, -6.7929482 ], [ 39.2814023, -6.7926898 ], [ 39.2814412, -6.7924263 ], [ 39.2814541, -6.7921603 ], [ 39.2814409, -6.7918943 ], [ 39.2814112, -6.7916948 ], [ 39.281596, -6.7916073 ], [ 39.2818244, -6.7914703 ], [ 39.2818265, -6.7914687 ], [ 39.2818675, -6.7914493 ], [ 39.2820959, -6.7913123 ], [ 39.2823098, -6.7911535 ], [ 39.2824745, -6.7910041 ], [ 39.2826017, -6.7909097 ], [ 39.282799, -6.7907307 ], [ 39.2828536, -6.7906705 ], [ 39.2830042, -6.7905587 ], [ 39.2832015, -6.7903797 ], [ 39.2833804, -6.7901823 ], [ 39.2835389, -6.7899683 ], [ 39.2836195, -6.7898338 ], [ 39.2837162, -6.789829 ], [ 39.2839797, -6.7897897 ], [ 39.2842381, -6.7897249 ], [ 39.2844889, -6.789635 ], [ 39.2847297, -6.789521 ], [ 39.2849581, -6.7893839 ], [ 39.285172, -6.7892252 ], [ 39.2853693, -6.7890462 ], [ 39.2855482, -6.7888488 ], [ 39.2857067, -6.7886348 ], [ 39.2858436, -6.7884063 ], [ 39.2859156, -6.7882538 ], [ 39.2859591, -6.7882646 ], [ 39.2862227, -6.7883036 ], [ 39.2864888, -6.7883165 ], [ 39.2867549, -6.7883033 ], [ 39.2870184, -6.788264 ], [ 39.2872768, -6.7881992 ], [ 39.2875276, -6.7881093 ], [ 39.2877684, -6.7879953 ], [ 39.2879968, -6.7878582 ], [ 39.2882107, -6.7876995 ], [ 39.2884081, -6.7875205 ], [ 39.2885869, -6.7873231 ], [ 39.2887454, -6.7871091 ], [ 39.2888823, -6.7868805 ], [ 39.288996, -6.7866397 ], [ 39.2890856, -6.7863889 ], [ 39.2891502, -6.7861306 ], [ 39.2891892, -6.7858671 ], [ 39.2892021, -6.7856011 ], [ 39.2891888, -6.7853351 ], [ 39.2891496, -6.7850717 ], [ 39.2891008, -6.7848774 ], [ 39.2892154, -6.7847228 ], [ 39.2893523, -6.7844942 ], [ 39.289466, -6.7842534 ], [ 39.2895556, -6.7840026 ], [ 39.2896202, -6.7837443 ], [ 39.2896592, -6.7834808 ], [ 39.2896721, -6.7832148 ], [ 39.2896588, -6.7829488 ], [ 39.2896196, -6.7826854 ], [ 39.2895547, -6.7824271 ], [ 39.2894648, -6.7821764 ], [ 39.2893507, -6.7819357 ], [ 39.2892136, -6.7817074 ], [ 39.2890548, -6.7814936 ], [ 39.2888758, -6.7812963 ], [ 39.2888398, -6.7812638 ], [ 39.2888592, -6.7811863 ], [ 39.2888981, -6.7809228 ], [ 39.2889111, -6.7806568 ], [ 39.2888978, -6.7803908 ], [ 39.2888586, -6.7801274 ], [ 39.2888268, -6.7800008 ], [ 39.2778229, -6.7800013 ], [ 39.27782, -6.7800129 ], [ 39.2777811, -6.7802764 ], [ 39.2777681, -6.7805424 ], [ 39.2777814, -6.7808084 ], [ 39.2778206, -6.7810718 ], [ 39.2778281, -6.7811018 ], [ 39.2777945, -6.7813297 ], [ 39.2777815, -6.7815957 ], [ 39.2777948, -6.7818617 ], [ 39.277834, -6.7821251 ], [ 39.2778989, -6.7823834 ], [ 39.2779888, -6.7826341 ], [ 39.2781028, -6.7828747 ], [ 39.2782399, -6.7831031 ], [ 39.2783988, -6.7833169 ], [ 39.2785778, -6.7835141 ], [ 39.2787753, -6.7836929 ], [ 39.278823, -6.7837282 ], [ 39.2787302, -6.7838124 ], [ 39.2785514, -6.7840098 ], [ 39.2783928, -6.7842238 ], [ 39.278256, -6.7844523 ], [ 39.2781422, -6.7846931 ], [ 39.2780526, -6.7849439 ], [ 39.277988, -6.7852023 ], [ 39.277949, -6.7854658 ], [ 39.2779361, -6.7857318 ], [ 39.2779377, -6.7857628 ], [ 39.2778045, -6.7859425 ], [ 39.2776676, -6.786171 ], [ 39.2775539, -6.7864118 ], [ 39.2775341, -6.7864672 ], [ 39.2774793, -6.7862492 ], [ 39.2773894, -6.7859985 ], [ 39.2772754, -6.7857578 ], [ 39.2771383, -6.7855294 ], [ 39.2769795, -6.7853156 ], [ 39.2768004, -6.7851184 ], [ 39.2766029, -6.7849396 ], [ 39.2763888, -6.7847811 ], [ 39.2761602, -6.7846443 ], [ 39.2759193, -6.7845306 ], [ 39.2757685, -6.7844768 ], [ 39.2757691, -6.7844648 ], [ 39.2757559, -6.7841988 ], [ 39.2757166, -6.7839354 ], [ 39.2756517, -6.7836771 ], [ 39.2755618, -6.7834264 ], [ 39.2754478, -6.7831857 ], [ 39.2753107, -6.7829573 ], [ 39.2751519, -6.7827435 ], [ 39.2749915, -6.7825669 ], [ 39.2750138, -6.782416 ], [ 39.2750268, -6.78215 ], [ 39.2750135, -6.781884 ], [ 39.2749743, -6.7816206 ], [ 39.2749094, -6.7813623 ], [ 39.2748195, -6.7811116 ], [ 39.2747055, -6.7808709 ], [ 39.2745684, -6.7806425 ], [ 39.2744095, -6.7804287 ], [ 39.2742305, -6.7802315 ], [ 39.274033, -6.7800527 ], [ 39.2739637, -6.7800014 ], [ 39.267635, -6.7800016 ], [ 39.2676246, -6.7802146 ], [ 39.2676379, -6.7804806 ], [ 39.2676771, -6.780744 ], [ 39.267742, -6.7810023 ], [ 39.2678319, -6.781253 ], [ 39.2679459, -6.7814937 ], [ 39.268083, -6.781722 ], [ 39.2682418, -6.7819359 ], [ 39.2684209, -6.7821331 ], [ 39.2686184, -6.7823118 ], [ 39.2688325, -6.7824704 ], [ 39.2690611, -6.7826072 ], [ 39.269302, -6.7827209 ], [ 39.2695529, -6.7828105 ], [ 39.2696903, -6.7828448 ], [ 39.2697144, -6.7829407 ], [ 39.2698043, -6.7831914 ], [ 39.2699183, -6.7834321 ], [ 39.2700554, -6.7836605 ], [ 39.2702142, -6.7838743 ], [ 39.2703746, -6.7840509 ], [ 39.2703522, -6.7842018 ], [ 39.2703393, -6.7844678 ], [ 39.2703525, -6.7847338 ], [ 39.2703918, -6.7849972 ], [ 39.2704567, -6.7852555 ], [ 39.2705466, -6.7855062 ], [ 39.2706606, -6.7857469 ], [ 39.2707977, -6.7859753 ], [ 39.2709565, -6.7861891 ], [ 39.2711356, -6.7863863 ], [ 39.2713331, -6.786565 ], [ 39.2715472, -6.7867236 ], [ 39.2717758, -6.7868604 ], [ 39.2720167, -6.7869741 ], [ 39.2721675, -6.7870279 ], [ 39.2721669, -6.7870399 ], [ 39.2721801, -6.7873059 ], [ 39.2722194, -6.7875693 ], [ 39.2722843, -6.7878276 ], [ 39.2723742, -6.7880783 ], [ 39.2724882, -6.788319 ], [ 39.2726253, -6.7885474 ], [ 39.2727841, -6.7887612 ], [ 39.2729632, -6.7889584 ], [ 39.2731607, -6.7891372 ], [ 39.273232, -6.78919 ], [ 39.2732309, -6.789191 ], [ 39.2730521, -6.7893884 ], [ 39.2728935, -6.7896024 ], [ 39.2727566, -6.7898309 ], [ 39.2726429, -6.7900717 ], [ 39.2725532, -6.7903225 ], [ 39.2724887, -6.7905809 ], [ 39.2724497, -6.7908443 ], [ 39.2724368, -6.7911103 ], [ 39.27245, -6.7913763 ], [ 39.2724892, -6.7916397 ], [ 39.2725039, -6.7916983 ], [ 39.2724888, -6.7917587 ], [ 39.2724499, -6.7920221 ], [ 39.272437, -6.7922881 ], [ 39.2724502, -6.7925541 ], [ 39.2724894, -6.7928175 ], [ 39.2725543, -6.7930758 ], [ 39.2726442, -6.7933265 ], [ 39.2727583, -6.7935672 ], [ 39.2728954, -6.7937956 ], [ 39.2730542, -6.7940094 ], [ 39.2732332, -6.7942066 ], [ 39.2734308, -6.7943854 ], [ 39.2736448, -6.7945439 ], [ 39.2738734, -6.7946807 ], [ 39.2741144, -6.7947944 ], [ 39.2743653, -6.794884 ], [ 39.2746238, -6.7949485 ], [ 39.2747532, -6.7949677 ], [ 39.274906, -6.7950591 ], [ 39.2751469, -6.7951728 ], [ 39.2753978, -6.7952624 ], [ 39.2756563, -6.7953269 ], [ 39.2759198, -6.7953659 ], [ 39.2761859, -6.7953788 ], [ 39.2764521, -6.7953656 ], [ 39.2766431, -6.7953371 ], [ 39.2767516, -6.7953424 ], [ 39.2770177, -6.7953292 ], [ 39.2770682, -6.7953216 ], [ 39.2772015, -6.7954014 ], [ 39.2774424, -6.7955151 ], [ 39.2776933, -6.7956047 ], [ 39.2779518, -6.7956692 ], [ 39.2782153, -6.7957082 ], [ 39.2784815, -6.7957211 ], [ 39.2787476, -6.7957079 ], [ 39.2790111, -6.7956686 ], [ 39.2792695, -6.7956038 ], [ 39.2795203, -6.7955139 ], [ 39.2797611, -6.7953999 ], [ 39.2799895, -6.7952629 ], [ 39.2802034, -6.7951041 ], [ 39.2804008, -6.7949251 ] ] ], [ [ [ 39.2794969, -6.809348 ], [ 39.279763, -6.8093348 ], [ 39.2800265, -6.8092955 ], [ 39.2802849, -6.8092307 ], [ 39.2805357, -6.8091408 ], [ 39.2807765, -6.8090268 ], [ 39.281005, -6.8088898 ], [ 39.2812189, -6.808731 ], [ 39.2812194, -6.8087305 ], [ 39.2812707, -6.8087381 ], [ 39.2815368, -6.808751 ], [ 39.2818029, -6.8087378 ], [ 39.2820664, -6.8086985 ], [ 39.2823248, -6.8086337 ], [ 39.2825757, -6.8085438 ], [ 39.2828164, -6.8084298 ], [ 39.2830449, -6.8082927 ], [ 39.2832588, -6.808134 ], [ 39.2834561, -6.807955 ], [ 39.2836349, -6.8077576 ], [ 39.2837935, -6.8075436 ], [ 39.2839304, -6.8073151 ], [ 39.2840441, -6.8070743 ], [ 39.2841338, -6.8068234 ], [ 39.2841983, -6.8065651 ], [ 39.2842373, -6.8063016 ], [ 39.2842502, -6.8060356 ], [ 39.284237, -6.8057696 ], [ 39.2841977, -6.8055062 ], [ 39.2841328, -6.8052479 ], [ 39.2840429, -6.8049972 ], [ 39.2839289, -6.8047565 ], [ 39.2837918, -6.8045282 ], [ 39.2836329, -6.8043144 ], [ 39.2834539, -6.8041171 ], [ 39.2832563, -6.8039384 ], [ 39.2830423, -6.8037799 ], [ 39.2828136, -6.8036431 ], [ 39.2825727, -6.8035294 ], [ 39.2823218, -6.8034398 ], [ 39.2820633, -6.8033753 ], [ 39.2817997, -6.8033363 ], [ 39.2815336, -6.8033234 ], [ 39.2812675, -6.8033366 ], [ 39.281004, -6.8033759 ], [ 39.2807456, -6.8034407 ], [ 39.2804948, -6.8035306 ], [ 39.280254, -6.8036446 ], [ 39.2800255, -6.8037817 ], [ 39.2798116, -6.8039404 ], [ 39.2798111, -6.8039409 ], [ 39.2797599, -6.8039333 ], [ 39.2794937, -6.8039204 ], [ 39.2792276, -6.8039336 ], [ 39.2789641, -6.8039729 ], [ 39.2787057, -6.8040377 ], [ 39.2784549, -6.8041276 ], [ 39.2782141, -6.8042416 ], [ 39.2779856, -6.8043786 ], [ 39.2777717, -6.8045374 ], [ 39.2775744, -6.8047164 ], [ 39.2773956, -6.8049138 ], [ 39.277237, -6.8051278 ], [ 39.2771001, -6.8053563 ], [ 39.2769864, -6.8055971 ], [ 39.2768968, -6.8058479 ], [ 39.2768322, -6.8061063 ], [ 39.2767932, -6.8063698 ], [ 39.2767803, -6.8066358 ], [ 39.2767935, -6.8069018 ], [ 39.2768328, -6.8071652 ], [ 39.2768977, -6.8074235 ], [ 39.2769876, -6.8076742 ], [ 39.2771016, -6.8079148 ], [ 39.2772387, -6.8081432 ], [ 39.2773976, -6.808357 ], [ 39.2775766, -6.8085542 ], [ 39.2777741, -6.808733 ], [ 39.2779882, -6.8088915 ], [ 39.2782168, -6.8090283 ], [ 39.2784578, -6.809142 ], [ 39.2787087, -6.8092316 ], [ 39.2789672, -6.8092961 ], [ 39.2792307, -6.8093351 ], [ 39.2794969, -6.809348 ] ] ], [ [ [ 39.2890174, -6.8127588 ], [ 39.2892758, -6.812694 ], [ 39.2895266, -6.8126041 ], [ 39.2897674, -6.8124901 ], [ 39.2899958, -6.812353 ], [ 39.2902098, -6.8121942 ], [ 39.2904071, -6.8120153 ], [ 39.2905859, -6.8118178 ], [ 39.2906384, -6.811747 ], [ 39.2907079, -6.8117504 ], [ 39.290974, -6.8117371 ], [ 39.2912376, -6.8116979 ], [ 39.291496, -6.811633 ], [ 39.2917468, -6.8115432 ], [ 39.2919876, -6.8114292 ], [ 39.292216, -6.8112921 ], [ 39.29243, -6.8111333 ], [ 39.2926273, -6.8109544 ], [ 39.2928061, -6.8107569 ], [ 39.2929647, -6.8105429 ], [ 39.2931015, -6.8103144 ], [ 39.2932153, -6.8100736 ], [ 39.2933049, -6.8098228 ], [ 39.2933695, -6.8095644 ], [ 39.2934084, -6.809301 ], [ 39.2934213, -6.809035 ], [ 39.2934081, -6.808769 ], [ 39.2933688, -6.8085056 ], [ 39.2933039, -6.8082473 ], [ 39.293214, -6.8079966 ], [ 39.2931, -6.8077559 ], [ 39.2929628, -6.8075275 ], [ 39.292804, -6.8073137 ], [ 39.2926249, -6.8071165 ], [ 39.2924274, -6.8069378 ], [ 39.2922133, -6.8067793 ], [ 39.2919847, -6.8066425 ], [ 39.2917438, -6.8065288 ], [ 39.2914929, -6.8064392 ], [ 39.2912344, -6.8063746 ], [ 39.2909708, -6.8063357 ], [ 39.2907047, -6.8063228 ], [ 39.2904386, -6.8063361 ], [ 39.290175, -6.8063753 ], [ 39.2899166, -6.8064402 ], [ 39.2896658, -6.80653 ], [ 39.289425, -6.806644 ], [ 39.2891966, -6.8067811 ], [ 39.2889827, -6.8069399 ], [ 39.2887853, -6.8071188 ], [ 39.2886065, -6.8073163 ], [ 39.288554, -6.8073871 ], [ 39.2884845, -6.8073837 ], [ 39.2882184, -6.8073969 ], [ 39.2879548, -6.8074362 ], [ 39.2876964, -6.807501 ], [ 39.2874456, -6.8075909 ], [ 39.2872048, -6.8077049 ], [ 39.2869764, -6.807842 ], [ 39.2867625, -6.8080007 ], [ 39.2865652, -6.8081797 ], [ 39.2863863, -6.8083771 ], [ 39.2862278, -6.8085911 ], [ 39.2860909, -6.8088197 ], [ 39.2859771, -6.8090605 ], [ 39.2858875, -6.8093113 ], [ 39.2858229, -6.8095697 ], [ 39.285784, -6.8098331 ], [ 39.2857711, -6.8100991 ], [ 39.2857843, -6.8103651 ], [ 39.2858236, -6.8106285 ], [ 39.2858885, -6.8108868 ], [ 39.2859784, -6.8111375 ], [ 39.2860924, -6.8113782 ], [ 39.2862295, -6.8116065 ], [ 39.2863884, -6.8118203 ], [ 39.2865674, -6.8120176 ], [ 39.286765, -6.8121963 ], [ 39.2869791, -6.8123548 ], [ 39.2872077, -6.8124916 ], [ 39.2874486, -6.8126053 ], [ 39.2876995, -6.8126949 ], [ 39.287958, -6.8127594 ], [ 39.2882216, -6.8127984 ], [ 39.2884877, -6.8128113 ], [ 39.2887538, -6.812798 ], [ 39.2890174, -6.8127588 ] ] ], [ [ [ 39.2873713, -6.8032991 ], [ 39.2875501, -6.8031017 ], [ 39.2877087, -6.8028877 ], [ 39.2878456, -6.8026591 ], [ 39.2879593, -6.8024183 ], [ 39.2880489, -6.8021675 ], [ 39.2881135, -6.8019092 ], [ 39.2881525, -6.8016457 ], [ 39.2881654, -6.8013797 ], [ 39.2881521, -6.8011137 ], [ 39.2881129, -6.8008503 ], [ 39.288048, -6.800592 ], [ 39.2879581, -6.8003413 ], [ 39.287844, -6.8001006 ], [ 39.2877069, -6.7998723 ], [ 39.2875481, -6.7996585 ], [ 39.287369, -6.7994612 ], [ 39.2871715, -6.7992825 ], [ 39.2869574, -6.799124 ], [ 39.2867288, -6.7989872 ], [ 39.2864879, -6.7988735 ], [ 39.286237, -6.7987839 ], [ 39.2861812, -6.79877 ], [ 39.2861954, -6.7987463 ], [ 39.2863092, -6.7985054 ], [ 39.2863988, -6.7982546 ], [ 39.2864634, -6.7979963 ], [ 39.2865023, -6.7977328 ], [ 39.2865152, -6.7974668 ], [ 39.286502, -6.7972008 ], [ 39.2864628, -6.7969374 ], [ 39.2863979, -6.7966791 ], [ 39.286308, -6.7964284 ], [ 39.2861939, -6.7961877 ], [ 39.2860568, -6.7959594 ], [ 39.285898, -6.7957456 ], [ 39.2857189, -6.7955483 ], [ 39.2855214, -6.7953696 ], [ 39.2853073, -6.7952111 ], [ 39.2850787, -6.7950743 ], [ 39.2848378, -6.7949606 ], [ 39.2845869, -6.794871 ], [ 39.2843284, -6.7948065 ], [ 39.2840648, -6.7947675 ], [ 39.2837987, -6.7947546 ], [ 39.2835326, -6.7947678 ], [ 39.2832691, -6.7948071 ], [ 39.2830107, -6.7948719 ], [ 39.2827599, -6.7949618 ], [ 39.2825191, -6.7950758 ], [ 39.2822906, -6.7952129 ], [ 39.2820767, -6.7953716 ], [ 39.2818794, -6.7955506 ], [ 39.2817006, -6.795748 ], [ 39.281542, -6.795962 ], [ 39.2814052, -6.7961905 ], [ 39.2812914, -6.7964313 ], [ 39.2812018, -6.7966821 ], [ 39.2811372, -6.7969405 ], [ 39.2810983, -6.797204 ], [ 39.2810854, -6.79747 ], [ 39.2810986, -6.797736 ], [ 39.2811378, -6.7979994 ], [ 39.2812027, -6.7982577 ], [ 39.2812926, -6.7985084 ], [ 39.2814067, -6.7987491 ], [ 39.2815438, -6.7989774 ], [ 39.2817026, -6.7991912 ], [ 39.2818817, -6.7993885 ], [ 39.2820792, -6.7995672 ], [ 39.2822933, -6.7997257 ], [ 39.2825219, -6.7998625 ], [ 39.2827628, -6.7999762 ], [ 39.2830137, -6.8000658 ], [ 39.2830695, -6.8000797 ], [ 39.2830553, -6.8001034 ], [ 39.2829415, -6.8003443 ], [ 39.2828519, -6.8005951 ], [ 39.2827873, -6.8008534 ], [ 39.2827483, -6.8011169 ], [ 39.2827354, -6.8013829 ], [ 39.2827487, -6.8016489 ], [ 39.2827879, -6.8019123 ], [ 39.2828528, -6.8021706 ], [ 39.2829427, -6.8024213 ], [ 39.2830568, -6.802662 ], [ 39.2831939, -6.8028903 ], [ 39.2833527, -6.8031041 ], [ 39.2835318, -6.8033014 ], [ 39.2837293, -6.8034801 ], [ 39.2839434, -6.8036386 ], [ 39.284172, -6.8037754 ], [ 39.2844129, -6.8038891 ], [ 39.2846638, -6.8039787 ], [ 39.2849223, -6.8040432 ], [ 39.2851859, -6.8040822 ], [ 39.285452, -6.8040951 ], [ 39.2857181, -6.8040819 ], [ 39.2859816, -6.8040426 ], [ 39.2862401, -6.8039778 ], [ 39.2864909, -6.8038879 ], [ 39.2867316, -6.8037739 ], [ 39.2869601, -6.8036368 ], [ 39.287174, -6.8034781 ], [ 39.2873713, -6.8032991 ] ] ] ] } },
{ "type": "Feature", "properties": { "index": "1", "label": "Beyond 300 m", "color": "#d9d9d9" }, "geometry": { "type": "Polygon", "coordinates": [ [ [ 39.3, -6.85 ], [ 39.3, -6.78 ], [ 39.2822396, -6.7800011 ], [ 39.2888268, -6.7800008 ], [ 39.2888586, -6.7801274 ], [ 39.2888978, -6.7803908 ], [ 39.2889111, -6.7806568 ], [ 39.2888981, -6.7809228 ], [ 39.2888592, -6.7811863 ], [ 39.2888398, -6.7812638 ], [ 39.2888758, -6.7812963 ], [ 39.2890548, -6.7814936 ], [ 39.2892136, -6.7817074 ], [ 39.2893507, -6.7819357 ], [ 39.2894648, -6.7821764 ], [ 39.2895547, -6.7824271 ], [ 39.2896196, -6.7826854 ], [ 39.2896588, -6.7829488 ], [ 39.2896721, -6.7832148 ], [ 39.2896592, -6.7834808 ], [ 39.2896202, -6.7837443 ], [ 39.2895556, -6.7840026 ], [ 39.289466, -6.7842534 ], [ 39.2893523, -6.7844942 ], [ 39.2892154, -6.7847228 ], [ 39.2891008, -6.7848774 ], [ 39.2891496, -6.7850717 ], [ 39.2891888, -6.7853351 ], [ 39.2892021, -6.7856011 ], [ 39.2891892, -6.7858671 ], [ 39.2891502, -6.7861306 ], [ 39.2890856, -6.7863889 ], [ 39.288996, -6.7866397 ], [ 39.2888823, -6.7868805 ], [ 39.2887454, -6.7871091 ], [ 39.2885869, -6.7873231 ], [ 39.2884081, -6.7875205 ], [ 39.2882107, -6.7876995 ], [ 39.2879968, -6.7878582 ], [ 39.2877684, -6.7879953 ], [ 39.2875276, -6.7881093 ], [ 39.2872768, -6.7881992 ], [ 39.2870184, -6.788264 ], [ 39.2867549, -6.7883033 ], [ 39.2864888, -6.7883165 ], [ 39.2862227, -6.7883036 ], [ 39.2859591, -6.7882646 ], [ 39.2859156, -6.7882538 ], [ 39.2858436, -6.7884063 ], [ 39.2857067, -6.7886348 ], [ 39.2855482, -6.7888488 ], [ 39.2853693, -6.7890462 ], [ 39.285172, -6.7892252 ], [ 39.2849581, -6.7893839 ], [ 39.2847297, -6.789521 ], [ 39.2844889, -6.789635 ], [ 39.2842381, -6.7897249 ], [ 39.2839797, -6.7897897 ], [ 39.2837162, -6.789829 ], [ 39.2836195, -6.7898338 ], [ 39.2835389, -6.7899683 ], [ 39.2833804, -6.7901823 ], [ 39.2832015, -6.7903797 ], [ 39.2830042, -6.7905587 ], [ 39.2828536, -6.7906705 ], [ 39.282799, -6.7907307 ], [ 39.2826017, -6.7909097 ], [ 39.2824745, -6.7910041 ], [ 39.2823098, -6.7911535 ], [ 39.2820959, -6.7913123 ], [ 39.2818675, -6.7914493 ], [ 39.2818265, -6.7914687 ], [ 39.2818244, -6.7914703 ], [ 39.281596, -6.7916073 ], [ 39.2814112, -6.7916948 ], [ 39.2814409, -6.7918943 ], [ 39.2814541, -6.7921603 ], [ 39.2814412, -6.7924263 ], [ 39.2814023, -6.7926898 ], [ 39.2813377, -6.7929482 ], [ 39.2812481, -6.793199 ], [ 39.2811674, -6.7933696 ], [ 39.281143, -6.7935352 ], [ 39.2810784, -6.7937936 ], [ 39.2809888, -6.7940444 ], [ 39.280875, -6.7942852 ], [ 39.2807382, -6.7945137 ], [ 39.2805796, -6.7947277 ], [ 39.2804008, -6.7949251 ], [ 39.2802034, -6.7951041 ], [ 39.2799895, -6.7952629 ], [ 39.2797611, -6.7953999 ], [ 39.2795203, -6.7955139 ], [ 39.2792695, -6.7956038 ], [ 39.2790111, -6.7956686 ], [ 39.2787476, -6.7957079 ], [ 39.2784815, -6.7957211 ], [ 39.2782153, -6.7957082 ], [ 39.2779518, -6.7956692 ], [ 39.2776933, -6.7956047 ], [ 39.2774424, -6.7955151 ], [ 39.2772015, -6.7954014 ], [ 39.2770682, -6.7953216 ], [ 39.2770177, -6.7953292 ], [ 39.2767516, -6.7953424 ], [ 39.2766431, -6.7953371 ], [ 39.2764521, -6.7953656 ], [ 39.2761859, -6.7953788 ], [ 39.2759198, -6.7953659 ], [ 39.2756563, -6.7953269 ], [ 39.2753978, -6.7952624 ], [ 39.2751469, -6.7951728 ], [ 39.274906, -6.7950591 ], [ 39.2747532, -6.7949677 ], [ 39.2746238, -6.7949485 ], [ 39.2743653, -6.794884 ], [ 39.2741144, -6.7947944 ], [ 39.2738734, -6.7946807 ], [ 39.2736448, -6.7945439 ], [ 39.2734308, -6.7943854 ], [ 39.2732332, -6.7942066 ], [ 39.2730542, -6.7940094 ], [ 39.2728954, -6.7937956 ], [ 39.2727583, -6.7935672 ], [ 39.2726442, -6.7933265 ], [ 39.2725543, -6.7930758 ], [ 39.2724894, -6.7928175 ], [ 39.2724502, -6.7925541 ], [ 39.272437, -6.7922881 ], [ 39.2724499, -6.7920221 ], [ 39.2724888, -6.7917587 ], [ 39.2725039, -6.7916983 ], [ 39.2724892, -6.7916397 ], [ 39.27245, -6.7913763 ], [ 39.2724368, -6.7911103 ], [ 39.2724497, -6.7908443 ], [ 39.2724887, -6.7905809 ], [ 39.2725532, -6.7903225 ], [ 39.2726429, -6.7900717 ], [ 39.2727566, -6.7898309 ], [ 39.2728935, -6.7896024 ], [ 39.2730521, -6.7893884 ], [ 39.2732309, -6.789191 ], [ 39.273232, -6.78919 ], [ 39.2731607, -6.7891372 ], [ 39.2729632, -6.7889584 ], [ 39.2727841, -6.7887612 ], [ 39.2726253, -6.7885474 ], [ 39.2724882, -6.788319 ], [ 39.2723742, -6.7880783 ], [ 39.2722843, -6.7878276 ], [ 39.2722194, -6.7875693 ], [ 39.2721801, -6.7873059 ], [ 39.2721669, -6.7870399 ], [ 39.2721675, -6.7870279 ], [ 39.2720167, -6.7869741 ], [ 39.2717758, -6.7868604 ], [ 39.2715472, -6.7867236 ], [ 39.2713331, -6.786565 ], [ 39.2711356, -6.7863863 ], [ 39.2709565, -6.7861891 ], [ 39.2707977, -6.7859753 ], [ 39.2706606, -6.7857469 ], [ 39.2705466, -6.7855062 ], [ 39.2704567, -6.7852555 ], [ 39.2703918, -6.7849972 ], [ 39.2703525, -6.7847338 ], [ 39.2703393, -6.7844678 ], [ 39.2703522, -6.7842018 ], [ 39.2703746, -6.7840509 ], [ 39.2702142, -6.7838743 ], [ 39.2700554, -6.7836605 ], [ 39.2699183, -6.7834321 ], [ 39.2698043, -6.7831914 ], [ 39.2697144, -6.7829407 ], [ 39.2696903, -6.7828448 ], [ 39.2695529, -6.7828105 ], [ 39.269302, -6.7827209 ], [ 39.2690611, -6.7826072 ], [ 39.2688325, -6.7824704 ], [ 39.2686184, -6.7823118 ], [ 39.2684209, -6.7821331 ], [ 39.2682418, -6.7819359 ], [ 39.268083, -6.781722 ], [ 39.2679459, -6.7814937 ], [ 39.2678319, -6.781253 ], [ 39.267742, -6.7810023 ], [ 39.2676771, -6.780744 ], [ 39.2676379, -6.7804806 ], [ 39.2676246, -6.7802146 ], [ 39.267635, -6.7800016 ], [ 39.2739637, -6.7800014 ], [ 39.274033, -6.7800527 ], [ 39.2742305, -6.7802315 ], [ 39.2744095, -6.7804287 ], [ 39.2745684, -6.7806425 ], [ 39.2747055, -6.7808709 ], [ 39.2748195, -6.7811116 ], [ 39.2749094, -6.7813623 ], [ 39.2749743, -6.7816206 ], [ 39.2750135, -6.781884 ], [ 39.2750268, -6.78215 ], [ 39.2750138, -6.782416 ], [ 39.2749915, -6.7825669 ], [ 39.2751519, -6.7827435 ], [ 39.2753107, -6.7829573 ], [ 39.2754478, -6.7831857 ], [ 39.2755618, -6.7834264 ], [ 39.2756517, -6.7836771 ], [ 39.2757166, -6.7839354 ], [ 39.2757559, -6.7841988 ], [ 39.2757691, -6.7844648 ], [ 39.2757685, -6.7844768 ], [ 39.2759193, -6.7845306 ], [ 39.2761602, -6.7846443 ], [ 39.2763888, -6.7847811 ], [ 39.2766029, -6.7849396 ], [ 39.2768004, -6.7851184 ], [ 39.2769795, -6.7853156 ], [ 39.2771383, -6.7855294 ], [ 39.2772754, -6.7857578 ], [ 39.2773894, -6.7859985 ], [ 39.2774793, -6.7862492 ], [ 39.2775341, -6.7864672 ], [ 39.2775539, -6.7864118 ], [ 39.2776676, -6.786171 ], [ 39.2778045, -6.7859425 ], [ 39.2779377, -6.7857628 ], [ 39.2779361, -6.7857318 ], [ 39.277949, -6.7854658 ], [ 39.277988, -6.7852023 ], [ 39.2780526, -6.7849439 ], [ 39.2781422, -6.7846931 ], [ 39.278256, -6.7844523 ], [ 39.2783928, -6.7842238 ], [ 39.2785514, -6.7840098 ], [ 39.2787302, -6.7838124 ], [ 39.278823, -6.7837282 ], [ 39.2787753, -6.7836929 ], [ 39.2785778, -6.7835141 ], [ 39.2783988, -6.7833169 ], [ 39.2782399, -6.7831031 ], [ 39.2781028, -6.7828747 ], [ 39.2779888, -6.7826341 ], [ 39.2778989, -6.7823834 ], [ 39.277834, -6.7821251 ], [ 39.2777948, -6.7818617 ], [ 39.2777815, -6.7815957 ], [ 39.2777945, -6.7813297 ], [ 39.2778281, -6.7811018 ], [ 39.2778206, -6.7810718 ], [ 39.2777814, -6.7808084 ], [ 39.2777681, -6.7805424 ], [ 39.2777811, -6.7802764 ], [ 39.27782, -6.7800129 ], [ 39.2778229, -6.7800013 ], [ 39.22, -6.78 ], [ 39.22, -6.85 ], [ 39.3, -6.85 ] ], [ [ 39.2803877, -6.8299437 ], [ 39.2802739, -6.8301845 ], [ 39.280137, -6.830413 ], [ 39.2799784, -6.830627 ], [ 39.2797996, -6.8308244 ], [ 39.2796023, -6.8310034 ], [ 39.2793884, -6.8311622 ], [ 39.2791599, -6.8312992 ], [ 39.2789191, -6.8314132 ], [ 39.2786683, -6.8315031 ], [ 39.2784098, -6.8315679 ], [ 39.2781463, -6.8316072 ], [ 39.2778802, -6.8316204 ], [ 39.277614, -6.8316075 ], [ 39.2773504, -6.8315685 ], [ 39.2770919, -6.831504 ], [ 39.276841, -6.8314144 ], [ 39.2766001, -6.8313007 ], [ 39.2763715, -6.8311639 ], [ 39.2761573, -6.8310054 ], [ 39.2759598, -6.8308266 ], [ 39.2757808, -6.8306294 ], [ 39.2756219, -6.8304156 ], [ 39.2754848, -6.8301872 ], [ 39.2753707, -6.8299466 ], [ 39.2752808, -6.8296959 ], [ 39.2752159, -6.8294376 ], [ 39.2751767, -6.8291741 ], [ 39.2751635, -6.8289082 ], [ 39.2751764, -6.8286422 ], [ 39.2752153, -6.8283787 ], [ 39.2752799, -6.8281203 ], [ 39.2753696, -6.8278695 ], [ 39.2754833, -6.8276287 ], [ 39.2756202, -6.8274002 ], [ 39.2757788, -6.8271862 ], [ 39.2759576, -6.8269888 ], [ 39.2761549, -6.8268098 ], [ 39.2763689, -6.826651 ], [ 39.2765973, -6.826514 ], [ 39.2768381, -6.8264 ], [ 39.2770889, -6.8263101 ], [ 39.2773474, -6.8262453 ], [ 39.2776109, -6.826206 ], [ 39.277877, -6.8261928 ], [ 39.2781432, -6.8262057 ], [ 39.2784068, -6.8262447 ], [ 39.2786653, -6.8263092 ], [ 39.2789162, -6.8263988 ], [ 39.2791571, -6.8265125 ], [ 39.2793857, -6.8266493 ], [ 39.2795998, -6.8268078 ], [ 39.2797974, -6.8269866 ], [ 39.2799764, -6.8271838 ], [ 39.2801353, -6.8273976 ], [ 39.2802724, -6.8276259 ], [ 39.2803864, -6.8278666 ], [ 39.2804764, -6.8281173 ], [ 39.2805412, -6.8283756 ], [ 39.2805805, -6.828639 ], [ 39.2805937, -6.828905 ], [ 39.2805808, -6.829171 ], [ 39.2805419, -6.8294345 ], [ 39.2804773, -6.8296929 ], [ 39.2803877, -6.8299437 ] ], [ [ 39.2637565, -6.8261142 ], [ 39.2636197, -6.8263427 ], [ 39.263461, -6.8265567 ], [ 39.2632822, -6.8267541 ], [ 39.2630849, -6.826933 ], [ 39.262871, -6.8270918 ], [ 39.2626425, -6.8272288 ], [ 39.2624017, -6.8273428 ], [ 39.2621509, -6.8274327 ], [ 39.2618924, -6.8274975 ], [ 39.2616289, -6.8275368 ], [ 39.2613628, -6.82755 ], [ 39.2610966, -6.8275371 ], [ 39.260833, -6.8274981 ], [ 39.2605746, -6.8274336 ], [ 39.2603236, -6.827344 ], [ 39.2600827, -6.8272302 ], [ 39.2598541, -6.8270934 ], [ 39.25964, -6.8269349 ], [ 39.2594425, -6.8267562 ], [ 39.2592634, -6.8265589 ], [ 39.2591046, -6.8263451 ], [ 39.2589675, -6.8261168 ], [ 39.2588534, -6.8258761 ], [ 39.2587635, -6.8256254 ], [ 39.2586986, -6.8253671 ], [ 39.2586594, -6.8251037 ], [ 39.2586462, -6.8248377 ], [ 39.2586591, -6.8245717 ], [ 39.2586981, -6.8243082 ], [ 39.2587627, -6.8240498 ], [ 39.2588523, -6.823799 ], [ 39.2589661, -6.8235582 ], [ 39.259103, -6.8233297 ], [ 39.2592616, -6.8231157 ], [ 39.2594404, -6.8229183 ], [ 39.2596377, -6.8227393 ], [ 39.2598517, -6.8225806 ], [ 39.2600801, -6.8224436 ], [ 39.2603209, -6.8223296 ], [ 39.2605717, -6.8222397 ], [ 39.2608302, -6.8221749 ], [ 39.2610937, -6.8221356 ], [ 39.2613598, -6.8221224 ], [ 39.261626, -6.8221353 ], [ 39.2618895, -6.8221743 ], [ 39.262148, -6.8222388 ], [ 39.262399, -6.8223284 ], [ 39.2626399, -6.8224422 ], [ 39.2628685, -6.822579 ], [ 39.2630826, -6.8227375 ], [ 39.2632801, -6.8229162 ], [ 39.2634592, -6.8231135 ], [ 39.263618, -6.8233273 ], [ 39.2637551, -6.8235556 ], [ 39.2638692, -6.8237963 ], [ 39.2639591, -6.824047 ], [ 39.2640239, -6.8243053 ], [ 39.2640632, -6.8245687 ], [ 39.2640764, -6.8248347 ], [ 39.2640635, -6.8251007 ], [ 39.2640245, -6.8253642 ], [ 39.2639599, -6.8256226 ], [ 39.2638703, -6.8258734 ], [ 39.2637565, -6.8261142 ] ], [ [ 39.2431691, -6.8094009 ], [ 39.2430322, -6.8096294 ], [ 39.2428736, -6.8098434 ], [ 39.2426948, -6.8100408 ], [ 39.2424974, -6.8102197 ], [ 39.2422835, -6.8103785 ], [ 39.242055, -6.8105155 ], [ 39.2418142, -6.8106295 ], [ 39.2415634, -6.8107193 ], [ 39.241305, -6.8107842 ], [ 39.2410415, -6.8108234 ], [ 39.2407754, -6.8108366 ], [ 39.2405092, -6.8108237 ], [ 39.2402457, -6.8107847 ], [ 39.2399872, -6.8107201 ], [ 39.2397363, -6.8106305 ], [ 39.2394953, -6.8105168 ], [ 39.2392667, -6.81038 ], [ 39.2390526, -6.8102214 ], [ 39.2388551, -6.8100427 ], [ 39.2386761, -6.8098454 ], [ 39.2385173, -6.8096316 ], [ 39.2383802, -6.8094033 ], [ 39.2382662, -6.8091626 ], [ 39.2381763, -6.8089119 ], [ 39.2381114, -6.8086536 ], [ 39.2380722, -6.8083901 ], [ 39.238059, -6.8081241 ], [ 39.2380719, -6.8078581 ], [ 39.2381109, -6.8075947 ], [ 39.2381755, -6.8073363 ], [ 39.2382651, -6.8070855 ], [ 39.2383789, -6.8068447 ], [ 39.2385158, -6.8066162 ], [ 39.2386744, -6.8064022 ], [ 39.2388532, -6.8062048 ], [ 39.2390506, -6.8060259 ], [ 39.2392645, -6.8058671 ], [ 39.239493, -6.8057301 ], [ 39.2397338, -6.8056161 ], [ 39.2399846, -6.8055263 ], [ 39.240243, -6.8054614 ], [ 39.2405065, -6.8054222 ], [ 39.2407726, -6.805409 ], [ 39.2410388, -6.8054219 ], [ 39.2413023, -6.8054609 ], [ 39.2415608, -6.8055255 ], [ 39.2418117, -6.8056151 ], [ 39.2420527, -6.8057288 ], [ 39.2422813, -6.8058656 ], [ 39.2424953, -6.8060242 ], [ 39.2426928, -6.8062029 ], [ 39.2428719, -6.8064001 ], [ 39.2430307, -6.806614 ], [ 39.2431678, -6.8068423 ], [ 39.2432818, -6.807083 ], [ 39.2433717, -6.8073337 ], [ 39.2434366, -6.807592 ], [ 39.2434758, -6.8078554 ], [ 39.243489, -6.8081214 ], [ 39.2434761, -6.8083874 ], [ 39.2434371, -6.8086509 ], [ 39.2433725, -6.8089093 ], [ 39.2432829, -6.8091601 ], [ 39.2431691, -6.8094009 ] ], [ [ 39.2801677, -6.8001343 ], [ 39.2800539, -6.8003751 ], [ 39.2799171, -6.8006036 ], [ 39.2797585, -6.8008176 ], [ 39.2795797, -6.801015 ], [ 39.2793824, -6.801194 ], [ 39.2791685, -6.8013528 ], [ 39.27894, -6.8014898 ], [ 39.2786992, -6.8016038 ], [ 39.2784484, -6.8016937 ], [ 39.27819, -6.8017585 ], [ 39.2779265, -6.8017978 ], [ 39.2776604, -6.801811 ], [ 39.2773942, -6.8017981 ], [ 39.2771307, -6.8017591 ], [ 39.2768722, -6.8016946 ], [ 39.2766213, -6.801605 ], [ 39.2763803, -6.8014913 ], [ 39.2761517, -6.8013545 ], [ 39.2759376, -6.801196 ], [ 39.2757401, -6.8010172 ], [ 39.2755611, -6.80082 ], [ 39.2754023, -6.8006062 ], [ 39.2752651, -6.8003778 ], [ 39.2751511, -6.8001372 ], [ 39.2750612, -6.7998865 ], [ 39.2749963, -6.7996282 ], [ 39.2749571, -6.7993647 ], [ 39.2749438, -6.7990987 ], [ 39.2749568, -6.7988327 ], [ 39.2749957, -6.7985693 ], [ 39.2750603, -6.7983109 ], [ 39.2751499, -6.7980601 ], [ 39.2752637, -6.7978193 ], [ 39.2754005, -6.7975908 ], [ 39.2755591, -6.7973768 ], [ 39.2757379, -6.7971794 ], [ 39.2759353, -6.7970004 ], [ 39.2761492, -6.7968416 ], [ 39.2763776, -6.7967046 ], [ 39.2766184, -6.7965906 ], [ 39.2768692, -6.7965007 ], [ 39.2771276, -6.7964359 ], [ 39.2773911, -6.7963966 ], [ 39.2776572, -6.7963834 ], [ 39.2779234, -6.7963963 ], [ 39.2781869, -6.7964353 ], [ 39.2784454, -6.7964998 ], [ 39.2786963, -6.7965894 ], [ 39.2789372, -6.7967031 ], [ 39.2791658, -6.7968399 ], [ 39.2793799, -6.7969984 ], [ 39.2795775, -6.7971772 ], [ 39.2797565, -6.7973744 ], [ 39.2799153, -6.7975882 ], [ 39.2800524, -6.7978166 ], [ 39.2801665, -6.7980572 ], [ 39.2802564, -6.7983079 ], [ 39.2803213, -6.7985662 ], [ 39.2803605, -6.7988296 ], [ 39.2803738, -6.7990956 ], [ 39.2803608, -6.7993616 ], [ 39.2803219, -6.7996251 ], [ 39.2802573, -6.7998835 ], [ 39.2801677, -6.8001343 ] ], [ [ 39.2802849, -6.8092307 ], [ 39.2800265, -6.8092955 ], [ 39.279763, -6.8093348 ], [ 39.2794969, -6.809348 ], [ 39.2792307, -6.8093351 ], [ 39.2789672, -6.8092961 ], [ 39.2787087, -6.8092316 ], [ 39.2784578, -6.809142 ], [ 39.2782168, -6.8090283 ], [ 39.2779882, -6.8088915 ], [ 39.2777741, -6.808733 ], [ 39.2775766, -6.8085542 ], [ 39.2773976, -6.808357 ], [ 39.2772387, -6.8081432 ], [ 39.2771016, -6.8079148 ], [ 39.2769876, -6.8076742 ], [ 39.2768977, -6.8074235 ], [ 39.2768328, -6.8071652 ], [ 39.2767935, -6.8069018 ], [ 39.2767803, -6.8066358 ], [ 39.2767932, -6.8063698 ], [ 39.2768322, -6.8061063 ], [ 39.2768968, -6.8058479 ], [ 39.2769864, -6.8055971 ], [ 39.2771001, -6.8053563 ], [ 39.277237, -6.8051278 ], [ 39.2773956, -6.8049138 ], [ 39.2775744, -6.8047164 ], [ 39.2777717, -6.8045374 ], [ 39.2779856, -6.8043786 ], [ 39.2782141, -6.8042416 ], [ 39.2784549, -6.8041276 ], [ 39.2787057, -6.8040377 ], [ 39.2789641, -6.8039729 ], [ 39.2792276, -6.8039336 ], [ 39.2794937, -6.8039204 ], [ 39.2797599, -6.8039333 ], [ 39.2798111, -6.8039409 ], [ 39.2798116, -6.8039404 ], [ 39.2800255, -6.8037817 ], [ 39.280254, -6.8036446 ], [ 39.2804948, -6.8035306 ], [ 39.2807456, -6.8034407 ], [ 39.281004, -6.8033759 ], [ 39.2812675, -6.8033366 ], [ 39.2815336, -6.8033234 ], [ 39.2817997, -6.8033363 ], [ 39.2820633, -6.8033753 ], [ 39.2823218, -6.8034398 ], [ 39.2825727, -6.8035294 ], [ 39.2828136, -6.8036431 ], [ 39.2830423, -6.8037799 ], [ 39.2832563, -6.8039384 ], [ 39.2834539, -6.8041171 ], [ 39.2836329, -6.8043144 ], [ 39.2837918, -6.8045282 ], [ 39.2839289, -6.8047565 ], [ 39.2840429, -6.8049972 ], [ 39.2841328, -6.8052479 ], [ 39.2841977, -6.8055062 ], [ 39.284237, -6.8057696 ], [ 39.2842502, -6.8060356 ], [ 39.2842373, -6.8063016 ], [ 39.2841983, -6.8065651 ], [ 39.2841338, -6.8068234 ], [ 39.2840441, -6.8070743 ], [ 39.2839304, -6.8073151 ], [ 39.2837935, -6.8075436 ], [ 39.2836349, -6.8077576 ], [ 39.2834561, -6.807955 ], [ 39.2832588, -6.808134 ], [ 39.2830449, -6.8082927 ], [ 39.2828164, -6.8084298 ], [ 39.2825757, -6.8085438 ], [ 39.2823248, -6.8086337 ], [ 39.2820664, -6.8086985 ], [ 39.2818029, -6.8087378 ], [ 39.2815368, -6.808751 ], [ 39.2812707, -6.8087381 ], [ 39.2812194, -6.8087305 ], [ 39.2812189, -6.808731 ], [ 39.281005, -6.8088898 ], [ 39.2807765, -6.8090268 ], [ 39.2805357, -6.8091408 ], [ 39.2802849, -6.8092307 ] ], [ [ 39.2897674, -6.8124901 ], [ 39.2895266, -6.8126041 ], [ 39.2892758, -6.812694 ], [ 39.2890174, -6.8127588 ], [ 39.2887538, -6.812798 ], [ 39.2884877, -6.8128113 ], [ 39.2882216, -6.8127984 ], [ 39.287958, -6.8127594 ], [ 39.2876995, -6.8126949 ], [ 39.2874486, -6.8126053 ], [ 39.2872077, -6.8124916 ], [ 39.2869791, -6.8123548 ], [ 39.286765, -6.8121963 ], [ 39.2865674, -6.8120176 ], [ 39.2863884, -6.8118203 ], [ 39.2862295, -6.8116065 ], [ 39.2860924, -6.8113782 ], [ 39.2859784, -6.8111375 ], [ 39.2858885, -6.8108868 ], [ 39.2858236, -6.8106285 ], [ 39.2857843, -6.8103651 ], [ 39.2857711, -6.8100991 ], [ 39.285784, -6.8098331 ], [ 39.2858229, -6.8095697 ], [ 39.2858875, -6.8093113 ], [ 39.2859771, -6.8090605 ], [ 39.2860909, -6.8088197 ], [ 39.2862278, -6.8085911 ], [ 39.2863863, -6.8083771 ], [ 39.2865652, -6.8081797 ], [ 39.2867625, -6.8080007 ], [ 39.2869764, -6.807842 ], [ 39.2872048, -6.8077049 ], [ 39.2874456, -6.8075909 ], [ 39.2876964, -6.807501 ], [ 39.2879548, -6.8074362 ], [ 39.2882184, -6.8073969 ], [ 39.2884845, -6.8073837 ], [ 39.288554, -6.8073871 ], [ 39.2886065, -6.8073163 ], [ 39.2887853, -6.8071188 ], [ 39.2889827, -6.8069399 ], [ 39.2891966, -6.8067811 ], [ 39.289425, -6.806644 ], [ 39.2896658, -6.80653 ], [ 39.2899166, -6.8064402 ], [ 39.290175, -6.8063753 ], [ 39.2904386, -6.8063361 ], [ 39.2907047, -6.8063228 ], [ 39.2909708, -6.8063357 ], [ 39.2912344, -6.8063746 ], [ 39.2914929, -6.8064392 ], [ 39.2917438, -6.8065288 ], [ 39.2919847, -6.8066425 ], [ 39.2922133, -6.8067793 ], [ 39.2924274, -6.8069378 ], [ 39.2926249, -6.8071165 ], [ 39.292804, -6.8073137 ], [ 39.2929628, -6.8075275 ], [ 39.2931, -6.8077559 ], [ 39.293214, -6.8079966 ], [ 39.2933039, -6.8082473 ], [ 39.2933688, -6.8085056 ], [ 39.2934081, -6.808769 ], [ 39.2934213, -6.809035 ], [ 39.2934084, -6.809301 ], [ 39.2933695, -6.8095644 ], [ 39.2933049, -6.8098228 ], [ 39.2932153, -6.8100736 ], [ 39.2931015, -6.8103144 ], [ 39.2929647, -6.8105429 ], [ 39.2928061, -6.8107569 ], [ 39.2926273, -6.8109544 ], [ 39.29243, -6.8111333 ], [ 39.292216, -6.8112921 ], [ 39.2919876, -6.8114292 ], [ 39.2917468, -6.8115432 ], [ 39.291496, -6.811633 ], [ 39.2912376, -6.8116979 ], [ 39.290974, -6.8117371 ], [ 39.2907079, -6.8117504 ], [ 39.2906384, -6.811747 ], [ 39.2905859, -6.8118178 ], [ 39.2904071, -6.8120153 ], [ 39.2902098, -6.8121942 ], [ 39.2899958, -6.812353 ], [ 39.2897674, -6.8124901 ] ], [ [ 39.2878456, -6.8026591 ], [ 39.2877087, -6.8028877 ], [ 39.2875501, -6.8031017 ], [ 39.2873713, -6.8032991 ], [ 39.287174, -6.8034781 ], [ 39.2869601, -6.8036368 ], [ 39.2867316, -6.8037739 ], [ 39.2864909, -6.8038879 ], [ 39.2862401, -6.8039778 ], [ 39.2859816, -6.8040426 ], [ 39.2857181, -6.8040819 ], [ 39.285452, -6.8040951 ], [ 39.2851859, -6.8040822 ], [ 39.2849223, -6.8040432 ], [ 39.2846638, -6.8039787 ], [ 39.2844129, -6.8038891 ], [ 39.284172, -6.8037754 ], [ 39.2839434, -6.8036386 ], [ 39.2837293, -6.8034801 ], [ 39.2835318, -6.8033014 ], [ 39.2833527, -6.8031041 ], [ 39.2831939, -6.8028903 ], [ 39.2830568, -6.802662 ], [ 39.2829427, -6.8024213 ], [ 39.2828528, -6.8021706 ], [ 39.2827879, -6.8019123 ], [ 39.2827487, -6.8016489 ], [ 39.2827354, -6.8013829 ], [ 39.2827483, -6.8011169 ], [ 39.2827873, -6.8008534 ], [ 39.2828519, -6.8005951 ], [ 39.2829415, -6.8003443 ], [ 39.2830553, -6.8001034 ], [ 39.2830695, -6.8000797 ], [ 39.2830137, -6.8000658 ], [ 39.2827628, -6.7999762 ], [ 39.2825219, -6.7998625 ], [ 39.2822933, -6.7997257 ], [ 39.2820792, -6.7995672 ], [ 39.2818817, -6.7993885 ], [ 39.2817026, -6.7991912 ], [ 39.2815438, -6.7989774 ], [ 39.2814067, -6.7987491 ], [ 39.2812926, -6.7985084 ], [ 39.2812027, -6.7982577 ], [ 39.2811378, -6.7979994 ], [ 39.2810986, -6.797736 ], [ 39.2810854, -6.79747 ], [ 39.2810983, -6.797204 ], [ 39.2811372, -6.7969405 ], [ 39.2812018, -6.7966821 ], [ 39.2812914, -6.7964313 ], [ 39.2814052, -6.7961905 ], [ 39.281542, -6.795962 ], [ 39.2817006, -6.795748 ], [ 39.2818794, -6.7955506 ], [ 39.2820767, -6.7953716 ], [ 39.2822906, -6.7952129 ], [ 39.2825191, -6.7950758 ], [ 39.2827599, -6.7949618 ], [ 39.2830107, -6.7948719 ], [ 39.2832691, -6.7948071 ], [ 39.2835326, -6.7947678 ], [ 39.2837987, -6.7947546 ], [ 39.2840648, -6.7947675 ], [ 39.2843284, -6.7948065 ], [ 39.2845869, -6.794871 ], [ 39.2848378, -6.7949606 ], [ 39.2850787, -6.7950743 ], [ 39.2853073, -6.7952111 ], [ 39.2855214, -6.7953696 ], [ 39.2857189, -6.7955483 ], [ 39.285898, -6.7957456 ], [ 39.2860568, -6.7959594 ], [ 39.2861939, -6.7961877 ], [ 39.286308, -6.7964284 ], [ 39.2863979, -6.7966791 ], [ 39.2864628, -6.7969374 ], [ 39.286502, -6.7972008 ], [ 39.2865152, -6.7974668 ], [ 39.2865023, -6.7977328 ], [ 39.2864634, -6.7979963 ], [ 39.2863988, -6.7982546 ], [ 39.2863092, -6.7985054 ], [ 39.2861954, -6.7987463 ], [ 39.2861812, -6.79877 ], [ 39.286237, -6.7987839 ], [ 39.2864879, -6.7988735 ], [ 39.2867288, -6.7989872 ], [ 39.2869574, -6.799124 ], [ 39.2871715, -6.7992825 ], [ 39.287369, -6.7994612 ], [ 39.2875481, -6.7996585 ], [ 39.2877069, -6.7998723 ], [ 39.287844, -6.8001006 ], [ 39.2879581, -6.8003413 ], [ 39.288048, -6.800592 ], [ 39.2881129, -6.8008503 ], [ 39.2881521, -6.8011137 ], [ 39.2881654, -6.8013797 ], [ 39.2881525, -6.8016457 ], [ 39.2881135, -6.8019092 ], [ 39.2880489, -6.8021675 ], [ 39.2879593, -6.8024183 ], [ 39.2878456, -6.8026591 ] ] ] } }
]
}
