{
"type": "FeatureCollection",
"features": [
{ "type": "Feature", "properties": { "index": "570", "@osmId": "relation/5604750", "name": "Bassin Jacques Cœur", "opening_hours": null, "label": "Parks & green space", "color": "#74c476" }, "geometry": { "type": "Point", "coordinates": [ 3.9002866, 43.600093 ] } },
{ "type": "Feature", "properties": { "index": "571", "@osmId": "relation/3186606", "name": "Jardins du Peyrou", "opening_hours": null, "label": "Parks & green space", "color": "#74c476" }, "geometry": { "type": "Point", "coordinates": [ 3.8700366, 43.611312 ] } },
{ "type": "Feature", "properties": { "index": "572", "@osmId": "way/22940347", "name": "Parc Rimbaud", "opening_hours": null, "label": "Parks & green space", "color": "#74c476" }, "geometry": { "type": "Point", "coordinates": [ 3.8949065, 43.6180703 ] } },
{ "type": "Feature", "properties": { "index": "573", "@osmId": "way/22940746", "name": null, "opening_hours": null, "label": "Parks & green space", "color": "#74c476" }, "geometry": { "type": "Point", "coordinates": [ 3.8925215, 43.618036 ] } },
{ "type": "Feature", "properties": { "index": "574", "@osmId": "way/156212148", "name": null, "opening_hours": null, "label": "Parks & green space", "color": "#74c476" }, "geometry": { "type": "Point", "coordinates": [ 3.89904, 43.6201786 ] } },
{ "type": "Feature", "properties": { "index": "575", "@osmId": "way/23232712", "name": "Parc Magnol", "opening_hours": null, "label": "Parks & green space", "color": "#74c476" }, "geometry": { "type": "Point", "coordinates": [ 3.8631644, 43.6173228 ] } },
{ "type": "Feature", "properties": { "index": "576", "@osmId": "way/25677040", "name": "Place des Patriotes", "opening_hours": null, "label": "Parks & green space", "color": "#74c476" }, "geometry": { "type": "Point", "coordinates": [ 3.8937374, 43.6016564 ] } },
{ "type": "Feature", "properties": { "index": "577", "@osmId": "way/25786834", "name": null, "opening_hours": null, "label": "Parks & green space", "color": "#74c476" }, "geometry": { "type": "Point", "coordinates": [ 3.8908386, 43.6007527 ] } },
{ "type": "Feature", "properties": { "index": "578", "@osmId": "way/290507792", "name": "Parc des Pastourelles", "opening_hours": null, "label": "Parks & green space", "color": "#74c476" }, "geometry": { "type": "Point", "coordinates": [ 3.8999008, 43.6211362 ] } },
{ "type": "Feature", "properties": { "index": "579", "@osmId": "way/388511466", "name": "Square du cadran solaire", "opening_hours": null, "label": "Parks & green space", "color": "#74c476" }, "geometry": { "type": "Point", "coordinates": [ 3.9007102, 43.6197683 ] } },
{ "type": "Feature", "properties": { "index": "580", "@osmId": "way/26154796", "name": "Parc Richter", "opening_hours": null, "label": "Parks & green space", "color": "#74c476" }, "geometry": { "type": "Point", "coordinates": [ 3.8975296, 43.6034969 ] } },
{ "type": "Feature", "properties": { "index": "581", "@osmId": "way/433033050", "name": "Aire de jeux du Parc Magnol", "opening_hours": null, "label": "Parks & green space", "color": "#74c476" }, "geometry": { "type": "Point", "coordinates": [ 3.8633517, 43.617418 ] } },
{ "type": "Feature", "properties": { "index": "582", "@osmId": "way/583193355", "name": null, "opening_hours": null, "label": "Parks & green space", "color": "#74c476" }, "geometry": { "type": "Point", "coordinates": [ 3.8589041, 43.6200932 ] } },
{ "type": "Feature", "properties": { "index": "583", "@osmId": "way/1313448081", "name": "Jardin botanique", "opening_hours": null, "label": "Parks & green space", "color": "#74c476" }, "geometry": { "type": "Point", "coordinates": [ 3.859767, 43.6215007 ] } },
{ "type": "Feature", "properties": { "index": "584", "@osmId": "way/433025666", "name": "Aire de jeux du Parc Rimbaud", "opening_hours": null, "label": "Parks & green space", "color": "#74c476" }, "geometry": { "type": "Point", "coordinates": [ 3.8936427, 43.6181873 ] } },
{ "type": "Feature", "properties": { "index": "585", "@osmId": "way/433025667", "name": null, "opening_hours": null, "label": "Parks & green space", "color": "#74c476" }, "geometry": { "type": "Point", "coordinates": [ 3.8997223, 43.6212713 ] } },
{ "type": "Feature", "properties": { "index": "586", "@osmId": "way/535171605", "name": null, "opening_hours": null, "label": "Parks & green space", "color": "#74c476" }, "geometry": { "type": "Point", "coordinates": [ 3.890127, 43.6227866 ] } },
{ "type": "Feature", "properties": { "index": "587", "@osmId": "way/535171606", "name": null, "opening_hours": null, "label": "Parks & green space", "color": "#74c476" }, "geometry": { "type": "Point", "coordinates": [ 3.8910595, 43.6227203 ] } },
{ "type": "Feature", "properties": { "index": "588", "@osmId": "way/535171607", "name": null, "opening_hours": null, "label": "Parks & green space", "color": "#74c476" }, "geometry": { "type": "Point", "coordinates": [ 3.8908546, 43.6224107 ] } },
{ "type": "Feature", "properties": { "index": "589", "@osmId": "way/124199533", "name": "Aire du père Louis", "opening_hours": null, "label": "Parks & green space", "color": "#74c476" }, "geometry": { "type": "Point", "coordinates": [ 3.8965498, 43.6106587 ] } },
{ "type": "Feature", "properties": { "index": "590", "@osmId": "way/159340845", "name": null, "opening_hours": null, "label": "Parks & green space", "color": "#74c476" }, "geometry": { "type": "Point", "coordinates": [ 3.8950846, 43.6031174 ] } },
{ "type": "Feature", "properties": { "index": "591", "@osmId": "way/176868142", "name": null, "opening_hours": null, "label": "Parks & green space", "color": "#74c476" }, "geometry": { "type": "Point", "coordinates": [ 3.8892934, 43.6076172 ] } },
{ "type": "Feature", "properties": { "index": "592", "@osmId": "way/932199045", "name": "Aire de jeux du Parc des Pastourelles", "opening_hours": null, "label": "Parks & green space", "color": "#74c476" }, "geometry": { "type": "Point", "coordinates": [ 3.8997073, 43.6206286 ] } },
{ "type": "Feature", "properties": { "index": "593", "@osmId": "way/1195925622", "name": null, "opening_hours": null, "label": "Parks & green space", "color": "#74c476" }, "geometry": { "type": "Point", "coordinates": [ 3.9041247, 43.6192972 ] } },
{ "type": "Feature", "properties": { "index": "594", "@osmId": "way/1196024977", "name": null, "opening_hours": null, "label": "Parks & green space", "color": "#74c476" }, "geometry": { "type": "Point", "coordinates": [ 3.9019811, 43.6185409 ] } },
{ "type": "Feature", "properties": { "index": "595", "@osmId": "way/1196024978", "name": null, "opening_hours": null, "label": "Parks & green space", "color": "#74c476" }, "geometry": { "type": "Point", "coordinates": [ 3.9019965, 43.6186003 ] } },
{ "type": "Feature", "properties": { "index": "596", "@osmId": "way/609497295", "name": null, "opening_hours": null, "label": "Parks & green space", "color": "#74c476" }, "geometry": { "type": "Point", "coordinates": [ 3.8671373, 43.606797 ] } },
{ "type": "Feature", "properties": { "index": "597", "@osmId": "way/176868145", "name": "Aire de jeux Place de Marathon", "opening_hours": null, "label": "Parks & green space", "color": "#74c476" }, "geometry": { "type": "Point", "coordinates": [ 3.8897822, 43.6075938 ] } },
{ "type": "Feature", "properties": { "index": "598", "@osmId": "way/1059558030", "name": "Square Christine Boumeester", "opening_hours": null, "label": "Parks & green space", "color": "#74c476" }, "geometry": { "type": "Point", "coordinates": [ 3.8673133, 43.6217132 ] } },
{ "type": "Feature", "properties": { "index": "599", "@osmId": "way/31339324", "name": "Parc Montcalm", "opening_hours": "Jan-Feb Mo-Su 08:00-17:30; Mar-May Mo-Su 08:00-20:00; Jun-Aug Mo-Su 08:00-21:00; Sep-Oct Mo-Su 08:00-20:00; Nov-Dec Mo-Su 08:00-17:30", "label": "Parks & green space", "color": "#74c476" }, "geometry": { "type": "Point", "coordinates": [ 3.8592214, 43.6000897 ] } },
{ "type": "Feature", "properties": { "index": "600", "@osmId": "way/12871886", "name": "Parc Sainte-Odile", "opening_hours": null, "label": "Parks & green space", "color": "#74c476" }, "geometry": { "type": "Point", "coordinates": [ 3.8722724, 43.6239591 ] } },
{ "type": "Feature", "properties": { "index": "601", "@osmId": "way/13895213", "name": null, "opening_hours": null, "label": "Parks & green space", "color": "#74c476" }, "geometry": { "type": "Point", "coordinates": [ 3.8782939, 43.6219038 ] } },
{ "type": "Feature", "properties": { "index": "602", "@osmId": "way/228053349", "name": "Parc du Mas de Costebelle", "opening_hours": null, "label": "Parks & green space", "color": "#74c476" }, "geometry": { "type": "Point", "coordinates": [ 3.901938, 43.610563 ] } },
{ "type": "Feature", "properties": { "index": "603", "@osmId": "way/31437736", "name": "Parc de la Guirlande", "opening_hours": "07:30-21:00", "label": "Parks & green space", "color": "#74c476" }, "geometry": { "type": "Point", "coordinates": [ 3.8605919, 43.6072377 ] } },
{ "type": "Feature", "properties": { "index": "604", "@osmId": "way/235641857", "name": "Parc Georges Charpak", "opening_hours": null, "label": "Parks & green space", "color": "#74c476" }, "geometry": { "type": "Point", "coordinates": [ 3.9038633, 43.6007401 ] } },
{ "type": "Feature", "properties": { "index": "605", "@osmId": "way/345330055", "name": null, "opening_hours": null, "label": "Parks & green space", "color": "#74c476" }, "geometry": { "type": "Point", "coordinates": [ 3.8978936, 43.6048244 ] } },
{ "type": "Feature", "properties": { "index": "606", "@osmId": "way/377463400", "name": "Parc Richter", "opening_hours": null, "label": "Parks & green space", "color": "#74c476" }, "geometry": { "type": "Point", "coordinates": [ 3.8969278, 43.6027471 ] } },
{ "type": "Feature", "properties": { "index": "607", "@osmId": "way/381618862", "name": null, "opening_hours": null, "label": "Parks & green space", "color": "#74c476" }, "geometry": { "type": "Point", "coordinates": [ 3.9036516, 43.6112438 ] } },
{ "type": "Feature", "properties": { "index": "608", "@osmId": "way/418919196", "name": null, "opening_hours": null, "label": "Parks & green space", "color": "#74c476" }, "geometry": { "type": "Point", "coordinates": [ 3.9034984, 43.6014465 ] } },
{ "type": "Feature", "properties": { "index": "609", "@osmId": "way/14882681", "name": "Parc Edith Piaf", "opening_hours": null, "label": "Parks & green space", "color": "#74c476" }, "geometry": { "type": "Point", "coordinates": [ 3.8883543, 43.6218967 ] } },
{ "type": "Feature", "properties": { "index": "610", "@osmId": "way/433007170", "name": null, "opening_hours": null, "label": "Parks & green space", "color": "#74c476" }, "geometry": { "type": "Point", "coordinates": [ 3.8892604, 43.603969 ] } },
{ "type": "Feature", "properties": { "index": "611", "@osmId": "way/60962376", "name": "Square de Diane", "opening_hours": null, "label": "Parks & green space", "color": "#74c476" }, "geometry": { "type": "Point", "coordinates": [ 3.8600526, 43.6000343 ] } },
{ "type": "Feature", "properties": { "index": "612", "@osmId": "way/17921136", "name": "Esplanade de la Musique", "opening_hours": null, "label": "Parks & green space", "color": "#74c476" }, "geometry": { "type": "Point", "coordinates": [ 3.8821649, 43.6167808 ] } },
{ "type": "Feature", "properties": { "index": "613", "@osmId": "way/24238789", "name": null, "opening_hours": null, "label": "Parks & green space", "color": "#74c476" }, "geometry": { "type": "Point", "coordinates": [ 3.8788737, 43.6226097 ] } },
{ "type": "Feature", "properties": { "index": "614", "@osmId": "way/48226607", "name": null, "opening_hours": null, "label": "Parks & green space", "color": "#74c476" }, "geometry": { "type": "Point", "coordinates": [ 3.8779632, 43.622804 ] } },
{ "type": "Feature", "properties": { "index": "615", "@osmId": "way/48226608", "name": null, "opening_hours": null, "label": "Parks & green space", "color": "#74c476" }, "geometry": { "type": "Point", "coordinates": [ 3.877908, 43.6233725 ] } },
{ "type": "Feature", "properties": { "index": "616", "@osmId": "way/433007171", "name": "Aire de jeux du Square Jean Monnet", "opening_hours": null, "label": "Parks & green space", "color": "#74c476" }, "geometry": { "type": "Point", "coordinates": [ 3.8894747, 43.6039956 ] } },
{ "type": "Feature", "properties": { "index": "617", "@osmId": "way/433025658", "name": null, "opening_hours": null, "label": "Parks & green space", "color": "#74c476" }, "geometry": { "type": "Point", "coordinates": [ 3.90216, 43.6106089 ] } },
{ "type": "Feature", "properties": { "index": "618", "@osmId": "way/433249425", "name": "Parc Urbain ouest", "opening_hours": null, "label": "Parks & green space", "color": "#74c476" }, "geometry": { "type": "Point", "coordinates": [ 3.9045241, 43.6077285 ] } },
{ "type": "Feature", "properties": { "index": "619", "@osmId": "way/455743605", "name": "Parc Richter", "opening_hours": null, "label": "Parks & green space", "color": "#74c476" }, "geometry": { "type": "Point", "coordinates": [ 3.8978537, 43.6049967 ] } },
{ "type": "Feature", "properties": { "index": "620", "@osmId": "way/674927517", "name": null, "opening_hours": null, "label": "Parks & green space", "color": "#74c476" }, "geometry": { "type": "Point", "coordinates": [ 3.9026104, 43.6015017 ] } },
{ "type": "Feature", "properties": { "index": "621", "@osmId": "way/728327871", "name": null, "opening_hours": null, "label": "Parks & green space", "color": "#74c476" }, "geometry": { "type": "Point", "coordinates": [ 3.8942571, 43.6034332 ] } },
{ "type": "Feature", "properties": { "index": "622", "@osmId": "way/791024468", "name": null, "opening_hours": null, "label": "Parks & green space", "color": "#74c476" }, "geometry": { "type": "Point", "coordinates": [ 3.9023855, 43.6005701 ] } },
{ "type": "Feature", "properties": { "index": "623", "@osmId": "way/791024469", "name": null, "opening_hours": null, "label": "Parks & green space", "color": "#74c476" }, "geometry": { "type": "Point", "coordinates": [ 3.9024753, 43.6005778 ] } },
{ "type": "Feature", "properties": { "index": "624", "@osmId": "way/791024470", "name": null, "opening_hours": null, "label": "Parks & green space", "color": "#74c476" }, "geometry": { "type": "Point", "coordinates": [ 3.9022929, 43.6005293 ] } },
{ "type": "Feature", "properties": { "index": "625", "@osmId": "way/791024471", "name": null, "opening_hours": null, "label": "Parks & green space", "color": "#74c476" }, "geometry": { "type": "Point", "coordinates": [ 3.902649, 43.6000509 ] } },
{ "type": "Feature", "properties": { "index": "626", "@osmId": "way/791024472", "name": null, "opening_hours": null, "label": "Parks & green space", "color": "#74c476" }, "geometry": { "type": "Point", "coordinates": [ 3.9026986, 43.6001005 ] } },
{ "type": "Feature", "properties": { "index": "627", "@osmId": "way/791024473", "name": null, "opening_hours": null, "label": "Parks & green space", "color": "#74c476" }, "geometry": { "type": "Point", "coordinates": [ 3.9025598, 43.600048 ] } },
{ "type": "Feature", "properties": { "index": "628", "@osmId": "way/793208379", "name": null, "opening_hours": null, "label": "Parks & green space", "color": "#74c476" }, "geometry": { "type": "Point", "coordinates": [ 3.9027889, 43.6003997 ] } },
{ "type": "Feature", "properties": { "index": "629", "@osmId": "way/110676928", "name": "Square du Père Bonnet", "opening_hours": null, "label": "Parks & green space", "color": "#74c476" }, "geometry": { "type": "Point", "coordinates": [ 3.866192, 43.6068378 ] } },
{ "type": "Feature", "properties": { "index": "630", "@osmId": "way/129749172", "name": "Jardin des Beaux-Arts", "opening_hours": "Mo-Su 08:00-23:00", "label": "Parks & green space", "color": "#74c476" }, "geometry": { "type": "Point", "coordinates": [ 3.8838529, 43.6159964 ] } },
{ "type": "Feature", "properties": { "index": "631", "@osmId": "way/149425256", "name": "Square Camille Ernst", "opening_hours": null, "label": "Parks & green space", "color": "#74c476" }, "geometry": { "type": "Point", "coordinates": [ 3.8785874, 43.6185564 ] } },
{ "type": "Feature", "properties": { "index": "632", "@osmId": "way/156452571", "name": "Square Charles Flahault", "opening_hours": null, "label": "Parks & green space", "color": "#74c476" }, "geometry": { "type": "Point", "coordinates": [ 3.8785201, 43.61706 ] } },
{ "type": "Feature", "properties": { "index": "633", "@osmId": "way/124190975", "name": "Square des Arceaux", "opening_hours": null, "label": "Parks & green space", "color": "#74c476" }, "geometry": { "type": "Point", "coordinates": [ 3.8611, 43.6119647 ] } },
{ "type": "Feature", "properties": { "index": "634", "@osmId": "way/408252115", "name": "Aire de jeux du Parc Sainte-Odile", "opening_hours": null, "label": "Parks & green space", "color": "#74c476" }, "geometry": { "type": "Point", "coordinates": [ 3.8718252, 43.6242843 ] } },
{ "type": "Feature", "properties": { "index": "635", "@osmId": "way/433033047", "name": "Square Maquis Bir-hakeim", "opening_hours": null, "label": "Parks & green space", "color": "#74c476" }, "geometry": { "type": "Point", "coordinates": [ 3.8584834, 43.6111191 ] } },
{ "type": "Feature", "properties": { "index": "636", "@osmId": "way/433033048", "name": "Aire de jeux du Square Maquis Bir-Hakeim", "opening_hours": null, "label": "Parks & green space", "color": "#74c476" }, "geometry": { "type": "Point", "coordinates": [ 3.8583689, 43.6110151 ] } },
{ "type": "Feature", "properties": { "index": "637", "@osmId": "way/433033049", "name": "Aire de jeux du Square des Arceaux", "opening_hours": null, "label": "Parks & green space", "color": "#74c476" }, "geometry": { "type": "Point", "coordinates": [ 3.8612322, 43.6119668 ] } },
{ "type": "Feature", "properties": { "index": "638", "@osmId": "way/411703732", "name": "Square de la Rue des Loutres", "opening_hours": null, "label": "Parks & green space", "color": "#74c476" }, "geometry": { "type": "Point", "coordinates": [ 3.8768842, 43.6239716 ] } },
{ "type": "Feature", "properties": { "index": "639", "@osmId": "way/433033052", "name": "Aire de jeux du Square du Père Bonnet", "opening_hours": null, "label": "Parks & green space", "color": "#74c476" }, "geometry": { "type": "Point", "coordinates": [ 3.8662648, 43.6067244 ] } },
{ "type": "Feature", "properties": { "index": "640", "@osmId": "way/433245944", "name": "Square Figuerolles", "opening_hours": null, "label": "Parks & green space", "color": "#74c476" }, "geometry": { "type": "Point", "coordinates": [ 3.8615899, 43.6060934 ] } },
{ "type": "Feature", "properties": { "index": "641", "@osmId": "way/433245947", "name": null, "opening_hours": null, "label": "Parks & green space", "color": "#74c476" }, "geometry": { "type": "Point", "coordinates": [ 3.8615896, 43.6061063 ] } },
{ "type": "Feature", "properties": { "index": "642", "@osmId": "way/458102141", "name": null, "opening_hours": null, "label": "Parks & green space", "color": "#74c476" }, "geometry": { "type": "Point", "coordinates": [ 3.8601239, 43.6078323 ] } },
{ "type": "Feature", "properties": { "index": "643", "@osmId": "way/433025662", "name": "Aire de jeux de l'Esplanade de la Musique", "opening_hours": null, "label": "Parks & green space", "color": "#74c476" }, "geometry": { "type": "Point", "coordinates": [ 3.88187, 43.6169602 ] } },
{ "type": "Feature", "properties": { "index": "644", "@osmId": "way/433025663", "name": null, "opening_hours": null, "label": "Parks & green space", "color": "#74c476" }, "geometry": { "type": "Point", "coordinates": [ 3.8784551, 43.6184806 ] } },
{ "type": "Feature", "properties": { "index": "645", "@osmId": "way/543507368", "name": "Square de la Libération", "opening_hours": null, "label": "Parks & green space", "color": "#74c476" }, "geometry": { "type": "Point", "coordinates": [ 3.8578608, 43.6106861 ] } },
{ "type": "Feature", "properties": { "index": "646", "@osmId": "way/552095218", "name": null, "opening_hours": null, "label": "Parks & green space", "color": "#74c476" }, "geometry": { "type": "Point", "coordinates": [ 3.8631918, 43.6080698 ] } },
{ "type": "Feature", "properties": { "index": "647", "@osmId": "way/433025664", "name": "Aire de jeux du Parc Edith Piaf", "opening_hours": null, "label": "Parks & green space", "color": "#74c476" }, "geometry": { "type": "Point", "coordinates": [ 3.8884181, 43.6224349 ] } },
{ "type": "Feature", "properties": { "index": "648", "@osmId": "way/552145109", "name": "Place Albin Tixador", "opening_hours": null, "label": "Parks & green space", "color": "#74c476" }, "geometry": { "type": "Point", "coordinates": [ 3.8831879, 43.6174064 ] } },
{ "type": "Feature", "properties": { "index": "649", "@osmId": "way/996346319", "name": "Aire de jeux du Parc de la Guirlande", "opening_hours": null, "label": "Parks & green space", "color": "#74c476" }, "geometry": { "type": "Point", "coordinates": [ 3.8611844, 43.6075716 ] } },
{ "type": "Feature", "properties": { "index": "650", "@osmId": "way/674933361", "name": "Square des Castors", "opening_hours": null, "label": "Parks & green space", "color": "#74c476" }, "geometry": { "type": "Point", "coordinates": [ 3.8763798, 43.6233356 ] } },
{ "type": "Feature", "properties": { "index": "651", "@osmId": "way/732937150", "name": null, "opening_hours": null, "label": "Parks & green space", "color": "#74c476" }, "geometry": { "type": "Point", "coordinates": [ 3.8818889, 43.6242368 ] } },
{ "type": "Feature", "properties": { "index": "652", "@osmId": "way/733266490", "name": null, "opening_hours": null, "label": "Parks & green space", "color": "#74c476" }, "geometry": { "type": "Point", "coordinates": [ 3.8823098, 43.6224936 ] } },
{ "type": "Feature", "properties": { "index": "653", "@osmId": "way/894260379", "name": null, "opening_hours": null, "label": "Parks & green space", "color": "#74c476" }, "geometry": { "type": "Point", "coordinates": [ 3.8814355, 43.6249609 ] } },
{ "type": "Feature", "properties": { "index": "654", "@osmId": "way/1000772508", "name": "Square Abbé Coursindel", "opening_hours": null, "label": "Parks & green space", "color": "#74c476" }, "geometry": { "type": "Point", "coordinates": [ 3.8640593, 43.6072951 ] } },
{ "type": "Feature", "properties": { "index": "655", "@osmId": "way/996878051", "name": "Parc Suzanne-Babut", "opening_hours": null, "label": "Parks & green space", "color": "#74c476" }, "geometry": { "type": "Point", "coordinates": [ 3.8757759, 43.6180725 ] } },
{ "type": "Feature", "properties": { "index": "656", "@osmId": "way/1073756346", "name": null, "opening_hours": null, "label": "Parks & green space", "color": "#74c476" }, "geometry": { "type": "Point", "coordinates": [ 3.8673114, 43.6215185 ] } },
{ "type": "Feature", "properties": { "index": "657", "@osmId": "way/1020576214", "name": "Aire de jeux Mas de Merle", "opening_hours": null, "label": "Parks & green space", "color": "#74c476" }, "geometry": { "type": "Point", "coordinates": [ 3.8573147, 43.6051262 ] } },
{ "type": "Feature", "properties": { "index": "658", "@osmId": "way/1034780779", "name": null, "opening_hours": null, "label": "Parks & green space", "color": "#74c476" }, "geometry": { "type": "Point", "coordinates": [ 3.8559534, 43.6095015 ] } },
{ "type": "Feature", "properties": { "index": "659", "@osmId": "way/1190607847", "name": null, "opening_hours": null, "label": "Parks & green space", "color": "#74c476" }, "geometry": { "type": "Point", "coordinates": [ 3.8584259, 43.6012938 ] } },
{ "type": "Feature", "properties": { "index": "660", "@osmId": "way/8105305", "name": "Jardin des Plantes", "opening_hours": "Oct-May: Tu-Su 12:00-18:00; Jun-Sep: Tu-Su 12:00-20:00", "label": "Parks & green space", "color": "#74c476" }, "geometry": { "type": "Point", "coordinates": [ 3.8718541, 43.6141754 ] } },
{ "type": "Feature", "properties": { "index": "661", "@osmId": "way/1253678338", "name": "Le Bus", "opening_hours": null, "label": "Parks & green space", "color": "#74c476" }, "geometry": { "type": "Point", "coordinates": [ 3.8581283, 43.6017255 ] } },
{ "type": "Feature", "properties": { "index": "662", "@osmId": "way/1274900720", "name": "Aire de jeux de la résidence Phillipidès", "opening_hours": null, "label": "Parks & green space", "color": "#74c476" }, "geometry": { "type": "Point", "coordinates": [ 3.8684712, 43.6192876 ] } },
{ "type": "Feature", "properties": { "index": "663", "@osmId": "way/8597466", "name": "Square Planchon", "opening_hours": null, "label": "Parks & green space", "color": "#74c476" }, "geometry": { "type": "Point", "coordinates": [ 3.8799245, 43.6055553 ] } },
{ "type": "Feature", "properties": { "index": "664", "@osmId": "way/8597467", "name": "Jardin des cinq continents, Parc Emmanuel Roblès", "opening_hours": null, "label": "Parks & green space", "color": "#74c476" }, "geometry": { "type": "Point", "coordinates": [ 3.8787602, 43.6059928 ] } },
{ "type": "Feature", "properties": { "index": "665", "@osmId": "way/8599077", "name": "Jardins du Champ de Mars", "opening_hours": null, "label": "Parks & green space", "color": "#74c476" }, "geometry": { "type": "Point", "coordinates": [ 3.8822423, 43.6112223 ] } },
{ "type": "Feature", "properties": { "index": "666", "@osmId": "way/10067843", "name": "Jardin archéologique des potiers", "opening_hours": null, "label": "Parks & green space", "color": "#74c476" }, "geometry": { "type": "Point", "coordinates": [ 3.8812303, 43.613759 ] } },
{ "type": "Feature", "properties": { "index": "667", "@osmId": "way/23638864", "name": "Square Jean Monnet", "opening_hours": null, "label": "Parks & green space", "color": "#74c476" }, "geometry": { "type": "Point", "coordinates": [ 3.8891505, 43.604116 ] } },
{ "type": "Feature", "properties": { "index": "668", "@osmId": "way/25534782", "name": "Parc René Dumont", "opening_hours": "Mo-Su 08:00-20:00", "label": "Parks & green space", "color": "#74c476" }, "geometry": { "type": "Point", "coordinates": [ 3.8759619, 43.6010865 ] } },
{ "type": "Feature", "properties": { "index": "669", "@osmId": "way/25741111", "name": "Square de Marathon", "opening_hours": null, "label": "Parks & green space", "color": "#74c476" }, "geometry": { "type": "Point", "coordinates": [ 3.8895508, 43.6075962 ] } },
{ "type": "Feature", "properties": { "index": "670", "@osmId": "way/26576906", "name": "Aire de jeux du Champ de Mars", "opening_hours": null, "label": "Parks & green space", "color": "#74c476" }, "geometry": { "type": "Point", "coordinates": [ 3.881636, 43.6110873 ] } },
{ "type": "Feature", "properties": { "index": "671", "@osmId": "way/26930621", "name": "Espaces des Pertuisanes", "opening_hours": null, "label": "Parks & green space", "color": "#74c476" }, "geometry": { "type": "Point", "coordinates": [ 3.8861396, 43.6077234 ] } },
{ "type": "Feature", "properties": { "index": "672", "@osmId": "way/26937832", "name": null, "opening_hours": null, "label": "Parks & green space", "color": "#74c476" }, "geometry": { "type": "Point", "coordinates": [ 3.8869782, 43.6094206 ] } },
{ "type": "Feature", "properties": { "index": "673", "@osmId": "way/27817003", "name": "Parc Georges Clemenceau", "opening_hours": null, "label": "Parks & green space", "color": "#74c476" }, "geometry": { "type": "Point", "coordinates": [ 3.871733, 43.6041145 ] } },
{ "type": "Feature", "properties": { "index": "674", "@osmId": "way/35465288", "name": "Jardin de l'Hôtel de Sully", "opening_hours": "Mo-Fr 09:00-12:00, 14:00-17:00", "label": "Parks & green space", "color": "#74c476" }, "geometry": { "type": "Point", "coordinates": [ 3.8807325, 43.6132116 ] } },
{ "type": "Feature", "properties": { "index": "675", "@osmId": "way/41088174", "name": "Aire de jeux du parc Georges Clémenceau", "opening_hours": null, "label": "Parks & green space", "color": "#74c476" }, "geometry": { "type": "Point", "coordinates": [ 3.8721205, 43.6041861 ] } },
{ "type": "Feature", "properties": { "index": "676", "@osmId": "way/41088176", "name": "Aire de jeux du Parc Georges Clemenceau", "opening_hours": null, "label": "Parks & green space", "color": "#74c476" }, "geometry": { "type": "Point", "coordinates": [ 3.8718482, 43.6040683 ] } },
{ "type": "Feature", "properties": { "index": "677", "@osmId": "way/48274235", "name": "Place François Jaumes", "opening_hours": null, "label": "Parks & green space", "color": "#74c476" }, "geometry": { "type": "Point", "coordinates": [ 3.8841746, 43.605421 ] } },
{ "type": "Feature", "properties": { "index": "678", "@osmId": "way/75281142", "name": null, "opening_hours": null, "label": "Parks & green space", "color": "#74c476" }, "geometry": { "type": "Point", "coordinates": [ 3.8762412, 43.6094055 ] } },
{ "type": "Feature", "properties": { "index": "679", "@osmId": "way/78195773", "name": "Square de la Tour des Pins", "opening_hours": null, "label": "Parks & green space", "color": "#74c476" }, "geometry": { "type": "Point", "coordinates": [ 3.8737493, 43.614002 ] } },
{ "type": "Feature", "properties": { "index": "680", "@osmId": "way/109505003", "name": "Aire de jeux du Square Planchon", "opening_hours": null, "label": "Parks & green space", "color": "#74c476" }, "geometry": { "type": "Point", "coordinates": [ 3.8797588, 43.6057682 ] } },
{ "type": "Feature", "properties": { "index": "681", "@osmId": "way/110521269", "name": "Square de l'Intendance du Languedoc", "opening_hours": null, "label": "Parks & green space", "color": "#74c476" }, "geometry": { "type": "Point", "coordinates": [ 3.8759736, 43.612339 ] } },
{ "type": "Feature", "properties": { "index": "682", "@osmId": "way/110521621", "name": "Plan Cavaillé Coll", "opening_hours": null, "label": "Parks & green space", "color": "#74c476" }, "geometry": { "type": "Point", "coordinates": [ 3.8784845, 43.613511 ] } },
{ "type": "Feature", "properties": { "index": "683", "@osmId": "way/116984605", "name": "Jardin de la Reine", "opening_hours": null, "label": "Parks & green space", "color": "#74c476" }, "geometry": { "type": "Point", "coordinates": [ 3.870185, 43.6133703 ] } },
{ "type": "Feature", "properties": { "index": "684", "@osmId": "way/124198955", "name": "Square Saint-Roch", "opening_hours": null, "label": "Parks & green space", "color": "#74c476" }, "geometry": { "type": "Point", "coordinates": [ 3.8760329, 43.6088138 ] } },
{ "type": "Feature", "properties": { "index": "685", "@osmId": "way/146069276", "name": null, "opening_hours": null, "label": "Parks & green space", "color": "#74c476" }, "geometry": { "type": "Point", "coordinates": [ 3.8829235, 43.6040571 ] } },
{ "type": "Feature", "properties": { "index": "686", "@osmId": "way/146069278", "name": null, "opening_hours": null, "label": "Parks & green space", "color": "#74c476" }, "geometry": { "type": "Point", "coordinates": [ 3.8828094, 43.6039398 ] } },
{ "type": "Feature", "properties": { "index": "687", "@osmId": "way/181565280", "name": "Square Dominique Bagouet", "opening_hours": null, "label": "Parks & green space", "color": "#74c476" }, "geometry": { "type": "Point", "coordinates": [ 3.8761182, 43.6086816 ] } },
{ "type": "Feature", "properties": { "index": "688", "@osmId": "way/195749636", "name": "Square Théophraste Renaudot", "opening_hours": null, "label": "Parks & green space", "color": "#74c476" }, "geometry": { "type": "Point", "coordinates": [ 3.8757543, 43.6149779 ] } },
{ "type": "Feature", "properties": { "index": "689", "@osmId": "way/433007169", "name": "Aire de jeux ACM Les Aiguerelles", "opening_hours": null, "label": "Parks & green space", "color": "#74c476" }, "geometry": { "type": "Point", "coordinates": [ 3.8857575, 43.6018005 ] } },
{ "type": "Feature", "properties": { "index": "690", "@osmId": "way/433025659", "name": null, "opening_hours": null, "label": "Parks & green space", "color": "#74c476" }, "geometry": { "type": "Point", "coordinates": [ 3.8739774, 43.6092508 ] } },
{ "type": "Feature", "properties": { "index": "691", "@osmId": "way/433025661", "name": null, "opening_hours": null, "label": "Parks & green space", "color": "#74c476" }, "geometry": { "type": "Point", "coordinates": [ 3.8754984, 43.6138583 ] } },
{ "type": "Feature", "properties": { "index": "692", "@osmId": "node/13584640088", "name": "Cour des Marronniers", "opening_hours": null, "label": "Parks & green space", "color": "#74c476" }, "geometry": { "type": "Point", "coordinates": [ 3.8736065, 43.6159254 ] } },
{ "type": "Feature", "properties": { "index": "693", "@osmId": "node/13584677065", "name": "Cour des Platanes", "opening_hours": null, "label": "Parks & green space", "color": "#74c476" }, "geometry": { "type": "Point", "coordinates": [ 3.8739455, 43.6161848 ] } },
{ "type": "Feature", "properties": { "index": "694", "@osmId": "way/433245937", "name": "Square Saint-Cléophas", "opening_hours": null, "label": "Parks & green space", "color": "#74c476" }, "geometry": { "type": "Point", "coordinates": [ 3.8676123, 43.6002261 ] } },
{ "type": "Feature", "properties": { "index": "695", "@osmId": "way/433272720", "name": "Square de la Providence", "opening_hours": null, "label": "Parks & green space", "color": "#74c476" }, "geometry": { "type": "Point", "coordinates": [ 3.8754301, 43.6138664 ] } },
{ "type": "Feature", "properties": { "index": "696", "@osmId": "way/433272721", "name": "Square Louis Boffet", "opening_hours": null, "label": "Parks & green space", "color": "#74c476" }, "geometry": { "type": "Point", "coordinates": [ 3.8749247, 43.6136614 ] } },
{ "type": "Feature", "properties": { "index": "697", "@osmId": "way/433272722", "name": "Jardin des Arceaux", "opening_hours": null, "label": "Parks & green space", "color": "#74c476" }, "geometry": { "type": "Point", "coordinates": [ 3.8680145, 43.6113321 ] } },
{ "type": "Feature", "properties": { "index": "698", "@osmId": "way/452098534", "name": null, "opening_hours": null, "label": "Parks & green space", "color": "#74c476" }, "geometry": { "type": "Point", "coordinates": [ 3.8817583, 43.6136072 ] } },
{ "type": "Feature", "properties": { "index": "699", "@osmId": "way/452098535", "name": null, "opening_hours": null, "label": "Parks & green space", "color": "#74c476" }, "geometry": { "type": "Point", "coordinates": [ 3.8817016, 43.6133569 ] } },
{ "type": "Feature", "properties": { "index": "700", "@osmId": "way/452098536", "name": null, "opening_hours": null, "label": "Parks & green space", "color": "#74c476" }, "geometry": { "type": "Point", "coordinates": [ 3.88148, 43.6131565 ] } },
{ "type": "Feature", "properties": { "index": "701", "@osmId": "way/452098537", "name": null, "opening_hours": null, "label": "Parks & green space", "color": "#74c476" }, "geometry": { "type": "Point", "coordinates": [ 3.8815623, 43.6129996 ] } },
{ "type": "Feature", "properties": { "index": "702", "@osmId": "way/452098538", "name": null, "opening_hours": null, "label": "Parks & green space", "color": "#74c476" }, "geometry": { "type": "Point", "coordinates": [ 3.8814436, 43.612998 ] } },
{ "type": "Feature", "properties": { "index": "703", "@osmId": "way/452098539", "name": null, "opening_hours": null, "label": "Parks & green space", "color": "#74c476" }, "geometry": { "type": "Point", "coordinates": [ 3.8813414, 43.6130758 ] } },
{ "type": "Feature", "properties": { "index": "704", "@osmId": "way/452098567", "name": null, "opening_hours": null, "label": "Parks & green space", "color": "#74c476" }, "geometry": { "type": "Point", "coordinates": [ 3.88155, 43.6102486 ] } },
{ "type": "Feature", "properties": { "index": "705", "@osmId": "way/452098568", "name": null, "opening_hours": null, "label": "Parks & green space", "color": "#74c476" }, "geometry": { "type": "Point", "coordinates": [ 3.8815708, 43.6103222 ] } },
{ "type": "Feature", "properties": { "index": "706", "@osmId": "way/452098569", "name": null, "opening_hours": null, "label": "Parks & green space", "color": "#74c476" }, "geometry": { "type": "Point", "coordinates": [ 3.8816841, 43.6103058 ] } },
{ "type": "Feature", "properties": { "index": "707", "@osmId": "way/452098570", "name": null, "opening_hours": null, "label": "Parks & green space", "color": "#74c476" }, "geometry": { "type": "Point", "coordinates": [ 3.8816636, 43.6102317 ] } },
{ "type": "Feature", "properties": { "index": "708", "@osmId": "way/452098582", "name": null, "opening_hours": null, "label": "Parks & green space", "color": "#74c476" }, "geometry": { "type": "Point", "coordinates": [ 3.8815069, 43.613381 ] } },
{ "type": "Feature", "properties": { "index": "709", "@osmId": "way/480210780", "name": "Jardin de la Panacée", "opening_hours": null, "label": "Parks & green space", "color": "#74c476" }, "geometry": { "type": "Point", "coordinates": [ 3.8780906, 43.6128159 ] } },
{ "type": "Feature", "properties": { "index": "710", "@osmId": "way/535248151", "name": null, "opening_hours": null, "label": "Parks & green space", "color": "#74c476" }, "geometry": { "type": "Point", "coordinates": [ 3.8795964, 43.6128984 ] } },
{ "type": "Feature", "properties": { "index": "711", "@osmId": "way/535248153", "name": null, "opening_hours": null, "label": "Parks & green space", "color": "#74c476" }, "geometry": { "type": "Point", "coordinates": [ 3.8787718, 43.6124999 ] } },
{ "type": "Feature", "properties": { "index": "712", "@osmId": "way/535248154", "name": null, "opening_hours": null, "label": "Parks & green space", "color": "#74c476" }, "geometry": { "type": "Point", "coordinates": [ 3.8790123, 43.6105328 ] } },
{ "type": "Feature", "properties": { "index": "713", "@osmId": "way/535248155", "name": null, "opening_hours": null, "label": "Parks & green space", "color": "#74c476" }, "geometry": { "type": "Point", "coordinates": [ 3.8789442, 43.6107666 ] } },
{ "type": "Feature", "properties": { "index": "714", "@osmId": "way/535253198", "name": null, "opening_hours": null, "label": "Parks & green space", "color": "#74c476" }, "geometry": { "type": "Point", "coordinates": [ 3.880667, 43.6128629 ] } },
{ "type": "Feature", "properties": { "index": "715", "@osmId": "way/535253199", "name": null, "opening_hours": null, "label": "Parks & green space", "color": "#74c476" }, "geometry": { "type": "Point", "coordinates": [ 3.8796723, 43.6100866 ] } },
{ "type": "Feature", "properties": { "index": "716", "@osmId": "way/535256105", "name": null, "opening_hours": null, "label": "Parks & green space", "color": "#74c476" }, "geometry": { "type": "Point", "coordinates": [ 3.8738524, 43.6123995 ] } },
{ "type": "Feature", "properties": { "index": "717", "@osmId": "way/535256106", "name": null, "opening_hours": null, "label": "Parks & green space", "color": "#74c476" }, "geometry": { "type": "Point", "coordinates": [ 3.8741246, 43.6124691 ] } },
{ "type": "Feature", "properties": { "index": "718", "@osmId": "way/535256107", "name": null, "opening_hours": null, "label": "Parks & green space", "color": "#74c476" }, "geometry": { "type": "Point", "coordinates": [ 3.8739196, 43.612154 ] } },
{ "type": "Feature", "properties": { "index": "719", "@osmId": "way/535256108", "name": null, "opening_hours": null, "label": "Parks & green space", "color": "#74c476" }, "geometry": { "type": "Point", "coordinates": [ 3.8737147, 43.6122129 ] } },
{ "type": "Feature", "properties": { "index": "720", "@osmId": "way/535256109", "name": null, "opening_hours": null, "label": "Parks & green space", "color": "#74c476" }, "geometry": { "type": "Point", "coordinates": [ 3.87366, 43.6122582 ] } },
{ "type": "Feature", "properties": { "index": "721", "@osmId": "way/535256110", "name": null, "opening_hours": null, "label": "Parks & green space", "color": "#74c476" }, "geometry": { "type": "Point", "coordinates": [ 3.8734879, 43.6123074 ] } },
{ "type": "Feature", "properties": { "index": "722", "@osmId": "way/535256111", "name": null, "opening_hours": null, "label": "Parks & green space", "color": "#74c476" }, "geometry": { "type": "Point", "coordinates": [ 3.8733301, 43.6123857 ] } },
{ "type": "Feature", "properties": { "index": "723", "@osmId": "way/535256112", "name": null, "opening_hours": null, "label": "Parks & green space", "color": "#74c476" }, "geometry": { "type": "Point", "coordinates": [ 3.8733829, 43.6124935 ] } },
{ "type": "Feature", "properties": { "index": "724", "@osmId": "way/539202795", "name": null, "opening_hours": null, "label": "Parks & green space", "color": "#74c476" }, "geometry": { "type": "Point", "coordinates": [ 3.8678707, 43.6104437 ] } },
{ "type": "Feature", "properties": { "index": "725", "@osmId": "way/539202796", "name": null, "opening_hours": null, "label": "Parks & green space", "color": "#74c476" }, "geometry": { "type": "Point", "coordinates": [ 3.8708522, 43.6101017 ] } },
{ "type": "Feature", "properties": { "index": "726", "@osmId": "way/539202797", "name": null, "opening_hours": null, "label": "Parks & green space", "color": "#74c476" }, "geometry": { "type": "Point", "coordinates": [ 3.8727195, 43.6100861 ] } },
{ "type": "Feature", "properties": { "index": "727", "@osmId": "way/553558410", "name": "Square Henri Michel", "opening_hours": null, "label": "Parks & green space", "color": "#74c476" }, "geometry": { "type": "Point", "coordinates": [ 3.8799999, 43.6106283 ] } },
{ "type": "Feature", "properties": { "index": "728", "@osmId": "way/615932591", "name": "Promenade du Peyrou", "opening_hours": "07:00-20:00; Mar-May,Sep,Oct 07:00-21:30; Jun-Aug 07:00-00:00", "label": "Parks & green space", "color": "#74c476" }, "geometry": { "type": "Point", "coordinates": [ 3.8700358, 43.6113121 ] } },
{ "type": "Feature", "properties": { "index": "729", "@osmId": "way/734495740", "name": null, "opening_hours": null, "label": "Parks & green space", "color": "#74c476" }, "geometry": { "type": "Point", "coordinates": [ 3.8827748, 43.6093925 ] } },
{ "type": "Feature", "properties": { "index": "730", "@osmId": "way/1089424846", "name": "Aire de jeux du Parc René Dumont", "opening_hours": null, "label": "Parks & green space", "color": "#74c476" }, "geometry": { "type": "Point", "coordinates": [ 3.8760272, 43.6018489 ] } },
{ "type": "Feature", "properties": { "index": "731", "@osmId": "way/1089425502", "name": null, "opening_hours": null, "label": "Parks & green space", "color": "#74c476" }, "geometry": { "type": "Point", "coordinates": [ 3.8866753, 43.6030821 ] } },
{ "type": "Feature", "properties": { "index": "732", "@osmId": "way/1090231660", "name": "Jardin partagé de Candolle", "opening_hours": null, "label": "Parks & green space", "color": "#74c476" }, "geometry": { "type": "Point", "coordinates": [ 3.8758091, 43.6123422 ] } },
{ "type": "Feature", "properties": { "index": "733", "@osmId": "way/1164077701", "name": null, "opening_hours": null, "label": "Parks & green space", "color": "#74c476" }, "geometry": { "type": "Point", "coordinates": [ 3.8808522, 43.6048863 ] } },
{ "type": "Feature", "properties": { "index": "734", "@osmId": "way/1204001416", "name": null, "opening_hours": null, "label": "Parks & green space", "color": "#74c476" }, "geometry": { "type": "Point", "coordinates": [ 3.8775988, 43.6108764 ] } },
{ "type": "Feature", "properties": { "index": "735", "@osmId": "way/1418275847", "name": null, "opening_hours": null, "label": "Parks & green space", "color": "#74c476" }, "geometry": { "type": "Point", "coordinates": [ 3.8675997, 43.6118675 ] } },
{ "type": "Feature", "properties": { "index": "736", "@osmId": "way/1451459370", "name": "Square forain", "opening_hours": null, "label": "Parks & green space", "color": "#74c476" }, "geometry": { "type": "Point", "coordinates": [ 3.8815954, 43.6097546 ] } }
]
}
