{
"type": "FeatureCollection",
"features": [
{ "type": "Feature", "properties": { "index": "260", "@osmId": "way/52490846", "name": "Pharmacie des Aubes", "opening_hours": null, "label": "Pharmacies", "color": "#e6550d" }, "geometry": { "type": "Point", "coordinates": [ 3.8869177, 43.6147602 ] } },
{ "type": "Feature", "properties": { "index": "261", "@osmId": "way/485065181", "name": "Pharmacie du Polygone", "opening_hours": "Mo-Sa 08:30-20:00", "label": "Pharmacies", "color": "#e6550d" }, "geometry": { "type": "Point", "coordinates": [ 3.8838154, 43.6088502 ] } },
{ "type": "Feature", "properties": { "index": "262", "@osmId": "node/248089971", "name": "Pharmacie Lossaint", "opening_hours": null, "label": "Pharmacies", "color": "#e6550d" }, "geometry": { "type": "Point", "coordinates": [ 3.8597611, 43.6185269 ] } },
{ "type": "Feature", "properties": { "index": "263", "@osmId": "node/310242792", "name": "Pharmacie des Arceaux", "opening_hours": null, "label": "Pharmacies", "color": "#e6550d" }, "geometry": { "type": "Point", "coordinates": [ 3.8666763, 43.6122137 ] } },
{ "type": "Feature", "properties": { "index": "264", "@osmId": "node/615028240", "name": "Pharmacie des Vignes", "opening_hours": null, "label": "Pharmacies", "color": "#e6550d" }, "geometry": { "type": "Point", "coordinates": [ 3.8575535, 43.6142823 ] } },
{ "type": "Feature", "properties": { "index": "265", "@osmId": "node/639589427", "name": "Pharmacie du Centre Gély", "opening_hours": null, "label": "Pharmacies", "color": "#e6550d" }, "geometry": { "type": "Point", "coordinates": [ 3.8599116, 43.60531 ] } },
{ "type": "Feature", "properties": { "index": "266", "@osmId": "node/645736543", "name": "Pharmacie de Figuerolles", "opening_hours": "Mo-Sa 09:00-12:30,14:30-19:30, Sa 09:00-12:30,15:00-19:30", "label": "Pharmacies", "color": "#e6550d" }, "geometry": { "type": "Point", "coordinates": [ 3.8668479, 43.6075116 ] } },
{ "type": "Feature", "properties": { "index": "267", "@osmId": "node/1588305090", "name": "Pharmacie du Parc Montcalm", "opening_hours": null, "label": "Pharmacies", "color": "#e6550d" }, "geometry": { "type": "Point", "coordinates": [ 3.8551928, 43.6026743 ] } },
{ "type": "Feature", "properties": { "index": "268", "@osmId": "node/84632520", "name": "Pharmacie des Beaux-Arts", "opening_hours": "Mo-Fr 08:30-19:30;Sa 09:00-13:00,14:30-19:00;Su off", "label": "Pharmacies", "color": "#e6550d" }, "geometry": { "type": "Point", "coordinates": [ 3.8809763, 43.6155749 ] } },
{ "type": "Feature", "properties": { "index": "269", "@osmId": "node/117984871", "name": "Pharmacie Sainte-Odile", "opening_hours": null, "label": "Pharmacies", "color": "#e6550d" }, "geometry": { "type": "Point", "coordinates": [ 3.8735299, 43.6241205 ] } },
{ "type": "Feature", "properties": { "index": "270", "@osmId": "node/146078550", "name": "Pharmacie Eden Parc", "opening_hours": null, "label": "Pharmacies", "color": "#e6550d" }, "geometry": { "type": "Point", "coordinates": [ 3.8843572, 43.6203194 ] } },
{ "type": "Feature", "properties": { "index": "271", "@osmId": "node/267849382", "name": "Pharmacie Antigone", "opening_hours": "Mo-Sa 08:00-20:00", "label": "Pharmacies", "color": "#e6550d" }, "geometry": { "type": "Point", "coordinates": [ 3.887678, 43.6076087 ] } },
{ "type": "Feature", "properties": { "index": "272", "@osmId": "node/267849410", "name": "Pharmacie de la Grande Bibliothèque", "opening_hours": "Mo-Sa 08:30-20:00", "label": "Pharmacies", "color": "#e6550d" }, "geometry": { "type": "Point", "coordinates": [ 3.8916107, 43.6085359 ] } },
{ "type": "Feature", "properties": { "index": "273", "@osmId": "node/280973232", "name": "Pharmacie Port-Marianne", "opening_hours": "Mo-Fr 08:30-19:30; Sa 09:00-13:00,15:00-19:00", "label": "Pharmacies", "color": "#e6550d" }, "geometry": { "type": "Point", "coordinates": [ 3.8989438, 43.6067105 ] } },
{ "type": "Feature", "properties": { "index": "274", "@osmId": "node/306197289", "name": "Pharmacie du Corum", "opening_hours": null, "label": "Pharmacies", "color": "#e6550d" }, "geometry": { "type": "Point", "coordinates": [ 3.8796441, 43.6133154 ] } },
{ "type": "Feature", "properties": { "index": "275", "@osmId": "node/579783704", "name": "Pharmacie du Verdanson", "opening_hours": "Mo-Fr 09:00-19:00; Sa 09:00-13:00,15:00-19:00", "label": "Pharmacies", "color": "#e6550d" }, "geometry": { "type": "Point", "coordinates": [ 3.8746513, 43.6157179 ] } },
{ "type": "Feature", "properties": { "index": "276", "@osmId": "node/579814535", "name": "Pharmacie du Théâtre", "opening_hours": null, "label": "Pharmacies", "color": "#e6550d" }, "geometry": { "type": "Point", "coordinates": [ 3.8787383, 43.6082775 ] } },
{ "type": "Feature", "properties": { "index": "277", "@osmId": "node/598918886", "name": "Le Saint-François", "opening_hours": "Mo-Fr 08:30-19:30; Sa 08:30-12:30,14:30-19:00", "label": "Pharmacies", "color": "#e6550d" }, "geometry": { "type": "Point", "coordinates": [ 3.882825, 43.603272 ] } },
{ "type": "Feature", "properties": { "index": "278", "@osmId": "node/598921235", "name": "Pharmacie Sauvaire-Vianes", "opening_hours": "Mo-Fr 09:00-19:00; Sa 09:00-13:00", "label": "Pharmacies", "color": "#e6550d" }, "geometry": { "type": "Point", "coordinates": [ 3.8806236, 43.6028538 ] } },
{ "type": "Feature", "properties": { "index": "279", "@osmId": "node/600736628", "name": "Pharmacie de la Comédie", "opening_hours": null, "label": "Pharmacies", "color": "#e6550d" }, "geometry": { "type": "Point", "coordinates": [ 3.8800331, 43.6083103 ] } },
{ "type": "Feature", "properties": { "index": "280", "@osmId": "node/611633584", "name": "Pharmacie La Populaire", "opening_hours": "Mo-Sa 08:30-19:30", "label": "Pharmacies", "color": "#e6550d" }, "geometry": { "type": "Point", "coordinates": [ 3.8794742, 43.6075542 ] } },
{ "type": "Feature", "properties": { "index": "281", "@osmId": "node/611633585", "name": "Pharmacie de la Gare", "opening_hours": "Mo-Fr 09:00-19:00; Sa 09:00-12:30", "label": "Pharmacies", "color": "#e6550d" }, "geometry": { "type": "Point", "coordinates": [ 3.8821886, 43.605849 ] } },
{ "type": "Feature", "properties": { "index": "282", "@osmId": "node/611634695", "name": "Pharmacie de l'Observatoire", "opening_hours": "Mo-Fr 08:30-19:30; Sa 09:00-19:00", "label": "Pharmacies", "color": "#e6550d" }, "geometry": { "type": "Point", "coordinates": [ 3.876144, 43.6064444 ] } },
{ "type": "Feature", "properties": { "index": "283", "@osmId": "node/611640148", "name": "Pharmacie de la Babotte", "opening_hours": null, "label": "Pharmacies", "color": "#e6550d" }, "geometry": { "type": "Point", "coordinates": [ 3.8768093, 43.6057322 ] } },
{ "type": "Feature", "properties": { "index": "284", "@osmId": "node/612054719", "name": "Pharmacie de la Méditerranée", "opening_hours": "Mo-Fr 09:00-12:30,14:30-19:00; Sa 09:00-12:00", "label": "Pharmacies", "color": "#e6550d" }, "geometry": { "type": "Point", "coordinates": [ 3.8840084, 43.6051926 ] } },
{ "type": "Feature", "properties": { "index": "285", "@osmId": "node/612095499", "name": "Pharmacie de l'Ecusson", "opening_hours": null, "label": "Pharmacies", "color": "#e6550d" }, "geometry": { "type": "Point", "coordinates": [ 3.8763172, 43.6103442 ] } },
{ "type": "Feature", "properties": { "index": "286", "@osmId": "node/612097240", "name": "Pharmacie Principale", "opening_hours": "Mo-Fr 08:30-20:00; Sa 09:00-19:30", "label": "Pharmacies", "color": "#e6550d" }, "geometry": { "type": "Point", "coordinates": [ 3.8758597, 43.6108008 ] } },
{ "type": "Feature", "properties": { "index": "287", "@osmId": "node/613210022", "name": "Pharmacie Clémenceau", "opening_hours": "Mo-Fr 08:30-19:30, Sa 08:30-19:00", "label": "Pharmacies", "color": "#e6550d" }, "geometry": { "type": "Point", "coordinates": [ 3.8714511, 43.6031223 ] } },
{ "type": "Feature", "properties": { "index": "288", "@osmId": "node/613386612", "name": "Pharmacie du Rondelet", "opening_hours": "Mo-Sa 08:00-20:00", "label": "Pharmacies", "color": "#e6550d" }, "geometry": { "type": "Point", "coordinates": [ 3.8749335, 43.6054819 ] } },
{ "type": "Feature", "properties": { "index": "289", "@osmId": "node/615018894", "name": "Pharmacie du Pirée", "opening_hours": "Mo-Fr 08:30-19:30; Sa 08:30-12:30,15:00-19:00", "label": "Pharmacies", "color": "#e6550d" }, "geometry": { "type": "Point", "coordinates": [ 3.8958673, 43.6038866 ] } },
{ "type": "Feature", "properties": { "index": "290", "@osmId": "node/615994518", "name": "Pharmacie Saint-Cléophas", "opening_hours": "Mo-Fr 08:45-12:30,14:30-19:30; Sa 09:00-12:30", "label": "Pharmacies", "color": "#e6550d" }, "geometry": { "type": "Point", "coordinates": [ 3.8675193, 43.6006492 ] } },
{ "type": "Feature", "properties": { "index": "291", "@osmId": "node/616124770", "name": "Pharmacie du Parc à Ballons", "opening_hours": "Mo-Fr 08:30-12:30,14:30-19:15; Sa 08:30-12:30", "label": "Pharmacies", "color": "#e6550d" }, "geometry": { "type": "Point", "coordinates": [ 3.8891691, 43.6132919 ] } },
{ "type": "Feature", "properties": { "index": "292", "@osmId": "node/868233556", "name": "Hélios", "opening_hours": "Mo-Fr 08:00-12:30,14:30-19:30", "label": "Pharmacies", "color": "#e6550d" }, "geometry": { "type": "Point", "coordinates": [ 3.8849834, 43.6011958 ] } },
{ "type": "Feature", "properties": { "index": "293", "@osmId": "node/1376239026", "name": "Pharmacie du faubourg Boutonnet", "opening_hours": "Mo-Fr 08:00-12:30,14:30-19:30; Sa 08:00-12:30", "label": "Pharmacies", "color": "#e6550d" }, "geometry": { "type": "Point", "coordinates": [ 3.8729843, 43.6207523 ] } },
{ "type": "Feature", "properties": { "index": "294", "@osmId": "node/1739790809", "name": "Pharmacie Dom Bosco", "opening_hours": "Mo-Sa 08:30-19:30", "label": "Pharmacies", "color": "#e6550d" }, "geometry": { "type": "Point", "coordinates": [ 3.8923637, 43.6055433 ] } },
{ "type": "Feature", "properties": { "index": "295", "@osmId": "node/1920397484", "name": "Pharmacie Daunis", "opening_hours": null, "label": "Pharmacies", "color": "#e6550d" }, "geometry": { "type": "Point", "coordinates": [ 3.8896711, 43.6171386 ] } },
{ "type": "Feature", "properties": { "index": "296", "@osmId": "node/2463034142", "name": "La Haute Pompignane", "opening_hours": "Mo-Fr 08:30-20:00; Sa 09:00-19:30", "label": "Pharmacies", "color": "#e6550d" }, "geometry": { "type": "Point", "coordinates": [ 3.8990758, 43.6232829 ] } },
{ "type": "Feature", "properties": { "index": "297", "@osmId": "node/3421823890", "name": "Pharmacie de Richter", "opening_hours": "Mo-Fr 08:30-20:00; Sa 09:00-19:30; Su off", "label": "Pharmacies", "color": "#e6550d" }, "geometry": { "type": "Point", "coordinates": [ 3.9018718, 43.6019348 ] } },
{ "type": "Feature", "properties": { "index": "298", "@osmId": "node/3986433943", "name": "Pharmacie Saint-Jaumes", "opening_hours": null, "label": "Pharmacies", "color": "#e6550d" }, "geometry": { "type": "Point", "coordinates": [ 3.8698361, 43.6148349 ] } },
{ "type": "Feature", "properties": { "index": "299", "@osmId": "node/4791701197", "name": "Pharmacie de la Croix du Courreau", "opening_hours": "Mo-Fr 08:30-19:30; Sa 08:30-12:30,15:00-19:00", "label": "Pharmacies", "color": "#e6550d" }, "geometry": { "type": "Point", "coordinates": [ 3.8693045, 43.6086038 ] } },
{ "type": "Feature", "properties": { "index": "300", "@osmId": "node/7271773434", "name": "Lafayette", "opening_hours": "Mo-Fr 08:00-20:00; Sa 09:00-20:00", "label": "Pharmacies", "color": "#e6550d" }, "geometry": { "type": "Point", "coordinates": [ 3.873032, 43.6088299 ] } },
{ "type": "Feature", "properties": { "index": "301", "@osmId": "node/7501562885", "name": "Rimbaud et Pompignane", "opening_hours": "Mo-Fr 08:30-12:30,14:00-19:30; Sa 08:30-12:30,14:00-19:00", "label": "Pharmacies", "color": "#e6550d" }, "geometry": { "type": "Point", "coordinates": [ 3.8975114, 43.6177453 ] } }
]
}
