{
"type": "FeatureCollection",
"features": [
{ "type": "Feature", "properties": { "index": "404", "@osmId": "relation/20336693", "name": "École primaire Paul Bert - Victor Hugo", "opening_hours": null, "label": "Primary schools & childcare", "color": "#756bb1" }, "geometry": { "type": "Point", "coordinates": [ 3.8815272, 43.6038553 ] } },
{ "type": "Feature", "properties": { "index": "405", "@osmId": "way/22940825", "name": "École maternelle Ingrid Bergman", "opening_hours": null, "label": "Primary schools & childcare", "color": "#756bb1" }, "geometry": { "type": "Point", "coordinates": [ 3.8909242, 43.6187573 ] } },
{ "type": "Feature", "properties": { "index": "406", "@osmId": "way/427814221", "name": "Lycée polyvalent Jean Mermoz", "opening_hours": null, "label": "Primary schools & childcare", "color": "#756bb1" }, "geometry": { "type": "Point", "coordinates": [ 3.8924946, 43.6112206 ] } },
{ "type": "Feature", "properties": { "index": "407", "@osmId": "way/22940828", "name": "École élémentaire Jean Moulin", "opening_hours": null, "label": "Primary schools & childcare", "color": "#756bb1" }, "geometry": { "type": "Point", "coordinates": [ 3.8915848, 43.6186702 ] } },
{ "type": "Feature", "properties": { "index": "408", "@osmId": "way/60209969", "name": "Crèche associative Les Bambins du Lez", "opening_hours": null, "label": "Primary schools & childcare", "color": "#756bb1" }, "geometry": { "type": "Point", "coordinates": [ 3.8911872, 43.6183786 ] } },
{ "type": "Feature", "properties": { "index": "409", "@osmId": "way/427952332", "name": "École maternelle Vasco de Gama", "opening_hours": null, "label": "Primary schools & childcare", "color": "#756bb1" }, "geometry": { "type": "Point", "coordinates": [ 3.8920233, 43.6139269 ] } },
{ "type": "Feature", "properties": { "index": "410", "@osmId": "way/32389302", "name": "École primaire Wolfgang-Amadeus Mozart - Berthe Morisot", "opening_hours": null, "label": "Primary schools & childcare", "color": "#756bb1" }, "geometry": { "type": "Point", "coordinates": [ 3.8621279, 43.6168947 ] } },
{ "type": "Feature", "properties": { "index": "411", "@osmId": "way/427952333", "name": "École élémentaire Jean Mermoz", "opening_hours": null, "label": "Primary schools & childcare", "color": "#756bb1" }, "geometry": { "type": "Point", "coordinates": [ 3.8923422, 43.6142409 ] } },
{ "type": "Feature", "properties": { "index": "412", "@osmId": "way/314606742", "name": "Ecole primaire privée la Calandreta dau Clapàs", "opening_hours": null, "label": "Primary schools & childcare", "color": "#756bb1" }, "geometry": { "type": "Point", "coordinates": [ 3.8578019, 43.6053151 ] } },
{ "type": "Feature", "properties": { "index": "413", "@osmId": "way/12871456", "name": "École primaire privée Sainte Odile", "opening_hours": null, "label": "Primary schools & childcare", "color": "#756bb1" }, "geometry": { "type": "Point", "coordinates": [ 3.8741739, 43.6232541 ] } },
{ "type": "Feature", "properties": { "index": "414", "@osmId": "way/381607608", "name": "École primaire Sergueï Prokofiev - Jean Zay", "opening_hours": null, "label": "Primary schools & childcare", "color": "#756bb1" }, "geometry": { "type": "Point", "coordinates": [ 3.8980549, 43.6188123 ] } },
{ "type": "Feature", "properties": { "index": "415", "@osmId": "way/427953110", "name": "École maternelle Louise Michel", "opening_hours": null, "label": "Primary schools & childcare", "color": "#756bb1" }, "geometry": { "type": "Point", "coordinates": [ 3.8978684, 43.6106191 ] } },
{ "type": "Feature", "properties": { "index": "416", "@osmId": "way/44662144", "name": "Collège Camille Claudel", "opening_hours": null, "label": "Primary schools & childcare", "color": "#756bb1" }, "geometry": { "type": "Point", "coordinates": [ 3.862947, 43.6166335 ] } },
{ "type": "Feature", "properties": { "index": "417", "@osmId": "way/408249031", "name": "Crèche L'ostal Dels Pichonets CHU", "opening_hours": null, "label": "Primary schools & childcare", "color": "#756bb1" }, "geometry": { "type": "Point", "coordinates": [ 3.8671282, 43.6223041 ] } },
{ "type": "Feature", "properties": { "index": "418", "@osmId": "way/15067010", "name": "Cité Scolaire Françoise Combes", "opening_hours": null, "label": "Primary schools & childcare", "color": "#756bb1" }, "geometry": { "type": "Point", "coordinates": [ 3.8779949, 43.6201516 ] } },
{ "type": "Feature", "properties": { "index": "419", "@osmId": "way/427953111", "name": "École élémentaire Paul Painlevé", "opening_hours": null, "label": "Primary schools & childcare", "color": "#756bb1" }, "geometry": { "type": "Point", "coordinates": [ 3.8982148, 43.610083 ] } },
{ "type": "Feature", "properties": { "index": "420", "@osmId": "way/449328229", "name": "Halte-garderie municipale Europa Assas", "opening_hours": null, "label": "Primary schools & childcare", "color": "#756bb1" }, "geometry": { "type": "Point", "coordinates": [ 3.8628634, 43.6193645 ] } },
{ "type": "Feature", "properties": { "index": "421", "@osmId": "way/315317461", "name": "Ecole élémentaire Frédéric Bazille", "opening_hours": null, "label": "Primary schools & childcare", "color": "#756bb1" }, "geometry": { "type": "Point", "coordinates": [ 3.8572072, 43.6053833 ] } },
{ "type": "Feature", "properties": { "index": "422", "@osmId": "way/15069106", "name": "Dortoirs de la cité scolaire Françoise Combes", "opening_hours": null, "label": "Primary schools & childcare", "color": "#756bb1" }, "geometry": { "type": "Point", "coordinates": [ 3.876807, 43.6186968 ] } },
{ "type": "Feature", "properties": { "index": "423", "@osmId": "way/888048167", "name": "École Sainte-Jeanne d'Arc", "opening_hours": null, "label": "Primary schools & childcare", "color": "#756bb1" }, "geometry": { "type": "Point", "coordinates": [ 3.8918367, 43.6174056 ] } },
{ "type": "Feature", "properties": { "index": "424", "@osmId": "way/427800267", "name": "École élémentaire Jeanne d'Arc", "opening_hours": null, "label": "Primary schools & childcare", "color": "#756bb1" }, "geometry": { "type": "Point", "coordinates": [ 3.865934, 43.6112563 ] } },
{ "type": "Feature", "properties": { "index": "425", "@osmId": "way/449325900", "name": "École primaire privée Assomption Sainte Thérèse", "opening_hours": null, "label": "Primary schools & childcare", "color": "#756bb1" }, "geometry": { "type": "Point", "coordinates": [ 3.8673928, 43.6139208 ] } },
{ "type": "Feature", "properties": { "index": "426", "@osmId": "way/427955301", "name": "École primaire Geneviève de Gaulle Anthonioz - Jean Jaurès", "opening_hours": null, "label": "Primary schools & childcare", "color": "#756bb1" }, "geometry": { "type": "Point", "coordinates": [ 3.8940808, 43.6043098 ] } },
{ "type": "Feature", "properties": { "index": "427", "@osmId": "way/427800271", "name": "École maternelle Chaptal", "opening_hours": null, "label": "Primary schools & childcare", "color": "#756bb1" }, "geometry": { "type": "Point", "coordinates": [ 3.8662291, 43.611239 ] } },
{ "type": "Feature", "properties": { "index": "428", "@osmId": "way/408248431", "name": "École primaire Pauline Kergomard - Charles Daviler", "opening_hours": null, "label": "Primary schools & childcare", "color": "#756bb1" }, "geometry": { "type": "Point", "coordinates": [ 3.8706542, 43.6223393 ] } },
{ "type": "Feature", "properties": { "index": "429", "@osmId": "way/449325901", "name": "Collège de l'Assomption", "opening_hours": null, "label": "Primary schools & childcare", "color": "#756bb1" }, "geometry": { "type": "Point", "coordinates": [ 3.8671556, 43.6157395 ] } },
{ "type": "Feature", "properties": { "index": "430", "@osmId": "way/427803308", "name": "Ecole maternelle Docteur Roux", "opening_hours": null, "label": "Primary schools & childcare", "color": "#756bb1" }, "geometry": { "type": "Point", "coordinates": [ 3.8620211, 43.6062179 ] } },
{ "type": "Feature", "properties": { "index": "431", "@osmId": "way/408250864", "name": "Lycée privé polyvalent Nevers", "opening_hours": null, "label": "Primary schools & childcare", "color": "#756bb1" }, "geometry": { "type": "Point", "coordinates": [ 3.8697808, 43.621053 ] } },
{ "type": "Feature", "properties": { "index": "432", "@osmId": "way/551886459", "name": "Crèche Henri-Salvador", "opening_hours": "Mo-Fr 07:30-18:30", "label": "Primary schools & childcare", "color": "#756bb1" }, "geometry": { "type": "Point", "coordinates": [ 3.8583125, 43.6119433 ] } },
{ "type": "Feature", "properties": { "index": "433", "@osmId": "way/914743811", "name": "École primaire privée Sainte-Famille - Saint-Charles", "opening_hours": null, "label": "Primary schools & childcare", "color": "#756bb1" }, "geometry": { "type": "Point", "coordinates": [ 3.8670064, 43.6063677 ] } },
{ "type": "Feature", "properties": { "index": "434", "@osmId": "way/427775821", "name": "École élémentaire Jules Verne", "opening_hours": null, "label": "Primary schools & childcare", "color": "#756bb1" }, "geometry": { "type": "Point", "coordinates": [ 3.8841677, 43.6170592 ] } },
{ "type": "Feature", "properties": { "index": "435", "@osmId": "way/427781317", "name": "École élémentaire Condorcet", "opening_hours": null, "label": "Primary schools & childcare", "color": "#756bb1" }, "geometry": { "type": "Point", "coordinates": [ 3.8742353, 43.6169848 ] } },
{ "type": "Feature", "properties": { "index": "436", "@osmId": "way/1046119053", "name": "Calandreta dau Chivalet", "opening_hours": null, "label": "Primary schools & childcare", "color": "#756bb1" }, "geometry": { "type": "Point", "coordinates": [ 3.8603554, 43.6003369 ] } },
{ "type": "Feature", "properties": { "index": "437", "@osmId": "way/449333957", "name": "Cours Notre-Dame", "opening_hours": null, "label": "Primary schools & childcare", "color": "#756bb1" }, "geometry": { "type": "Point", "coordinates": [ 3.8783872, 43.6239488 ] } },
{ "type": "Feature", "properties": { "index": "438", "@osmId": "way/509214710", "name": "École Saint-Jean Baptiste de la Salle", "opening_hours": null, "label": "Primary schools & childcare", "color": "#756bb1" }, "geometry": { "type": "Point", "coordinates": [ 3.8830607, 43.6194569 ] } },
{ "type": "Feature", "properties": { "index": "439", "@osmId": "way/1247126574", "name": "Crèche Mireille-Laget", "opening_hours": null, "label": "Primary schools & childcare", "color": "#756bb1" }, "geometry": { "type": "Point", "coordinates": [ 3.86115, 43.6032482 ] } },
{ "type": "Feature", "properties": { "index": "440", "@osmId": "way/1318068274", "name": "Ecole primaire Jeanne Moreau", "opening_hours": null, "label": "Primary schools & childcare", "color": "#756bb1" }, "geometry": { "type": "Point", "coordinates": [ 3.8614075, 43.6003734 ] } },
{ "type": "Feature", "properties": { "index": "441", "@osmId": "way/26935964", "name": "Lycée général et technologique Joffre", "opening_hours": null, "label": "Primary schools & childcare", "color": "#756bb1" }, "geometry": { "type": "Point", "coordinates": [ 3.8864352, 43.6117186 ] } },
{ "type": "Feature", "properties": { "index": "442", "@osmId": "way/664103085", "name": "Collège privé Nazareth", "opening_hours": null, "label": "Primary schools & childcare", "color": "#756bb1" }, "geometry": { "type": "Point", "coordinates": [ 3.8806178, 43.6248802 ] } },
{ "type": "Feature", "properties": { "index": "443", "@osmId": "way/1215063299", "name": "Crèche Colette Zannettacci", "opening_hours": null, "label": "Primary schools & childcare", "color": "#756bb1" }, "geometry": { "type": "Point", "coordinates": [ 3.8884735, 43.6219227 ] } },
{ "type": "Feature", "properties": { "index": "444", "@osmId": "way/27817082", "name": "Collège La Providence", "opening_hours": null, "label": "Primary schools & childcare", "color": "#756bb1" }, "geometry": { "type": "Point", "coordinates": [ 3.872516, 43.6043811 ] } },
{ "type": "Feature", "properties": { "index": "445", "@osmId": "way/1478604198", "name": "Ecole Montessori Bilingue de Montpellier", "opening_hours": null, "label": "Primary schools & childcare", "color": "#756bb1" }, "geometry": { "type": "Point", "coordinates": [ 3.8631352, 43.6011035 ] } },
{ "type": "Feature", "properties": { "index": "446", "@osmId": "way/27817529", "name": "École élémentaire Marie de Sévigné", "opening_hours": null, "label": "Primary schools & childcare", "color": "#756bb1" }, "geometry": { "type": "Point", "coordinates": [ 3.8695685, 43.6060011 ] } },
{ "type": "Feature", "properties": { "index": "447", "@osmId": "way/27817820", "name": "Lycée Georges Clemenceau", "opening_hours": null, "label": "Primary schools & childcare", "color": "#756bb1" }, "geometry": { "type": "Point", "coordinates": [ 3.8734657, 43.6023935 ] } },
{ "type": "Feature", "properties": { "index": "448", "@osmId": "way/142284401", "name": "Collège privé Saint-François d'Assise", "opening_hours": null, "label": "Primary schools & childcare", "color": "#756bb1" }, "geometry": { "type": "Point", "coordinates": [ 3.8839856, 43.6029822 ] } },
{ "type": "Feature", "properties": { "index": "449", "@osmId": "way/142284402", "name": "École primaire privée Saint-François d'Assise", "opening_hours": null, "label": "Primary schools & childcare", "color": "#756bb1" }, "geometry": { "type": "Point", "coordinates": [ 3.8839521, 43.6026067 ] } },
{ "type": "Feature", "properties": { "index": "450", "@osmId": "way/391822517", "name": "École primaire privée Saint-François-Régis", "opening_hours": null, "label": "Primary schools & childcare", "color": "#756bb1" }, "geometry": { "type": "Point", "coordinates": [ 3.8711671, 43.609578 ] } },
{ "type": "Feature", "properties": { "index": "451", "@osmId": "way/411707387", "name": "Collège Clémence Royer", "opening_hours": null, "label": "Primary schools & childcare", "color": "#756bb1" }, "geometry": { "type": "Point", "coordinates": [ 3.8758606, 43.6154365 ] } },
{ "type": "Feature", "properties": { "index": "452", "@osmId": "way/427778323", "name": "École maternelle La Fontaine", "opening_hours": null, "label": "Primary schools & childcare", "color": "#756bb1" }, "geometry": { "type": "Point", "coordinates": [ 3.8784351, 43.6154876 ] } },
{ "type": "Feature", "properties": { "index": "453", "@osmId": "way/427800275", "name": "École élémentaire Auguste Comte", "opening_hours": null, "label": "Primary schools & childcare", "color": "#756bb1" }, "geometry": { "type": "Point", "coordinates": [ 3.8683894, 43.6100953 ] } },
{ "type": "Feature", "properties": { "index": "454", "@osmId": "way/427805260", "name": "École élémentaire Marie Curie", "opening_hours": null, "label": "Primary schools & childcare", "color": "#756bb1" }, "geometry": { "type": "Point", "coordinates": [ 3.8689811, 43.6001782 ] } },
{ "type": "Feature", "properties": { "index": "455", "@osmId": "way/427806758", "name": "École maternelle Alphonse Daudet", "opening_hours": null, "label": "Primary schools & childcare", "color": "#756bb1" }, "geometry": { "type": "Point", "coordinates": [ 3.8683498, 43.600519 ] } },
{ "type": "Feature", "properties": { "index": "456", "@osmId": "way/427808539", "name": "Collège Georges Clemenceau", "opening_hours": null, "label": "Primary schools & childcare", "color": "#756bb1" }, "geometry": { "type": "Point", "coordinates": [ 3.8723768, 43.6028632 ] } },
{ "type": "Feature", "properties": { "index": "457", "@osmId": "way/427813300", "name": "École élémentaire Léon Gambetta", "opening_hours": null, "label": "Primary schools & childcare", "color": "#756bb1" }, "geometry": { "type": "Point", "coordinates": [ 3.8710077, 43.6076848 ] } },
{ "type": "Feature", "properties": { "index": "458", "@osmId": "way/427813301", "name": "École maternelle Francis Garnier", "opening_hours": null, "label": "Primary schools & childcare", "color": "#756bb1" }, "geometry": { "type": "Point", "coordinates": [ 3.8716806, 43.6077561 ] } },
{ "type": "Feature", "properties": { "index": "459", "@osmId": "way/427814229", "name": "École élémentaire Périclès", "opening_hours": null, "label": "Primary schools & childcare", "color": "#756bb1" }, "geometry": { "type": "Point", "coordinates": [ 3.8889358, 43.6087376 ] } },
{ "type": "Feature", "properties": { "index": "460", "@osmId": "way/427814230", "name": "École maternelle Aristote", "opening_hours": null, "label": "Primary schools & childcare", "color": "#756bb1" }, "geometry": { "type": "Point", "coordinates": [ 3.8884895, 43.6087665 ] } },
{ "type": "Feature", "properties": { "index": "461", "@osmId": "way/427814353", "name": "École maternelle Pasteur", "opening_hours": null, "label": "Primary schools & childcare", "color": "#756bb1" }, "geometry": { "type": "Point", "coordinates": [ 3.8734351, 43.609191 ] } },
{ "type": "Feature", "properties": { "index": "462", "@osmId": "way/427814354", "name": "École élémentaire Alphonse de Lamartine", "opening_hours": null, "label": "Primary schools & childcare", "color": "#756bb1" }, "geometry": { "type": "Point", "coordinates": [ 3.8736747, 43.6093541 ] } },
{ "type": "Feature", "properties": { "index": "463", "@osmId": "way/427818581", "name": "École élémentaire Jules Simon", "opening_hours": null, "label": "Primary schools & childcare", "color": "#756bb1" }, "geometry": { "type": "Point", "coordinates": [ 3.8859556, 43.6050962 ] } },
{ "type": "Feature", "properties": { "index": "464", "@osmId": "way/427819750", "name": "École maternelle Florian", "opening_hours": null, "label": "Primary schools & childcare", "color": "#756bb1" }, "geometry": { "type": "Point", "coordinates": [ 3.8865277, 43.6049714 ] } },
{ "type": "Feature", "properties": { "index": "465", "@osmId": "node/585199240", "name": "Crèche associative La Bambinerie", "opening_hours": null, "label": "Primary schools & childcare", "color": "#756bb1" }, "geometry": { "type": "Point", "coordinates": [ 3.8551489, 43.6115692 ] } },
{ "type": "Feature", "properties": { "index": "466", "@osmId": "node/598191190", "name": "Jardin d'enfant privé Le Petit Home", "opening_hours": null, "label": "Primary schools & childcare", "color": "#756bb1" }, "geometry": { "type": "Point", "coordinates": [ 3.8628357, 43.6158375 ] } },
{ "type": "Feature", "properties": { "index": "467", "@osmId": "node/613535562", "name": "Crèche parentale Les Moussaillons", "opening_hours": null, "label": "Primary schools & childcare", "color": "#756bb1" }, "geometry": { "type": "Point", "coordinates": [ 3.8613663, 43.6070489 ] } },
{ "type": "Feature", "properties": { "index": "468", "@osmId": "way/453786416", "name": "Lycée privé Rabelais", "opening_hours": null, "label": "Primary schools & childcare", "color": "#756bb1" }, "geometry": { "type": "Point", "coordinates": [ 3.8832582, 43.6024086 ] } },
{ "type": "Feature", "properties": { "index": "469", "@osmId": "way/457240751", "name": "Crèche associative Sucre d'Orge", "opening_hours": null, "label": "Primary schools & childcare", "color": "#756bb1" }, "geometry": { "type": "Point", "coordinates": [ 3.872015, 43.6001055 ] } },
{ "type": "Feature", "properties": { "index": "470", "@osmId": "node/1796022006", "name": "Les Ateliers d'Arthur", "opening_hours": null, "label": "Primary schools & childcare", "color": "#756bb1" }, "geometry": { "type": "Point", "coordinates": [ 3.8655309, 43.6127763 ] } },
{ "type": "Feature", "properties": { "index": "471", "@osmId": "way/483051260", "name": "Lycée privé Notre-Dame de la Merci", "opening_hours": null, "label": "Primary schools & childcare", "color": "#756bb1" }, "geometry": { "type": "Point", "coordinates": [ 3.8685491, 43.6092229 ] } },
{ "type": "Feature", "properties": { "index": "472", "@osmId": "way/524947266", "name": "Collège Joffre", "opening_hours": null, "label": "Primary schools & childcare", "color": "#756bb1" }, "geometry": { "type": "Point", "coordinates": [ 3.887818, 43.6108691 ] } },
{ "type": "Feature", "properties": { "index": "473", "@osmId": "way/667569676", "name": "Collège privé Saint-Jean-Baptiste de La Salle", "opening_hours": null, "label": "Primary schools & childcare", "color": "#756bb1" }, "geometry": { "type": "Point", "coordinates": [ 3.8800229, 43.6155093 ] } },
{ "type": "Feature", "properties": { "index": "474", "@osmId": "node/252279166", "name": "École primaire privée Saint-François-Régis", "opening_hours": null, "label": "Primary schools & childcare", "color": "#756bb1" }, "geometry": { "type": "Point", "coordinates": [ 3.8715928, 43.6087253 ] } },
{ "type": "Feature", "properties": { "index": "475", "@osmId": "way/715180313", "name": "Escòla Calandreta Candòla", "opening_hours": null, "label": "Primary schools & childcare", "color": "#756bb1" }, "geometry": { "type": "Point", "coordinates": [ 3.8753472, 43.6122987 ] } },
{ "type": "Feature", "properties": { "index": "476", "@osmId": "node/585171936", "name": "Crèche La Gerbe", "opening_hours": null, "label": "Primary schools & childcare", "color": "#756bb1" }, "geometry": { "type": "Point", "coordinates": [ 3.8706532, 43.6052469 ] } },
{ "type": "Feature", "properties": { "index": "477", "@osmId": "node/585173372", "name": "Crèche collective municipale Antigone", "opening_hours": null, "label": "Primary schools & childcare", "color": "#756bb1" }, "geometry": { "type": "Point", "coordinates": [ 3.8845815, 43.6072273 ] } },
{ "type": "Feature", "properties": { "index": "478", "@osmId": "node/585182991", "name": "Crèche collective municipale Les Sept Nains", "opening_hours": null, "label": "Primary schools & childcare", "color": "#756bb1" }, "geometry": { "type": "Point", "coordinates": [ 3.8795472, 43.6142035 ] } },
{ "type": "Feature", "properties": { "index": "479", "@osmId": "node/585201019", "name": "Crèche associative Ricochet", "opening_hours": null, "label": "Primary schools & childcare", "color": "#756bb1" }, "geometry": { "type": "Point", "coordinates": [ 3.9012512, 43.6181211 ] } },
{ "type": "Feature", "properties": { "index": "480", "@osmId": "node/585203689", "name": "Halte-garderie municipale La Coupole", "opening_hours": null, "label": "Primary schools & childcare", "color": "#756bb1" }, "geometry": { "type": "Point", "coordinates": [ 3.8909382, 43.6077742 ] } },
{ "type": "Feature", "properties": { "index": "481", "@osmId": "way/1168908948", "name": "École primaire Pierre et Colette Soulages", "opening_hours": null, "label": "Primary schools & childcare", "color": "#756bb1" }, "geometry": { "type": "Point", "coordinates": [ 3.874684, 43.6132512 ] } },
{ "type": "Feature", "properties": { "index": "482", "@osmId": "node/595252160", "name": "Jardin d'enfants municipal Les Boutons d'Or", "opening_hours": null, "label": "Primary schools & childcare", "color": "#756bb1" }, "geometry": { "type": "Point", "coordinates": [ 3.8884756, 43.6220277 ] } },
{ "type": "Feature", "properties": { "index": "483", "@osmId": "node/595256929", "name": "Crèche associative Accroche Cœur", "opening_hours": null, "label": "Primary schools & childcare", "color": "#756bb1" }, "geometry": { "type": "Point", "coordinates": [ 3.8821147, 43.6176873 ] } },
{ "type": "Feature", "properties": { "index": "484", "@osmId": "way/1395717285", "name": "École primaire Jules Isaac - Sophie Scholl", "opening_hours": null, "label": "Primary schools & childcare", "color": "#756bb1" }, "geometry": { "type": "Point", "coordinates": [ 3.8764103, 43.6004173 ] } },
{ "type": "Feature", "properties": { "index": "485", "@osmId": "node/600742273", "name": "École primaire Notre-Dame de Bonne-Nouvelle", "opening_hours": null, "label": "Primary schools & childcare", "color": "#756bb1" }, "geometry": { "type": "Point", "coordinates": [ 3.8811091, 43.6070596 ] } },
{ "type": "Feature", "properties": { "index": "486", "@osmId": "node/607355557", "name": "Crèche municipale Edelweiss", "opening_hours": null, "label": "Primary schools & childcare", "color": "#756bb1" }, "geometry": { "type": "Point", "coordinates": [ 3.880709, 43.6034665 ] } },
{ "type": "Feature", "properties": { "index": "487", "@osmId": "node/608113364", "name": "Lieu de rencontre parents-enfants Le Baobab", "opening_hours": null, "label": "Primary schools & childcare", "color": "#756bb1" }, "geometry": { "type": "Point", "coordinates": [ 3.8901515, 43.6159641 ] } },
{ "type": "Feature", "properties": { "index": "488", "@osmId": "node/617718152", "name": "Lieu de rencontre parents-enfants Doudou partage", "opening_hours": null, "label": "Primary schools & childcare", "color": "#756bb1" }, "geometry": { "type": "Point", "coordinates": [ 3.8939905, 43.6189235 ] } },
{ "type": "Feature", "properties": { "index": "489", "@osmId": "node/621896482", "name": "Crèche associative Coste Belle", "opening_hours": null, "label": "Primary schools & childcare", "color": "#756bb1" }, "geometry": { "type": "Point", "coordinates": [ 3.9041301, 43.6106339 ] } },
{ "type": "Feature", "properties": { "index": "490", "@osmId": "node/629020994", "name": "Lieu de rencontre parents-enfants Le Baobab", "opening_hours": null, "label": "Primary schools & childcare", "color": "#756bb1" }, "geometry": { "type": "Point", "coordinates": [ 3.8876144, 43.6087716 ] } },
{ "type": "Feature", "properties": { "index": "491", "@osmId": "node/629025208", "name": "Lieu de rencontre parents-enfants Montpellier Gambetta", "opening_hours": null, "label": "Primary schools & childcare", "color": "#756bb1" }, "geometry": { "type": "Point", "coordinates": [ 3.8735178, 43.6056122 ] } },
{ "type": "Feature", "properties": { "index": "492", "@osmId": "node/1383155515", "name": "Collège privé Saint-François-Régis", "opening_hours": null, "label": "Primary schools & childcare", "color": "#756bb1" }, "geometry": { "type": "Point", "coordinates": [ 3.8718481, 43.608848 ] } },
{ "type": "Feature", "properties": { "index": "493", "@osmId": "node/1386082318", "name": "Crèche Babilou Saint Jaumes", "opening_hours": null, "label": "Primary schools & childcare", "color": "#756bb1" }, "geometry": { "type": "Point", "coordinates": [ 3.8685024, 43.6169005 ] } },
{ "type": "Feature", "properties": { "index": "494", "@osmId": "node/1600986873", "name": "Crèche Pinocchio", "opening_hours": null, "label": "Primary schools & childcare", "color": "#756bb1" }, "geometry": { "type": "Point", "coordinates": [ 3.878468, 43.6173132 ] } },
{ "type": "Feature", "properties": { "index": "495", "@osmId": "node/1623987098", "name": "Crèche municipale Cléonice Pouzin", "opening_hours": null, "label": "Primary schools & childcare", "color": "#756bb1" }, "geometry": { "type": "Point", "coordinates": [ 3.8817711, 43.6184205 ] } },
{ "type": "Feature", "properties": { "index": "496", "@osmId": "node/1723080244", "name": "Groupe ETEC", "opening_hours": null, "label": "Primary schools & childcare", "color": "#756bb1" }, "geometry": { "type": "Point", "coordinates": [ 3.8850949, 43.6061868 ] } },
{ "type": "Feature", "properties": { "index": "497", "@osmId": "node/3234426472", "name": "Section d'enseignement professionnel du Lycée privé Nevers", "opening_hours": null, "label": "Primary schools & childcare", "color": "#756bb1" }, "geometry": { "type": "Point", "coordinates": [ 3.8701367, 43.6210292 ] } },
{ "type": "Feature", "properties": { "index": "498", "@osmId": "node/3298464261", "name": "École primaire privée la Tour des Pins", "opening_hours": null, "label": "Primary schools & childcare", "color": "#756bb1" }, "geometry": { "type": "Point", "coordinates": [ 3.8801446, 43.6130014 ] } },
{ "type": "Feature", "properties": { "index": "499", "@osmId": "node/3392926996", "name": "Cours PI / Operation Bilingue", "opening_hours": null, "label": "Primary schools & childcare", "color": "#756bb1" }, "geometry": { "type": "Point", "coordinates": [ 3.8739686, 43.6041294 ] } },
{ "type": "Feature", "properties": { "index": "500", "@osmId": "node/4466392107", "name": "Crèche associative L'Arbre à Chouette", "opening_hours": null, "label": "Primary schools & childcare", "color": "#756bb1" }, "geometry": { "type": "Point", "coordinates": [ 3.88893, 43.6235459 ] } },
{ "type": "Feature", "properties": { "index": "501", "@osmId": "node/4492782249", "name": "École d'Adaptation Centre APAJ", "opening_hours": null, "label": "Primary schools & childcare", "color": "#756bb1" }, "geometry": { "type": "Point", "coordinates": [ 3.8711301, 43.6052363 ] } },
{ "type": "Feature", "properties": { "index": "502", "@osmId": "node/4504038738", "name": "Pôle Sup", "opening_hours": null, "label": "Primary schools & childcare", "color": "#756bb1" }, "geometry": { "type": "Point", "coordinates": [ 3.8763119, 43.6084098 ] } },
{ "type": "Feature", "properties": { "index": "503", "@osmId": "node/4504148403", "name": "École Technique Privée Esthétique Giorgifont", "opening_hours": null, "label": "Primary schools & childcare", "color": "#756bb1" }, "geometry": { "type": "Point", "coordinates": [ 3.878178, 43.6050475 ] } },
{ "type": "Feature", "properties": { "index": "504", "@osmId": "node/4504148404", "name": "École Technique Privée Duclaux", "opening_hours": null, "label": "Primary schools & childcare", "color": "#756bb1" }, "geometry": { "type": "Point", "coordinates": [ 3.8741763, 43.6050241 ] } },
{ "type": "Feature", "properties": { "index": "505", "@osmId": "node/4504148447", "name": "École secondaire privée Notre-Dame", "opening_hours": null, "label": "Primary schools & childcare", "color": "#756bb1" }, "geometry": { "type": "Point", "coordinates": [ 3.8789658, 43.6238838 ] } },
{ "type": "Feature", "properties": { "index": "506", "@osmId": "node/4504740662", "name": "École du second degré professionnelle privée Adonis", "opening_hours": null, "label": "Primary schools & childcare", "color": "#756bb1" }, "geometry": { "type": "Point", "coordinates": [ 3.8789092, 43.6066818 ] } },
{ "type": "Feature", "properties": { "index": "507", "@osmId": "node/4539385901", "name": "Halte-garderie L'île aux trésors", "opening_hours": null, "label": "Primary schools & childcare", "color": "#756bb1" }, "geometry": { "type": "Point", "coordinates": [ 3.8784883, 43.6174016 ] } },
{ "type": "Feature", "properties": { "index": "508", "@osmId": "node/4539394349", "name": "Crèche associative Les Enfantines", "opening_hours": null, "label": "Primary schools & childcare", "color": "#756bb1" }, "geometry": { "type": "Point", "coordinates": [ 3.9002873, 43.6193119 ] } },
{ "type": "Feature", "properties": { "index": "509", "@osmId": "node/6282972148", "name": "CVH", "opening_hours": null, "label": "Primary schools & childcare", "color": "#756bb1" }, "geometry": { "type": "Point", "coordinates": [ 3.886944, 43.6058368 ] } },
{ "type": "Feature", "properties": { "index": "510", "@osmId": "node/7111746585", "name": "Alliance French De Montpellier", "opening_hours": "Mo-Fr 10:00-17:00", "label": "Primary schools & childcare", "color": "#756bb1" }, "geometry": { "type": "Point", "coordinates": [ 3.8725827, 43.6066693 ] } },
{ "type": "Feature", "properties": { "index": "511", "@osmId": "node/8165547264", "name": "École Régionale de la 2e chance", "opening_hours": "Mo-Fr 08:30-17:00", "label": "Primary schools & childcare", "color": "#756bb1" }, "geometry": { "type": "Point", "coordinates": [ 3.9032475, 43.6022008 ] } },
{ "type": "Feature", "properties": { "index": "512", "@osmId": "node/13794928901", "name": "Section d'enseignement professionnel du Lycée Jean Mermoz", "opening_hours": null, "label": "Primary schools & childcare", "color": "#756bb1" }, "geometry": { "type": "Point", "coordinates": [ 3.8909908, 43.6117691 ] } },
{ "type": "Feature", "properties": { "index": "513", "@osmId": "node/13813018102", "name": "Section d'enseignement général et professionnel adapté du collège privé Nazareth", "opening_hours": null, "label": "Primary schools & childcare", "color": "#756bb1" }, "geometry": { "type": "Point", "coordinates": [ 3.8803907, 43.6245258 ] } }
]
}
