{
"type": "FeatureCollection",
"features": [
{ "type": "Feature", "properties": { "index": "514", "@osmId": "way/76182551", "name": "Crédit Agricole", "opening_hours": null, "label": "Post & banking", "color": "#3182bd" }, "geometry": { "type": "Point", "coordinates": [ 3.8989496, 43.6105897 ] } },
{ "type": "Feature", "properties": { "index": "515", "@osmId": "way/60319315", "name": "Banque Populaire", "opening_hours": "Mo-We 09:00-12:30,13:30-17:30; Th 09:00-12:30,15:00-17:30; Fr 09:00-12:30,13:30-17:30", "label": "Post & banking", "color": "#3182bd" }, "geometry": { "type": "Point", "coordinates": [ 3.8831631, 43.6152801 ] } },
{ "type": "Feature", "properties": { "index": "516", "@osmId": "way/75397001", "name": "Poste Rondelet", "opening_hours": "Mo-We,Fr 09:00-18:00, Th 09:00-12:00,14:00-18:00, Sa 09:00-12:30", "label": "Post & banking", "color": "#3182bd" }, "geometry": { "type": "Point", "coordinates": [ 3.8754624, 43.6038937 ] } },
{ "type": "Feature", "properties": { "index": "517", "@osmId": "node/310242782", "name": "Montpellier Les Arceaux", "opening_hours": "closed", "label": "Post & banking", "color": "#3182bd" }, "geometry": { "type": "Point", "coordinates": [ 3.8667032, 43.611137 ] } },
{ "type": "Feature", "properties": { "index": "518", "@osmId": "node/310242791", "name": "Caisse d'Épargne", "opening_hours": "Tu-Fr 08:15-12:15; Sa 08:30-12:30", "label": "Post & banking", "color": "#3182bd" }, "geometry": { "type": "Point", "coordinates": [ 3.8664084, 43.6120244 ] } },
{ "type": "Feature", "properties": { "index": "519", "@osmId": "node/674061441", "name": "Banque Populaire", "opening_hours": null, "label": "Post & banking", "color": "#3182bd" }, "geometry": { "type": "Point", "coordinates": [ 3.8647484, 43.6120998 ] } },
{ "type": "Feature", "properties": { "index": "520", "@osmId": "node/674061451", "name": "Société Générale", "opening_hours": "Tu-Fr 08:45-12:30; Sa 08:45-13:00", "label": "Post & banking", "color": "#3182bd" }, "geometry": { "type": "Point", "coordinates": [ 3.867074, 43.6131946 ] } },
{ "type": "Feature", "properties": { "index": "521", "@osmId": "node/674061465", "name": "Crédit Agricole", "opening_hours": null, "label": "Post & banking", "color": "#3182bd" }, "geometry": { "type": "Point", "coordinates": [ 3.8666997, 43.6123742 ] } },
{ "type": "Feature", "properties": { "index": "522", "@osmId": "node/674061489", "name": "Banque Dupuy de Parseval", "opening_hours": "Mo-Fr 08:30-12:00, Mo-We,Fr 13:00-17:00, Th 14:30-17:00", "label": "Post & banking", "color": "#3182bd" }, "geometry": { "type": "Point", "coordinates": [ 3.8670776, 43.6126167 ] } },
{ "type": "Feature", "properties": { "index": "523", "@osmId": "node/674061490", "name": "Crédit Mutuel", "opening_hours": null, "label": "Post & banking", "color": "#3182bd" }, "geometry": { "type": "Point", "coordinates": [ 3.8671828, 43.6127161 ] } },
{ "type": "Feature", "properties": { "index": "524", "@osmId": "node/674061497", "name": "Crédit Agricole", "opening_hours": "Mo-We 09:00-12:00,13:00-17:30; Th 09:15-12:00,13:00-17:30; Fr 09:00-12:00,13:30-17:30", "label": "Post & banking", "color": "#3182bd" }, "geometry": { "type": "Point", "coordinates": [ 3.8669047, 43.6123885 ] } },
{ "type": "Feature", "properties": { "index": "525", "@osmId": "node/1873021873", "name": "Société Marseillaise de Crédit", "opening_hours": null, "label": "Post & banking", "color": "#3182bd" }, "geometry": { "type": "Point", "coordinates": [ 3.8654953, 43.6192691 ] } },
{ "type": "Feature", "properties": { "index": "526", "@osmId": "node/59973524", "name": "Montpellier Prefecture", "opening_hours": "Mo-Fr 09:00-18:00; Sa 09:00-12:00; PH off", "label": "Post & banking", "color": "#3182bd" }, "geometry": { "type": "Point", "coordinates": [ 3.8771385, 43.610861 ] } },
{ "type": "Feature", "properties": { "index": "527", "@osmId": "node/126674143", "name": "BNP Paribas", "opening_hours": null, "label": "Post & banking", "color": "#3182bd" }, "geometry": { "type": "Point", "coordinates": [ 3.8683939, 43.6223399 ] } },
{ "type": "Feature", "properties": { "index": "528", "@osmId": "node/280697222", "name": "Montpellier Antigone", "opening_hours": "Mo-Fr 09:00-12:30,13:30-18:00; Th 09:00-12:00,14:00-18:00; Sa 09:00-12:30", "label": "Post & banking", "color": "#3182bd" }, "geometry": { "type": "Point", "coordinates": [ 3.8906164, 43.6074852 ] } },
{ "type": "Feature", "properties": { "index": "529", "@osmId": "node/280720140", "name": "Crédit Agricole", "opening_hours": "Mo-We 08:30-12:15,13:45-17:30; Th 09:15-12:15,13:45-17:30; Fr 08:30-12:15,13:45-17:30", "label": "Post & banking", "color": "#3182bd" }, "geometry": { "type": "Point", "coordinates": [ 3.8912203, 43.6068564 ] } },
{ "type": "Feature", "properties": { "index": "530", "@osmId": "node/280720141", "name": "Banque Populaire", "opening_hours": null, "label": "Post & banking", "color": "#3182bd" }, "geometry": { "type": "Point", "coordinates": [ 3.8982182, 43.6064721 ] } },
{ "type": "Feature", "properties": { "index": "531", "@osmId": "node/280942120", "name": "Société Générale", "opening_hours": "Tu-Fr 08:45-12:30,13:45-17:45; Sa 08:45-13:00", "label": "Post & banking", "color": "#3182bd" }, "geometry": { "type": "Point", "coordinates": [ 3.9003257, 43.6025529 ] } },
{ "type": "Feature", "properties": { "index": "532", "@osmId": "node/280942139", "name": "Montpellier Port Marianne", "opening_hours": "Mo-Fr 09:00-12:30,14:00-17:30; Sa 09:00-12:00; PH off", "label": "Post & banking", "color": "#3182bd" }, "geometry": { "type": "Point", "coordinates": [ 3.9000278, 43.6021205 ] } },
{ "type": "Feature", "properties": { "index": "533", "@osmId": "node/299982520", "name": "CIC", "opening_hours": null, "label": "Post & banking", "color": "#3182bd" }, "geometry": { "type": "Point", "coordinates": [ 3.8798259, 43.6089364 ] } },
{ "type": "Feature", "properties": { "index": "534", "@osmId": "node/598980556", "name": "Montpellier Beaux Arts", "opening_hours": "Mo, Th-Fr 09:00-12:00, 14:00-17:00; We, Sa 09:00-12:00; Tu 09:00-12:00, 14:30-17:00", "label": "Post & banking", "color": "#3182bd" }, "geometry": { "type": "Point", "coordinates": [ 3.8812248, 43.6172458 ] } },
{ "type": "Feature", "properties": { "index": "535", "@osmId": "node/599002151", "name": "Crédit Agricole", "opening_hours": "Tu-We 08:30-12:30,13:45-18:00; Th 09:15-12:30,13:45-18:00; Fr 08:30-12:30,13:45-18:00; Sa 08:30-13:00", "label": "Post & banking", "color": "#3182bd" }, "geometry": { "type": "Point", "coordinates": [ 3.8757303, 43.6064137 ] } },
{ "type": "Feature", "properties": { "index": "536", "@osmId": "node/599005992", "name": "Banque Populaire", "opening_hours": null, "label": "Post & banking", "color": "#3182bd" }, "geometry": { "type": "Point", "coordinates": [ 3.8805308, 43.6086738 ] } },
{ "type": "Feature", "properties": { "index": "537", "@osmId": "node/635868411", "name": "Caisse d'Épargne", "opening_hours": "Tu,We,Fr 08:45-12:45,14:00-18:00; Th 08:45-12:45,15:00-18:00; Sa 09:00-13:00", "label": "Post & banking", "color": "#3182bd" }, "geometry": { "type": "Point", "coordinates": [ 3.8764566, 43.610497 ] } },
{ "type": "Feature", "properties": { "index": "538", "@osmId": "node/635868825", "name": "BNP Paribas", "opening_hours": null, "label": "Post & banking", "color": "#3182bd" }, "geometry": { "type": "Point", "coordinates": [ 3.8763855, 43.6104022 ] } },
{ "type": "Feature", "properties": { "index": "539", "@osmId": "node/635869535", "name": "Crédit Agricole", "opening_hours": "Tu-We 08:30-12:30,13:45-18:00; Th 09:15-12:30,13:45-18:00; Fr 08:30-12:30,13:45-18:00; Sa 08:30-13:00", "label": "Post & banking", "color": "#3182bd" }, "geometry": { "type": "Point", "coordinates": [ 3.8823127, 43.6088829 ] } },
{ "type": "Feature", "properties": { "index": "540", "@osmId": "node/660247253", "name": "Crédit municipal", "opening_hours": "Mo,We-Fr 09:10-16:45; Tu 09:10-16:00", "label": "Post & banking", "color": "#3182bd" }, "geometry": { "type": "Point", "coordinates": [ 3.871009, 43.6026235 ] } },
{ "type": "Feature", "properties": { "index": "541", "@osmId": "node/664050650", "name": "Crédit Agricole", "opening_hours": "Tu,We,Fr 08:30-12:00, Tu-Fr 13:45-18:00; Th 09:15-12:00; Sa 08:30-12:45", "label": "Post & banking", "color": "#3182bd" }, "geometry": { "type": "Point", "coordinates": [ 3.869136, 43.6086245 ] } },
{ "type": "Feature", "properties": { "index": "542", "@osmId": "node/712099792", "name": "Palatine", "opening_hours": "Mo-Fr 08:45-12:30,13:45-17:30", "label": "Post & banking", "color": "#3182bd" }, "geometry": { "type": "Point", "coordinates": [ 3.8747222, 43.6108716 ] } },
{ "type": "Feature", "properties": { "index": "543", "@osmId": "node/1623990647", "name": "Mail Boxes Etc", "opening_hours": "Mo-Fr 09:30-19:00", "label": "Post & banking", "color": "#3182bd" }, "geometry": { "type": "Point", "coordinates": [ 3.8836081, 43.6155528 ] } },
{ "type": "Feature", "properties": { "index": "544", "@osmId": "node/1666876695", "name": "Banque Courtois", "opening_hours": null, "label": "Post & banking", "color": "#3182bd" }, "geometry": { "type": "Point", "coordinates": [ 3.8793721, 43.6077087 ] } },
{ "type": "Feature", "properties": { "index": "545", "@osmId": "node/1666880206", "name": "LCL", "opening_hours": "Mo-Fr 08:30-17:15", "label": "Post & banking", "color": "#3182bd" }, "geometry": { "type": "Point", "coordinates": [ 3.8787912, 43.6073377 ] } },
{ "type": "Feature", "properties": { "index": "546", "@osmId": "node/1702666795", "name": "Banque Populaire", "opening_hours": "Tu-Fr 09:00-13:30,14:30-18:00; Sa 08:30-12:45", "label": "Post & banking", "color": "#3182bd" }, "geometry": { "type": "Point", "coordinates": [ 3.8975958, 43.6005824 ] } },
{ "type": "Feature", "properties": { "index": "547", "@osmId": "node/1702679437", "name": "Banque Dupuy de Parseval", "opening_hours": "Mo-We,Fr 08:30-12:00,13:30-17:20; Th 08:30-12:00,15:00-17:20", "label": "Post & banking", "color": "#3182bd" }, "geometry": { "type": "Point", "coordinates": [ 3.8984269, 43.6080262 ] } },
{ "type": "Feature", "properties": { "index": "548", "@osmId": "node/1704447926", "name": null, "opening_hours": null, "label": "Post & banking", "color": "#3182bd" }, "geometry": { "type": "Point", "coordinates": [ 3.8875197, 43.6087494 ] } },
{ "type": "Feature", "properties": { "index": "549", "@osmId": "node/1711438582", "name": "Crédit Social des Fonctionnaires", "opening_hours": null, "label": "Post & banking", "color": "#3182bd" }, "geometry": { "type": "Point", "coordinates": [ 3.8874388, 43.6076406 ] } },
{ "type": "Feature", "properties": { "index": "550", "@osmId": "node/1718627293", "name": "BNP Paribas", "opening_hours": "Tu-Fr 08:15-12:30,13:45-17:30; Sa 09:00-12:30", "label": "Post & banking", "color": "#3182bd" }, "geometry": { "type": "Point", "coordinates": [ 3.8984664, 43.6015537 ] } },
{ "type": "Feature", "properties": { "index": "551", "@osmId": "node/1718627314", "name": "Crédit Mutuel", "opening_hours": "Tu-Fr 08:30-12:30, Tu 14:15-17:25, We-Fr 13:30-17:25; Sa 08:30-12:15", "label": "Post & banking", "color": "#3182bd" }, "geometry": { "type": "Point", "coordinates": [ 3.8999264, 43.6019368 ] } },
{ "type": "Feature", "properties": { "index": "552", "@osmId": "node/1718627320", "name": "Caisse d'Épargne", "opening_hours": "Tu-Sa 08:30-12:15,13:30-17:45", "label": "Post & banking", "color": "#3182bd" }, "geometry": { "type": "Point", "coordinates": [ 3.8990938, 43.6019993 ] } },
{ "type": "Feature", "properties": { "index": "553", "@osmId": "node/1718627323", "name": "CIC", "opening_hours": "Mo-Fr 09:00-12:30, Mo-Th 14:00-18:00, Fr 14:00-17:30", "label": "Post & banking", "color": "#3182bd" }, "geometry": { "type": "Point", "coordinates": [ 3.9001708, 43.6023933 ] } },
{ "type": "Feature", "properties": { "index": "554", "@osmId": "node/1739592791", "name": "CIC", "opening_hours": null, "label": "Post & banking", "color": "#3182bd" }, "geometry": { "type": "Point", "coordinates": [ 3.8896632, 43.6057074 ] } },
{ "type": "Feature", "properties": { "index": "555", "@osmId": "node/1934973229", "name": "Crédit Mutuel", "opening_hours": "Tu-Fr 08:25-12:30, We-Fr 13:30-17:30, Sa 08:45-11:50, Tu 13:30-17:00", "label": "Post & banking", "color": "#3182bd" }, "geometry": { "type": "Point", "coordinates": [ 3.8923733, 43.6085734 ] } },
{ "type": "Feature", "properties": { "index": "556", "@osmId": "node/1983129956", "name": "CIC", "opening_hours": "Mo-Fr 08:45-12:30,13:30-18:00; Sa 08:30-12:30", "label": "Post & banking", "color": "#3182bd" }, "geometry": { "type": "Point", "coordinates": [ 3.8674025, 43.6000552 ] } },
{ "type": "Feature", "properties": { "index": "557", "@osmId": "node/2463915402", "name": "Caisse d'Épargne", "opening_hours": "Tu,We,Fr 08:30-12:15,13:30-17:45; Th 08:30-12:15,14:30-17:45; Sa 08:30-12:30", "label": "Post & banking", "color": "#3182bd" }, "geometry": { "type": "Point", "coordinates": [ 3.8973286, 43.6208636 ] } },
{ "type": "Feature", "properties": { "index": "558", "@osmId": "node/2742299583", "name": "Louvre banque privée", "opening_hours": null, "label": "Post & banking", "color": "#3182bd" }, "geometry": { "type": "Point", "coordinates": [ 3.8761588, 43.6067814 ] } },
{ "type": "Feature", "properties": { "index": "559", "@osmId": "node/2793007453", "name": "Crédit Immobilier de France", "opening_hours": null, "label": "Post & banking", "color": "#3182bd" }, "geometry": { "type": "Point", "coordinates": [ 3.9008398, 43.6013273 ] } },
{ "type": "Feature", "properties": { "index": "560", "@osmId": "node/2793007455", "name": "CCF", "opening_hours": null, "label": "Post & banking", "color": "#3182bd" }, "geometry": { "type": "Point", "coordinates": [ 3.9011425, 43.601124 ] } },
{ "type": "Feature", "properties": { "index": "561", "@osmId": "node/3039285522", "name": "LCL", "opening_hours": null, "label": "Post & banking", "color": "#3182bd" }, "geometry": { "type": "Point", "coordinates": [ 3.8826352, 43.6088324 ] } },
{ "type": "Feature", "properties": { "index": "562", "@osmId": "node/4314401500", "name": "LCL", "opening_hours": null, "label": "Post & banking", "color": "#3182bd" }, "geometry": { "type": "Point", "coordinates": [ 3.8762788, 43.6106407 ] } },
{ "type": "Feature", "properties": { "index": "563", "@osmId": "node/5747891345", "name": "Crédit Agricole", "opening_hours": "Mo-We 09:00-12:00,13:00-17:30; Th 09:15-12:00,13:00-17:30; Fr 09:00-12:00,13:30-17:30", "label": "Post & banking", "color": "#3182bd" }, "geometry": { "type": "Point", "coordinates": [ 3.87614, 43.6109802 ] } },
{ "type": "Feature", "properties": { "index": "564", "@osmId": "node/7500159567", "name": "La Poste", "opening_hours": "Mo,We-Fr 09:00-12:30,14:00-17:30; Tu 09:00-12:00,15:00-17:30; Sa 09:00-12:30; PH off; 2024 May 20 off", "label": "Post & banking", "color": "#3182bd" }, "geometry": { "type": "Point", "coordinates": [ 3.8975225, 43.618068 ] } },
{ "type": "Feature", "properties": { "index": "565", "@osmId": "node/8118620635", "name": "Relais Poste", "opening_hours": "Mo-Fr 08:00-14:30,15:30-19:30; PH off", "label": "Post & banking", "color": "#3182bd" }, "geometry": { "type": "Point", "coordinates": [ 3.8747104, 43.6152413 ] } },
{ "type": "Feature", "properties": { "index": "566", "@osmId": "node/10911297517", "name": "Caisse d'Épargne", "opening_hours": "Mo-Sa 08:30-17:45", "label": "Post & banking", "color": "#3182bd" }, "geometry": { "type": "Point", "coordinates": [ 3.8783388, 43.607335 ] } },
{ "type": "Feature", "properties": { "index": "567", "@osmId": "node/12704831262", "name": "Banque Populaire", "opening_hours": "Mo-We,Fr 09:00-12:30,13:30-17:30; Th 09:00-12:30,15:00-17:30", "label": "Post & banking", "color": "#3182bd" }, "geometry": { "type": "Point", "coordinates": [ 3.8745676, 43.6071555 ] } },
{ "type": "Feature", "properties": { "index": "568", "@osmId": "node/12829877035", "name": "Banque Dupuy de Parseval", "opening_hours": null, "label": "Post & banking", "color": "#3182bd" }, "geometry": { "type": "Point", "coordinates": [ 3.8785407, 43.6070726 ] } },
{ "type": "Feature", "properties": { "index": "569", "@osmId": "node/13442280101", "name": "Chaabi Bank", "opening_hours": null, "label": "Post & banking", "color": "#3182bd" }, "geometry": { "type": "Point", "coordinates": [ 3.8728696, 43.6062927 ] } }
]
}
