{
"type": "FeatureCollection",
"features": [
{ "type": "Feature", "properties": { "index": "0", "@osmId": "way/76170549", "name": "Yukima", "opening_hours": null, "label": "Food shops", "color": "#31a354" }, "geometry": { "type": "Point", "coordinates": [ 3.9047125, 43.6061741 ] } },
{ "type": "Feature", "properties": { "index": "1", "@osmId": "way/75842185", "name": "Point Chaud", "opening_hours": null, "label": "Food shops", "color": "#31a354" }, "geometry": { "type": "Point", "coordinates": [ 3.8605345, 43.6054876 ] } },
{ "type": "Feature", "properties": { "index": "2", "@osmId": "way/838457089", "name": "Super U", "opening_hours": "Mo-Sa 08:30 - 20:30; su 08:30 - 12:30", "label": "Food shops", "color": "#31a354" }, "geometry": { "type": "Point", "coordinates": [ 3.8992427, 43.6224722 ] } },
{ "type": "Feature", "properties": { "index": "3", "@osmId": "way/511951799", "name": "Carrefour Market", "opening_hours": "Mo-Sa 08:30-20:30; Su 09:00-12:30", "label": "Food shops", "color": "#31a354" }, "geometry": { "type": "Point", "coordinates": [ 3.9007904, 43.6008045 ] } },
{ "type": "Feature", "properties": { "index": "4", "@osmId": "way/838457090", "name": "Carrefour City Montpellier Soulas", "opening_hours": "Mo-Sa 07:00-22:00; Su 09:00-14:00", "label": "Food shops", "color": "#31a354" }, "geometry": { "type": "Point", "coordinates": [ 3.8550676, 43.6224316 ] } },
{ "type": "Feature", "properties": { "index": "5", "@osmId": "way/512046941", "name": "Lidl", "opening_hours": "Mo-Sa 08:30-20:00; Su 08:30-12:30", "label": "Food shops", "color": "#31a354" }, "geometry": { "type": "Point", "coordinates": [ 3.8899126, 43.6033471 ] } },
{ "type": "Feature", "properties": { "index": "6", "@osmId": "way/52489711", "name": "Aux Produits de l'Aveyron", "opening_hours": "Mo-Sa 08:00-19:30", "label": "Food shops", "color": "#31a354" }, "geometry": { "type": "Point", "coordinates": [ 3.8842528, 43.6149672 ] } },
{ "type": "Feature", "properties": { "index": "7", "@osmId": "way/52490720", "name": "Boulangerie Pâtisserie Frézal", "opening_hours": "Tu-Sa 07:00-13:00,16:00-19:00; Su 07:00-13:00", "label": "Food shops", "color": "#31a354" }, "geometry": { "type": "Point", "coordinates": [ 3.885093, 43.615399 ] } },
{ "type": "Feature", "properties": { "index": "8", "@osmId": "way/75130633", "name": "Boucherie Antigone", "opening_hours": null, "label": "Food shops", "color": "#31a354" }, "geometry": { "type": "Point", "coordinates": [ 3.8865278, 43.6071955 ] } },
{ "type": "Feature", "properties": { "index": "9", "@osmId": "way/401412541", "name": "Paul", "opening_hours": "Mo-Sa 05:15-20:00; Su 06:30-20:00", "label": "Food shops", "color": "#31a354" }, "geometry": { "type": "Point", "coordinates": [ 3.8799737, 43.6040932 ] } },
{ "type": "Feature", "properties": { "index": "10", "@osmId": "way/473049826", "name": "Monoprix", "opening_hours": null, "label": "Food shops", "color": "#31a354" }, "geometry": { "type": "Point", "coordinates": [ 3.8839208, 43.6086156 ] } },
{ "type": "Feature", "properties": { "index": "11", "@osmId": "way/473049827", "name": "Paul", "opening_hours": null, "label": "Food shops", "color": "#31a354" }, "geometry": { "type": "Point", "coordinates": [ 3.88426, 43.6087738 ] } },
{ "type": "Feature", "properties": { "index": "12", "@osmId": "way/479455445", "name": "Waffle Factory", "opening_hours": null, "label": "Food shops", "color": "#31a354" }, "geometry": { "type": "Point", "coordinates": [ 3.8844741, 43.6086354 ] } },
{ "type": "Feature", "properties": { "index": "13", "@osmId": "way/485065171", "name": "Monoprix", "opening_hours": "Mo-Sa 08:30-21:15;Su off", "label": "Food shops", "color": "#31a354" }, "geometry": { "type": "Point", "coordinates": [ 3.8839202, 43.6083933 ] } },
{ "type": "Feature", "properties": { "index": "14", "@osmId": "way/485065174", "name": "Paul", "opening_hours": null, "label": "Food shops", "color": "#31a354" }, "geometry": { "type": "Point", "coordinates": [ 3.8838891, 43.608589 ] } },
{ "type": "Feature", "properties": { "index": "15", "@osmId": "way/512055312", "name": "Carrefour City", "opening_hours": "Mo-Sa 07:00-21:00; Su 09:00-13:00", "label": "Food shops", "color": "#31a354" }, "geometry": { "type": "Point", "coordinates": [ 3.8725429, 43.6058471 ] } },
{ "type": "Feature", "properties": { "index": "16", "@osmId": "way/512055315", "name": "Lidl", "opening_hours": "Mo-Sa 08:30-20:00; Su 08:30-12:30", "label": "Food shops", "color": "#31a354" }, "geometry": { "type": "Point", "coordinates": [ 3.8689558, 43.602278 ] } },
{ "type": "Feature", "properties": { "index": "17", "@osmId": "way/512224303", "name": "Monoprix", "opening_hours": "08:00-22:00", "label": "Food shops", "color": "#31a354" }, "geometry": { "type": "Point", "coordinates": [ 3.8797799, 43.6079463 ] } },
{ "type": "Feature", "properties": { "index": "18", "@osmId": "way/868046193", "name": "Boucheries", "opening_hours": null, "label": "Food shops", "color": "#31a354" }, "geometry": { "type": "Point", "coordinates": [ 3.876661, 43.6059557 ] } },
{ "type": "Feature", "properties": { "index": "19", "@osmId": "way/868046194", "name": "Boulangerie Patisserie", "opening_hours": "Mo-Fr 08:00-14:00,16:00-20:00; Sa 08:00-20:00; Su 08:00-14:00", "label": "Food shops", "color": "#31a354" }, "geometry": { "type": "Point", "coordinates": [ 3.8765943, 43.6059545 ] } },
{ "type": "Feature", "properties": { "index": "20", "@osmId": "way/868046195", "name": "Jean Brume", "opening_hours": null, "label": "Food shops", "color": "#31a354" }, "geometry": { "type": "Point", "coordinates": [ 3.8766002, 43.6059857 ] } },
{ "type": "Feature", "properties": { "index": "21", "@osmId": "way/868046196", "name": "Les Jardins de Dylan", "opening_hours": null, "label": "Food shops", "color": "#31a354" }, "geometry": { "type": "Point", "coordinates": [ 3.876504, 43.6060285 ] } },
{ "type": "Feature", "properties": { "index": "22", "@osmId": "way/868046199", "name": "Gaëtan", "opening_hours": null, "label": "Food shops", "color": "#31a354" }, "geometry": { "type": "Point", "coordinates": [ 3.8764942, 43.6060682 ] } },
{ "type": "Feature", "properties": { "index": "23", "@osmId": "way/868046202", "name": "Le Panier de Benedita", "opening_hours": null, "label": "Food shops", "color": "#31a354" }, "geometry": { "type": "Point", "coordinates": [ 3.8765168, 43.6061682 ] } },
{ "type": "Feature", "properties": { "index": "24", "@osmId": "way/868046204", "name": "Chez raf et lou", "opening_hours": null, "label": "Food shops", "color": "#31a354" }, "geometry": { "type": "Point", "coordinates": [ 3.8766048, 43.6061988 ] } },
{ "type": "Feature", "properties": { "index": "25", "@osmId": "node/299961823", "name": "Le Petit Marché des Arceaux", "opening_hours": null, "label": "Food shops", "color": "#31a354" }, "geometry": { "type": "Point", "coordinates": [ 3.866694, 43.6134499 ] } },
{ "type": "Feature", "properties": { "index": "26", "@osmId": "way/868046208", "name": "Le primeur du jardin - Caroline & Daniel", "opening_hours": null, "label": "Food shops", "color": "#31a354" }, "geometry": { "type": "Point", "coordinates": [ 3.8767701, 43.6061854 ] } },
{ "type": "Feature", "properties": { "index": "27", "@osmId": "way/868046209", "name": "Le primeur du jardin - Caroline & Daniel", "opening_hours": null, "label": "Food shops", "color": "#31a354" }, "geometry": { "type": "Point", "coordinates": [ 3.8767364, 43.6061644 ] } },
{ "type": "Feature", "properties": { "index": "28", "@osmId": "node/299961851", "name": "Chuma", "opening_hours": null, "label": "Food shops", "color": "#31a354" }, "geometry": { "type": "Point", "coordinates": [ 3.8658214, 43.6118896 ] } },
{ "type": "Feature", "properties": { "index": "29", "@osmId": "node/299983579", "name": "Spar", "opening_hours": null, "label": "Food shops", "color": "#31a354" }, "geometry": { "type": "Point", "coordinates": [ 3.866615, 43.6092978 ] } },
{ "type": "Feature", "properties": { "index": "30", "@osmId": "node/601724902", "name": "Arceaux Boucherie", "opening_hours": "Mo-Sa 07:00-12:45; Mo-Tu,Th-Fr 16:30-19:00; PH closed", "label": "Food shops", "color": "#31a354" }, "geometry": { "type": "Point", "coordinates": [ 3.8657437, 43.6109018 ] } },
{ "type": "Feature", "properties": { "index": "31", "@osmId": "node/645704943", "name": "Le Jardin de l'Agri", "opening_hours": null, "label": "Food shops", "color": "#31a354" }, "geometry": { "type": "Point", "coordinates": [ 3.8569849, 43.6151115 ] } },
{ "type": "Feature", "properties": { "index": "32", "@osmId": "node/645704949", "name": "Boulangerie du Coin", "opening_hours": "Tu-Fr 07:00-19:00; Sa 07:00-18:30; Su 07:00-13:00", "label": "Food shops", "color": "#31a354" }, "geometry": { "type": "Point", "coordinates": [ 3.8564786, 43.6155885 ] } },
{ "type": "Feature", "properties": { "index": "33", "@osmId": "node/645736545", "name": "Fresh Fruits et Légumes", "opening_hours": null, "label": "Food shops", "color": "#31a354" }, "geometry": { "type": "Point", "coordinates": [ 3.8667864, 43.6074699 ] } },
{ "type": "Feature", "properties": { "index": "34", "@osmId": "node/645736549", "name": "L'Aube de Figuerolles", "opening_hours": null, "label": "Food shops", "color": "#31a354" }, "geometry": { "type": "Point", "coordinates": [ 3.8605146, 43.6052669 ] } },
{ "type": "Feature", "properties": { "index": "35", "@osmId": "node/664058947", "name": "Boulangerie Pâtisserie", "opening_hours": null, "label": "Food shops", "color": "#31a354" }, "geometry": { "type": "Point", "coordinates": [ 3.8636364, 43.6061283 ] } },
{ "type": "Feature", "properties": { "index": "36", "@osmId": "node/664061253", "name": "Lopez", "opening_hours": null, "label": "Food shops", "color": "#31a354" }, "geometry": { "type": "Point", "coordinates": [ 3.8626045, 43.6058515 ] } },
{ "type": "Feature", "properties": { "index": "37", "@osmId": "node/664061285", "name": "Au bon marché", "opening_hours": "Mo-Sa 09:30-13:00,16:00-20:00", "label": "Food shops", "color": "#31a354" }, "geometry": { "type": "Point", "coordinates": [ 3.8631295, 43.6061578 ] } },
{ "type": "Feature", "properties": { "index": "38", "@osmId": "node/664064693", "name": "L'Aube de Figuerolles", "opening_hours": null, "label": "Food shops", "color": "#31a354" }, "geometry": { "type": "Point", "coordinates": [ 3.8606708, 43.6053088 ] } },
{ "type": "Feature", "properties": { "index": "39", "@osmId": "node/282724625", "name": "Épicerie le Trigone", "opening_hours": null, "label": "Food shops", "color": "#31a354" }, "geometry": { "type": "Point", "coordinates": [ 3.8910825, 43.6066306 ] } },
{ "type": "Feature", "properties": { "index": "40", "@osmId": "node/664073190", "name": "Alimentation générale", "opening_hours": null, "label": "Food shops", "color": "#31a354" }, "geometry": { "type": "Point", "coordinates": [ 3.8650356, 43.6065241 ] } },
{ "type": "Feature", "properties": { "index": "41", "@osmId": "node/664073242", "name": "Boulangerie Trouche", "opening_hours": "Mo,Tu,Th,Fr 06:30-13:00,16:00-19:00; Sa,Su 06:30-13:00; We off", "label": "Food shops", "color": "#31a354" }, "geometry": { "type": "Point", "coordinates": [ 3.8666479, 43.6073848 ] } },
{ "type": "Feature", "properties": { "index": "42", "@osmId": "node/664074025", "name": "Tous Les Plaisirs Du Pain", "opening_hours": null, "label": "Food shops", "color": "#31a354" }, "geometry": { "type": "Point", "coordinates": [ 3.8583829, 43.6043124 ] } },
{ "type": "Feature", "properties": { "index": "43", "@osmId": "node/674049725", "name": "Boulangerie Folpain", "opening_hours": "Mo-Sa 08:00-13:00 16:00-19:00; Su 08:00-13:00", "label": "Food shops", "color": "#31a354" }, "geometry": { "type": "Point", "coordinates": [ 3.865561, 43.610598 ] } },
{ "type": "Feature", "properties": { "index": "44", "@osmId": "node/282724627", "name": "Le Moulin Blanc", "opening_hours": "Mo-Fr 07:00-18:00; Su 08:00-13:00", "label": "Food shops", "color": "#31a354" }, "geometry": { "type": "Point", "coordinates": [ 3.8904977, 43.606852 ] } },
{ "type": "Feature", "properties": { "index": "45", "@osmId": "node/294077716", "name": "Les Jardins d'Antigone", "opening_hours": "Mo-Su 08:00-19:45", "label": "Food shops", "color": "#31a354" }, "geometry": { "type": "Point", "coordinates": [ 3.8890375, 43.6078739 ] } },
{ "type": "Feature", "properties": { "index": "46", "@osmId": "node/1795680102", "name": "Les Arcades", "opening_hours": null, "label": "Food shops", "color": "#31a354" }, "geometry": { "type": "Point", "coordinates": [ 3.8595876, 43.6116289 ] } },
{ "type": "Feature", "properties": { "index": "47", "@osmId": "node/1795684289", "name": "Paul", "opening_hours": null, "label": "Food shops", "color": "#31a354" }, "geometry": { "type": "Point", "coordinates": [ 3.864942, 43.6141303 ] } },
{ "type": "Feature", "properties": { "index": "48", "@osmId": "node/1795693928", "name": null, "opening_hours": null, "label": "Food shops", "color": "#31a354" }, "geometry": { "type": "Point", "coordinates": [ 3.8596935, 43.6184745 ] } },
{ "type": "Feature", "properties": { "index": "49", "@osmId": "node/299704972", "name": "Maison Bonnaire - Aiguillerie", "opening_hours": null, "label": "Food shops", "color": "#31a354" }, "geometry": { "type": "Point", "coordinates": [ 3.8789695, 43.6116243 ] } },
{ "type": "Feature", "properties": { "index": "50", "@osmId": "node/1795708213", "name": "Sambila", "opening_hours": null, "label": "Food shops", "color": "#31a354" }, "geometry": { "type": "Point", "coordinates": [ 3.8598781, 43.6186158 ] } },
{ "type": "Feature", "properties": { "index": "51", "@osmId": "node/299705165", "name": "Co.Pain", "opening_hours": "Mo-Sa 07:30-19:30; Su 07:30-14:00", "label": "Food shops", "color": "#31a354" }, "geometry": { "type": "Point", "coordinates": [ 3.8779978, 43.6117784 ] } },
{ "type": "Feature", "properties": { "index": "52", "@osmId": "node/1795750159", "name": "Arceaux Market", "opening_hours": null, "label": "Food shops", "color": "#31a354" }, "geometry": { "type": "Point", "coordinates": [ 3.8596065, 43.6129141 ] } },
{ "type": "Feature", "properties": { "index": "53", "@osmId": "node/299705279", "name": "Marie Blachère", "opening_hours": null, "label": "Food shops", "color": "#31a354" }, "geometry": { "type": "Point", "coordinates": [ 3.8788438, 43.6089712 ] } },
{ "type": "Feature", "properties": { "index": "54", "@osmId": "node/299705321", "name": "Maison Biron", "opening_hours": "Tu-Su 06:30-20:00", "label": "Food shops", "color": "#31a354" }, "geometry": { "type": "Point", "coordinates": [ 3.8762245, 43.6102766 ] } },
{ "type": "Feature", "properties": { "index": "55", "@osmId": "node/2065668009", "name": "Lo Pain", "opening_hours": null, "label": "Food shops", "color": "#31a354" }, "geometry": { "type": "Point", "coordinates": [ 3.8633206, 43.6186963 ] } },
{ "type": "Feature", "properties": { "index": "56", "@osmId": "node/2065668021", "name": null, "opening_hours": null, "label": "Food shops", "color": "#31a354" }, "geometry": { "type": "Point", "coordinates": [ 3.8635074, 43.6189173 ] } },
{ "type": "Feature", "properties": { "index": "57", "@osmId": "node/299705565", "name": "Maison Bonnaire", "opening_hours": "Tu-Sa 06:30-20:00; Su-Mo off", "label": "Food shops", "color": "#31a354" }, "geometry": { "type": "Point", "coordinates": [ 3.8733993, 43.6086515 ] } },
{ "type": "Feature", "properties": { "index": "58", "@osmId": "node/299705631", "name": "Carrefour Express", "opening_hours": "Mo-Sa 07:30-21:00; Su 09:00-12:00", "label": "Food shops", "color": "#31a354" }, "geometry": { "type": "Point", "coordinates": [ 3.8785551, 43.6148397 ] } },
{ "type": "Feature", "properties": { "index": "59", "@osmId": "node/299705640", "name": "Alimentation du Corum", "opening_hours": null, "label": "Food shops", "color": "#31a354" }, "geometry": { "type": "Point", "coordinates": [ 3.8806569, 43.6142568 ] } },
{ "type": "Feature", "properties": { "index": "60", "@osmId": "node/299705653", "name": "Spar", "opening_hours": null, "label": "Food shops", "color": "#31a354" }, "geometry": { "type": "Point", "coordinates": [ 3.8802723, 43.6138397 ] } },
{ "type": "Feature", "properties": { "index": "61", "@osmId": "node/3891871623", "name": "La Remise", "opening_hours": "Mo-Sa 08:00-19:30;Su off", "label": "Food shops", "color": "#31a354" }, "geometry": { "type": "Point", "coordinates": [ 3.8625453, 43.6116135 ] } },
{ "type": "Feature", "properties": { "index": "62", "@osmId": "node/299983595", "name": "Les délices du Languedoc", "opening_hours": null, "label": "Food shops", "color": "#31a354" }, "geometry": { "type": "Point", "coordinates": [ 3.8694203, 43.6084134 ] } },
{ "type": "Feature", "properties": { "index": "63", "@osmId": "node/4241142329", "name": "MOP", "opening_hours": null, "label": "Food shops", "color": "#31a354" }, "geometry": { "type": "Point", "coordinates": [ 3.8664853, 43.6090814 ] } },
{ "type": "Feature", "properties": { "index": "64", "@osmId": "node/6378192840", "name": "Le Boucheron", "opening_hours": null, "label": "Food shops", "color": "#31a354" }, "geometry": { "type": "Point", "coordinates": [ 3.8568119, 43.6152918 ] } },
{ "type": "Feature", "properties": { "index": "65", "@osmId": "node/318157172", "name": "Pistache et Chocolat", "opening_hours": "Mo-Sa 06:30-19:30", "label": "Food shops", "color": "#31a354" }, "geometry": { "type": "Point", "coordinates": [ 3.8810109, 43.6154313 ] } },
{ "type": "Feature", "properties": { "index": "66", "@osmId": "node/360039058", "name": "Le Fournil Saint-Nicolas", "opening_hours": null, "label": "Food shops", "color": "#31a354" }, "geometry": { "type": "Point", "coordinates": [ 3.8870492, 43.6080256 ] } },
{ "type": "Feature", "properties": { "index": "67", "@osmId": "node/579739325", "name": null, "opening_hours": null, "label": "Food shops", "color": "#31a354" }, "geometry": { "type": "Point", "coordinates": [ 3.8811991, 43.6154829 ] } },
{ "type": "Feature", "properties": { "index": "68", "@osmId": "node/6565043980", "name": "Carrefour City", "opening_hours": "Mo-Sa 07:00-22:00; Su 09:00-13:00", "label": "Food shops", "color": "#31a354" }, "geometry": { "type": "Point", "coordinates": [ 3.8667225, 43.6110167 ] } },
{ "type": "Feature", "properties": { "index": "69", "@osmId": "node/579739326", "name": "Fébéo", "opening_hours": "Mo-Sa 08:00-13:00, 16:00-19:30", "label": "Food shops", "color": "#31a354" }, "geometry": { "type": "Point", "coordinates": [ 3.8805809, 43.6163949 ] } },
{ "type": "Feature", "properties": { "index": "70", "@osmId": "node/7122311018", "name": "Kesako", "opening_hours": null, "label": "Food shops", "color": "#31a354" }, "geometry": { "type": "Point", "coordinates": [ 3.8629527, 43.6187663 ] } },
{ "type": "Feature", "properties": { "index": "71", "@osmId": "node/579783643", "name": "Alimentation Sherazade", "opening_hours": null, "label": "Food shops", "color": "#31a354" }, "geometry": { "type": "Point", "coordinates": [ 3.878353, 43.6148524 ] } },
{ "type": "Feature", "properties": { "index": "72", "@osmId": "node/11642048708", "name": "Pana", "opening_hours": "Tu-Fr 08:00-19:00; Sa 08:00-13:30", "label": "Food shops", "color": "#31a354" }, "geometry": { "type": "Point", "coordinates": [ 3.8625038, 43.6058259 ] } },
{ "type": "Feature", "properties": { "index": "73", "@osmId": "node/579783666", "name": "Au Rythme du Pain", "opening_hours": "Mo-Fr 07:00-13:00, 16:00-19:30; Sa 07:00-14:00", "label": "Food shops", "color": "#31a354" }, "geometry": { "type": "Point", "coordinates": [ 3.8746227, 43.616892 ] } },
{ "type": "Feature", "properties": { "index": "74", "@osmId": "node/598920370", "name": "La Corbeille des Primeurs", "opening_hours": null, "label": "Food shops", "color": "#31a354" }, "geometry": { "type": "Point", "coordinates": [ 3.8826398, 43.6029121 ] } },
{ "type": "Feature", "properties": { "index": "75", "@osmId": "node/11708995938", "name": "Supérette du Sud", "opening_hours": null, "label": "Food shops", "color": "#31a354" }, "geometry": { "type": "Point", "coordinates": [ 3.8665914, 43.6071718 ] } },
{ "type": "Feature", "properties": { "index": "76", "@osmId": "node/598920904", "name": "Carrefour City", "opening_hours": "Su 09:00-13:00,17:00-20:00; Mo-Sa 07:00-21:00", "label": "Food shops", "color": "#31a354" }, "geometry": { "type": "Point", "coordinates": [ 3.8812401, 43.6029304 ] } },
{ "type": "Feature", "properties": { "index": "77", "@osmId": "node/12306831593", "name": "L'Épicerie Créative", "opening_hours": "Mo-Su 08:00-22:00", "label": "Food shops", "color": "#31a354" }, "geometry": { "type": "Point", "coordinates": [ 3.8616121, 43.6013847 ] } },
{ "type": "Feature", "properties": { "index": "78", "@osmId": "node/12795894547", "name": null, "opening_hours": null, "label": "Food shops", "color": "#31a354" }, "geometry": { "type": "Point", "coordinates": [ 3.8626718, 43.6058647 ] } },
{ "type": "Feature", "properties": { "index": "79", "@osmId": "node/598931255", "name": "Le fournil Saint-François", "opening_hours": "Mo-Sa 07:00-19:45; Su 07:00-13:30", "label": "Food shops", "color": "#31a354" }, "geometry": { "type": "Point", "coordinates": [ 3.8823327, 43.6033452 ] } },
{ "type": "Feature", "properties": { "index": "80", "@osmId": "node/13395318289", "name": "Chez Ambroise", "opening_hours": null, "label": "Food shops", "color": "#31a354" }, "geometry": { "type": "Point", "coordinates": [ 3.8660088, 43.6102136 ] } },
{ "type": "Feature", "properties": { "index": "81", "@osmId": "node/598931256", "name": "François et Aneta Benezech", "opening_hours": null, "label": "Food shops", "color": "#31a354" }, "geometry": { "type": "Point", "coordinates": [ 3.882729, 43.6029374 ] } },
{ "type": "Feature", "properties": { "index": "82", "@osmId": "node/598984768", "name": null, "opening_hours": null, "label": "Food shops", "color": "#31a354" }, "geometry": { "type": "Point", "coordinates": [ 3.8825726, 43.6053906 ] } },
{ "type": "Feature", "properties": { "index": "83", "@osmId": "node/598994935", "name": "Proxi", "opening_hours": "Mo,Tu,Th-Sa 10:00-13:00,15:00-20:00; We 15:00-20:00", "label": "Food shops", "color": "#31a354" }, "geometry": { "type": "Point", "coordinates": [ 3.8806593, 43.6070697 ] } },
{ "type": "Feature", "properties": { "index": "84", "@osmId": "node/600948484", "name": "Boucherie Solavi", "opening_hours": null, "label": "Food shops", "color": "#31a354" }, "geometry": { "type": "Point", "coordinates": [ 3.8774392, 43.6098567 ] } },
{ "type": "Feature", "properties": { "index": "85", "@osmId": "node/601729782", "name": "Carrefour City", "opening_hours": "Mo-Sa 07:00-21:00; Su 08:30-13:00", "label": "Food shops", "color": "#31a354" }, "geometry": { "type": "Point", "coordinates": [ 3.87615, 43.6058122 ] } },
{ "type": "Feature", "properties": { "index": "86", "@osmId": "node/610467452", "name": "Le Bon Goût Français", "opening_hours": null, "label": "Food shops", "color": "#31a354" }, "geometry": { "type": "Point", "coordinates": [ 3.8818208, 43.6061004 ] } },
{ "type": "Feature", "properties": { "index": "87", "@osmId": "node/13885492146", "name": "Paing", "opening_hours": null, "label": "Food shops", "color": "#31a354" }, "geometry": { "type": "Point", "coordinates": [ 3.8667445, 43.6112919 ] } },
{ "type": "Feature", "properties": { "index": "88", "@osmId": "node/611672109", "name": "Les bo gâteaux", "opening_hours": "Mo-Sa 07:30-18:00", "label": "Food shops", "color": "#31a354" }, "geometry": { "type": "Point", "coordinates": [ 3.8805402, 43.6069947 ] } },
{ "type": "Feature", "properties": { "index": "89", "@osmId": "node/612057917", "name": "L'Authentique", "opening_hours": "Mo-Sa 06:30-19:30", "label": "Food shops", "color": "#31a354" }, "geometry": { "type": "Point", "coordinates": [ 3.875765, 43.6061926 ] } },
{ "type": "Feature", "properties": { "index": "90", "@osmId": "node/612057918", "name": null, "opening_hours": null, "label": "Food shops", "color": "#31a354" }, "geometry": { "type": "Point", "coordinates": [ 3.8766489, 43.6097377 ] } },
{ "type": "Feature", "properties": { "index": "91", "@osmId": "node/613529534", "name": null, "opening_hours": null, "label": "Food shops", "color": "#31a354" }, "geometry": { "type": "Point", "coordinates": [ 3.8838773, 43.6053397 ] } },
{ "type": "Feature", "properties": { "index": "92", "@osmId": "node/613529537", "name": "Planch'a pain", "opening_hours": null, "label": "Food shops", "color": "#31a354" }, "geometry": { "type": "Point", "coordinates": [ 3.8839382, 43.6054181 ] } },
{ "type": "Feature", "properties": { "index": "93", "@osmId": "node/614803171", "name": "La Babote", "opening_hours": null, "label": "Food shops", "color": "#31a354" }, "geometry": { "type": "Point", "coordinates": [ 3.8771491, 43.6060267 ] } },
{ "type": "Feature", "properties": { "index": "94", "@osmId": "node/617526190", "name": "Jardin de Vic la Gardiole", "opening_hours": "Mo 08:00-18:00; Tu-Sa 08:00-19:00; Su 08:00-13:00", "label": "Food shops", "color": "#31a354" }, "geometry": { "type": "Point", "coordinates": [ 3.8900053, 43.6091607 ] } },
{ "type": "Feature", "properties": { "index": "95", "@osmId": "node/617526192", "name": "Primeur Rodolphe", "opening_hours": null, "label": "Food shops", "color": "#31a354" }, "geometry": { "type": "Point", "coordinates": [ 3.8900535, 43.6091374 ] } },
{ "type": "Feature", "properties": { "index": "96", "@osmId": "node/617526198", "name": "De l'Art et du Cochon", "opening_hours": null, "label": "Food shops", "color": "#31a354" }, "geometry": { "type": "Point", "coordinates": [ 3.8894475, 43.609235 ] } },
{ "type": "Feature", "properties": { "index": "97", "@osmId": "node/617526206", "name": "Chez Fabien et Nicolas", "opening_hours": "Tu-Su 07:30-13:00; Th-Sa 07:30-13:00,16:00-19:00", "label": "Food shops", "color": "#31a354" }, "geometry": { "type": "Point", "coordinates": [ 3.889501, 43.60918 ] } },
{ "type": "Feature", "properties": { "index": "98", "@osmId": "node/617526207", "name": "La Bonne Panse", "opening_hours": null, "label": "Food shops", "color": "#31a354" }, "geometry": { "type": "Point", "coordinates": [ 3.8896009, 43.6091718 ] } },
{ "type": "Feature", "properties": { "index": "99", "@osmId": "node/619533303", "name": "Strasbourg épicerie", "opening_hours": null, "label": "Food shops", "color": "#31a354" }, "geometry": { "type": "Point", "coordinates": [ 3.881966, 43.6030079 ] } },
{ "type": "Feature", "properties": { "index": "100", "@osmId": "node/619785326", "name": "Le Potager de l'Eden", "opening_hours": null, "label": "Food shops", "color": "#31a354" }, "geometry": { "type": "Point", "coordinates": [ 3.8844654, 43.6202883 ] } },
{ "type": "Feature", "properties": { "index": "101", "@osmId": "node/621197849", "name": "Le Petit Epicier", "opening_hours": null, "label": "Food shops", "color": "#31a354" }, "geometry": { "type": "Point", "coordinates": [ 3.8839928, 43.6037285 ] } },
{ "type": "Feature", "properties": { "index": "102", "@osmId": "node/627384165", "name": "Boulangerie Pont Juvénal", "opening_hours": null, "label": "Food shops", "color": "#31a354" }, "geometry": { "type": "Point", "coordinates": [ 3.8862654, 43.6060383 ] } },
{ "type": "Feature", "properties": { "index": "103", "@osmId": "node/627384171", "name": "Chez Olivier", "opening_hours": null, "label": "Food shops", "color": "#31a354" }, "geometry": { "type": "Point", "coordinates": [ 3.8857779, 43.6059926 ] } },
{ "type": "Feature", "properties": { "index": "104", "@osmId": "node/628112516", "name": "The Good Place", "opening_hours": "Mo,Tu,Th-Sa 10:00-19:00; We 14:00-19:30", "label": "Food shops", "color": "#31a354" }, "geometry": { "type": "Point", "coordinates": [ 3.8777004, 43.605461 ] } },
{ "type": "Feature", "properties": { "index": "105", "@osmId": "node/635858726", "name": "Brioche Dorée", "opening_hours": "Mo-Su 07:00-20:00", "label": "Food shops", "color": "#31a354" }, "geometry": { "type": "Point", "coordinates": [ 3.8772661, 43.6101959 ] } },
{ "type": "Feature", "properties": { "index": "106", "@osmId": "node/635869685", "name": "Brioche Dorée", "opening_hours": "Mo-Sa 07:30-19:00", "label": "Food shops", "color": "#31a354" }, "geometry": { "type": "Point", "coordinates": [ 3.8826851, 43.6088038 ] } },
{ "type": "Feature", "properties": { "index": "107", "@osmId": "node/635872122", "name": "Sweet rice épicerie asiatique", "opening_hours": null, "label": "Food shops", "color": "#31a354" }, "geometry": { "type": "Point", "coordinates": [ 3.87724, 43.6150441 ] } },
{ "type": "Feature", "properties": { "index": "108", "@osmId": "node/635875019", "name": "L'Épicerie des Beaux-Arts", "opening_hours": "Tu-Sa 09:00-13:00, 15:30-20:00", "label": "Food shops", "color": "#31a354" }, "geometry": { "type": "Point", "coordinates": [ 3.8812636, 43.6168727 ] } },
{ "type": "Feature", "properties": { "index": "109", "@osmId": "node/645708716", "name": "Le Kiosque à Pains", "opening_hours": null, "label": "Food shops", "color": "#31a354" }, "geometry": { "type": "Point", "coordinates": [ 3.8747304, 43.6037154 ] } },
{ "type": "Feature", "properties": { "index": "110", "@osmId": "node/660179402", "name": "Le Moulin Gourmand", "opening_hours": null, "label": "Food shops", "color": "#31a354" }, "geometry": { "type": "Point", "coordinates": [ 3.8739954, 43.6045386 ] } },
{ "type": "Feature", "properties": { "index": "111", "@osmId": "node/660189646", "name": "La Cagette", "opening_hours": "Mo 14:00-20:30; Tu-Sa 08:00-20:30", "label": "Food shops", "color": "#31a354" }, "geometry": { "type": "Point", "coordinates": [ 3.8732599, 43.603957 ] } },
{ "type": "Feature", "properties": { "index": "112", "@osmId": "node/660201000", "name": "Biocoop", "opening_hours": "Mo 14:30-19:30; Tu-Sa 09:00-19:30", "label": "Food shops", "color": "#31a354" }, "geometry": { "type": "Point", "coordinates": [ 3.8726199, 43.6037498 ] } },
{ "type": "Feature", "properties": { "index": "113", "@osmId": "node/660247162", "name": "Wei Sin", "opening_hours": "Mo-Sa 09:00-19:00", "label": "Food shops", "color": "#31a354" }, "geometry": { "type": "Point", "coordinates": [ 3.8704488, 43.6023266 ] } },
{ "type": "Feature", "properties": { "index": "114", "@osmId": "node/660247185", "name": "Super Market Clémenceau", "opening_hours": null, "label": "Food shops", "color": "#31a354" }, "geometry": { "type": "Point", "coordinates": [ 3.8704098, 43.6025497 ] } },
{ "type": "Feature", "properties": { "index": "115", "@osmId": "node/660247196", "name": "Epicerie Clemenceau", "opening_hours": null, "label": "Food shops", "color": "#31a354" }, "geometry": { "type": "Point", "coordinates": [ 3.8702285, 43.6024529 ] } },
{ "type": "Feature", "properties": { "index": "116", "@osmId": "node/664040563", "name": "Vival Casino", "opening_hours": null, "label": "Food shops", "color": "#31a354" }, "geometry": { "type": "Point", "coordinates": [ 3.8703689, 43.6084528 ] } },
{ "type": "Feature", "properties": { "index": "117", "@osmId": "node/664045979", "name": "Le Panier des Saisons", "opening_hours": null, "label": "Food shops", "color": "#31a354" }, "geometry": { "type": "Point", "coordinates": [ 3.8700894, 43.6083708 ] } },
{ "type": "Feature", "properties": { "index": "118", "@osmId": "node/664050660", "name": "Les Jardins du Midi", "opening_hours": "Mo-Su 8:00-20:00", "label": "Food shops", "color": "#31a354" }, "geometry": { "type": "Point", "coordinates": [ 3.8695855, 43.6085542 ] } },
{ "type": "Feature", "properties": { "index": "119", "@osmId": "node/664053694", "name": "Boucherie Ezzeitouna", "opening_hours": null, "label": "Food shops", "color": "#31a354" }, "geometry": { "type": "Point", "coordinates": [ 3.8679971, 43.6080486 ] } },
{ "type": "Feature", "properties": { "index": "120", "@osmId": "node/664053700", "name": null, "opening_hours": null, "label": "Food shops", "color": "#31a354" }, "geometry": { "type": "Point", "coordinates": [ 3.8683221, 43.6081944 ] } },
{ "type": "Feature", "properties": { "index": "121", "@osmId": "node/664073243", "name": "Boucherie Dari", "opening_hours": null, "label": "Food shops", "color": "#31a354" }, "geometry": { "type": "Point", "coordinates": [ 3.8677031, 43.6079247 ] } },
{ "type": "Feature", "properties": { "index": "122", "@osmId": "node/667189127", "name": "Ghaly Shop", "opening_hours": null, "label": "Food shops", "color": "#31a354" }, "geometry": { "type": "Point", "coordinates": [ 3.8863016, 43.615012 ] } },
{ "type": "Feature", "properties": { "index": "123", "@osmId": "node/674042159", "name": "Terres d'Occitanie", "opening_hours": null, "label": "Food shops", "color": "#31a354" }, "geometry": { "type": "Point", "coordinates": [ 3.875843, 43.6099912 ] } },
{ "type": "Feature", "properties": { "index": "124", "@osmId": "node/674054920", "name": "Boucherie Amine", "opening_hours": null, "label": "Food shops", "color": "#31a354" }, "geometry": { "type": "Point", "coordinates": [ 3.8677305, 43.6085716 ] } },
{ "type": "Feature", "properties": { "index": "125", "@osmId": "node/674054923", "name": null, "opening_hours": null, "label": "Food shops", "color": "#31a354" }, "geometry": { "type": "Point", "coordinates": [ 3.8678271, 43.6085095 ] } },
{ "type": "Feature", "properties": { "index": "126", "@osmId": "node/674054926", "name": "Agadir II", "opening_hours": null, "label": "Food shops", "color": "#31a354" }, "geometry": { "type": "Point", "coordinates": [ 3.869117, 43.6077918 ] } },
{ "type": "Feature", "properties": { "index": "127", "@osmId": "node/674054928", "name": "Boucherie Royale", "opening_hours": null, "label": "Food shops", "color": "#31a354" }, "geometry": { "type": "Point", "coordinates": [ 3.8689172, 43.6078986 ] } },
{ "type": "Feature", "properties": { "index": "128", "@osmId": "node/674054936", "name": "Le Moulin d'Or", "opening_hours": null, "label": "Food shops", "color": "#31a354" }, "geometry": { "type": "Point", "coordinates": [ 3.8694416, 43.6076403 ] } },
{ "type": "Feature", "properties": { "index": "129", "@osmId": "node/674054937", "name": null, "opening_hours": null, "label": "Food shops", "color": "#31a354" }, "geometry": { "type": "Point", "coordinates": [ 3.869388, 43.6076804 ] } },
{ "type": "Feature", "properties": { "index": "130", "@osmId": "node/674060383", "name": "Rôtisserie Lyonnaise", "opening_hours": null, "label": "Food shops", "color": "#31a354" }, "geometry": { "type": "Point", "coordinates": [ 3.8757236, 43.6097057 ] } },
{ "type": "Feature", "properties": { "index": "131", "@osmId": "node/674080500", "name": "Carrefour City", "opening_hours": "Mo-Sa 07:00-22:00; Su 09:00-22:00", "label": "Food shops", "color": "#31a354" }, "geometry": { "type": "Point", "coordinates": [ 3.8741465, 43.6091126 ] } },
{ "type": "Feature", "properties": { "index": "132", "@osmId": "node/712077984", "name": "Les Jardins de Dylan", "opening_hours": null, "label": "Food shops", "color": "#31a354" }, "geometry": { "type": "Point", "coordinates": [ 3.8767236, 43.6102768 ] } },
{ "type": "Feature", "properties": { "index": "133", "@osmId": "node/712077998", "name": "Les Clairs Monts", "opening_hours": null, "label": "Food shops", "color": "#31a354" }, "geometry": { "type": "Point", "coordinates": [ 3.876799, 43.6102249 ] } },
{ "type": "Feature", "properties": { "index": "134", "@osmId": "node/712078007", "name": "Terres d'Occitanie", "opening_hours": null, "label": "Food shops", "color": "#31a354" }, "geometry": { "type": "Point", "coordinates": [ 3.8768883, 43.6101726 ] } },
{ "type": "Feature", "properties": { "index": "135", "@osmId": "node/712078059", "name": "Charcuterie Picard", "opening_hours": null, "label": "Food shops", "color": "#31a354" }, "geometry": { "type": "Point", "coordinates": [ 3.8766489, 43.6102949 ] } },
{ "type": "Feature", "properties": { "index": "136", "@osmId": "node/712078065", "name": "Menu (Boucherie Chevaline)", "opening_hours": null, "label": "Food shops", "color": "#31a354" }, "geometry": { "type": "Point", "coordinates": [ 3.876686, 43.610322 ] } },
{ "type": "Feature", "properties": { "index": "137", "@osmId": "node/712099813", "name": "Artisans du Monde", "opening_hours": "Tu-Sa 10:00-18:30", "label": "Food shops", "color": "#31a354" }, "geometry": { "type": "Point", "coordinates": [ 3.8749525, 43.610736 ] } },
{ "type": "Feature", "properties": { "index": "138", "@osmId": "node/724181541", "name": "L'Aiguillerie Market", "opening_hours": null, "label": "Food shops", "color": "#31a354" }, "geometry": { "type": "Point", "coordinates": [ 3.8776412, 43.6105251 ] } },
{ "type": "Feature", "properties": { "index": "139", "@osmId": "node/724181542", "name": "Yoki Mart", "opening_hours": null, "label": "Food shops", "color": "#31a354" }, "geometry": { "type": "Point", "coordinates": [ 3.8776117, 43.6104982 ] } },
{ "type": "Feature", "properties": { "index": "140", "@osmId": "node/724207425", "name": "Boucherie L'Aveyron", "opening_hours": null, "label": "Food shops", "color": "#31a354" }, "geometry": { "type": "Point", "coordinates": [ 3.8765907, 43.6102464 ] } },
{ "type": "Feature", "properties": { "index": "141", "@osmId": "node/724207427", "name": "Fébéo", "opening_hours": null, "label": "Food shops", "color": "#31a354" }, "geometry": { "type": "Point", "coordinates": [ 3.8765985, 43.6101903 ] } },
{ "type": "Feature", "properties": { "index": "142", "@osmId": "node/724209667", "name": "La maison Cantaloube", "opening_hours": null, "label": "Food shops", "color": "#31a354" }, "geometry": { "type": "Point", "coordinates": [ 3.8767141, 43.6101146 ] } },
{ "type": "Feature", "properties": { "index": "143", "@osmId": "node/724209670", "name": "Charcuterie Virenque", "opening_hours": null, "label": "Food shops", "color": "#31a354" }, "geometry": { "type": "Point", "coordinates": [ 3.8767762, 43.6100758 ] } },
{ "type": "Feature", "properties": { "index": "144", "@osmId": "node/724209679", "name": "Les Blés d'Or", "opening_hours": "Mo-Sa 08:00-13:30,16:00-19:15", "label": "Food shops", "color": "#31a354" }, "geometry": { "type": "Point", "coordinates": [ 3.8766333, 43.6101658 ] } },
{ "type": "Feature", "properties": { "index": "145", "@osmId": "node/724209680", "name": "Charcuterie Marc Houlier", "opening_hours": null, "label": "Food shops", "color": "#31a354" }, "geometry": { "type": "Point", "coordinates": [ 3.8766753, 43.6101952 ] } },
{ "type": "Feature", "properties": { "index": "146", "@osmId": "node/724224670", "name": null, "opening_hours": null, "label": "Food shops", "color": "#31a354" }, "geometry": { "type": "Point", "coordinates": [ 3.8745351, 43.615198 ] } },
{ "type": "Feature", "properties": { "index": "147", "@osmId": "node/724226218", "name": "La Ruche des Pains", "opening_hours": "Mo-Su 07:00-20:00", "label": "Food shops", "color": "#31a354" }, "geometry": { "type": "Point", "coordinates": [ 3.8745215, 43.6151261 ] } },
{ "type": "Feature", "properties": { "index": "148", "@osmId": "node/724231366", "name": "The Globe Market", "opening_hours": null, "label": "Food shops", "color": "#31a354" }, "geometry": { "type": "Point", "coordinates": [ 3.8801019, 43.6143574 ] } },
{ "type": "Feature", "properties": { "index": "149", "@osmId": "node/832444217", "name": "Épicerie des Consuls", "opening_hours": "Mo-Th 08:00-21:00; Fr 08:00-21:00; Sa 10:00-21:00; Su 13:00-21:00", "label": "Food shops", "color": "#31a354" }, "geometry": { "type": "Point", "coordinates": [ 3.8954609, 43.6005034 ] } },
{ "type": "Feature", "properties": { "index": "150", "@osmId": "node/832449201", "name": "Spar", "opening_hours": "Mo-Sa 08:00-13:00,15:30-19:30", "label": "Food shops", "color": "#31a354" }, "geometry": { "type": "Point", "coordinates": [ 3.891821, 43.605763 ] } },
{ "type": "Feature", "properties": { "index": "151", "@osmId": "node/898786003", "name": "Petit Marché de Richter", "opening_hours": null, "label": "Food shops", "color": "#31a354" }, "geometry": { "type": "Point", "coordinates": [ 3.8986979, 43.602933 ] } },
{ "type": "Feature", "properties": { "index": "152", "@osmId": "node/1226552402", "name": "Épicerie du Monde", "opening_hours": "Mo-Su 10:00-02:00", "label": "Food shops", "color": "#31a354" }, "geometry": { "type": "Point", "coordinates": [ 3.8730803, 43.6057883 ] } },
{ "type": "Feature", "properties": { "index": "153", "@osmId": "node/1243572788", "name": "CocciMarket", "opening_hours": null, "label": "Food shops", "color": "#31a354" }, "geometry": { "type": "Point", "coordinates": [ 3.8699915, 43.6145972 ] } },
{ "type": "Feature", "properties": { "index": "154", "@osmId": "node/1252120569", "name": "Spar", "opening_hours": "Mo-Sa 07:30-21:00; Su 09:00-13:00", "label": "Food shops", "color": "#31a354" }, "geometry": { "type": "Point", "coordinates": [ 3.8770373, 43.6147759 ] } },
{ "type": "Feature", "properties": { "index": "155", "@osmId": "node/1354577225", "name": "La boucherie de Boutonnet", "opening_hours": "We-Sa 07:30-13:00,16:30-19:30;Su 09:00-12:30", "label": "Food shops", "color": "#31a354" }, "geometry": { "type": "Point", "coordinates": [ 3.8727278, 43.6209888 ] } },
{ "type": "Feature", "properties": { "index": "156", "@osmId": "node/1354577226", "name": "Passion Primeur", "opening_hours": "Mo 15:30-19:30; Tu-Sa 07:30-13:00,15:30-19:30; PH,Su 08:00-12:30", "label": "Food shops", "color": "#31a354" }, "geometry": { "type": "Point", "coordinates": [ 3.8728713, 43.6209975 ] } },
{ "type": "Feature", "properties": { "index": "157", "@osmId": "node/1367854541", "name": "Boulangerie Pâtisserie", "opening_hours": "Tu-Fr 07:00-14:00, 15:00-19:30; Sa 07:00-13:00, 16:00-19:30; Su 07:00-13:00", "label": "Food shops", "color": "#31a354" }, "geometry": { "type": "Point", "coordinates": [ 3.8729201, 43.620544 ] } },
{ "type": "Feature", "properties": { "index": "158", "@osmId": "node/1367854542", "name": "Romain Guyon", "opening_hours": null, "label": "Food shops", "color": "#31a354" }, "geometry": { "type": "Point", "coordinates": [ 3.8730782, 43.6201702 ] } },
{ "type": "Feature", "properties": { "index": "159", "@osmId": "node/1367854543", "name": "Lama Market", "opening_hours": null, "label": "Food shops", "color": "#31a354" }, "geometry": { "type": "Point", "coordinates": [ 3.8728048, 43.6208075 ] } },
{ "type": "Feature", "properties": { "index": "160", "@osmId": "node/1447944020", "name": "Gaillard Boulangerie", "opening_hours": null, "label": "Food shops", "color": "#31a354" }, "geometry": { "type": "Point", "coordinates": [ 3.904609, 43.6026779 ] } },
{ "type": "Feature", "properties": { "index": "161", "@osmId": "node/1460796891", "name": "Dadison Market", "opening_hours": "Mo-Sa 09:30-13:00,15:00-20:00", "label": "Food shops", "color": "#31a354" }, "geometry": { "type": "Point", "coordinates": [ 3.8733414, 43.6056836 ] } },
{ "type": "Feature", "properties": { "index": "162", "@osmId": "node/1522922081", "name": "Marcel et Fils", "opening_hours": "Mo-Sa 09:00-19:30", "label": "Food shops", "color": "#31a354" }, "geometry": { "type": "Point", "coordinates": [ 3.87506, 43.6065996 ] } },
{ "type": "Feature", "properties": { "index": "163", "@osmId": "node/1522923892", "name": "Naturalia", "opening_hours": "Mo-Sa 09:00-20:00; Su 09:00-12:45", "label": "Food shops", "color": "#31a354" }, "geometry": { "type": "Point", "coordinates": [ 3.8752726, 43.6057679 ] } },
{ "type": "Feature", "properties": { "index": "164", "@osmId": "node/1574050046", "name": "Boulangerie Pâtisserie Frézal", "opening_hours": "Fr-Su 08:00-13:00", "label": "Food shops", "color": "#31a354" }, "geometry": { "type": "Point", "coordinates": [ 3.8905245, 43.618861 ] } },
{ "type": "Feature", "properties": { "index": "165", "@osmId": "node/1575969769", "name": "L'Assiette O Pains", "opening_hours": "Mo-Fr 06:00-19:30; Sa,Su 06:30-19:00", "label": "Food shops", "color": "#31a354" }, "geometry": { "type": "Point", "coordinates": [ 3.8682867, 43.6227538 ] } },
{ "type": "Feature", "properties": { "index": "166", "@osmId": "node/1575976114", "name": "Vival", "opening_hours": "Mo-Sa 08:30-19:30; Su 08:00-13:00", "label": "Food shops", "color": "#31a354" }, "geometry": { "type": "Point", "coordinates": [ 3.8684798, 43.6226227 ] } },
{ "type": "Feature", "properties": { "index": "167", "@osmId": "node/1616112485", "name": "Le Panier Gourmand", "opening_hours": null, "label": "Food shops", "color": "#31a354" }, "geometry": { "type": "Point", "coordinates": [ 3.8798708, 43.6030471 ] } },
{ "type": "Feature", "properties": { "index": "168", "@osmId": "node/1624038597", "name": "Eretz", "opening_hours": "Tu-Th 08:30-12:15,15:15-19:00; Fr,Su 08:30-12:15", "label": "Food shops", "color": "#31a354" }, "geometry": { "type": "Point", "coordinates": [ 3.8807913, 43.6177726 ] } },
{ "type": "Feature", "properties": { "index": "169", "@osmId": "node/1624101585", "name": "Chez Fabien", "opening_hours": "Mo-Sa 07:30-13:00, 16:00-19:45", "label": "Food shops", "color": "#31a354" }, "geometry": { "type": "Point", "coordinates": [ 3.8812042, 43.6168236 ] } },
{ "type": "Feature", "properties": { "index": "170", "@osmId": "node/1625205820", "name": "Boucherie des Beaux Arts", "opening_hours": null, "label": "Food shops", "color": "#31a354" }, "geometry": { "type": "Point", "coordinates": [ 3.8804554, 43.6174416 ] } },
{ "type": "Feature", "properties": { "index": "171", "@osmId": "node/1626974063", "name": "Folle Avoine", "opening_hours": "Tu-Fr 09:30-13:00, 14:00-19:00; Sa 09:30-13:00", "label": "Food shops", "color": "#31a354" }, "geometry": { "type": "Point", "coordinates": [ 3.8806144, 43.6162265 ] } },
{ "type": "Feature", "properties": { "index": "172", "@osmId": "node/1666891260", "name": "Le Panier Exotique 34", "opening_hours": null, "label": "Food shops", "color": "#31a354" }, "geometry": { "type": "Point", "coordinates": [ 3.8806088, 43.6031219 ] } },
{ "type": "Feature", "properties": { "index": "173", "@osmId": "node/1674973134", "name": "Le bon coin", "opening_hours": null, "label": "Food shops", "color": "#31a354" }, "geometry": { "type": "Point", "coordinates": [ 3.8844702, 43.6018759 ] } },
{ "type": "Feature", "properties": { "index": "174", "@osmId": "node/1684506156", "name": null, "opening_hours": null, "label": "Food shops", "color": "#31a354" }, "geometry": { "type": "Point", "coordinates": [ 3.8801104, 43.6168375 ] } },
{ "type": "Feature", "properties": { "index": "175", "@osmId": "node/1702712708", "name": "Mini-Market", "opening_hours": null, "label": "Food shops", "color": "#31a354" }, "geometry": { "type": "Point", "coordinates": [ 3.8985114, 43.6009633 ] } },
{ "type": "Feature", "properties": { "index": "176", "@osmId": "node/1702712715", "name": "Galzin", "opening_hours": null, "label": "Food shops", "color": "#31a354" }, "geometry": { "type": "Point", "coordinates": [ 3.8988867, 43.6010805 ] } },
{ "type": "Feature", "properties": { "index": "177", "@osmId": "node/1702787540", "name": "Élémentaire", "opening_hours": "Mo-Su 07:00-19:00", "label": "Food shops", "color": "#31a354" }, "geometry": { "type": "Point", "coordinates": [ 3.9012657, 43.6005475 ] } },
{ "type": "Feature", "properties": { "index": "178", "@osmId": "node/1703045770", "name": "Boulanger Patissier", "opening_hours": null, "label": "Food shops", "color": "#31a354" }, "geometry": { "type": "Point", "coordinates": [ 3.8816166, 43.602972 ] } },
{ "type": "Feature", "properties": { "index": "179", "@osmId": "node/1704834864", "name": "Brun", "opening_hours": "Tu-Sa 08:00-13:00,16:30-20:00", "label": "Food shops", "color": "#31a354" }, "geometry": { "type": "Point", "coordinates": [ 3.8793383, 43.6008188 ] } },
{ "type": "Feature", "properties": { "index": "180", "@osmId": "node/1710147433", "name": "Le Voltaire", "opening_hours": null, "label": "Food shops", "color": "#31a354" }, "geometry": { "type": "Point", "coordinates": [ 3.8847657, 43.6019597 ] } },
{ "type": "Feature", "properties": { "index": "181", "@osmId": "node/1714253181", "name": "Le Souk du Maghreb", "opening_hours": "Mo-Su 08:00-20:00", "label": "Food shops", "color": "#31a354" }, "geometry": { "type": "Point", "coordinates": [ 3.8901723, 43.6034983 ] } },
{ "type": "Feature", "properties": { "index": "182", "@osmId": "node/1714309564", "name": "Le Temps d'une Pause", "opening_hours": "Mo-Fr 07:00-19:00", "label": "Food shops", "color": "#31a354" }, "geometry": { "type": "Point", "coordinates": [ 3.8933705, 43.6037528 ] } },
{ "type": "Feature", "properties": { "index": "183", "@osmId": "node/1714516919", "name": "City Shop", "opening_hours": null, "label": "Food shops", "color": "#31a354" }, "geometry": { "type": "Point", "coordinates": [ 3.894789, 43.6018916 ] } },
{ "type": "Feature", "properties": { "index": "184", "@osmId": "node/1718619827", "name": "La Maison des Pains", "opening_hours": null, "label": "Food shops", "color": "#31a354" }, "geometry": { "type": "Point", "coordinates": [ 3.8989585, 43.6077251 ] } },
{ "type": "Feature", "properties": { "index": "185", "@osmId": "node/1721083381", "name": "Nsimalen", "opening_hours": null, "label": "Food shops", "color": "#31a354" }, "geometry": { "type": "Point", "coordinates": [ 3.8823855, 43.6048443 ] } },
{ "type": "Feature", "properties": { "index": "186", "@osmId": "node/1721083432", "name": null, "opening_hours": null, "label": "Food shops", "color": "#31a354" }, "geometry": { "type": "Point", "coordinates": [ 3.8823769, 43.604785 ] } },
{ "type": "Feature", "properties": { "index": "187", "@osmId": "node/1733302615", "name": "Tropic Hall", "opening_hours": null, "label": "Food shops", "color": "#31a354" }, "geometry": { "type": "Point", "coordinates": [ 3.882806, 43.6049129 ] } },
{ "type": "Feature", "properties": { "index": "188", "@osmId": "node/1739563941", "name": "L'Artisan Boucher", "opening_hours": "Tu-Sa 08:00-13:00,16:30-19:30", "label": "Food shops", "color": "#31a354" }, "geometry": { "type": "Point", "coordinates": [ 3.8911219, 43.6054419 ] } },
{ "type": "Feature", "properties": { "index": "189", "@osmId": "node/1739592788", "name": "L'Atelier Gourmand", "opening_hours": "Mo-Fr 07:00-19:30; Sa 07:00-13:30", "label": "Food shops", "color": "#31a354" }, "geometry": { "type": "Point", "coordinates": [ 3.8902392, 43.6065117 ] } },
{ "type": "Feature", "properties": { "index": "190", "@osmId": "node/1739592805", "name": "Casino Shop", "opening_hours": null, "label": "Food shops", "color": "#31a354" }, "geometry": { "type": "Point", "coordinates": [ 3.8900013, 43.6061935 ] } },
{ "type": "Feature", "properties": { "index": "191", "@osmId": "node/2463915403", "name": "Galzin", "opening_hours": "Mo-Su 07:00-19:00", "label": "Food shops", "color": "#31a354" }, "geometry": { "type": "Point", "coordinates": [ 3.8972872, 43.6204403 ] } },
{ "type": "Feature", "properties": { "index": "192", "@osmId": "node/2525973963", "name": "Le Maquis Market", "opening_hours": null, "label": "Food shops", "color": "#31a354" }, "geometry": { "type": "Point", "coordinates": [ 3.88352, 43.6054178 ] } },
{ "type": "Feature", "properties": { "index": "193", "@osmId": "node/2530617664", "name": "Le Petit Casino", "opening_hours": "Mo-Sa 08:00-13:30,15:30-20:00; We off; Su 08:30-13:00", "label": "Food shops", "color": "#31a354" }, "geometry": { "type": "Point", "coordinates": [ 3.889373, 43.6127933 ] } },
{ "type": "Feature", "properties": { "index": "194", "@osmId": "node/2742299588", "name": "Utile L'observatoire", "opening_hours": "Mo-Sa 07:30-20:30; Su 09:00-20:00", "label": "Food shops", "color": "#31a354" }, "geometry": { "type": "Point", "coordinates": [ 3.8769846, 43.606455 ] } },
{ "type": "Feature", "properties": { "index": "195", "@osmId": "node/2792893683", "name": "Le Petit Marché de Richter", "opening_hours": null, "label": "Food shops", "color": "#31a354" }, "geometry": { "type": "Point", "coordinates": [ 3.8986664, 43.602948 ] } },
{ "type": "Feature", "properties": { "index": "196", "@osmId": "node/3141701881", "name": "Le Pain de chez Vivi", "opening_hours": null, "label": "Food shops", "color": "#31a354" }, "geometry": { "type": "Point", "coordinates": [ 3.8680884, 43.6037322 ] } },
{ "type": "Feature", "properties": { "index": "197", "@osmId": "node/3146590160", "name": "Renouvier Market", "opening_hours": null, "label": "Food shops", "color": "#31a354" }, "geometry": { "type": "Point", "coordinates": [ 3.8675342, 43.604353 ] } },
{ "type": "Feature", "properties": { "index": "198", "@osmId": "node/3157818642", "name": "Carrefour City", "opening_hours": "Mo-Sa 07:00-21:00; Su 09:00-13:00", "label": "Food shops", "color": "#31a354" }, "geometry": { "type": "Point", "coordinates": [ 3.8688239, 43.604261 ] } },
{ "type": "Feature", "properties": { "index": "199", "@osmId": "node/3157839363", "name": "L'Escale", "opening_hours": null, "label": "Food shops", "color": "#31a354" }, "geometry": { "type": "Point", "coordinates": [ 3.8696134, 43.604855 ] } },
{ "type": "Feature", "properties": { "index": "200", "@osmId": "node/3393055144", "name": "L'atelier du Pain Salengro", "opening_hours": null, "label": "Food shops", "color": "#31a354" }, "geometry": { "type": "Point", "coordinates": [ 3.8672968, 43.6075147 ] } },
{ "type": "Feature", "properties": { "index": "201", "@osmId": "node/3393055147", "name": "Des rêves et du pain", "opening_hours": "Tu-Fr 07:30-13:30,16:00-18:00; Sa 07:30-13:30", "label": "Food shops", "color": "#31a354" }, "geometry": { "type": "Point", "coordinates": [ 3.8674212, 43.6051372 ] } },
{ "type": "Feature", "properties": { "index": "202", "@osmId": "node/3393056215", "name": "Arbre à Pain", "opening_hours": null, "label": "Food shops", "color": "#31a354" }, "geometry": { "type": "Point", "coordinates": [ 3.8719053, 43.6062539 ] } },
{ "type": "Feature", "properties": { "index": "203", "@osmId": "node/3418295226", "name": "Epicerie", "opening_hours": null, "label": "Food shops", "color": "#31a354" }, "geometry": { "type": "Point", "coordinates": [ 3.8737932, 43.6043795 ] } },
{ "type": "Feature", "properties": { "index": "204", "@osmId": "node/3633000711", "name": "Mini Market", "opening_hours": null, "label": "Food shops", "color": "#31a354" }, "geometry": { "type": "Point", "coordinates": [ 3.8763506, 43.6119667 ] } },
{ "type": "Feature", "properties": { "index": "205", "@osmId": "node/3739290275", "name": "La Mie Câline", "opening_hours": "Mo-Sa 07:00-20:00", "label": "Food shops", "color": "#31a354" }, "geometry": { "type": "Point", "coordinates": [ 3.8765463, 43.6065914 ] } },
{ "type": "Feature", "properties": { "index": "206", "@osmId": "node/3888003338", "name": "Les Rives du Lez", "opening_hours": null, "label": "Food shops", "color": "#31a354" }, "geometry": { "type": "Point", "coordinates": [ 3.8953911, 43.6041818 ] } },
{ "type": "Feature", "properties": { "index": "207", "@osmId": "node/3986433940", "name": "Massy Market", "opening_hours": null, "label": "Food shops", "color": "#31a354" }, "geometry": { "type": "Point", "coordinates": [ 3.8698986, 43.6150097 ] } },
{ "type": "Feature", "properties": { "index": "208", "@osmId": "node/4039659464", "name": "Casino Shop", "opening_hours": "Mo-Th,Sa 06:00-20:30; Fr 06:00-21:00; Su 12:00-20:00", "label": "Food shops", "color": "#31a354" }, "geometry": { "type": "Point", "coordinates": [ 3.8804543, 43.6046368 ] } },
{ "type": "Feature", "properties": { "index": "209", "@osmId": "node/4133249198", "name": "Mon Épicerie Bio", "opening_hours": "Mo-Fr 09:30-13:30,15:30-19:30; Sa 09:30-19:30", "label": "Food shops", "color": "#31a354" }, "geometry": { "type": "Point", "coordinates": [ 3.8742932, 43.6166533 ] } },
{ "type": "Feature", "properties": { "index": "210", "@osmId": "node/4188340835", "name": "La Charette", "opening_hours": "Mo-Sa 09:00-13:00, 15:30-20:00", "label": "Food shops", "color": "#31a354" }, "geometry": { "type": "Point", "coordinates": [ 3.8731879, 43.6202712 ] } },
{ "type": "Feature", "properties": { "index": "211", "@osmId": "node/4268274052", "name": "Utile", "opening_hours": "Mo-Sa 08:00-20:00; Su 09:00-13:00", "label": "Food shops", "color": "#31a354" }, "geometry": { "type": "Point", "coordinates": [ 3.8734019, 43.6195321 ] } },
{ "type": "Feature", "properties": { "index": "212", "@osmId": "node/4339658409", "name": "Casino Shop", "opening_hours": "Mo-Th 07:00-20:30; Fr 07:00-21:00; Sa 09:30-20:30; PH,Su 12:00-21:00", "label": "Food shops", "color": "#31a354" }, "geometry": { "type": "Point", "coordinates": [ 3.880422, 43.604636 ] } },
{ "type": "Feature", "properties": { "index": "213", "@osmId": "node/4425671021", "name": "Ô Pain Délicieux", "opening_hours": "Mo-Fr 16:00-20:00; Sa-Su off", "label": "Food shops", "color": "#31a354" }, "geometry": { "type": "Point", "coordinates": [ 3.8818135, 43.6157675 ] } },
{ "type": "Feature", "properties": { "index": "214", "@osmId": "node/4725009741", "name": "Proxi", "opening_hours": null, "label": "Food shops", "color": "#31a354" }, "geometry": { "type": "Point", "coordinates": [ 3.8808897, 43.6162653 ] } },
{ "type": "Feature", "properties": { "index": "215", "@osmId": "node/4791701187", "name": "Épicerie Russe", "opening_hours": "Mo-Sa 10:00-19:00", "label": "Food shops", "color": "#31a354" }, "geometry": { "type": "Point", "coordinates": [ 3.8799985, 43.6146669 ] } },
{ "type": "Feature", "properties": { "index": "216", "@osmId": "node/4791701199", "name": "Les Délices du midi", "opening_hours": "Mo-Fr 07:00-20:00; Sa 07:00-13:30; Su 08:00-13:30", "label": "Food shops", "color": "#31a354" }, "geometry": { "type": "Point", "coordinates": [ 3.8698537, 43.6085295 ] } },
{ "type": "Feature", "properties": { "index": "217", "@osmId": "node/4791701205", "name": "Le Rif", "opening_hours": "24/7", "label": "Food shops", "color": "#31a354" }, "geometry": { "type": "Point", "coordinates": [ 3.8708512, 43.608294 ] } },
{ "type": "Feature", "properties": { "index": "218", "@osmId": "node/5230212807", "name": "Biocoop", "opening_hours": "Mo-Sa 10:00-19:30", "label": "Food shops", "color": "#31a354" }, "geometry": { "type": "Point", "coordinates": [ 3.901785, 43.6017382 ] } },
{ "type": "Feature", "properties": { "index": "219", "@osmId": "node/5268284923", "name": "Intermarché super Clémenceau", "opening_hours": "Mo-Sa 09:00-20:00, Su 09:00-12:30", "label": "Food shops", "color": "#31a354" }, "geometry": { "type": "Point", "coordinates": [ 3.8708449, 43.6024413 ] } },
{ "type": "Feature", "properties": { "index": "220", "@osmId": "node/5283767817", "name": "Des Rêves et du Pain", "opening_hours": "Tu-Fr 8:00-19:30; Sa 08:00-19:00", "label": "Food shops", "color": "#31a354" }, "geometry": { "type": "Point", "coordinates": [ 3.8736243, 43.6106384 ] } },
{ "type": "Feature", "properties": { "index": "221", "@osmId": "node/5321820265", "name": "Comptoir des Olives", "opening_hours": "We-Su 08:00-13:00", "label": "Food shops", "color": "#31a354" }, "geometry": { "type": "Point", "coordinates": [ 3.89016, 43.609151 ] } },
{ "type": "Feature", "properties": { "index": "222", "@osmId": "node/5747891360", "name": "Spar", "opening_hours": "Mo-Fr 08:00-19:00; Sa 09:00-19:00", "label": "Food shops", "color": "#31a354" }, "geometry": { "type": "Point", "coordinates": [ 3.8775676, 43.6116473 ] } },
{ "type": "Feature", "properties": { "index": "223", "@osmId": "node/6007208392", "name": "Vival", "opening_hours": null, "label": "Food shops", "color": "#31a354" }, "geometry": { "type": "Point", "coordinates": [ 3.8734154, 43.6003463 ] } },
{ "type": "Feature", "properties": { "index": "224", "@osmId": "node/6250505475", "name": "Chez Roger - Les Saveurs du Bio", "opening_hours": "Mo-Fr 06:00-19:00", "label": "Food shops", "color": "#31a354" }, "geometry": { "type": "Point", "coordinates": [ 3.8815534, 43.615703 ] } },
{ "type": "Feature", "properties": { "index": "225", "@osmId": "node/6255494182", "name": "Palais Saint-Lazare", "opening_hours": "Mo-Sa 07:00-19:45;Su 07:00-13:00", "label": "Food shops", "color": "#31a354" }, "geometry": { "type": "Point", "coordinates": [ 3.8876688, 43.6210638 ] } },
{ "type": "Feature", "properties": { "index": "226", "@osmId": "node/6269789385", "name": "La Pangée", "opening_hours": null, "label": "Food shops", "color": "#31a354" }, "geometry": { "type": "Point", "coordinates": [ 3.8738361, 43.6085513 ] } },
{ "type": "Feature", "properties": { "index": "227", "@osmId": "node/6407757033", "name": "Pain Brut", "opening_hours": "Tu-Sa 08:00-18:30", "label": "Food shops", "color": "#31a354" }, "geometry": { "type": "Point", "coordinates": [ 3.8783766, 43.6071938 ] } },
{ "type": "Feature", "properties": { "index": "228", "@osmId": "node/6469280712", "name": "Carrefour Express", "opening_hours": "Mo-Sa 08:00-21:00; Su 09:00-13:00", "label": "Food shops", "color": "#31a354" }, "geometry": { "type": "Point", "coordinates": [ 3.8936644, 43.6059816 ] } },
{ "type": "Feature", "properties": { "index": "229", "@osmId": "node/6499771278", "name": "Lidl", "opening_hours": "Mo-Sa 08:30-20:00; Su 08:30-12:30", "label": "Food shops", "color": "#31a354" }, "geometry": { "type": "Point", "coordinates": [ 3.8978022, 43.6180852 ] } },
{ "type": "Feature", "properties": { "index": "230", "@osmId": "node/6547225876", "name": "Boulangerie Daveloza", "opening_hours": "Tu-Fr 09:30-13:30,16:00-19:30; Sa 09:30-19:30", "label": "Food shops", "color": "#31a354" }, "geometry": { "type": "Point", "coordinates": [ 3.8755111, 43.6051221 ] } },
{ "type": "Feature", "properties": { "index": "231", "@osmId": "node/6600801698", "name": "Albert Shop", "opening_hours": null, "label": "Food shops", "color": "#31a354" }, "geometry": { "type": "Point", "coordinates": [ 3.8743948, 43.6165875 ] } },
{ "type": "Feature", "properties": { "index": "232", "@osmId": "node/6660745086", "name": "Biocoop", "opening_hours": "Mo 14:30-19:30; Tu-Sa 09:00-19:30", "label": "Food shops", "color": "#31a354" }, "geometry": { "type": "Point", "coordinates": [ 3.872936, 43.6084685 ] } },
{ "type": "Feature", "properties": { "index": "233", "@osmId": "node/7038382248", "name": null, "opening_hours": null, "label": "Food shops", "color": "#31a354" }, "geometry": { "type": "Point", "coordinates": [ 3.8760773, 43.6096481 ] } },
{ "type": "Feature", "properties": { "index": "234", "@osmId": "node/7485974142", "name": "Secrets de Pains", "opening_hours": null, "label": "Food shops", "color": "#31a354" }, "geometry": { "type": "Point", "coordinates": [ 3.89448, 43.612492 ] } },
{ "type": "Feature", "properties": { "index": "235", "@osmId": "node/8147476401", "name": "Boucherie du Lez", "opening_hours": "Tu-Fr 07:00-13:00,16:00-19:00; Sa 07:00-19:00; Su 08:30-12:30", "label": "Food shops", "color": "#31a354" }, "geometry": { "type": "Point", "coordinates": [ 3.8972983, 43.62053 ] } },
{ "type": "Feature", "properties": { "index": "236", "@osmId": "node/8147476405", "name": "Persil et noisette", "opening_hours": "Tu-Sa 09:00-12:05,16:00-19:00; Su 09:00-12:05", "label": "Food shops", "color": "#31a354" }, "geometry": { "type": "Point", "coordinates": [ 3.8973244, 43.6208266 ] } },
{ "type": "Feature", "properties": { "index": "237", "@osmId": "node/8293308777", "name": "Un Monde plus Bio", "opening_hours": null, "label": "Food shops", "color": "#31a354" }, "geometry": { "type": "Point", "coordinates": [ 3.8844257, 43.6204359 ] } },
{ "type": "Feature", "properties": { "index": "238", "@osmId": "node/8741838352", "name": "Carrefour Express", "opening_hours": "Mo-Sa 08:00-21:00; Su 09:00-13:00", "label": "Food shops", "color": "#31a354" }, "geometry": { "type": "Point", "coordinates": [ 3.8922167, 43.6013716 ] } },
{ "type": "Feature", "properties": { "index": "239", "@osmId": "node/8953272039", "name": "Le Bienvenu", "opening_hours": "PH,Mo-Su 10:00-02:00", "label": "Food shops", "color": "#31a354" }, "geometry": { "type": "Point", "coordinates": [ 3.8825274, 43.6051749 ] } },
{ "type": "Feature", "properties": { "index": "240", "@osmId": "node/9025184515", "name": "Épicerie Casher", "opening_hours": null, "label": "Food shops", "color": "#31a354" }, "geometry": { "type": "Point", "coordinates": [ 3.8785469, 43.6178266 ] } },
{ "type": "Feature", "properties": { "index": "241", "@osmId": "node/10065878017", "name": "Intermarché", "opening_hours": "Mo-Sa 09:00-21:00; Su 09:00-13:00", "label": "Food shops", "color": "#31a354" }, "geometry": { "type": "Point", "coordinates": [ 3.8777496, 43.6039476 ] } },
{ "type": "Feature", "properties": { "index": "242", "@osmId": "node/10294860039", "name": "Les Miches Rebelles", "opening_hours": "Mo 12:30-19:30; Tu-Fr 10:00-14:00,15:30-19:30; Sa 09:00-13:00", "label": "Food shops", "color": "#31a354" }, "geometry": { "type": "Point", "coordinates": [ 3.8889885, 43.6249247 ] } },
{ "type": "Feature", "properties": { "index": "243", "@osmId": "node/10582264405", "name": "Pain d'Épi", "opening_hours": null, "label": "Food shops", "color": "#31a354" }, "geometry": { "type": "Point", "coordinates": [ 3.8801975, 43.6028454 ] } },
{ "type": "Feature", "properties": { "index": "244", "@osmId": "node/10735366150", "name": "Le Royaume", "opening_hours": null, "label": "Food shops", "color": "#31a354" }, "geometry": { "type": "Point", "coordinates": [ 3.8680105, 43.608161 ] } },
{ "type": "Feature", "properties": { "index": "245", "@osmId": "node/10804398804", "name": "Boucherie Dari Boumediene", "opening_hours": "Mo-Sa 08:00-20:00; Su 09:00-20:00", "label": "Food shops", "color": "#31a354" }, "geometry": { "type": "Point", "coordinates": [ 3.8696325, 43.6075447 ] } },
{ "type": "Feature", "properties": { "index": "246", "@osmId": "node/10965856735", "name": "Wei Son", "opening_hours": "Tu-Sa 10:00-13:00,15:00-19:00; Mo 15:00-19:00", "label": "Food shops", "color": "#31a354" }, "geometry": { "type": "Point", "coordinates": [ 3.8777553, 43.6047756 ] } },
{ "type": "Feature", "properties": { "index": "247", "@osmId": "node/11015573089", "name": "Élément Terre", "opening_hours": null, "label": "Food shops", "color": "#31a354" }, "geometry": { "type": "Point", "coordinates": [ 3.8682257, 43.6021745 ] } },
{ "type": "Feature", "properties": { "index": "248", "@osmId": "node/11091891829", "name": "Carrefour City", "opening_hours": "Mo-Sa 07:00-22:00; Su 08:30-22:00", "label": "Food shops", "color": "#31a354" }, "geometry": { "type": "Point", "coordinates": [ 3.8829771, 43.6090153 ] } },
{ "type": "Feature", "properties": { "index": "249", "@osmId": "node/11145948681", "name": "La Notte", "opening_hours": null, "label": "Food shops", "color": "#31a354" }, "geometry": { "type": "Point", "coordinates": [ 3.8775729, 43.6056641 ] } },
{ "type": "Feature", "properties": { "index": "250", "@osmId": "node/11145974822", "name": "La Babote", "opening_hours": null, "label": "Food shops", "color": "#31a354" }, "geometry": { "type": "Point", "coordinates": [ 3.8774009, 43.6058426 ] } },
{ "type": "Feature", "properties": { "index": "251", "@osmId": "node/11511479924", "name": "Oh La'Mie", "opening_hours": null, "label": "Food shops", "color": "#31a354" }, "geometry": { "type": "Point", "coordinates": [ 3.8737406, 43.6119345 ] } },
{ "type": "Feature", "properties": { "index": "252", "@osmId": "node/11992079245", "name": "Dari Boumédiène", "opening_hours": null, "label": "Food shops", "color": "#31a354" }, "geometry": { "type": "Point", "coordinates": [ 3.8970459, 43.6177559 ] } },
{ "type": "Feature", "properties": { "index": "253", "@osmId": "node/12017610571", "name": "Couteaux et Savoirs", "opening_hours": null, "label": "Food shops", "color": "#31a354" }, "geometry": { "type": "Point", "coordinates": [ 3.87539, 43.6056934 ] } },
{ "type": "Feature", "properties": { "index": "254", "@osmId": "node/12804033406", "name": "L'Atelier Gourmand", "opening_hours": null, "label": "Food shops", "color": "#31a354" }, "geometry": { "type": "Point", "coordinates": [ 3.8716594, 43.6032242 ] } },
{ "type": "Feature", "properties": { "index": "255", "@osmId": "node/12896372924", "name": "Epicerie Afgane", "opening_hours": null, "label": "Food shops", "color": "#31a354" }, "geometry": { "type": "Point", "coordinates": [ 3.8781867, 43.6074428 ] } },
{ "type": "Feature", "properties": { "index": "256", "@osmId": "node/13108269772", "name": "Carrefour City Verdanson", "opening_hours": "Mo-Sa 07:00-22:00; Su 09:00-13:00", "label": "Food shops", "color": "#31a354" }, "geometry": { "type": "Point", "coordinates": [ 3.8749831, 43.6159028 ] } },
{ "type": "Feature", "properties": { "index": "257", "@osmId": "node/13142972289", "name": "Daveloza", "opening_hours": "Tu-Sa 10:00-14:00,16:30-19:00", "label": "Food shops", "color": "#31a354" }, "geometry": { "type": "Point", "coordinates": [ 3.8774644, 43.6106848 ] } },
{ "type": "Feature", "properties": { "index": "258", "@osmId": "node/13624993201", "name": "Carrefour city", "opening_hours": null, "label": "Food shops", "color": "#31a354" }, "geometry": { "type": "Point", "coordinates": [ 3.8862147, 43.6058695 ] } },
{ "type": "Feature", "properties": { "index": "259", "@osmId": "node/13695594601", "name": "La Panetière", "opening_hours": null, "label": "Food shops", "color": "#31a354" }, "geometry": { "type": "Point", "coordinates": [ 3.8865885, 43.6069305 ] } }
]
}
