{
"type": "FeatureCollection",
"features": [
{ "type": "Feature", "properties": { "index": "0", "label": "Within 300 m on foot", "color": "#2b8cbe" }, "geometry": { "type": "MultiPolygon", "coordinates": [ [ [ [ 8.6682239, 49.3983671 ], [ 8.6682852, 49.3981053 ], [ 8.6683256, 49.3980019 ], [ 8.6763483, 49.3980031 ], [ 8.6763954, 49.3981283 ], [ 8.6764532, 49.3983904 ], [ 8.6764714, 49.3986549 ], [ 8.6764498, 49.3989194 ], [ 8.6763885, 49.3991812 ], [ 8.6762882, 49.3994378 ], [ 8.6761499, 49.3996867 ], [ 8.6759748, 49.3999256 ], [ 8.6757647, 49.4001522 ], [ 8.6755216, 49.4003642 ], [ 8.6752478, 49.4005596 ], [ 8.674946, 49.4007366 ], [ 8.674619, 49.4008935 ], [ 8.6742701, 49.4010286 ], [ 8.6739025, 49.4011408 ], [ 8.6735199, 49.401229 ], [ 8.6731259, 49.4012922 ], [ 8.6727242, 49.4013299 ], [ 8.6723188, 49.4013418 ], [ 8.6719136, 49.4013276 ], [ 8.6715125, 49.4012876 ], [ 8.6711193, 49.4012222 ], [ 8.6707379, 49.4011319 ], [ 8.6703718, 49.4010176 ], [ 8.6700247, 49.4008804 ], [ 8.6696998, 49.4007218 ], [ 8.6694004, 49.4005431 ], [ 8.6691292, 49.4003461 ], [ 8.6688889, 49.4001327 ], [ 8.6686818, 49.399905 ], [ 8.66851, 49.3996651 ], [ 8.668375, 49.3994153 ], [ 8.6682781, 49.3991582 ], [ 8.6682203, 49.3988961 ], [ 8.6682022, 49.3986315 ], [ 8.6682239, 49.3983671 ] ] ], [ [ [ 8.695198, 49.4004501 ], [ 8.69537, 49.40069 ], [ 8.6955052, 49.4009397 ], [ 8.6956022, 49.4011968 ], [ 8.6956601, 49.4014589 ], [ 8.6956784, 49.4017235 ], [ 8.6956568, 49.4019879 ], [ 8.6955957, 49.4022497 ], [ 8.6954955, 49.4025063 ], [ 8.6953572, 49.4027553 ], [ 8.6951823, 49.4029942 ], [ 8.6949722, 49.4032208 ], [ 8.6947292, 49.4034329 ], [ 8.6944555, 49.4036284 ], [ 8.6941537, 49.4038054 ], [ 8.6938268, 49.4039623 ], [ 8.6934779, 49.4040975 ], [ 8.6931103, 49.4042098 ], [ 8.6927277, 49.404298 ], [ 8.6923336, 49.4043613 ], [ 8.692085, 49.4043846 ], [ 8.6921788, 49.4045154 ], [ 8.6923139, 49.4047651 ], [ 8.6924109, 49.4050222 ], [ 8.6924688, 49.4052843 ], [ 8.6924871, 49.4055489 ], [ 8.6924655, 49.4058133 ], [ 8.6924044, 49.4060751 ], [ 8.6923041, 49.4063317 ], [ 8.6922317, 49.4064621 ], [ 8.6923897, 49.4066357 ], [ 8.6925618, 49.4068756 ], [ 8.6926969, 49.4071253 ], [ 8.6927939, 49.4073824 ], [ 8.6928518, 49.4076445 ], [ 8.6928529, 49.4076594 ], [ 8.6929206, 49.4076438 ], [ 8.6933147, 49.4075805 ], [ 8.6937163, 49.4075427 ], [ 8.6941218, 49.4075307 ], [ 8.694527, 49.4075448 ], [ 8.6949282, 49.4075847 ], [ 8.6953215, 49.4076501 ], [ 8.695703, 49.4077403 ], [ 8.6960692, 49.4078545 ], [ 8.6964164, 49.4079916 ], [ 8.6967414, 49.4081502 ], [ 8.697041, 49.4083288 ], [ 8.6973124, 49.4085257 ], [ 8.6975528, 49.4087391 ], [ 8.6977601, 49.4089667 ], [ 8.6979321, 49.4092066 ], [ 8.6980673, 49.4094563 ], [ 8.6981644, 49.4097134 ], [ 8.6982223, 49.4099755 ], [ 8.6982406, 49.4102401 ], [ 8.6982191, 49.4105045 ], [ 8.6981579, 49.4107663 ], [ 8.6980577, 49.4110229 ], [ 8.6979195, 49.4112719 ], [ 8.6977445, 49.4115108 ], [ 8.6975344, 49.4117374 ], [ 8.6972913, 49.4119495 ], [ 8.6970176, 49.412145 ], [ 8.6967157, 49.412322 ], [ 8.6963888, 49.4124789 ], [ 8.6960398, 49.4126142 ], [ 8.6956722, 49.4127264 ], [ 8.6952895, 49.4128146 ], [ 8.6948954, 49.4128779 ], [ 8.6944937, 49.4129157 ], [ 8.6940882, 49.4129277 ], [ 8.6936829, 49.4129136 ], [ 8.6932817, 49.4128737 ], [ 8.6928884, 49.4128083 ], [ 8.6925068, 49.412718 ], [ 8.6921406, 49.4126038 ], [ 8.6917933, 49.4124668 ], [ 8.6914683, 49.4123082 ], [ 8.6911687, 49.4121295 ], [ 8.6908974, 49.4119326 ], [ 8.690657, 49.4117192 ], [ 8.6904497, 49.4114915 ], [ 8.6902777, 49.4112517 ], [ 8.6901426, 49.411002 ], [ 8.6900456, 49.4107448 ], [ 8.6899877, 49.4104827 ], [ 8.6899866, 49.4104679 ], [ 8.6899189, 49.4104835 ], [ 8.6895248, 49.4105468 ], [ 8.6891231, 49.4105845 ], [ 8.6887176, 49.4105965 ], [ 8.6883124, 49.4105824 ], [ 8.6879111, 49.4105424 ], [ 8.6875179, 49.410477 ], [ 8.6871363, 49.4103868 ], [ 8.6867701, 49.4102726 ], [ 8.6864229, 49.4101355 ], [ 8.6860979, 49.4099768 ], [ 8.6857984, 49.4097982 ], [ 8.6855271, 49.4096012 ], [ 8.6852867, 49.4093879 ], [ 8.6850795, 49.4091602 ], [ 8.6849075, 49.4089203 ], [ 8.6847724, 49.4086706 ], [ 8.6846754, 49.4084135 ], [ 8.6846175, 49.4081513 ], [ 8.6845993, 49.4078868 ], [ 8.6846194, 49.4076408 ], [ 8.6843178, 49.4075694 ], [ 8.6839516, 49.4074552 ], [ 8.6836044, 49.4073181 ], [ 8.6832795, 49.4071595 ], [ 8.6829799, 49.4069808 ], [ 8.6827086, 49.4067839 ], [ 8.6824683, 49.4065705 ], [ 8.6822611, 49.4063428 ], [ 8.6820891, 49.4061029 ], [ 8.681954, 49.4058532 ], [ 8.6818571, 49.4055961 ], [ 8.6817992, 49.4053339 ], [ 8.681781, 49.4050694 ], [ 8.6818027, 49.404805 ], [ 8.6818639, 49.4045432 ], [ 8.6819642, 49.4042866 ], [ 8.6821025, 49.4040376 ], [ 8.6822775, 49.4037987 ], [ 8.6824876, 49.4035721 ], [ 8.6827307, 49.4033601 ], [ 8.6830045, 49.4031646 ], [ 8.6833063, 49.4029876 ], [ 8.6836332, 49.4028308 ], [ 8.6839822, 49.4026956 ], [ 8.6843497, 49.4025833 ], [ 8.6847324, 49.4024952 ], [ 8.6851264, 49.4024319 ], [ 8.685528, 49.4023941 ], [ 8.6859334, 49.4023822 ], [ 8.6863386, 49.4023963 ], [ 8.6867398, 49.4024363 ], [ 8.687133, 49.4025017 ], [ 8.6875145, 49.4025919 ], [ 8.6876648, 49.4026389 ], [ 8.6875817, 49.4024852 ], [ 8.6874847, 49.4022281 ], [ 8.6874269, 49.4019659 ], [ 8.6874086, 49.4017014 ], [ 8.6874302, 49.401437 ], [ 8.6874914, 49.4011752 ], [ 8.6875916, 49.4009186 ], [ 8.6877299, 49.4006696 ], [ 8.6879049, 49.4004307 ], [ 8.688115, 49.4002041 ], [ 8.688358, 49.399992 ], [ 8.6886318, 49.3997966 ], [ 8.6889335, 49.3996195 ], [ 8.6892604, 49.3994627 ], [ 8.6896093, 49.3993275 ], [ 8.6899768, 49.3992152 ], [ 8.6903594, 49.399127 ], [ 8.6907534, 49.3990637 ], [ 8.6911551, 49.399026 ], [ 8.6915604, 49.399014 ], [ 8.6919656, 49.3990281 ], [ 8.6923667, 49.399068 ], [ 8.6927599, 49.3991334 ], [ 8.6931414, 49.3992237 ], [ 8.6935075, 49.3993379 ], [ 8.6938547, 49.3994749 ], [ 8.6941796, 49.3996335 ], [ 8.6944791, 49.3998122 ], [ 8.6947504, 49.4000091 ], [ 8.6949908, 49.4002224 ], [ 8.695198, 49.4004501 ] ] ], [ [ [ 8.7040275, 49.408632 ], [ 8.7044328, 49.4086461 ], [ 8.704834, 49.408686 ], [ 8.7052273, 49.4087513 ], [ 8.7056089, 49.4088415 ], [ 8.7059581, 49.4089504 ], [ 8.7060836, 49.408912 ], [ 8.7064663, 49.4088238 ], [ 8.7068603, 49.4087605 ], [ 8.707262, 49.4087226 ], [ 8.7076674, 49.4087106 ], [ 8.7080727, 49.4087247 ], [ 8.7084739, 49.4087645 ], [ 8.7088672, 49.4088299 ], [ 8.7092488, 49.40892 ], [ 8.709615, 49.4090342 ], [ 8.7099623, 49.4091712 ], [ 8.7102873, 49.4093298 ], [ 8.710587, 49.4095084 ], [ 8.7108584, 49.4097053 ], [ 8.7110989, 49.4099186 ], [ 8.7113062, 49.4101462 ], [ 8.7114783, 49.410386 ], [ 8.7116136, 49.4106357 ], [ 8.7117107, 49.4108928 ], [ 8.7117687, 49.4111549 ], [ 8.7117871, 49.4114195 ], [ 8.7117656, 49.4116839 ], [ 8.7117045, 49.4119457 ], [ 8.7116044, 49.4122024 ], [ 8.7114662, 49.4124514 ], [ 8.7112913, 49.4126903 ], [ 8.7110813, 49.4129169 ], [ 8.7108383, 49.413129 ], [ 8.7105646, 49.4133246 ], [ 8.7102628, 49.4135016 ], [ 8.7099359, 49.4136586 ], [ 8.7095869, 49.4137938 ], [ 8.7092193, 49.4139061 ], [ 8.7088367, 49.4139944 ], [ 8.7084426, 49.4140577 ], [ 8.7080408, 49.4140956 ], [ 8.7076354, 49.4141076 ], [ 8.7072301, 49.4140935 ], [ 8.7068288, 49.4140537 ], [ 8.7064355, 49.4139883 ], [ 8.7060539, 49.4138981 ], [ 8.7057045, 49.4137893 ], [ 8.705579, 49.4138276 ], [ 8.7051964, 49.4139158 ], [ 8.7048023, 49.4139792 ], [ 8.7044005, 49.414017 ], [ 8.7039951, 49.414029 ], [ 8.7035898, 49.4140149 ], [ 8.7031885, 49.413975 ], [ 8.7027952, 49.4139097 ], [ 8.7024136, 49.4138195 ], [ 8.7020473, 49.4137053 ], [ 8.7017, 49.4135683 ], [ 8.701375, 49.4134097 ], [ 8.7010753, 49.4132311 ], [ 8.700804, 49.4130342 ], [ 8.7005635, 49.4128208 ], [ 8.7003562, 49.4125931 ], [ 8.7001841, 49.4123533 ], [ 8.7000489, 49.4121036 ], [ 8.6999519, 49.4118465 ], [ 8.6998939, 49.4115844 ], [ 8.6998756, 49.4113198 ], [ 8.6998971, 49.4110554 ], [ 8.6999583, 49.4107936 ], [ 8.7000585, 49.410537 ], [ 8.7001967, 49.410288 ], [ 8.7003717, 49.4100491 ], [ 8.7005817, 49.4098225 ], [ 8.7008248, 49.4096104 ], [ 8.7010985, 49.4094149 ], [ 8.7014003, 49.4092378 ], [ 8.7017272, 49.4090809 ], [ 8.7020762, 49.4089457 ], [ 8.7024437, 49.4088334 ], [ 8.7028264, 49.4087452 ], [ 8.7032204, 49.4086818 ], [ 8.7036221, 49.408644 ], [ 8.7040275, 49.408632 ] ] ], [ [ [ 8.6920199, 49.4127858 ], [ 8.6922271, 49.4130135 ], [ 8.6923992, 49.4132534 ], [ 8.6925343, 49.4135031 ], [ 8.6926313, 49.4137602 ], [ 8.6926893, 49.4140223 ], [ 8.6927075, 49.4142869 ], [ 8.692686, 49.4145513 ], [ 8.6926248, 49.4148131 ], [ 8.6925245, 49.4150697 ], [ 8.6923862, 49.4153187 ], [ 8.6922112, 49.4155576 ], [ 8.6920011, 49.4157842 ], [ 8.691758, 49.4159962 ], [ 8.6914842, 49.4161917 ], [ 8.6911823, 49.4163688 ], [ 8.6908553, 49.4165256 ], [ 8.6905063, 49.4166609 ], [ 8.6901387, 49.4167731 ], [ 8.6897559, 49.4168613 ], [ 8.6893618, 49.4169246 ], [ 8.68896, 49.4169623 ], [ 8.6885545, 49.4169742 ], [ 8.6881492, 49.4169602 ], [ 8.6877479, 49.4169202 ], [ 8.6873546, 49.4168548 ], [ 8.686973, 49.4167646 ], [ 8.6866068, 49.4166504 ], [ 8.6862595, 49.4165133 ], [ 8.6859345, 49.4163546 ], [ 8.6856349, 49.416176 ], [ 8.6853635, 49.415979 ], [ 8.6851231, 49.4157657 ], [ 8.6849159, 49.415538 ], [ 8.6847439, 49.4152981 ], [ 8.6846087, 49.4150484 ], [ 8.6845118, 49.4147912 ], [ 8.6844539, 49.4145291 ], [ 8.6844357, 49.4142646 ], [ 8.6844573, 49.4140001 ], [ 8.6845185, 49.4137384 ], [ 8.6846188, 49.4134818 ], [ 8.6847571, 49.4132328 ], [ 8.6849322, 49.4129939 ], [ 8.6851423, 49.4127673 ], [ 8.6853854, 49.4125553 ], [ 8.6856592, 49.4123598 ], [ 8.6859611, 49.4121828 ], [ 8.6862881, 49.4120259 ], [ 8.6866371, 49.4118907 ], [ 8.6870047, 49.4117785 ], [ 8.6873874, 49.4116903 ], [ 8.6877815, 49.411627 ], [ 8.6881832, 49.4115893 ], [ 8.6885887, 49.4115773 ], [ 8.688994, 49.4115914 ], [ 8.6893952, 49.4116314 ], [ 8.6897885, 49.4116968 ], [ 8.69017, 49.411787 ], [ 8.6905362, 49.4119012 ], [ 8.6908835, 49.4120383 ], [ 8.6912085, 49.4121969 ], [ 8.6915081, 49.4123755 ], [ 8.6917794, 49.4125725 ], [ 8.6920199, 49.4127858 ] ] ] ] } },
{ "type": "Feature", "properties": { "index": "1", "label": "Beyond 300 m", "color": "#d9d9d9" }, "geometry": { "type": "Polygon", "coordinates": [ [ [ 8.66, 49.422 ], [ 8.66, 49.398 ], [ 8.6683256, 49.3980019 ], [ 8.6682852, 49.3981053 ], [ 8.6682239, 49.3983671 ], [ 8.6682022, 49.3986315 ], [ 8.6682203, 49.3988961 ], [ 8.6682781, 49.3991582 ], [ 8.668375, 49.3994153 ], [ 8.66851, 49.3996651 ], [ 8.6686818, 49.399905 ], [ 8.6688889, 49.4001327 ], [ 8.6691292, 49.4003461 ], [ 8.6694004, 49.4005431 ], [ 8.6696998, 49.4007218 ], [ 8.6700247, 49.4008804 ], [ 8.6703718, 49.4010176 ], [ 8.6707379, 49.4011319 ], [ 8.6711193, 49.4012222 ], [ 8.6715125, 49.4012876 ], [ 8.6719136, 49.4013276 ], [ 8.6723188, 49.4013418 ], [ 8.6727242, 49.4013299 ], [ 8.6731259, 49.4012922 ], [ 8.6735199, 49.401229 ], [ 8.6739025, 49.4011408 ], [ 8.6742701, 49.4010286 ], [ 8.674619, 49.4008935 ], [ 8.674946, 49.4007366 ], [ 8.6752478, 49.4005596 ], [ 8.6755216, 49.4003642 ], [ 8.6757647, 49.4001522 ], [ 8.6759748, 49.3999256 ], [ 8.6761499, 49.3996867 ], [ 8.6762882, 49.3994378 ], [ 8.6763885, 49.3991812 ], [ 8.6764498, 49.3989194 ], [ 8.6764714, 49.3986549 ], [ 8.6764532, 49.3983904 ], [ 8.6763954, 49.3981283 ], [ 8.6763483, 49.3980031 ], [ 8.72, 49.398 ], [ 8.72, 49.422 ], [ 8.66, 49.422 ] ], [ [ 8.6956022, 49.4011968 ], [ 8.6955052, 49.4009397 ], [ 8.69537, 49.40069 ], [ 8.695198, 49.4004501 ], [ 8.6949908, 49.4002224 ], [ 8.6947504, 49.4000091 ], [ 8.6944791, 49.3998122 ], [ 8.6941796, 49.3996335 ], [ 8.6938547, 49.3994749 ], [ 8.6935075, 49.3993379 ], [ 8.6931414, 49.3992237 ], [ 8.6927599, 49.3991334 ], [ 8.6923667, 49.399068 ], [ 8.6919656, 49.3990281 ], [ 8.6915604, 49.399014 ], [ 8.6911551, 49.399026 ], [ 8.6907534, 49.3990637 ], [ 8.6903594, 49.399127 ], [ 8.6899768, 49.3992152 ], [ 8.6896093, 49.3993275 ], [ 8.6892604, 49.3994627 ], [ 8.6889335, 49.3996195 ], [ 8.6886318, 49.3997966 ], [ 8.688358, 49.399992 ], [ 8.688115, 49.4002041 ], [ 8.6879049, 49.4004307 ], [ 8.6877299, 49.4006696 ], [ 8.6875916, 49.4009186 ], [ 8.6874914, 49.4011752 ], [ 8.6874302, 49.401437 ], [ 8.6874086, 49.4017014 ], [ 8.6874269, 49.4019659 ], [ 8.6874847, 49.4022281 ], [ 8.6875817, 49.4024852 ], [ 8.6876648, 49.4026389 ], [ 8.6875145, 49.4025919 ], [ 8.687133, 49.4025017 ], [ 8.6867398, 49.4024363 ], [ 8.6863386, 49.4023963 ], [ 8.6859334, 49.4023822 ], [ 8.685528, 49.4023941 ], [ 8.6851264, 49.4024319 ], [ 8.6847324, 49.4024952 ], [ 8.6843497, 49.4025833 ], [ 8.6839822, 49.4026956 ], [ 8.6836332, 49.4028308 ], [ 8.6833063, 49.4029876 ], [ 8.6830045, 49.4031646 ], [ 8.6827307, 49.4033601 ], [ 8.6824876, 49.4035721 ], [ 8.6822775, 49.4037987 ], [ 8.6821025, 49.4040376 ], [ 8.6819642, 49.4042866 ], [ 8.6818639, 49.4045432 ], [ 8.6818027, 49.404805 ], [ 8.681781, 49.4050694 ], [ 8.6817992, 49.4053339 ], [ 8.6818571, 49.4055961 ], [ 8.681954, 49.4058532 ], [ 8.6820891, 49.4061029 ], [ 8.6822611, 49.4063428 ], [ 8.6824683, 49.4065705 ], [ 8.6827086, 49.4067839 ], [ 8.6829799, 49.4069808 ], [ 8.6832795, 49.4071595 ], [ 8.6836044, 49.4073181 ], [ 8.6839516, 49.4074552 ], [ 8.6843178, 49.4075694 ], [ 8.6846194, 49.4076408 ], [ 8.6845993, 49.4078868 ], [ 8.6846175, 49.4081513 ], [ 8.6846754, 49.4084135 ], [ 8.6847724, 49.4086706 ], [ 8.6849075, 49.4089203 ], [ 8.6850795, 49.4091602 ], [ 8.6852867, 49.4093879 ], [ 8.6855271, 49.4096012 ], [ 8.6857984, 49.4097982 ], [ 8.6860979, 49.4099768 ], [ 8.6864229, 49.4101355 ], [ 8.6867701, 49.4102726 ], [ 8.6871363, 49.4103868 ], [ 8.6875179, 49.410477 ], [ 8.6879111, 49.4105424 ], [ 8.6883124, 49.4105824 ], [ 8.6887176, 49.4105965 ], [ 8.6891231, 49.4105845 ], [ 8.6895248, 49.4105468 ], [ 8.6899189, 49.4104835 ], [ 8.6899866, 49.4104679 ], [ 8.6899877, 49.4104827 ], [ 8.6900456, 49.4107448 ], [ 8.6901426, 49.411002 ], [ 8.6902777, 49.4112517 ], [ 8.6904497, 49.4114915 ], [ 8.690657, 49.4117192 ], [ 8.6908974, 49.4119326 ], [ 8.6911687, 49.4121295 ], [ 8.6914683, 49.4123082 ], [ 8.6917933, 49.4124668 ], [ 8.6921406, 49.4126038 ], [ 8.6925068, 49.412718 ], [ 8.6928884, 49.4128083 ], [ 8.6932817, 49.4128737 ], [ 8.6936829, 49.4129136 ], [ 8.6940882, 49.4129277 ], [ 8.6944937, 49.4129157 ], [ 8.6948954, 49.4128779 ], [ 8.6952895, 49.4128146 ], [ 8.6956722, 49.4127264 ], [ 8.6960398, 49.4126142 ], [ 8.6963888, 49.4124789 ], [ 8.6967157, 49.412322 ], [ 8.6970176, 49.412145 ], [ 8.6972913, 49.4119495 ], [ 8.6975344, 49.4117374 ], [ 8.6977445, 49.4115108 ], [ 8.6979195, 49.4112719 ], [ 8.6980577, 49.4110229 ], [ 8.6981579, 49.4107663 ], [ 8.6982191, 49.4105045 ], [ 8.6982406, 49.4102401 ], [ 8.6982223, 49.4099755 ], [ 8.6981644, 49.4097134 ], [ 8.6980673, 49.4094563 ], [ 8.6979321, 49.4092066 ], [ 8.6977601, 49.4089667 ], [ 8.6975528, 49.4087391 ], [ 8.6973124, 49.4085257 ], [ 8.697041, 49.4083288 ], [ 8.6967414, 49.4081502 ], [ 8.6964164, 49.4079916 ], [ 8.6960692, 49.4078545 ], [ 8.695703, 49.4077403 ], [ 8.6953215, 49.4076501 ], [ 8.6949282, 49.4075847 ], [ 8.694527, 49.4075448 ], [ 8.6941218, 49.4075307 ], [ 8.6937163, 49.4075427 ], [ 8.6933147, 49.4075805 ], [ 8.6929206, 49.4076438 ], [ 8.6928529, 49.4076594 ], [ 8.6928518, 49.4076445 ], [ 8.6927939, 49.4073824 ], [ 8.6926969, 49.4071253 ], [ 8.6925618, 49.4068756 ], [ 8.6923897, 49.4066357 ], [ 8.6922317, 49.4064621 ], [ 8.6923041, 49.4063317 ], [ 8.6924044, 49.4060751 ], [ 8.6924655, 49.4058133 ], [ 8.6924871, 49.4055489 ], [ 8.6924688, 49.4052843 ], [ 8.6924109, 49.4050222 ], [ 8.6923139, 49.4047651 ], [ 8.6921788, 49.4045154 ], [ 8.692085, 49.4043846 ], [ 8.6923336, 49.4043613 ], [ 8.6927277, 49.404298 ], [ 8.6931103, 49.4042098 ], [ 8.6934779, 49.4040975 ], [ 8.6938268, 49.4039623 ], [ 8.6941537, 49.4038054 ], [ 8.6944555, 49.4036284 ], [ 8.6947292, 49.4034329 ], [ 8.6949722, 49.4032208 ], [ 8.6951823, 49.4029942 ], [ 8.6953572, 49.4027553 ], [ 8.6954955, 49.4025063 ], [ 8.6955957, 49.4022497 ], [ 8.6956568, 49.4019879 ], [ 8.6956784, 49.4017235 ], [ 8.6956601, 49.4014589 ], [ 8.6956022, 49.4011968 ] ], [ [ 8.7052273, 49.4087513 ], [ 8.704834, 49.408686 ], [ 8.7044328, 49.4086461 ], [ 8.7040275, 49.408632 ], [ 8.7036221, 49.408644 ], [ 8.7032204, 49.4086818 ], [ 8.7028264, 49.4087452 ], [ 8.7024437, 49.4088334 ], [ 8.7020762, 49.4089457 ], [ 8.7017272, 49.4090809 ], [ 8.7014003, 49.4092378 ], [ 8.7010985, 49.4094149 ], [ 8.7008248, 49.4096104 ], [ 8.7005817, 49.4098225 ], [ 8.7003717, 49.4100491 ], [ 8.7001967, 49.410288 ], [ 8.7000585, 49.410537 ], [ 8.6999583, 49.4107936 ], [ 8.6998971, 49.4110554 ], [ 8.6998756, 49.4113198 ], [ 8.6998939, 49.4115844 ], [ 8.6999519, 49.4118465 ], [ 8.7000489, 49.4121036 ], [ 8.7001841, 49.4123533 ], [ 8.7003562, 49.4125931 ], [ 8.7005635, 49.4128208 ], [ 8.700804, 49.4130342 ], [ 8.7010753, 49.4132311 ], [ 8.701375, 49.4134097 ], [ 8.7017, 49.4135683 ], [ 8.7020473, 49.4137053 ], [ 8.7024136, 49.4138195 ], [ 8.7027952, 49.4139097 ], [ 8.7031885, 49.413975 ], [ 8.7035898, 49.4140149 ], [ 8.7039951, 49.414029 ], [ 8.7044005, 49.414017 ], [ 8.7048023, 49.4139792 ], [ 8.7051964, 49.4139158 ], [ 8.705579, 49.4138276 ], [ 8.7057045, 49.4137893 ], [ 8.7060539, 49.4138981 ], [ 8.7064355, 49.4139883 ], [ 8.7068288, 49.4140537 ], [ 8.7072301, 49.4140935 ], [ 8.7076354, 49.4141076 ], [ 8.7080408, 49.4140956 ], [ 8.7084426, 49.4140577 ], [ 8.7088367, 49.4139944 ], [ 8.7092193, 49.4139061 ], [ 8.7095869, 49.4137938 ], [ 8.7099359, 49.4136586 ], [ 8.7102628, 49.4135016 ], [ 8.7105646, 49.4133246 ], [ 8.7108383, 49.413129 ], [ 8.7110813, 49.4129169 ], [ 8.7112913, 49.4126903 ], [ 8.7114662, 49.4124514 ], [ 8.7116044, 49.4122024 ], [ 8.7117045, 49.4119457 ], [ 8.7117656, 49.4116839 ], [ 8.7117871, 49.4114195 ], [ 8.7117687, 49.4111549 ], [ 8.7117107, 49.4108928 ], [ 8.7116136, 49.4106357 ], [ 8.7114783, 49.410386 ], [ 8.7113062, 49.4101462 ], [ 8.7110989, 49.4099186 ], [ 8.7108584, 49.4097053 ], [ 8.710587, 49.4095084 ], [ 8.7102873, 49.4093298 ], [ 8.7099623, 49.4091712 ], [ 8.709615, 49.4090342 ], [ 8.7092488, 49.40892 ], [ 8.7088672, 49.4088299 ], [ 8.7084739, 49.4087645 ], [ 8.7080727, 49.4087247 ], [ 8.7076674, 49.4087106 ], [ 8.707262, 49.4087226 ], [ 8.7068603, 49.4087605 ], [ 8.7064663, 49.4088238 ], [ 8.7060836, 49.408912 ], [ 8.7059581, 49.4089504 ], [ 8.7056089, 49.4088415 ], [ 8.7052273, 49.4087513 ] ], [ [ 8.6925343, 49.4135031 ], [ 8.6923992, 49.4132534 ], [ 8.6922271, 49.4130135 ], [ 8.6920199, 49.4127858 ], [ 8.6917794, 49.4125725 ], [ 8.6915081, 49.4123755 ], [ 8.6912085, 49.4121969 ], [ 8.6908835, 49.4120383 ], [ 8.6905362, 49.4119012 ], [ 8.69017, 49.411787 ], [ 8.6897885, 49.4116968 ], [ 8.6893952, 49.4116314 ], [ 8.688994, 49.4115914 ], [ 8.6885887, 49.4115773 ], [ 8.6881832, 49.4115893 ], [ 8.6877815, 49.411627 ], [ 8.6873874, 49.4116903 ], [ 8.6870047, 49.4117785 ], [ 8.6866371, 49.4118907 ], [ 8.6862881, 49.4120259 ], [ 8.6859611, 49.4121828 ], [ 8.6856592, 49.4123598 ], [ 8.6853854, 49.4125553 ], [ 8.6851423, 49.4127673 ], [ 8.6849322, 49.4129939 ], [ 8.6847571, 49.4132328 ], [ 8.6846188, 49.4134818 ], [ 8.6845185, 49.4137384 ], [ 8.6844573, 49.4140001 ], [ 8.6844357, 49.4142646 ], [ 8.6844539, 49.4145291 ], [ 8.6845118, 49.4147912 ], [ 8.6846087, 49.4150484 ], [ 8.6847439, 49.4152981 ], [ 8.6849159, 49.415538 ], [ 8.6851231, 49.4157657 ], [ 8.6853635, 49.415979 ], [ 8.6856349, 49.416176 ], [ 8.6859345, 49.4163546 ], [ 8.6862595, 49.4165133 ], [ 8.6866068, 49.4166504 ], [ 8.686973, 49.4167646 ], [ 8.6873546, 49.4168548 ], [ 8.6877479, 49.4169202 ], [ 8.6881492, 49.4169602 ], [ 8.6885545, 49.4169742 ], [ 8.68896, 49.4169623 ], [ 8.6893618, 49.4169246 ], [ 8.6897559, 49.4168613 ], [ 8.6901387, 49.4167731 ], [ 8.6905063, 49.4166609 ], [ 8.6908553, 49.4165256 ], [ 8.6911823, 49.4163688 ], [ 8.6914842, 49.4161917 ], [ 8.691758, 49.4159962 ], [ 8.6920011, 49.4157842 ], [ 8.6922112, 49.4155576 ], [ 8.6923862, 49.4153187 ], [ 8.6925245, 49.4150697 ], [ 8.6926248, 49.4148131 ], [ 8.692686, 49.4145513 ], [ 8.6927075, 49.4142869 ], [ 8.6926893, 49.4140223 ], [ 8.6926313, 49.4137602 ], [ 8.6925343, 49.4135031 ] ] ] } }
]
}
