{
"type": "FeatureCollection",
"features": [
{ "type": "Feature", "properties": { "index": "0", "@osmId": "node/10224529212", "name": null, "opening_hours": null, "label": "Signalised crossings with acoustic guidance", "color": "#e6550d" }, "geometry": { "type": "Point", "coordinates": [ -96.7347643, 32.8786829 ] } },
{ "type": "Feature", "properties": { "index": "1", "@osmId": "node/10224529213", "name": null, "opening_hours": null, "label": "Signalised crossings with acoustic guidance", "color": "#e6550d" }, "geometry": { "type": "Point", "coordinates": [ -96.7347875, 32.8785616 ] } },
{ "type": "Feature", "properties": { "index": "2", "@osmId": "node/10224529214", "name": null, "opening_hours": null, "label": "Signalised crossings with acoustic guidance", "color": "#e6550d" }, "geometry": { "type": "Point", "coordinates": [ -96.7350428, 32.878788 ] } },
{ "type": "Feature", "properties": { "index": "3", "@osmId": "node/10224529215", "name": null, "opening_hours": null, "label": "Signalised crossings with acoustic guidance", "color": "#e6550d" }, "geometry": { "type": "Point", "coordinates": [ -96.7348678, 32.8787894 ] } },
{ "type": "Feature", "properties": { "index": "4", "@osmId": "node/10224529216", "name": null, "opening_hours": null, "label": "Signalised crossings with acoustic guidance", "color": "#e6550d" }, "geometry": { "type": "Point", "coordinates": [ -96.7352002, 32.8785624 ] } },
{ "type": "Feature", "properties": { "index": "5", "@osmId": "node/10224558417", "name": null, "opening_hours": null, "label": "Signalised crossings with acoustic guidance", "color": "#e6550d" }, "geometry": { "type": "Point", "coordinates": [ -96.7351916, 32.8786843 ] } },
{ "type": "Feature", "properties": { "index": "6", "@osmId": "node/10224558418", "name": null, "opening_hours": null, "label": "Signalised crossings with acoustic guidance", "color": "#e6550d" }, "geometry": { "type": "Point", "coordinates": [ -96.7348679, 32.8784878 ] } },
{ "type": "Feature", "properties": { "index": "7", "@osmId": "node/10224558419", "name": null, "opening_hours": null, "label": "Signalised crossings with acoustic guidance", "color": "#e6550d" }, "geometry": { "type": "Point", "coordinates": [ -96.7350425, 32.8784788 ] } },
{ "type": "Feature", "properties": { "index": "8", "@osmId": "node/5809609356", "name": null, "opening_hours": null, "label": "Signalised crossings with acoustic guidance", "color": "#e6550d" }, "geometry": { "type": "Point", "coordinates": [ -96.8078599, 32.7789276 ] } },
{ "type": "Feature", "properties": { "index": "9", "@osmId": "node/5810865016", "name": null, "opening_hours": null, "label": "Signalised crossings with acoustic guidance", "color": "#e6550d" }, "geometry": { "type": "Point", "coordinates": [ -96.7949457, 32.7759865 ] } },
{ "type": "Feature", "properties": { "index": "10", "@osmId": "node/5810929861", "name": null, "opening_hours": null, "label": "Signalised crossings with acoustic guidance", "color": "#e6550d" }, "geometry": { "type": "Point", "coordinates": [ -96.7961464, 32.7779938 ] } },
{ "type": "Feature", "properties": { "index": "11", "@osmId": "node/5810929862", "name": null, "opening_hours": null, "label": "Signalised crossings with acoustic guidance", "color": "#e6550d" }, "geometry": { "type": "Point", "coordinates": [ -96.7962687, 32.7780718 ] } },
{ "type": "Feature", "properties": { "index": "12", "@osmId": "node/5810929915", "name": null, "opening_hours": null, "label": "Signalised crossings with acoustic guidance", "color": "#e6550d" }, "geometry": { "type": "Point", "coordinates": [ -96.7949439, 32.7760996 ] } },
{ "type": "Feature", "properties": { "index": "13", "@osmId": "node/5810929916", "name": null, "opening_hours": null, "label": "Signalised crossings with acoustic guidance", "color": "#e6550d" }, "geometry": { "type": "Point", "coordinates": [ -96.7950829, 32.7759863 ] } },
{ "type": "Feature", "properties": { "index": "14", "@osmId": "node/5810929917", "name": null, "opening_hours": null, "label": "Signalised crossings with acoustic guidance", "color": "#e6550d" }, "geometry": { "type": "Point", "coordinates": [ -96.7950745, 32.7760948 ] } },
{ "type": "Feature", "properties": { "index": "15", "@osmId": "node/5810929930", "name": null, "opening_hours": null, "label": "Signalised crossings with acoustic guidance", "color": "#e6550d" }, "geometry": { "type": "Point", "coordinates": [ -96.7962002, 32.7778667 ] } },
{ "type": "Feature", "properties": { "index": "16", "@osmId": "node/5810929931", "name": null, "opening_hours": null, "label": "Signalised crossings with acoustic guidance", "color": "#e6550d" }, "geometry": { "type": "Point", "coordinates": [ -96.7963213, 32.7779168 ] } },
{ "type": "Feature", "properties": { "index": "17", "@osmId": "node/5810929932", "name": null, "opening_hours": null, "label": "Signalised crossings with acoustic guidance", "color": "#e6550d" }, "geometry": { "type": "Point", "coordinates": [ -96.7963419, 32.7779788 ] } },
{ "type": "Feature", "properties": { "index": "18", "@osmId": "node/5811017847", "name": null, "opening_hours": null, "label": "Signalised crossings with acoustic guidance", "color": "#e6550d" }, "geometry": { "type": "Point", "coordinates": [ -96.8000756, 32.7771971 ] } },
{ "type": "Feature", "properties": { "index": "19", "@osmId": "node/5811032340", "name": null, "opening_hours": null, "label": "Signalised crossings with acoustic guidance", "color": "#e6550d" }, "geometry": { "type": "Point", "coordinates": [ -96.8025294, 32.7777485 ] } },
{ "type": "Feature", "properties": { "index": "20", "@osmId": "node/5811032341", "name": null, "opening_hours": null, "label": "Signalised crossings with acoustic guidance", "color": "#e6550d" }, "geometry": { "type": "Point", "coordinates": [ -96.8023691, 32.7777864 ] } },
{ "type": "Feature", "properties": { "index": "21", "@osmId": "node/5811032342", "name": null, "opening_hours": null, "label": "Signalised crossings with acoustic guidance", "color": "#e6550d" }, "geometry": { "type": "Point", "coordinates": [ -96.8022582, 32.7777248 ] } },
{ "type": "Feature", "properties": { "index": "22", "@osmId": "node/5811032343", "name": null, "opening_hours": null, "label": "Signalised crossings with acoustic guidance", "color": "#e6550d" }, "geometry": { "type": "Point", "coordinates": [ -96.8024611, 32.7775301 ] } },
{ "type": "Feature", "properties": { "index": "23", "@osmId": "node/5811032344", "name": null, "opening_hours": null, "label": "Signalised crossings with acoustic guidance", "color": "#e6550d" }, "geometry": { "type": "Point", "coordinates": [ -96.802313, 32.7776051 ] } },
{ "type": "Feature", "properties": { "index": "24", "@osmId": "node/5823910895", "name": null, "opening_hours": null, "label": "Signalised crossings with acoustic guidance", "color": "#e6550d" }, "geometry": { "type": "Point", "coordinates": [ -96.7951613, 32.7860817 ] } },
{ "type": "Feature", "properties": { "index": "25", "@osmId": "node/5824219498", "name": null, "opening_hours": null, "label": "Signalised crossings with acoustic guidance", "color": "#e6550d" }, "geometry": { "type": "Point", "coordinates": [ -96.8001393, 32.7901638 ] } },
{ "type": "Feature", "properties": { "index": "26", "@osmId": "node/5824219499", "name": null, "opening_hours": null, "label": "Signalised crossings with acoustic guidance", "color": "#e6550d" }, "geometry": { "type": "Point", "coordinates": [ -96.7999069, 32.7903612 ] } },
{ "type": "Feature", "properties": { "index": "27", "@osmId": "node/5824219500", "name": null, "opening_hours": null, "label": "Signalised crossings with acoustic guidance", "color": "#e6550d" }, "geometry": { "type": "Point", "coordinates": [ -96.7999131, 32.7902636 ] } },
{ "type": "Feature", "properties": { "index": "28", "@osmId": "node/5824219501", "name": null, "opening_hours": null, "label": "Signalised crossings with acoustic guidance", "color": "#e6550d" }, "geometry": { "type": "Point", "coordinates": [ -96.8000258, 32.7901692 ] } },
{ "type": "Feature", "properties": { "index": "29", "@osmId": "node/5824219502", "name": null, "opening_hours": null, "label": "Signalised crossings with acoustic guidance", "color": "#e6550d" }, "geometry": { "type": "Point", "coordinates": [ -96.8004552, 32.7908961 ] } },
{ "type": "Feature", "properties": { "index": "30", "@osmId": "node/5824219503", "name": null, "opening_hours": null, "label": "Signalised crossings with acoustic guidance", "color": "#e6550d" }, "geometry": { "type": "Point", "coordinates": [ -96.8006911, 32.7908071 ] } },
{ "type": "Feature", "properties": { "index": "31", "@osmId": "node/5824219504", "name": null, "opening_hours": null, "label": "Signalised crossings with acoustic guidance", "color": "#e6550d" }, "geometry": { "type": "Point", "coordinates": [ -96.800577, 32.7909034 ] } },
{ "type": "Feature", "properties": { "index": "32", "@osmId": "node/5824219505", "name": null, "opening_hours": null, "label": "Signalised crossings with acoustic guidance", "color": "#e6550d" }, "geometry": { "type": "Point", "coordinates": [ -96.8007107, 32.790687 ] } },
{ "type": "Feature", "properties": { "index": "33", "@osmId": "node/5825372973", "name": null, "opening_hours": null, "label": "Signalised crossings with acoustic guidance", "color": "#e6550d" }, "geometry": { "type": "Point", "coordinates": [ -96.8063335, 32.7829086 ] } },
{ "type": "Feature", "properties": { "index": "34", "@osmId": "node/5825372976", "name": null, "opening_hours": null, "label": "Signalised crossings with acoustic guidance", "color": "#e6550d" }, "geometry": { "type": "Point", "coordinates": [ -96.8062, 32.7829221 ] } },
{ "type": "Feature", "properties": { "index": "35", "@osmId": "node/5832583986", "name": null, "opening_hours": null, "label": "Signalised crossings with acoustic guidance", "color": "#e6550d" }, "geometry": { "type": "Point", "coordinates": [ -96.7962554, 32.7858176 ] } },
{ "type": "Feature", "properties": { "index": "36", "@osmId": "node/5832583987", "name": null, "opening_hours": null, "label": "Signalised crossings with acoustic guidance", "color": "#e6550d" }, "geometry": { "type": "Point", "coordinates": [ -96.7961207, 32.7858444 ] } },
{ "type": "Feature", "properties": { "index": "37", "@osmId": "node/5838904543", "name": null, "opening_hours": null, "label": "Signalised crossings with acoustic guidance", "color": "#e6550d" }, "geometry": { "type": "Point", "coordinates": [ -96.7986222, 32.7799866 ] } },
{ "type": "Feature", "properties": { "index": "38", "@osmId": "node/6313411068", "name": null, "opening_hours": null, "label": "Signalised crossings with acoustic guidance", "color": "#e6550d" }, "geometry": { "type": "Point", "coordinates": [ -96.8479617, 32.8207348 ] } },
{ "type": "Feature", "properties": { "index": "39", "@osmId": "node/6313411072", "name": null, "opening_hours": null, "label": "Signalised crossings with acoustic guidance", "color": "#e6550d" }, "geometry": { "type": "Point", "coordinates": [ -96.8477337, 32.8205452 ] } },
{ "type": "Feature", "properties": { "index": "40", "@osmId": "node/6837914617", "name": null, "opening_hours": null, "label": "Signalised crossings with acoustic guidance", "color": "#e6550d" }, "geometry": { "type": "Point", "coordinates": [ -96.7677744, 32.8509661 ] } },
{ "type": "Feature", "properties": { "index": "41", "@osmId": "node/6837914618", "name": null, "opening_hours": null, "label": "Signalised crossings with acoustic guidance", "color": "#e6550d" }, "geometry": { "type": "Point", "coordinates": [ -96.7677741, 32.8510978 ] } },
{ "type": "Feature", "properties": { "index": "42", "@osmId": "node/6837914620", "name": null, "opening_hours": null, "label": "Signalised crossings with acoustic guidance", "color": "#e6550d" }, "geometry": { "type": "Point", "coordinates": [ -96.7676135, 32.8510965 ] } },
{ "type": "Feature", "properties": { "index": "43", "@osmId": "node/6837914622", "name": null, "opening_hours": null, "label": "Signalised crossings with acoustic guidance", "color": "#e6550d" }, "geometry": { "type": "Point", "coordinates": [ -96.7676131, 32.8509639 ] } },
{ "type": "Feature", "properties": { "index": "44", "@osmId": "node/6838459901", "name": null, "opening_hours": null, "label": "Signalised crossings with acoustic guidance", "color": "#e6550d" }, "geometry": { "type": "Point", "coordinates": [ -96.7604035, 32.8509898 ] } },
{ "type": "Feature", "properties": { "index": "45", "@osmId": "node/6838459902", "name": null, "opening_hours": null, "label": "Signalised crossings with acoustic guidance", "color": "#e6550d" }, "geometry": { "type": "Point", "coordinates": [ -96.7607252, 32.8509932 ] } },
{ "type": "Feature", "properties": { "index": "46", "@osmId": "node/6838459903", "name": null, "opening_hours": null, "label": "Signalised crossings with acoustic guidance", "color": "#e6550d" }, "geometry": { "type": "Point", "coordinates": [ -96.7607671, 32.8508855 ] } },
{ "type": "Feature", "properties": { "index": "47", "@osmId": "node/6838459904", "name": null, "opening_hours": null, "label": "Signalised crossings with acoustic guidance", "color": "#e6550d" }, "geometry": { "type": "Point", "coordinates": [ -96.7604447, 32.8508813 ] } },
{ "type": "Feature", "properties": { "index": "48", "@osmId": "node/6838459905", "name": null, "opening_hours": null, "label": "Signalised crossings with acoustic guidance", "color": "#e6550d" }, "geometry": { "type": "Point", "coordinates": [ -96.7605518, 32.8508118 ] } },
{ "type": "Feature", "properties": { "index": "49", "@osmId": "node/6838459906", "name": null, "opening_hours": null, "label": "Signalised crossings with acoustic guidance", "color": "#e6550d" }, "geometry": { "type": "Point", "coordinates": [ -96.7606864, 32.8508018 ] } },
{ "type": "Feature", "properties": { "index": "50", "@osmId": "node/6838459907", "name": null, "opening_hours": null, "label": "Signalised crossings with acoustic guidance", "color": "#e6550d" }, "geometry": { "type": "Point", "coordinates": [ -96.7605944, 32.8510604 ] } },
{ "type": "Feature", "properties": { "index": "51", "@osmId": "node/6838459908", "name": null, "opening_hours": null, "label": "Signalised crossings with acoustic guidance", "color": "#e6550d" }, "geometry": { "type": "Point", "coordinates": [ -96.7604493, 32.8510572 ] } },
{ "type": "Feature", "properties": { "index": "52", "@osmId": "node/11577250846", "name": null, "opening_hours": null, "label": "Signalised crossings with acoustic guidance", "color": "#e6550d" }, "geometry": { "type": "Point", "coordinates": [ -96.8201331, 32.7965012 ] } },
{ "type": "Feature", "properties": { "index": "53", "@osmId": "way/729964840", "name": null, "opening_hours": null, "label": "Any signal with acoustic guidance", "color": "#fd8d3c" }, "geometry": { "type": "Point", "coordinates": [ -96.7649633, 32.8603366 ] } },
{ "type": "Feature", "properties": { "index": "54", "@osmId": "way/1159717273", "name": null, "opening_hours": null, "label": "Any signal with acoustic guidance", "color": "#fd8d3c" }, "geometry": { "type": "Point", "coordinates": [ -96.7648057, 32.8603925 ] } },
{ "type": "Feature", "properties": { "index": "55", "@osmId": "way/1159717274", "name": null, "opening_hours": null, "label": "Any signal with acoustic guidance", "color": "#fd8d3c" }, "geometry": { "type": "Point", "coordinates": [ -96.7648581, 32.8601763 ] } },
{ "type": "Feature", "properties": { "index": "56", "@osmId": "way/1456749105", "name": null, "opening_hours": null, "label": "Any signal with acoustic guidance", "color": "#fd8d3c" }, "geometry": { "type": "Point", "coordinates": [ -96.764717, 32.8601429 ] } },
{ "type": "Feature", "properties": { "index": "57", "@osmId": "way/1456749106", "name": null, "opening_hours": null, "label": "Any signal with acoustic guidance", "color": "#fd8d3c" }, "geometry": { "type": "Point", "coordinates": [ -96.764992, 32.8602081 ] } },
{ "type": "Feature", "properties": { "index": "58", "@osmId": "way/1456749107", "name": null, "opening_hours": null, "label": "Any signal with acoustic guidance", "color": "#fd8d3c" }, "geometry": { "type": "Point", "coordinates": [ -96.7649961, 32.8602343 ] } },
{ "type": "Feature", "properties": { "index": "59", "@osmId": "way/1456750450", "name": null, "opening_hours": null, "label": "Any signal with acoustic guidance", "color": "#fd8d3c" }, "geometry": { "type": "Point", "coordinates": [ -96.7646571, 32.8603667 ] } },
{ "type": "Feature", "properties": { "index": "60", "@osmId": "node/8011018363", "name": null, "opening_hours": null, "label": "Any signal with acoustic guidance", "color": "#fd8d3c" }, "geometry": { "type": "Point", "coordinates": [ -96.8059362, 32.7887852 ] } },
{ "type": "Feature", "properties": { "index": "61", "@osmId": "node/8011018366", "name": null, "opening_hours": null, "label": "Any signal with acoustic guidance", "color": "#fd8d3c" }, "geometry": { "type": "Point", "coordinates": [ -96.806669, 32.7889379 ] } },
{ "type": "Feature", "properties": { "index": "62", "@osmId": "node/5838904530", "name": null, "opening_hours": null, "label": "Signals with tactile/vibration", "color": "#fdae6b" }, "geometry": { "type": "Point", "coordinates": [ -96.7992656, 32.779848 ] } }
]
}
