{
"type": "FeatureCollection",
"features": [
{ "type": "Feature", "properties": { "index": "0", "label": "Within 1500 m by bike", "color": "#2b8cbe" }, "geometry": { "type": "Polygon", "coordinates": [ [ [ 39.2909017, -6.7824492 ], [ 39.2904521, -6.7811958 ], [ 39.2898858, -6.7800007 ], [ 39.22, -6.78 ], [ 39.22, -6.85 ], [ 39.2958847, -6.8500003 ], [ 39.2962407, -6.8492468 ], [ 39.2966888, -6.8479928 ], [ 39.2970117, -6.8467009 ], [ 39.2972064, -6.8453836 ], [ 39.2972168, -6.8451696 ], [ 39.2976552, -6.8444375 ], [ 39.2982241, -6.8432334 ], [ 39.2986721, -6.8419793 ], [ 39.2989951, -6.8406875 ], [ 39.2991897, -6.8393702 ], [ 39.2992543, -6.8380402 ], [ 39.2991921, -6.8367916 ], [ 39.2994854, -6.8359708 ], [ 39.2998083, -6.834679 ], [ 39.3, -6.833382 ], [ 39.2999999, -6.8056016 ], [ 39.2999876, -6.8055997 ], [ 39.2999813, -6.8055577 ], [ 39.2997058, -6.804461 ], [ 39.2996759, -6.8038591 ], [ 39.2994796, -6.8025421 ], [ 39.2991551, -6.8012506 ], [ 39.2987055, -6.7999971 ], [ 39.2981352, -6.7987937 ], [ 39.2974496, -6.797652 ], [ 39.2970107, -6.7970612 ], [ 39.2968585, -6.7964555 ], [ 39.2964089, -6.795202 ], [ 39.2958386, -6.7939986 ], [ 39.2951531, -6.7928569 ], [ 39.2943588, -6.7917878 ], [ 39.2938457, -6.7912226 ], [ 39.2936839, -6.7901367 ], [ 39.2933594, -6.7888452 ], [ 39.2929099, -6.7875917 ], [ 39.2923396, -6.7863883 ], [ 39.2918199, -6.7855228 ], [ 39.2917974, -6.7853716 ], [ 39.2914729, -6.7840801 ], [ 39.2910234, -6.7828266 ], [ 39.2909661, -6.7827059 ], [ 39.2909017, -6.7824492 ] ] ] } },
{ "type": "Feature", "properties": { "index": "1", "label": "Beyond 1500 m", "color": "#d9d9d9" }, "geometry": { "type": "MultiPolygon", "coordinates": [ [ [ [ 39.2958847, -6.8500003 ], [ 39.3, -6.85 ], [ 39.3, -6.833382 ], [ 39.2998083, -6.834679 ], [ 39.2994854, -6.8359708 ], [ 39.2991921, -6.8367916 ], [ 39.2992543, -6.8380402 ], [ 39.2991897, -6.8393702 ], [ 39.2989951, -6.8406875 ], [ 39.2986721, -6.8419793 ], [ 39.2982241, -6.8432334 ], [ 39.2976552, -6.8444375 ], [ 39.2972168, -6.8451696 ], [ 39.2972064, -6.8453836 ], [ 39.2970117, -6.8467009 ], [ 39.2966888, -6.8479928 ], [ 39.2962407, -6.8492468 ], [ 39.2958847, -6.8500003 ] ] ], [ [ [ 39.2999999, -6.8056016 ], [ 39.3, -6.833382 ], [ 39.3, -6.78 ], [ 39.2898858, -6.7800007 ], [ 39.2904521, -6.7811958 ], [ 39.2909017, -6.7824492 ], [ 39.2909661, -6.7827059 ], [ 39.2910234, -6.7828266 ], [ 39.2914729, -6.7840801 ], [ 39.2917974, -6.7853716 ], [ 39.2918199, -6.7855228 ], [ 39.2923396, -6.7863883 ], [ 39.2929099, -6.7875917 ], [ 39.2933594, -6.7888452 ], [ 39.2936839, -6.7901367 ], [ 39.2938457, -6.7912226 ], [ 39.2943588, -6.7917878 ], [ 39.2951531, -6.7928569 ], [ 39.2958386, -6.7939986 ], [ 39.2964089, -6.795202 ], [ 39.2968585, -6.7964555 ], [ 39.2970107, -6.7970612 ], [ 39.2974496, -6.797652 ], [ 39.2981352, -6.7987937 ], [ 39.2987055, -6.7999971 ], [ 39.2991551, -6.8012506 ], [ 39.2994796, -6.8025421 ], [ 39.2996759, -6.8038591 ], [ 39.2997058, -6.804461 ], [ 39.2999813, -6.8055577 ], [ 39.2999876, -6.8055997 ], [ 39.2999999, -6.8056016 ] ] ] ] } }
]
}
