{
"type": "FeatureCollection",
"features": [
{ "type": "Feature", "properties": { "index": "0", "last_edit_year": 2026, "years_since_edit": 0, "label": "0.0–1.0 yr", "color": "#eff3ff" }, "geometry": { "type": "Point", "coordinates": [ 39.282032, -6.8489405 ] } },
{ "type": "Feature", "properties": { "index": "1", "last_edit_year": 2026, "years_since_edit": 0, "label": "0.0–1.0 yr", "color": "#eff3ff" }, "geometry": { "type": "Point", "coordinates": [ 39.2836412, -6.8440422 ] } },
{ "type": "Feature", "properties": { "index": "2", "last_edit_year": 2026, "years_since_edit": 0, "label": "0.0–1.0 yr", "color": "#eff3ff" }, "geometry": { "type": "Point", "coordinates": [ 39.2856302, -6.8380351 ] } },
{ "type": "Feature", "properties": { "index": "3", "last_edit_year": 2024, "years_since_edit": 2, "label": "2.0–3.0 yr", "color": "#6baed6" }, "geometry": { "type": "Point", "coordinates": [ 39.2872654, -6.8195389 ] } },
{ "type": "Feature", "properties": { "index": "4", "last_edit_year": 2023, "years_since_edit": 3, "label": "3.0–7.0 yr", "color": "#3182bd" }, "geometry": { "type": "Point", "coordinates": [ 39.2901636, -6.8184903 ] } },
{ "type": "Feature", "properties": { "index": "5", "last_edit_year": 2023, "years_since_edit": 3, "label": "3.0–7.0 yr", "color": "#3182bd" }, "geometry": { "type": "Point", "coordinates": [ 39.2689928, -6.8114173 ] } },
{ "type": "Feature", "properties": { "index": "6", "last_edit_year": 2023, "years_since_edit": 3, "label": "3.0–7.0 yr", "color": "#3182bd" }, "geometry": { "type": "Point", "coordinates": [ 39.2660268, -6.8126168 ] } },
{ "type": "Feature", "properties": { "index": "7", "last_edit_year": 2023, "years_since_edit": 3, "label": "3.0–7.0 yr", "color": "#3182bd" }, "geometry": { "type": "Point", "coordinates": [ 39.2635316, -6.78573 ] } },
{ "type": "Feature", "properties": { "index": "8", "last_edit_year": 2017, "years_since_edit": 9, "label": "7.0–16.0 yr", "color": "#08519c" }, "geometry": { "type": "Point", "coordinates": [ 39.2794388, -6.8154985 ] } },
{ "type": "Feature", "properties": { "index": "9", "last_edit_year": 2020, "years_since_edit": 6, "label": "3.0–7.0 yr", "color": "#3182bd" }, "geometry": { "type": "Point", "coordinates": [ 39.2745553, -6.8133548 ] } },
{ "type": "Feature", "properties": { "index": "10", "last_edit_year": 2024, "years_since_edit": 2, "label": "2.0–3.0 yr", "color": "#6baed6" }, "geometry": { "type": "Point", "coordinates": [ 39.2852157, -6.8219836 ] } },
{ "type": "Feature", "properties": { "index": "11", "last_edit_year": 2020, "years_since_edit": 6, "label": "3.0–7.0 yr", "color": "#3182bd" }, "geometry": { "type": "Point", "coordinates": [ 39.2820879, -6.8170674 ] } },
{ "type": "Feature", "properties": { "index": "12", "last_edit_year": 2023, "years_since_edit": 3, "label": "3.0–7.0 yr", "color": "#3182bd" }, "geometry": { "type": "Point", "coordinates": [ 39.2845607, -6.8227111 ] } },
{ "type": "Feature", "properties": { "index": "13", "last_edit_year": 2025, "years_since_edit": 1, "label": "1.0–2.0 yr", "color": "#bdd7e7" }, "geometry": { "type": "Point", "coordinates": [ 39.2829759, -6.8249575 ] } },
{ "type": "Feature", "properties": { "index": "14", "last_edit_year": 2024, "years_since_edit": 2, "label": "2.0–3.0 yr", "color": "#6baed6" }, "geometry": { "type": "Point", "coordinates": [ 39.2743718, -6.8262242 ] } },
{ "type": "Feature", "properties": { "index": "15", "last_edit_year": 2024, "years_since_edit": 2, "label": "2.0–3.0 yr", "color": "#6baed6" }, "geometry": { "type": "Point", "coordinates": [ 39.2738258, -6.8263274 ] } },
{ "type": "Feature", "properties": { "index": "16", "last_edit_year": 2024, "years_since_edit": 2, "label": "2.0–3.0 yr", "color": "#6baed6" }, "geometry": { "type": "Point", "coordinates": [ 39.2733199, -6.8264237 ] } },
{ "type": "Feature", "properties": { "index": "17", "last_edit_year": 2024, "years_since_edit": 2, "label": "2.0–3.0 yr", "color": "#6baed6" }, "geometry": { "type": "Point", "coordinates": [ 39.2742521, -6.8260101 ] } },
{ "type": "Feature", "properties": { "index": "18", "last_edit_year": 2024, "years_since_edit": 2, "label": "2.0–3.0 yr", "color": "#6baed6" }, "geometry": { "type": "Point", "coordinates": [ 39.2737466, -6.8261039 ] } },
{ "type": "Feature", "properties": { "index": "19", "last_edit_year": 2021, "years_since_edit": 5, "label": "3.0–7.0 yr", "color": "#3182bd" }, "geometry": { "type": "Point", "coordinates": [ 39.2732671, -6.8261977 ] } },
{ "type": "Feature", "properties": { "index": "20", "last_edit_year": 2022, "years_since_edit": 4, "label": "3.0–7.0 yr", "color": "#3182bd" }, "geometry": { "type": "Point", "coordinates": [ 39.2738463, -6.8271609 ] } },
{ "type": "Feature", "properties": { "index": "21", "last_edit_year": 2026, "years_since_edit": 0, "label": "0.0–1.0 yr", "color": "#eff3ff" }, "geometry": { "type": "Point", "coordinates": [ 39.2780739, -6.8285893 ] } },
{ "type": "Feature", "properties": { "index": "22", "last_edit_year": 2026, "years_since_edit": 0, "label": "0.0–1.0 yr", "color": "#eff3ff" }, "geometry": { "type": "Point", "coordinates": [ 39.2850849, -6.8305683 ] } },
{ "type": "Feature", "properties": { "index": "23", "last_edit_year": 2026, "years_since_edit": 0, "label": "0.0–1.0 yr", "color": "#eff3ff" }, "geometry": { "type": "Point", "coordinates": [ 39.2864375, -6.8320906 ] } },
{ "type": "Feature", "properties": { "index": "24", "last_edit_year": 2026, "years_since_edit": 0, "label": "0.0–1.0 yr", "color": "#eff3ff" }, "geometry": { "type": "Point", "coordinates": [ 39.281389, -6.8228968 ] } },
{ "type": "Feature", "properties": { "index": "25", "last_edit_year": 2026, "years_since_edit": 0, "label": "0.0–1.0 yr", "color": "#eff3ff" }, "geometry": { "type": "Point", "coordinates": [ 39.2742602, -6.8266874 ] } },
{ "type": "Feature", "properties": { "index": "26", "last_edit_year": 2024, "years_since_edit": 2, "label": "2.0–3.0 yr", "color": "#6baed6" }, "geometry": { "type": "Point", "coordinates": [ 39.2744166, -6.8273816 ] } },
{ "type": "Feature", "properties": { "index": "27", "last_edit_year": 2023, "years_since_edit": 3, "label": "3.0–7.0 yr", "color": "#3182bd" }, "geometry": { "type": "Point", "coordinates": [ 39.2448003, -6.8446988 ] } },
{ "type": "Feature", "properties": { "index": "28", "last_edit_year": 2023, "years_since_edit": 3, "label": "3.0–7.0 yr", "color": "#3182bd" }, "geometry": { "type": "Point", "coordinates": [ 39.2562783, -6.8386206 ] } },
{ "type": "Feature", "properties": { "index": "29", "last_edit_year": 2025, "years_since_edit": 1, "label": "1.0–2.0 yr", "color": "#bdd7e7" }, "geometry": { "type": "Point", "coordinates": [ 39.2450325, -6.8464084 ] } },
{ "type": "Feature", "properties": { "index": "30", "last_edit_year": 2025, "years_since_edit": 1, "label": "1.0–2.0 yr", "color": "#bdd7e7" }, "geometry": { "type": "Point", "coordinates": [ 39.2729103, -6.8200116 ] } },
{ "type": "Feature", "properties": { "index": "31", "last_edit_year": 2025, "years_since_edit": 1, "label": "1.0–2.0 yr", "color": "#bdd7e7" }, "geometry": { "type": "Point", "coordinates": [ 39.2737699, -6.8240958 ] } },
{ "type": "Feature", "properties": { "index": "32", "last_edit_year": 2025, "years_since_edit": 1, "label": "1.0–2.0 yr", "color": "#bdd7e7" }, "geometry": { "type": "Point", "coordinates": [ 39.2751446, -6.8136998 ] } },
{ "type": "Feature", "properties": { "index": "33", "last_edit_year": 2017, "years_since_edit": 9, "label": "7.0–16.0 yr", "color": "#08519c" }, "geometry": { "type": "Point", "coordinates": [ 39.2806505, -6.8212236 ] } },
{ "type": "Feature", "properties": { "index": "34", "last_edit_year": 2017, "years_since_edit": 9, "label": "7.0–16.0 yr", "color": "#08519c" }, "geometry": { "type": "Point", "coordinates": [ 39.280511, -6.821426 ] } },
{ "type": "Feature", "properties": { "index": "35", "last_edit_year": 2017, "years_since_edit": 9, "label": "7.0–16.0 yr", "color": "#08519c" }, "geometry": { "type": "Point", "coordinates": [ 39.2802214, -6.8184645 ] } },
{ "type": "Feature", "properties": { "index": "36", "last_edit_year": 2025, "years_since_edit": 1, "label": "1.0–2.0 yr", "color": "#bdd7e7" }, "geometry": { "type": "Point", "coordinates": [ 39.2822172, -6.8171891 ] } },
{ "type": "Feature", "properties": { "index": "37", "last_edit_year": 2024, "years_since_edit": 2, "label": "2.0–3.0 yr", "color": "#6baed6" }, "geometry": { "type": "Point", "coordinates": [ 39.2722076, -6.8191007 ] } },
{ "type": "Feature", "properties": { "index": "38", "last_edit_year": 2015, "years_since_edit": 11, "label": "7.0–16.0 yr", "color": "#08519c" }, "geometry": { "type": "Point", "coordinates": [ 39.2679267, -6.8449148 ] } },
{ "type": "Feature", "properties": { "index": "39", "last_edit_year": 2026, "years_since_edit": 0, "label": "0.0–1.0 yr", "color": "#eff3ff" }, "geometry": { "type": "Point", "coordinates": [ 39.2734902, -6.8249591 ] } },
{ "type": "Feature", "properties": { "index": "40", "last_edit_year": 2020, "years_since_edit": 6, "label": "3.0–7.0 yr", "color": "#3182bd" }, "geometry": { "type": "Point", "coordinates": [ 39.2459204, -6.8357488 ] } },
{ "type": "Feature", "properties": { "index": "41", "last_edit_year": 2023, "years_since_edit": 3, "label": "3.0–7.0 yr", "color": "#3182bd" }, "geometry": { "type": "Point", "coordinates": [ 39.2807093, -6.8213725 ] } },
{ "type": "Feature", "properties": { "index": "42", "last_edit_year": 2020, "years_since_edit": 6, "label": "3.0–7.0 yr", "color": "#3182bd" }, "geometry": { "type": "Point", "coordinates": [ 39.2508204, -6.8300422 ] } },
{ "type": "Feature", "properties": { "index": "43", "last_edit_year": 2020, "years_since_edit": 6, "label": "3.0–7.0 yr", "color": "#3182bd" }, "geometry": { "type": "Point", "coordinates": [ 39.25041, -6.8302282 ] } },
{ "type": "Feature", "properties": { "index": "44", "last_edit_year": 2021, "years_since_edit": 5, "label": "3.0–7.0 yr", "color": "#3182bd" }, "geometry": { "type": "Point", "coordinates": [ 39.2542236, -6.8158407 ] } },
{ "type": "Feature", "properties": { "index": "45", "last_edit_year": 2024, "years_since_edit": 2, "label": "2.0–3.0 yr", "color": "#6baed6" }, "geometry": { "type": "Point", "coordinates": [ 39.2745812, -6.8133589 ] } },
{ "type": "Feature", "properties": { "index": "46", "last_edit_year": 2024, "years_since_edit": 2, "label": "2.0–3.0 yr", "color": "#6baed6" }, "geometry": { "type": "Point", "coordinates": [ 39.2744187, -6.8274252 ] } },
{ "type": "Feature", "properties": { "index": "47", "last_edit_year": 2025, "years_since_edit": 1, "label": "1.0–2.0 yr", "color": "#bdd7e7" }, "geometry": { "type": "Point", "coordinates": [ 39.2744436, -6.8131735 ] } },
{ "type": "Feature", "properties": { "index": "48", "last_edit_year": 2023, "years_since_edit": 3, "label": "3.0–7.0 yr", "color": "#3182bd" }, "geometry": { "type": "Point", "coordinates": [ 39.2795743, -6.8155931 ] } },
{ "type": "Feature", "properties": { "index": "49", "last_edit_year": 2024, "years_since_edit": 2, "label": "2.0–3.0 yr", "color": "#6baed6" }, "geometry": { "type": "Point", "coordinates": [ 39.2806296, -6.8212228 ] } },
{ "type": "Feature", "properties": { "index": "50", "last_edit_year": 2025, "years_since_edit": 1, "label": "1.0–2.0 yr", "color": "#bdd7e7" }, "geometry": { "type": "Point", "coordinates": [ 39.2666741, -6.8280555 ] } },
{ "type": "Feature", "properties": { "index": "51", "last_edit_year": 2024, "years_since_edit": 2, "label": "2.0–3.0 yr", "color": "#6baed6" }, "geometry": { "type": "Point", "coordinates": [ 39.2666619, -6.8280485 ] } },
{ "type": "Feature", "properties": { "index": "52", "last_edit_year": 2018, "years_since_edit": 8, "label": "7.0–16.0 yr", "color": "#08519c" }, "geometry": { "type": "Point", "coordinates": [ 39.2474503, -6.8332315 ] } },
{ "type": "Feature", "properties": { "index": "53", "last_edit_year": 2024, "years_since_edit": 2, "label": "2.0–3.0 yr", "color": "#6baed6" }, "geometry": { "type": "Point", "coordinates": [ 39.2753427, -6.8184866 ] } },
{ "type": "Feature", "properties": { "index": "54", "last_edit_year": 2025, "years_since_edit": 1, "label": "1.0–2.0 yr", "color": "#bdd7e7" }, "geometry": { "type": "Point", "coordinates": [ 39.2638932, -6.8251134 ] } },
{ "type": "Feature", "properties": { "index": "55", "last_edit_year": 2017, "years_since_edit": 9, "label": "7.0–16.0 yr", "color": "#08519c" }, "geometry": { "type": "Point", "coordinates": [ 39.2548626, -6.8168895 ] } },
{ "type": "Feature", "properties": { "index": "56", "last_edit_year": 2025, "years_since_edit": 1, "label": "1.0–2.0 yr", "color": "#bdd7e7" }, "geometry": { "type": "Point", "coordinates": [ 39.2647097, -6.8265466 ] } },
{ "type": "Feature", "properties": { "index": "57", "last_edit_year": 2025, "years_since_edit": 1, "label": "1.0–2.0 yr", "color": "#bdd7e7" }, "geometry": { "type": "Point", "coordinates": [ 39.2585122, -6.8279817 ] } },
{ "type": "Feature", "properties": { "index": "58", "last_edit_year": 2020, "years_since_edit": 6, "label": "3.0–7.0 yr", "color": "#3182bd" }, "geometry": { "type": "Point", "coordinates": [ 39.2443334, -6.8373303 ] } },
{ "type": "Feature", "properties": { "index": "59", "last_edit_year": 2024, "years_since_edit": 2, "label": "2.0–3.0 yr", "color": "#6baed6" }, "geometry": { "type": "Point", "coordinates": [ 39.2728982, -6.8210174 ] } },
{ "type": "Feature", "properties": { "index": "60", "last_edit_year": 2018, "years_since_edit": 8, "label": "7.0–16.0 yr", "color": "#08519c" }, "geometry": { "type": "Point", "coordinates": [ 39.2450476, -6.8417961 ] } },
{ "type": "Feature", "properties": { "index": "61", "last_edit_year": 2018, "years_since_edit": 8, "label": "7.0–16.0 yr", "color": "#08519c" }, "geometry": { "type": "Point", "coordinates": [ 39.2438474, -6.8392216 ] } },
{ "type": "Feature", "properties": { "index": "62", "last_edit_year": 2023, "years_since_edit": 3, "label": "3.0–7.0 yr", "color": "#3182bd" }, "geometry": { "type": "Point", "coordinates": [ 39.2513821, -6.8298097 ] } },
{ "type": "Feature", "properties": { "index": "63", "last_edit_year": 2023, "years_since_edit": 3, "label": "3.0–7.0 yr", "color": "#3182bd" }, "geometry": { "type": "Point", "coordinates": [ 39.251263, -6.8297274 ] } },
{ "type": "Feature", "properties": { "index": "64", "last_edit_year": 2024, "years_since_edit": 2, "label": "2.0–3.0 yr", "color": "#6baed6" }, "geometry": { "type": "Point", "coordinates": [ 39.2738298, -6.8261894 ] } },
{ "type": "Feature", "properties": { "index": "65", "last_edit_year": 2024, "years_since_edit": 2, "label": "2.0–3.0 yr", "color": "#6baed6" }, "geometry": { "type": "Point", "coordinates": [ 39.2734677, -6.8255822 ] } },
{ "type": "Feature", "properties": { "index": "66", "last_edit_year": 2025, "years_since_edit": 1, "label": "1.0–2.0 yr", "color": "#bdd7e7" }, "geometry": { "type": "Point", "coordinates": [ 39.2561285, -6.8285383 ] } },
{ "type": "Feature", "properties": { "index": "67", "last_edit_year": 2025, "years_since_edit": 1, "label": "1.0–2.0 yr", "color": "#bdd7e7" }, "geometry": { "type": "Point", "coordinates": [ 39.2564048, -6.8285183 ] } },
{ "type": "Feature", "properties": { "index": "68", "last_edit_year": 2026, "years_since_edit": 0, "label": "0.0–1.0 yr", "color": "#eff3ff" }, "geometry": { "type": "Point", "coordinates": [ 39.2729232, -6.8199734 ] } },
{ "type": "Feature", "properties": { "index": "69", "last_edit_year": 2025, "years_since_edit": 1, "label": "1.0–2.0 yr", "color": "#bdd7e7" }, "geometry": { "type": "Point", "coordinates": [ 39.2821091, -6.8170983 ] } },
{ "type": "Feature", "properties": { "index": "70", "last_edit_year": 2020, "years_since_edit": 6, "label": "3.0–7.0 yr", "color": "#3182bd" }, "geometry": { "type": "Point", "coordinates": [ 39.2443533, -6.8372681 ] } },
{ "type": "Feature", "properties": { "index": "71", "last_edit_year": 2025, "years_since_edit": 1, "label": "1.0–2.0 yr", "color": "#bdd7e7" }, "geometry": { "type": "Point", "coordinates": [ 39.2742931, -6.8165461 ] } },
{ "type": "Feature", "properties": { "index": "72", "last_edit_year": 2020, "years_since_edit": 6, "label": "3.0–7.0 yr", "color": "#3182bd" }, "geometry": { "type": "Point", "coordinates": [ 39.2506467, -6.8413861 ] } },
{ "type": "Feature", "properties": { "index": "73", "last_edit_year": 2024, "years_since_edit": 2, "label": "2.0–3.0 yr", "color": "#6baed6" }, "geometry": { "type": "Point", "coordinates": [ 39.2828279, -6.8245332 ] } },
{ "type": "Feature", "properties": { "index": "74", "last_edit_year": 2024, "years_since_edit": 2, "label": "2.0–3.0 yr", "color": "#6baed6" }, "geometry": { "type": "Point", "coordinates": [ 39.2459486, -6.8358116 ] } },
{ "type": "Feature", "properties": { "index": "75", "last_edit_year": 2021, "years_since_edit": 5, "label": "3.0–7.0 yr", "color": "#3182bd" }, "geometry": { "type": "Point", "coordinates": [ 39.2580342, -6.8192277 ] } },
{ "type": "Feature", "properties": { "index": "76", "last_edit_year": 2024, "years_since_edit": 2, "label": "2.0–3.0 yr", "color": "#6baed6" }, "geometry": { "type": "Point", "coordinates": [ 39.2474194, -6.8331416 ] } },
{ "type": "Feature", "properties": { "index": "77", "last_edit_year": 2025, "years_since_edit": 1, "label": "1.0–2.0 yr", "color": "#bdd7e7" }, "geometry": { "type": "Point", "coordinates": [ 39.258749, -6.8278126 ] } },
{ "type": "Feature", "properties": { "index": "78", "last_edit_year": 2025, "years_since_edit": 1, "label": "1.0–2.0 yr", "color": "#bdd7e7" }, "geometry": { "type": "Point", "coordinates": [ 39.2637433, -6.8266435 ] } },
{ "type": "Feature", "properties": { "index": "79", "last_edit_year": 2025, "years_since_edit": 1, "label": "1.0–2.0 yr", "color": "#bdd7e7" }, "geometry": { "type": "Point", "coordinates": [ 39.2633879, -6.8266368 ] } },
{ "type": "Feature", "properties": { "index": "80", "last_edit_year": 2025, "years_since_edit": 1, "label": "1.0–2.0 yr", "color": "#bdd7e7" }, "geometry": { "type": "Point", "coordinates": [ 39.2669056, -6.825698 ] } },
{ "type": "Feature", "properties": { "index": "81", "last_edit_year": 2025, "years_since_edit": 1, "label": "1.0–2.0 yr", "color": "#bdd7e7" }, "geometry": { "type": "Point", "coordinates": [ 39.2668077, -6.8255143 ] } },
{ "type": "Feature", "properties": { "index": "82", "last_edit_year": 2025, "years_since_edit": 1, "label": "1.0–2.0 yr", "color": "#bdd7e7" }, "geometry": { "type": "Point", "coordinates": [ 39.2637648, -6.8253305 ] } },
{ "type": "Feature", "properties": { "index": "83", "last_edit_year": 2024, "years_since_edit": 2, "label": "2.0–3.0 yr", "color": "#6baed6" }, "geometry": { "type": "Point", "coordinates": [ 39.272342, -6.8389693 ] } },
{ "type": "Feature", "properties": { "index": "84", "last_edit_year": 2026, "years_since_edit": 0, "label": "0.0–1.0 yr", "color": "#eff3ff" }, "geometry": { "type": "Point", "coordinates": [ 39.2820973, -6.8489635 ] } },
{ "type": "Feature", "properties": { "index": "85", "last_edit_year": 2026, "years_since_edit": 0, "label": "0.0–1.0 yr", "color": "#eff3ff" }, "geometry": { "type": "Point", "coordinates": [ 39.281969, -6.8489232 ] } },
{ "type": "Feature", "properties": { "index": "86", "last_edit_year": 2026, "years_since_edit": 0, "label": "0.0–1.0 yr", "color": "#eff3ff" }, "geometry": { "type": "Point", "coordinates": [ 39.2836949, -6.8440618 ] } },
{ "type": "Feature", "properties": { "index": "87", "last_edit_year": 2026, "years_since_edit": 0, "label": "0.0–1.0 yr", "color": "#eff3ff" }, "geometry": { "type": "Point", "coordinates": [ 39.2835809, -6.8440245 ] } },
{ "type": "Feature", "properties": { "index": "88", "last_edit_year": 2026, "years_since_edit": 0, "label": "0.0–1.0 yr", "color": "#eff3ff" }, "geometry": { "type": "Point", "coordinates": [ 39.2855564, -6.8380205 ] } },
{ "type": "Feature", "properties": { "index": "89", "last_edit_year": 2026, "years_since_edit": 0, "label": "0.0–1.0 yr", "color": "#eff3ff" }, "geometry": { "type": "Point", "coordinates": [ 39.2856784, -6.8380484 ] } },
{ "type": "Feature", "properties": { "index": "90", "last_edit_year": 2026, "years_since_edit": 0, "label": "0.0–1.0 yr", "color": "#eff3ff" }, "geometry": { "type": "Point", "coordinates": [ 39.2864918, -6.8320399 ] } },
{ "type": "Feature", "properties": { "index": "91", "last_edit_year": 2026, "years_since_edit": 0, "label": "0.0–1.0 yr", "color": "#eff3ff" }, "geometry": { "type": "Point", "coordinates": [ 39.2863709, -6.832058 ] } },
{ "type": "Feature", "properties": { "index": "92", "last_edit_year": 2026, "years_since_edit": 0, "label": "0.0–1.0 yr", "color": "#eff3ff" }, "geometry": { "type": "Point", "coordinates": [ 39.2780341, -6.8286275 ] } },
{ "type": "Feature", "properties": { "index": "93", "last_edit_year": 2026, "years_since_edit": 0, "label": "0.0–1.0 yr", "color": "#eff3ff" }, "geometry": { "type": "Point", "coordinates": [ 39.2780824, -6.8285183 ] } },
{ "type": "Feature", "properties": { "index": "94", "last_edit_year": 2026, "years_since_edit": 0, "label": "0.0–1.0 yr", "color": "#eff3ff" }, "geometry": { "type": "Point", "coordinates": [ 39.2850963, -6.8306439 ] } },
{ "type": "Feature", "properties": { "index": "95", "last_edit_year": 2026, "years_since_edit": 0, "label": "0.0–1.0 yr", "color": "#eff3ff" }, "geometry": { "type": "Point", "coordinates": [ 39.2850731, -6.8305052 ] } },
{ "type": "Feature", "properties": { "index": "96", "last_edit_year": 2026, "years_since_edit": 0, "label": "0.0–1.0 yr", "color": "#eff3ff" }, "geometry": { "type": "Point", "coordinates": [ 39.2734663, -6.8248887 ] } },
{ "type": "Feature", "properties": { "index": "97", "last_edit_year": 2026, "years_since_edit": 0, "label": "0.0–1.0 yr", "color": "#eff3ff" }, "geometry": { "type": "Point", "coordinates": [ 39.2813051, -6.8226367 ] } },
{ "type": "Feature", "properties": { "index": "98", "last_edit_year": 2026, "years_since_edit": 0, "label": "0.0–1.0 yr", "color": "#eff3ff" }, "geometry": { "type": "Point", "coordinates": [ 39.2814217, -6.8230055 ] } },
{ "type": "Feature", "properties": { "index": "99", "last_edit_year": 2025, "years_since_edit": 1, "label": "1.0–2.0 yr", "color": "#bdd7e7" }, "geometry": { "type": "Point", "coordinates": [ 39.2593639, -6.804863 ] } },
{ "type": "Feature", "properties": { "index": "100", "last_edit_year": 2024, "years_since_edit": 2, "label": "2.0–3.0 yr", "color": "#6baed6" }, "geometry": { "type": "Point", "coordinates": [ 39.2562484, -6.806955 ] } },
{ "type": "Feature", "properties": { "index": "101", "last_edit_year": 2022, "years_since_edit": 4, "label": "3.0–7.0 yr", "color": "#3182bd" }, "geometry": { "type": "Point", "coordinates": [ 39.2550213, -6.8062413 ] } },
{ "type": "Feature", "properties": { "index": "102", "last_edit_year": 2018, "years_since_edit": 8, "label": "7.0–16.0 yr", "color": "#08519c" }, "geometry": { "type": "Point", "coordinates": [ 39.2603538, -6.8038519 ] } },
{ "type": "Feature", "properties": { "index": "103", "last_edit_year": 2010, "years_since_edit": 16, "label": "7.0–16.0 yr", "color": "#08519c" }, "geometry": { "type": "Point", "coordinates": [ 39.2681963, -6.8109926 ] } },
{ "type": "Feature", "properties": { "index": "104", "last_edit_year": 2025, "years_since_edit": 1, "label": "1.0–2.0 yr", "color": "#bdd7e7" }, "geometry": { "type": "Point", "coordinates": [ 39.2593123, -6.8081047 ] } },
{ "type": "Feature", "properties": { "index": "105", "last_edit_year": 2023, "years_since_edit": 3, "label": "3.0–7.0 yr", "color": "#3182bd" }, "geometry": { "type": "Point", "coordinates": [ 39.2732282, -6.7801402 ] } },
{ "type": "Feature", "properties": { "index": "106", "last_edit_year": 2018, "years_since_edit": 8, "label": "7.0–16.0 yr", "color": "#08519c" }, "geometry": { "type": "Point", "coordinates": [ 39.2831342, -6.7995507 ] } },
{ "type": "Feature", "properties": { "index": "107", "last_edit_year": 2023, "years_since_edit": 3, "label": "3.0–7.0 yr", "color": "#3182bd" }, "geometry": { "type": "Point", "coordinates": [ 39.2826266, -6.7993699 ] } },
{ "type": "Feature", "properties": { "index": "108", "last_edit_year": 2012, "years_since_edit": 14, "label": "7.0–16.0 yr", "color": "#08519c" }, "geometry": { "type": "Point", "coordinates": [ 39.2861671, -6.8051973 ] } },
{ "type": "Feature", "properties": { "index": "109", "last_edit_year": 2023, "years_since_edit": 3, "label": "3.0–7.0 yr", "color": "#3182bd" }, "geometry": { "type": "Point", "coordinates": [ 39.2866688, -6.8082129 ] } },
{ "type": "Feature", "properties": { "index": "110", "last_edit_year": 2024, "years_since_edit": 2, "label": "2.0–3.0 yr", "color": "#6baed6" }, "geometry": { "type": "Point", "coordinates": [ 39.2779141, -6.7863957 ] } },
{ "type": "Feature", "properties": { "index": "111", "last_edit_year": 2024, "years_since_edit": 2, "label": "2.0–3.0 yr", "color": "#6baed6" }, "geometry": { "type": "Point", "coordinates": [ 39.2784853, -6.7880266 ] } },
{ "type": "Feature", "properties": { "index": "112", "last_edit_year": 2023, "years_since_edit": 3, "label": "3.0–7.0 yr", "color": "#3182bd" }, "geometry": { "type": "Point", "coordinates": [ 39.279644, -6.7985496 ] } },
{ "type": "Feature", "properties": { "index": "113", "last_edit_year": 2015, "years_since_edit": 11, "label": "7.0–16.0 yr", "color": "#08519c" }, "geometry": { "type": "Point", "coordinates": [ 39.2804417, -6.7981888 ] } },
{ "type": "Feature", "properties": { "index": "114", "last_edit_year": 2024, "years_since_edit": 2, "label": "2.0–3.0 yr", "color": "#6baed6" }, "geometry": { "type": "Point", "coordinates": [ 39.2759022, -6.8081463 ] } },
{ "type": "Feature", "properties": { "index": "115", "last_edit_year": 2018, "years_since_edit": 8, "label": "7.0–16.0 yr", "color": "#08519c" }, "geometry": { "type": "Point", "coordinates": [ 39.2576917, -6.7918678 ] } },
{ "type": "Feature", "properties": { "index": "116", "last_edit_year": 2020, "years_since_edit": 6, "label": "3.0–7.0 yr", "color": "#3182bd" }, "geometry": { "type": "Point", "coordinates": [ 39.2456758, -6.8035821 ] } },
{ "type": "Feature", "properties": { "index": "117", "last_edit_year": 2020, "years_since_edit": 6, "label": "3.0–7.0 yr", "color": "#3182bd" }, "geometry": { "type": "Point", "coordinates": [ 39.2838706, -6.8004021 ] } },
{ "type": "Feature", "properties": { "index": "118", "last_edit_year": 2022, "years_since_edit": 4, "label": "3.0–7.0 yr", "color": "#3182bd" }, "geometry": { "type": "Point", "coordinates": [ 39.249657, -6.8044336 ] } },
{ "type": "Feature", "properties": { "index": "119", "last_edit_year": 2019, "years_since_edit": 7, "label": "7.0–16.0 yr", "color": "#08519c" }, "geometry": { "type": "Point", "coordinates": [ 39.2450986, -6.8027853 ] } },
{ "type": "Feature", "properties": { "index": "120", "last_edit_year": 2022, "years_since_edit": 4, "label": "3.0–7.0 yr", "color": "#3182bd" }, "geometry": { "type": "Point", "coordinates": [ 39.2542016, -6.8060902 ] } },
{ "type": "Feature", "properties": { "index": "121", "last_edit_year": 2025, "years_since_edit": 1, "label": "1.0–2.0 yr", "color": "#bdd7e7" }, "geometry": { "type": "Point", "coordinates": [ 39.2600005, -6.8081879 ] } },
{ "type": "Feature", "properties": { "index": "122", "last_edit_year": 2024, "years_since_edit": 2, "label": "2.0–3.0 yr", "color": "#6baed6" }, "geometry": { "type": "Point", "coordinates": [ 39.268996, -6.8114319 ] } },
{ "type": "Feature", "properties": { "index": "123", "last_edit_year": 2018, "years_since_edit": 8, "label": "7.0–16.0 yr", "color": "#08519c" }, "geometry": { "type": "Point", "coordinates": [ 39.2456546, -6.8031433 ] } },
{ "type": "Feature", "properties": { "index": "124", "last_edit_year": 2022, "years_since_edit": 4, "label": "3.0–7.0 yr", "color": "#3182bd" }, "geometry": { "type": "Point", "coordinates": [ 39.250009, -6.8047486 ] } },
{ "type": "Feature", "properties": { "index": "125", "last_edit_year": 2025, "years_since_edit": 1, "label": "1.0–2.0 yr", "color": "#bdd7e7" }, "geometry": { "type": "Point", "coordinates": [ 39.2602476, -6.8084383 ] } },
{ "type": "Feature", "properties": { "index": "126", "last_edit_year": 2025, "years_since_edit": 1, "label": "1.0–2.0 yr", "color": "#bdd7e7" }, "geometry": { "type": "Point", "coordinates": [ 39.2603381, -6.8027938 ] } },
{ "type": "Feature", "properties": { "index": "127", "last_edit_year": 2022, "years_since_edit": 4, "label": "3.0–7.0 yr", "color": "#3182bd" }, "geometry": { "type": "Point", "coordinates": [ 39.2584356, -6.8057227 ] } },
{ "type": "Feature", "properties": { "index": "128", "last_edit_year": 2025, "years_since_edit": 1, "label": "1.0–2.0 yr", "color": "#bdd7e7" }, "geometry": { "type": "Point", "coordinates": [ 39.2595336, -6.8078583 ] } },
{ "type": "Feature", "properties": { "index": "129", "last_edit_year": 2018, "years_since_edit": 8, "label": "7.0–16.0 yr", "color": "#08519c" }, "geometry": { "type": "Point", "coordinates": [ 39.2463988, -6.8031043 ] } },
{ "type": "Feature", "properties": { "index": "130", "last_edit_year": 2018, "years_since_edit": 8, "label": "7.0–16.0 yr", "color": "#08519c" }, "geometry": { "type": "Point", "coordinates": [ 39.2490005, -6.8040417 ] } },
{ "type": "Feature", "properties": { "index": "131", "last_edit_year": 2025, "years_since_edit": 1, "label": "1.0–2.0 yr", "color": "#bdd7e7" }, "geometry": { "type": "Point", "coordinates": [ 39.2591822, -6.8046836 ] } },
{ "type": "Feature", "properties": { "index": "132", "last_edit_year": 2025, "years_since_edit": 1, "label": "1.0–2.0 yr", "color": "#bdd7e7" }, "geometry": { "type": "Point", "coordinates": [ 39.2639096, -6.7914294 ] } },
{ "type": "Feature", "properties": { "index": "133", "last_edit_year": 2025, "years_since_edit": 1, "label": "1.0–2.0 yr", "color": "#bdd7e7" }, "geometry": { "type": "Point", "coordinates": [ 39.2642301, -6.7930408 ] } },
{ "type": "Feature", "properties": { "index": "134", "last_edit_year": 2025, "years_since_edit": 1, "label": "1.0–2.0 yr", "color": "#bdd7e7" }, "geometry": { "type": "Point", "coordinates": [ 39.2643227, -6.7926453 ] } },
{ "type": "Feature", "properties": { "index": "135", "last_edit_year": 2025, "years_since_edit": 1, "label": "1.0–2.0 yr", "color": "#bdd7e7" }, "geometry": { "type": "Point", "coordinates": [ 39.2642033, -6.7953859 ] } },
{ "type": "Feature", "properties": { "index": "136", "last_edit_year": 2018, "years_since_edit": 8, "label": "7.0–16.0 yr", "color": "#08519c" }, "geometry": { "type": "Point", "coordinates": [ 39.263805, -6.7821674 ] } },
{ "type": "Feature", "properties": { "index": "137", "last_edit_year": 2018, "years_since_edit": 8, "label": "7.0–16.0 yr", "color": "#08519c" }, "geometry": { "type": "Point", "coordinates": [ 39.2636253, -6.7817785 ] } },
{ "type": "Feature", "properties": { "index": "138", "last_edit_year": 2023, "years_since_edit": 3, "label": "3.0–7.0 yr", "color": "#3182bd" }, "geometry": { "type": "Point", "coordinates": [ 39.2635274, -6.7859748 ] } },
{ "type": "Feature", "properties": { "index": "139", "last_edit_year": 2025, "years_since_edit": 1, "label": "1.0–2.0 yr", "color": "#bdd7e7" }, "geometry": { "type": "Point", "coordinates": [ 39.2584392, -6.8057622 ] } },
{ "type": "Feature", "properties": { "index": "140", "last_edit_year": 2020, "years_since_edit": 6, "label": "3.0–7.0 yr", "color": "#3182bd" }, "geometry": { "type": "Point", "coordinates": [ 39.2643918, -6.7899977 ] } },
{ "type": "Feature", "properties": { "index": "141", "last_edit_year": 2024, "years_since_edit": 2, "label": "2.0–3.0 yr", "color": "#6baed6" }, "geometry": { "type": "Point", "coordinates": [ 39.2803717, -6.7927917 ] } },
{ "type": "Feature", "properties": { "index": "142", "last_edit_year": 2024, "years_since_edit": 2, "label": "2.0–3.0 yr", "color": "#6baed6" }, "geometry": { "type": "Point", "coordinates": [ 39.2790171, -6.7909114 ] } },
{ "type": "Feature", "properties": { "index": "143", "last_edit_year": 2019, "years_since_edit": 7, "label": "7.0–16.0 yr", "color": "#08519c" }, "geometry": { "type": "Point", "coordinates": [ 39.2463948, -6.7835937 ] } },
{ "type": "Feature", "properties": { "index": "144", "last_edit_year": 2019, "years_since_edit": 7, "label": "7.0–16.0 yr", "color": "#08519c" }, "geometry": { "type": "Point", "coordinates": [ 39.2462204, -6.7837022 ] } },
{ "type": "Feature", "properties": { "index": "145", "last_edit_year": 2019, "years_since_edit": 7, "label": "7.0–16.0 yr", "color": "#08519c" }, "geometry": { "type": "Point", "coordinates": [ 39.2470848, -6.7852104 ] } },
{ "type": "Feature", "properties": { "index": "146", "last_edit_year": 2019, "years_since_edit": 7, "label": "7.0–16.0 yr", "color": "#08519c" }, "geometry": { "type": "Point", "coordinates": [ 39.2469795, -6.7851158 ] } },
{ "type": "Feature", "properties": { "index": "147", "last_edit_year": 2024, "years_since_edit": 2, "label": "2.0–3.0 yr", "color": "#6baed6" }, "geometry": { "type": "Point", "coordinates": [ 39.2534852, -6.7903095 ] } },
{ "type": "Feature", "properties": { "index": "148", "last_edit_year": 2024, "years_since_edit": 2, "label": "2.0–3.0 yr", "color": "#6baed6" }, "geometry": { "type": "Point", "coordinates": [ 39.2531875, -6.7903095 ] } },
{ "type": "Feature", "properties": { "index": "149", "last_edit_year": 2024, "years_since_edit": 2, "label": "2.0–3.0 yr", "color": "#6baed6" }, "geometry": { "type": "Point", "coordinates": [ 39.2535268, -6.7902389 ] } },
{ "type": "Feature", "properties": { "index": "150", "last_edit_year": 2019, "years_since_edit": 7, "label": "7.0–16.0 yr", "color": "#08519c" }, "geometry": { "type": "Point", "coordinates": [ 39.2585117, -6.7922804 ] } },
{ "type": "Feature", "properties": { "index": "151", "last_edit_year": 2019, "years_since_edit": 7, "label": "7.0–16.0 yr", "color": "#08519c" }, "geometry": { "type": "Point", "coordinates": [ 39.2583172, -6.7922737 ] } },
{ "type": "Feature", "properties": { "index": "152", "last_edit_year": 2024, "years_since_edit": 2, "label": "2.0–3.0 yr", "color": "#6baed6" }, "geometry": { "type": "Point", "coordinates": [ 39.261961, -6.7927891 ] } },
{ "type": "Feature", "properties": { "index": "153", "last_edit_year": 2024, "years_since_edit": 2, "label": "2.0–3.0 yr", "color": "#6baed6" }, "geometry": { "type": "Point", "coordinates": [ 39.2643133, -6.7900431 ] } },
{ "type": "Feature", "properties": { "index": "154", "last_edit_year": 2021, "years_since_edit": 5, "label": "3.0–7.0 yr", "color": "#3182bd" }, "geometry": { "type": "Point", "coordinates": [ 39.269415, -6.7902793 ] } },
{ "type": "Feature", "properties": { "index": "155", "last_edit_year": 2024, "years_since_edit": 2, "label": "2.0–3.0 yr", "color": "#6baed6" }, "geometry": { "type": "Point", "coordinates": [ 39.2717685, -6.7905279 ] } },
{ "type": "Feature", "properties": { "index": "156", "last_edit_year": 2021, "years_since_edit": 5, "label": "3.0–7.0 yr", "color": "#3182bd" }, "geometry": { "type": "Point", "coordinates": [ 39.2601049, -6.808226 ] } },
{ "type": "Feature", "properties": { "index": "157", "last_edit_year": 2020, "years_since_edit": 6, "label": "3.0–7.0 yr", "color": "#3182bd" }, "geometry": { "type": "Point", "coordinates": [ 39.2496548, -6.8044272 ] } },
{ "type": "Feature", "properties": { "index": "158", "last_edit_year": 2020, "years_since_edit": 6, "label": "3.0–7.0 yr", "color": "#3182bd" }, "geometry": { "type": "Point", "coordinates": [ 39.2541883, -6.8060902 ] } },
{ "type": "Feature", "properties": { "index": "159", "last_edit_year": 2023, "years_since_edit": 3, "label": "3.0–7.0 yr", "color": "#3182bd" }, "geometry": { "type": "Point", "coordinates": [ 39.2605167, -6.8040377 ] } },
{ "type": "Feature", "properties": { "index": "160", "last_edit_year": 2022, "years_since_edit": 4, "label": "3.0–7.0 yr", "color": "#3182bd" }, "geometry": { "type": "Point", "coordinates": [ 39.2584459, -6.8057344 ] } },
{ "type": "Feature", "properties": { "index": "161", "last_edit_year": 2023, "years_since_edit": 3, "label": "3.0–7.0 yr", "color": "#3182bd" }, "geometry": { "type": "Point", "coordinates": [ 39.2641859, -6.7953896 ] } },
{ "type": "Feature", "properties": { "index": "162", "last_edit_year": 2020, "years_since_edit": 6, "label": "3.0–7.0 yr", "color": "#3182bd" }, "geometry": { "type": "Point", "coordinates": [ 39.2450747, -6.8028132 ] } },
{ "type": "Feature", "properties": { "index": "163", "last_edit_year": 2023, "years_since_edit": 3, "label": "3.0–7.0 yr", "color": "#3182bd" }, "geometry": { "type": "Point", "coordinates": [ 39.2599786, -6.8037452 ] } },
{ "type": "Feature", "properties": { "index": "164", "last_edit_year": 2020, "years_since_edit": 6, "label": "3.0–7.0 yr", "color": "#3182bd" }, "geometry": { "type": "Point", "coordinates": [ 39.2398876, -6.8009055 ] } },
{ "type": "Feature", "properties": { "index": "165", "last_edit_year": 2018, "years_since_edit": 8, "label": "7.0–16.0 yr", "color": "#08519c" }, "geometry": { "type": "Point", "coordinates": [ 39.2354537, -6.7994603 ] } },
{ "type": "Feature", "properties": { "index": "166", "last_edit_year": 2020, "years_since_edit": 6, "label": "3.0–7.0 yr", "color": "#3182bd" }, "geometry": { "type": "Point", "coordinates": [ 39.2302131, -6.7980846 ] } },
{ "type": "Feature", "properties": { "index": "167", "last_edit_year": 2020, "years_since_edit": 6, "label": "3.0–7.0 yr", "color": "#3182bd" }, "geometry": { "type": "Point", "coordinates": [ 39.224698, -6.7971179 ] } },
{ "type": "Feature", "properties": { "index": "168", "last_edit_year": 2022, "years_since_edit": 4, "label": "3.0–7.0 yr", "color": "#3182bd" }, "geometry": { "type": "Point", "coordinates": [ 39.229804, -6.8242407 ] } },
{ "type": "Feature", "properties": { "index": "169", "last_edit_year": 2022, "years_since_edit": 4, "label": "3.0–7.0 yr", "color": "#3182bd" }, "geometry": { "type": "Point", "coordinates": [ 39.2380583, -6.8384568 ] } },
{ "type": "Feature", "properties": { "index": "170", "last_edit_year": 2024, "years_since_edit": 2, "label": "2.0–3.0 yr", "color": "#6baed6" }, "geometry": { "type": "Point", "coordinates": [ 39.2358164, -6.8004817 ] } },
{ "type": "Feature", "properties": { "index": "171", "last_edit_year": 2022, "years_since_edit": 4, "label": "3.0–7.0 yr", "color": "#3182bd" }, "geometry": { "type": "Point", "coordinates": [ 39.2218738, -6.814971 ] } },
{ "type": "Feature", "properties": { "index": "172", "last_edit_year": 2023, "years_since_edit": 3, "label": "3.0–7.0 yr", "color": "#3182bd" }, "geometry": { "type": "Point", "coordinates": [ 39.2876156, -6.814426 ] } },
{ "type": "Feature", "properties": { "index": "173", "last_edit_year": 2024, "years_since_edit": 2, "label": "2.0–3.0 yr", "color": "#6baed6" }, "geometry": { "type": "Point", "coordinates": [ 39.2903728, -6.8184177 ] } },
{ "type": "Feature", "properties": { "index": "174", "last_edit_year": 2015, "years_since_edit": 11, "label": "7.0–16.0 yr", "color": "#08519c" }, "geometry": { "type": "Point", "coordinates": [ 39.2234689, -6.7807394 ] } },
{ "type": "Feature", "properties": { "index": "175", "last_edit_year": 2024, "years_since_edit": 2, "label": "2.0–3.0 yr", "color": "#6baed6" }, "geometry": { "type": "Point", "coordinates": [ 39.2988143, -6.8194009 ] } },
{ "type": "Feature", "properties": { "index": "176", "last_edit_year": 2025, "years_since_edit": 1, "label": "1.0–2.0 yr", "color": "#bdd7e7" }, "geometry": { "type": "Point", "coordinates": [ 39.2875667, -6.8198186 ] } },
{ "type": "Feature", "properties": { "index": "177", "last_edit_year": 2024, "years_since_edit": 2, "label": "2.0–3.0 yr", "color": "#6baed6" }, "geometry": { "type": "Point", "coordinates": [ 39.2901995, -6.8184141 ] } },
{ "type": "Feature", "properties": { "index": "178", "last_edit_year": 2017, "years_since_edit": 9, "label": "7.0–16.0 yr", "color": "#08519c" }, "geometry": { "type": "Point", "coordinates": [ 39.2391393, -6.8097617 ] } },
{ "type": "Feature", "properties": { "index": "179", "last_edit_year": 2024, "years_since_edit": 2, "label": "2.0–3.0 yr", "color": "#6baed6" }, "geometry": { "type": "Point", "coordinates": [ 39.2883187, -6.8151962 ] } },
{ "type": "Feature", "properties": { "index": "180", "last_edit_year": 2023, "years_since_edit": 3, "label": "3.0–7.0 yr", "color": "#3182bd" }, "geometry": { "type": "Point", "coordinates": [ 39.237003, -6.8479016 ] } },
{ "type": "Feature", "properties": { "index": "181", "last_edit_year": 2020, "years_since_edit": 6, "label": "3.0–7.0 yr", "color": "#3182bd" }, "geometry": { "type": "Point", "coordinates": [ 39.2426865, -6.8381235 ] } },
{ "type": "Feature", "properties": { "index": "182", "last_edit_year": 2024, "years_since_edit": 2, "label": "2.0–3.0 yr", "color": "#6baed6" }, "geometry": { "type": "Point", "coordinates": [ 39.297991, -6.8199335 ] } },
{ "type": "Feature", "properties": { "index": "183", "last_edit_year": 2018, "years_since_edit": 8, "label": "7.0–16.0 yr", "color": "#08519c" }, "geometry": { "type": "Point", "coordinates": [ 39.2211254, -6.8305382 ] } },
{ "type": "Feature", "properties": { "index": "184", "last_edit_year": 2025, "years_since_edit": 1, "label": "1.0–2.0 yr", "color": "#bdd7e7" }, "geometry": { "type": "Point", "coordinates": [ 39.2877446, -6.8199609 ] } },
{ "type": "Feature", "properties": { "index": "185", "last_edit_year": 2021, "years_since_edit": 5, "label": "3.0–7.0 yr", "color": "#3182bd" }, "geometry": { "type": "Point", "coordinates": [ 39.2398332, -6.8008826 ] } },
{ "type": "Feature", "properties": { "index": "186", "last_edit_year": 2020, "years_since_edit": 6, "label": "3.0–7.0 yr", "color": "#3182bd" }, "geometry": { "type": "Point", "coordinates": [ 39.2251111, -6.845554 ] } },
{ "type": "Feature", "properties": { "index": "187", "last_edit_year": 2024, "years_since_edit": 2, "label": "2.0–3.0 yr", "color": "#6baed6" }, "geometry": { "type": "Point", "coordinates": [ 39.2244863, -6.797084 ] } },
{ "type": "Feature", "properties": { "index": "188", "last_edit_year": 2025, "years_since_edit": 1, "label": "1.0–2.0 yr", "color": "#bdd7e7" }, "geometry": { "type": "Point", "coordinates": [ 39.2401632, -6.8011083 ] } },
{ "type": "Feature", "properties": { "index": "189", "last_edit_year": 2019, "years_since_edit": 7, "label": "7.0–16.0 yr", "color": "#08519c" }, "geometry": { "type": "Point", "coordinates": [ 39.2304157, -6.7981239 ] } },
{ "type": "Feature", "properties": { "index": "190", "last_edit_year": 2019, "years_since_edit": 7, "label": "7.0–16.0 yr", "color": "#08519c" }, "geometry": { "type": "Point", "coordinates": [ 39.2354418, -6.7994613 ] } },
{ "type": "Feature", "properties": { "index": "191", "last_edit_year": 2020, "years_since_edit": 6, "label": "3.0–7.0 yr", "color": "#3182bd" }, "geometry": { "type": "Point", "coordinates": [ 39.2234447, -6.7807267 ] } },
{ "type": "Feature", "properties": { "index": "192", "last_edit_year": 2018, "years_since_edit": 8, "label": "7.0–16.0 yr", "color": "#08519c" }, "geometry": { "type": "Point", "coordinates": [ 39.2357457, -6.7997713 ] } },
{ "type": "Feature", "properties": { "index": "193", "last_edit_year": 2017, "years_since_edit": 9, "label": "7.0–16.0 yr", "color": "#08519c" }, "geometry": { "type": "Point", "coordinates": [ 39.2314497, -6.8244682 ] } },
{ "type": "Feature", "properties": { "index": "194", "last_edit_year": 2017, "years_since_edit": 9, "label": "7.0–16.0 yr", "color": "#08519c" }, "geometry": { "type": "Point", "coordinates": [ 39.2231545, -6.8295367 ] } },
{ "type": "Feature", "properties": { "index": "195", "last_edit_year": 2017, "years_since_edit": 9, "label": "7.0–16.0 yr", "color": "#08519c" }, "geometry": { "type": "Point", "coordinates": [ 39.231328, -6.8285863 ] } },
{ "type": "Feature", "properties": { "index": "196", "last_edit_year": 2018, "years_since_edit": 8, "label": "7.0–16.0 yr", "color": "#08519c" }, "geometry": { "type": "Point", "coordinates": [ 39.2223181, -6.8164143 ] } },
{ "type": "Feature", "properties": { "index": "197", "last_edit_year": 2018, "years_since_edit": 8, "label": "7.0–16.0 yr", "color": "#08519c" }, "geometry": { "type": "Point", "coordinates": [ 39.2430729, -6.8455278 ] } },
{ "type": "Feature", "properties": { "index": "198", "last_edit_year": 2018, "years_since_edit": 8, "label": "7.0–16.0 yr", "color": "#08519c" }, "geometry": { "type": "Point", "coordinates": [ 39.2431158, -6.8384546 ] } },
{ "type": "Feature", "properties": { "index": "199", "last_edit_year": 2018, "years_since_edit": 8, "label": "7.0–16.0 yr", "color": "#08519c" }, "geometry": { "type": "Point", "coordinates": [ 39.2296847, -6.7977976 ] } },
{ "type": "Feature", "properties": { "index": "200", "last_edit_year": 2018, "years_since_edit": 8, "label": "7.0–16.0 yr", "color": "#08519c" }, "geometry": { "type": "Point", "coordinates": [ 39.2304933, -6.7983222 ] } },
{ "type": "Feature", "properties": { "index": "201", "last_edit_year": 2018, "years_since_edit": 8, "label": "7.0–16.0 yr", "color": "#08519c" }, "geometry": { "type": "Point", "coordinates": [ 39.234935, -6.7991758 ] } },
{ "type": "Feature", "properties": { "index": "202", "last_edit_year": 2018, "years_since_edit": 8, "label": "7.0–16.0 yr", "color": "#08519c" }, "geometry": { "type": "Point", "coordinates": [ 39.239244, -6.8005714 ] } },
{ "type": "Feature", "properties": { "index": "203", "last_edit_year": 2024, "years_since_edit": 2, "label": "2.0–3.0 yr", "color": "#6baed6" }, "geometry": { "type": "Point", "coordinates": [ 39.2211498, -6.7962781 ] } },
{ "type": "Feature", "properties": { "index": "204", "last_edit_year": 2024, "years_since_edit": 2, "label": "2.0–3.0 yr", "color": "#6baed6" }, "geometry": { "type": "Point", "coordinates": [ 39.221127, -6.7959399 ] } },
{ "type": "Feature", "properties": { "index": "205", "last_edit_year": 2024, "years_since_edit": 2, "label": "2.0–3.0 yr", "color": "#6baed6" }, "geometry": { "type": "Point", "coordinates": [ 39.220781, -6.7958893 ] } },
{ "type": "Feature", "properties": { "index": "206", "last_edit_year": 2024, "years_since_edit": 2, "label": "2.0–3.0 yr", "color": "#6baed6" }, "geometry": { "type": "Point", "coordinates": [ 39.226246, -6.797205 ] } },
{ "type": "Feature", "properties": { "index": "207", "last_edit_year": 2024, "years_since_edit": 2, "label": "2.0–3.0 yr", "color": "#6baed6" }, "geometry": { "type": "Point", "coordinates": [ 39.2252536, -6.7973514 ] } },
{ "type": "Feature", "properties": { "index": "208", "last_edit_year": 2024, "years_since_edit": 2, "label": "2.0–3.0 yr", "color": "#6baed6" }, "geometry": { "type": "Point", "coordinates": [ 39.2986187, -6.8190972 ] } },
{ "type": "Feature", "properties": { "index": "209", "last_edit_year": 2025, "years_since_edit": 1, "label": "1.0–2.0 yr", "color": "#bdd7e7" }, "geometry": { "type": "Point", "coordinates": [ 39.2874286, -6.8197231 ] } },
{ "type": "Feature", "properties": { "index": "210", "last_edit_year": 2020, "years_since_edit": 6, "label": "3.0–7.0 yr", "color": "#3182bd" }, "geometry": { "type": "Point", "coordinates": [ 39.2218613, -6.8090115 ] } },
{ "type": "Feature", "properties": { "index": "211", "last_edit_year": 2022, "years_since_edit": 4, "label": "3.0–7.0 yr", "color": "#3182bd" }, "geometry": { "type": "Point", "coordinates": [ 39.2228059, -6.7848608 ] } },
{ "type": "Feature", "properties": { "index": "212", "last_edit_year": 2023, "years_since_edit": 3, "label": "3.0–7.0 yr", "color": "#3182bd" }, "geometry": { "type": "Point", "coordinates": [ 39.2364331, -6.8484638 ] } }
]
}
