{
"type": "FeatureCollection",
"features": [
{ "type": "Feature", "properties": { "index": "0", "@osmId": "way/769690792", "name": "Old Central Railway Station", "opening_hours": null, "label": "Train stations & halts", "color": "#08519c" }, "geometry": { "type": "Polygon", "coordinates": [ [ [ 39.2846073, -6.8226768 ], [ 39.2845601, -6.8226257 ], [ 39.2844878, -6.8226914 ], [ 39.2845894, -6.8228015 ], [ 39.2846286, -6.8227659 ], [ 39.2845741, -6.822707 ], [ 39.2846073, -6.8226768 ] ] ] } },
{ "type": "Feature", "properties": { "index": "1", "@osmId": "way/864642709", "name": "New Central Railway Station", "opening_hours": null, "label": "Train stations & halts", "color": "#08519c" }, "geometry": { "type": "Polygon", "coordinates": [ [ [ 39.2825292, -6.8250818 ], [ 39.2827323, -6.8253052 ], [ 39.2829417, -6.8253101 ], [ 39.2833071, -6.8249782 ], [ 39.2833045, -6.8247812 ], [ 39.2833389, -6.8247122 ], [ 39.2831593, -6.8245114 ], [ 39.2831549, -6.8245154 ], [ 39.2829987, -6.8246568 ], [ 39.282947, -6.8247036 ], [ 39.2825292, -6.8250818 ] ] ] } },
{ "type": "Feature", "properties": { "index": "2", "@osmId": "way/1104897816", "name": "Kamata", "opening_hours": null, "label": "Train stations & halts", "color": "#08519c" }, "geometry": { "type": "Polygon", "coordinates": [ [ [ 39.2741539, -6.8270656 ], [ 39.2735168, -6.827164 ], [ 39.2735285, -6.8272538 ], [ 39.2741687, -6.8271627 ], [ 39.2741539, -6.8270656 ] ] ] } },
{ "type": "Feature", "properties": { "index": "3", "@osmId": "node/252940803", "name": "Kamata Kariakoo", "opening_hours": null, "label": "Train stations & halts", "color": "#08519c" }, "geometry": { "type": "Point", "coordinates": [ 39.2742602, -6.8266874 ] } },
{ "type": "Feature", "properties": { "index": "4", "@osmId": "node/440137926", "name": "Dar es Salaam", "opening_hours": null, "label": "Train stations & halts", "color": "#08519c" }, "geometry": { "type": "Point", "coordinates": [ 39.2450325, -6.8464084 ] } },
{ "type": "Feature", "properties": { "index": "5", "@osmId": "node/9125088483", "name": null, "opening_hours": null, "label": "Train stations & halts", "color": "#08519c" }, "geometry": { "type": "Point", "coordinates": [ 39.2828279, -6.8245332 ] } },
{ "type": "Feature", "properties": { "index": "6", "@osmId": "node/252596463", "name": "Tabata Matumbi", "opening_hours": null, "label": "Train stations & halts", "color": "#08519c" }, "geometry": { "type": "Point", "coordinates": [ 39.229804, -6.8242407 ] } },
{ "type": "Feature", "properties": { "index": "7", "@osmId": "node/252596478", "name": "Buguruni Mny Mnyamani", "opening_hours": null, "label": "Train stations & halts", "color": "#08519c" }, "geometry": { "type": "Point", "coordinates": [ 39.2380583, -6.8384568 ] } },
{ "type": "Feature", "properties": { "index": "8", "@osmId": "node/252677460", "name": "Tabata Mwananchi", "opening_hours": null, "label": "Train stations & halts", "color": "#08519c" }, "geometry": { "type": "Point", "coordinates": [ 39.2218738, -6.814971 ] } },
{ "type": "Feature", "properties": { "index": "9", "@osmId": "way/334718205", "name": "Jangwani BRT Bus Terminal", "opening_hours": null, "label": "Bus stops", "color": "#4292c6" }, "geometry": { "type": "Polygon", "coordinates": [ [ [ 39.2695897, -6.8115966 ], [ 39.2684148, -6.8111849 ], [ 39.2683959, -6.811238 ], [ 39.2695708, -6.8116497 ], [ 39.2695897, -6.8115966 ] ] ] } },
{ "type": "Feature", "properties": { "index": "10", "@osmId": "way/345262599", "name": "Jangwani BRT Bus Terminal", "opening_hours": null, "label": "Bus stops", "color": "#4292c6" }, "geometry": { "type": "Polygon", "coordinates": [ [ [ 39.2660005, -6.8108318 ], [ 39.2648314, -6.8139503 ], [ 39.2660365, -6.8144109 ], [ 39.2672305, -6.8112926 ], [ 39.2660005, -6.8108318 ] ] ] } },
{ "type": "Feature", "properties": { "index": "11", "@osmId": "way/334728272", "name": "Kinondoni B", "opening_hours": null, "label": "Bus stops", "color": "#4292c6" }, "geometry": { "type": "Polygon", "coordinates": [ [ [ 39.2635875, -6.7851093 ], [ 39.2635313, -6.7851069 ], [ 39.2634757, -6.7863507 ], [ 39.2635319, -6.7863531 ], [ 39.2635875, -6.7851093 ] ] ] } },
{ "type": "Feature", "properties": { "index": "12", "@osmId": "way/464725897", "name": "City Council", "opening_hours": null, "label": "Bus stops", "color": "#4292c6" }, "geometry": { "type": "Polygon", "coordinates": [ [ [ 39.2873441, -6.819581 ], [ 39.287232, -6.8194679 ], [ 39.287194, -6.8195055 ], [ 39.2872884, -6.8196021 ], [ 39.2873441, -6.819581 ] ] ] } },
{ "type": "Feature", "properties": { "index": "13", "@osmId": "way/464725899", "name": "Posta ya Zamani", "opening_hours": null, "label": "Bus stops", "color": "#4292c6" }, "geometry": { "type": "Polygon", "coordinates": [ [ [ 39.2906339, -6.8182277 ], [ 39.289666, -6.8186982 ], [ 39.289693, -6.818753 ], [ 39.2906609, -6.8182826 ], [ 39.2906339, -6.8182277 ] ] ] } },
{ "type": "Feature", "properties": { "index": "14", "@osmId": "way/1243345334", "name": null, "opening_hours": null, "label": "Bus stops", "color": "#4292c6" }, "geometry": { "type": "Polygon", "coordinates": [ [ [ 39.2822289, -6.848434 ], [ 39.2821609, -6.8484129 ], [ 39.2818351, -6.8494462 ], [ 39.2819034, -6.8494674 ], [ 39.2822289, -6.848434 ] ] ] } },
{ "type": "Feature", "properties": { "index": "15", "@osmId": "way/1271579666", "name": null, "opening_hours": null, "label": "Bus stops", "color": "#4292c6" }, "geometry": { "type": "Polygon", "coordinates": [ [ [ 39.2837796, -6.8435219 ], [ 39.283438, -6.8445406 ], [ 39.2835031, -6.8445621 ], [ 39.2838445, -6.8435433 ], [ 39.2837796, -6.8435219 ] ] ] } },
{ "type": "Feature", "properties": { "index": "16", "@osmId": "way/1468694258", "name": null, "opening_hours": null, "label": "Bus stops", "color": "#4292c6" }, "geometry": { "type": "Polygon", "coordinates": [ [ [ 39.2858194, -6.8375301 ], [ 39.2857615, -6.8375123 ], [ 39.285441, -6.8385405 ], [ 39.2854988, -6.8385582 ], [ 39.2858194, -6.8375301 ] ] ] } },
{ "type": "Feature", "properties": { "index": "17", "@osmId": "way/334718201", "name": "DIT", "opening_hours": null, "label": "Bus stops", "color": "#4292c6" }, "geometry": { "type": "Polygon", "coordinates": [ [ [ 39.2799743, -6.8158022 ], [ 39.2789271, -6.8151434 ], [ 39.2788995, -6.8151914 ], [ 39.2799434, -6.8158502 ], [ 39.2799743, -6.8158022 ] ] ] } },
{ "type": "Feature", "properties": { "index": "18", "@osmId": "way/334718202", "name": "Fire", "opening_hours": null, "label": "Bus stops", "color": "#4292c6" }, "geometry": { "type": "Polygon", "coordinates": [ [ [ 39.2753379, -6.813579 ], [ 39.2737947, -6.8130659 ], [ 39.2737728, -6.8131307 ], [ 39.275316, -6.8136438 ], [ 39.2753379, -6.813579 ] ] ] } },
{ "type": "Feature", "properties": { "index": "19", "@osmId": "way/368888930", "name": "Stesheni", "opening_hours": null, "label": "Bus stops", "color": "#4292c6" }, "geometry": { "type": "Polygon", "coordinates": [ [ [ 39.2851312, -6.8216669 ], [ 39.2848989, -6.8218901 ], [ 39.2852952, -6.8223034 ], [ 39.2855332, -6.8220682 ], [ 39.2851312, -6.8216669 ] ] ] } },
{ "type": "Feature", "properties": { "index": "20", "@osmId": "way/464725898", "name": null, "opening_hours": null, "label": "Bus stops", "color": "#4292c6" }, "geometry": { "type": "Polygon", "coordinates": [ [ [ 39.2822781, -6.8172154 ], [ 39.2823031, -6.8171762 ], [ 39.2818925, -6.8169179 ], [ 39.2818686, -6.8169542 ], [ 39.2822781, -6.8172154 ] ] ] } },
{ "type": "Feature", "properties": { "index": "21", "@osmId": "way/987222757", "name": null, "opening_hours": null, "label": "Bus stops", "color": "#4292c6" }, "geometry": { "type": "Polygon", "coordinates": [ [ [ 39.2741684, -6.8262986 ], [ 39.2745908, -6.826224 ], [ 39.2745869, -6.8262003 ], [ 39.2745788, -6.8261506 ], [ 39.274155, -6.8262225 ], [ 39.2741576, -6.8262386 ], [ 39.274162, -6.8262628 ], [ 39.2741684, -6.8262986 ] ] ] } },
{ "type": "Feature", "properties": { "index": "22", "@osmId": "way/987222758", "name": null, "opening_hours": null, "label": "Bus stops", "color": "#4292c6" }, "geometry": { "type": "Polygon", "coordinates": [ [ [ 39.2736591, -6.8263924 ], [ 39.2740046, -6.8263365 ], [ 39.2739925, -6.8262624 ], [ 39.273647, -6.8263184 ], [ 39.2736535, -6.8263581 ], [ 39.2736591, -6.8263924 ] ] ] } },
{ "type": "Feature", "properties": { "index": "23", "@osmId": "way/987222759", "name": null, "opening_hours": null, "label": "Bus stops", "color": "#4292c6" }, "geometry": { "type": "Polygon", "coordinates": [ [ [ 39.2731283, -6.8264594 ], [ 39.2731353, -6.826499 ], [ 39.2735209, -6.8264304 ], [ 39.2735074, -6.8263495 ], [ 39.2731205, -6.8264153 ], [ 39.2731224, -6.8264264 ], [ 39.2731283, -6.8264594 ] ] ] } },
{ "type": "Feature", "properties": { "index": "24", "@osmId": "way/987222760", "name": null, "opening_hours": null, "label": "Bus stops", "color": "#4292c6" }, "geometry": { "type": "Polygon", "coordinates": [ [ [ 39.2744714, -6.8260123 ], [ 39.2744701, -6.826005 ], [ 39.2744649, -6.8259731 ], [ 39.2744585, -6.8259343 ], [ 39.2740348, -6.8260062 ], [ 39.274037, -6.8260196 ], [ 39.2740425, -6.8260507 ], [ 39.274049, -6.8260868 ], [ 39.2744714, -6.8260123 ] ] ] } },
{ "type": "Feature", "properties": { "index": "25", "@osmId": "way/987222761", "name": null, "opening_hours": null, "label": "Bus stops", "color": "#4292c6" }, "geometry": { "type": "Polygon", "coordinates": [ [ [ 39.2735455, -6.82618 ], [ 39.2739742, -6.8260974 ], [ 39.2739623, -6.8260365 ], [ 39.2738791, -6.8260526 ], [ 39.2738765, -6.8260393 ], [ 39.273531, -6.8261059 ], [ 39.2735394, -6.8261486 ], [ 39.2735455, -6.82618 ] ] ] } },
{ "type": "Feature", "properties": { "index": "26", "@osmId": "way/987222762", "name": null, "opening_hours": null, "label": "Bus stops", "color": "#4292c6" }, "geometry": { "type": "Polygon", "coordinates": [ [ [ 39.2730626, -6.826264 ], [ 39.2734851, -6.8261894 ], [ 39.2734797, -6.8261563 ], [ 39.2734757, -6.8261321 ], [ 39.2730519, -6.826204 ], [ 39.273058, -6.8262378 ], [ 39.2730626, -6.826264 ] ] ] } },
{ "type": "Feature", "properties": { "index": "27", "@osmId": "way/1271579648", "name": "Kariakoo Msimbazi B", "opening_hours": null, "label": "Bus stops", "color": "#4292c6" }, "geometry": { "type": "Polygon", "coordinates": [ [ [ 39.2783011, -6.8286576 ], [ 39.2778759, -6.8284592 ], [ 39.2778467, -6.828521 ], [ 39.2782719, -6.8287194 ], [ 39.2783011, -6.8286576 ] ] ] } },
{ "type": "Feature", "properties": { "index": "28", "@osmId": "way/1271579656", "name": null, "opening_hours": null, "label": "Bus stops", "color": "#4292c6" }, "geometry": { "type": "Polygon", "coordinates": [ [ [ 39.28531, -6.8305019 ], [ 39.2848502, -6.8305712 ], [ 39.2848599, -6.8306347 ], [ 39.2853197, -6.8305653 ], [ 39.28531, -6.8305019 ] ] ] } },
{ "type": "Feature", "properties": { "index": "29", "@osmId": "way/1271579657", "name": null, "opening_hours": null, "label": "Bus stops", "color": "#4292c6" }, "geometry": { "type": "Polygon", "coordinates": [ [ [ 39.2863691, -6.8315565 ], [ 39.2863113, -6.831567 ], [ 39.2865061, -6.8326252 ], [ 39.2865637, -6.8326148 ], [ 39.2863691, -6.8315565 ] ] ] } },
{ "type": "Feature", "properties": { "index": "30", "@osmId": "way/1515262202", "name": "MNAZI MMOJA", "opening_hours": null, "label": "Bus stops", "color": "#4292c6" }, "geometry": { "type": "Polygon", "coordinates": [ [ [ 39.2815021, -6.8235562 ], [ 39.2813707, -6.8222283 ], [ 39.281276, -6.8222375 ], [ 39.2814074, -6.8235654 ], [ 39.2815021, -6.8235562 ] ] ] } },
{ "type": "Feature", "properties": { "index": "31", "@osmId": "node/274009472", "name": "UDA Bus Terminal", "opening_hours": null, "label": "Bus stops", "color": "#4292c6" }, "geometry": { "type": "Point", "coordinates": [ 39.2744166, -6.8273816 ] } },
{ "type": "Feature", "properties": { "index": "32", "@osmId": "node/282569490", "name": "Tazara", "opening_hours": null, "label": "Bus stops", "color": "#4292c6" }, "geometry": { "type": "Point", "coordinates": [ 39.2448003, -6.8446988 ] } },
{ "type": "Feature", "properties": { "index": "33", "@osmId": "node/282569958", "name": null, "opening_hours": null, "label": "Bus stops", "color": "#4292c6" }, "geometry": { "type": "Point", "coordinates": [ 39.2562783, -6.8386206 ] } },
{ "type": "Feature", "properties": { "index": "34", "@osmId": "node/921695403", "name": "Msimbazi Police", "opening_hours": null, "label": "Bus stops", "color": "#4292c6" }, "geometry": { "type": "Point", "coordinates": [ 39.2729103, -6.8200116 ] } },
{ "type": "Feature", "properties": { "index": "35", "@osmId": "node/921696363", "name": "Buses going south", "opening_hours": null, "label": "Bus stops", "color": "#4292c6" }, "geometry": { "type": "Point", "coordinates": [ 39.2737699, -6.8240958 ] } },
{ "type": "Feature", "properties": { "index": "36", "@osmId": "node/922239750", "name": "Fire Bus Stop", "opening_hours": null, "label": "Bus stops", "color": "#4292c6" }, "geometry": { "type": "Point", "coordinates": [ 39.2751446, -6.8136998 ] } },
{ "type": "Feature", "properties": { "index": "37", "@osmId": "node/922245488", "name": "Mnazi Mmoja", "opening_hours": null, "label": "Bus stops", "color": "#4292c6" }, "geometry": { "type": "Point", "coordinates": [ 39.2806505, -6.8212236 ] } },
{ "type": "Feature", "properties": { "index": "38", "@osmId": "node/922245489", "name": "Mnazi Mmoja", "opening_hours": null, "label": "Bus stops", "color": "#4292c6" }, "geometry": { "type": "Point", "coordinates": [ 39.280511, -6.821426 ] } },
{ "type": "Feature", "properties": { "index": "39", "@osmId": "node/922245490", "name": "Baridi", "opening_hours": null, "label": "Bus stops", "color": "#4292c6" }, "geometry": { "type": "Point", "coordinates": [ 39.2802214, -6.8184645 ] } },
{ "type": "Feature", "properties": { "index": "40", "@osmId": "node/3217575853", "name": "Kisutu", "opening_hours": null, "label": "Bus stops", "color": "#4292c6" }, "geometry": { "type": "Point", "coordinates": [ 39.2822172, -6.8171891 ] } },
{ "type": "Feature", "properties": { "index": "41", "@osmId": "node/3698444727", "name": "kariakoo bus stand", "opening_hours": null, "label": "Bus stops", "color": "#4292c6" }, "geometry": { "type": "Point", "coordinates": [ 39.2722076, -6.8191007 ] } },
{ "type": "Feature", "properties": { "index": "42", "@osmId": "node/3698468102", "name": "Maduka Mawili (posta)", "opening_hours": null, "label": "Bus stops", "color": "#4292c6" }, "geometry": { "type": "Point", "coordinates": [ 39.2679267, -6.8449148 ] } },
{ "type": "Feature", "properties": { "index": "43", "@osmId": "node/3698554301", "name": "Shule ya Uhuru", "opening_hours": null, "label": "Bus stops", "color": "#4292c6" }, "geometry": { "type": "Point", "coordinates": [ 39.2734902, -6.8249591 ] } },
{ "type": "Feature", "properties": { "index": "44", "@osmId": "node/3709209426", "name": null, "opening_hours": null, "label": "Bus stops", "color": "#4292c6" }, "geometry": { "type": "Point", "coordinates": [ 39.2459204, -6.8357488 ] } },
{ "type": "Feature", "properties": { "index": "45", "@osmId": "node/3709241004", "name": "Mnazi Mmoja", "opening_hours": "Mo-Fr 06:00-24:00", "label": "Bus stops", "color": "#4292c6" }, "geometry": { "type": "Point", "coordinates": [ 39.2807093, -6.8213725 ] } },
{ "type": "Feature", "properties": { "index": "46", "@osmId": "node/3750608525", "name": "Njia Panda Kigogo", "opening_hours": null, "label": "Bus stops", "color": "#4292c6" }, "geometry": { "type": "Point", "coordinates": [ 39.2542236, -6.8158407 ] } },
{ "type": "Feature", "properties": { "index": "47", "@osmId": "node/4476544391", "name": "Fire Bus Stop", "opening_hours": null, "label": "Bus stops", "color": "#4292c6" }, "geometry": { "type": "Point", "coordinates": [ 39.2745812, -6.8133589 ] } },
{ "type": "Feature", "properties": { "index": "48", "@osmId": "node/4556897789", "name": "UDA bus terminal", "opening_hours": null, "label": "Bus stops", "color": "#4292c6" }, "geometry": { "type": "Point", "coordinates": [ 39.2744187, -6.8274252 ] } },
{ "type": "Feature", "properties": { "index": "49", "@osmId": "node/4569363390", "name": "Fire", "opening_hours": null, "label": "Bus stops", "color": "#4292c6" }, "geometry": { "type": "Point", "coordinates": [ 39.2744436, -6.8131735 ] } },
{ "type": "Feature", "properties": { "index": "50", "@osmId": "node/4569383989", "name": "BRT Bus Station Kisutu", "opening_hours": null, "label": "Bus stops", "color": "#4292c6" }, "geometry": { "type": "Point", "coordinates": [ 39.2795743, -6.8155931 ] } },
{ "type": "Feature", "properties": { "index": "51", "@osmId": "node/4574489093", "name": "Mnazi Mmoja", "opening_hours": null, "label": "Bus stops", "color": "#4292c6" }, "geometry": { "type": "Point", "coordinates": [ 39.2806296, -6.8212228 ] } },
{ "type": "Feature", "properties": { "index": "52", "@osmId": "node/4721424691", "name": "Machinga complex", "opening_hours": null, "label": "Bus stops", "color": "#4292c6" }, "geometry": { "type": "Point", "coordinates": [ 39.2666741, -6.8280555 ] } },
{ "type": "Feature", "properties": { "index": "53", "@osmId": "node/4761098823", "name": "Machinga complex bus stop", "opening_hours": null, "label": "Bus stops", "color": "#4292c6" }, "geometry": { "type": "Point", "coordinates": [ 39.2666619, -6.8280485 ] } },
{ "type": "Feature", "properties": { "index": "54", "@osmId": "node/5062806309", "name": "Buguruni Rozana", "opening_hours": null, "label": "Bus stops", "color": "#4292c6" }, "geometry": { "type": "Point", "coordinates": [ 39.2474503, -6.8332315 ] } },
{ "type": "Feature", "properties": { "index": "55", "@osmId": "node/5113369622", "name": "Taqwa Coach", "opening_hours": null, "label": "Bus stops", "color": "#4292c6" }, "geometry": { "type": "Point", "coordinates": [ 39.2753427, -6.8184866 ] } },
{ "type": "Feature", "properties": { "index": "56", "@osmId": "node/5278970422", "name": null, "opening_hours": null, "label": "Bus stops", "color": "#4292c6" }, "geometry": { "type": "Point", "coordinates": [ 39.2638932, -6.8251134 ] } },
{ "type": "Feature", "properties": { "index": "57", "@osmId": "node/5278985821", "name": null, "opening_hours": null, "label": "Bus stops", "color": "#4292c6" }, "geometry": { "type": "Point", "coordinates": [ 39.2548626, -6.8168895 ] } },
{ "type": "Feature", "properties": { "index": "58", "@osmId": "node/5278987321", "name": "Ilala Sokoni", "opening_hours": null, "label": "Bus stops", "color": "#4292c6" }, "geometry": { "type": "Point", "coordinates": [ 39.2647097, -6.8265466 ] } },
{ "type": "Feature", "properties": { "index": "59", "@osmId": "node/5278998921", "name": "Amana Hospital", "opening_hours": null, "label": "Bus stops", "color": "#4292c6" }, "geometry": { "type": "Point", "coordinates": [ 39.2585122, -6.8279817 ] } },
{ "type": "Feature", "properties": { "index": "60", "@osmId": "node/5862394618", "name": "buguruni bus stand", "opening_hours": null, "label": "Bus stops", "color": "#4292c6" }, "geometry": { "type": "Point", "coordinates": [ 39.2443334, -6.8373303 ] } },
{ "type": "Feature", "properties": { "index": "61", "@osmId": "node/6009885967", "name": "Msimbazi Police B", "opening_hours": null, "label": "Bus stops", "color": "#4292c6" }, "geometry": { "type": "Point", "coordinates": [ 39.2728982, -6.8210174 ] } },
{ "type": "Feature", "properties": { "index": "62", "@osmId": "node/6113704265", "name": "Bakhresa", "opening_hours": null, "label": "Bus stops", "color": "#4292c6" }, "geometry": { "type": "Point", "coordinates": [ 39.2450476, -6.8417961 ] } },
{ "type": "Feature", "properties": { "index": "63", "@osmId": "node/6113724566", "name": "Buguruni Chama", "opening_hours": null, "label": "Bus stops", "color": "#4292c6" }, "geometry": { "type": "Point", "coordinates": [ 39.2438474, -6.8392216 ] } },
{ "type": "Feature", "properties": { "index": "64", "@osmId": "node/6119649920", "name": "Buguruni Malapa", "opening_hours": null, "label": "Bus stops", "color": "#4292c6" }, "geometry": { "type": "Point", "coordinates": [ 39.2513821, -6.8298097 ] } },
{ "type": "Feature", "properties": { "index": "65", "@osmId": "node/6119649921", "name": "Buguruni Malapa", "opening_hours": null, "label": "Bus stops", "color": "#4292c6" }, "geometry": { "type": "Point", "coordinates": [ 39.251263, -6.8297274 ] } },
{ "type": "Feature", "properties": { "index": "66", "@osmId": "node/6119679653", "name": "Gerezani daladala bus station", "opening_hours": null, "label": "Bus stops", "color": "#4292c6" }, "geometry": { "type": "Point", "coordinates": [ 39.2738298, -6.8261894 ] } },
{ "type": "Feature", "properties": { "index": "67", "@osmId": "node/6119679654", "name": "Gereezani BRT bus station", "opening_hours": null, "label": "Bus stops", "color": "#4292c6" }, "geometry": { "type": "Point", "coordinates": [ 39.2734677, -6.8255822 ] } },
{ "type": "Feature", "properties": { "index": "68", "@osmId": "node/6119679803", "name": "Ilala Bungoni", "opening_hours": null, "label": "Bus stops", "color": "#4292c6" }, "geometry": { "type": "Point", "coordinates": [ 39.2561285, -6.8285383 ] } },
{ "type": "Feature", "properties": { "index": "69", "@osmId": "node/6119679804", "name": "Ilala Bungoni", "opening_hours": null, "label": "Bus stops", "color": "#4292c6" }, "geometry": { "type": "Point", "coordinates": [ 39.2564048, -6.8285183 ] } },
{ "type": "Feature", "properties": { "index": "70", "@osmId": "node/6261652680", "name": "Msimbazi A", "opening_hours": null, "label": "Bus stops", "color": "#4292c6" }, "geometry": { "type": "Point", "coordinates": [ 39.2729232, -6.8199734 ] } },
{ "type": "Feature", "properties": { "index": "71", "@osmId": "node/6261652683", "name": "Kisutu", "opening_hours": null, "label": "Bus stops", "color": "#4292c6" }, "geometry": { "type": "Point", "coordinates": [ 39.2821091, -6.8170983 ] } },
{ "type": "Feature", "properties": { "index": "72", "@osmId": "node/6397929610", "name": "Buguruni Bus Stop", "opening_hours": null, "label": "Bus stops", "color": "#4292c6" }, "geometry": { "type": "Point", "coordinates": [ 39.2443533, -6.8372681 ] } },
{ "type": "Feature", "properties": { "index": "73", "@osmId": "node/6542199988", "name": "junction to the office", "opening_hours": null, "label": "Bus stops", "color": "#4292c6" }, "geometry": { "type": "Point", "coordinates": [ 39.2742931, -6.8165461 ] } },
{ "type": "Feature", "properties": { "index": "74", "@osmId": "node/7380207333", "name": "Taxi station", "opening_hours": null, "label": "Bus stops", "color": "#4292c6" }, "geometry": { "type": "Point", "coordinates": [ 39.2506467, -6.8413861 ] } },
{ "type": "Feature", "properties": { "index": "75", "@osmId": "node/9274630796", "name": "Buguruni Sokoni", "opening_hours": null, "label": "Bus stops", "color": "#4292c6" }, "geometry": { "type": "Point", "coordinates": [ 39.2459486, -6.8358116 ] } },
{ "type": "Feature", "properties": { "index": "76", "@osmId": "node/11405277155", "name": "Buguruni Rozana", "opening_hours": null, "label": "Bus stops", "color": "#4292c6" }, "geometry": { "type": "Point", "coordinates": [ 39.2474194, -6.8331416 ] } },
{ "type": "Feature", "properties": { "index": "77", "@osmId": "node/11405277156", "name": "Amana Hospital", "opening_hours": null, "label": "Bus stops", "color": "#4292c6" }, "geometry": { "type": "Point", "coordinates": [ 39.258749, -6.8278126 ] } },
{ "type": "Feature", "properties": { "index": "78", "@osmId": "node/11405277157", "name": "Ilala Sokoni", "opening_hours": null, "label": "Bus stops", "color": "#4292c6" }, "geometry": { "type": "Point", "coordinates": [ 39.2637433, -6.8266435 ] } },
{ "type": "Feature", "properties": { "index": "79", "@osmId": "node/11405277158", "name": "Ilala Sokoni", "opening_hours": null, "label": "Bus stops", "color": "#4292c6" }, "geometry": { "type": "Point", "coordinates": [ 39.2633879, -6.8266368 ] } },
{ "type": "Feature", "properties": { "index": "80", "@osmId": "node/11405277160", "name": "Karume", "opening_hours": null, "label": "Bus stops", "color": "#4292c6" }, "geometry": { "type": "Point", "coordinates": [ 39.2669056, -6.825698 ] } },
{ "type": "Feature", "properties": { "index": "81", "@osmId": "node/11405277161", "name": "Karume", "opening_hours": null, "label": "Bus stops", "color": "#4292c6" }, "geometry": { "type": "Point", "coordinates": [ 39.2668077, -6.8255143 ] } },
{ "type": "Feature", "properties": { "index": "82", "@osmId": "node/11405277162", "name": null, "opening_hours": null, "label": "Bus stops", "color": "#4292c6" }, "geometry": { "type": "Point", "coordinates": [ 39.2637648, -6.8253305 ] } },
{ "type": "Feature", "properties": { "index": "83", "@osmId": "node/12118465372", "name": "Keko", "opening_hours": null, "label": "Bus stops", "color": "#4292c6" }, "geometry": { "type": "Point", "coordinates": [ 39.272342, -6.8389693 ] } },
{ "type": "Feature", "properties": { "index": "84", "@osmId": "node/13470186874", "name": null, "opening_hours": null, "label": "Bus stops", "color": "#4292c6" }, "geometry": { "type": "Point", "coordinates": [ 39.2820973, -6.8489635 ] } },
{ "type": "Feature", "properties": { "index": "85", "@osmId": "node/13470186875", "name": null, "opening_hours": null, "label": "Bus stops", "color": "#4292c6" }, "geometry": { "type": "Point", "coordinates": [ 39.281969, -6.8489232 ] } },
{ "type": "Feature", "properties": { "index": "86", "@osmId": "node/13470186876", "name": null, "opening_hours": null, "label": "Bus stops", "color": "#4292c6" }, "geometry": { "type": "Point", "coordinates": [ 39.2836949, -6.8440618 ] } },
{ "type": "Feature", "properties": { "index": "87", "@osmId": "node/13470186877", "name": null, "opening_hours": null, "label": "Bus stops", "color": "#4292c6" }, "geometry": { "type": "Point", "coordinates": [ 39.2835809, -6.8440245 ] } },
{ "type": "Feature", "properties": { "index": "88", "@osmId": "node/13470186878", "name": null, "opening_hours": null, "label": "Bus stops", "color": "#4292c6" }, "geometry": { "type": "Point", "coordinates": [ 39.2855564, -6.8380205 ] } },
{ "type": "Feature", "properties": { "index": "89", "@osmId": "node/13470186879", "name": null, "opening_hours": null, "label": "Bus stops", "color": "#4292c6" }, "geometry": { "type": "Point", "coordinates": [ 39.2856784, -6.8380484 ] } },
{ "type": "Feature", "properties": { "index": "90", "@osmId": "node/13470186880", "name": null, "opening_hours": null, "label": "Bus stops", "color": "#4292c6" }, "geometry": { "type": "Point", "coordinates": [ 39.2864918, -6.8320399 ] } },
{ "type": "Feature", "properties": { "index": "91", "@osmId": "node/13470186881", "name": null, "opening_hours": null, "label": "Bus stops", "color": "#4292c6" }, "geometry": { "type": "Point", "coordinates": [ 39.2863709, -6.832058 ] } },
{ "type": "Feature", "properties": { "index": "92", "@osmId": "node/13470186890", "name": null, "opening_hours": null, "label": "Bus stops", "color": "#4292c6" }, "geometry": { "type": "Point", "coordinates": [ 39.2780341, -6.8286275 ] } },
{ "type": "Feature", "properties": { "index": "93", "@osmId": "node/13470186891", "name": null, "opening_hours": null, "label": "Bus stops", "color": "#4292c6" }, "geometry": { "type": "Point", "coordinates": [ 39.2780824, -6.8285183 ] } },
{ "type": "Feature", "properties": { "index": "94", "@osmId": "node/13470249803", "name": null, "opening_hours": null, "label": "Bus stops", "color": "#4292c6" }, "geometry": { "type": "Point", "coordinates": [ 39.2850963, -6.8306439 ] } },
{ "type": "Feature", "properties": { "index": "95", "@osmId": "node/13470249804", "name": null, "opening_hours": null, "label": "Bus stops", "color": "#4292c6" }, "geometry": { "type": "Point", "coordinates": [ 39.2850731, -6.8305052 ] } },
{ "type": "Feature", "properties": { "index": "96", "@osmId": "node/13470287688", "name": null, "opening_hours": null, "label": "Bus stops", "color": "#4292c6" }, "geometry": { "type": "Point", "coordinates": [ 39.2734663, -6.8248887 ] } },
{ "type": "Feature", "properties": { "index": "97", "@osmId": "node/13839200703", "name": "Mnazi Mmoja BRT", "opening_hours": null, "label": "Bus stops", "color": "#4292c6" }, "geometry": { "type": "Point", "coordinates": [ 39.2813051, -6.8226367 ] } },
{ "type": "Feature", "properties": { "index": "98", "@osmId": "node/13839200704", "name": "Mnazi Mmoja BRT", "opening_hours": null, "label": "Bus stops", "color": "#4292c6" }, "geometry": { "type": "Point", "coordinates": [ 39.2814217, -6.8230055 ] } },
{ "type": "Feature", "properties": { "index": "99", "@osmId": "node/922240806", "name": "Magomeni Kanisani", "opening_hours": null, "label": "Bus stops", "color": "#4292c6" }, "geometry": { "type": "Point", "coordinates": [ 39.2593639, -6.804863 ] } },
{ "type": "Feature", "properties": { "index": "100", "@osmId": "node/922240808", "name": "Usalama", "opening_hours": null, "label": "Bus stops", "color": "#4292c6" }, "geometry": { "type": "Point", "coordinates": [ 39.2562484, -6.806955 ] } },
{ "type": "Feature", "properties": { "index": "101", "@osmId": "node/922240809", "name": "Usalama", "opening_hours": null, "label": "Bus stops", "color": "#4292c6" }, "geometry": { "type": "Point", "coordinates": [ 39.2550213, -6.8062413 ] } },
{ "type": "Feature", "properties": { "index": "102", "@osmId": "node/922240810", "name": "Morocoo Hoteli", "opening_hours": null, "label": "Bus stops", "color": "#4292c6" }, "geometry": { "type": "Point", "coordinates": [ 39.2603538, -6.8038519 ] } },
{ "type": "Feature", "properties": { "index": "103", "@osmId": "node/922240811", "name": "Jangwani", "opening_hours": null, "label": "Bus stops", "color": "#4292c6" }, "geometry": { "type": "Point", "coordinates": [ 39.2681963, -6.8109926 ] } },
{ "type": "Feature", "properties": { "index": "104", "@osmId": "node/922240814", "name": "Mapipa", "opening_hours": null, "label": "Bus stops", "color": "#4292c6" }, "geometry": { "type": "Point", "coordinates": [ 39.2593123, -6.8081047 ] } },
{ "type": "Feature", "properties": { "index": "105", "@osmId": "node/922243573", "name": "Mbuyuni", "opening_hours": null, "label": "Bus stops", "color": "#4292c6" }, "geometry": { "type": "Point", "coordinates": [ 39.2732282, -6.7801402 ] } },
{ "type": "Feature", "properties": { "index": "106", "@osmId": "node/922243964", "name": "Palm Beach", "opening_hours": null, "label": "Bus stops", "color": "#4292c6" }, "geometry": { "type": "Point", "coordinates": [ 39.2831342, -6.7995507 ] } },
{ "type": "Feature", "properties": { "index": "107", "@osmId": "node/922243965", "name": "Palm Beach", "opening_hours": null, "label": "Bus stops", "color": "#4292c6" }, "geometry": { "type": "Point", "coordinates": [ 39.2826266, -6.7993699 ] } },
{ "type": "Feature", "properties": { "index": "108", "@osmId": "node/922243966", "name": "Aga Khan", "opening_hours": null, "label": "Bus stops", "color": "#4292c6" }, "geometry": { "type": "Point", "coordinates": [ 39.2861671, -6.8051973 ] } },
{ "type": "Feature", "properties": { "index": "109", "@osmId": "node/922243967", "name": "Red Cross", "opening_hours": null, "label": "Bus stops", "color": "#4292c6" }, "geometry": { "type": "Point", "coordinates": [ 39.2866688, -6.8082129 ] } },
{ "type": "Feature", "properties": { "index": "110", "@osmId": "node/922243968", "name": null, "opening_hours": null, "label": "Bus stops", "color": "#4292c6" }, "geometry": { "type": "Point", "coordinates": [ 39.2779141, -6.7863957 ] } },
{ "type": "Feature", "properties": { "index": "111", "@osmId": "node/922243969", "name": "Ubalozi Kituoni", "opening_hours": null, "label": "Bus stops", "color": "#4292c6" }, "geometry": { "type": "Point", "coordinates": [ 39.2784853, -6.7880266 ] } },
{ "type": "Feature", "properties": { "index": "112", "@osmId": "node/922244965", "name": "Lugalo", "opening_hours": null, "label": "Bus stops", "color": "#4292c6" }, "geometry": { "type": "Point", "coordinates": [ 39.279644, -6.7985496 ] } },
{ "type": "Feature", "properties": { "index": "113", "@osmId": "node/922244966", "name": "Lugalo", "opening_hours": null, "label": "Bus stops", "color": "#4292c6" }, "geometry": { "type": "Point", "coordinates": [ 39.2804417, -6.7981888 ] } },
{ "type": "Feature", "properties": { "index": "114", "@osmId": "node/922244967", "name": "Super", "opening_hours": null, "label": "Bus stops", "color": "#4292c6" }, "geometry": { "type": "Point", "coordinates": [ 39.2759022, -6.8081463 ] } },
{ "type": "Feature", "properties": { "index": "115", "@osmId": "node/3702668168", "name": "Komakoma Bus Stop", "opening_hours": null, "label": "Bus stops", "color": "#4292c6" }, "geometry": { "type": "Point", "coordinates": [ 39.2576917, -6.7918678 ] } },
{ "type": "Feature", "properties": { "index": "116", "@osmId": "node/3709209425", "name": "Midizini -Manzese Bus Stand", "opening_hours": null, "label": "Bus stops", "color": "#4292c6" }, "geometry": { "type": "Point", "coordinates": [ 39.2456758, -6.8035821 ] } },
{ "type": "Feature", "properties": { "index": "117", "@osmId": "node/4009222956", "name": "Makumbusho Bus Stop", "opening_hours": null, "label": "Bus stops", "color": "#4292c6" }, "geometry": { "type": "Point", "coordinates": [ 39.2838706, -6.8004021 ] } },
{ "type": "Feature", "properties": { "index": "118", "@osmId": "node/4476544290", "name": "Mwembechai Bus Stop", "opening_hours": null, "label": "Bus stops", "color": "#4292c6" }, "geometry": { "type": "Point", "coordinates": [ 39.249657, -6.8044336 ] } },
{ "type": "Feature", "properties": { "index": "119", "@osmId": "node/4476544390", "name": "Kagera Bus Stop", "opening_hours": null, "label": "Bus stops", "color": "#4292c6" }, "geometry": { "type": "Point", "coordinates": [ 39.2450986, -6.8027853 ] } },
{ "type": "Feature", "properties": { "index": "120", "@osmId": "node/4476550589", "name": "Usalama Bus Stop", "opening_hours": null, "label": "Bus stops", "color": "#4292c6" }, "geometry": { "type": "Point", "coordinates": [ 39.2542016, -6.8060902 ] } },
{ "type": "Feature", "properties": { "index": "121", "@osmId": "node/4476550789", "name": "Magomeni Mapipa Bus Stop", "opening_hours": null, "label": "Bus stops", "color": "#4292c6" }, "geometry": { "type": "Point", "coordinates": [ 39.2600005, -6.8081879 ] } },
{ "type": "Feature", "properties": { "index": "122", "@osmId": "node/4476550889", "name": "Jangwani", "opening_hours": null, "label": "Bus stops", "color": "#4292c6" }, "geometry": { "type": "Point", "coordinates": [ 39.268996, -6.8114319 ] } },
{ "type": "Feature", "properties": { "index": "123", "@osmId": "node/4569362590", "name": "Kagera", "opening_hours": null, "label": "Bus stops", "color": "#4292c6" }, "geometry": { "type": "Point", "coordinates": [ 39.2456546, -6.8031433 ] } },
{ "type": "Feature", "properties": { "index": "124", "@osmId": "node/4569362989", "name": "mwembechai", "opening_hours": null, "label": "Bus stops", "color": "#4292c6" }, "geometry": { "type": "Point", "coordinates": [ 39.250009, -6.8047486 ] } },
{ "type": "Feature", "properties": { "index": "125", "@osmId": "node/4569363190", "name": "magomeni mapipa", "opening_hours": null, "label": "Bus stops", "color": "#4292c6" }, "geometry": { "type": "Point", "coordinates": [ 39.2602476, -6.8084383 ] } },
{ "type": "Feature", "properties": { "index": "126", "@osmId": "node/5278976021", "name": null, "opening_hours": null, "label": "Bus stops", "color": "#4292c6" }, "geometry": { "type": "Point", "coordinates": [ 39.2603381, -6.8027938 ] } },
{ "type": "Feature", "properties": { "index": "127", "@osmId": "node/5494101635", "name": "Magomeni Hospital", "opening_hours": null, "label": "Bus stops", "color": "#4292c6" }, "geometry": { "type": "Point", "coordinates": [ 39.2584356, -6.8057227 ] } },
{ "type": "Feature", "properties": { "index": "128", "@osmId": "node/6120203972", "name": "magomeni mapipa", "opening_hours": null, "label": "Bus stops", "color": "#4292c6" }, "geometry": { "type": "Point", "coordinates": [ 39.2595336, -6.8078583 ] } },
{ "type": "Feature", "properties": { "index": "129", "@osmId": "node/6120210305", "name": "Kagera", "opening_hours": null, "label": "Bus stops", "color": "#4292c6" }, "geometry": { "type": "Point", "coordinates": [ 39.2463988, -6.8031043 ] } },
{ "type": "Feature", "properties": { "index": "130", "@osmId": "node/6120210307", "name": "mwembechai", "opening_hours": null, "label": "Bus stops", "color": "#4292c6" }, "geometry": { "type": "Point", "coordinates": [ 39.2490005, -6.8040417 ] } },
{ "type": "Feature", "properties": { "index": "131", "@osmId": "node/6121848947", "name": "Magomeni Kanisani", "opening_hours": null, "label": "Bus stops", "color": "#4292c6" }, "geometry": { "type": "Point", "coordinates": [ 39.2591822, -6.8046836 ] } },
{ "type": "Feature", "properties": { "index": "132", "@osmId": "node/6121858314", "name": "Mwanamboka", "opening_hours": null, "label": "Bus stops", "color": "#4292c6" }, "geometry": { "type": "Point", "coordinates": [ 39.2639096, -6.7914294 ] } },
{ "type": "Feature", "properties": { "index": "133", "@osmId": "node/6121858319", "name": "Studio", "opening_hours": null, "label": "Bus stops", "color": "#4292c6" }, "geometry": { "type": "Point", "coordinates": [ 39.2642301, -6.7930408 ] } },
{ "type": "Feature", "properties": { "index": "134", "@osmId": "node/6121858320", "name": "Studio", "opening_hours": null, "label": "Bus stops", "color": "#4292c6" }, "geometry": { "type": "Point", "coordinates": [ 39.2643227, -6.7926453 ] } },
{ "type": "Feature", "properties": { "index": "135", "@osmId": "node/6121858321", "name": "Mkwajuni", "opening_hours": null, "label": "Bus stops", "color": "#4292c6" }, "geometry": { "type": "Point", "coordinates": [ 39.2642033, -6.7953859 ] } },
{ "type": "Feature", "properties": { "index": "136", "@osmId": "node/6121874340", "name": "Biafra", "opening_hours": null, "label": "Bus stops", "color": "#4292c6" }, "geometry": { "type": "Point", "coordinates": [ 39.263805, -6.7821674 ] } },
{ "type": "Feature", "properties": { "index": "137", "@osmId": "node/6121874341", "name": "Biafra", "opening_hours": null, "label": "Bus stops", "color": "#4292c6" }, "geometry": { "type": "Point", "coordinates": [ 39.2636253, -6.7817785 ] } },
{ "type": "Feature", "properties": { "index": "138", "@osmId": "node/6121874342", "name": "Kinondoni B", "opening_hours": null, "label": "Bus stops", "color": "#4292c6" }, "geometry": { "type": "Point", "coordinates": [ 39.2635274, -6.7859748 ] } },
{ "type": "Feature", "properties": { "index": "139", "@osmId": "node/6261652679", "name": "Magomeni Hospital", "opening_hours": null, "label": "Bus stops", "color": "#4292c6" }, "geometry": { "type": "Point", "coordinates": [ 39.2584392, -6.8057622 ] } },
{ "type": "Feature", "properties": { "index": "140", "@osmId": "node/6400151417", "name": "Bus Stand", "opening_hours": null, "label": "Bus stops", "color": "#4292c6" }, "geometry": { "type": "Point", "coordinates": [ 39.2643918, -6.7899977 ] } },
{ "type": "Feature", "properties": { "index": "141", "@osmId": "node/6976436243", "name": "Kituoni cha Selander darajani", "opening_hours": null, "label": "Bus stops", "color": "#4292c6" }, "geometry": { "type": "Point", "coordinates": [ 39.2803717, -6.7927917 ] } },
{ "type": "Feature", "properties": { "index": "142", "@osmId": "node/6976436244", "name": "Kituoni cha Ubalozi", "opening_hours": null, "label": "Bus stops", "color": "#4292c6" }, "geometry": { "type": "Point", "coordinates": [ 39.2790171, -6.7909114 ] } },
{ "type": "Feature", "properties": { "index": "143", "@osmId": "node/6976475101", "name": "Kituoni cha daladala cha Mama Zacharia", "opening_hours": null, "label": "Bus stops", "color": "#4292c6" }, "geometry": { "type": "Point", "coordinates": [ 39.2463948, -6.7835937 ] } },
{ "type": "Feature", "properties": { "index": "144", "@osmId": "node/6976475102", "name": "Kituoni cha daladala cha Mama Zacharia", "opening_hours": null, "label": "Bus stops", "color": "#4292c6" }, "geometry": { "type": "Point", "coordinates": [ 39.2462204, -6.7837022 ] } },
{ "type": "Feature", "properties": { "index": "145", "@osmId": "node/6976475103", "name": "Kituoni cha daladala cha Mwananyamala Msikitini", "opening_hours": null, "label": "Bus stops", "color": "#4292c6" }, "geometry": { "type": "Point", "coordinates": [ 39.2470848, -6.7852104 ] } },
{ "type": "Feature", "properties": { "index": "146", "@osmId": "node/6976475104", "name": "Kituoni cha daladala cha Mwananyamala Msikitini", "opening_hours": null, "label": "Bus stops", "color": "#4292c6" }, "geometry": { "type": "Point", "coordinates": [ 39.2469795, -6.7851158 ] } },
{ "type": "Feature", "properties": { "index": "147", "@osmId": "node/6976475105", "name": "Kituoni cha daladala cha Mwananyamala A", "opening_hours": null, "label": "Bus stops", "color": "#4292c6" }, "geometry": { "type": "Point", "coordinates": [ 39.2534852, -6.7903095 ] } },
{ "type": "Feature", "properties": { "index": "148", "@osmId": "node/6976475106", "name": "Kituoni cha daladala cha Mwananyamala A", "opening_hours": null, "label": "Bus stops", "color": "#4292c6" }, "geometry": { "type": "Point", "coordinates": [ 39.2531875, -6.7903095 ] } },
{ "type": "Feature", "properties": { "index": "149", "@osmId": "node/6976475107", "name": "Kituoni cha daladala cha Mwananyamala A", "opening_hours": null, "label": "Bus stops", "color": "#4292c6" }, "geometry": { "type": "Point", "coordinates": [ 39.2535268, -6.7902389 ] } },
{ "type": "Feature", "properties": { "index": "150", "@osmId": "node/6976475108", "name": "Kituoni cha daladala cha Kinondoni Komakoma", "opening_hours": null, "label": "Bus stops", "color": "#4292c6" }, "geometry": { "type": "Point", "coordinates": [ 39.2585117, -6.7922804 ] } },
{ "type": "Feature", "properties": { "index": "151", "@osmId": "node/6976475109", "name": "Kituoni cha daladala cha Komakoma", "opening_hours": null, "label": "Bus stops", "color": "#4292c6" }, "geometry": { "type": "Point", "coordinates": [ 39.2583172, -6.7922737 ] } },
{ "type": "Feature", "properties": { "index": "152", "@osmId": "node/6976475110", "name": "Kituoni cha daladala cha Kinondoni Vijana", "opening_hours": null, "label": "Bus stops", "color": "#4292c6" }, "geometry": { "type": "Point", "coordinates": [ 39.261961, -6.7927891 ] } },
{ "type": "Feature", "properties": { "index": "153", "@osmId": "node/6976475111", "name": "Kituoni cha daladala cha Kinondoni", "opening_hours": null, "label": "Bus stops", "color": "#4292c6" }, "geometry": { "type": "Point", "coordinates": [ 39.2643133, -6.7900431 ] } },
{ "type": "Feature", "properties": { "index": "154", "@osmId": "node/6976475112", "name": "Kituoni cha daladala cha Shule", "opening_hours": null, "label": "Bus stops", "color": "#4292c6" }, "geometry": { "type": "Point", "coordinates": [ 39.269415, -6.7902793 ] } },
{ "type": "Feature", "properties": { "index": "155", "@osmId": "node/6976475113", "name": "Kituoni cha daladala cha Kinondoni Makaburini", "opening_hours": null, "label": "Bus stops", "color": "#4292c6" }, "geometry": { "type": "Point", "coordinates": [ 39.2717685, -6.7905279 ] } },
{ "type": "Feature", "properties": { "index": "156", "@osmId": "way/334718210", "name": "Magomeni Mapipa", "opening_hours": null, "label": "Bus stops", "color": "#4292c6" }, "geometry": { "type": "Polygon", "coordinates": [ [ [ 39.2597642, -6.8081057 ], [ 39.2594778, -6.8080048 ], [ 39.259463, -6.8080463 ], [ 39.26062, -6.8084538 ], [ 39.2606409, -6.8083953 ], [ 39.2605259, -6.8083548 ], [ 39.2605378, -6.8083215 ], [ 39.2597822, -6.8080554 ], [ 39.2597642, -6.8081057 ] ] ] } },
{ "type": "Feature", "properties": { "index": "157", "@osmId": "way/334718211", "name": "Mwembechai", "opening_hours": null, "label": "Bus stops", "color": "#4292c6" }, "geometry": { "type": "Polygon", "coordinates": [ [ [ 39.2502506, -6.8046106 ], [ 39.2490786, -6.8041896 ], [ 39.2490588, -6.8042437 ], [ 39.2502309, -6.8046648 ], [ 39.2502506, -6.8046106 ] ] ] } },
{ "type": "Feature", "properties": { "index": "158", "@osmId": "way/334718221", "name": "Usalama", "opening_hours": null, "label": "Bus stops", "color": "#4292c6" }, "geometry": { "type": "Polygon", "coordinates": [ [ [ 39.254787, -6.806276 ], [ 39.2536079, -6.8058531 ], [ 39.2535893, -6.8059043 ], [ 39.2547684, -6.8063273 ], [ 39.254787, -6.806276 ] ] ] } },
{ "type": "Feature", "properties": { "index": "159", "@osmId": "way/334728270", "name": "Magomeni Kanisani", "opening_hours": null, "label": "Bus stops", "color": "#4292c6" }, "geometry": { "type": "Polygon", "coordinates": [ [ [ 39.2607532, -6.8038617 ], [ 39.2602501, -6.8041649 ], [ 39.26028, -6.8042138 ], [ 39.2607831, -6.8039107 ], [ 39.2607532, -6.8038617 ] ] ] } },
{ "type": "Feature", "properties": { "index": "160", "@osmId": "way/334728274", "name": "Magomeni", "opening_hours": null, "label": "Bus stops", "color": "#4292c6" }, "geometry": { "type": "Polygon", "coordinates": [ [ [ 39.25867, -6.8052566 ], [ 39.258148, -6.8062224 ], [ 39.2581925, -6.8062499 ], [ 39.258729, -6.8052886 ], [ 39.25867, -6.8052566 ] ] ] } },
{ "type": "Feature", "properties": { "index": "161", "@osmId": "way/334728275", "name": "Mkwajuni", "opening_hours": null, "label": "Bus stops", "color": "#4292c6" }, "geometry": { "type": "Polygon", "coordinates": [ [ [ 39.2643079, -6.7947875 ], [ 39.264, -6.7959913 ], [ 39.264057, -6.7960082 ], [ 39.2643703, -6.7948031 ], [ 39.2643079, -6.7947875 ] ] ] } },
{ "type": "Feature", "properties": { "index": "162", "@osmId": "way/335396486", "name": "Kagera", "opening_hours": null, "label": "Bus stops", "color": "#4292c6" }, "geometry": { "type": "Polygon", "coordinates": [ [ [ 39.2456708, -6.802999 ], [ 39.2444992, -6.8025727 ], [ 39.244479, -6.8026276 ], [ 39.2456506, -6.8030538 ], [ 39.2456708, -6.802999 ] ] ] } },
{ "type": "Feature", "properties": { "index": "163", "@osmId": "way/1157846453", "name": "Morocco Bus Stand", "opening_hours": null, "label": "Bus stops", "color": "#4292c6" }, "geometry": { "type": "Polygon", "coordinates": [ [ [ 39.259894, -6.8036193 ], [ 39.2598504, -6.8036632 ], [ 39.2600631, -6.803871 ], [ 39.2601067, -6.8038271 ], [ 39.259894, -6.8036193 ] ] ] } },
{ "type": "Feature", "properties": { "index": "164", "@osmId": "way/334718190", "name": "Argentina", "opening_hours": null, "label": "Bus stops", "color": "#4292c6" }, "geometry": { "type": "Polygon", "coordinates": [ [ [ 39.2404621, -6.8010758 ], [ 39.2392832, -6.8006618 ], [ 39.2392649, -6.80071 ], [ 39.2404397, -6.8011386 ], [ 39.2404621, -6.8010758 ] ] ] } },
{ "type": "Feature", "properties": { "index": "165", "@osmId": "way/334718192", "name": "Bakhresa", "opening_hours": null, "label": "Bus stops", "color": "#4292c6" }, "geometry": { "type": "Polygon", "coordinates": [ [ [ 39.2360597, -6.7995995 ], [ 39.2348632, -6.7992659 ], [ 39.2348477, -6.799321 ], [ 39.2360441, -6.7996546 ], [ 39.2360597, -6.7995995 ] ] ] } },
{ "type": "Feature", "properties": { "index": "166", "@osmId": "way/334718216", "name": "TipTop", "opening_hours": null, "label": "Bus stops", "color": "#4292c6" }, "geometry": { "type": "Polygon", "coordinates": [ [ [ 39.2308169, -6.7981979 ], [ 39.2296056, -6.7979225 ], [ 39.2295977, -6.797967 ], [ 39.2308031, -6.7982445 ], [ 39.2308169, -6.7981979 ] ] ] } },
{ "type": "Feature", "properties": { "index": "167", "@osmId": "way/334718219", "name": "Urafiki", "opening_hours": null, "label": "Bus stops", "color": "#4292c6" }, "geometry": { "type": "Polygon", "coordinates": [ [ [ 39.2253087, -6.7971889 ], [ 39.2240816, -6.7969931 ], [ 39.2240749, -6.797045 ], [ 39.2242452, -6.7970703 ], [ 39.2248274, -6.7971662 ], [ 39.2253095, -6.797242 ], [ 39.2253087, -6.7971889 ] ] ] } },
{ "type": "Feature", "properties": { "index": "168", "@osmId": "node/252638812", "name": "Midizini -Manzese Bus Stand", "opening_hours": null, "label": "Bus stops", "color": "#4292c6" }, "geometry": { "type": "Point", "coordinates": [ 39.2358164, -6.8004817 ] } },
{ "type": "Feature", "properties": { "index": "169", "@osmId": "node/920949066", "name": "Posta", "opening_hours": null, "label": "Bus stops", "color": "#4292c6" }, "geometry": { "type": "Point", "coordinates": [ 39.2876156, -6.814426 ] } },
{ "type": "Feature", "properties": { "index": "170", "@osmId": "node/922244963", "name": "Posta ya Zamani", "opening_hours": null, "label": "Bus stops", "color": "#4292c6" }, "geometry": { "type": "Point", "coordinates": [ 39.2903728, -6.8184177 ] } },
{ "type": "Feature", "properties": { "index": "171", "@osmId": "node/924383958", "name": "Makaburi", "opening_hours": null, "label": "Bus stops", "color": "#4292c6" }, "geometry": { "type": "Point", "coordinates": [ 39.2234689, -6.7807394 ] } },
{ "type": "Feature", "properties": { "index": "172", "@osmId": "node/3217575838", "name": "\"Ferry/Kivukoni\"", "opening_hours": null, "label": "Bus stops", "color": "#4292c6" }, "geometry": { "type": "Point", "coordinates": [ 39.2988143, -6.8194009 ] } },
{ "type": "Feature", "properties": { "index": "173", "@osmId": "node/3217575843", "name": "City Council", "opening_hours": null, "label": "Bus stops", "color": "#4292c6" }, "geometry": { "type": "Point", "coordinates": [ 39.2875667, -6.8198186 ] } },
{ "type": "Feature", "properties": { "index": "174", "@osmId": "node/3217575859", "name": "Posta", "opening_hours": null, "label": "Bus stops", "color": "#4292c6" }, "geometry": { "type": "Point", "coordinates": [ 39.2901995, -6.8184141 ] } },
{ "type": "Feature", "properties": { "index": "175", "@osmId": "node/3668472421", "name": "Madoto Bus Stop", "opening_hours": null, "label": "Bus stops", "color": "#4292c6" }, "geometry": { "type": "Point", "coordinates": [ 39.2391393, -6.8097617 ] } },
{ "type": "Feature", "properties": { "index": "176", "@osmId": "node/3698416925", "name": "Posta Bus Stand", "opening_hours": null, "label": "Bus stops", "color": "#4292c6" }, "geometry": { "type": "Point", "coordinates": [ 39.2883187, -6.8151962 ] } },
{ "type": "Feature", "properties": { "index": "177", "@osmId": "node/3698614457", "name": "Mchicha", "opening_hours": null, "label": "Bus stops", "color": "#4292c6" }, "geometry": { "type": "Point", "coordinates": [ 39.237003, -6.8479016 ] } },
{ "type": "Feature", "properties": { "index": "178", "@osmId": "node/3709241003", "name": "Kivukoni", "opening_hours": null, "label": "Bus stops", "color": "#4292c6" }, "geometry": { "type": "Point", "coordinates": [ 39.297991, -6.8199335 ] } },
{ "type": "Feature", "properties": { "index": "179", "@osmId": "node/3794014714", "name": "Tabata Bima", "opening_hours": null, "label": "Bus stops", "color": "#4292c6" }, "geometry": { "type": "Point", "coordinates": [ 39.2211254, -6.8305382 ] } },
{ "type": "Feature", "properties": { "index": "180", "@osmId": "node/4229988734", "name": "Nyerere Square", "opening_hours": null, "label": "Bus stops", "color": "#4292c6" }, "geometry": { "type": "Point", "coordinates": [ 39.2877446, -6.8199609 ] } },
{ "type": "Feature", "properties": { "index": "181", "@osmId": "node/4476548390", "name": "Argentina Bus Stop", "opening_hours": null, "label": "Bus stops", "color": "#4292c6" }, "geometry": { "type": "Point", "coordinates": [ 39.2398332, -6.8008826 ] } },
{ "type": "Feature", "properties": { "index": "182", "@osmId": "node/4478228792", "name": "Vingunguti Bus Terminal", "opening_hours": null, "label": "Bus stops", "color": "#4292c6" }, "geometry": { "type": "Point", "coordinates": [ 39.2251111, -6.845554 ] } },
{ "type": "Feature", "properties": { "index": "183", "@osmId": "node/4569327393", "name": "Urafiki", "opening_hours": null, "label": "Bus stops", "color": "#4292c6" }, "geometry": { "type": "Point", "coordinates": [ 39.2244863, -6.797084 ] } },
{ "type": "Feature", "properties": { "index": "184", "@osmId": "node/4569338893", "name": "Argentina", "opening_hours": null, "label": "Bus stops", "color": "#4292c6" }, "geometry": { "type": "Point", "coordinates": [ 39.2401632, -6.8011083 ] } },
{ "type": "Feature", "properties": { "index": "185", "@osmId": "node/4569338992", "name": "Tip top", "opening_hours": null, "label": "Bus stops", "color": "#4292c6" }, "geometry": { "type": "Point", "coordinates": [ 39.2304157, -6.7981239 ] } },
{ "type": "Feature", "properties": { "index": "186", "@osmId": "node/4569339093", "name": "Bakhresa", "opening_hours": null, "label": "Bus stops", "color": "#4292c6" }, "geometry": { "type": "Point", "coordinates": [ 39.2354418, -6.7994613 ] } },
{ "type": "Feature", "properties": { "index": "187", "@osmId": "node/4570121210", "name": "Sinza bus station", "opening_hours": null, "label": "Bus stops", "color": "#4292c6" }, "geometry": { "type": "Point", "coordinates": [ 39.2234447, -6.7807267 ] } },
{ "type": "Feature", "properties": { "index": "188", "@osmId": "node/4573188474", "name": "Bakhresa", "opening_hours": null, "label": "Bus stops", "color": "#4292c6" }, "geometry": { "type": "Point", "coordinates": [ 39.2357457, -6.7997713 ] } },
{ "type": "Feature", "properties": { "index": "189", "@osmId": "node/5023381422", "name": "Tabata Sheli", "opening_hours": null, "label": "Bus stops", "color": "#4292c6" }, "geometry": { "type": "Point", "coordinates": [ 39.2314497, -6.8244682 ] } },
{ "type": "Feature", "properties": { "index": "190", "@osmId": "node/5023381521", "name": "Muslim", "opening_hours": null, "label": "Bus stops", "color": "#4292c6" }, "geometry": { "type": "Point", "coordinates": [ 39.2231545, -6.8295367 ] } },
{ "type": "Feature", "properties": { "index": "191", "@osmId": "node/5023381522", "name": "Tabata Aroma", "opening_hours": null, "label": "Bus stops", "color": "#4292c6" }, "geometry": { "type": "Point", "coordinates": [ 39.231328, -6.8285863 ] } },
{ "type": "Feature", "properties": { "index": "192", "@osmId": "node/5026582321", "name": "Tabata Mwananchi", "opening_hours": null, "label": "Bus stops", "color": "#4292c6" }, "geometry": { "type": "Point", "coordinates": [ 39.2223181, -6.8164143 ] } },
{ "type": "Feature", "properties": { "index": "193", "@osmId": "node/6113643105", "name": "Tazara", "opening_hours": null, "label": "Bus stops", "color": "#4292c6" }, "geometry": { "type": "Point", "coordinates": [ 39.2430729, -6.8455278 ] } },
{ "type": "Feature", "properties": { "index": "194", "@osmId": "node/6119622082", "name": "Buguruni Sheli", "opening_hours": null, "label": "Bus stops", "color": "#4292c6" }, "geometry": { "type": "Point", "coordinates": [ 39.2431158, -6.8384546 ] } },
{ "type": "Feature", "properties": { "index": "195", "@osmId": "node/6120221311", "name": "Tip top", "opening_hours": null, "label": "Bus stops", "color": "#4292c6" }, "geometry": { "type": "Point", "coordinates": [ 39.2296847, -6.7977976 ] } },
{ "type": "Feature", "properties": { "index": "196", "@osmId": "node/6120221312", "name": "Tip top", "opening_hours": null, "label": "Bus stops", "color": "#4292c6" }, "geometry": { "type": "Point", "coordinates": [ 39.2304933, -6.7983222 ] } },
{ "type": "Feature", "properties": { "index": "197", "@osmId": "node/6120221313", "name": "Bakhresa", "opening_hours": null, "label": "Bus stops", "color": "#4292c6" }, "geometry": { "type": "Point", "coordinates": [ 39.234935, -6.7991758 ] } },
{ "type": "Feature", "properties": { "index": "198", "@osmId": "node/6120221314", "name": "Argentina", "opening_hours": null, "label": "Bus stops", "color": "#4292c6" }, "geometry": { "type": "Point", "coordinates": [ 39.239244, -6.8005714 ] } },
{ "type": "Feature", "properties": { "index": "199", "@osmId": "node/6120228634", "name": "Shekilango", "opening_hours": null, "label": "Bus stops", "color": "#4292c6" }, "geometry": { "type": "Point", "coordinates": [ 39.2211498, -6.7962781 ] } },
{ "type": "Feature", "properties": { "index": "200", "@osmId": "node/6120228636", "name": "Kilimanjaro Express", "opening_hours": null, "label": "Bus stops", "color": "#4292c6" }, "geometry": { "type": "Point", "coordinates": [ 39.221127, -6.7959399 ] } },
{ "type": "Feature", "properties": { "index": "201", "@osmId": "node/6120228637", "name": "Dar Express", "opening_hours": null, "label": "Bus stops", "color": "#4292c6" }, "geometry": { "type": "Point", "coordinates": [ 39.220781, -6.7958893 ] } },
{ "type": "Feature", "properties": { "index": "202", "@osmId": "node/6120228640", "name": "Urafiki", "opening_hours": null, "label": "Bus stops", "color": "#4292c6" }, "geometry": { "type": "Point", "coordinates": [ 39.226246, -6.797205 ] } },
{ "type": "Feature", "properties": { "index": "203", "@osmId": "node/6120228641", "name": "Urafiki", "opening_hours": null, "label": "Bus stops", "color": "#4292c6" }, "geometry": { "type": "Point", "coordinates": [ 39.2252536, -6.7973514 ] } },
{ "type": "Feature", "properties": { "index": "204", "@osmId": "node/6261652681", "name": "Kivukoni", "opening_hours": null, "label": "Bus stops", "color": "#4292c6" }, "geometry": { "type": "Point", "coordinates": [ 39.2986187, -6.8190972 ] } },
{ "type": "Feature", "properties": { "index": "205", "@osmId": "node/6261652682", "name": "City Council", "opening_hours": null, "label": "Bus stops", "color": "#4292c6" }, "geometry": { "type": "Point", "coordinates": [ 39.2874286, -6.8197231 ] } },
{ "type": "Feature", "properties": { "index": "206", "@osmId": "node/6485767677", "name": "mabibo mwisho", "opening_hours": null, "label": "Bus stops", "color": "#4292c6" }, "geometry": { "type": "Point", "coordinates": [ 39.2218613, -6.8090115 ] } },
{ "type": "Feature", "properties": { "index": "207", "@osmId": "node/9666756117", "name": "Kumekucha", "opening_hours": null, "label": "Bus stops", "color": "#4292c6" }, "geometry": { "type": "Point", "coordinates": [ 39.2228059, -6.7848608 ] } },
{ "type": "Feature", "properties": { "index": "208", "@osmId": "node/11405277154", "name": "Mchicha", "opening_hours": null, "label": "Bus stops", "color": "#4292c6" }, "geometry": { "type": "Point", "coordinates": [ 39.2364331, -6.8484638 ] } },
{ "type": "Feature", "properties": { "index": "209", "@osmId": "node/3714822072", "name": null, "opening_hours": null, "label": "Bike-sharing points", "color": "#41ab5d" }, "geometry": { "type": "Point", "coordinates": [ 39.2508204, -6.8300422 ] } },
{ "type": "Feature", "properties": { "index": "210", "@osmId": "node/3714828266", "name": "White Swan Investment", "opening_hours": null, "label": "Bike-sharing points", "color": "#41ab5d" }, "geometry": { "type": "Point", "coordinates": [ 39.25041, -6.8302282 ] } },
{ "type": "Feature", "properties": { "index": "211", "@osmId": "node/9275336381", "name": null, "opening_hours": null, "label": "Bike-sharing points", "color": "#41ab5d" }, "geometry": { "type": "Point", "coordinates": [ 39.2580342, -6.8192277 ] } },
{ "type": "Feature", "properties": { "index": "212", "@osmId": "node/3702820376", "name": null, "opening_hours": null, "label": "Car-sharing points", "color": "#f16913" }, "geometry": { "type": "Point", "coordinates": [ 39.2426865, -6.8381235 ] } }
]
}
