{
"type": "FeatureCollection",
"features": [
{ "type": "Feature", "properties": { "index": "0", "@osmId": "node/25733433", "name": null, "opening_hours": null, "label": "Crossings with tactile paving", "color": "#6a51a3" }, "geometry": { "type": "Point", "coordinates": [ 8.6720893, 49.4030509 ] } },
{ "type": "Feature", "properties": { "index": "1", "@osmId": "node/135742806", "name": null, "opening_hours": null, "label": "Crossings with tactile paving", "color": "#6a51a3" }, "geometry": { "type": "Point", "coordinates": [ 8.7013347, 49.4126656 ] } },
{ "type": "Feature", "properties": { "index": "2", "@osmId": "node/269228296", "name": null, "opening_hours": null, "label": "Crossings with tactile paving", "color": "#6a51a3" }, "geometry": { "type": "Point", "coordinates": [ 8.6694347, 49.4051539 ] } },
{ "type": "Feature", "properties": { "index": "3", "@osmId": "node/269903796", "name": null, "opening_hours": null, "label": "Crossings with tactile paving", "color": "#6a51a3" }, "geometry": { "type": "Point", "coordinates": [ 8.6845843, 49.405996 ] } },
{ "type": "Feature", "properties": { "index": "4", "@osmId": "node/269904801", "name": null, "opening_hours": null, "label": "Crossings with tactile paving", "color": "#6a51a3" }, "geometry": { "type": "Point", "coordinates": [ 8.6839225, 49.405141 ] } },
{ "type": "Feature", "properties": { "index": "5", "@osmId": "node/274089739", "name": null, "opening_hours": null, "label": "Crossings with tactile paving", "color": "#6a51a3" }, "geometry": { "type": "Point", "coordinates": [ 8.6750428, 49.4170749 ] } },
{ "type": "Feature", "properties": { "index": "6", "@osmId": "node/285841626", "name": null, "opening_hours": null, "label": "Crossings with tactile paving", "color": "#6a51a3" }, "geometry": { "type": "Point", "coordinates": [ 8.675735, 49.4051351 ] } },
{ "type": "Feature", "properties": { "index": "7", "@osmId": "node/303315920", "name": null, "opening_hours": null, "label": "Crossings with tactile paving", "color": "#6a51a3" }, "geometry": { "type": "Point", "coordinates": [ 8.6896286, 49.4068716 ] } },
{ "type": "Feature", "properties": { "index": "8", "@osmId": "node/303475648", "name": null, "opening_hours": null, "label": "Crossings with tactile paving", "color": "#6a51a3" }, "geometry": { "type": "Point", "coordinates": [ 8.6857752, 49.4061325 ] } },
{ "type": "Feature", "properties": { "index": "9", "@osmId": "node/308265152", "name": null, "opening_hours": null, "label": "Crossings with tactile paving", "color": "#6a51a3" }, "geometry": { "type": "Point", "coordinates": [ 8.6768602, 49.4077743 ] } },
{ "type": "Feature", "properties": { "index": "10", "@osmId": "node/371486584", "name": null, "opening_hours": null, "label": "Crossings with tactile paving", "color": "#6a51a3" }, "geometry": { "type": "Point", "coordinates": [ 8.6944375, 49.4076031 ] } },
{ "type": "Feature", "properties": { "index": "11", "@osmId": "node/441682268", "name": null, "opening_hours": null, "label": "Crossings with tactile paving", "color": "#6a51a3" }, "geometry": { "type": "Point", "coordinates": [ 8.7105407, 49.4135708 ] } },
{ "type": "Feature", "properties": { "index": "12", "@osmId": "node/441682286", "name": null, "opening_hours": null, "label": "Crossings with tactile paving", "color": "#6a51a3" }, "geometry": { "type": "Point", "coordinates": [ 8.699332, 49.4124145 ] } },
{ "type": "Feature", "properties": { "index": "13", "@osmId": "node/461228142", "name": null, "opening_hours": null, "label": "Crossings with tactile paving", "color": "#6a51a3" }, "geometry": { "type": "Point", "coordinates": [ 8.6775496, 49.4041568 ] } },
{ "type": "Feature", "properties": { "index": "14", "@osmId": "node/461228206", "name": null, "opening_hours": null, "label": "Crossings with tactile paving", "color": "#6a51a3" }, "geometry": { "type": "Point", "coordinates": [ 8.6770147, 49.4049678 ] } },
{ "type": "Feature", "properties": { "index": "15", "@osmId": "node/540221764", "name": null, "opening_hours": null, "label": "Crossings with tactile paving", "color": "#6a51a3" }, "geometry": { "type": "Point", "coordinates": [ 8.6868063, 49.4173651 ] } },
{ "type": "Feature", "properties": { "index": "16", "@osmId": "node/572102677", "name": null, "opening_hours": null, "label": "Crossings with tactile paving", "color": "#6a51a3" }, "geometry": { "type": "Point", "coordinates": [ 8.7058023, 49.413319 ] } },
{ "type": "Feature", "properties": { "index": "17", "@osmId": "node/618283129", "name": null, "opening_hours": null, "label": "Crossings with tactile paving", "color": "#6a51a3" }, "geometry": { "type": "Point", "coordinates": [ 8.6923883, 49.4073107 ] } },
{ "type": "Feature", "properties": { "index": "18", "@osmId": "node/645759115", "name": null, "opening_hours": null, "label": "Crossings with tactile paving", "color": "#6a51a3" }, "geometry": { "type": "Point", "coordinates": [ 8.6748319, 49.4049462 ] } },
{ "type": "Feature", "properties": { "index": "19", "@osmId": "node/798432632", "name": null, "opening_hours": null, "label": "Crossings with tactile paving", "color": "#6a51a3" }, "geometry": { "type": "Point", "coordinates": [ 8.6888779, 49.3991305 ] } },
{ "type": "Feature", "properties": { "index": "20", "@osmId": "node/1159486895", "name": null, "opening_hours": null, "label": "Crossings with tactile paving", "color": "#6a51a3" }, "geometry": { "type": "Point", "coordinates": [ 8.6979543, 49.4121356 ] } },
{ "type": "Feature", "properties": { "index": "21", "@osmId": "node/1339993355", "name": null, "opening_hours": null, "label": "Crossings with tactile paving", "color": "#6a51a3" }, "geometry": { "type": "Point", "coordinates": [ 8.6812922, 49.4047927 ] } },
{ "type": "Feature", "properties": { "index": "22", "@osmId": "node/1339993467", "name": null, "opening_hours": null, "label": "Crossings with tactile paving", "color": "#6a51a3" }, "geometry": { "type": "Point", "coordinates": [ 8.681245, 49.4049037 ] } },
{ "type": "Feature", "properties": { "index": "23", "@osmId": "node/1341408260", "name": null, "opening_hours": null, "label": "Crossings with tactile paving", "color": "#6a51a3" }, "geometry": { "type": "Point", "coordinates": [ 8.6765894, 49.4078213 ] } },
{ "type": "Feature", "properties": { "index": "24", "@osmId": "node/1402517962", "name": null, "opening_hours": null, "label": "Crossings with tactile paving", "color": "#6a51a3" }, "geometry": { "type": "Point", "coordinates": [ 8.6748666, 49.4017674 ] } },
{ "type": "Feature", "properties": { "index": "25", "@osmId": "node/1470714697", "name": null, "opening_hours": null, "label": "Crossings with tactile paving", "color": "#6a51a3" }, "geometry": { "type": "Point", "coordinates": [ 8.7049782, 49.4088976 ] } },
{ "type": "Feature", "properties": { "index": "26", "@osmId": "node/1854905221", "name": null, "opening_hours": null, "label": "Crossings with tactile paving", "color": "#6a51a3" }, "geometry": { "type": "Point", "coordinates": [ 8.674528, 49.405243 ] } },
{ "type": "Feature", "properties": { "index": "27", "@osmId": "node/1995271044", "name": null, "opening_hours": null, "label": "Crossings with tactile paving", "color": "#6a51a3" }, "geometry": { "type": "Point", "coordinates": [ 8.689179, 49.421469 ] } },
{ "type": "Feature", "properties": { "index": "28", "@osmId": "node/2085229013", "name": null, "opening_hours": null, "label": "Crossings with tactile paving", "color": "#6a51a3" }, "geometry": { "type": "Point", "coordinates": [ 8.6736464, 49.3981471 ] } },
{ "type": "Feature", "properties": { "index": "29", "@osmId": "node/2085229016", "name": null, "opening_hours": null, "label": "Crossings with tactile paving", "color": "#6a51a3" }, "geometry": { "type": "Point", "coordinates": [ 8.6777971, 49.4003989 ] } },
{ "type": "Feature", "properties": { "index": "30", "@osmId": "node/2085229020", "name": null, "opening_hours": null, "label": "Crossings with tactile paving", "color": "#6a51a3" }, "geometry": { "type": "Point", "coordinates": [ 8.6773126, 49.4001088 ] } },
{ "type": "Feature", "properties": { "index": "31", "@osmId": "node/2085229021", "name": null, "opening_hours": null, "label": "Crossings with tactile paving", "color": "#6a51a3" }, "geometry": { "type": "Point", "coordinates": [ 8.6771476, 49.4000292 ] } },
{ "type": "Feature", "properties": { "index": "32", "@osmId": "node/2108088837", "name": null, "opening_hours": null, "label": "Crossings with tactile paving", "color": "#6a51a3" }, "geometry": { "type": "Point", "coordinates": [ 8.6803517, 49.4018965 ] } },
{ "type": "Feature", "properties": { "index": "33", "@osmId": "node/2108088839", "name": null, "opening_hours": null, "label": "Crossings with tactile paving", "color": "#6a51a3" }, "geometry": { "type": "Point", "coordinates": [ 8.6738686, 49.3980019 ] } },
{ "type": "Feature", "properties": { "index": "34", "@osmId": "node/2108088840", "name": null, "opening_hours": null, "label": "Crossings with tactile paving", "color": "#6a51a3" }, "geometry": { "type": "Point", "coordinates": [ 8.6817587, 49.4032592 ] } },
{ "type": "Feature", "properties": { "index": "35", "@osmId": "node/2108088848", "name": null, "opening_hours": null, "label": "Crossings with tactile paving", "color": "#6a51a3" }, "geometry": { "type": "Point", "coordinates": [ 8.6776194, 49.3998968 ] } },
{ "type": "Feature", "properties": { "index": "36", "@osmId": "node/2108088849", "name": null, "opening_hours": null, "label": "Crossings with tactile paving", "color": "#6a51a3" }, "geometry": { "type": "Point", "coordinates": [ 8.6782873, 49.4002512 ] } },
{ "type": "Feature", "properties": { "index": "37", "@osmId": "node/2108091479", "name": null, "opening_hours": null, "label": "Crossings with tactile paving", "color": "#6a51a3" }, "geometry": { "type": "Point", "coordinates": [ 8.680028, 49.4020936 ] } },
{ "type": "Feature", "properties": { "index": "38", "@osmId": "node/2108091481", "name": null, "opening_hours": null, "label": "Crossings with tactile paving", "color": "#6a51a3" }, "geometry": { "type": "Point", "coordinates": [ 8.6795974, 49.4017604 ] } },
{ "type": "Feature", "properties": { "index": "39", "@osmId": "node/2184899914", "name": null, "opening_hours": null, "label": "Crossings with tactile paving", "color": "#6a51a3" }, "geometry": { "type": "Point", "coordinates": [ 8.6993528, 49.4123588 ] } },
{ "type": "Feature", "properties": { "index": "40", "@osmId": "node/2280283612", "name": null, "opening_hours": null, "label": "Crossings with tactile paving", "color": "#6a51a3" }, "geometry": { "type": "Point", "coordinates": [ 8.699275, 49.4122933 ] } },
{ "type": "Feature", "properties": { "index": "41", "@osmId": "node/2280283618", "name": null, "opening_hours": null, "label": "Crossings with tactile paving", "color": "#6a51a3" }, "geometry": { "type": "Point", "coordinates": [ 8.6994239, 49.4123254 ] } },
{ "type": "Feature", "properties": { "index": "42", "@osmId": "node/2288314034", "name": null, "opening_hours": null, "label": "Crossings with tactile paving", "color": "#6a51a3" }, "geometry": { "type": "Point", "coordinates": [ 8.681402, 49.4033734 ] } },
{ "type": "Feature", "properties": { "index": "43", "@osmId": "node/2302357006", "name": null, "opening_hours": null, "label": "Crossings with tactile paving", "color": "#6a51a3" }, "geometry": { "type": "Point", "coordinates": [ 8.6898776, 49.4066891 ] } },
{ "type": "Feature", "properties": { "index": "44", "@osmId": "node/2302357029", "name": null, "opening_hours": null, "label": "Crossings with tactile paving", "color": "#6a51a3" }, "geometry": { "type": "Point", "coordinates": [ 8.6898062, 49.4068434 ] } },
{ "type": "Feature", "properties": { "index": "45", "@osmId": "node/2302357103", "name": null, "opening_hours": null, "label": "Crossings with tactile paving", "color": "#6a51a3" }, "geometry": { "type": "Point", "coordinates": [ 8.6930521, 49.4073665 ] } },
{ "type": "Feature", "properties": { "index": "46", "@osmId": "node/2302357120", "name": null, "opening_hours": null, "label": "Crossings with tactile paving", "color": "#6a51a3" }, "geometry": { "type": "Point", "coordinates": [ 8.6930292, 49.4074207 ] } },
{ "type": "Feature", "properties": { "index": "47", "@osmId": "node/2302357155", "name": null, "opening_hours": null, "label": "Crossings with tactile paving", "color": "#6a51a3" }, "geometry": { "type": "Point", "coordinates": [ 8.6925565, 49.4075162 ] } },
{ "type": "Feature", "properties": { "index": "48", "@osmId": "node/2319092914", "name": null, "opening_hours": null, "label": "Crossings with tactile paving", "color": "#6a51a3" }, "geometry": { "type": "Point", "coordinates": [ 8.6886114, 49.3991968 ] } },
{ "type": "Feature", "properties": { "index": "49", "@osmId": "node/2391363180", "name": null, "opening_hours": null, "label": "Crossings with tactile paving", "color": "#6a51a3" }, "geometry": { "type": "Point", "coordinates": [ 8.6803671, 49.4020257 ] } },
{ "type": "Feature", "properties": { "index": "50", "@osmId": "node/2391363185", "name": null, "opening_hours": null, "label": "Crossings with tactile paving", "color": "#6a51a3" }, "geometry": { "type": "Point", "coordinates": [ 8.6801798, 49.4021236 ] } },
{ "type": "Feature", "properties": { "index": "51", "@osmId": "node/2391363188", "name": null, "opening_hours": null, "label": "Crossings with tactile paving", "color": "#6a51a3" }, "geometry": { "type": "Point", "coordinates": [ 8.6815373, 49.4031581 ] } },
{ "type": "Feature", "properties": { "index": "52", "@osmId": "node/2391363191", "name": null, "opening_hours": null, "label": "Crossings with tactile paving", "color": "#6a51a3" }, "geometry": { "type": "Point", "coordinates": [ 8.6813067, 49.4032272 ] } },
{ "type": "Feature", "properties": { "index": "53", "@osmId": "node/2391363194", "name": null, "opening_hours": null, "label": "Crossings with tactile paving", "color": "#6a51a3" }, "geometry": { "type": "Point", "coordinates": [ 8.6818523, 49.4034074 ] } },
{ "type": "Feature", "properties": { "index": "54", "@osmId": "node/2391363197", "name": null, "opening_hours": null, "label": "Crossings with tactile paving", "color": "#6a51a3" }, "geometry": { "type": "Point", "coordinates": [ 8.6816065, 49.4034939 ] } },
{ "type": "Feature", "properties": { "index": "55", "@osmId": "node/2400540525", "name": null, "opening_hours": null, "label": "Crossings with tactile paving", "color": "#6a51a3" }, "geometry": { "type": "Point", "coordinates": [ 8.6669086, 49.4051498 ] } },
{ "type": "Feature", "properties": { "index": "56", "@osmId": "node/2402929196", "name": null, "opening_hours": null, "label": "Crossings with tactile paving", "color": "#6a51a3" }, "geometry": { "type": "Point", "coordinates": [ 8.6774106, 49.4044255 ] } },
{ "type": "Feature", "properties": { "index": "57", "@osmId": "node/2407305254", "name": null, "opening_hours": null, "label": "Crossings with tactile paving", "color": "#6a51a3" }, "geometry": { "type": "Point", "coordinates": [ 8.6745733, 49.4017842 ] } },
{ "type": "Feature", "properties": { "index": "58", "@osmId": "node/2500011810", "name": null, "opening_hours": null, "label": "Crossings with tactile paving", "color": "#6a51a3" }, "geometry": { "type": "Point", "coordinates": [ 8.6749651, 49.4053425 ] } },
{ "type": "Feature", "properties": { "index": "59", "@osmId": "node/2501377950", "name": null, "opening_hours": null, "label": "Crossings with tactile paving", "color": "#6a51a3" }, "geometry": { "type": "Point", "coordinates": [ 8.6823368, 49.4037793 ] } },
{ "type": "Feature", "properties": { "index": "60", "@osmId": "node/2537836261", "name": null, "opening_hours": null, "label": "Crossings with tactile paving", "color": "#6a51a3" }, "geometry": { "type": "Point", "coordinates": [ 8.6773969, 49.3998987 ] } },
{ "type": "Feature", "properties": { "index": "61", "@osmId": "node/2537836302", "name": null, "opening_hours": null, "label": "Crossings with tactile paving", "color": "#6a51a3" }, "geometry": { "type": "Point", "coordinates": [ 8.6772781, 49.3999799 ] } },
{ "type": "Feature", "properties": { "index": "62", "@osmId": "node/2592025304", "name": null, "opening_hours": null, "label": "Crossings with tactile paving", "color": "#6a51a3" }, "geometry": { "type": "Point", "coordinates": [ 8.673541, 49.39802 ] } },
{ "type": "Feature", "properties": { "index": "63", "@osmId": "node/2592025306", "name": null, "opening_hours": null, "label": "Crossings with tactile paving", "color": "#6a51a3" }, "geometry": { "type": "Point", "coordinates": [ 8.6739715, 49.3981185 ] } },
{ "type": "Feature", "properties": { "index": "64", "@osmId": "node/2592025308", "name": null, "opening_hours": null, "label": "Crossings with tactile paving", "color": "#6a51a3" }, "geometry": { "type": "Point", "coordinates": [ 8.673874, 49.3982031 ] } },
{ "type": "Feature", "properties": { "index": "65", "@osmId": "node/2640446048", "name": null, "opening_hours": null, "label": "Crossings with tactile paving", "color": "#6a51a3" }, "geometry": { "type": "Point", "coordinates": [ 8.6895354, 49.3981616 ] } },
{ "type": "Feature", "properties": { "index": "66", "@osmId": "node/2793896127", "name": null, "opening_hours": null, "label": "Crossings with tactile paving", "color": "#6a51a3" }, "geometry": { "type": "Point", "coordinates": [ 8.6702572, 49.4079811 ] } },
{ "type": "Feature", "properties": { "index": "67", "@osmId": "node/2793896128", "name": null, "opening_hours": null, "label": "Crossings with tactile paving", "color": "#6a51a3" }, "geometry": { "type": "Point", "coordinates": [ 8.6702623, 49.4080678 ] } },
{ "type": "Feature", "properties": { "index": "68", "@osmId": "node/2865556819", "name": null, "opening_hours": null, "label": "Crossings with tactile paving", "color": "#6a51a3" }, "geometry": { "type": "Point", "coordinates": [ 8.6871037, 49.4061298 ] } },
{ "type": "Feature", "properties": { "index": "69", "@osmId": "node/3201003003", "name": null, "opening_hours": null, "label": "Crossings with tactile paving", "color": "#6a51a3" }, "geometry": { "type": "Point", "coordinates": [ 8.6942847, 49.4077233 ] } },
{ "type": "Feature", "properties": { "index": "70", "@osmId": "node/3712759949", "name": null, "opening_hours": null, "label": "Crossings with tactile paving", "color": "#6a51a3" }, "geometry": { "type": "Point", "coordinates": [ 8.6858834, 49.4059666 ] } },
{ "type": "Feature", "properties": { "index": "71", "@osmId": "node/3763267910", "name": null, "opening_hours": null, "label": "Crossings with tactile paving", "color": "#6a51a3" }, "geometry": { "type": "Point", "coordinates": [ 8.6869327, 49.4061666 ] } },
{ "type": "Feature", "properties": { "index": "72", "@osmId": "node/3763267915", "name": null, "opening_hours": null, "label": "Crossings with tactile paving", "color": "#6a51a3" }, "geometry": { "type": "Point", "coordinates": [ 8.6868584, 49.4063233 ] } },
{ "type": "Feature", "properties": { "index": "73", "@osmId": "node/3962606285", "name": null, "opening_hours": null, "label": "Crossings with tactile paving", "color": "#6a51a3" }, "geometry": { "type": "Point", "coordinates": [ 8.6782796, 49.4003489 ] } },
{ "type": "Feature", "properties": { "index": "74", "@osmId": "node/4909158089", "name": null, "opening_hours": null, "label": "Crossings with tactile paving", "color": "#6a51a3" }, "geometry": { "type": "Point", "coordinates": [ 8.6689588, 49.4033463 ] } },
{ "type": "Feature", "properties": { "index": "75", "@osmId": "node/5094269050", "name": null, "opening_hours": null, "label": "Crossings with tactile paving", "color": "#6a51a3" }, "geometry": { "type": "Point", "coordinates": [ 8.6660745, 49.4037495 ] } },
{ "type": "Feature", "properties": { "index": "76", "@osmId": "node/5290673229", "name": null, "opening_hours": null, "label": "Crossings with tactile paving", "color": "#6a51a3" }, "geometry": { "type": "Point", "coordinates": [ 8.6690532, 49.4051593 ] } },
{ "type": "Feature", "properties": { "index": "77", "@osmId": "node/5290673230", "name": null, "opening_hours": null, "label": "Crossings with tactile paving", "color": "#6a51a3" }, "geometry": { "type": "Point", "coordinates": [ 8.669031, 49.4050489 ] } },
{ "type": "Feature", "properties": { "index": "78", "@osmId": "node/5328295060", "name": null, "opening_hours": null, "label": "Crossings with tactile paving", "color": "#6a51a3" }, "geometry": { "type": "Point", "coordinates": [ 8.6621445, 49.4047944 ] } },
{ "type": "Feature", "properties": { "index": "79", "@osmId": "node/6127351325", "name": null, "opening_hours": null, "label": "Crossings with tactile paving", "color": "#6a51a3" }, "geometry": { "type": "Point", "coordinates": [ 8.6766721, 49.4049404 ] } },
{ "type": "Feature", "properties": { "index": "80", "@osmId": "node/6222512454", "name": null, "opening_hours": null, "label": "Crossings with tactile paving", "color": "#6a51a3" }, "geometry": { "type": "Point", "coordinates": [ 8.6718734, 49.4030524 ] } },
{ "type": "Feature", "properties": { "index": "81", "@osmId": "node/6222512455", "name": null, "opening_hours": null, "label": "Crossings with tactile paving", "color": "#6a51a3" }, "geometry": { "type": "Point", "coordinates": [ 8.6745579, 49.4015494 ] } },
{ "type": "Feature", "properties": { "index": "82", "@osmId": "node/6222512471", "name": null, "opening_hours": null, "label": "Crossings with tactile paving", "color": "#6a51a3" }, "geometry": { "type": "Point", "coordinates": [ 8.6731499, 49.4022476 ] } },
{ "type": "Feature", "properties": { "index": "83", "@osmId": "node/6222512972", "name": null, "opening_hours": null, "label": "Crossings with tactile paving", "color": "#6a51a3" }, "geometry": { "type": "Point", "coordinates": [ 8.6688687, 49.4031527 ] } },
{ "type": "Feature", "properties": { "index": "84", "@osmId": "node/6583602120", "name": null, "opening_hours": null, "label": "Crossings with tactile paving", "color": "#6a51a3" }, "geometry": { "type": "Point", "coordinates": [ 8.6803034, 49.4157312 ] } },
{ "type": "Feature", "properties": { "index": "85", "@osmId": "node/6583628098", "name": null, "opening_hours": null, "label": "Crossings with tactile paving", "color": "#6a51a3" }, "geometry": { "type": "Point", "coordinates": [ 8.6826747, 49.4173185 ] } },
{ "type": "Feature", "properties": { "index": "86", "@osmId": "node/6693425978", "name": null, "opening_hours": null, "label": "Crossings with tactile paving", "color": "#6a51a3" }, "geometry": { "type": "Point", "coordinates": [ 8.6679217, 49.4034211 ] } },
{ "type": "Feature", "properties": { "index": "87", "@osmId": "node/6766284692", "name": null, "opening_hours": null, "label": "Crossings with tactile paving", "color": "#6a51a3" }, "geometry": { "type": "Point", "coordinates": [ 8.6756997, 49.4050667 ] } },
{ "type": "Feature", "properties": { "index": "88", "@osmId": "node/6771696320", "name": null, "opening_hours": null, "label": "Crossings with tactile paving", "color": "#6a51a3" }, "geometry": { "type": "Point", "coordinates": [ 8.6774844, 49.404024 ] } },
{ "type": "Feature", "properties": { "index": "89", "@osmId": "node/6771696321", "name": null, "opening_hours": null, "label": "Crossings with tactile paving", "color": "#6a51a3" }, "geometry": { "type": "Point", "coordinates": [ 8.6772841, 49.4039852 ] } },
{ "type": "Feature", "properties": { "index": "90", "@osmId": "node/6771696325", "name": null, "opening_hours": null, "label": "Crossings with tactile paving", "color": "#6a51a3" }, "geometry": { "type": "Point", "coordinates": [ 8.6755781, 49.4048309 ] } },
{ "type": "Feature", "properties": { "index": "91", "@osmId": "node/6771696326", "name": null, "opening_hours": null, "label": "Crossings with tactile paving", "color": "#6a51a3" }, "geometry": { "type": "Point", "coordinates": [ 8.6756095, 49.4048919 ] } },
{ "type": "Feature", "properties": { "index": "92", "@osmId": "node/6771696327", "name": null, "opening_hours": null, "label": "Crossings with tactile paving", "color": "#6a51a3" }, "geometry": { "type": "Point", "coordinates": [ 8.675627, 49.4049258 ] } },
{ "type": "Feature", "properties": { "index": "93", "@osmId": "node/6771696328", "name": null, "opening_hours": null, "label": "Crossings with tactile paving", "color": "#6a51a3" }, "geometry": { "type": "Point", "coordinates": [ 8.67566, 49.4049898 ] } },
{ "type": "Feature", "properties": { "index": "94", "@osmId": "node/6771696329", "name": null, "opening_hours": null, "label": "Crossings with tactile paving", "color": "#6a51a3" }, "geometry": { "type": "Point", "coordinates": [ 8.6766556, 49.4047821 ] } },
{ "type": "Feature", "properties": { "index": "95", "@osmId": "node/6771701771", "name": null, "opening_hours": null, "label": "Crossings with tactile paving", "color": "#6a51a3" }, "geometry": { "type": "Point", "coordinates": [ 8.6765772, 49.404621 ] } },
{ "type": "Feature", "properties": { "index": "96", "@osmId": "node/6771701772", "name": null, "opening_hours": null, "label": "Crossings with tactile paving", "color": "#6a51a3" }, "geometry": { "type": "Point", "coordinates": [ 8.6766096, 49.4046874 ] } },
{ "type": "Feature", "properties": { "index": "97", "@osmId": "node/6771701773", "name": null, "opening_hours": null, "label": "Crossings with tactile paving", "color": "#6a51a3" }, "geometry": { "type": "Point", "coordinates": [ 8.6766229, 49.4047152 ] } },
{ "type": "Feature", "properties": { "index": "98", "@osmId": "node/6787829751", "name": null, "opening_hours": null, "label": "Crossings with tactile paving", "color": "#6a51a3" }, "geometry": { "type": "Point", "coordinates": [ 8.6749005, 49.4053468 ] } },
{ "type": "Feature", "properties": { "index": "99", "@osmId": "node/6795041023", "name": null, "opening_hours": null, "label": "Crossings with tactile paving", "color": "#6a51a3" }, "geometry": { "type": "Point", "coordinates": [ 8.676808, 49.4042423 ] } },
{ "type": "Feature", "properties": { "index": "100", "@osmId": "node/7110970014", "name": null, "opening_hours": null, "label": "Crossings with tactile paving", "color": "#6a51a3" }, "geometry": { "type": "Point", "coordinates": [ 8.6717515, 49.403274 ] } },
{ "type": "Feature", "properties": { "index": "101", "@osmId": "node/7278463006", "name": null, "opening_hours": null, "label": "Crossings with tactile paving", "color": "#6a51a3" }, "geometry": { "type": "Point", "coordinates": [ 8.6737944, 49.4021688 ] } },
{ "type": "Feature", "properties": { "index": "102", "@osmId": "node/7360216344", "name": null, "opening_hours": null, "label": "Crossings with tactile paving", "color": "#6a51a3" }, "geometry": { "type": "Point", "coordinates": [ 8.6680137, 49.4034943 ] } },
{ "type": "Feature", "properties": { "index": "103", "@osmId": "node/8081327789", "name": null, "opening_hours": null, "label": "Crossings with tactile paving", "color": "#6a51a3" }, "geometry": { "type": "Point", "coordinates": [ 8.6692839, 49.4052196 ] } },
{ "type": "Feature", "properties": { "index": "104", "@osmId": "node/8081327792", "name": null, "opening_hours": null, "label": "Crossings with tactile paving", "color": "#6a51a3" }, "geometry": { "type": "Point", "coordinates": [ 8.6694789, 49.405139 ] } },
{ "type": "Feature", "properties": { "index": "105", "@osmId": "node/8081327793", "name": null, "opening_hours": null, "label": "Crossings with tactile paving", "color": "#6a51a3" }, "geometry": { "type": "Point", "coordinates": [ 8.6696258, 49.4051068 ] } },
{ "type": "Feature", "properties": { "index": "106", "@osmId": "node/8081327802", "name": null, "opening_hours": null, "label": "Crossings with tactile paving", "color": "#6a51a3" }, "geometry": { "type": "Point", "coordinates": [ 8.6695711, 49.4049175 ] } },
{ "type": "Feature", "properties": { "index": "107", "@osmId": "node/8081327804", "name": null, "opening_hours": null, "label": "Crossings with tactile paving", "color": "#6a51a3" }, "geometry": { "type": "Point", "coordinates": [ 8.669681, 49.404973 ] } },
{ "type": "Feature", "properties": { "index": "108", "@osmId": "node/9216185479", "name": null, "opening_hours": null, "label": "Crossings with tactile paving", "color": "#6a51a3" }, "geometry": { "type": "Point", "coordinates": [ 8.6702182, 49.403031 ] } },
{ "type": "Feature", "properties": { "index": "109", "@osmId": "node/9216223619", "name": null, "opening_hours": null, "label": "Crossings with tactile paving", "color": "#6a51a3" }, "geometry": { "type": "Point", "coordinates": [ 8.6706093, 49.4040779 ] } },
{ "type": "Feature", "properties": { "index": "110", "@osmId": "node/9412613633", "name": null, "opening_hours": null, "label": "Crossings with tactile paving", "color": "#6a51a3" }, "geometry": { "type": "Point", "coordinates": [ 8.6783323, 49.400336 ] } },
{ "type": "Feature", "properties": { "index": "111", "@osmId": "node/9425492057", "name": null, "opening_hours": null, "label": "Crossings with tactile paving", "color": "#6a51a3" }, "geometry": { "type": "Point", "coordinates": [ 8.6768197, 49.4050229 ] } },
{ "type": "Feature", "properties": { "index": "112", "@osmId": "node/10704229380", "name": null, "opening_hours": null, "label": "Crossings with tactile paving", "color": "#6a51a3" }, "geometry": { "type": "Point", "coordinates": [ 8.6885319, 49.3991598 ] } },
{ "type": "Feature", "properties": { "index": "113", "@osmId": "node/11335818817", "name": null, "opening_hours": null, "label": "Crossings with tactile paving", "color": "#6a51a3" }, "geometry": { "type": "Point", "coordinates": [ 8.6671467, 49.4052031 ] } },
{ "type": "Feature", "properties": { "index": "114", "@osmId": "node/12114123820", "name": null, "opening_hours": null, "label": "Crossings with tactile paving", "color": "#6a51a3" }, "geometry": { "type": "Point", "coordinates": [ 8.6750425, 49.4170906 ] } },
{ "type": "Feature", "properties": { "index": "115", "@osmId": "node/12123734950", "name": null, "opening_hours": null, "label": "Crossings with tactile paving", "color": "#6a51a3" }, "geometry": { "type": "Point", "coordinates": [ 8.6663147, 49.4038675 ] } },
{ "type": "Feature", "properties": { "index": "116", "@osmId": "node/12123734951", "name": null, "opening_hours": null, "label": "Crossings with tactile paving", "color": "#6a51a3" }, "geometry": { "type": "Point", "coordinates": [ 8.666267, 49.4037727 ] } },
{ "type": "Feature", "properties": { "index": "117", "@osmId": "node/12123734967", "name": null, "opening_hours": null, "label": "Crossings with tactile paving", "color": "#6a51a3" }, "geometry": { "type": "Point", "coordinates": [ 8.665959, 49.40393 ] } },
{ "type": "Feature", "properties": { "index": "118", "@osmId": "node/12123734968", "name": null, "opening_hours": null, "label": "Crossings with tactile paving", "color": "#6a51a3" }, "geometry": { "type": "Point", "coordinates": [ 8.6659186, 49.4038459 ] } },
{ "type": "Feature", "properties": { "index": "119", "@osmId": "node/12123734973", "name": null, "opening_hours": null, "label": "Crossings with tactile paving", "color": "#6a51a3" }, "geometry": { "type": "Point", "coordinates": [ 8.6622705, 49.4046085 ] } },
{ "type": "Feature", "properties": { "index": "120", "@osmId": "node/12123734990", "name": null, "opening_hours": null, "label": "Crossings with tactile paving", "color": "#6a51a3" }, "geometry": { "type": "Point", "coordinates": [ 8.6620204, 49.4047675 ] } },
{ "type": "Feature", "properties": { "index": "121", "@osmId": "node/12123734991", "name": null, "opening_hours": null, "label": "Crossings with tactile paving", "color": "#6a51a3" }, "geometry": { "type": "Point", "coordinates": [ 8.6619837, 49.4046707 ] } },
{ "type": "Feature", "properties": { "index": "122", "@osmId": "node/12291632134", "name": null, "opening_hours": null, "label": "Crossings with tactile paving", "color": "#6a51a3" }, "geometry": { "type": "Point", "coordinates": [ 8.6749326, 49.4049157 ] } },
{ "type": "Feature", "properties": { "index": "123", "@osmId": "node/13135159767", "name": null, "opening_hours": null, "label": "Crossings with tactile paving", "color": "#6a51a3" }, "geometry": { "type": "Point", "coordinates": [ 8.6671532, 49.4052649 ] } },
{ "type": "Feature", "properties": { "index": "124", "@osmId": "node/13135178977", "name": null, "opening_hours": null, "label": "Crossings with tactile paving", "color": "#6a51a3" }, "geometry": { "type": "Point", "coordinates": [ 8.6661881, 49.403945 ] } },
{ "type": "Feature", "properties": { "index": "125", "@osmId": "node/13386851414", "name": null, "opening_hours": null, "label": "Crossings with tactile paving", "color": "#6a51a3" }, "geometry": { "type": "Point", "coordinates": [ 8.6667729, 49.4052405 ] } },
{ "type": "Feature", "properties": { "index": "126", "@osmId": "node/13386851415", "name": null, "opening_hours": null, "label": "Crossings with tactile paving", "color": "#6a51a3" }, "geometry": { "type": "Point", "coordinates": [ 8.6667923, 49.4053099 ] } },
{ "type": "Feature", "properties": { "index": "127", "@osmId": "node/13389794793", "name": null, "opening_hours": null, "label": "Crossings with tactile paving", "color": "#6a51a3" }, "geometry": { "type": "Point", "coordinates": [ 8.6718034, 49.4031027 ] } },
{ "type": "Feature", "properties": { "index": "128", "@osmId": "node/13649411435", "name": null, "opening_hours": null, "label": "Crossings with tactile paving", "color": "#6a51a3" }, "geometry": { "type": "Point", "coordinates": [ 8.7011844, 49.4126481 ] } },
{ "type": "Feature", "properties": { "index": "129", "@osmId": "way/107884526", "name": "Stadtwerke", "opening_hours": null, "label": "Kerbs with tactile paving", "color": "#9e9ac8" }, "geometry": { "type": "Point", "coordinates": [ 8.6817453, 49.4050126 ] } },
{ "type": "Feature", "properties": { "index": "130", "@osmId": "way/107884535", "name": "Stadtbücherei", "opening_hours": null, "label": "Kerbs with tactile paving", "color": "#9e9ac8" }, "geometry": { "type": "Point", "coordinates": [ 8.6864236, 49.4061297 ] } },
{ "type": "Feature", "properties": { "index": "131", "@osmId": "way/107884537", "name": "Stadtbücherei", "opening_hours": null, "label": "Kerbs with tactile paving", "color": "#9e9ac8" }, "geometry": { "type": "Point", "coordinates": [ 8.6863472, 49.4061849 ] } },
{ "type": "Feature", "properties": { "index": "132", "@osmId": "way/107884543", "name": "Seegarten", "opening_hours": null, "label": "Kerbs with tactile paving", "color": "#9e9ac8" }, "geometry": { "type": "Point", "coordinates": [ 8.6918105, 49.4070612 ] } },
{ "type": "Feature", "properties": { "index": "133", "@osmId": "way/119364929", "name": "Brückenstraße", "opening_hours": null, "label": "Kerbs with tactile paving", "color": "#9e9ac8" }, "geometry": { "type": "Point", "coordinates": [ 8.6920417, 49.4156241 ] } },
{ "type": "Feature", "properties": { "index": "134", "@osmId": "way/119364931", "name": "Brückenstraße", "opening_hours": null, "label": "Kerbs with tactile paving", "color": "#9e9ac8" }, "geometry": { "type": "Point", "coordinates": [ 8.6921485, 49.415628 ] } },
{ "type": "Feature", "properties": { "index": "135", "@osmId": "way/107884480", "name": "Betriebshof", "opening_hours": null, "label": "Kerbs with tactile paving", "color": "#9e9ac8" }, "geometry": { "type": "Point", "coordinates": [ 8.6760508, 49.4079318 ] } },
{ "type": "Feature", "properties": { "index": "136", "@osmId": "way/107884484", "name": "Betriebshof", "opening_hours": null, "label": "Kerbs with tactile paving", "color": "#9e9ac8" }, "geometry": { "type": "Point", "coordinates": [ 8.6760574, 49.4078508 ] } },
{ "type": "Feature", "properties": { "index": "137", "@osmId": "way/107884577", "name": "Kußmaulstraße", "opening_hours": null, "label": "Kerbs with tactile paving", "color": "#9e9ac8" }, "geometry": { "type": "Point", "coordinates": [ 8.6905987, 49.4187445 ] } },
{ "type": "Feature", "properties": { "index": "138", "@osmId": "way/107884581", "name": "Kußmaulstraße", "opening_hours": null, "label": "Kerbs with tactile paving", "color": "#9e9ac8" }, "geometry": { "type": "Point", "coordinates": [ 8.6907219, 49.4187422 ] } },
{ "type": "Feature", "properties": { "index": "139", "@osmId": "way/107884583", "name": "Blumenthalstraße", "opening_hours": null, "label": "Kerbs with tactile paving", "color": "#9e9ac8" }, "geometry": { "type": "Point", "coordinates": [ 8.6890217, 49.4217305 ] } },
{ "type": "Feature", "properties": { "index": "140", "@osmId": "way/107884586", "name": "Blumenthalstraße", "opening_hours": null, "label": "Kerbs with tactile paving", "color": "#9e9ac8" }, "geometry": { "type": "Point", "coordinates": [ 8.6890963, 49.4217391 ] } },
{ "type": "Feature", "properties": { "index": "141", "@osmId": "way/324339558", "name": "Bunsengymnasium", "opening_hours": null, "label": "Kerbs with tactile paving", "color": "#9e9ac8" }, "geometry": { "type": "Point", "coordinates": [ 8.6768786, 49.4168722 ] } },
{ "type": "Feature", "properties": { "index": "142", "@osmId": "way/324339559", "name": "Bunsengymnasium", "opening_hours": null, "label": "Kerbs with tactile paving", "color": "#9e9ac8" }, "geometry": { "type": "Point", "coordinates": [ 8.6768825, 49.4170517 ] } },
{ "type": "Feature", "properties": { "index": "143", "@osmId": "way/721164933", "name": "Heidelberg Hauptbahnhof", "opening_hours": null, "label": "Kerbs with tactile paving", "color": "#9e9ac8" }, "geometry": { "type": "Point", "coordinates": [ 8.6761517, 49.404868 ] } },
{ "type": "Feature", "properties": { "index": "144", "@osmId": "way/722759670", "name": "Heidelberg Hauptbahnhof", "opening_hours": null, "label": "Kerbs with tactile paving", "color": "#9e9ac8" }, "geometry": { "type": "Point", "coordinates": [ 8.6761052, 49.4047675 ] } },
{ "type": "Feature", "properties": { "index": "145", "@osmId": "way/722759671", "name": "Heidelberg Hauptbahnhof", "opening_hours": null, "label": "Kerbs with tactile paving", "color": "#9e9ac8" }, "geometry": { "type": "Point", "coordinates": [ 8.6761388, 49.4048447 ] } },
{ "type": "Feature", "properties": { "index": "146", "@osmId": "node/135755571", "name": null, "opening_hours": null, "label": "Kerbs with tactile paving", "color": "#9e9ac8" }, "geometry": { "type": "Point", "coordinates": [ 8.7020931, 49.4127766 ] } },
{ "type": "Feature", "properties": { "index": "147", "@osmId": "node/274092714", "name": "Bunsengymnasium", "opening_hours": null, "label": "Kerbs with tactile paving", "color": "#9e9ac8" }, "geometry": { "type": "Point", "coordinates": [ 8.6768373, 49.4168763 ] } },
{ "type": "Feature", "properties": { "index": "148", "@osmId": "node/282209495", "name": "Bunsengymnasium", "opening_hours": null, "label": "Kerbs with tactile paving", "color": "#9e9ac8" }, "geometry": { "type": "Point", "coordinates": [ 8.6767755, 49.417056 ] } },
{ "type": "Feature", "properties": { "index": "149", "@osmId": "node/283552747", "name": "Medizinische Klinik/Chirurgie/Zoo", "opening_hours": null, "label": "Kerbs with tactile paving", "color": "#9e9ac8" }, "geometry": { "type": "Point", "coordinates": [ 8.6655363, 49.4148543 ] } },
{ "type": "Feature", "properties": { "index": "150", "@osmId": "node/283552748", "name": "Medizinische Klinik/Chirurgie/Zoo", "opening_hours": null, "label": "Kerbs with tactile paving", "color": "#9e9ac8" }, "geometry": { "type": "Point", "coordinates": [ 8.6663105, 49.4145691 ] } },
{ "type": "Feature", "properties": { "index": "151", "@osmId": "node/309414415", "name": "Betriebshof", "opening_hours": null, "label": "Kerbs with tactile paving", "color": "#9e9ac8" }, "geometry": { "type": "Point", "coordinates": [ 8.6761474, 49.4078525 ] } },
{ "type": "Feature", "properties": { "index": "152", "@osmId": "node/309414417", "name": "Betriebshof", "opening_hours": null, "label": "Kerbs with tactile paving", "color": "#9e9ac8" }, "geometry": { "type": "Point", "coordinates": [ 8.6756934, 49.4079294 ] } },
{ "type": "Feature", "properties": { "index": "153", "@osmId": "node/317569189", "name": "Stadtwerke", "opening_hours": null, "label": "Kerbs with tactile paving", "color": "#9e9ac8" }, "geometry": { "type": "Point", "coordinates": [ 8.6822752, 49.4050333 ] } },
{ "type": "Feature", "properties": { "index": "154", "@osmId": "node/6583738119", "name": null, "opening_hours": null, "label": "Kerbs with tactile paving", "color": "#9e9ac8" }, "geometry": { "type": "Point", "coordinates": [ 8.6833717, 49.4143054 ] } },
{ "type": "Feature", "properties": { "index": "155", "@osmId": "node/6583784898", "name": null, "opening_hours": null, "label": "Kerbs with tactile paving", "color": "#9e9ac8" }, "geometry": { "type": "Point", "coordinates": [ 8.6921791, 49.4152046 ] } },
{ "type": "Feature", "properties": { "index": "156", "@osmId": "node/6583784899", "name": null, "opening_hours": null, "label": "Kerbs with tactile paving", "color": "#9e9ac8" }, "geometry": { "type": "Point", "coordinates": [ 8.6920463, 49.4152057 ] } },
{ "type": "Feature", "properties": { "index": "157", "@osmId": "node/8638695089", "name": null, "opening_hours": null, "label": "Kerbs with tactile paving", "color": "#9e9ac8" }, "geometry": { "type": "Point", "coordinates": [ 8.6868071, 49.4173242 ] } },
{ "type": "Feature", "properties": { "index": "158", "@osmId": "node/8638695090", "name": null, "opening_hours": null, "label": "Kerbs with tactile paving", "color": "#9e9ac8" }, "geometry": { "type": "Point", "coordinates": [ 8.6868068, 49.4173974 ] } },
{ "type": "Feature", "properties": { "index": "159", "@osmId": "node/13067700576", "name": null, "opening_hours": null, "label": "Kerbs with tactile paving", "color": "#9e9ac8" }, "geometry": { "type": "Point", "coordinates": [ 8.694219, 49.4077134 ] } }
]
}
