{
"type": "FeatureCollection",
"features": [
{ "type": "Feature", "properties": { "index": "0", "label": "Within 300 m on foot", "color": "#2b8cbe" }, "geometry": { "type": "MultiPolygon", "coordinates": [ [ [ [ 8.6694246, 49.3982728 ], [ 8.6694064, 49.3980083 ], [ 8.6694069, 49.3980021 ], [ 8.6805727, 49.3980035 ], [ 8.680599, 49.3980139 ], [ 8.6809239, 49.3981725 ], [ 8.6812234, 49.3983512 ], [ 8.6814946, 49.3985482 ], [ 8.6817349, 49.3987615 ], [ 8.681942, 49.3989892 ], [ 8.682114, 49.3992291 ], [ 8.6822491, 49.3994788 ], [ 8.6822511, 49.3994841 ], [ 8.6822625, 49.3995053 ], [ 8.6823162, 49.399522 ], [ 8.6826634, 49.3996591 ], [ 8.6829883, 49.3998178 ], [ 8.6832878, 49.3999964 ], [ 8.683559, 49.4001934 ], [ 8.6837994, 49.4004068 ], [ 8.6840065, 49.4006345 ], [ 8.6841785, 49.4008743 ], [ 8.6843136, 49.4011241 ], [ 8.6843212, 49.4011443 ], [ 8.6843953, 49.4011805 ], [ 8.6846948, 49.4013591 ], [ 8.6849661, 49.4015561 ], [ 8.6852064, 49.4017694 ], [ 8.6853712, 49.4019506 ], [ 8.6855442, 49.4020762 ], [ 8.6857845, 49.4022895 ], [ 8.6859917, 49.4025172 ], [ 8.6861637, 49.4027571 ], [ 8.6862461, 49.4029094 ], [ 8.6865591, 49.4030622 ], [ 8.6868586, 49.4032409 ], [ 8.687049, 49.4033791 ], [ 8.6871002, 49.4033876 ], [ 8.6873135, 49.403438 ], [ 8.6875261, 49.4034454 ], [ 8.6879272, 49.4034854 ], [ 8.6883204, 49.4035508 ], [ 8.688702, 49.403641 ], [ 8.6890681, 49.4037552 ], [ 8.6894153, 49.4038923 ], [ 8.6896325, 49.4039983 ], [ 8.6898946, 49.4039906 ], [ 8.6902998, 49.4040047 ], [ 8.690701, 49.4040447 ], [ 8.6910942, 49.4041101 ], [ 8.6914757, 49.4042003 ], [ 8.6918419, 49.4043145 ], [ 8.6919773, 49.404368 ], [ 8.6922326, 49.4043768 ], [ 8.6926338, 49.4044167 ], [ 8.693027, 49.4044821 ], [ 8.6934085, 49.4045724 ], [ 8.6937747, 49.4046866 ], [ 8.6938609, 49.4047206 ], [ 8.6938753, 49.404722 ], [ 8.6942686, 49.4047874 ], [ 8.6946501, 49.4048776 ], [ 8.694772, 49.4049157 ], [ 8.6948595, 49.4049187 ], [ 8.6952607, 49.4049586 ], [ 8.6956539, 49.405024 ], [ 8.6960354, 49.4051142 ], [ 8.6964016, 49.4052284 ], [ 8.6967488, 49.4053655 ], [ 8.6970738, 49.4055241 ], [ 8.6973734, 49.4057027 ], [ 8.6976447, 49.4058996 ], [ 8.6978851, 49.406113 ], [ 8.6980924, 49.4063406 ], [ 8.6982644, 49.4065805 ], [ 8.6983996, 49.4068302 ], [ 8.6984966, 49.4070873 ], [ 8.6985546, 49.4073494 ], [ 8.6985729, 49.407614 ], [ 8.6985513, 49.4078784 ], [ 8.6984902, 49.4081402 ], [ 8.69839, 49.4083968 ], [ 8.6982518, 49.4086458 ], [ 8.6980768, 49.4088847 ], [ 8.6978667, 49.4091113 ], [ 8.6976237, 49.4093234 ], [ 8.6975409, 49.4093825 ], [ 8.6974709, 49.4094436 ], [ 8.6974477, 49.4094602 ], [ 8.6975654, 49.4094491 ], [ 8.6979709, 49.4094371 ], [ 8.6983761, 49.4094512 ], [ 8.6987773, 49.4094911 ], [ 8.6991706, 49.4095565 ], [ 8.6993401, 49.4095965 ], [ 8.6996968, 49.4096089 ], [ 8.700098, 49.4096488 ], [ 8.7004913, 49.4097142 ], [ 8.700596, 49.4097389 ], [ 8.7006402, 49.4097463 ], [ 8.7010217, 49.4098365 ], [ 8.7011228, 49.409868 ], [ 8.701016, 49.4096708 ], [ 8.700919, 49.4094136 ], [ 8.700861, 49.4091515 ], [ 8.7008427, 49.408887 ], [ 8.7008642, 49.4086225 ], [ 8.7009254, 49.4083607 ], [ 8.7010255, 49.4081041 ], [ 8.7011638, 49.4078551 ], [ 8.7013387, 49.4076162 ], [ 8.7015488, 49.4073896 ], [ 8.7017918, 49.4071775 ], [ 8.7020655, 49.406982 ], [ 8.7023673, 49.4068049 ], [ 8.7026942, 49.406648 ], [ 8.7030431, 49.4065128 ], [ 8.7034106, 49.4064005 ], [ 8.7037933, 49.4063123 ], [ 8.7041873, 49.4062489 ], [ 8.704589, 49.4062111 ], [ 8.7049944, 49.4061991 ], [ 8.7053996, 49.4062132 ], [ 8.7058008, 49.406253 ], [ 8.7061941, 49.4063184 ], [ 8.7065756, 49.4064086 ], [ 8.7069418, 49.4065227 ], [ 8.7072891, 49.4066598 ], [ 8.7076141, 49.4068183 ], [ 8.7079138, 49.4069969 ], [ 8.7081851, 49.4071938 ], [ 8.7084256, 49.4074071 ], [ 8.7086329, 49.4076348 ], [ 8.708805, 49.4078746 ], [ 8.7089402, 49.4081243 ], [ 8.7090373, 49.4083814 ], [ 8.7090953, 49.4086435 ], [ 8.7091137, 49.4089081 ], [ 8.7090922, 49.4091725 ], [ 8.7090311, 49.4094343 ], [ 8.708931, 49.409691 ], [ 8.7087928, 49.4099399 ], [ 8.7086178, 49.4101789 ], [ 8.7084079, 49.4104055 ], [ 8.7081648, 49.4106176 ], [ 8.7078911, 49.4108131 ], [ 8.7077019, 49.4109241 ], [ 8.7077661, 49.4109441 ], [ 8.7081134, 49.4110811 ], [ 8.7084384, 49.4112397 ], [ 8.7084496, 49.4112464 ], [ 8.7086051, 49.4111861 ], [ 8.7089727, 49.4110738 ], [ 8.7093554, 49.4109855 ], [ 8.7097494, 49.4109222 ], [ 8.7101511, 49.4108843 ], [ 8.7105566, 49.4108723 ], [ 8.7109619, 49.4108864 ], [ 8.7113631, 49.4109262 ], [ 8.7117564, 49.4109915 ], [ 8.712138, 49.4110817 ], [ 8.7125042, 49.4111958 ], [ 8.7128516, 49.4113328 ], [ 8.7131766, 49.4114914 ], [ 8.7134763, 49.41167 ], [ 8.7137477, 49.4118669 ], [ 8.7139883, 49.4120802 ], [ 8.7141956, 49.4123078 ], [ 8.7143677, 49.4125476 ], [ 8.714503, 49.4127973 ], [ 8.7146002, 49.4130544 ], [ 8.7146582, 49.4133165 ], [ 8.7146766, 49.4135811 ], [ 8.7146551, 49.4138455 ], [ 8.7145941, 49.4141073 ], [ 8.7144939, 49.414364 ], [ 8.7143558, 49.414613 ], [ 8.7141808, 49.4148519 ], [ 8.7139708, 49.4150785 ], [ 8.7137278, 49.4152906 ], [ 8.7134541, 49.4154862 ], [ 8.7131523, 49.4156633 ], [ 8.7128254, 49.4158202 ], [ 8.7124764, 49.4159555 ], [ 8.7121089, 49.4160678 ], [ 8.7117262, 49.4161561 ], [ 8.711332, 49.4162194 ], [ 8.7109303, 49.4162573 ], [ 8.7105248, 49.4162693 ], [ 8.7101195, 49.4162552 ], [ 8.7097182, 49.4162154 ], [ 8.7093249, 49.41615 ], [ 8.7089432, 49.4160599 ], [ 8.708577, 49.4159457 ], [ 8.7082296, 49.4158087 ], [ 8.7079045, 49.4156501 ], [ 8.7078934, 49.4156435 ], [ 8.7077378, 49.4157038 ], [ 8.7073702, 49.4158161 ], [ 8.7069875, 49.4159043 ], [ 8.7065934, 49.4159677 ], [ 8.7061917, 49.4160055 ], [ 8.7057862, 49.4160175 ], [ 8.7053808, 49.4160034 ], [ 8.7049796, 49.4159635 ], [ 8.7045862, 49.4158982 ], [ 8.7042046, 49.415808 ], [ 8.7038384, 49.4156938 ], [ 8.703491, 49.4155568 ], [ 8.703166, 49.4153982 ], [ 8.7031418, 49.4153838 ], [ 8.702884, 49.4154253 ], [ 8.7024822, 49.4154631 ], [ 8.7020768, 49.4154751 ], [ 8.7016714, 49.415461 ], [ 8.7012702, 49.4154211 ], [ 8.7008768, 49.4153558 ], [ 8.7008086, 49.4153396 ], [ 8.7005117, 49.4153101 ], [ 8.7004734, 49.4153038 ], [ 8.7003614, 49.4152926 ], [ 8.6999681, 49.4152273 ], [ 8.6995865, 49.415137 ], [ 8.6994925, 49.4151077 ], [ 8.6993155, 49.415113 ], [ 8.6989102, 49.4150989 ], [ 8.6985089, 49.415059 ], [ 8.6981156, 49.4149936 ], [ 8.697734, 49.4149034 ], [ 8.6974355, 49.4148104 ], [ 8.6971312, 49.4147801 ], [ 8.6967378, 49.4147147 ], [ 8.6963562, 49.4146245 ], [ 8.6961957, 49.4145744 ], [ 8.6962389, 49.4146889 ], [ 8.6962968, 49.414951 ], [ 8.6963151, 49.4152155 ], [ 8.6962936, 49.41548 ], [ 8.6962781, 49.415546 ], [ 8.6962845, 49.4156389 ], [ 8.696263, 49.4159034 ], [ 8.6962018, 49.4161652 ], [ 8.6961016, 49.4164218 ], [ 8.6959633, 49.4166708 ], [ 8.6957883, 49.4169097 ], [ 8.6955782, 49.4171363 ], [ 8.6953351, 49.4173483 ], [ 8.6950613, 49.4175438 ], [ 8.6947594, 49.4177209 ], [ 8.6945935, 49.4178005 ], [ 8.694685, 49.4179694 ], [ 8.694782, 49.4182265 ], [ 8.6948399, 49.4184886 ], [ 8.6948582, 49.4187532 ], [ 8.6948367, 49.4190176 ], [ 8.6947755, 49.4192794 ], [ 8.6946752, 49.419536 ], [ 8.6945369, 49.419785 ], [ 8.6943619, 49.4200239 ], [ 8.6941518, 49.4202505 ], [ 8.6939087, 49.4204626 ], [ 8.6936348, 49.4206581 ], [ 8.6933329, 49.4208351 ], [ 8.6932159, 49.4208913 ], [ 8.6932393, 49.4209534 ], [ 8.6932973, 49.4212155 ], [ 8.6933155, 49.42148 ], [ 8.693294, 49.4217445 ], [ 8.6932333, 49.4220038 ], [ 8.6849078, 49.4220038 ], [ 8.6849034, 49.4219839 ], [ 8.6848851, 49.4217193 ], [ 8.6849068, 49.4214549 ], [ 8.684968, 49.4211931 ], [ 8.6850683, 49.4209365 ], [ 8.6852066, 49.4206875 ], [ 8.6852563, 49.4206198 ], [ 8.6853639, 49.420426 ], [ 8.685539, 49.4201871 ], [ 8.6857151, 49.4199973 ], [ 8.6855896, 49.4199764 ], [ 8.685208, 49.4198861 ], [ 8.6848418, 49.4197719 ], [ 8.6846393, 49.419692 ], [ 8.6846092, 49.4197037 ], [ 8.6842416, 49.4198159 ], [ 8.6838588, 49.419904 ], [ 8.6834646, 49.4199673 ], [ 8.6830628, 49.4200051 ], [ 8.6826573, 49.4200169 ], [ 8.6822519, 49.4200028 ], [ 8.6818507, 49.4199629 ], [ 8.6814573, 49.4198975 ], [ 8.6810757, 49.4198072 ], [ 8.6807095, 49.419693 ], [ 8.6803622, 49.4195558 ], [ 8.6800372, 49.4193972 ], [ 8.6797376, 49.4192185 ], [ 8.6795722, 49.4190984 ], [ 8.6794929, 49.4191449 ], [ 8.6791658, 49.4193018 ], [ 8.6788167, 49.4194369 ], [ 8.6784491, 49.4195492 ], [ 8.6780663, 49.4196373 ], [ 8.6776721, 49.4197005 ], [ 8.6772703, 49.4197383 ], [ 8.6771814, 49.4197409 ], [ 8.6771633, 49.4197426 ], [ 8.6767578, 49.4197544 ], [ 8.6763524, 49.4197403 ], [ 8.6760281, 49.419708 ], [ 8.675832, 49.4197395 ], [ 8.6754302, 49.4197772 ], [ 8.6750247, 49.419789 ], [ 8.6746193, 49.4197749 ], [ 8.6742181, 49.4197349 ], [ 8.6738247, 49.4196695 ], [ 8.6734431, 49.4195792 ], [ 8.6730769, 49.4194649 ], [ 8.6727297, 49.4193278 ], [ 8.6724047, 49.4191691 ], [ 8.6721051, 49.4189904 ], [ 8.6718338, 49.4187934 ], [ 8.6715934, 49.4185801 ], [ 8.6713862, 49.4183523 ], [ 8.6712143, 49.4181124 ], [ 8.6710792, 49.4178627 ], [ 8.6709823, 49.4176056 ], [ 8.6709245, 49.4173435 ], [ 8.6709063, 49.4170789 ], [ 8.6709071, 49.4170698 ], [ 8.6709066, 49.4170632 ], [ 8.6709283, 49.4167988 ], [ 8.6709896, 49.416537 ], [ 8.67109, 49.4162804 ], [ 8.6712284, 49.4160314 ], [ 8.6714035, 49.4157926 ], [ 8.6716137, 49.415566 ], [ 8.6718569, 49.415354 ], [ 8.6721308, 49.4151586 ], [ 8.6724327, 49.4149816 ], [ 8.6727598, 49.4148247 ], [ 8.6731088, 49.4146896 ], [ 8.6734765, 49.4145774 ], [ 8.6738592, 49.4144893 ], [ 8.6742534, 49.414426 ], [ 8.6746551, 49.4143883 ], [ 8.6750606, 49.4143765 ], [ 8.6752563, 49.4143833 ], [ 8.6752709, 49.4143788 ], [ 8.6756537, 49.4142907 ], [ 8.6760478, 49.4142274 ], [ 8.6760858, 49.4142239 ], [ 8.6760891, 49.4142233 ], [ 8.6764908, 49.4141856 ], [ 8.6768963, 49.4141738 ], [ 8.6769288, 49.4141749 ], [ 8.6771174, 49.4140104 ], [ 8.6773913, 49.413815 ], [ 8.6776932, 49.413638 ], [ 8.6780202, 49.4134811 ], [ 8.6783692, 49.413346 ], [ 8.6787369, 49.4132338 ], [ 8.6791196, 49.4131456 ], [ 8.6795137, 49.4130824 ], [ 8.6797021, 49.4130647 ], [ 8.6797324, 49.4130233 ], [ 8.6799425, 49.4127968 ], [ 8.6801857, 49.4125847 ], [ 8.6804595, 49.4123893 ], [ 8.6807614, 49.4122123 ], [ 8.6810884, 49.4120554 ], [ 8.6814374, 49.4119202 ], [ 8.6818051, 49.411808 ], [ 8.6821878, 49.4117199 ], [ 8.6825819, 49.4116566 ], [ 8.6829836, 49.4116188 ], [ 8.6833891, 49.411607 ], [ 8.6837943, 49.4116211 ], [ 8.6841956, 49.411661 ], [ 8.6845888, 49.4117264 ], [ 8.6849704, 49.4118167 ], [ 8.6853366, 49.4119309 ], [ 8.6856838, 49.412068 ], [ 8.6860088, 49.4122266 ], [ 8.6863084, 49.4124053 ], [ 8.6865797, 49.4126022 ], [ 8.6868201, 49.4128156 ], [ 8.6870274, 49.4130433 ], [ 8.6871994, 49.4132831 ], [ 8.6873345, 49.4135329 ], [ 8.6874315, 49.41379 ], [ 8.6874894, 49.4140521 ], [ 8.6875076, 49.4143167 ], [ 8.687486, 49.4145811 ], [ 8.6874668, 49.4146635 ], [ 8.6876308, 49.4146798 ], [ 8.687977, 49.4147373 ], [ 8.6879931, 49.4146684 ], [ 8.6880933, 49.4144118 ], [ 8.6882317, 49.4141628 ], [ 8.6884067, 49.4139239 ], [ 8.6886168, 49.4136973 ], [ 8.6888599, 49.4134853 ], [ 8.6891338, 49.4132898 ], [ 8.6894356, 49.4131128 ], [ 8.6897626, 49.4129559 ], [ 8.6901116, 49.4128207 ], [ 8.6904792, 49.4127084 ], [ 8.6908619, 49.4126202 ], [ 8.691256, 49.4125569 ], [ 8.6916577, 49.4125192 ], [ 8.6920632, 49.4125072 ], [ 8.6921069, 49.4125088 ], [ 8.692196, 49.4125061 ], [ 8.6926013, 49.4125202 ], [ 8.6930025, 49.4125601 ], [ 8.6933958, 49.4126255 ], [ 8.6937774, 49.4127158 ], [ 8.6939379, 49.4127658 ], [ 8.6938947, 49.4126514 ], [ 8.6938368, 49.4123893 ], [ 8.6938185, 49.4121247 ], [ 8.6938401, 49.4118603 ], [ 8.6939013, 49.4115985 ], [ 8.6940015, 49.4113419 ], [ 8.6941398, 49.4110929 ], [ 8.6943148, 49.410854 ], [ 8.6945248, 49.4106274 ], [ 8.6947679, 49.4104153 ], [ 8.6947911, 49.4103988 ], [ 8.6946734, 49.4104098 ], [ 8.6942679, 49.4104218 ], [ 8.6938627, 49.4104077 ], [ 8.6934614, 49.4103678 ], [ 8.6934111, 49.4103594 ], [ 8.6933957, 49.4103579 ], [ 8.6930025, 49.4102925 ], [ 8.6926586, 49.4102112 ], [ 8.6925396, 49.4102147 ], [ 8.6921344, 49.4102006 ], [ 8.6917332, 49.4101607 ], [ 8.6913399, 49.4100953 ], [ 8.6909583, 49.410005 ], [ 8.6905921, 49.4098908 ], [ 8.6902449, 49.4097538 ], [ 8.6899199, 49.4095951 ], [ 8.6898654, 49.4095626 ], [ 8.6896116, 49.4095701 ], [ 8.6892063, 49.409556 ], [ 8.6888051, 49.409516 ], [ 8.6884118, 49.4094506 ], [ 8.6880303, 49.4093604 ], [ 8.6876641, 49.4092462 ], [ 8.6873169, 49.4091091 ], [ 8.6871211, 49.4090135 ], [ 8.6868412, 49.4090218 ], [ 8.686436, 49.4090077 ], [ 8.6860348, 49.4089677 ], [ 8.6856415, 49.4089023 ], [ 8.68526, 49.408812 ], [ 8.6852391, 49.4088055 ], [ 8.6849515, 49.4087769 ], [ 8.6845583, 49.4087115 ], [ 8.6844723, 49.4086912 ], [ 8.6841617, 49.4086804 ], [ 8.6837606, 49.4086404 ], [ 8.6833673, 49.408575 ], [ 8.6829858, 49.4084847 ], [ 8.6826196, 49.4083705 ], [ 8.6822724, 49.4082334 ], [ 8.6819475, 49.4080747 ], [ 8.6816479, 49.4078961 ], [ 8.6813766, 49.4076991 ], [ 8.6813763, 49.4076988 ], [ 8.6813226, 49.4076969 ], [ 8.6809872, 49.4076635 ], [ 8.6809956, 49.4077858 ], [ 8.680974, 49.4080502 ], [ 8.6809127, 49.408312 ], [ 8.6808124, 49.4085686 ], [ 8.6806741, 49.4088176 ], [ 8.680499, 49.4090565 ], [ 8.6802889, 49.409283 ], [ 8.6800458, 49.4094951 ], [ 8.6797719, 49.4096905 ], [ 8.6794701, 49.4098675 ], [ 8.6791431, 49.4100244 ], [ 8.6787941, 49.4101596 ], [ 8.6784265, 49.4102718 ], [ 8.6780438, 49.4103599 ], [ 8.6778236, 49.4103952 ], [ 8.6777729, 49.4104069 ], [ 8.6775789, 49.410438 ], [ 8.6772343, 49.4105174 ], [ 8.6768402, 49.4105807 ], [ 8.6764385, 49.4106184 ], [ 8.676033, 49.4106302 ], [ 8.6758326, 49.4106233 ], [ 8.6756756, 49.4106278 ], [ 8.6752703, 49.4106137 ], [ 8.6748691, 49.4105737 ], [ 8.6744759, 49.4105083 ], [ 8.6740944, 49.410418 ], [ 8.6737282, 49.4103037 ], [ 8.673381, 49.4101666 ], [ 8.6730982, 49.4100285 ], [ 8.6728719, 49.4101612 ], [ 8.6725449, 49.410318 ], [ 8.6721959, 49.4104532 ], [ 8.6718282, 49.4105653 ], [ 8.6714455, 49.4106535 ], [ 8.6710514, 49.4107167 ], [ 8.6706497, 49.4107544 ], [ 8.6702442, 49.4107662 ], [ 8.669839, 49.4107521 ], [ 8.6694378, 49.4107121 ], [ 8.6690445, 49.4106466 ], [ 8.668663, 49.4105563 ], [ 8.6682969, 49.410442 ], [ 8.6679497, 49.4103049 ], [ 8.6676247, 49.4101462 ], [ 8.6673252, 49.4099675 ], [ 8.667054, 49.4097705 ], [ 8.6668137, 49.4095571 ], [ 8.6666066, 49.4093294 ], [ 8.6664347, 49.4090895 ], [ 8.6662997, 49.4088398 ], [ 8.6662028, 49.4085826 ], [ 8.666145, 49.4083205 ], [ 8.6661269, 49.4080559 ], [ 8.6661274, 49.4080503 ], [ 8.6661218, 49.4079696 ], [ 8.6659676, 49.4079542 ], [ 8.6655744, 49.4078887 ], [ 8.6651929, 49.4077984 ], [ 8.6648268, 49.4076841 ], [ 8.6644796, 49.4075469 ], [ 8.6641547, 49.4073882 ], [ 8.6638976, 49.4072348 ], [ 8.6637099, 49.4072921 ], [ 8.6633272, 49.4073802 ], [ 8.6629331, 49.4074434 ], [ 8.6625314, 49.407481 ], [ 8.662126, 49.4074928 ], [ 8.6617207, 49.4074787 ], [ 8.6613196, 49.4074386 ], [ 8.6609264, 49.4073731 ], [ 8.6608377, 49.4073521 ], [ 8.6608022, 49.4073462 ], [ 8.6604208, 49.4072559 ], [ 8.6600547, 49.4071416 ], [ 8.66, 49.40712 ], [ 8.66, 49.4023049 ], [ 8.6600509, 49.4022852 ], [ 8.6604185, 49.402173 ], [ 8.6608011, 49.4020849 ], [ 8.6608558, 49.4020762 ], [ 8.6610879, 49.4020227 ], [ 8.661482, 49.4019595 ], [ 8.6618836, 49.4019219 ], [ 8.662289, 49.4019101 ], [ 8.6626942, 49.4019242 ], [ 8.6629755, 49.4019523 ], [ 8.6630077, 49.4019293 ], [ 8.6631243, 49.401861 ], [ 8.6631636, 49.4018329 ], [ 8.6634655, 49.401656 ], [ 8.6637925, 49.4014992 ], [ 8.6641415, 49.401364 ], [ 8.6645091, 49.4012519 ], [ 8.6648917, 49.4011638 ], [ 8.6652858, 49.4011006 ], [ 8.6656874, 49.4010629 ], [ 8.6659372, 49.4010556 ], [ 8.6659886, 49.4010357 ], [ 8.6663562, 49.4009235 ], [ 8.6667388, 49.4008354 ], [ 8.6667744, 49.4008297 ], [ 8.6669356, 49.4007673 ], [ 8.6673032, 49.4006551 ], [ 8.6676858, 49.400567 ], [ 8.6680798, 49.4005038 ], [ 8.6684815, 49.4004661 ], [ 8.6688868, 49.4004542 ], [ 8.668982, 49.4004576 ], [ 8.6690352, 49.4004453 ], [ 8.6694293, 49.4003821 ], [ 8.6698309, 49.4003444 ], [ 8.6702363, 49.4003325 ], [ 8.6702369, 49.4003326 ], [ 8.6702389, 49.4003312 ], [ 8.6705407, 49.4001542 ], [ 8.6707343, 49.4000614 ], [ 8.6707101, 49.4000469 ], [ 8.6704389, 49.3998499 ], [ 8.6701986, 49.3996365 ], [ 8.6699915, 49.3994088 ], [ 8.6699537, 49.399356 ], [ 8.6698861, 49.3992817 ], [ 8.6697142, 49.3990418 ], [ 8.6695792, 49.3987921 ], [ 8.6694824, 49.3985349 ], [ 8.6694246, 49.3982728 ] ] ], [ [ [ 8.6686234, 49.412332 ], [ 8.6689483, 49.4124907 ], [ 8.6692479, 49.4126694 ], [ 8.6695191, 49.4128664 ], [ 8.6697595, 49.4130798 ], [ 8.6699666, 49.4133075 ], [ 8.6701385, 49.4135474 ], [ 8.6702736, 49.4137971 ], [ 8.6703705, 49.4140543 ], [ 8.6704283, 49.4143164 ], [ 8.6704464, 49.414581 ], [ 8.6704248, 49.4148454 ], [ 8.6703635, 49.4151072 ], [ 8.6702631, 49.4153638 ], [ 8.6701247, 49.4156127 ], [ 8.6699496, 49.4158516 ], [ 8.6697394, 49.4160781 ], [ 8.6694961, 49.4162902 ], [ 8.6692222, 49.4164856 ], [ 8.6689203, 49.4166626 ], [ 8.6685932, 49.4168194 ], [ 8.6682441, 49.4169545 ], [ 8.6679358, 49.4170486 ], [ 8.667819, 49.4171046 ], [ 8.6674699, 49.4172397 ], [ 8.6671022, 49.4173519 ], [ 8.6667194, 49.41744 ], [ 8.6663252, 49.4175032 ], [ 8.6659235, 49.4175409 ], [ 8.665518, 49.4175527 ], [ 8.6651126, 49.4175386 ], [ 8.6647114, 49.4174986 ], [ 8.6643181, 49.4174331 ], [ 8.6639365, 49.4173427 ], [ 8.6635704, 49.4172285 ], [ 8.6632231, 49.4170913 ], [ 8.6628982, 49.4169326 ], [ 8.6625986, 49.4167539 ], [ 8.6623274, 49.4165569 ], [ 8.6620871, 49.4163435 ], [ 8.66188, 49.4161157 ], [ 8.6617081, 49.4158758 ], [ 8.661573, 49.4156261 ], [ 8.6614762, 49.4153689 ], [ 8.6614184, 49.4151068 ], [ 8.6614003, 49.4148423 ], [ 8.6614221, 49.4145778 ], [ 8.6614834, 49.4143161 ], [ 8.6615838, 49.4140595 ], [ 8.6617223, 49.4138105 ], [ 8.6618974, 49.4135717 ], [ 8.6621077, 49.4133451 ], [ 8.6623509, 49.4131331 ], [ 8.6626248, 49.4129377 ], [ 8.6629268, 49.4127608 ], [ 8.6632538, 49.412604 ], [ 8.6636029, 49.4124688 ], [ 8.6639111, 49.4123748 ], [ 8.664028, 49.4123188 ], [ 8.6643771, 49.4121836 ], [ 8.6647447, 49.4120715 ], [ 8.6651275, 49.4119834 ], [ 8.6655216, 49.4119202 ], [ 8.6659233, 49.4118825 ], [ 8.6663288, 49.4118707 ], [ 8.6667341, 49.4118848 ], [ 8.6671353, 49.4119248 ], [ 8.6675285, 49.4119903 ], [ 8.6679101, 49.4120806 ], [ 8.6682762, 49.4121949 ], [ 8.6686234, 49.412332 ] ] ], [ [ [ 8.6845803, 49.3983658 ], [ 8.6847186, 49.3981168 ], [ 8.6848014, 49.3980038 ], [ 8.6936583, 49.3980038 ], [ 8.69367, 49.3981726 ], [ 8.6936484, 49.3984371 ], [ 8.6935873, 49.3986989 ], [ 8.6934871, 49.3989555 ], [ 8.6933488, 49.3992044 ], [ 8.6931738, 49.3994434 ], [ 8.6929638, 49.39967 ], [ 8.692911, 49.3997161 ], [ 8.6928296, 49.3999244 ], [ 8.6926914, 49.4001734 ], [ 8.6925164, 49.4004123 ], [ 8.6923064, 49.4006389 ], [ 8.6920633, 49.4008509 ], [ 8.6917896, 49.4010464 ], [ 8.6914878, 49.4012235 ], [ 8.6911609, 49.4013803 ], [ 8.690812, 49.4015156 ], [ 8.6904445, 49.4016278 ], [ 8.6902431, 49.4016742 ], [ 8.690178, 49.4016941 ], [ 8.6897954, 49.4017823 ], [ 8.6894013, 49.4018456 ], [ 8.6889997, 49.4018834 ], [ 8.6885943, 49.4018953 ], [ 8.6881891, 49.4018812 ], [ 8.687788, 49.4018412 ], [ 8.6873948, 49.4017758 ], [ 8.6870133, 49.4016856 ], [ 8.6866472, 49.4015714 ], [ 8.6863, 49.4014343 ], [ 8.6862399, 49.4014049 ], [ 8.6862205, 49.4013973 ], [ 8.6858956, 49.4012386 ], [ 8.6855961, 49.40106 ], [ 8.6853248, 49.400863 ], [ 8.6850845, 49.4006497 ], [ 8.6848773, 49.400422 ], [ 8.6847054, 49.4001821 ], [ 8.6845703, 49.3999324 ], [ 8.6844733, 49.3996752 ], [ 8.6844155, 49.3994131 ], [ 8.6843972, 49.3991486 ], [ 8.6844188, 49.3988841 ], [ 8.6844801, 49.3986224 ], [ 8.6845803, 49.3983658 ] ] ] ] } },
{ "type": "Feature", "properties": { "index": "1", "label": "Beyond 300 m", "color": "#d9d9d9" }, "geometry": { "type": "MultiPolygon", "coordinates": [ [ [ [ 8.6849034, 49.4219839 ], [ 8.6849076, 49.422003 ], [ 8.66, 49.422 ], [ 8.66, 49.40712 ], [ 8.6600547, 49.4071416 ], [ 8.6604208, 49.4072559 ], [ 8.6608022, 49.4073462 ], [ 8.6608377, 49.4073521 ], [ 8.6609264, 49.4073731 ], [ 8.6613196, 49.4074386 ], [ 8.6617207, 49.4074787 ], [ 8.662126, 49.4074928 ], [ 8.6625314, 49.407481 ], [ 8.6629331, 49.4074434 ], [ 8.6633272, 49.4073802 ], [ 8.6637099, 49.4072921 ], [ 8.6638976, 49.4072348 ], [ 8.6641547, 49.4073882 ], [ 8.6644796, 49.4075469 ], [ 8.6648268, 49.4076841 ], [ 8.6651929, 49.4077984 ], [ 8.6655744, 49.4078887 ], [ 8.6659676, 49.4079542 ], [ 8.6661218, 49.4079696 ], [ 8.6661274, 49.4080503 ], [ 8.6661269, 49.4080559 ], [ 8.666145, 49.4083205 ], [ 8.6662028, 49.4085826 ], [ 8.6662997, 49.4088398 ], [ 8.6664347, 49.4090895 ], [ 8.6666066, 49.4093294 ], [ 8.6668137, 49.4095571 ], [ 8.667054, 49.4097705 ], [ 8.6673252, 49.4099675 ], [ 8.6676247, 49.4101462 ], [ 8.6679497, 49.4103049 ], [ 8.6682969, 49.410442 ], [ 8.668663, 49.4105563 ], [ 8.6690445, 49.4106466 ], [ 8.6694378, 49.4107121 ], [ 8.669839, 49.4107521 ], [ 8.6702442, 49.4107662 ], [ 8.6706497, 49.4107544 ], [ 8.6710514, 49.4107167 ], [ 8.6714455, 49.4106535 ], [ 8.6718282, 49.4105653 ], [ 8.6721959, 49.4104532 ], [ 8.6725449, 49.410318 ], [ 8.6728719, 49.4101612 ], [ 8.6730982, 49.4100285 ], [ 8.673381, 49.4101666 ], [ 8.6737282, 49.4103037 ], [ 8.6740944, 49.410418 ], [ 8.6744759, 49.4105083 ], [ 8.6748691, 49.4105737 ], [ 8.6752703, 49.4106137 ], [ 8.6756756, 49.4106278 ], [ 8.6758326, 49.4106233 ], [ 8.676033, 49.4106302 ], [ 8.6764385, 49.4106184 ], [ 8.6768402, 49.4105807 ], [ 8.6772343, 49.4105174 ], [ 8.6775789, 49.410438 ], [ 8.6777729, 49.4104069 ], [ 8.6778236, 49.4103952 ], [ 8.6780438, 49.4103599 ], [ 8.6784265, 49.4102718 ], [ 8.6787941, 49.4101596 ], [ 8.6791431, 49.4100244 ], [ 8.6794701, 49.4098675 ], [ 8.6797719, 49.4096905 ], [ 8.6800458, 49.4094951 ], [ 8.6802889, 49.409283 ], [ 8.680499, 49.4090565 ], [ 8.6806741, 49.4088176 ], [ 8.6808124, 49.4085686 ], [ 8.6809127, 49.408312 ], [ 8.680974, 49.4080502 ], [ 8.6809956, 49.4077858 ], [ 8.6809872, 49.4076635 ], [ 8.6813226, 49.4076969 ], [ 8.6813763, 49.4076988 ], [ 8.6813766, 49.4076991 ], [ 8.6816479, 49.4078961 ], [ 8.6819475, 49.4080747 ], [ 8.6822724, 49.4082334 ], [ 8.6826196, 49.4083705 ], [ 8.6829858, 49.4084847 ], [ 8.6833673, 49.408575 ], [ 8.6837606, 49.4086404 ], [ 8.6841617, 49.4086804 ], [ 8.6844723, 49.4086912 ], [ 8.6845583, 49.4087115 ], [ 8.6849515, 49.4087769 ], [ 8.6852391, 49.4088055 ], [ 8.68526, 49.408812 ], [ 8.6856415, 49.4089023 ], [ 8.6860348, 49.4089677 ], [ 8.686436, 49.4090077 ], [ 8.6868412, 49.4090218 ], [ 8.6871211, 49.4090135 ], [ 8.6873169, 49.4091091 ], [ 8.6876641, 49.4092462 ], [ 8.6880303, 49.4093604 ], [ 8.6884118, 49.4094506 ], [ 8.6888051, 49.409516 ], [ 8.6892063, 49.409556 ], [ 8.6896116, 49.4095701 ], [ 8.6898654, 49.4095626 ], [ 8.6899199, 49.4095951 ], [ 8.6902449, 49.4097538 ], [ 8.6905921, 49.4098908 ], [ 8.6909583, 49.410005 ], [ 8.6913399, 49.4100953 ], [ 8.6917332, 49.4101607 ], [ 8.6921344, 49.4102006 ], [ 8.6925396, 49.4102147 ], [ 8.6926586, 49.4102112 ], [ 8.6930025, 49.4102925 ], [ 8.6933957, 49.4103579 ], [ 8.6934111, 49.4103594 ], [ 8.6934614, 49.4103678 ], [ 8.6938627, 49.4104077 ], [ 8.6942679, 49.4104218 ], [ 8.6946734, 49.4104098 ], [ 8.6947911, 49.4103988 ], [ 8.6947679, 49.4104153 ], [ 8.6945248, 49.4106274 ], [ 8.6943148, 49.410854 ], [ 8.6941398, 49.4110929 ], [ 8.6940015, 49.4113419 ], [ 8.6939013, 49.4115985 ], [ 8.6938401, 49.4118603 ], [ 8.6938185, 49.4121247 ], [ 8.6938368, 49.4123893 ], [ 8.6938947, 49.4126514 ], [ 8.6939379, 49.4127658 ], [ 8.6937774, 49.4127158 ], [ 8.6933958, 49.4126255 ], [ 8.6930025, 49.4125601 ], [ 8.6926013, 49.4125202 ], [ 8.692196, 49.4125061 ], [ 8.6921069, 49.4125088 ], [ 8.6920632, 49.4125072 ], [ 8.6916577, 49.4125192 ], [ 8.691256, 49.4125569 ], [ 8.6908619, 49.4126202 ], [ 8.6904792, 49.4127084 ], [ 8.6901116, 49.4128207 ], [ 8.6897626, 49.4129559 ], [ 8.6894356, 49.4131128 ], [ 8.6891338, 49.4132898 ], [ 8.6888599, 49.4134853 ], [ 8.6886168, 49.4136973 ], [ 8.6884067, 49.4139239 ], [ 8.6882317, 49.4141628 ], [ 8.6880933, 49.4144118 ], [ 8.6879931, 49.4146684 ], [ 8.687977, 49.4147373 ], [ 8.6876308, 49.4146798 ], [ 8.6874668, 49.4146635 ], [ 8.687486, 49.4145811 ], [ 8.6875076, 49.4143167 ], [ 8.6874894, 49.4140521 ], [ 8.6874315, 49.41379 ], [ 8.6873345, 49.4135329 ], [ 8.6871994, 49.4132831 ], [ 8.6870274, 49.4130433 ], [ 8.6868201, 49.4128156 ], [ 8.6865797, 49.4126022 ], [ 8.6863084, 49.4124053 ], [ 8.6860088, 49.4122266 ], [ 8.6856838, 49.412068 ], [ 8.6853366, 49.4119309 ], [ 8.6849704, 49.4118167 ], [ 8.6845888, 49.4117264 ], [ 8.6841956, 49.411661 ], [ 8.6837943, 49.4116211 ], [ 8.6833891, 49.411607 ], [ 8.6829836, 49.4116188 ], [ 8.6825819, 49.4116566 ], [ 8.6821878, 49.4117199 ], [ 8.6818051, 49.411808 ], [ 8.6814374, 49.4119202 ], [ 8.6810884, 49.4120554 ], [ 8.6807614, 49.4122123 ], [ 8.6804595, 49.4123893 ], [ 8.6801857, 49.4125847 ], [ 8.6799425, 49.4127968 ], [ 8.6797324, 49.4130233 ], [ 8.6797021, 49.4130647 ], [ 8.6795137, 49.4130824 ], [ 8.6791196, 49.4131456 ], [ 8.6787369, 49.4132338 ], [ 8.6783692, 49.413346 ], [ 8.6780202, 49.4134811 ], [ 8.6776932, 49.413638 ], [ 8.6773913, 49.413815 ], [ 8.6771174, 49.4140104 ], [ 8.6769288, 49.4141749 ], [ 8.6768963, 49.4141738 ], [ 8.6764908, 49.4141856 ], [ 8.6760891, 49.4142233 ], [ 8.6760858, 49.4142239 ], [ 8.6760478, 49.4142274 ], [ 8.6756537, 49.4142907 ], [ 8.6752709, 49.4143788 ], [ 8.6752563, 49.4143833 ], [ 8.6750606, 49.4143765 ], [ 8.6746551, 49.4143883 ], [ 8.6742534, 49.414426 ], [ 8.6738592, 49.4144893 ], [ 8.6734765, 49.4145774 ], [ 8.6731088, 49.4146896 ], [ 8.6727598, 49.4148247 ], [ 8.6724327, 49.4149816 ], [ 8.6721308, 49.4151586 ], [ 8.6718569, 49.415354 ], [ 8.6716137, 49.415566 ], [ 8.6714035, 49.4157926 ], [ 8.6712284, 49.4160314 ], [ 8.67109, 49.4162804 ], [ 8.6709896, 49.416537 ], [ 8.6709283, 49.4167988 ], [ 8.6709066, 49.4170632 ], [ 8.6709071, 49.4170698 ], [ 8.6709063, 49.4170789 ], [ 8.6709245, 49.4173435 ], [ 8.6709823, 49.4176056 ], [ 8.6710792, 49.4178627 ], [ 8.6712143, 49.4181124 ], [ 8.6713862, 49.4183523 ], [ 8.6715934, 49.4185801 ], [ 8.6718338, 49.4187934 ], [ 8.6721051, 49.4189904 ], [ 8.6724047, 49.4191691 ], [ 8.6727297, 49.4193278 ], [ 8.6730769, 49.4194649 ], [ 8.6734431, 49.4195792 ], [ 8.6738247, 49.4196695 ], [ 8.6742181, 49.4197349 ], [ 8.6746193, 49.4197749 ], [ 8.6750247, 49.419789 ], [ 8.6754302, 49.4197772 ], [ 8.675832, 49.4197395 ], [ 8.6760281, 49.419708 ], [ 8.6763524, 49.4197403 ], [ 8.6767578, 49.4197544 ], [ 8.6771633, 49.4197426 ], [ 8.6771814, 49.4197409 ], [ 8.6772703, 49.4197383 ], [ 8.6776721, 49.4197005 ], [ 8.6780663, 49.4196373 ], [ 8.6784491, 49.4195492 ], [ 8.6788167, 49.4194369 ], [ 8.6791658, 49.4193018 ], [ 8.6794929, 49.4191449 ], [ 8.6795722, 49.4190984 ], [ 8.6797376, 49.4192185 ], [ 8.6800372, 49.4193972 ], [ 8.6803622, 49.4195558 ], [ 8.6807095, 49.419693 ], [ 8.6810757, 49.4198072 ], [ 8.6814573, 49.4198975 ], [ 8.6818507, 49.4199629 ], [ 8.6822519, 49.4200028 ], [ 8.6826573, 49.4200169 ], [ 8.6830628, 49.4200051 ], [ 8.6834646, 49.4199673 ], [ 8.6838588, 49.419904 ], [ 8.6842416, 49.4198159 ], [ 8.6846092, 49.4197037 ], [ 8.6846393, 49.419692 ], [ 8.6848418, 49.4197719 ], [ 8.685208, 49.4198861 ], [ 8.6855896, 49.4199764 ], [ 8.6857151, 49.4199973 ], [ 8.685539, 49.4201871 ], [ 8.6853639, 49.420426 ], [ 8.6852563, 49.4206198 ], [ 8.6852066, 49.4206875 ], [ 8.6850683, 49.4209365 ], [ 8.684968, 49.4211931 ], [ 8.6849068, 49.4214549 ], [ 8.6848851, 49.4217193 ], [ 8.6849034, 49.4219839 ] ], [ [ 8.6699666, 49.4133075 ], [ 8.6697595, 49.4130798 ], [ 8.6695191, 49.4128664 ], [ 8.6692479, 49.4126694 ], [ 8.6689483, 49.4124907 ], [ 8.6686234, 49.412332 ], [ 8.6682762, 49.4121949 ], [ 8.6679101, 49.4120806 ], [ 8.6675285, 49.4119903 ], [ 8.6671353, 49.4119248 ], [ 8.6667341, 49.4118848 ], [ 8.6663288, 49.4118707 ], [ 8.6659233, 49.4118825 ], [ 8.6655216, 49.4119202 ], [ 8.6651275, 49.4119834 ], [ 8.6647447, 49.4120715 ], [ 8.6643771, 49.4121836 ], [ 8.664028, 49.4123188 ], [ 8.6639111, 49.4123748 ], [ 8.6636029, 49.4124688 ], [ 8.6632538, 49.412604 ], [ 8.6629268, 49.4127608 ], [ 8.6626248, 49.4129377 ], [ 8.6623509, 49.4131331 ], [ 8.6621077, 49.4133451 ], [ 8.6618974, 49.4135717 ], [ 8.6617223, 49.4138105 ], [ 8.6615838, 49.4140595 ], [ 8.6614834, 49.4143161 ], [ 8.6614221, 49.4145778 ], [ 8.6614003, 49.4148423 ], [ 8.6614184, 49.4151068 ], [ 8.6614762, 49.4153689 ], [ 8.661573, 49.4156261 ], [ 8.6617081, 49.4158758 ], [ 8.66188, 49.4161157 ], [ 8.6620871, 49.4163435 ], [ 8.6623274, 49.4165569 ], [ 8.6625986, 49.4167539 ], [ 8.6628982, 49.4169326 ], [ 8.6632231, 49.4170913 ], [ 8.6635704, 49.4172285 ], [ 8.6639365, 49.4173427 ], [ 8.6643181, 49.4174331 ], [ 8.6647114, 49.4174986 ], [ 8.6651126, 49.4175386 ], [ 8.665518, 49.4175527 ], [ 8.6659235, 49.4175409 ], [ 8.6663252, 49.4175032 ], [ 8.6667194, 49.41744 ], [ 8.6671022, 49.4173519 ], [ 8.6674699, 49.4172397 ], [ 8.667819, 49.4171046 ], [ 8.6679358, 49.4170486 ], [ 8.6682441, 49.4169545 ], [ 8.6685932, 49.4168194 ], [ 8.6689203, 49.4166626 ], [ 8.6692222, 49.4164856 ], [ 8.6694961, 49.4162902 ], [ 8.6697394, 49.4160781 ], [ 8.6699496, 49.4158516 ], [ 8.6701247, 49.4156127 ], [ 8.6702631, 49.4153638 ], [ 8.6703635, 49.4151072 ], [ 8.6704248, 49.4148454 ], [ 8.6704464, 49.414581 ], [ 8.6704283, 49.4143164 ], [ 8.6703705, 49.4140543 ], [ 8.6702736, 49.4137971 ], [ 8.6701385, 49.4135474 ], [ 8.6699666, 49.4133075 ] ] ], [ [ [ 8.6600509, 49.4022852 ], [ 8.66, 49.4023049 ], [ 8.66, 49.398 ], [ 8.6774637, 49.3980032 ], [ 8.6694069, 49.3980021 ], [ 8.6694064, 49.3980083 ], [ 8.6694246, 49.3982728 ], [ 8.6694824, 49.3985349 ], [ 8.6695792, 49.3987921 ], [ 8.6697142, 49.3990418 ], [ 8.6698861, 49.3992817 ], [ 8.6699537, 49.399356 ], [ 8.6699915, 49.3994088 ], [ 8.6701986, 49.3996365 ], [ 8.6704389, 49.3998499 ], [ 8.6707101, 49.4000469 ], [ 8.6707343, 49.4000614 ], [ 8.6705407, 49.4001542 ], [ 8.6702389, 49.4003312 ], [ 8.6702369, 49.4003326 ], [ 8.6702363, 49.4003325 ], [ 8.6698309, 49.4003444 ], [ 8.6694293, 49.4003821 ], [ 8.6690352, 49.4004453 ], [ 8.668982, 49.4004576 ], [ 8.6688868, 49.4004542 ], [ 8.6684815, 49.4004661 ], [ 8.6680798, 49.4005038 ], [ 8.6676858, 49.400567 ], [ 8.6673032, 49.4006551 ], [ 8.6669356, 49.4007673 ], [ 8.6667744, 49.4008297 ], [ 8.6667388, 49.4008354 ], [ 8.6663562, 49.4009235 ], [ 8.6659886, 49.4010357 ], [ 8.6659372, 49.4010556 ], [ 8.6656874, 49.4010629 ], [ 8.6652858, 49.4011006 ], [ 8.6648917, 49.4011638 ], [ 8.6645091, 49.4012519 ], [ 8.6641415, 49.401364 ], [ 8.6637925, 49.4014992 ], [ 8.6634655, 49.401656 ], [ 8.6631636, 49.4018329 ], [ 8.6631243, 49.401861 ], [ 8.6630077, 49.4019293 ], [ 8.6629755, 49.4019523 ], [ 8.6626942, 49.4019242 ], [ 8.662289, 49.4019101 ], [ 8.6618836, 49.4019219 ], [ 8.661482, 49.4019595 ], [ 8.6610879, 49.4020227 ], [ 8.6608558, 49.4020762 ], [ 8.6608011, 49.4020849 ], [ 8.6604185, 49.402173 ], [ 8.6600509, 49.4022852 ] ] ], [ [ [ 8.6936484, 49.3984371 ], [ 8.69367, 49.3981726 ], [ 8.6936583, 49.3980038 ], [ 8.72, 49.398 ], [ 8.72, 49.422 ], [ 8.6932333, 49.4220038 ], [ 8.693294, 49.4217445 ], [ 8.6933155, 49.42148 ], [ 8.6932973, 49.4212155 ], [ 8.6932393, 49.4209534 ], [ 8.6932159, 49.4208913 ], [ 8.6933329, 49.4208351 ], [ 8.6936348, 49.4206581 ], [ 8.6939087, 49.4204626 ], [ 8.6941518, 49.4202505 ], [ 8.6943619, 49.4200239 ], [ 8.6945369, 49.419785 ], [ 8.6946752, 49.419536 ], [ 8.6947755, 49.4192794 ], [ 8.6948367, 49.4190176 ], [ 8.6948582, 49.4187532 ], [ 8.6948399, 49.4184886 ], [ 8.694782, 49.4182265 ], [ 8.694685, 49.4179694 ], [ 8.6945935, 49.4178005 ], [ 8.6947594, 49.4177209 ], [ 8.6950613, 49.4175438 ], [ 8.6953351, 49.4173483 ], [ 8.6955782, 49.4171363 ], [ 8.6957883, 49.4169097 ], [ 8.6959633, 49.4166708 ], [ 8.6961016, 49.4164218 ], [ 8.6962018, 49.4161652 ], [ 8.696263, 49.4159034 ], [ 8.6962845, 49.4156389 ], [ 8.6962781, 49.415546 ], [ 8.6962936, 49.41548 ], [ 8.6963151, 49.4152155 ], [ 8.6962968, 49.414951 ], [ 8.6962389, 49.4146889 ], [ 8.6961957, 49.4145744 ], [ 8.6963562, 49.4146245 ], [ 8.6967378, 49.4147147 ], [ 8.6971312, 49.4147801 ], [ 8.6974355, 49.4148104 ], [ 8.697734, 49.4149034 ], [ 8.6981156, 49.4149936 ], [ 8.6985089, 49.415059 ], [ 8.6989102, 49.4150989 ], [ 8.6993155, 49.415113 ], [ 8.6994925, 49.4151077 ], [ 8.6995865, 49.415137 ], [ 8.6999681, 49.4152273 ], [ 8.7003614, 49.4152926 ], [ 8.7004734, 49.4153038 ], [ 8.7005117, 49.4153101 ], [ 8.7008086, 49.4153396 ], [ 8.7008768, 49.4153558 ], [ 8.7012702, 49.4154211 ], [ 8.7016714, 49.415461 ], [ 8.7020768, 49.4154751 ], [ 8.7024822, 49.4154631 ], [ 8.702884, 49.4154253 ], [ 8.7031418, 49.4153838 ], [ 8.703166, 49.4153982 ], [ 8.703491, 49.4155568 ], [ 8.7038384, 49.4156938 ], [ 8.7042046, 49.415808 ], [ 8.7045862, 49.4158982 ], [ 8.7049796, 49.4159635 ], [ 8.7053808, 49.4160034 ], [ 8.7057862, 49.4160175 ], [ 8.7061917, 49.4160055 ], [ 8.7065934, 49.4159677 ], [ 8.7069875, 49.4159043 ], [ 8.7073702, 49.4158161 ], [ 8.7077378, 49.4157038 ], [ 8.7078934, 49.4156435 ], [ 8.7079045, 49.4156501 ], [ 8.7082296, 49.4158087 ], [ 8.708577, 49.4159457 ], [ 8.7089432, 49.4160599 ], [ 8.7093249, 49.41615 ], [ 8.7097182, 49.4162154 ], [ 8.7101195, 49.4162552 ], [ 8.7105248, 49.4162693 ], [ 8.7109303, 49.4162573 ], [ 8.711332, 49.4162194 ], [ 8.7117262, 49.4161561 ], [ 8.7121089, 49.4160678 ], [ 8.7124764, 49.4159555 ], [ 8.7128254, 49.4158202 ], [ 8.7131523, 49.4156633 ], [ 8.7134541, 49.4154862 ], [ 8.7137278, 49.4152906 ], [ 8.7139708, 49.4150785 ], [ 8.7141808, 49.4148519 ], [ 8.7143558, 49.414613 ], [ 8.7144939, 49.414364 ], [ 8.7145941, 49.4141073 ], [ 8.7146551, 49.4138455 ], [ 8.7146766, 49.4135811 ], [ 8.7146582, 49.4133165 ], [ 8.7146002, 49.4130544 ], [ 8.714503, 49.4127973 ], [ 8.7143677, 49.4125476 ], [ 8.7141956, 49.4123078 ], [ 8.7139883, 49.4120802 ], [ 8.7137477, 49.4118669 ], [ 8.7134763, 49.41167 ], [ 8.7131766, 49.4114914 ], [ 8.7128516, 49.4113328 ], [ 8.7125042, 49.4111958 ], [ 8.712138, 49.4110817 ], [ 8.7117564, 49.4109915 ], [ 8.7113631, 49.4109262 ], [ 8.7109619, 49.4108864 ], [ 8.7105566, 49.4108723 ], [ 8.7101511, 49.4108843 ], [ 8.7097494, 49.4109222 ], [ 8.7093554, 49.4109855 ], [ 8.7089727, 49.4110738 ], [ 8.7086051, 49.4111861 ], [ 8.7084496, 49.4112464 ], [ 8.7084384, 49.4112397 ], [ 8.7081134, 49.4110811 ], [ 8.7077661, 49.4109441 ], [ 8.7077019, 49.4109241 ], [ 8.7078911, 49.4108131 ], [ 8.7081648, 49.4106176 ], [ 8.7084079, 49.4104055 ], [ 8.7086178, 49.4101789 ], [ 8.7087928, 49.4099399 ], [ 8.708931, 49.409691 ], [ 8.7090311, 49.4094343 ], [ 8.7090922, 49.4091725 ], [ 8.7091137, 49.4089081 ], [ 8.7090953, 49.4086435 ], [ 8.7090373, 49.4083814 ], [ 8.7089402, 49.4081243 ], [ 8.708805, 49.4078746 ], [ 8.7086329, 49.4076348 ], [ 8.7084256, 49.4074071 ], [ 8.7081851, 49.4071938 ], [ 8.7079138, 49.4069969 ], [ 8.7076141, 49.4068183 ], [ 8.7072891, 49.4066598 ], [ 8.7069418, 49.4065227 ], [ 8.7065756, 49.4064086 ], [ 8.7061941, 49.4063184 ], [ 8.7058008, 49.406253 ], [ 8.7053996, 49.4062132 ], [ 8.7049944, 49.4061991 ], [ 8.704589, 49.4062111 ], [ 8.7041873, 49.4062489 ], [ 8.7037933, 49.4063123 ], [ 8.7034106, 49.4064005 ], [ 8.7030431, 49.4065128 ], [ 8.7026942, 49.406648 ], [ 8.7023673, 49.4068049 ], [ 8.7020655, 49.406982 ], [ 8.7017918, 49.4071775 ], [ 8.7015488, 49.4073896 ], [ 8.7013387, 49.4076162 ], [ 8.7011638, 49.4078551 ], [ 8.7010255, 49.4081041 ], [ 8.7009254, 49.4083607 ], [ 8.7008642, 49.4086225 ], [ 8.7008427, 49.408887 ], [ 8.700861, 49.4091515 ], [ 8.700919, 49.4094136 ], [ 8.701016, 49.4096708 ], [ 8.7011228, 49.409868 ], [ 8.7010217, 49.4098365 ], [ 8.7006402, 49.4097463 ], [ 8.700596, 49.4097389 ], [ 8.7004913, 49.4097142 ], [ 8.700098, 49.4096488 ], [ 8.6996968, 49.4096089 ], [ 8.6993401, 49.4095965 ], [ 8.6991706, 49.4095565 ], [ 8.6987773, 49.4094911 ], [ 8.6983761, 49.4094512 ], [ 8.6979709, 49.4094371 ], [ 8.6975654, 49.4094491 ], [ 8.6974477, 49.4094602 ], [ 8.6974709, 49.4094436 ], [ 8.6975409, 49.4093825 ], [ 8.6976237, 49.4093234 ], [ 8.6978667, 49.4091113 ], [ 8.6980768, 49.4088847 ], [ 8.6982518, 49.4086458 ], [ 8.69839, 49.4083968 ], [ 8.6984902, 49.4081402 ], [ 8.6985513, 49.4078784 ], [ 8.6985729, 49.407614 ], [ 8.6985546, 49.4073494 ], [ 8.6984966, 49.4070873 ], [ 8.6983996, 49.4068302 ], [ 8.6982644, 49.4065805 ], [ 8.6980924, 49.4063406 ], [ 8.6978851, 49.406113 ], [ 8.6976447, 49.4058996 ], [ 8.6973734, 49.4057027 ], [ 8.6970738, 49.4055241 ], [ 8.6967488, 49.4053655 ], [ 8.6964016, 49.4052284 ], [ 8.6960354, 49.4051142 ], [ 8.6956539, 49.405024 ], [ 8.6952607, 49.4049586 ], [ 8.6948595, 49.4049187 ], [ 8.694772, 49.4049157 ], [ 8.6946501, 49.4048776 ], [ 8.6942686, 49.4047874 ], [ 8.6938753, 49.404722 ], [ 8.6938609, 49.4047206 ], [ 8.6937747, 49.4046866 ], [ 8.6934085, 49.4045724 ], [ 8.693027, 49.4044821 ], [ 8.6926338, 49.4044167 ], [ 8.6922326, 49.4043768 ], [ 8.6919773, 49.404368 ], [ 8.6918419, 49.4043145 ], [ 8.6914757, 49.4042003 ], [ 8.6910942, 49.4041101 ], [ 8.690701, 49.4040447 ], [ 8.6902998, 49.4040047 ], [ 8.6898946, 49.4039906 ], [ 8.6896325, 49.4039983 ], [ 8.6894153, 49.4038923 ], [ 8.6890681, 49.4037552 ], [ 8.688702, 49.403641 ], [ 8.6883204, 49.4035508 ], [ 8.6879272, 49.4034854 ], [ 8.6875261, 49.4034454 ], [ 8.6873135, 49.403438 ], [ 8.6871002, 49.4033876 ], [ 8.687049, 49.4033791 ], [ 8.6868586, 49.4032409 ], [ 8.6865591, 49.4030622 ], [ 8.6862461, 49.4029094 ], [ 8.6861637, 49.4027571 ], [ 8.6859917, 49.4025172 ], [ 8.6857845, 49.4022895 ], [ 8.6855442, 49.4020762 ], [ 8.6853712, 49.4019506 ], [ 8.6852064, 49.4017694 ], [ 8.6849661, 49.4015561 ], [ 8.6846948, 49.4013591 ], [ 8.6843953, 49.4011805 ], [ 8.6843212, 49.4011443 ], [ 8.6843136, 49.4011241 ], [ 8.6841785, 49.4008743 ], [ 8.6840065, 49.4006345 ], [ 8.6837994, 49.4004068 ], [ 8.683559, 49.4001934 ], [ 8.6832878, 49.3999964 ], [ 8.6829883, 49.3998178 ], [ 8.6826634, 49.3996591 ], [ 8.6823162, 49.399522 ], [ 8.6822625, 49.3995053 ], [ 8.6822511, 49.3994841 ], [ 8.6822491, 49.3994788 ], [ 8.682114, 49.3992291 ], [ 8.681942, 49.3989892 ], [ 8.6817349, 49.3987615 ], [ 8.6814946, 49.3985482 ], [ 8.6812234, 49.3983512 ], [ 8.6809239, 49.3981725 ], [ 8.680599, 49.3980139 ], [ 8.6805727, 49.3980035 ], [ 8.6873893, 49.3980039 ], [ 8.6848014, 49.3980038 ], [ 8.6847186, 49.3981168 ], [ 8.6845803, 49.3983658 ], [ 8.6844801, 49.3986224 ], [ 8.6844188, 49.3988841 ], [ 8.6843972, 49.3991486 ], [ 8.6844155, 49.3994131 ], [ 8.6844733, 49.3996752 ], [ 8.6845703, 49.3999324 ], [ 8.6847054, 49.4001821 ], [ 8.6848773, 49.400422 ], [ 8.6850845, 49.4006497 ], [ 8.6853248, 49.400863 ], [ 8.6855961, 49.40106 ], [ 8.6858956, 49.4012386 ], [ 8.6862205, 49.4013973 ], [ 8.6862399, 49.4014049 ], [ 8.6863, 49.4014343 ], [ 8.6866472, 49.4015714 ], [ 8.6870133, 49.4016856 ], [ 8.6873948, 49.4017758 ], [ 8.687788, 49.4018412 ], [ 8.6881891, 49.4018812 ], [ 8.6885943, 49.4018953 ], [ 8.6889997, 49.4018834 ], [ 8.6894013, 49.4018456 ], [ 8.6897954, 49.4017823 ], [ 8.690178, 49.4016941 ], [ 8.6902431, 49.4016742 ], [ 8.6904445, 49.4016278 ], [ 8.690812, 49.4015156 ], [ 8.6911609, 49.4013803 ], [ 8.6914878, 49.4012235 ], [ 8.6917896, 49.4010464 ], [ 8.6920633, 49.4008509 ], [ 8.6923064, 49.4006389 ], [ 8.6925164, 49.4004123 ], [ 8.6926914, 49.4001734 ], [ 8.6928296, 49.3999244 ], [ 8.692911, 49.3997161 ], [ 8.6929638, 49.39967 ], [ 8.6931738, 49.3994434 ], [ 8.6933488, 49.3992044 ], [ 8.6934871, 49.3989555 ], [ 8.6935873, 49.3986989 ], [ 8.6936484, 49.3984371 ] ] ], [ [ [ 8.6849078, 49.4220038 ], [ 8.6849076, 49.422003 ], [ 8.6921246, 49.4220039 ], [ 8.6849078, 49.4220038 ] ] ] ] } }
]
}
