{
"type": "FeatureCollection",
"features": [
{ "type": "Feature", "properties": { "index": "0", "last_edit_year": 2025, "years_since_edit": 1, "label": "1.0–4.0 yr", "color": "#78c679" }, "geometry": { "type": "Point", "coordinates": [ 8.6817453, 49.4050126 ] } },
{ "type": "Feature", "properties": { "index": "1", "last_edit_year": 2026, "years_since_edit": 0, "label": "0.0–1.0 yr", "color": "#ffc" }, "geometry": { "type": "Point", "coordinates": [ 8.6864236, 49.4061297 ] } },
{ "type": "Feature", "properties": { "index": "2", "last_edit_year": 2026, "years_since_edit": 0, "label": "0.0–1.0 yr", "color": "#ffc" }, "geometry": { "type": "Point", "coordinates": [ 8.6863472, 49.4061849 ] } },
{ "type": "Feature", "properties": { "index": "3", "last_edit_year": 2025, "years_since_edit": 1, "label": "1.0–4.0 yr", "color": "#78c679" }, "geometry": { "type": "Point", "coordinates": [ 8.6918105, 49.4070612 ] } },
{ "type": "Feature", "properties": { "index": "4", "last_edit_year": 2025, "years_since_edit": 1, "label": "1.0–4.0 yr", "color": "#78c679" }, "geometry": { "type": "Point", "coordinates": [ 8.6920417, 49.4156241 ] } },
{ "type": "Feature", "properties": { "index": "5", "last_edit_year": 2025, "years_since_edit": 1, "label": "1.0–4.0 yr", "color": "#78c679" }, "geometry": { "type": "Point", "coordinates": [ 8.6921485, 49.415628 ] } },
{ "type": "Feature", "properties": { "index": "6", "last_edit_year": 2025, "years_since_edit": 1, "label": "1.0–4.0 yr", "color": "#78c679" }, "geometry": { "type": "Point", "coordinates": [ 8.6760508, 49.4079318 ] } },
{ "type": "Feature", "properties": { "index": "7", "last_edit_year": 2026, "years_since_edit": 0, "label": "0.0–1.0 yr", "color": "#ffc" }, "geometry": { "type": "Point", "coordinates": [ 8.6760574, 49.4078508 ] } },
{ "type": "Feature", "properties": { "index": "8", "last_edit_year": 2025, "years_since_edit": 1, "label": "1.0–4.0 yr", "color": "#78c679" }, "geometry": { "type": "Point", "coordinates": [ 8.6905987, 49.4187445 ] } },
{ "type": "Feature", "properties": { "index": "9", "last_edit_year": 2025, "years_since_edit": 1, "label": "1.0–4.0 yr", "color": "#78c679" }, "geometry": { "type": "Point", "coordinates": [ 8.6907219, 49.4187422 ] } },
{ "type": "Feature", "properties": { "index": "10", "last_edit_year": 2026, "years_since_edit": 0, "label": "0.0–1.0 yr", "color": "#ffc" }, "geometry": { "type": "Point", "coordinates": [ 8.6890217, 49.4217305 ] } },
{ "type": "Feature", "properties": { "index": "11", "last_edit_year": 2026, "years_since_edit": 0, "label": "0.0–1.0 yr", "color": "#ffc" }, "geometry": { "type": "Point", "coordinates": [ 8.6890963, 49.4217391 ] } },
{ "type": "Feature", "properties": { "index": "12", "last_edit_year": 2023, "years_since_edit": 3, "label": "1.0–4.0 yr", "color": "#78c679" }, "geometry": { "type": "Point", "coordinates": [ 8.6768786, 49.4168722 ] } },
{ "type": "Feature", "properties": { "index": "13", "last_edit_year": 2023, "years_since_edit": 3, "label": "1.0–4.0 yr", "color": "#78c679" }, "geometry": { "type": "Point", "coordinates": [ 8.6768825, 49.4170517 ] } },
{ "type": "Feature", "properties": { "index": "14", "last_edit_year": 2025, "years_since_edit": 1, "label": "1.0–4.0 yr", "color": "#78c679" }, "geometry": { "type": "Point", "coordinates": [ 8.6761517, 49.404868 ] } },
{ "type": "Feature", "properties": { "index": "15", "last_edit_year": 2025, "years_since_edit": 1, "label": "1.0–4.0 yr", "color": "#78c679" }, "geometry": { "type": "Point", "coordinates": [ 8.6761052, 49.4047675 ] } },
{ "type": "Feature", "properties": { "index": "16", "last_edit_year": 2025, "years_since_edit": 1, "label": "1.0–4.0 yr", "color": "#78c679" }, "geometry": { "type": "Point", "coordinates": [ 8.6761388, 49.4048447 ] } },
{ "type": "Feature", "properties": { "index": "17", "last_edit_year": 2026, "years_since_edit": 0, "label": "0.0–1.0 yr", "color": "#ffc" }, "geometry": { "type": "Point", "coordinates": [ 8.6720893, 49.4030509 ] } },
{ "type": "Feature", "properties": { "index": "18", "last_edit_year": 2025, "years_since_edit": 1, "label": "1.0–4.0 yr", "color": "#78c679" }, "geometry": { "type": "Point", "coordinates": [ 8.7013347, 49.4126656 ] } },
{ "type": "Feature", "properties": { "index": "19", "last_edit_year": 2025, "years_since_edit": 1, "label": "1.0–4.0 yr", "color": "#78c679" }, "geometry": { "type": "Point", "coordinates": [ 8.7020931, 49.4127766 ] } },
{ "type": "Feature", "properties": { "index": "20", "last_edit_year": 2023, "years_since_edit": 3, "label": "1.0–4.0 yr", "color": "#78c679" }, "geometry": { "type": "Point", "coordinates": [ 8.6694347, 49.4051539 ] } },
{ "type": "Feature", "properties": { "index": "21", "last_edit_year": 2021, "years_since_edit": 5, "label": "4.0–5.0 yr", "color": "#006837" }, "geometry": { "type": "Point", "coordinates": [ 8.6845843, 49.405996 ] } },
{ "type": "Feature", "properties": { "index": "22", "last_edit_year": 2024, "years_since_edit": 2, "label": "1.0–4.0 yr", "color": "#78c679" }, "geometry": { "type": "Point", "coordinates": [ 8.6839225, 49.405141 ] } },
{ "type": "Feature", "properties": { "index": "23", "last_edit_year": 2024, "years_since_edit": 2, "label": "1.0–4.0 yr", "color": "#78c679" }, "geometry": { "type": "Point", "coordinates": [ 8.6750428, 49.4170749 ] } },
{ "type": "Feature", "properties": { "index": "24", "last_edit_year": 2023, "years_since_edit": 3, "label": "1.0–4.0 yr", "color": "#78c679" }, "geometry": { "type": "Point", "coordinates": [ 8.6768373, 49.4168763 ] } },
{ "type": "Feature", "properties": { "index": "25", "last_edit_year": 2025, "years_since_edit": 1, "label": "1.0–4.0 yr", "color": "#78c679" }, "geometry": { "type": "Point", "coordinates": [ 8.6767755, 49.417056 ] } },
{ "type": "Feature", "properties": { "index": "26", "last_edit_year": 2025, "years_since_edit": 1, "label": "1.0–4.0 yr", "color": "#78c679" }, "geometry": { "type": "Point", "coordinates": [ 8.6655363, 49.4148543 ] } },
{ "type": "Feature", "properties": { "index": "27", "last_edit_year": 2025, "years_since_edit": 1, "label": "1.0–4.0 yr", "color": "#78c679" }, "geometry": { "type": "Point", "coordinates": [ 8.6663105, 49.4145691 ] } },
{ "type": "Feature", "properties": { "index": "28", "last_edit_year": 2026, "years_since_edit": 0, "label": "0.0–1.0 yr", "color": "#ffc" }, "geometry": { "type": "Point", "coordinates": [ 8.675735, 49.4051351 ] } },
{ "type": "Feature", "properties": { "index": "29", "last_edit_year": 2025, "years_since_edit": 1, "label": "1.0–4.0 yr", "color": "#78c679" }, "geometry": { "type": "Point", "coordinates": [ 8.6896286, 49.4068716 ] } },
{ "type": "Feature", "properties": { "index": "30", "last_edit_year": 2026, "years_since_edit": 0, "label": "0.0–1.0 yr", "color": "#ffc" }, "geometry": { "type": "Point", "coordinates": [ 8.6857752, 49.4061325 ] } },
{ "type": "Feature", "properties": { "index": "31", "last_edit_year": 2024, "years_since_edit": 2, "label": "1.0–4.0 yr", "color": "#78c679" }, "geometry": { "type": "Point", "coordinates": [ 8.6768602, 49.4077743 ] } },
{ "type": "Feature", "properties": { "index": "32", "last_edit_year": 2025, "years_since_edit": 1, "label": "1.0–4.0 yr", "color": "#78c679" }, "geometry": { "type": "Point", "coordinates": [ 8.6761474, 49.4078525 ] } },
{ "type": "Feature", "properties": { "index": "33", "last_edit_year": 2025, "years_since_edit": 1, "label": "1.0–4.0 yr", "color": "#78c679" }, "geometry": { "type": "Point", "coordinates": [ 8.6756934, 49.4079294 ] } },
{ "type": "Feature", "properties": { "index": "34", "last_edit_year": 2025, "years_since_edit": 1, "label": "1.0–4.0 yr", "color": "#78c679" }, "geometry": { "type": "Point", "coordinates": [ 8.6822752, 49.4050333 ] } },
{ "type": "Feature", "properties": { "index": "35", "last_edit_year": 2025, "years_since_edit": 1, "label": "1.0–4.0 yr", "color": "#78c679" }, "geometry": { "type": "Point", "coordinates": [ 8.6944375, 49.4076031 ] } },
{ "type": "Feature", "properties": { "index": "36", "last_edit_year": 2025, "years_since_edit": 1, "label": "1.0–4.0 yr", "color": "#78c679" }, "geometry": { "type": "Point", "coordinates": [ 8.7105407, 49.4135708 ] } },
{ "type": "Feature", "properties": { "index": "37", "last_edit_year": 2021, "years_since_edit": 5, "label": "4.0–5.0 yr", "color": "#006837" }, "geometry": { "type": "Point", "coordinates": [ 8.699332, 49.4124145 ] } },
{ "type": "Feature", "properties": { "index": "38", "last_edit_year": 2022, "years_since_edit": 4, "label": "4.0–5.0 yr", "color": "#006837" }, "geometry": { "type": "Point", "coordinates": [ 8.6775496, 49.4041568 ] } },
{ "type": "Feature", "properties": { "index": "39", "last_edit_year": 2024, "years_since_edit": 2, "label": "1.0–4.0 yr", "color": "#78c679" }, "geometry": { "type": "Point", "coordinates": [ 8.6770147, 49.4049678 ] } },
{ "type": "Feature", "properties": { "index": "40", "last_edit_year": 2021, "years_since_edit": 5, "label": "4.0–5.0 yr", "color": "#006837" }, "geometry": { "type": "Point", "coordinates": [ 8.6868063, 49.4173651 ] } },
{ "type": "Feature", "properties": { "index": "41", "last_edit_year": 2025, "years_since_edit": 1, "label": "1.0–4.0 yr", "color": "#78c679" }, "geometry": { "type": "Point", "coordinates": [ 8.7058023, 49.413319 ] } },
{ "type": "Feature", "properties": { "index": "42", "last_edit_year": 2022, "years_since_edit": 4, "label": "4.0–5.0 yr", "color": "#006837" }, "geometry": { "type": "Point", "coordinates": [ 8.6923883, 49.4073107 ] } },
{ "type": "Feature", "properties": { "index": "43", "last_edit_year": 2024, "years_since_edit": 2, "label": "1.0–4.0 yr", "color": "#78c679" }, "geometry": { "type": "Point", "coordinates": [ 8.6748319, 49.4049462 ] } },
{ "type": "Feature", "properties": { "index": "44", "last_edit_year": 2024, "years_since_edit": 2, "label": "1.0–4.0 yr", "color": "#78c679" }, "geometry": { "type": "Point", "coordinates": [ 8.6888779, 49.3991305 ] } },
{ "type": "Feature", "properties": { "index": "45", "last_edit_year": 2024, "years_since_edit": 2, "label": "1.0–4.0 yr", "color": "#78c679" }, "geometry": { "type": "Point", "coordinates": [ 8.6979543, 49.4121356 ] } },
{ "type": "Feature", "properties": { "index": "46", "last_edit_year": 2021, "years_since_edit": 5, "label": "4.0–5.0 yr", "color": "#006837" }, "geometry": { "type": "Point", "coordinates": [ 8.6812922, 49.4047927 ] } },
{ "type": "Feature", "properties": { "index": "47", "last_edit_year": 2021, "years_since_edit": 5, "label": "4.0–5.0 yr", "color": "#006837" }, "geometry": { "type": "Point", "coordinates": [ 8.681245, 49.4049037 ] } },
{ "type": "Feature", "properties": { "index": "48", "last_edit_year": 2022, "years_since_edit": 4, "label": "4.0–5.0 yr", "color": "#006837" }, "geometry": { "type": "Point", "coordinates": [ 8.6765894, 49.4078213 ] } },
{ "type": "Feature", "properties": { "index": "49", "last_edit_year": 2026, "years_since_edit": 0, "label": "0.0–1.0 yr", "color": "#ffc" }, "geometry": { "type": "Point", "coordinates": [ 8.6748666, 49.4017674 ] } },
{ "type": "Feature", "properties": { "index": "50", "last_edit_year": 2025, "years_since_edit": 1, "label": "1.0–4.0 yr", "color": "#78c679" }, "geometry": { "type": "Point", "coordinates": [ 8.7049782, 49.4088976 ] } },
{ "type": "Feature", "properties": { "index": "51", "last_edit_year": 2024, "years_since_edit": 2, "label": "1.0–4.0 yr", "color": "#78c679" }, "geometry": { "type": "Point", "coordinates": [ 8.674528, 49.405243 ] } },
{ "type": "Feature", "properties": { "index": "52", "last_edit_year": 2021, "years_since_edit": 5, "label": "4.0–5.0 yr", "color": "#006837" }, "geometry": { "type": "Point", "coordinates": [ 8.689179, 49.421469 ] } },
{ "type": "Feature", "properties": { "index": "53", "last_edit_year": 2026, "years_since_edit": 0, "label": "0.0–1.0 yr", "color": "#ffc" }, "geometry": { "type": "Point", "coordinates": [ 8.6736464, 49.3981471 ] } },
{ "type": "Feature", "properties": { "index": "54", "last_edit_year": 2026, "years_since_edit": 0, "label": "0.0–1.0 yr", "color": "#ffc" }, "geometry": { "type": "Point", "coordinates": [ 8.6777971, 49.4003989 ] } },
{ "type": "Feature", "properties": { "index": "55", "last_edit_year": 2022, "years_since_edit": 4, "label": "4.0–5.0 yr", "color": "#006837" }, "geometry": { "type": "Point", "coordinates": [ 8.6773126, 49.4001088 ] } },
{ "type": "Feature", "properties": { "index": "56", "last_edit_year": 2022, "years_since_edit": 4, "label": "4.0–5.0 yr", "color": "#006837" }, "geometry": { "type": "Point", "coordinates": [ 8.6771476, 49.4000292 ] } },
{ "type": "Feature", "properties": { "index": "57", "last_edit_year": 2022, "years_since_edit": 4, "label": "4.0–5.0 yr", "color": "#006837" }, "geometry": { "type": "Point", "coordinates": [ 8.6803517, 49.4018965 ] } },
{ "type": "Feature", "properties": { "index": "58", "last_edit_year": 2025, "years_since_edit": 1, "label": "1.0–4.0 yr", "color": "#78c679" }, "geometry": { "type": "Point", "coordinates": [ 8.6738686, 49.3980019 ] } },
{ "type": "Feature", "properties": { "index": "59", "last_edit_year": 2026, "years_since_edit": 0, "label": "0.0–1.0 yr", "color": "#ffc" }, "geometry": { "type": "Point", "coordinates": [ 8.6817587, 49.4032592 ] } },
{ "type": "Feature", "properties": { "index": "60", "last_edit_year": 2022, "years_since_edit": 4, "label": "4.0–5.0 yr", "color": "#006837" }, "geometry": { "type": "Point", "coordinates": [ 8.6776194, 49.3998968 ] } },
{ "type": "Feature", "properties": { "index": "61", "last_edit_year": 2022, "years_since_edit": 4, "label": "4.0–5.0 yr", "color": "#006837" }, "geometry": { "type": "Point", "coordinates": [ 8.6782873, 49.4002512 ] } },
{ "type": "Feature", "properties": { "index": "62", "last_edit_year": 2026, "years_since_edit": 0, "label": "0.0–1.0 yr", "color": "#ffc" }, "geometry": { "type": "Point", "coordinates": [ 8.680028, 49.4020936 ] } },
{ "type": "Feature", "properties": { "index": "63", "last_edit_year": 2026, "years_since_edit": 0, "label": "0.0–1.0 yr", "color": "#ffc" }, "geometry": { "type": "Point", "coordinates": [ 8.6795974, 49.4017604 ] } },
{ "type": "Feature", "properties": { "index": "64", "last_edit_year": 2025, "years_since_edit": 1, "label": "1.0–4.0 yr", "color": "#78c679" }, "geometry": { "type": "Point", "coordinates": [ 8.6993528, 49.4123588 ] } },
{ "type": "Feature", "properties": { "index": "65", "last_edit_year": 2021, "years_since_edit": 5, "label": "4.0–5.0 yr", "color": "#006837" }, "geometry": { "type": "Point", "coordinates": [ 8.699275, 49.4122933 ] } },
{ "type": "Feature", "properties": { "index": "66", "last_edit_year": 2021, "years_since_edit": 5, "label": "4.0–5.0 yr", "color": "#006837" }, "geometry": { "type": "Point", "coordinates": [ 8.6994239, 49.4123254 ] } },
{ "type": "Feature", "properties": { "index": "67", "last_edit_year": 2025, "years_since_edit": 1, "label": "1.0–4.0 yr", "color": "#78c679" }, "geometry": { "type": "Point", "coordinates": [ 8.681402, 49.4033734 ] } },
{ "type": "Feature", "properties": { "index": "68", "last_edit_year": 2025, "years_since_edit": 1, "label": "1.0–4.0 yr", "color": "#78c679" }, "geometry": { "type": "Point", "coordinates": [ 8.6898776, 49.4066891 ] } },
{ "type": "Feature", "properties": { "index": "69", "last_edit_year": 2025, "years_since_edit": 1, "label": "1.0–4.0 yr", "color": "#78c679" }, "geometry": { "type": "Point", "coordinates": [ 8.6898062, 49.4068434 ] } },
{ "type": "Feature", "properties": { "index": "70", "last_edit_year": 2025, "years_since_edit": 1, "label": "1.0–4.0 yr", "color": "#78c679" }, "geometry": { "type": "Point", "coordinates": [ 8.6930521, 49.4073665 ] } },
{ "type": "Feature", "properties": { "index": "71", "last_edit_year": 2025, "years_since_edit": 1, "label": "1.0–4.0 yr", "color": "#78c679" }, "geometry": { "type": "Point", "coordinates": [ 8.6930292, 49.4074207 ] } },
{ "type": "Feature", "properties": { "index": "72", "last_edit_year": 2026, "years_since_edit": 0, "label": "0.0–1.0 yr", "color": "#ffc" }, "geometry": { "type": "Point", "coordinates": [ 8.6925565, 49.4075162 ] } },
{ "type": "Feature", "properties": { "index": "73", "last_edit_year": 2023, "years_since_edit": 3, "label": "1.0–4.0 yr", "color": "#78c679" }, "geometry": { "type": "Point", "coordinates": [ 8.6886114, 49.3991968 ] } },
{ "type": "Feature", "properties": { "index": "74", "last_edit_year": 2026, "years_since_edit": 0, "label": "0.0–1.0 yr", "color": "#ffc" }, "geometry": { "type": "Point", "coordinates": [ 8.6803671, 49.4020257 ] } },
{ "type": "Feature", "properties": { "index": "75", "last_edit_year": 2026, "years_since_edit": 0, "label": "0.0–1.0 yr", "color": "#ffc" }, "geometry": { "type": "Point", "coordinates": [ 8.6801798, 49.4021236 ] } },
{ "type": "Feature", "properties": { "index": "76", "last_edit_year": 2021, "years_since_edit": 5, "label": "4.0–5.0 yr", "color": "#006837" }, "geometry": { "type": "Point", "coordinates": [ 8.6815373, 49.4031581 ] } },
{ "type": "Feature", "properties": { "index": "77", "last_edit_year": 2022, "years_since_edit": 4, "label": "4.0–5.0 yr", "color": "#006837" }, "geometry": { "type": "Point", "coordinates": [ 8.6813067, 49.4032272 ] } },
{ "type": "Feature", "properties": { "index": "78", "last_edit_year": 2021, "years_since_edit": 5, "label": "4.0–5.0 yr", "color": "#006837" }, "geometry": { "type": "Point", "coordinates": [ 8.6818523, 49.4034074 ] } },
{ "type": "Feature", "properties": { "index": "79", "last_edit_year": 2024, "years_since_edit": 2, "label": "1.0–4.0 yr", "color": "#78c679" }, "geometry": { "type": "Point", "coordinates": [ 8.6816065, 49.4034939 ] } },
{ "type": "Feature", "properties": { "index": "80", "last_edit_year": 2025, "years_since_edit": 1, "label": "1.0–4.0 yr", "color": "#78c679" }, "geometry": { "type": "Point", "coordinates": [ 8.6669086, 49.4051498 ] } },
{ "type": "Feature", "properties": { "index": "81", "last_edit_year": 2026, "years_since_edit": 0, "label": "0.0–1.0 yr", "color": "#ffc" }, "geometry": { "type": "Point", "coordinates": [ 8.6774106, 49.4044255 ] } },
{ "type": "Feature", "properties": { "index": "82", "last_edit_year": 2025, "years_since_edit": 1, "label": "1.0–4.0 yr", "color": "#78c679" }, "geometry": { "type": "Point", "coordinates": [ 8.6745733, 49.4017842 ] } },
{ "type": "Feature", "properties": { "index": "83", "last_edit_year": 2024, "years_since_edit": 2, "label": "1.0–4.0 yr", "color": "#78c679" }, "geometry": { "type": "Point", "coordinates": [ 8.6749651, 49.4053425 ] } },
{ "type": "Feature", "properties": { "index": "84", "last_edit_year": 2022, "years_since_edit": 4, "label": "4.0–5.0 yr", "color": "#006837" }, "geometry": { "type": "Point", "coordinates": [ 8.6823368, 49.4037793 ] } },
{ "type": "Feature", "properties": { "index": "85", "last_edit_year": 2026, "years_since_edit": 0, "label": "0.0–1.0 yr", "color": "#ffc" }, "geometry": { "type": "Point", "coordinates": [ 8.6773969, 49.3998987 ] } },
{ "type": "Feature", "properties": { "index": "86", "last_edit_year": 2026, "years_since_edit": 0, "label": "0.0–1.0 yr", "color": "#ffc" }, "geometry": { "type": "Point", "coordinates": [ 8.6772781, 49.3999799 ] } },
{ "type": "Feature", "properties": { "index": "87", "last_edit_year": 2021, "years_since_edit": 5, "label": "4.0–5.0 yr", "color": "#006837" }, "geometry": { "type": "Point", "coordinates": [ 8.673541, 49.39802 ] } },
{ "type": "Feature", "properties": { "index": "88", "last_edit_year": 2026, "years_since_edit": 0, "label": "0.0–1.0 yr", "color": "#ffc" }, "geometry": { "type": "Point", "coordinates": [ 8.6739715, 49.3981185 ] } },
{ "type": "Feature", "properties": { "index": "89", "last_edit_year": 2023, "years_since_edit": 3, "label": "1.0–4.0 yr", "color": "#78c679" }, "geometry": { "type": "Point", "coordinates": [ 8.673874, 49.3982031 ] } },
{ "type": "Feature", "properties": { "index": "90", "last_edit_year": 2026, "years_since_edit": 0, "label": "0.0–1.0 yr", "color": "#ffc" }, "geometry": { "type": "Point", "coordinates": [ 8.6895354, 49.3981616 ] } },
{ "type": "Feature", "properties": { "index": "91", "last_edit_year": 2025, "years_since_edit": 1, "label": "1.0–4.0 yr", "color": "#78c679" }, "geometry": { "type": "Point", "coordinates": [ 8.6702572, 49.4079811 ] } },
{ "type": "Feature", "properties": { "index": "92", "last_edit_year": 2025, "years_since_edit": 1, "label": "1.0–4.0 yr", "color": "#78c679" }, "geometry": { "type": "Point", "coordinates": [ 8.6702623, 49.4080678 ] } },
{ "type": "Feature", "properties": { "index": "93", "last_edit_year": 2025, "years_since_edit": 1, "label": "1.0–4.0 yr", "color": "#78c679" }, "geometry": { "type": "Point", "coordinates": [ 8.6871037, 49.4061298 ] } },
{ "type": "Feature", "properties": { "index": "94", "last_edit_year": 2025, "years_since_edit": 1, "label": "1.0–4.0 yr", "color": "#78c679" }, "geometry": { "type": "Point", "coordinates": [ 8.6942847, 49.4077233 ] } },
{ "type": "Feature", "properties": { "index": "95", "last_edit_year": 2026, "years_since_edit": 0, "label": "0.0–1.0 yr", "color": "#ffc" }, "geometry": { "type": "Point", "coordinates": [ 8.6858834, 49.4059666 ] } },
{ "type": "Feature", "properties": { "index": "96", "last_edit_year": 2026, "years_since_edit": 0, "label": "0.0–1.0 yr", "color": "#ffc" }, "geometry": { "type": "Point", "coordinates": [ 8.6869327, 49.4061666 ] } },
{ "type": "Feature", "properties": { "index": "97", "last_edit_year": 2026, "years_since_edit": 0, "label": "0.0–1.0 yr", "color": "#ffc" }, "geometry": { "type": "Point", "coordinates": [ 8.6868584, 49.4063233 ] } },
{ "type": "Feature", "properties": { "index": "98", "last_edit_year": 2022, "years_since_edit": 4, "label": "4.0–5.0 yr", "color": "#006837" }, "geometry": { "type": "Point", "coordinates": [ 8.6782796, 49.4003489 ] } },
{ "type": "Feature", "properties": { "index": "99", "last_edit_year": 2025, "years_since_edit": 1, "label": "1.0–4.0 yr", "color": "#78c679" }, "geometry": { "type": "Point", "coordinates": [ 8.6689588, 49.4033463 ] } },
{ "type": "Feature", "properties": { "index": "100", "last_edit_year": 2025, "years_since_edit": 1, "label": "1.0–4.0 yr", "color": "#78c679" }, "geometry": { "type": "Point", "coordinates": [ 8.6660745, 49.4037495 ] } },
{ "type": "Feature", "properties": { "index": "101", "last_edit_year": 2025, "years_since_edit": 1, "label": "1.0–4.0 yr", "color": "#78c679" }, "geometry": { "type": "Point", "coordinates": [ 8.6690532, 49.4051593 ] } },
{ "type": "Feature", "properties": { "index": "102", "last_edit_year": 2025, "years_since_edit": 1, "label": "1.0–4.0 yr", "color": "#78c679" }, "geometry": { "type": "Point", "coordinates": [ 8.669031, 49.4050489 ] } },
{ "type": "Feature", "properties": { "index": "103", "last_edit_year": 2025, "years_since_edit": 1, "label": "1.0–4.0 yr", "color": "#78c679" }, "geometry": { "type": "Point", "coordinates": [ 8.6621445, 49.4047944 ] } },
{ "type": "Feature", "properties": { "index": "104", "last_edit_year": 2024, "years_since_edit": 2, "label": "1.0–4.0 yr", "color": "#78c679" }, "geometry": { "type": "Point", "coordinates": [ 8.6766721, 49.4049404 ] } },
{ "type": "Feature", "properties": { "index": "105", "last_edit_year": 2025, "years_since_edit": 1, "label": "1.0–4.0 yr", "color": "#78c679" }, "geometry": { "type": "Point", "coordinates": [ 8.6718734, 49.4030524 ] } },
{ "type": "Feature", "properties": { "index": "106", "last_edit_year": 2026, "years_since_edit": 0, "label": "0.0–1.0 yr", "color": "#ffc" }, "geometry": { "type": "Point", "coordinates": [ 8.6745579, 49.4015494 ] } },
{ "type": "Feature", "properties": { "index": "107", "last_edit_year": 2022, "years_since_edit": 4, "label": "4.0–5.0 yr", "color": "#006837" }, "geometry": { "type": "Point", "coordinates": [ 8.6731499, 49.4022476 ] } },
{ "type": "Feature", "properties": { "index": "108", "last_edit_year": 2022, "years_since_edit": 4, "label": "4.0–5.0 yr", "color": "#006837" }, "geometry": { "type": "Point", "coordinates": [ 8.6688687, 49.4031527 ] } },
{ "type": "Feature", "properties": { "index": "109", "last_edit_year": 2025, "years_since_edit": 1, "label": "1.0–4.0 yr", "color": "#78c679" }, "geometry": { "type": "Point", "coordinates": [ 8.6803034, 49.4157312 ] } },
{ "type": "Feature", "properties": { "index": "110", "last_edit_year": 2025, "years_since_edit": 1, "label": "1.0–4.0 yr", "color": "#78c679" }, "geometry": { "type": "Point", "coordinates": [ 8.6826747, 49.4173185 ] } },
{ "type": "Feature", "properties": { "index": "111", "last_edit_year": 2021, "years_since_edit": 5, "label": "4.0–5.0 yr", "color": "#006837" }, "geometry": { "type": "Point", "coordinates": [ 8.6833717, 49.4143054 ] } },
{ "type": "Feature", "properties": { "index": "112", "last_edit_year": 2021, "years_since_edit": 5, "label": "4.0–5.0 yr", "color": "#006837" }, "geometry": { "type": "Point", "coordinates": [ 8.6921791, 49.4152046 ] } },
{ "type": "Feature", "properties": { "index": "113", "last_edit_year": 2021, "years_since_edit": 5, "label": "4.0–5.0 yr", "color": "#006837" }, "geometry": { "type": "Point", "coordinates": [ 8.6920463, 49.4152057 ] } },
{ "type": "Feature", "properties": { "index": "114", "last_edit_year": 2025, "years_since_edit": 1, "label": "1.0–4.0 yr", "color": "#78c679" }, "geometry": { "type": "Point", "coordinates": [ 8.6679217, 49.4034211 ] } },
{ "type": "Feature", "properties": { "index": "115", "last_edit_year": 2026, "years_since_edit": 0, "label": "0.0–1.0 yr", "color": "#ffc" }, "geometry": { "type": "Point", "coordinates": [ 8.6756997, 49.4050667 ] } },
{ "type": "Feature", "properties": { "index": "116", "last_edit_year": 2021, "years_since_edit": 5, "label": "4.0–5.0 yr", "color": "#006837" }, "geometry": { "type": "Point", "coordinates": [ 8.6774844, 49.404024 ] } },
{ "type": "Feature", "properties": { "index": "117", "last_edit_year": 2021, "years_since_edit": 5, "label": "4.0–5.0 yr", "color": "#006837" }, "geometry": { "type": "Point", "coordinates": [ 8.6772841, 49.4039852 ] } },
{ "type": "Feature", "properties": { "index": "118", "last_edit_year": 2026, "years_since_edit": 0, "label": "0.0–1.0 yr", "color": "#ffc" }, "geometry": { "type": "Point", "coordinates": [ 8.6755781, 49.4048309 ] } },
{ "type": "Feature", "properties": { "index": "119", "last_edit_year": 2026, "years_since_edit": 0, "label": "0.0–1.0 yr", "color": "#ffc" }, "geometry": { "type": "Point", "coordinates": [ 8.6756095, 49.4048919 ] } },
{ "type": "Feature", "properties": { "index": "120", "last_edit_year": 2026, "years_since_edit": 0, "label": "0.0–1.0 yr", "color": "#ffc" }, "geometry": { "type": "Point", "coordinates": [ 8.675627, 49.4049258 ] } },
{ "type": "Feature", "properties": { "index": "121", "last_edit_year": 2026, "years_since_edit": 0, "label": "0.0–1.0 yr", "color": "#ffc" }, "geometry": { "type": "Point", "coordinates": [ 8.67566, 49.4049898 ] } },
{ "type": "Feature", "properties": { "index": "122", "last_edit_year": 2026, "years_since_edit": 0, "label": "0.0–1.0 yr", "color": "#ffc" }, "geometry": { "type": "Point", "coordinates": [ 8.6766556, 49.4047821 ] } },
{ "type": "Feature", "properties": { "index": "123", "last_edit_year": 2026, "years_since_edit": 0, "label": "0.0–1.0 yr", "color": "#ffc" }, "geometry": { "type": "Point", "coordinates": [ 8.6765772, 49.404621 ] } },
{ "type": "Feature", "properties": { "index": "124", "last_edit_year": 2026, "years_since_edit": 0, "label": "0.0–1.0 yr", "color": "#ffc" }, "geometry": { "type": "Point", "coordinates": [ 8.6766096, 49.4046874 ] } },
{ "type": "Feature", "properties": { "index": "125", "last_edit_year": 2026, "years_since_edit": 0, "label": "0.0–1.0 yr", "color": "#ffc" }, "geometry": { "type": "Point", "coordinates": [ 8.6766229, 49.4047152 ] } },
{ "type": "Feature", "properties": { "index": "126", "last_edit_year": 2024, "years_since_edit": 2, "label": "1.0–4.0 yr", "color": "#78c679" }, "geometry": { "type": "Point", "coordinates": [ 8.6749005, 49.4053468 ] } },
{ "type": "Feature", "properties": { "index": "127", "last_edit_year": 2025, "years_since_edit": 1, "label": "1.0–4.0 yr", "color": "#78c679" }, "geometry": { "type": "Point", "coordinates": [ 8.676808, 49.4042423 ] } },
{ "type": "Feature", "properties": { "index": "128", "last_edit_year": 2022, "years_since_edit": 4, "label": "4.0–5.0 yr", "color": "#006837" }, "geometry": { "type": "Point", "coordinates": [ 8.6717515, 49.403274 ] } },
{ "type": "Feature", "properties": { "index": "129", "last_edit_year": 2026, "years_since_edit": 0, "label": "0.0–1.0 yr", "color": "#ffc" }, "geometry": { "type": "Point", "coordinates": [ 8.6737944, 49.4021688 ] } },
{ "type": "Feature", "properties": { "index": "130", "last_edit_year": 2025, "years_since_edit": 1, "label": "1.0–4.0 yr", "color": "#78c679" }, "geometry": { "type": "Point", "coordinates": [ 8.6680137, 49.4034943 ] } },
{ "type": "Feature", "properties": { "index": "131", "last_edit_year": 2023, "years_since_edit": 3, "label": "1.0–4.0 yr", "color": "#78c679" }, "geometry": { "type": "Point", "coordinates": [ 8.6692839, 49.4052196 ] } },
{ "type": "Feature", "properties": { "index": "132", "last_edit_year": 2023, "years_since_edit": 3, "label": "1.0–4.0 yr", "color": "#78c679" }, "geometry": { "type": "Point", "coordinates": [ 8.6694789, 49.405139 ] } },
{ "type": "Feature", "properties": { "index": "133", "last_edit_year": 2023, "years_since_edit": 3, "label": "1.0–4.0 yr", "color": "#78c679" }, "geometry": { "type": "Point", "coordinates": [ 8.6696258, 49.4051068 ] } },
{ "type": "Feature", "properties": { "index": "134", "last_edit_year": 2022, "years_since_edit": 4, "label": "4.0–5.0 yr", "color": "#006837" }, "geometry": { "type": "Point", "coordinates": [ 8.6695711, 49.4049175 ] } },
{ "type": "Feature", "properties": { "index": "135", "last_edit_year": 2023, "years_since_edit": 3, "label": "1.0–4.0 yr", "color": "#78c679" }, "geometry": { "type": "Point", "coordinates": [ 8.669681, 49.404973 ] } },
{ "type": "Feature", "properties": { "index": "136", "last_edit_year": 2021, "years_since_edit": 5, "label": "4.0–5.0 yr", "color": "#006837" }, "geometry": { "type": "Point", "coordinates": [ 8.6868071, 49.4173242 ] } },
{ "type": "Feature", "properties": { "index": "137", "last_edit_year": 2021, "years_since_edit": 5, "label": "4.0–5.0 yr", "color": "#006837" }, "geometry": { "type": "Point", "coordinates": [ 8.6868068, 49.4173974 ] } },
{ "type": "Feature", "properties": { "index": "138", "last_edit_year": 2025, "years_since_edit": 1, "label": "1.0–4.0 yr", "color": "#78c679" }, "geometry": { "type": "Point", "coordinates": [ 8.6702182, 49.403031 ] } },
{ "type": "Feature", "properties": { "index": "139", "last_edit_year": 2025, "years_since_edit": 1, "label": "1.0–4.0 yr", "color": "#78c679" }, "geometry": { "type": "Point", "coordinates": [ 8.6706093, 49.4040779 ] } },
{ "type": "Feature", "properties": { "index": "140", "last_edit_year": 2022, "years_since_edit": 4, "label": "4.0–5.0 yr", "color": "#006837" }, "geometry": { "type": "Point", "coordinates": [ 8.6783323, 49.400336 ] } },
{ "type": "Feature", "properties": { "index": "141", "last_edit_year": 2023, "years_since_edit": 3, "label": "1.0–4.0 yr", "color": "#78c679" }, "geometry": { "type": "Point", "coordinates": [ 8.6768197, 49.4050229 ] } },
{ "type": "Feature", "properties": { "index": "142", "last_edit_year": 2024, "years_since_edit": 2, "label": "1.0–4.0 yr", "color": "#78c679" }, "geometry": { "type": "Point", "coordinates": [ 8.6885319, 49.3991598 ] } },
{ "type": "Feature", "properties": { "index": "143", "last_edit_year": 2026, "years_since_edit": 0, "label": "0.0–1.0 yr", "color": "#ffc" }, "geometry": { "type": "Point", "coordinates": [ 8.6671467, 49.4052031 ] } },
{ "type": "Feature", "properties": { "index": "144", "last_edit_year": 2026, "years_since_edit": 0, "label": "0.0–1.0 yr", "color": "#ffc" }, "geometry": { "type": "Point", "coordinates": [ 8.6750425, 49.4170906 ] } },
{ "type": "Feature", "properties": { "index": "145", "last_edit_year": 2025, "years_since_edit": 1, "label": "1.0–4.0 yr", "color": "#78c679" }, "geometry": { "type": "Point", "coordinates": [ 8.6663147, 49.4038675 ] } },
{ "type": "Feature", "properties": { "index": "146", "last_edit_year": 2025, "years_since_edit": 1, "label": "1.0–4.0 yr", "color": "#78c679" }, "geometry": { "type": "Point", "coordinates": [ 8.666267, 49.4037727 ] } },
{ "type": "Feature", "properties": { "index": "147", "last_edit_year": 2025, "years_since_edit": 1, "label": "1.0–4.0 yr", "color": "#78c679" }, "geometry": { "type": "Point", "coordinates": [ 8.665959, 49.40393 ] } },
{ "type": "Feature", "properties": { "index": "148", "last_edit_year": 2025, "years_since_edit": 1, "label": "1.0–4.0 yr", "color": "#78c679" }, "geometry": { "type": "Point", "coordinates": [ 8.6659186, 49.4038459 ] } },
{ "type": "Feature", "properties": { "index": "149", "last_edit_year": 2025, "years_since_edit": 1, "label": "1.0–4.0 yr", "color": "#78c679" }, "geometry": { "type": "Point", "coordinates": [ 8.6622705, 49.4046085 ] } },
{ "type": "Feature", "properties": { "index": "150", "last_edit_year": 2025, "years_since_edit": 1, "label": "1.0–4.0 yr", "color": "#78c679" }, "geometry": { "type": "Point", "coordinates": [ 8.6620204, 49.4047675 ] } },
{ "type": "Feature", "properties": { "index": "151", "last_edit_year": 2025, "years_since_edit": 1, "label": "1.0–4.0 yr", "color": "#78c679" }, "geometry": { "type": "Point", "coordinates": [ 8.6619837, 49.4046707 ] } },
{ "type": "Feature", "properties": { "index": "152", "last_edit_year": 2024, "years_since_edit": 2, "label": "1.0–4.0 yr", "color": "#78c679" }, "geometry": { "type": "Point", "coordinates": [ 8.6749326, 49.4049157 ] } },
{ "type": "Feature", "properties": { "index": "153", "last_edit_year": 2025, "years_since_edit": 1, "label": "1.0–4.0 yr", "color": "#78c679" }, "geometry": { "type": "Point", "coordinates": [ 8.694219, 49.4077134 ] } },
{ "type": "Feature", "properties": { "index": "154", "last_edit_year": 2026, "years_since_edit": 0, "label": "0.0–1.0 yr", "color": "#ffc" }, "geometry": { "type": "Point", "coordinates": [ 8.6671532, 49.4052649 ] } },
{ "type": "Feature", "properties": { "index": "155", "last_edit_year": 2025, "years_since_edit": 1, "label": "1.0–4.0 yr", "color": "#78c679" }, "geometry": { "type": "Point", "coordinates": [ 8.6661881, 49.403945 ] } },
{ "type": "Feature", "properties": { "index": "156", "last_edit_year": 2026, "years_since_edit": 0, "label": "0.0–1.0 yr", "color": "#ffc" }, "geometry": { "type": "Point", "coordinates": [ 8.6667729, 49.4052405 ] } },
{ "type": "Feature", "properties": { "index": "157", "last_edit_year": 2026, "years_since_edit": 0, "label": "0.0–1.0 yr", "color": "#ffc" }, "geometry": { "type": "Point", "coordinates": [ 8.6667923, 49.4053099 ] } },
{ "type": "Feature", "properties": { "index": "158", "last_edit_year": 2025, "years_since_edit": 1, "label": "1.0–4.0 yr", "color": "#78c679" }, "geometry": { "type": "Point", "coordinates": [ 8.6718034, 49.4031027 ] } },
{ "type": "Feature", "properties": { "index": "159", "last_edit_year": 2026, "years_since_edit": 0, "label": "0.0–1.0 yr", "color": "#ffc" }, "geometry": { "type": "Point", "coordinates": [ 8.7011844, 49.4126481 ] } }
]
}
