{
"type": "FeatureCollection",
"features": [
{ "type": "Feature", "properties": { "index": "0", "@osmId": "node/4569337200", "name": "Dar es Salaam Gymkhana Club", "opening_hours": null, "label": "Sports clubs", "color": "#e34a33" }, "geometry": { "type": "Point", "coordinates": [ 39.2902445, -6.8084492 ] } },
{ "type": "Feature", "properties": { "index": "1", "@osmId": "way/368952538", "name": null, "opening_hours": null, "label": "Sports centres", "color": "#fc8d59" }, "geometry": { "type": "Point", "coordinates": [ 39.2890672, -6.8087434 ] } },
{ "type": "Feature", "properties": { "index": "2", "@osmId": "way/368952539", "name": "Gymkhana Tennis Ground", "opening_hours": null, "label": "Sports centres", "color": "#fc8d59" }, "geometry": { "type": "Point", "coordinates": [ 39.2913777, -6.8087925 ] } },
{ "type": "Feature", "properties": { "index": "3", "@osmId": "way/1322160464", "name": "TCC Club", "opening_hours": null, "label": "Sports centres", "color": "#fc8d59" }, "geometry": { "type": "Point", "coordinates": [ 39.2711705, -6.845803 ] } },
{ "type": "Feature", "properties": { "index": "4", "@osmId": "way/597928198", "name": "Jakaya M. Kikwete Youth Park", "opening_hours": null, "label": "Sports centres", "color": "#fc8d59" }, "geometry": { "type": "Point", "coordinates": [ 39.2799658, -6.8239293 ] } },
{ "type": "Feature", "properties": { "index": "5", "@osmId": "node/3600291204", "name": "Young African Uhuru Branch", "opening_hours": null, "label": "Sports centres", "color": "#fc8d59" }, "geometry": { "type": "Point", "coordinates": [ 39.2714745, -6.8230781 ] } },
{ "type": "Feature", "properties": { "index": "6", "@osmId": "node/3473068189", "name": "Premier Betting", "opening_hours": null, "label": "Sports centres", "color": "#fc8d59" }, "geometry": { "type": "Point", "coordinates": [ 39.2469348, -6.7967205 ] } },
{ "type": "Feature", "properties": { "index": "7", "@osmId": "node/3706370526", "name": "Slot Machine", "opening_hours": null, "label": "Sports centres", "color": "#fc8d59" }, "geometry": { "type": "Point", "coordinates": [ 39.2443735, -6.8373893 ] } },
{ "type": "Feature", "properties": { "index": "8", "@osmId": "node/3706370527", "name": "Slot Machine", "opening_hours": null, "label": "Sports centres", "color": "#fc8d59" }, "geometry": { "type": "Point", "coordinates": [ 39.2441782, -6.8377662 ] } },
{ "type": "Feature", "properties": { "index": "9", "@osmId": "node/3707732001", "name": "Meridian Bet", "opening_hours": null, "label": "Sports centres", "color": "#fc8d59" }, "geometry": { "type": "Point", "coordinates": [ 39.245652, -6.8373211 ] } },
{ "type": "Feature", "properties": { "index": "10", "@osmId": "node/3707732002", "name": "Yanga", "opening_hours": null, "label": "Sports centres", "color": "#fc8d59" }, "geometry": { "type": "Point", "coordinates": [ 39.2453296, -6.8379269 ] } },
{ "type": "Feature", "properties": { "index": "11", "@osmId": "node/3714695365", "name": "Meridian bet", "opening_hours": null, "label": "Sports centres", "color": "#fc8d59" }, "geometry": { "type": "Point", "coordinates": [ 39.2510676, -6.8299828 ] } },
{ "type": "Feature", "properties": { "index": "12", "@osmId": "node/3738836566", "name": "Play Station Game", "opening_hours": null, "label": "Sports centres", "color": "#fc8d59" }, "geometry": { "type": "Point", "coordinates": [ 39.2501345, -6.8175071 ] } },
{ "type": "Feature", "properties": { "index": "13", "@osmId": "node/3740999964", "name": "Meridian Sport Betting", "opening_hours": null, "label": "Sports centres", "color": "#fc8d59" }, "geometry": { "type": "Point", "coordinates": [ 39.2745871, -6.8204358 ] } },
{ "type": "Feature", "properties": { "index": "14", "@osmId": "node/3658793104", "name": "Liver Pool", "opening_hours": null, "label": "Sports centres", "color": "#fc8d59" }, "geometry": { "type": "Point", "coordinates": [ 39.2501012, -6.7878985 ] } },
{ "type": "Feature", "properties": { "index": "15", "@osmId": "node/3741014689", "name": "Premiar Betting", "opening_hours": null, "label": "Sports centres", "color": "#fc8d59" }, "geometry": { "type": "Point", "coordinates": [ 39.2743796, -6.820507 ] } },
{ "type": "Feature", "properties": { "index": "16", "@osmId": "node/3658793105", "name": "Liver Pool", "opening_hours": null, "label": "Sports centres", "color": "#fc8d59" }, "geometry": { "type": "Point", "coordinates": [ 39.250112, -6.78792 ] } },
{ "type": "Feature", "properties": { "index": "17", "@osmId": "node/3744036738", "name": "Meridian Sport Betting", "opening_hours": null, "label": "Sports centres", "color": "#fc8d59" }, "geometry": { "type": "Point", "coordinates": [ 39.2752187, -6.8207542 ] } },
{ "type": "Feature", "properties": { "index": "18", "@osmId": "node/3744096698", "name": "Meridian Sport Betting", "opening_hours": null, "label": "Sports centres", "color": "#fc8d59" }, "geometry": { "type": "Point", "coordinates": [ 39.2760406, -6.820526 ] } },
{ "type": "Feature", "properties": { "index": "19", "@osmId": "node/3704548123", "name": "Sports Betting", "opening_hours": null, "label": "Sports centres", "color": "#fc8d59" }, "geometry": { "type": "Point", "coordinates": [ 39.264101, -6.790254 ] } },
{ "type": "Feature", "properties": { "index": "20", "@osmId": "node/3711632859", "name": "New Boys Sports Club", "opening_hours": null, "label": "Sports centres", "color": "#fc8d59" }, "geometry": { "type": "Point", "coordinates": [ 39.2572386, -6.801682 ] } },
{ "type": "Feature", "properties": { "index": "21", "@osmId": "node/3713201990", "name": "Premier Betting", "opening_hours": null, "label": "Sports centres", "color": "#fc8d59" }, "geometry": { "type": "Point", "coordinates": [ 39.2563881, -6.7826219 ] } },
{ "type": "Feature", "properties": { "index": "22", "@osmId": "node/3713265675", "name": "Simba Sports Club Tawi La Magomeni", "opening_hours": null, "label": "Sports centres", "color": "#fc8d59" }, "geometry": { "type": "Point", "coordinates": [ 39.258428, -6.8012274 ] } },
{ "type": "Feature", "properties": { "index": "23", "@osmId": "node/3713360633", "name": "AnnaliceGames Sports", "opening_hours": null, "label": "Sports centres", "color": "#fc8d59" }, "geometry": { "type": "Point", "coordinates": [ 39.2582154, -6.8004785 ] } },
{ "type": "Feature", "properties": { "index": "24", "@osmId": "node/3748031841", "name": "kit Meer", "opening_hours": null, "label": "Sports centres", "color": "#fc8d59" }, "geometry": { "type": "Point", "coordinates": [ 39.2741072, -6.8163002 ] } },
{ "type": "Feature", "properties": { "index": "25", "@osmId": "node/3758601922", "name": "Yanga Africa Kigogo", "opening_hours": null, "label": "Sports centres", "color": "#fc8d59" }, "geometry": { "type": "Point", "coordinates": [ 39.2509704, -6.8174707 ] } },
{ "type": "Feature", "properties": { "index": "26", "@osmId": "node/3758631244", "name": null, "opening_hours": null, "label": "Sports centres", "color": "#fc8d59" }, "geometry": { "type": "Point", "coordinates": [ 39.2528639, -6.816856 ] } },
{ "type": "Feature", "properties": { "index": "27", "@osmId": "node/3763690041", "name": null, "opening_hours": null, "label": "Sports centres", "color": "#fc8d59" }, "geometry": { "type": "Point", "coordinates": [ 39.2711565, -6.8152384 ] } },
{ "type": "Feature", "properties": { "index": "28", "@osmId": "node/3765865877", "name": "Sport Betting", "opening_hours": null, "label": "Sports centres", "color": "#fc8d59" }, "geometry": { "type": "Point", "coordinates": [ 39.2741548, -6.8243611 ] } },
{ "type": "Feature", "properties": { "index": "29", "@osmId": "node/1410842625", "name": "Young African Sport Club", "opening_hours": null, "label": "Sports centres", "color": "#fc8d59" }, "geometry": { "type": "Point", "coordinates": [ 39.2393713, -6.7963793 ] } },
{ "type": "Feature", "properties": { "index": "30", "@osmId": "node/3727895723", "name": null, "opening_hours": null, "label": "Sports centres", "color": "#fc8d59" }, "geometry": { "type": "Point", "coordinates": [ 39.2888633, -6.8087278 ] } },
{ "type": "Feature", "properties": { "index": "31", "@osmId": "node/3742788899", "name": "Meridian Betting", "opening_hours": null, "label": "Sports centres", "color": "#fc8d59" }, "geometry": { "type": "Point", "coordinates": [ 39.2297985, -6.7984138 ] } },
{ "type": "Feature", "properties": { "index": "32", "@osmId": "node/3752452864", "name": "Throne Betting", "opening_hours": null, "label": "Sports centres", "color": "#fc8d59" }, "geometry": { "type": "Point", "coordinates": [ 39.2344974, -6.7987224 ] } },
{ "type": "Feature", "properties": { "index": "33", "@osmId": "node/3752501283", "name": "Play Master", "opening_hours": null, "label": "Sports centres", "color": "#fc8d59" }, "geometry": { "type": "Point", "coordinates": [ 39.2353061, -6.8016559 ] } },
{ "type": "Feature", "properties": { "index": "34", "@osmId": "node/3754246332", "name": null, "opening_hours": null, "label": "Sports centres", "color": "#fc8d59" }, "geometry": { "type": "Point", "coordinates": [ 39.2280173, -6.8409436 ] } },
{ "type": "Feature", "properties": { "index": "35", "@osmId": "node/6400555956", "name": "Tawi la Yanga Yetu", "opening_hours": null, "label": "Sports centres", "color": "#fc8d59" }, "geometry": { "type": "Point", "coordinates": [ 39.2406276, -6.8089321 ] } },
{ "type": "Feature", "properties": { "index": "36", "@osmId": "way/382204550", "name": "Deffee Gym And Fitness", "opening_hours": null, "label": "Fitness & gym centres", "color": "#fdbb84" }, "geometry": { "type": "Point", "coordinates": [ 39.2654801, -6.8290032 ] } },
{ "type": "Feature", "properties": { "index": "37", "@osmId": "node/3844260089", "name": "Physical Security Equipments", "opening_hours": null, "label": "Fitness & gym centres", "color": "#fdbb84" }, "geometry": { "type": "Point", "coordinates": [ 39.2557188, -6.8272686 ] } },
{ "type": "Feature", "properties": { "index": "38", "@osmId": "node/4701295449", "name": "Ilala Fitness Centre", "opening_hours": null, "label": "Fitness & gym centres", "color": "#fdbb84" }, "geometry": { "type": "Point", "coordinates": [ 39.2594367, -6.8290875 ] } },
{ "type": "Feature", "properties": { "index": "39", "@osmId": "node/8410812417", "name": null, "opening_hours": null, "label": "Fitness & gym centres", "color": "#fdbb84" }, "geometry": { "type": "Point", "coordinates": [ 39.2452393, -6.8373194 ] } },
{ "type": "Feature", "properties": { "index": "40", "@osmId": "node/9275336341", "name": null, "opening_hours": null, "label": "Fitness & gym centres", "color": "#fdbb84" }, "geometry": { "type": "Point", "coordinates": [ 39.2694283, -6.8163088 ] } },
{ "type": "Feature", "properties": { "index": "41", "@osmId": "node/9275336389", "name": "Mwakinyo", "opening_hours": null, "label": "Fitness & gym centres", "color": "#fdbb84" }, "geometry": { "type": "Point", "coordinates": [ 39.2713809, -6.8149879 ] } },
{ "type": "Feature", "properties": { "index": "42", "@osmId": "node/9275336515", "name": "Superpower", "opening_hours": null, "label": "Fitness & gym centres", "color": "#fdbb84" }, "geometry": { "type": "Point", "coordinates": [ 39.2736749, -6.8153669 ] } },
{ "type": "Feature", "properties": { "index": "43", "@osmId": "node/3707679243", "name": "Hard Core Gym and Karate", "opening_hours": null, "label": "Fitness & gym centres", "color": "#fdbb84" }, "geometry": { "type": "Point", "coordinates": [ 39.2575084, -6.7986995 ] } },
{ "type": "Feature", "properties": { "index": "44", "@osmId": "node/3707679246", "name": "Ujuwe Game", "opening_hours": null, "label": "Fitness & gym centres", "color": "#fdbb84" }, "geometry": { "type": "Point", "coordinates": [ 39.2574591, -6.7987985 ] } },
{ "type": "Feature", "properties": { "index": "45", "@osmId": "node/6400151437", "name": "Ada Estate Gym", "opening_hours": null, "label": "Fitness & gym centres", "color": "#fdbb84" }, "geometry": { "type": "Point", "coordinates": [ 39.2745836, -6.7869649 ] } },
{ "type": "Feature", "properties": { "index": "46", "@osmId": "node/9275336494", "name": null, "opening_hours": null, "label": "Fitness & gym centres", "color": "#fdbb84" }, "geometry": { "type": "Point", "coordinates": [ 39.2668156, -6.7958158 ] } },
{ "type": "Feature", "properties": { "index": "47", "@osmId": "node/9275336557", "name": null, "opening_hours": null, "label": "Fitness & gym centres", "color": "#fdbb84" }, "geometry": { "type": "Point", "coordinates": [ 39.2585895, -6.8083468 ] } },
{ "type": "Feature", "properties": { "index": "48", "@osmId": "node/9275336612", "name": "Point Five", "opening_hours": null, "label": "Fitness & gym centres", "color": "#fdbb84" }, "geometry": { "type": "Point", "coordinates": [ 39.2788074, -6.8072935 ] } },
{ "type": "Feature", "properties": { "index": "49", "@osmId": "node/9275336629", "name": null, "opening_hours": null, "label": "Fitness & gym centres", "color": "#fdbb84" }, "geometry": { "type": "Point", "coordinates": [ 39.2667564, -6.7994449 ] } },
{ "type": "Feature", "properties": { "index": "50", "@osmId": "node/9275336707", "name": null, "opening_hours": null, "label": "Fitness & gym centres", "color": "#fdbb84" }, "geometry": { "type": "Point", "coordinates": [ 39.2762757, -6.8027058 ] } },
{ "type": "Feature", "properties": { "index": "51", "@osmId": "node/3727895645", "name": "Gymkhana Gym", "opening_hours": null, "label": "Fitness & gym centres", "color": "#fdbb84" }, "geometry": { "type": "Point", "coordinates": [ 39.2905777, -6.8077755 ] } }
]
}
