{
"type": "FeatureCollection",
"features": [
{ "type": "Feature", "properties": { "index": "0", "last_edit_year": 2024, "years_since_edit": 2, "label": "2.0–5.8 yr", "color": "#c2e699" }, "geometry": { "type": "Point", "coordinates": [ 39.2711705, -6.845803 ] } },
{ "type": "Feature", "properties": { "index": "1", "last_edit_year": 2021, "years_since_edit": 5, "label": "2.0–5.8 yr", "color": "#c2e699" }, "geometry": { "type": "Point", "coordinates": [ 39.2890672, -6.8087434 ] } },
{ "type": "Feature", "properties": { "index": "2", "last_edit_year": 2024, "years_since_edit": 2, "label": "2.0–5.8 yr", "color": "#c2e699" }, "geometry": { "type": "Point", "coordinates": [ 39.2913777, -6.8087925 ] } },
{ "type": "Feature", "properties": { "index": "3", "last_edit_year": 2017, "years_since_edit": 9, "label": "8.0–10.6 yr", "color": "#31a354" }, "geometry": { "type": "Point", "coordinates": [ 39.2654801, -6.8290032 ] } },
{ "type": "Feature", "properties": { "index": "4", "last_edit_year": 2023, "years_since_edit": 3, "label": "2.0–5.8 yr", "color": "#c2e699" }, "geometry": { "type": "Point", "coordinates": [ 39.2799658, -6.8239293 ] } },
{ "type": "Feature", "properties": { "index": "5", "last_edit_year": 2017, "years_since_edit": 9, "label": "8.0–10.6 yr", "color": "#31a354" }, "geometry": { "type": "Point", "coordinates": [ 39.2714745, -6.8230781 ] } },
{ "type": "Feature", "properties": { "index": "6", "last_edit_year": 2018, "years_since_edit": 8, "label": "8.0–10.6 yr", "color": "#31a354" }, "geometry": { "type": "Point", "coordinates": [ 39.2443735, -6.8373893 ] } },
{ "type": "Feature", "properties": { "index": "7", "last_edit_year": 2018, "years_since_edit": 8, "label": "8.0–10.6 yr", "color": "#31a354" }, "geometry": { "type": "Point", "coordinates": [ 39.2441782, -6.8377662 ] } },
{ "type": "Feature", "properties": { "index": "8", "last_edit_year": 2018, "years_since_edit": 8, "label": "8.0–10.6 yr", "color": "#31a354" }, "geometry": { "type": "Point", "coordinates": [ 39.245652, -6.8373211 ] } },
{ "type": "Feature", "properties": { "index": "9", "last_edit_year": 2018, "years_since_edit": 8, "label": "8.0–10.6 yr", "color": "#31a354" }, "geometry": { "type": "Point", "coordinates": [ 39.2453296, -6.8379269 ] } },
{ "type": "Feature", "properties": { "index": "10", "last_edit_year": 2018, "years_since_edit": 8, "label": "8.0–10.6 yr", "color": "#31a354" }, "geometry": { "type": "Point", "coordinates": [ 39.2510676, -6.8299828 ] } },
{ "type": "Feature", "properties": { "index": "11", "last_edit_year": 2021, "years_since_edit": 5, "label": "2.0–5.8 yr", "color": "#c2e699" }, "geometry": { "type": "Point", "coordinates": [ 39.2501345, -6.8175071 ] } },
{ "type": "Feature", "properties": { "index": "12", "last_edit_year": 2021, "years_since_edit": 5, "label": "2.0–5.8 yr", "color": "#c2e699" }, "geometry": { "type": "Point", "coordinates": [ 39.2745871, -6.8204358 ] } },
{ "type": "Feature", "properties": { "index": "13", "last_edit_year": 2023, "years_since_edit": 3, "label": "2.0–5.8 yr", "color": "#c2e699" }, "geometry": { "type": "Point", "coordinates": [ 39.2743796, -6.820507 ] } },
{ "type": "Feature", "properties": { "index": "14", "last_edit_year": 2015, "years_since_edit": 11, "label": "10.6–11.0 yr", "color": "#006837" }, "geometry": { "type": "Point", "coordinates": [ 39.2752187, -6.8207542 ] } },
{ "type": "Feature", "properties": { "index": "15", "last_edit_year": 2018, "years_since_edit": 8, "label": "8.0–10.6 yr", "color": "#31a354" }, "geometry": { "type": "Point", "coordinates": [ 39.2760406, -6.820526 ] } },
{ "type": "Feature", "properties": { "index": "16", "last_edit_year": 2015, "years_since_edit": 11, "label": "10.6–11.0 yr", "color": "#006837" }, "geometry": { "type": "Point", "coordinates": [ 39.2741072, -6.8163002 ] } },
{ "type": "Feature", "properties": { "index": "17", "last_edit_year": 2021, "years_since_edit": 5, "label": "2.0–5.8 yr", "color": "#c2e699" }, "geometry": { "type": "Point", "coordinates": [ 39.2509704, -6.8174707 ] } },
{ "type": "Feature", "properties": { "index": "18", "last_edit_year": 2018, "years_since_edit": 8, "label": "8.0–10.6 yr", "color": "#31a354" }, "geometry": { "type": "Point", "coordinates": [ 39.2528639, -6.816856 ] } },
{ "type": "Feature", "properties": { "index": "19", "last_edit_year": 2018, "years_since_edit": 8, "label": "8.0–10.6 yr", "color": "#31a354" }, "geometry": { "type": "Point", "coordinates": [ 39.2711565, -6.8152384 ] } },
{ "type": "Feature", "properties": { "index": "20", "last_edit_year": 2018, "years_since_edit": 8, "label": "8.0–10.6 yr", "color": "#31a354" }, "geometry": { "type": "Point", "coordinates": [ 39.2741548, -6.8243611 ] } },
{ "type": "Feature", "properties": { "index": "21", "last_edit_year": 2026, "years_since_edit": 0, "label": "0.0–2.0 yr", "color": "#ffc" }, "geometry": { "type": "Point", "coordinates": [ 39.2557188, -6.8272686 ] } },
{ "type": "Feature", "properties": { "index": "22", "last_edit_year": 2017, "years_since_edit": 9, "label": "8.0–10.6 yr", "color": "#31a354" }, "geometry": { "type": "Point", "coordinates": [ 39.2594367, -6.8290875 ] } },
{ "type": "Feature", "properties": { "index": "23", "last_edit_year": 2021, "years_since_edit": 5, "label": "2.0–5.8 yr", "color": "#c2e699" }, "geometry": { "type": "Point", "coordinates": [ 39.2452393, -6.8373194 ] } },
{ "type": "Feature", "properties": { "index": "24", "last_edit_year": 2025, "years_since_edit": 1, "label": "0.0–2.0 yr", "color": "#ffc" }, "geometry": { "type": "Point", "coordinates": [ 39.2694283, -6.8163088 ] } },
{ "type": "Feature", "properties": { "index": "25", "last_edit_year": 2025, "years_since_edit": 1, "label": "0.0–2.0 yr", "color": "#ffc" }, "geometry": { "type": "Point", "coordinates": [ 39.2713809, -6.8149879 ] } },
{ "type": "Feature", "properties": { "index": "26", "last_edit_year": 2025, "years_since_edit": 1, "label": "0.0–2.0 yr", "color": "#ffc" }, "geometry": { "type": "Point", "coordinates": [ 39.2736749, -6.8153669 ] } },
{ "type": "Feature", "properties": { "index": "27", "last_edit_year": 2015, "years_since_edit": 11, "label": "10.6–11.0 yr", "color": "#006837" }, "geometry": { "type": "Point", "coordinates": [ 39.2469348, -6.7967205 ] } },
{ "type": "Feature", "properties": { "index": "28", "last_edit_year": 2015, "years_since_edit": 11, "label": "10.6–11.0 yr", "color": "#006837" }, "geometry": { "type": "Point", "coordinates": [ 39.2501012, -6.7878985 ] } },
{ "type": "Feature", "properties": { "index": "29", "last_edit_year": 2015, "years_since_edit": 11, "label": "10.6–11.0 yr", "color": "#006837" }, "geometry": { "type": "Point", "coordinates": [ 39.250112, -6.78792 ] } },
{ "type": "Feature", "properties": { "index": "30", "last_edit_year": 2015, "years_since_edit": 11, "label": "10.6–11.0 yr", "color": "#006837" }, "geometry": { "type": "Point", "coordinates": [ 39.264101, -6.790254 ] } },
{ "type": "Feature", "properties": { "index": "31", "last_edit_year": 2018, "years_since_edit": 8, "label": "8.0–10.6 yr", "color": "#31a354" }, "geometry": { "type": "Point", "coordinates": [ 39.2575084, -6.7986995 ] } },
{ "type": "Feature", "properties": { "index": "32", "last_edit_year": 2018, "years_since_edit": 8, "label": "8.0–10.6 yr", "color": "#31a354" }, "geometry": { "type": "Point", "coordinates": [ 39.2574591, -6.7987985 ] } },
{ "type": "Feature", "properties": { "index": "33", "last_edit_year": 2015, "years_since_edit": 11, "label": "10.6–11.0 yr", "color": "#006837" }, "geometry": { "type": "Point", "coordinates": [ 39.2572386, -6.801682 ] } },
{ "type": "Feature", "properties": { "index": "34", "last_edit_year": 2018, "years_since_edit": 8, "label": "8.0–10.6 yr", "color": "#31a354" }, "geometry": { "type": "Point", "coordinates": [ 39.2563881, -6.7826219 ] } },
{ "type": "Feature", "properties": { "index": "35", "last_edit_year": 2015, "years_since_edit": 11, "label": "10.6–11.0 yr", "color": "#006837" }, "geometry": { "type": "Point", "coordinates": [ 39.258428, -6.8012274 ] } },
{ "type": "Feature", "properties": { "index": "36", "last_edit_year": 2015, "years_since_edit": 11, "label": "10.6–11.0 yr", "color": "#006837" }, "geometry": { "type": "Point", "coordinates": [ 39.2582154, -6.8004785 ] } },
{ "type": "Feature", "properties": { "index": "37", "last_edit_year": 2019, "years_since_edit": 7, "label": "5.8–8.0 yr", "color": "#78c679" }, "geometry": { "type": "Point", "coordinates": [ 39.2745836, -6.7869649 ] } },
{ "type": "Feature", "properties": { "index": "38", "last_edit_year": 2025, "years_since_edit": 1, "label": "0.0–2.0 yr", "color": "#ffc" }, "geometry": { "type": "Point", "coordinates": [ 39.2668156, -6.7958158 ] } },
{ "type": "Feature", "properties": { "index": "39", "last_edit_year": 2025, "years_since_edit": 1, "label": "0.0–2.0 yr", "color": "#ffc" }, "geometry": { "type": "Point", "coordinates": [ 39.2585895, -6.8083468 ] } },
{ "type": "Feature", "properties": { "index": "40", "last_edit_year": 2024, "years_since_edit": 2, "label": "2.0–5.8 yr", "color": "#c2e699" }, "geometry": { "type": "Point", "coordinates": [ 39.2788074, -6.8072935 ] } },
{ "type": "Feature", "properties": { "index": "41", "last_edit_year": 2025, "years_since_edit": 1, "label": "0.0–2.0 yr", "color": "#ffc" }, "geometry": { "type": "Point", "coordinates": [ 39.2667564, -6.7994449 ] } },
{ "type": "Feature", "properties": { "index": "42", "last_edit_year": 2024, "years_since_edit": 2, "label": "2.0–5.8 yr", "color": "#c2e699" }, "geometry": { "type": "Point", "coordinates": [ 39.2762757, -6.8027058 ] } },
{ "type": "Feature", "properties": { "index": "43", "last_edit_year": 2017, "years_since_edit": 9, "label": "8.0–10.6 yr", "color": "#31a354" }, "geometry": { "type": "Point", "coordinates": [ 39.2393713, -6.7963793 ] } },
{ "type": "Feature", "properties": { "index": "44", "last_edit_year": 2024, "years_since_edit": 2, "label": "2.0–5.8 yr", "color": "#c2e699" }, "geometry": { "type": "Point", "coordinates": [ 39.2905777, -6.8077755 ] } },
{ "type": "Feature", "properties": { "index": "45", "last_edit_year": 2018, "years_since_edit": 8, "label": "8.0–10.6 yr", "color": "#31a354" }, "geometry": { "type": "Point", "coordinates": [ 39.2888633, -6.8087278 ] } },
{ "type": "Feature", "properties": { "index": "46", "last_edit_year": 2017, "years_since_edit": 9, "label": "8.0–10.6 yr", "color": "#31a354" }, "geometry": { "type": "Point", "coordinates": [ 39.2297985, -6.7984138 ] } },
{ "type": "Feature", "properties": { "index": "47", "last_edit_year": 2015, "years_since_edit": 11, "label": "10.6–11.0 yr", "color": "#006837" }, "geometry": { "type": "Point", "coordinates": [ 39.2344974, -6.7987224 ] } },
{ "type": "Feature", "properties": { "index": "48", "last_edit_year": 2015, "years_since_edit": 11, "label": "10.6–11.0 yr", "color": "#006837" }, "geometry": { "type": "Point", "coordinates": [ 39.2353061, -6.8016559 ] } },
{ "type": "Feature", "properties": { "index": "49", "last_edit_year": 2018, "years_since_edit": 8, "label": "8.0–10.6 yr", "color": "#31a354" }, "geometry": { "type": "Point", "coordinates": [ 39.2280173, -6.8409436 ] } },
{ "type": "Feature", "properties": { "index": "50", "last_edit_year": 2024, "years_since_edit": 2, "label": "2.0–5.8 yr", "color": "#c2e699" }, "geometry": { "type": "Point", "coordinates": [ 39.2902445, -6.8084492 ] } },
{ "type": "Feature", "properties": { "index": "51", "last_edit_year": 2025, "years_since_edit": 1, "label": "0.0–2.0 yr", "color": "#ffc" }, "geometry": { "type": "Point", "coordinates": [ 39.2406276, -6.8089321 ] } }
]
}
