{
"type": "FeatureCollection",
"features": [
{ "type": "Feature", "properties": { "index": "0", "@osmId": "relation/5604750", "name": "Bassin Jacques Cœur", "opening_hours": null, "label": "Cool places", "color": "#3182bd" }, "geometry": { "type": "Point", "coordinates": [ 3.9002866, 43.600093 ] } },
{ "type": "Feature", "properties": { "index": "1", "@osmId": "relation/3186606", "name": "Jardins du Peyrou", "opening_hours": null, "label": "Cool places", "color": "#3182bd" }, "geometry": { "type": "Point", "coordinates": [ 3.8700366, 43.611312 ] } },
{ "type": "Feature", "properties": { "index": "2", "@osmId": "way/22940347", "name": "Parc Rimbaud", "opening_hours": null, "label": "Cool places", "color": "#3182bd" }, "geometry": { "type": "Point", "coordinates": [ 3.8949065, 43.6180703 ] } },
{ "type": "Feature", "properties": { "index": "3", "@osmId": "way/23232712", "name": "Parc Magnol", "opening_hours": null, "label": "Cool places", "color": "#3182bd" }, "geometry": { "type": "Point", "coordinates": [ 3.8631644, 43.6173228 ] } },
{ "type": "Feature", "properties": { "index": "4", "@osmId": "way/60201500", "name": "Église Sainte-Jeanne d'Arc", "opening_hours": null, "label": "Cool places", "color": "#3182bd" }, "geometry": { "type": "Point", "coordinates": [ 3.8914575, 43.6175169 ] } },
{ "type": "Feature", "properties": { "index": "5", "@osmId": "way/103661125", "name": null, "opening_hours": null, "label": "Cool places", "color": "#3182bd" }, "geometry": { "type": "Point", "coordinates": [ 3.8992306, 43.6226079 ] } },
{ "type": "Feature", "properties": { "index": "6", "@osmId": "way/290507792", "name": "Parc des Pastourelles", "opening_hours": null, "label": "Cool places", "color": "#3182bd" }, "geometry": { "type": "Point", "coordinates": [ 3.8999008, 43.6211362 ] } },
{ "type": "Feature", "properties": { "index": "7", "@osmId": "way/388511466", "name": "Square du cadran solaire", "opening_hours": null, "label": "Cool places", "color": "#3182bd" }, "geometry": { "type": "Point", "coordinates": [ 3.9007102, 43.6197683 ] } },
{ "type": "Feature", "properties": { "index": "8", "@osmId": "way/12871886", "name": "Parc Sainte-Odile", "opening_hours": null, "label": "Cool places", "color": "#3182bd" }, "geometry": { "type": "Point", "coordinates": [ 3.8722724, 43.6239591 ] } },
{ "type": "Feature", "properties": { "index": "9", "@osmId": "way/14882681", "name": "Parc Edith Piaf", "opening_hours": null, "label": "Cool places", "color": "#3182bd" }, "geometry": { "type": "Point", "coordinates": [ 3.8883543, 43.6218967 ] } },
{ "type": "Feature", "properties": { "index": "10", "@osmId": "way/17921136", "name": "Esplanade de la Musique", "opening_hours": null, "label": "Cool places", "color": "#3182bd" }, "geometry": { "type": "Point", "coordinates": [ 3.8821649, 43.6167808 ] } },
{ "type": "Feature", "properties": { "index": "11", "@osmId": "way/22913747", "name": "Médiathèque centrale Émile Zola", "opening_hours": "Mo off; Tu 12:00-19:00; We 10:00-19:00; Th 12:00-21:00; Fr 12:00-19:00; Sa 10:00-18:30; Su 14:30-18:00", "label": "Cool places", "color": "#3182bd" }, "geometry": { "type": "Point", "coordinates": [ 3.8933029, 43.6084043 ] } },
{ "type": "Feature", "properties": { "index": "12", "@osmId": "way/25677040", "name": "Place des Patriotes", "opening_hours": null, "label": "Cool places", "color": "#3182bd" }, "geometry": { "type": "Point", "coordinates": [ 3.8937374, 43.6016564 ] } },
{ "type": "Feature", "properties": { "index": "13", "@osmId": "way/60436054", "name": "Église Saint-Léon", "opening_hours": null, "label": "Cool places", "color": "#3182bd" }, "geometry": { "type": "Point", "coordinates": [ 3.8809653, 43.6186997 ] } },
{ "type": "Feature", "properties": { "index": "14", "@osmId": "way/75130283", "name": "Église Don Bosco", "opening_hours": null, "label": "Cool places", "color": "#3182bd" }, "geometry": { "type": "Point", "coordinates": [ 3.8902311, 43.6073799 ] } },
{ "type": "Feature", "properties": { "index": "15", "@osmId": "way/76169365", "name": "Bibliothèque universitaire de Richter", "opening_hours": null, "label": "Cool places", "color": "#3182bd" }, "geometry": { "type": "Point", "coordinates": [ 3.8987105, 43.605032 ] } },
{ "type": "Feature", "properties": { "index": "16", "@osmId": "way/76169444", "name": "Église évangélique de Pentecôte", "opening_hours": null, "label": "Cool places", "color": "#3182bd" }, "geometry": { "type": "Point", "coordinates": [ 3.9016708, 43.6051443 ] } },
{ "type": "Feature", "properties": { "index": "17", "@osmId": "way/159340845", "name": null, "opening_hours": null, "label": "Cool places", "color": "#3182bd" }, "geometry": { "type": "Point", "coordinates": [ 3.8950846, 43.6031174 ] } },
{ "type": "Feature", "properties": { "index": "18", "@osmId": "way/228053349", "name": "Parc du Mas de Costebelle", "opening_hours": null, "label": "Cool places", "color": "#3182bd" }, "geometry": { "type": "Point", "coordinates": [ 3.901938, 43.610563 ] } },
{ "type": "Feature", "properties": { "index": "19", "@osmId": "way/235641857", "name": "Parc Georges Charpak", "opening_hours": null, "label": "Cool places", "color": "#3182bd" }, "geometry": { "type": "Point", "coordinates": [ 3.9038633, 43.6007401 ] } },
{ "type": "Feature", "properties": { "index": "20", "@osmId": "way/377463400", "name": "Parc Richter", "opening_hours": null, "label": "Cool places", "color": "#3182bd" }, "geometry": { "type": "Point", "coordinates": [ 3.8969278, 43.6027471 ] } },
{ "type": "Feature", "properties": { "index": "21", "@osmId": "way/433249425", "name": "Parc Urbain ouest", "opening_hours": null, "label": "Cool places", "color": "#3182bd" }, "geometry": { "type": "Point", "coordinates": [ 3.9045241, 43.6077285 ] } },
{ "type": "Feature", "properties": { "index": "22", "@osmId": "way/455743605", "name": "Parc Richter", "opening_hours": null, "label": "Cool places", "color": "#3182bd" }, "geometry": { "type": "Point", "coordinates": [ 3.8978537, 43.6049967 ] } },
{ "type": "Feature", "properties": { "index": "23", "@osmId": "way/674927517", "name": null, "opening_hours": null, "label": "Cool places", "color": "#3182bd" }, "geometry": { "type": "Point", "coordinates": [ 3.9026104, 43.6015017 ] } },
{ "type": "Feature", "properties": { "index": "24", "@osmId": "way/728327871", "name": null, "opening_hours": null, "label": "Cool places", "color": "#3182bd" }, "geometry": { "type": "Point", "coordinates": [ 3.8942571, 43.6034332 ] } },
{ "type": "Feature", "properties": { "index": "25", "@osmId": "way/76198901", "name": "Église Saint-François de la Pierre-Rouge, de l'enclos Saint-François", "opening_hours": null, "label": "Cool places", "color": "#3182bd" }, "geometry": { "type": "Point", "coordinates": [ 3.8823091, 43.6202911 ] } },
{ "type": "Feature", "properties": { "index": "26", "@osmId": "way/129749172", "name": "Jardin des Beaux-Arts", "opening_hours": "Mo-Su 08:00-23:00", "label": "Cool places", "color": "#3182bd" }, "geometry": { "type": "Point", "coordinates": [ 3.8838529, 43.6159964 ] } },
{ "type": "Feature", "properties": { "index": "27", "@osmId": "way/149425256", "name": "Square Camille Ernst", "opening_hours": null, "label": "Cool places", "color": "#3182bd" }, "geometry": { "type": "Point", "coordinates": [ 3.8785874, 43.6185564 ] } },
{ "type": "Feature", "properties": { "index": "28", "@osmId": "way/156452571", "name": "Square Charles Flahault", "opening_hours": null, "label": "Cool places", "color": "#3182bd" }, "geometry": { "type": "Point", "coordinates": [ 3.8785201, 43.61706 ] } },
{ "type": "Feature", "properties": { "index": "29", "@osmId": "way/31339324", "name": "Parc Montcalm", "opening_hours": "Jan-Feb Mo-Su 08:00-17:30; Mar-May Mo-Su 08:00-20:00; Jun-Aug Mo-Su 08:00-21:00; Sep-Oct Mo-Su 08:00-20:00; Nov-Dec Mo-Su 08:00-17:30", "label": "Cool places", "color": "#3182bd" }, "geometry": { "type": "Point", "coordinates": [ 3.8592214, 43.6000897 ] } },
{ "type": "Feature", "properties": { "index": "30", "@osmId": "way/31437736", "name": "Parc de la Guirlande", "opening_hours": "07:30-21:00", "label": "Cool places", "color": "#3182bd" }, "geometry": { "type": "Point", "coordinates": [ 3.8605919, 43.6072377 ] } },
{ "type": "Feature", "properties": { "index": "31", "@osmId": "way/60962376", "name": "Square de Diane", "opening_hours": null, "label": "Cool places", "color": "#3182bd" }, "geometry": { "type": "Point", "coordinates": [ 3.8600526, 43.6000343 ] } },
{ "type": "Feature", "properties": { "index": "32", "@osmId": "way/166162797", "name": "Chapelle des Carmes", "opening_hours": null, "label": "Cool places", "color": "#3182bd" }, "geometry": { "type": "Point", "coordinates": [ 3.8715853, 43.6198294 ] } },
{ "type": "Feature", "properties": { "index": "33", "@osmId": "way/75395677", "name": "Église de l'Immaculée Conception", "opening_hours": null, "label": "Cool places", "color": "#3182bd" }, "geometry": { "type": "Point", "coordinates": [ 3.8667262, 43.606478 ] } },
{ "type": "Feature", "properties": { "index": "34", "@osmId": "way/1059558030", "name": "Square Christine Boumeester", "opening_hours": null, "label": "Cool places", "color": "#3182bd" }, "geometry": { "type": "Point", "coordinates": [ 3.8673133, 43.6217132 ] } },
{ "type": "Feature", "properties": { "index": "35", "@osmId": "way/75780921", "name": "Église Sainte-Thérèse de Lisieux", "opening_hours": null, "label": "Cool places", "color": "#3182bd" }, "geometry": { "type": "Point", "coordinates": [ 3.8644205, 43.6154342 ] } },
{ "type": "Feature", "properties": { "index": "36", "@osmId": "way/110676928", "name": "Square du Père Bonnet", "opening_hours": null, "label": "Cool places", "color": "#3182bd" }, "geometry": { "type": "Point", "coordinates": [ 3.866192, 43.6068378 ] } },
{ "type": "Feature", "properties": { "index": "37", "@osmId": "way/124190975", "name": "Square des Arceaux", "opening_hours": null, "label": "Cool places", "color": "#3182bd" }, "geometry": { "type": "Point", "coordinates": [ 3.8611, 43.6119647 ] } },
{ "type": "Feature", "properties": { "index": "38", "@osmId": "way/433033047", "name": "Square Maquis Bir-hakeim", "opening_hours": null, "label": "Cool places", "color": "#3182bd" }, "geometry": { "type": "Point", "coordinates": [ 3.8584834, 43.6111191 ] } },
{ "type": "Feature", "properties": { "index": "39", "@osmId": "way/433245944", "name": "Square Figuerolles", "opening_hours": null, "label": "Cool places", "color": "#3182bd" }, "geometry": { "type": "Point", "coordinates": [ 3.8615899, 43.6060934 ] } },
{ "type": "Feature", "properties": { "index": "40", "@osmId": "way/543507368", "name": "Square de la Libération", "opening_hours": null, "label": "Cool places", "color": "#3182bd" }, "geometry": { "type": "Point", "coordinates": [ 3.8578608, 43.6106861 ] } },
{ "type": "Feature", "properties": { "index": "41", "@osmId": "way/552095218", "name": null, "opening_hours": null, "label": "Cool places", "color": "#3182bd" }, "geometry": { "type": "Point", "coordinates": [ 3.8631918, 43.6080698 ] } },
{ "type": "Feature", "properties": { "index": "42", "@osmId": "way/1000772508", "name": "Square Abbé Coursindel", "opening_hours": null, "label": "Cool places", "color": "#3182bd" }, "geometry": { "type": "Point", "coordinates": [ 3.8640593, 43.6072951 ] } },
{ "type": "Feature", "properties": { "index": "43", "@osmId": "way/170970757", "name": "Chapelle des Petites Sœurs des Pauvres", "opening_hours": null, "label": "Cool places", "color": "#3182bd" }, "geometry": { "type": "Point", "coordinates": [ 3.8772161, 43.6166296 ] } },
{ "type": "Feature", "properties": { "index": "44", "@osmId": "way/411703732", "name": "Square de la Rue des Loutres", "opening_hours": null, "label": "Cool places", "color": "#3182bd" }, "geometry": { "type": "Point", "coordinates": [ 3.8768842, 43.6239716 ] } },
{ "type": "Feature", "properties": { "index": "45", "@osmId": "way/8105305", "name": "Jardin des Plantes", "opening_hours": "Oct-May: Tu-Su 12:00-18:00; Jun-Sep: Tu-Su 12:00-20:00", "label": "Cool places", "color": "#3182bd" }, "geometry": { "type": "Point", "coordinates": [ 3.8718541, 43.6141754 ] } },
{ "type": "Feature", "properties": { "index": "46", "@osmId": "way/8597466", "name": "Square Planchon", "opening_hours": null, "label": "Cool places", "color": "#3182bd" }, "geometry": { "type": "Point", "coordinates": [ 3.8799245, 43.6055553 ] } },
{ "type": "Feature", "properties": { "index": "47", "@osmId": "way/8597467", "name": "Jardin des cinq continents, Parc Emmanuel Roblès", "opening_hours": null, "label": "Cool places", "color": "#3182bd" }, "geometry": { "type": "Point", "coordinates": [ 3.8787602, 43.6059928 ] } },
{ "type": "Feature", "properties": { "index": "48", "@osmId": "way/8599077", "name": "Jardins du Champ de Mars", "opening_hours": null, "label": "Cool places", "color": "#3182bd" }, "geometry": { "type": "Point", "coordinates": [ 3.8822423, 43.6112223 ] } },
{ "type": "Feature", "properties": { "index": "49", "@osmId": "way/10067843", "name": "Jardin archéologique des potiers", "opening_hours": null, "label": "Cool places", "color": "#3182bd" }, "geometry": { "type": "Point", "coordinates": [ 3.8812303, 43.613759 ] } },
{ "type": "Feature", "properties": { "index": "50", "@osmId": "way/23638864", "name": "Square Jean Monnet", "opening_hours": null, "label": "Cool places", "color": "#3182bd" }, "geometry": { "type": "Point", "coordinates": [ 3.8891505, 43.604116 ] } },
{ "type": "Feature", "properties": { "index": "51", "@osmId": "way/25534782", "name": "Parc René Dumont", "opening_hours": "Mo-Su 08:00-20:00", "label": "Cool places", "color": "#3182bd" }, "geometry": { "type": "Point", "coordinates": [ 3.8759619, 43.6010865 ] } },
{ "type": "Feature", "properties": { "index": "52", "@osmId": "way/25741111", "name": "Square de Marathon", "opening_hours": null, "label": "Cool places", "color": "#3182bd" }, "geometry": { "type": "Point", "coordinates": [ 3.8895508, 43.6075962 ] } },
{ "type": "Feature", "properties": { "index": "53", "@osmId": "way/26930621", "name": "Espaces des Pertuisanes", "opening_hours": null, "label": "Cool places", "color": "#3182bd" }, "geometry": { "type": "Point", "coordinates": [ 3.8861396, 43.6077234 ] } },
{ "type": "Feature", "properties": { "index": "54", "@osmId": "way/27817003", "name": "Parc Georges Clemenceau", "opening_hours": null, "label": "Cool places", "color": "#3182bd" }, "geometry": { "type": "Point", "coordinates": [ 3.871733, 43.6041145 ] } },
{ "type": "Feature", "properties": { "index": "55", "@osmId": "way/35465288", "name": "Jardin de l'Hôtel de Sully", "opening_hours": "Mo-Fr 09:00-12:00, 14:00-17:00", "label": "Cool places", "color": "#3182bd" }, "geometry": { "type": "Point", "coordinates": [ 3.8807325, 43.6132116 ] } },
{ "type": "Feature", "properties": { "index": "56", "@osmId": "way/48274235", "name": "Place François Jaumes", "opening_hours": null, "label": "Cool places", "color": "#3182bd" }, "geometry": { "type": "Point", "coordinates": [ 3.8841746, 43.605421 ] } },
{ "type": "Feature", "properties": { "index": "57", "@osmId": "way/532679205", "name": "Maison diocésaine Villa Maguelone", "opening_hours": null, "label": "Cool places", "color": "#3182bd" }, "geometry": { "type": "Point", "coordinates": [ 3.887815, 43.6232921 ] } },
{ "type": "Feature", "properties": { "index": "58", "@osmId": "way/75040019", "name": "Église des Saints-François", "opening_hours": "closed \"Temporarily closed\"", "label": "Cool places", "color": "#3182bd" }, "geometry": { "type": "Point", "coordinates": [ 3.8831824, 43.6030027 ] } },
{ "type": "Feature", "properties": { "index": "59", "@osmId": "way/75247315", "name": null, "opening_hours": null, "label": "Cool places", "color": "#3182bd" }, "geometry": { "type": "Point", "coordinates": [ 3.889376, 43.6132199 ] } },
{ "type": "Feature", "properties": { "index": "60", "@osmId": "way/543185526", "name": "Chapelle Notre-Dame de Lourdes", "opening_hours": null, "label": "Cool places", "color": "#3182bd" }, "geometry": { "type": "Point", "coordinates": [ 3.8698801, 43.6204648 ] } },
{ "type": "Feature", "properties": { "index": "61", "@osmId": "way/552145109", "name": "Place Albin Tixador", "opening_hours": null, "label": "Cool places", "color": "#3182bd" }, "geometry": { "type": "Point", "coordinates": [ 3.8831879, 43.6174064 ] } },
{ "type": "Feature", "properties": { "index": "62", "@osmId": "way/75263875", "name": "Chapelle des Augustins", "opening_hours": null, "label": "Cool places", "color": "#3182bd" }, "geometry": { "type": "Point", "coordinates": [ 3.8798014, 43.6104402 ] } },
{ "type": "Feature", "properties": { "index": "63", "@osmId": "way/75264238", "name": "Chapelle Sainte-Foy des Pénitents Blancs", "opening_hours": null, "label": "Cool places", "color": "#3182bd" }, "geometry": { "type": "Point", "coordinates": [ 3.8794993, 43.6096526 ] } },
{ "type": "Feature", "properties": { "index": "64", "@osmId": "way/667055642", "name": "Musée d'Art Brut", "opening_hours": null, "label": "Cool places", "color": "#3182bd" }, "geometry": { "type": "Point", "coordinates": [ 3.8822813, 43.6184504 ] } },
{ "type": "Feature", "properties": { "index": "65", "@osmId": "way/674933361", "name": "Square des Castors", "opening_hours": null, "label": "Cool places", "color": "#3182bd" }, "geometry": { "type": "Point", "coordinates": [ 3.8763798, 43.6233356 ] } },
{ "type": "Feature", "properties": { "index": "66", "@osmId": "way/996878051", "name": "Parc Suzanne-Babut", "opening_hours": null, "label": "Cool places", "color": "#3182bd" }, "geometry": { "type": "Point", "coordinates": [ 3.8757759, 43.6180725 ] } },
{ "type": "Feature", "properties": { "index": "67", "@osmId": "way/75274846", "name": "Temple Maguelone", "opening_hours": null, "label": "Cool places", "color": "#3182bd" }, "geometry": { "type": "Point", "coordinates": [ 3.8806177, 43.6058251 ] } },
{ "type": "Feature", "properties": { "index": "68", "@osmId": "way/75279091", "name": "Chapelle des Pénitents Bleus", "opening_hours": null, "label": "Cool places", "color": "#3182bd" }, "geometry": { "type": "Point", "coordinates": [ 3.8776134, 43.6071808 ] } },
{ "type": "Feature", "properties": { "index": "69", "@osmId": "way/75319947", "name": "Ancienne chapelle de la Visitation", "opening_hours": null, "label": "Cool places", "color": "#3182bd" }, "geometry": { "type": "Point", "coordinates": [ 3.8770691, 43.6142425 ] } },
{ "type": "Feature", "properties": { "index": "70", "@osmId": "way/75320200", "name": "Église Saint-Matthieu", "opening_hours": null, "label": "Cool places", "color": "#3182bd" }, "geometry": { "type": "Point", "coordinates": [ 3.8777763, 43.6125626 ] } },
{ "type": "Feature", "properties": { "index": "71", "@osmId": "way/75320213", "name": "Basilique Notre-Dame des Tables", "opening_hours": null, "label": "Cool places", "color": "#3182bd" }, "geometry": { "type": "Point", "coordinates": [ 3.8795687, 43.6120339 ] } },
{ "type": "Feature", "properties": { "index": "72", "@osmId": "way/75383109", "name": "Église Sainte-Eulalie", "opening_hours": null, "label": "Cool places", "color": "#3182bd" }, "geometry": { "type": "Point", "coordinates": [ 3.8704211, 43.6095436 ] } },
{ "type": "Feature", "properties": { "index": "73", "@osmId": "way/75396839", "name": "Église Saint-Denis", "opening_hours": null, "label": "Cool places", "color": "#3182bd" }, "geometry": { "type": "Point", "coordinates": [ 3.8747874, 43.6049958 ] } },
{ "type": "Feature", "properties": { "index": "74", "@osmId": "way/75398222", "name": "Mosquée En-Nour", "opening_hours": null, "label": "Cool places", "color": "#3182bd" }, "geometry": { "type": "Point", "coordinates": [ 3.869495, 43.6055765 ] } },
{ "type": "Feature", "properties": { "index": "75", "@osmId": "way/75398318", "name": "Temple Brueys", "opening_hours": null, "label": "Cool places", "color": "#3182bd" }, "geometry": { "type": "Point", "coordinates": [ 3.8735866, 43.6054892 ] } },
{ "type": "Feature", "properties": { "index": "76", "@osmId": "way/78195773", "name": "Square de la Tour des Pins", "opening_hours": null, "label": "Cool places", "color": "#3182bd" }, "geometry": { "type": "Point", "coordinates": [ 3.8737493, 43.614002 ] } },
{ "type": "Feature", "properties": { "index": "77", "@osmId": "way/83601954", "name": "Polygone", "opening_hours": null, "label": "Cool places", "color": "#3182bd" }, "geometry": { "type": "Point", "coordinates": [ 3.8848435, 43.608422 ] } },
{ "type": "Feature", "properties": { "index": "78", "@osmId": "way/110521269", "name": "Square de l'Intendance du Languedoc", "opening_hours": null, "label": "Cool places", "color": "#3182bd" }, "geometry": { "type": "Point", "coordinates": [ 3.8759736, 43.612339 ] } },
{ "type": "Feature", "properties": { "index": "79", "@osmId": "way/110521621", "name": "Plan Cavaillé Coll", "opening_hours": null, "label": "Cool places", "color": "#3182bd" }, "geometry": { "type": "Point", "coordinates": [ 3.8784845, 43.613511 ] } },
{ "type": "Feature", "properties": { "index": "80", "@osmId": "way/116984605", "name": "Jardin de la Reine", "opening_hours": null, "label": "Cool places", "color": "#3182bd" }, "geometry": { "type": "Point", "coordinates": [ 3.870185, 43.6133703 ] } },
{ "type": "Feature", "properties": { "index": "81", "@osmId": "way/181565280", "name": "Square Dominique Bagouet", "opening_hours": null, "label": "Cool places", "color": "#3182bd" }, "geometry": { "type": "Point", "coordinates": [ 3.8761182, 43.6086816 ] } },
{ "type": "Feature", "properties": { "index": "82", "@osmId": "way/195749636", "name": "Square Théophraste Renaudot", "opening_hours": null, "label": "Cool places", "color": "#3182bd" }, "geometry": { "type": "Point", "coordinates": [ 3.8757543, 43.6149779 ] } },
{ "type": "Feature", "properties": { "index": "83", "@osmId": "way/272804945", "name": "Cathédrale Saint-Pierre", "opening_hours": "Mo-Su 10:45-11:45,14:30-18:00", "label": "Cool places", "color": "#3182bd" }, "geometry": { "type": "Point", "coordinates": [ 3.8740327, 43.6133276 ] } },
{ "type": "Feature", "properties": { "index": "84", "@osmId": "way/273288906", "name": "Église Saint-Roch", "opening_hours": null, "label": "Cool places", "color": "#3182bd" }, "geometry": { "type": "Point", "coordinates": [ 3.8758702, 43.608696 ] } },
{ "type": "Feature", "properties": { "index": "85", "@osmId": "way/433245937", "name": "Square Saint-Cléophas", "opening_hours": null, "label": "Cool places", "color": "#3182bd" }, "geometry": { "type": "Point", "coordinates": [ 3.8676123, 43.6002261 ] } },
{ "type": "Feature", "properties": { "index": "86", "@osmId": "way/433272720", "name": "Square de la Providence", "opening_hours": null, "label": "Cool places", "color": "#3182bd" }, "geometry": { "type": "Point", "coordinates": [ 3.8754301, 43.6138664 ] } },
{ "type": "Feature", "properties": { "index": "87", "@osmId": "way/433272721", "name": "Square Louis Boffet", "opening_hours": null, "label": "Cool places", "color": "#3182bd" }, "geometry": { "type": "Point", "coordinates": [ 3.8749247, 43.6136614 ] } },
{ "type": "Feature", "properties": { "index": "88", "@osmId": "way/433272722", "name": "Jardin des Arceaux", "opening_hours": null, "label": "Cool places", "color": "#3182bd" }, "geometry": { "type": "Point", "coordinates": [ 3.8680145, 43.6113321 ] } },
{ "type": "Feature", "properties": { "index": "89", "@osmId": "way/480210780", "name": "Jardin de la Panacée", "opening_hours": null, "label": "Cool places", "color": "#3182bd" }, "geometry": { "type": "Point", "coordinates": [ 3.8780906, 43.6128159 ] } },
{ "type": "Feature", "properties": { "index": "90", "@osmId": "way/615932591", "name": "Promenade du Peyrou", "opening_hours": "07:00-20:00; Mar-May,Sep,Oct 07:00-21:30; Jun-Aug 07:00-00:00", "label": "Cool places", "color": "#3182bd" }, "geometry": { "type": "Point", "coordinates": [ 3.8700358, 43.6113121 ] } },
{ "type": "Feature", "properties": { "index": "91", "@osmId": "way/1057106429", "name": "Chapelle Saint-Charles", "opening_hours": null, "label": "Cool places", "color": "#3182bd" }, "geometry": { "type": "Point", "coordinates": [ 3.8740625, 43.6158353 ] } },
{ "type": "Feature", "properties": { "index": "92", "@osmId": "way/1089425502", "name": null, "opening_hours": null, "label": "Cool places", "color": "#3182bd" }, "geometry": { "type": "Point", "coordinates": [ 3.8866753, 43.6030821 ] } },
{ "type": "Feature", "properties": { "index": "93", "@osmId": "way/1451459370", "name": "Square forain", "opening_hours": null, "label": "Cool places", "color": "#3182bd" }, "geometry": { "type": "Point", "coordinates": [ 3.8815954, 43.6097546 ] } },
{ "type": "Feature", "properties": { "index": "94", "@osmId": "node/251346688", "name": "Église de l'ancien couvent des Sœurs de Saint-Joseph", "opening_hours": null, "label": "Cool places", "color": "#3182bd" }, "geometry": { "type": "Point", "coordinates": [ 3.8689858, 43.6134209 ] } },
{ "type": "Feature", "properties": { "index": "95", "@osmId": "node/579783609", "name": "Synagogue Mazal Tov", "opening_hours": null, "label": "Cool places", "color": "#3182bd" }, "geometry": { "type": "Point", "coordinates": [ 3.8785566, 43.6175488 ] } },
{ "type": "Feature", "properties": { "index": "96", "@osmId": "node/611601643", "name": "Église Orthodoxe", "opening_hours": null, "label": "Cool places", "color": "#3182bd" }, "geometry": { "type": "Point", "coordinates": [ 3.8769363, 43.6089025 ] } },
{ "type": "Feature", "properties": { "index": "97", "@osmId": "node/635867540", "name": "Librairie Juridique des Étudiants", "opening_hours": "Mo-Fr 09:00-19:00", "label": "Cool places", "color": "#3182bd" }, "geometry": { "type": "Point", "coordinates": [ 3.8771451, 43.613544 ] } },
{ "type": "Feature", "properties": { "index": "98", "@osmId": "node/1165324328", "name": "Musée Languedocien", "opening_hours": null, "label": "Cool places", "color": "#3182bd" }, "geometry": { "type": "Point", "coordinates": [ 3.8791384, 43.6095397 ] } },
{ "type": "Feature", "properties": { "index": "99", "@osmId": "node/1614311612", "name": "Bibliothèque universitaire Montpellier 3 : Site de Saint-Charles", "opening_hours": "Oct-May: Mo-Fr 09:00-21:00; Oct-May: Sa 09:00-17:00; Jun: Mo-Fr 09:00-18:00; Jul: Mo-Fr 09:00-16:00", "label": "Cool places", "color": "#3182bd" }, "geometry": { "type": "Point", "coordinates": [ 3.8735835, 43.6161721 ] } },
{ "type": "Feature", "properties": { "index": "100", "@osmId": "node/1624095376", "name": "Bibliothèque pour Tous", "opening_hours": "Tu,We,Fr,Sa 10:00-12:00", "label": "Cool places", "color": "#3182bd" }, "geometry": { "type": "Point", "coordinates": [ 3.8736884, 43.6195005 ] } },
{ "type": "Feature", "properties": { "index": "101", "@osmId": "node/1756984369", "name": null, "opening_hours": null, "label": "Cool places", "color": "#3182bd" }, "geometry": { "type": "Point", "coordinates": [ 3.8989028, 43.6049592 ] } },
{ "type": "Feature", "properties": { "index": "102", "@osmId": "node/2296504346", "name": "International Chapel", "opening_hours": null, "label": "Cool places", "color": "#3182bd" }, "geometry": { "type": "Point", "coordinates": [ 3.8840466, 43.6146254 ] } },
{ "type": "Feature", "properties": { "index": "103", "@osmId": "node/4401150535", "name": "Archives Municipales", "opening_hours": "Mo-Fr 10:00-17:00", "label": "Cool places", "color": "#3182bd" }, "geometry": { "type": "Point", "coordinates": [ 3.8936898, 43.608388 ] } },
{ "type": "Feature", "properties": { "index": "104", "@osmId": "node/4402339752", "name": "Pharmacie et Chapelle de la Miséricorde", "opening_hours": null, "label": "Cool places", "color": "#3182bd" }, "geometry": { "type": "Point", "coordinates": [ 3.8792357, 43.6107381 ] } },
{ "type": "Feature", "properties": { "index": "105", "@osmId": "node/5107691934", "name": "CDI", "opening_hours": null, "label": "Cool places", "color": "#3182bd" }, "geometry": { "type": "Point", "coordinates": [ 3.8864352, 43.6108232 ] } },
{ "type": "Feature", "properties": { "index": "106", "@osmId": "node/5115528140", "name": "CDI", "opening_hours": null, "label": "Cool places", "color": "#3182bd" }, "geometry": { "type": "Point", "coordinates": [ 3.8905405, 43.6109387 ] } },
{ "type": "Feature", "properties": { "index": "107", "@osmId": "node/11360708448", "name": "Synagogue Beth Menahem Mendel Lubavitch", "opening_hours": null, "label": "Cool places", "color": "#3182bd" }, "geometry": { "type": "Point", "coordinates": [ 3.8741317, 43.6002374 ] } },
{ "type": "Feature", "properties": { "index": "108", "@osmId": "node/11360708454", "name": "Grande synagogue Ben Zakaï", "opening_hours": null, "label": "Cool places", "color": "#3182bd" }, "geometry": { "type": "Point", "coordinates": [ 3.8763486, 43.6046765 ] } },
{ "type": "Feature", "properties": { "index": "109", "@osmId": "node/12505089948", "name": "Centre de Ressources Documentaires", "opening_hours": "Mo 12:00-17:30; Tu-We 08:30-17:30; Th-Fr 09:30-17:30; PH off", "label": "Cool places", "color": "#3182bd" }, "geometry": { "type": "Point", "coordinates": [ 3.868639, 43.620201 ] } },
{ "type": "Feature", "properties": { "index": "110", "@osmId": "node/13355592606", "name": "Médiathèque de la Cité des Arts", "opening_hours": null, "label": "Cool places", "color": "#3182bd" }, "geometry": { "type": "Point", "coordinates": [ 3.8679892, 43.622134 ] } },
{ "type": "Feature", "properties": { "index": "111", "@osmId": "node/1732258303", "name": null, "opening_hours": null, "label": "Drinking water", "color": "#31a354" }, "geometry": { "type": "Point", "coordinates": [ 3.8632206, 43.6172973 ] } },
{ "type": "Feature", "properties": { "index": "112", "@osmId": "node/4322996564", "name": null, "opening_hours": null, "label": "Drinking water", "color": "#31a354" }, "geometry": { "type": "Point", "coordinates": [ 3.8584426, 43.611069 ] } },
{ "type": "Feature", "properties": { "index": "113", "@osmId": "node/4325169935", "name": null, "opening_hours": null, "label": "Drinking water", "color": "#31a354" }, "geometry": { "type": "Point", "coordinates": [ 3.8660775, 43.6069015 ] } },
{ "type": "Feature", "properties": { "index": "114", "@osmId": "node/4821413624", "name": null, "opening_hours": null, "label": "Drinking water", "color": "#31a354" }, "geometry": { "type": "Point", "coordinates": [ 3.8624323, 43.6219895 ] } },
{ "type": "Feature", "properties": { "index": "115", "@osmId": "node/7899529886", "name": null, "opening_hours": null, "label": "Drinking water", "color": "#31a354" }, "geometry": { "type": "Point", "coordinates": [ 3.8612791, 43.6120295 ] } },
{ "type": "Feature", "properties": { "index": "116", "@osmId": "node/9842769523", "name": null, "opening_hours": null, "label": "Drinking water", "color": "#31a354" }, "geometry": { "type": "Point", "coordinates": [ 3.8618612, 43.6117881 ] } },
{ "type": "Feature", "properties": { "index": "117", "@osmId": "node/12071300546", "name": null, "opening_hours": null, "label": "Drinking water", "color": "#31a354" }, "geometry": { "type": "Point", "coordinates": [ 3.8670227, 43.621895 ] } },
{ "type": "Feature", "properties": { "index": "118", "@osmId": "node/500956862", "name": null, "opening_hours": null, "label": "Drinking water", "color": "#31a354" }, "geometry": { "type": "Point", "coordinates": [ 3.8719821, 43.6041743 ] } },
{ "type": "Feature", "properties": { "index": "119", "@osmId": "node/1732258061", "name": null, "opening_hours": null, "label": "Drinking water", "color": "#31a354" }, "geometry": { "type": "Point", "coordinates": [ 3.88948, 43.6076035 ] } },
{ "type": "Feature", "properties": { "index": "120", "@osmId": "node/1732258183", "name": null, "opening_hours": null, "label": "Drinking water", "color": "#31a354" }, "geometry": { "type": "Point", "coordinates": [ 3.8937304, 43.6016 ] } },
{ "type": "Feature", "properties": { "index": "121", "@osmId": "node/1732258193", "name": null, "opening_hours": null, "label": "Drinking water", "color": "#31a354" }, "geometry": { "type": "Point", "coordinates": [ 3.8891991, 43.6040261 ] } },
{ "type": "Feature", "properties": { "index": "122", "@osmId": "node/1732258244", "name": null, "opening_hours": null, "label": "Drinking water", "color": "#31a354" }, "geometry": { "type": "Point", "coordinates": [ 3.8772545, 43.6063976 ] } },
{ "type": "Feature", "properties": { "index": "123", "@osmId": "node/1732258255", "name": null, "opening_hours": null, "label": "Drinking water", "color": "#31a354" }, "geometry": { "type": "Point", "coordinates": [ 3.8825895, 43.6102849 ] } },
{ "type": "Feature", "properties": { "index": "124", "@osmId": "node/1732286148", "name": null, "opening_hours": null, "label": "Drinking water", "color": "#31a354" }, "geometry": { "type": "Point", "coordinates": [ 3.8706599, 43.6108055 ] } },
{ "type": "Feature", "properties": { "index": "125", "@osmId": "node/1732286186", "name": null, "opening_hours": null, "label": "Drinking water", "color": "#31a354" }, "geometry": { "type": "Point", "coordinates": [ 3.8737843, 43.6140054 ] } },
{ "type": "Feature", "properties": { "index": "126", "@osmId": "node/1732286190", "name": null, "opening_hours": null, "label": "Drinking water", "color": "#31a354" }, "geometry": { "type": "Point", "coordinates": [ 3.8756478, 43.6149999 ] } },
{ "type": "Feature", "properties": { "index": "127", "@osmId": "node/1732286222", "name": null, "opening_hours": null, "label": "Drinking water", "color": "#31a354" }, "geometry": { "type": "Point", "coordinates": [ 3.8786293, 43.6170992 ] } },
{ "type": "Feature", "properties": { "index": "128", "@osmId": "node/1732286244", "name": null, "opening_hours": null, "label": "Drinking water", "color": "#31a354" }, "geometry": { "type": "Point", "coordinates": [ 3.8994416, 43.6208997 ] } },
{ "type": "Feature", "properties": { "index": "129", "@osmId": "node/1732286246", "name": null, "opening_hours": null, "label": "Drinking water", "color": "#31a354" }, "geometry": { "type": "Point", "coordinates": [ 3.8885295, 43.6222997 ] } },
{ "type": "Feature", "properties": { "index": "130", "@osmId": "node/1732286250", "name": null, "opening_hours": null, "label": "Drinking water", "color": "#31a354" }, "geometry": { "type": "Point", "coordinates": [ 3.8722725, 43.6242055 ] } },
{ "type": "Feature", "properties": { "index": "131", "@osmId": "node/1794779701", "name": "Rue Brumaire", "opening_hours": null, "label": "Drinking water", "color": "#31a354" }, "geometry": { "type": "Point", "coordinates": [ 3.8969844, 43.6024338 ] } },
{ "type": "Feature", "properties": { "index": "132", "@osmId": "node/4296501262", "name": null, "opening_hours": null, "label": "Drinking water", "color": "#31a354" }, "geometry": { "type": "Point", "coordinates": [ 3.8735831, 43.6196022 ] } },
{ "type": "Feature", "properties": { "index": "133", "@osmId": "node/4322996561", "name": null, "opening_hours": null, "label": "Drinking water", "color": "#31a354" }, "geometry": { "type": "Point", "coordinates": [ 3.8819538, 43.6168714 ] } },
{ "type": "Feature", "properties": { "index": "134", "@osmId": "node/4323023603", "name": null, "opening_hours": null, "label": "Drinking water", "color": "#31a354" }, "geometry": { "type": "Point", "coordinates": [ 3.8707813, 43.6116951 ] } },
{ "type": "Feature", "properties": { "index": "135", "@osmId": "node/4324814907", "name": null, "opening_hours": null, "label": "Drinking water", "color": "#31a354" }, "geometry": { "type": "Point", "coordinates": [ 3.8751716, 43.6126312 ] } },
{ "type": "Feature", "properties": { "index": "136", "@osmId": "node/4860020778", "name": null, "opening_hours": null, "label": "Drinking water", "color": "#31a354" }, "geometry": { "type": "Point", "coordinates": [ 3.8942664, 43.617777 ] } },
{ "type": "Feature", "properties": { "index": "137", "@osmId": "node/5046472468", "name": null, "opening_hours": null, "label": "Drinking water", "color": "#31a354" }, "geometry": { "type": "Point", "coordinates": [ 3.8765754, 43.6088244 ] } },
{ "type": "Feature", "properties": { "index": "138", "@osmId": "node/5612120076", "name": null, "opening_hours": null, "label": "Drinking water", "color": "#31a354" }, "geometry": { "type": "Point", "coordinates": [ 3.8887276, 43.6037904 ] } },
{ "type": "Feature", "properties": { "index": "139", "@osmId": "node/5614597787", "name": null, "opening_hours": null, "label": "Drinking water", "color": "#31a354" }, "geometry": { "type": "Point", "coordinates": [ 3.8783515, 43.6074525 ] } },
{ "type": "Feature", "properties": { "index": "140", "@osmId": "node/5768610520", "name": "Place de Thessalie", "opening_hours": null, "label": "Drinking water", "color": "#31a354" }, "geometry": { "type": "Point", "coordinates": [ 3.8919167, 43.6078055 ] } },
{ "type": "Feature", "properties": { "index": "141", "@osmId": "node/5768610521", "name": "Place du Nombre d'Or", "opening_hours": null, "label": "Drinking water", "color": "#31a354" }, "geometry": { "type": "Point", "coordinates": [ 3.8878889, 43.6079722 ] } },
{ "type": "Feature", "properties": { "index": "142", "@osmId": "node/6516443100", "name": "Rue Fructidor", "opening_hours": null, "label": "Drinking water", "color": "#31a354" }, "geometry": { "type": "Point", "coordinates": [ 3.8971394, 43.6018018 ] } },
{ "type": "Feature", "properties": { "index": "143", "@osmId": "node/6588269362", "name": "Avenue du Pirée - Chemin de Moularès", "opening_hours": null, "label": "Drinking water", "color": "#31a354" }, "geometry": { "type": "Point", "coordinates": [ 3.8951123, 43.6020006 ] } },
{ "type": "Feature", "properties": { "index": "144", "@osmId": "node/9124197596", "name": "Esplanade Charles de Gaule", "opening_hours": null, "label": "Drinking water", "color": "#31a354" }, "geometry": { "type": "Point", "coordinates": [ 3.8812224, 43.6097226 ] } },
{ "type": "Feature", "properties": { "index": "145", "@osmId": "node/9466854293", "name": null, "opening_hours": null, "label": "Drinking water", "color": "#31a354" }, "geometry": { "type": "Point", "coordinates": [ 3.8730292, 43.6138891 ] } },
{ "type": "Feature", "properties": { "index": "146", "@osmId": "node/9979516455", "name": null, "opening_hours": null, "label": "Drinking water", "color": "#31a354" }, "geometry": { "type": "Point", "coordinates": [ 3.8765288, 43.6022205 ] } },
{ "type": "Feature", "properties": { "index": "147", "@osmId": "node/9979516456", "name": null, "opening_hours": null, "label": "Drinking water", "color": "#31a354" }, "geometry": { "type": "Point", "coordinates": [ 3.8754644, 43.601488 ] } },
{ "type": "Feature", "properties": { "index": "148", "@osmId": "node/11143083745", "name": null, "opening_hours": null, "label": "Drinking water", "color": "#31a354" }, "geometry": { "type": "Point", "coordinates": [ 3.8797954, 43.6033591 ] } },
{ "type": "Feature", "properties": { "index": "149", "@osmId": "node/11230764670", "name": null, "opening_hours": null, "label": "Drinking water", "color": "#31a354" }, "geometry": { "type": "Point", "coordinates": [ 3.8741418, 43.6152979 ] } },
{ "type": "Feature", "properties": { "index": "150", "@osmId": "node/11231121337", "name": null, "opening_hours": null, "label": "Drinking water", "color": "#31a354" }, "geometry": { "type": "Point", "coordinates": [ 3.880166, 43.6051685 ] } },
{ "type": "Feature", "properties": { "index": "151", "@osmId": "node/11366291336", "name": null, "opening_hours": null, "label": "Drinking water", "color": "#31a354" }, "geometry": { "type": "Point", "coordinates": [ 3.9033585, 43.6014722 ] } },
{ "type": "Feature", "properties": { "index": "152", "@osmId": "node/11367104721", "name": "Avenue du Pirée", "opening_hours": null, "label": "Drinking water", "color": "#31a354" }, "geometry": { "type": "Point", "coordinates": [ 3.8964516, 43.6041268 ] } },
{ "type": "Feature", "properties": { "index": "153", "@osmId": "node/11641428607", "name": "Rue Vendémiaire", "opening_hours": null, "label": "Drinking water", "color": "#31a354" }, "geometry": { "type": "Point", "coordinates": [ 3.8982793, 43.6046939 ] } },
{ "type": "Feature", "properties": { "index": "154", "@osmId": "node/11641428608", "name": "Place Emilie Combes", "opening_hours": null, "label": "Drinking water", "color": "#31a354" }, "geometry": { "type": "Point", "coordinates": [ 3.8804158, 43.6164199 ] } },
{ "type": "Feature", "properties": { "index": "155", "@osmId": "node/12071300545", "name": null, "opening_hours": null, "label": "Drinking water", "color": "#31a354" }, "geometry": { "type": "Point", "coordinates": [ 3.8673321, 43.6214352 ] } },
{ "type": "Feature", "properties": { "index": "156", "@osmId": "node/12097698435", "name": null, "opening_hours": null, "label": "Drinking water", "color": "#31a354" }, "geometry": { "type": "Point", "coordinates": [ 3.8808358, 43.6047974 ] } },
{ "type": "Feature", "properties": { "index": "157", "@osmId": "node/12367429455", "name": null, "opening_hours": null, "label": "Drinking water", "color": "#31a354" }, "geometry": { "type": "Point", "coordinates": [ 3.8675405, 43.6177665 ] } },
{ "type": "Feature", "properties": { "index": "158", "@osmId": "node/12532746284", "name": null, "opening_hours": null, "label": "Drinking water", "color": "#31a354" }, "geometry": { "type": "Point", "coordinates": [ 3.8814149, 43.6112145 ] } },
{ "type": "Feature", "properties": { "index": "159", "@osmId": "node/12657031301", "name": null, "opening_hours": null, "label": "Drinking water", "color": "#31a354" }, "geometry": { "type": "Point", "coordinates": [ 3.8672085, 43.6068657 ] } },
{ "type": "Feature", "properties": { "index": "160", "@osmId": "node/12730489933", "name": null, "opening_hours": null, "label": "Drinking water", "color": "#31a354" }, "geometry": { "type": "Point", "coordinates": [ 3.8811065, 43.6158712 ] } },
{ "type": "Feature", "properties": { "index": "161", "@osmId": "node/12748795543", "name": null, "opening_hours": null, "label": "Drinking water", "color": "#31a354" }, "geometry": { "type": "Point", "coordinates": [ 3.8805775, 43.6042951 ] } }
]
}
