{
"type": "FeatureCollection",
"features": [
{ "type": "Feature", "properties": { "index": "0", "label": "Within 400 m on foot", "color": "#2b8cbe" }, "geometry": { "type": "Polygon", "coordinates": [ [ [ 3.8554232, 43.602403 ], [ 3.8551295, 43.6021213 ], [ 3.855, 43.601968 ], [ 3.855, 43.6 ], [ 3.8892337, 43.6000024 ], [ 3.8892807, 43.6000223 ], [ 3.8892933, 43.6000024 ], [ 3.905, 43.6 ], [ 3.905, 43.6133902 ], [ 3.9047364, 43.6135355 ], [ 3.9043219, 43.6137205 ], [ 3.9038845, 43.6138751 ], [ 3.9034283, 43.6139978 ], [ 3.9029578, 43.6140874 ], [ 3.9024774, 43.614143 ], [ 3.9019918, 43.6141642 ], [ 3.9015057, 43.6141507 ], [ 3.9010238, 43.6141026 ], [ 3.9005507, 43.6140205 ], [ 3.900091, 43.613905 ], [ 3.899649, 43.6137574 ], [ 3.8992291, 43.613579 ], [ 3.8988353, 43.6133715 ], [ 3.8984713, 43.613137 ], [ 3.8981408, 43.6128777 ], [ 3.8978468, 43.6125962 ], [ 3.8975922, 43.612295 ], [ 3.8973795, 43.6119772 ], [ 3.8972107, 43.6116457 ], [ 3.8970875, 43.6113038 ], [ 3.8970302, 43.6110429 ], [ 3.8968753, 43.6111471 ], [ 3.8964877, 43.6113607 ], [ 3.8960732, 43.6115457 ], [ 3.8956358, 43.6117002 ], [ 3.8953552, 43.6117757 ], [ 3.8952989, 43.611947 ], [ 3.8951399, 43.6122811 ], [ 3.8949367, 43.6126022 ], [ 3.8946911, 43.6129072 ], [ 3.8944056, 43.6131934 ], [ 3.8943285, 43.6132566 ], [ 3.8943138, 43.6135344 ], [ 3.8942476, 43.6138845 ], [ 3.8941509, 43.6141785 ], [ 3.894213, 43.6141758 ], [ 3.8946991, 43.6141893 ], [ 3.895181, 43.6142374 ], [ 3.8956541, 43.6143196 ], [ 3.8961139, 43.6144351 ], [ 3.8965558, 43.6145827 ], [ 3.8969757, 43.6147611 ], [ 3.8971902, 43.6148741 ], [ 3.8971959, 43.614876 ], [ 3.8976158, 43.6150544 ], [ 3.8980097, 43.6152619 ], [ 3.8983736, 43.6154964 ], [ 3.8987042, 43.6157557 ], [ 3.8989982, 43.6160372 ], [ 3.8992446, 43.6163288 ], [ 3.8996905, 43.6162439 ], [ 3.9001709, 43.6161883 ], [ 3.9006564, 43.6161671 ], [ 3.9011425, 43.6161806 ], [ 3.9016245, 43.6162287 ], [ 3.9020976, 43.6163108 ], [ 3.9025574, 43.6164263 ], [ 3.9029994, 43.6165739 ], [ 3.9034193, 43.6167523 ], [ 3.9038132, 43.6169597 ], [ 3.9041771, 43.6171942 ], [ 3.9045077, 43.6174535 ], [ 3.9048018, 43.617735 ], [ 3.905, 43.6179695 ], [ 3.905, 43.6215647 ], [ 3.9048618, 43.6217365 ], [ 3.904761, 43.6218375 ], [ 3.9046601, 43.6221441 ], [ 3.9045012, 43.6224782 ], [ 3.904298, 43.6227993 ], [ 3.90416, 43.6229707 ], [ 3.9041031, 43.6232721 ], [ 3.90399, 43.6236159 ], [ 3.9038311, 43.6239499 ], [ 3.9036279, 43.624271 ], [ 3.9033823, 43.6245761 ], [ 3.9030968, 43.6248623 ], [ 3.9029281, 43.6250004 ], [ 3.8955334, 43.6250017 ], [ 3.8954325, 43.6249226 ], [ 3.8951385, 43.624641 ], [ 3.8948839, 43.6243398 ], [ 3.8946712, 43.624022 ], [ 3.8945023, 43.6236905 ], [ 3.8943791, 43.6233486 ], [ 3.8943025, 43.6229996 ], [ 3.8942734, 43.6226468 ], [ 3.894292, 43.6222936 ], [ 3.8943582, 43.6219435 ], [ 3.8944529, 43.6216559 ], [ 3.8939918, 43.6216099 ], [ 3.8935186, 43.6215277 ], [ 3.8933548, 43.6214866 ], [ 3.893381, 43.6215592 ], [ 3.8934576, 43.6219083 ], [ 3.8934867, 43.6222611 ], [ 3.8934681, 43.6226142 ], [ 3.8934019, 43.6229644 ], [ 3.8932887, 43.6233081 ], [ 3.8931298, 43.6236421 ], [ 3.8929265, 43.6239632 ], [ 3.8926809, 43.6242683 ], [ 3.8925065, 43.624443 ], [ 3.8924153, 43.6246346 ], [ 3.892212, 43.6249557 ], [ 3.8921747, 43.6250021 ], [ 3.8834539, 43.6250027 ], [ 3.8832552, 43.6247057 ], [ 3.8830865, 43.6243742 ], [ 3.8829632, 43.6240323 ], [ 3.8829259, 43.6238621 ], [ 3.8828474, 43.6238712 ], [ 3.8823618, 43.6238923 ], [ 3.8818756, 43.6238787 ], [ 3.8818367, 43.6238748 ], [ 3.8818415, 43.6239335 ], [ 3.8818228, 43.6242866 ], [ 3.8817566, 43.6246368 ], [ 3.8816434, 43.6249805 ], [ 3.8816328, 43.6250027 ], [ 3.859714, 43.6250009 ], [ 3.8593271, 43.624797 ], [ 3.8589633, 43.6245624 ], [ 3.8586328, 43.6243029 ], [ 3.858339, 43.6240213 ], [ 3.8580846, 43.62372 ], [ 3.857872, 43.6234021 ], [ 3.8577034, 43.6230706 ], [ 3.8575803, 43.6227286 ], [ 3.857504, 43.6223796 ], [ 3.8574751, 43.6220268 ], [ 3.8574939, 43.6216736 ], [ 3.8575603, 43.6213235 ], [ 3.8576737, 43.6209798 ], [ 3.8578328, 43.6206458 ], [ 3.8580363, 43.6203248 ], [ 3.8582821, 43.6200198 ], [ 3.8585678, 43.6197337 ], [ 3.8588908, 43.6194694 ], [ 3.8590679, 43.6193504 ], [ 3.858817, 43.6190533 ], [ 3.8586045, 43.6187354 ], [ 3.8584359, 43.6184039 ], [ 3.8583128, 43.618062 ], [ 3.8582365, 43.6177129 ], [ 3.8582076, 43.6173601 ], [ 3.8582264, 43.617007 ], [ 3.8582928, 43.6166568 ], [ 3.8584061, 43.6163131 ], [ 3.8585653, 43.6159792 ], [ 3.8587687, 43.6156581 ], [ 3.8590145, 43.6153531 ], [ 3.8591051, 43.6152623 ], [ 3.8589879, 43.6152231 ], [ 3.858934, 43.6152002 ], [ 3.8588088, 43.6151583 ], [ 3.858389, 43.6149797 ], [ 3.8579953, 43.6147721 ], [ 3.8578653, 43.6146883 ], [ 3.8575667, 43.6146584 ], [ 3.8570936, 43.6145761 ], [ 3.8566339, 43.6144604 ], [ 3.8561921, 43.6143126 ], [ 3.8557723, 43.6141341 ], [ 3.8553786, 43.6139265 ], [ 3.8550148, 43.6136918 ], [ 3.855, 43.6136802 ], [ 3.855, 43.6077481 ], [ 3.8550648, 43.6077124 ], [ 3.8554794, 43.6075276 ], [ 3.8556516, 43.6074668 ], [ 3.8556359, 43.6072749 ], [ 3.8556548, 43.6069217 ], [ 3.8557212, 43.6065716 ], [ 3.8558345, 43.6062279 ], [ 3.8559936, 43.6058939 ], [ 3.856197, 43.6055729 ], [ 3.8564427, 43.6052679 ], [ 3.8567284, 43.6049819 ], [ 3.8569786, 43.6047771 ], [ 3.8569917, 43.6047497 ], [ 3.8571951, 43.6044286 ], [ 3.8574408, 43.6041236 ], [ 3.8577265, 43.6038376 ], [ 3.858038, 43.6035826 ], [ 3.8578319, 43.6035467 ], [ 3.8573723, 43.6034311 ], [ 3.8569305, 43.6032833 ], [ 3.8565108, 43.6031047 ], [ 3.8561172, 43.6028971 ], [ 3.8557535, 43.6026625 ], [ 3.8554232, 43.602403 ] ], [ [ 3.8643004, 43.6030783 ], [ 3.8645923, 43.6032322 ], [ 3.8647676, 43.6031703 ], [ 3.8645085, 43.6030337 ], [ 3.8641447, 43.6027991 ], [ 3.8638144, 43.6025397 ], [ 3.8637207, 43.6024498 ], [ 3.863593, 43.6025543 ], [ 3.8633372, 43.6027264 ], [ 3.8634389, 43.602752 ], [ 3.8638806, 43.6028998 ], [ 3.8643004, 43.6030783 ] ] ] } },
{ "type": "Feature", "properties": { "index": "1", "label": "Beyond 400 m", "color": "#d9d9d9" }, "geometry": { "type": "MultiPolygon", "coordinates": [ [ [ [ 3.9047364, 43.6135355 ], [ 3.905, 43.6133902 ], [ 3.905, 43.6179695 ], [ 3.9048018, 43.617735 ], [ 3.9045077, 43.6174535 ], [ 3.9041771, 43.6171942 ], [ 3.9038132, 43.6169597 ], [ 3.9034193, 43.6167523 ], [ 3.9029994, 43.6165739 ], [ 3.9025574, 43.6164263 ], [ 3.9020976, 43.6163108 ], [ 3.9016245, 43.6162287 ], [ 3.9011425, 43.6161806 ], [ 3.9006564, 43.6161671 ], [ 3.9001709, 43.6161883 ], [ 3.8996905, 43.6162439 ], [ 3.8992446, 43.6163288 ], [ 3.8989982, 43.6160372 ], [ 3.8987042, 43.6157557 ], [ 3.8983736, 43.6154964 ], [ 3.8980097, 43.6152619 ], [ 3.8976158, 43.6150544 ], [ 3.8971959, 43.614876 ], [ 3.8971902, 43.6148741 ], [ 3.8969757, 43.6147611 ], [ 3.8965558, 43.6145827 ], [ 3.8961139, 43.6144351 ], [ 3.8956541, 43.6143196 ], [ 3.895181, 43.6142374 ], [ 3.8946991, 43.6141893 ], [ 3.894213, 43.6141758 ], [ 3.8941509, 43.6141785 ], [ 3.8942476, 43.6138845 ], [ 3.8943138, 43.6135344 ], [ 3.8943285, 43.6132566 ], [ 3.8944056, 43.6131934 ], [ 3.8946911, 43.6129072 ], [ 3.8949367, 43.6126022 ], [ 3.8951399, 43.6122811 ], [ 3.8952989, 43.611947 ], [ 3.8953552, 43.6117757 ], [ 3.8956358, 43.6117002 ], [ 3.8960732, 43.6115457 ], [ 3.8964877, 43.6113607 ], [ 3.8968753, 43.6111471 ], [ 3.8970302, 43.6110429 ], [ 3.8970875, 43.6113038 ], [ 3.8972107, 43.6116457 ], [ 3.8973795, 43.6119772 ], [ 3.8975922, 43.612295 ], [ 3.8978468, 43.6125962 ], [ 3.8981408, 43.6128777 ], [ 3.8984713, 43.613137 ], [ 3.8988353, 43.6133715 ], [ 3.8992291, 43.613579 ], [ 3.899649, 43.6137574 ], [ 3.900091, 43.613905 ], [ 3.9005507, 43.6140205 ], [ 3.9010238, 43.6141026 ], [ 3.9015057, 43.6141507 ], [ 3.9019918, 43.6141642 ], [ 3.9024774, 43.614143 ], [ 3.9029578, 43.6140874 ], [ 3.9034283, 43.6139978 ], [ 3.9038845, 43.6138751 ], [ 3.9043219, 43.6137205 ], [ 3.9047364, 43.6135355 ] ] ], [ [ [ 3.905, 43.6215647 ], [ 3.905, 43.625 ], [ 3.9029281, 43.6250004 ], [ 3.9030968, 43.6248623 ], [ 3.9033823, 43.6245761 ], [ 3.9036279, 43.624271 ], [ 3.9038311, 43.6239499 ], [ 3.90399, 43.6236159 ], [ 3.9041031, 43.6232721 ], [ 3.90416, 43.6229707 ], [ 3.904298, 43.6227993 ], [ 3.9045012, 43.6224782 ], [ 3.9046601, 43.6221441 ], [ 3.904761, 43.6218375 ], [ 3.9048618, 43.6217365 ], [ 3.905, 43.6215647 ] ] ], [ [ [ 3.8954325, 43.6249226 ], [ 3.8955334, 43.6250017 ], [ 3.8921747, 43.6250021 ], [ 3.892212, 43.6249557 ], [ 3.8924153, 43.6246346 ], [ 3.8925065, 43.624443 ], [ 3.8926809, 43.6242683 ], [ 3.8929265, 43.6239632 ], [ 3.8931298, 43.6236421 ], [ 3.8932887, 43.6233081 ], [ 3.8934019, 43.6229644 ], [ 3.8934681, 43.6226142 ], [ 3.8934867, 43.6222611 ], [ 3.8934576, 43.6219083 ], [ 3.893381, 43.6215592 ], [ 3.8933548, 43.6214866 ], [ 3.8935186, 43.6215277 ], [ 3.8939918, 43.6216099 ], [ 3.8944529, 43.6216559 ], [ 3.8943582, 43.6219435 ], [ 3.894292, 43.6222936 ], [ 3.8942734, 43.6226468 ], [ 3.8943025, 43.6229996 ], [ 3.8943791, 43.6233486 ], [ 3.8945023, 43.6236905 ], [ 3.8946712, 43.624022 ], [ 3.8948839, 43.6243398 ], [ 3.8951385, 43.624641 ], [ 3.8954325, 43.6249226 ] ] ], [ [ [ 3.8832552, 43.6247057 ], [ 3.8834539, 43.6250027 ], [ 3.8816328, 43.6250027 ], [ 3.8816434, 43.6249805 ], [ 3.8817566, 43.6246368 ], [ 3.8818228, 43.6242866 ], [ 3.8818415, 43.6239335 ], [ 3.8818367, 43.6238748 ], [ 3.8818756, 43.6238787 ], [ 3.8823618, 43.6238923 ], [ 3.8828474, 43.6238712 ], [ 3.8829259, 43.6238621 ], [ 3.8829632, 43.6240323 ], [ 3.8830865, 43.6243742 ], [ 3.8832552, 43.6247057 ] ] ], [ [ [ 3.859714, 43.6250009 ], [ 3.855, 43.625 ], [ 3.855, 43.6136802 ], [ 3.8550148, 43.6136918 ], [ 3.8553786, 43.6139265 ], [ 3.8557723, 43.6141341 ], [ 3.8561921, 43.6143126 ], [ 3.8566339, 43.6144604 ], [ 3.8570936, 43.6145761 ], [ 3.8575667, 43.6146584 ], [ 3.8578653, 43.6146883 ], [ 3.8579953, 43.6147721 ], [ 3.858389, 43.6149797 ], [ 3.8588088, 43.6151583 ], [ 3.858934, 43.6152002 ], [ 3.8589879, 43.6152231 ], [ 3.8591051, 43.6152623 ], [ 3.8590145, 43.6153531 ], [ 3.8587687, 43.6156581 ], [ 3.8585653, 43.6159792 ], [ 3.8584061, 43.6163131 ], [ 3.8582928, 43.6166568 ], [ 3.8582264, 43.617007 ], [ 3.8582076, 43.6173601 ], [ 3.8582365, 43.6177129 ], [ 3.8583128, 43.618062 ], [ 3.8584359, 43.6184039 ], [ 3.8586045, 43.6187354 ], [ 3.858817, 43.6190533 ], [ 3.8590679, 43.6193504 ], [ 3.8588908, 43.6194694 ], [ 3.8585678, 43.6197337 ], [ 3.8582821, 43.6200198 ], [ 3.8580363, 43.6203248 ], [ 3.8578328, 43.6206458 ], [ 3.8576737, 43.6209798 ], [ 3.8575603, 43.6213235 ], [ 3.8574939, 43.6216736 ], [ 3.8574751, 43.6220268 ], [ 3.857504, 43.6223796 ], [ 3.8575803, 43.6227286 ], [ 3.8577034, 43.6230706 ], [ 3.857872, 43.6234021 ], [ 3.8580846, 43.62372 ], [ 3.858339, 43.6240213 ], [ 3.8586328, 43.6243029 ], [ 3.8589633, 43.6245624 ], [ 3.8593271, 43.624797 ], [ 3.859714, 43.6250009 ] ] ], [ [ [ 3.8550648, 43.6077124 ], [ 3.855, 43.6077481 ], [ 3.855, 43.601968 ], [ 3.8551295, 43.6021213 ], [ 3.8554232, 43.602403 ], [ 3.8557535, 43.6026625 ], [ 3.8561172, 43.6028971 ], [ 3.8565108, 43.6031047 ], [ 3.8569305, 43.6032833 ], [ 3.8573723, 43.6034311 ], [ 3.8578319, 43.6035467 ], [ 3.858038, 43.6035826 ], [ 3.8577265, 43.6038376 ], [ 3.8574408, 43.6041236 ], [ 3.8571951, 43.6044286 ], [ 3.8569917, 43.6047497 ], [ 3.8569786, 43.6047771 ], [ 3.8567284, 43.6049819 ], [ 3.8564427, 43.6052679 ], [ 3.856197, 43.6055729 ], [ 3.8559936, 43.6058939 ], [ 3.8558345, 43.6062279 ], [ 3.8557212, 43.6065716 ], [ 3.8556548, 43.6069217 ], [ 3.8556359, 43.6072749 ], [ 3.8556516, 43.6074668 ], [ 3.8554794, 43.6075276 ], [ 3.8550648, 43.6077124 ] ] ], [ [ [ 3.8892807, 43.6000223 ], [ 3.8892337, 43.6000024 ], [ 3.8892933, 43.6000024 ], [ 3.8892807, 43.6000223 ] ] ], [ [ [ 3.8645085, 43.6030337 ], [ 3.8647676, 43.6031703 ], [ 3.8645923, 43.6032322 ], [ 3.8643004, 43.6030783 ], [ 3.8638806, 43.6028998 ], [ 3.8634389, 43.602752 ], [ 3.8633372, 43.6027264 ], [ 3.863593, 43.6025543 ], [ 3.8637207, 43.6024498 ], [ 3.8638144, 43.6025397 ], [ 3.8641447, 43.6027991 ], [ 3.8645085, 43.6030337 ] ] ] ] } }
]
}
