{
"type": "FeatureCollection",
"features": [
{ "type": "Feature", "properties": { "index": "0", "last_edit_year": 2025, "years_since_edit": 1, "label": "0.5–1.5 yr", "color": "#bdc9e1" }, "geometry": { "type": "Point", "coordinates": [ 3.9002866, 43.600093 ] } },
{ "type": "Feature", "properties": { "index": "1", "last_edit_year": 2024, "years_since_edit": 2, "label": "1.5–4.5 yr", "color": "#67a9cf" }, "geometry": { "type": "Point", "coordinates": [ 3.8700366, 43.611312 ] } },
{ "type": "Feature", "properties": { "index": "2", "last_edit_year": 2023, "years_since_edit": 3, "label": "1.5–4.5 yr", "color": "#67a9cf" }, "geometry": { "type": "Point", "coordinates": [ 3.8631644, 43.6173228 ] } },
{ "type": "Feature", "properties": { "index": "3", "last_edit_year": 2023, "years_since_edit": 3, "label": "1.5–4.5 yr", "color": "#67a9cf" }, "geometry": { "type": "Point", "coordinates": [ 3.8949065, 43.6180703 ] } },
{ "type": "Feature", "properties": { "index": "4", "last_edit_year": 2024, "years_since_edit": 2, "label": "1.5–4.5 yr", "color": "#67a9cf" }, "geometry": { "type": "Point", "coordinates": [ 3.8914575, 43.6175169 ] } },
{ "type": "Feature", "properties": { "index": "5", "last_edit_year": 2020, "years_since_edit": 6, "label": "4.5–8.5 yr", "color": "#1c9099" }, "geometry": { "type": "Point", "coordinates": [ 3.8992306, 43.6226079 ] } },
{ "type": "Feature", "properties": { "index": "6", "last_edit_year": 2024, "years_since_edit": 2, "label": "1.5–4.5 yr", "color": "#67a9cf" }, "geometry": { "type": "Point", "coordinates": [ 3.8999008, 43.6211362 ] } },
{ "type": "Feature", "properties": { "index": "7", "last_edit_year": 2017, "years_since_edit": 9, "label": "8.5–14.0 yr", "color": "#016c59" }, "geometry": { "type": "Point", "coordinates": [ 3.9007102, 43.6197683 ] } },
{ "type": "Feature", "properties": { "index": "8", "last_edit_year": 2025, "years_since_edit": 1, "label": "0.5–1.5 yr", "color": "#bdc9e1" }, "geometry": { "type": "Point", "coordinates": [ 3.8933029, 43.6084043 ] } },
{ "type": "Feature", "properties": { "index": "9", "last_edit_year": 2024, "years_since_edit": 2, "label": "1.5–4.5 yr", "color": "#67a9cf" }, "geometry": { "type": "Point", "coordinates": [ 3.8937374, 43.6016564 ] } },
{ "type": "Feature", "properties": { "index": "10", "last_edit_year": 2024, "years_since_edit": 2, "label": "1.5–4.5 yr", "color": "#67a9cf" }, "geometry": { "type": "Point", "coordinates": [ 3.8902311, 43.6073799 ] } },
{ "type": "Feature", "properties": { "index": "11", "last_edit_year": 2021, "years_since_edit": 5, "label": "4.5–8.5 yr", "color": "#1c9099" }, "geometry": { "type": "Point", "coordinates": [ 3.8987105, 43.605032 ] } },
{ "type": "Feature", "properties": { "index": "12", "last_edit_year": 2023, "years_since_edit": 3, "label": "1.5–4.5 yr", "color": "#67a9cf" }, "geometry": { "type": "Point", "coordinates": [ 3.9016708, 43.6051443 ] } },
{ "type": "Feature", "properties": { "index": "13", "last_edit_year": 2025, "years_since_edit": 1, "label": "0.5–1.5 yr", "color": "#bdc9e1" }, "geometry": { "type": "Point", "coordinates": [ 3.8950846, 43.6031174 ] } },
{ "type": "Feature", "properties": { "index": "14", "last_edit_year": 2016, "years_since_edit": 10, "label": "8.5–14.0 yr", "color": "#016c59" }, "geometry": { "type": "Point", "coordinates": [ 3.901938, 43.610563 ] } },
{ "type": "Feature", "properties": { "index": "15", "last_edit_year": 2025, "years_since_edit": 1, "label": "0.5–1.5 yr", "color": "#bdc9e1" }, "geometry": { "type": "Point", "coordinates": [ 3.9038633, 43.6007401 ] } },
{ "type": "Feature", "properties": { "index": "16", "last_edit_year": 2018, "years_since_edit": 8, "label": "4.5–8.5 yr", "color": "#1c9099" }, "geometry": { "type": "Point", "coordinates": [ 3.8969278, 43.6027471 ] } },
{ "type": "Feature", "properties": { "index": "17", "last_edit_year": 2022, "years_since_edit": 4, "label": "1.5–4.5 yr", "color": "#67a9cf" }, "geometry": { "type": "Point", "coordinates": [ 3.9045241, 43.6077285 ] } },
{ "type": "Feature", "properties": { "index": "18", "last_edit_year": 2023, "years_since_edit": 3, "label": "1.5–4.5 yr", "color": "#67a9cf" }, "geometry": { "type": "Point", "coordinates": [ 3.8978537, 43.6049967 ] } },
{ "type": "Feature", "properties": { "index": "19", "last_edit_year": 2020, "years_since_edit": 6, "label": "4.5–8.5 yr", "color": "#1c9099" }, "geometry": { "type": "Point", "coordinates": [ 3.9026104, 43.6015017 ] } },
{ "type": "Feature", "properties": { "index": "20", "last_edit_year": 2019, "years_since_edit": 7, "label": "4.5–8.5 yr", "color": "#1c9099" }, "geometry": { "type": "Point", "coordinates": [ 3.8942571, 43.6034332 ] } },
{ "type": "Feature", "properties": { "index": "21", "last_edit_year": 2026, "years_since_edit": 0, "label": "0.0–0.5 yr", "color": "#f6eff7" }, "geometry": { "type": "Point", "coordinates": [ 3.8592214, 43.6000897 ] } },
{ "type": "Feature", "properties": { "index": "22", "last_edit_year": 2024, "years_since_edit": 2, "label": "1.5–4.5 yr", "color": "#67a9cf" }, "geometry": { "type": "Point", "coordinates": [ 3.8605919, 43.6072377 ] } },
{ "type": "Feature", "properties": { "index": "23", "last_edit_year": 2021, "years_since_edit": 5, "label": "4.5–8.5 yr", "color": "#1c9099" }, "geometry": { "type": "Point", "coordinates": [ 3.8600526, 43.6000343 ] } },
{ "type": "Feature", "properties": { "index": "24", "last_edit_year": 2024, "years_since_edit": 2, "label": "1.5–4.5 yr", "color": "#67a9cf" }, "geometry": { "type": "Point", "coordinates": [ 3.8667262, 43.606478 ] } },
{ "type": "Feature", "properties": { "index": "25", "last_edit_year": 2017, "years_since_edit": 9, "label": "8.5–14.0 yr", "color": "#016c59" }, "geometry": { "type": "Point", "coordinates": [ 3.8644205, 43.6154342 ] } },
{ "type": "Feature", "properties": { "index": "26", "last_edit_year": 2024, "years_since_edit": 2, "label": "1.5–4.5 yr", "color": "#67a9cf" }, "geometry": { "type": "Point", "coordinates": [ 3.866192, 43.6068378 ] } },
{ "type": "Feature", "properties": { "index": "27", "last_edit_year": 2024, "years_since_edit": 2, "label": "1.5–4.5 yr", "color": "#67a9cf" }, "geometry": { "type": "Point", "coordinates": [ 3.8611, 43.6119647 ] } },
{ "type": "Feature", "properties": { "index": "28", "last_edit_year": 2025, "years_since_edit": 1, "label": "0.5–1.5 yr", "color": "#bdc9e1" }, "geometry": { "type": "Point", "coordinates": [ 3.8584834, 43.6111191 ] } },
{ "type": "Feature", "properties": { "index": "29", "last_edit_year": 2022, "years_since_edit": 4, "label": "1.5–4.5 yr", "color": "#67a9cf" }, "geometry": { "type": "Point", "coordinates": [ 3.8615899, 43.6060934 ] } },
{ "type": "Feature", "properties": { "index": "30", "last_edit_year": 2020, "years_since_edit": 6, "label": "4.5–8.5 yr", "color": "#1c9099" }, "geometry": { "type": "Point", "coordinates": [ 3.8578608, 43.6106861 ] } },
{ "type": "Feature", "properties": { "index": "31", "last_edit_year": 2026, "years_since_edit": 0, "label": "0.0–0.5 yr", "color": "#f6eff7" }, "geometry": { "type": "Point", "coordinates": [ 3.8631918, 43.6080698 ] } },
{ "type": "Feature", "properties": { "index": "32", "last_edit_year": 2026, "years_since_edit": 0, "label": "0.0–0.5 yr", "color": "#f6eff7" }, "geometry": { "type": "Point", "coordinates": [ 3.8640593, 43.6072951 ] } },
{ "type": "Feature", "properties": { "index": "33", "last_edit_year": 2026, "years_since_edit": 0, "label": "0.0–0.5 yr", "color": "#f6eff7" }, "geometry": { "type": "Point", "coordinates": [ 3.8673133, 43.6217132 ] } },
{ "type": "Feature", "properties": { "index": "34", "last_edit_year": 2024, "years_since_edit": 2, "label": "1.5–4.5 yr", "color": "#67a9cf" }, "geometry": { "type": "Point", "coordinates": [ 3.8722724, 43.6239591 ] } },
{ "type": "Feature", "properties": { "index": "35", "last_edit_year": 2024, "years_since_edit": 2, "label": "1.5–4.5 yr", "color": "#67a9cf" }, "geometry": { "type": "Point", "coordinates": [ 3.8883543, 43.6218967 ] } },
{ "type": "Feature", "properties": { "index": "36", "last_edit_year": 2024, "years_since_edit": 2, "label": "1.5–4.5 yr", "color": "#67a9cf" }, "geometry": { "type": "Point", "coordinates": [ 3.8821649, 43.6167808 ] } },
{ "type": "Feature", "properties": { "index": "37", "last_edit_year": 2024, "years_since_edit": 2, "label": "1.5–4.5 yr", "color": "#67a9cf" }, "geometry": { "type": "Point", "coordinates": [ 3.8809653, 43.6186997 ] } },
{ "type": "Feature", "properties": { "index": "38", "last_edit_year": 2019, "years_since_edit": 7, "label": "4.5–8.5 yr", "color": "#1c9099" }, "geometry": { "type": "Point", "coordinates": [ 3.8823091, 43.6202911 ] } },
{ "type": "Feature", "properties": { "index": "39", "last_edit_year": 2019, "years_since_edit": 7, "label": "4.5–8.5 yr", "color": "#1c9099" }, "geometry": { "type": "Point", "coordinates": [ 3.8838529, 43.6159964 ] } },
{ "type": "Feature", "properties": { "index": "40", "last_edit_year": 2019, "years_since_edit": 7, "label": "4.5–8.5 yr", "color": "#1c9099" }, "geometry": { "type": "Point", "coordinates": [ 3.8785874, 43.6185564 ] } },
{ "type": "Feature", "properties": { "index": "41", "last_edit_year": 2019, "years_since_edit": 7, "label": "4.5–8.5 yr", "color": "#1c9099" }, "geometry": { "type": "Point", "coordinates": [ 3.8785201, 43.61706 ] } },
{ "type": "Feature", "properties": { "index": "42", "last_edit_year": 2024, "years_since_edit": 2, "label": "1.5–4.5 yr", "color": "#67a9cf" }, "geometry": { "type": "Point", "coordinates": [ 3.8715853, 43.6198294 ] } },
{ "type": "Feature", "properties": { "index": "43", "last_edit_year": 2026, "years_since_edit": 0, "label": "0.0–0.5 yr", "color": "#f6eff7" }, "geometry": { "type": "Point", "coordinates": [ 3.8772161, 43.6166296 ] } },
{ "type": "Feature", "properties": { "index": "44", "last_edit_year": 2023, "years_since_edit": 3, "label": "1.5–4.5 yr", "color": "#67a9cf" }, "geometry": { "type": "Point", "coordinates": [ 3.8768842, 43.6239716 ] } },
{ "type": "Feature", "properties": { "index": "45", "last_edit_year": 2024, "years_since_edit": 2, "label": "1.5–4.5 yr", "color": "#67a9cf" }, "geometry": { "type": "Point", "coordinates": [ 3.887815, 43.6232921 ] } },
{ "type": "Feature", "properties": { "index": "46", "last_edit_year": 2024, "years_since_edit": 2, "label": "1.5–4.5 yr", "color": "#67a9cf" }, "geometry": { "type": "Point", "coordinates": [ 3.8698801, 43.6204648 ] } },
{ "type": "Feature", "properties": { "index": "47", "last_edit_year": 2019, "years_since_edit": 7, "label": "4.5–8.5 yr", "color": "#1c9099" }, "geometry": { "type": "Point", "coordinates": [ 3.8831879, 43.6174064 ] } },
{ "type": "Feature", "properties": { "index": "48", "last_edit_year": 2019, "years_since_edit": 7, "label": "4.5–8.5 yr", "color": "#1c9099" }, "geometry": { "type": "Point", "coordinates": [ 3.8822813, 43.6184504 ] } },
{ "type": "Feature", "properties": { "index": "49", "last_edit_year": 2025, "years_since_edit": 1, "label": "0.5–1.5 yr", "color": "#bdc9e1" }, "geometry": { "type": "Point", "coordinates": [ 3.8763798, 43.6233356 ] } },
{ "type": "Feature", "properties": { "index": "50", "last_edit_year": 2023, "years_since_edit": 3, "label": "1.5–4.5 yr", "color": "#67a9cf" }, "geometry": { "type": "Point", "coordinates": [ 3.8757759, 43.6180725 ] } },
{ "type": "Feature", "properties": { "index": "51", "last_edit_year": 2026, "years_since_edit": 0, "label": "0.0–0.5 yr", "color": "#f6eff7" }, "geometry": { "type": "Point", "coordinates": [ 3.8718541, 43.6141754 ] } },
{ "type": "Feature", "properties": { "index": "52", "last_edit_year": 2025, "years_since_edit": 1, "label": "0.5–1.5 yr", "color": "#bdc9e1" }, "geometry": { "type": "Point", "coordinates": [ 3.8799245, 43.6055553 ] } },
{ "type": "Feature", "properties": { "index": "53", "last_edit_year": 2023, "years_since_edit": 3, "label": "1.5–4.5 yr", "color": "#67a9cf" }, "geometry": { "type": "Point", "coordinates": [ 3.8787602, 43.6059928 ] } },
{ "type": "Feature", "properties": { "index": "54", "last_edit_year": 2025, "years_since_edit": 1, "label": "0.5–1.5 yr", "color": "#bdc9e1" }, "geometry": { "type": "Point", "coordinates": [ 3.8822423, 43.6112223 ] } },
{ "type": "Feature", "properties": { "index": "55", "last_edit_year": 2019, "years_since_edit": 7, "label": "4.5–8.5 yr", "color": "#1c9099" }, "geometry": { "type": "Point", "coordinates": [ 3.8812303, 43.613759 ] } },
{ "type": "Feature", "properties": { "index": "56", "last_edit_year": 2025, "years_since_edit": 1, "label": "0.5–1.5 yr", "color": "#bdc9e1" }, "geometry": { "type": "Point", "coordinates": [ 3.8891505, 43.604116 ] } },
{ "type": "Feature", "properties": { "index": "57", "last_edit_year": 2024, "years_since_edit": 2, "label": "1.5–4.5 yr", "color": "#67a9cf" }, "geometry": { "type": "Point", "coordinates": [ 3.8759619, 43.6010865 ] } },
{ "type": "Feature", "properties": { "index": "58", "last_edit_year": 2019, "years_since_edit": 7, "label": "4.5–8.5 yr", "color": "#1c9099" }, "geometry": { "type": "Point", "coordinates": [ 3.8895508, 43.6075962 ] } },
{ "type": "Feature", "properties": { "index": "59", "last_edit_year": 2016, "years_since_edit": 10, "label": "8.5–14.0 yr", "color": "#016c59" }, "geometry": { "type": "Point", "coordinates": [ 3.8861396, 43.6077234 ] } },
{ "type": "Feature", "properties": { "index": "60", "last_edit_year": 2026, "years_since_edit": 0, "label": "0.0–0.5 yr", "color": "#f6eff7" }, "geometry": { "type": "Point", "coordinates": [ 3.871733, 43.6041145 ] } },
{ "type": "Feature", "properties": { "index": "61", "last_edit_year": 2020, "years_since_edit": 6, "label": "4.5–8.5 yr", "color": "#1c9099" }, "geometry": { "type": "Point", "coordinates": [ 3.8807325, 43.6132116 ] } },
{ "type": "Feature", "properties": { "index": "62", "last_edit_year": 2023, "years_since_edit": 3, "label": "1.5–4.5 yr", "color": "#67a9cf" }, "geometry": { "type": "Point", "coordinates": [ 3.8841746, 43.605421 ] } },
{ "type": "Feature", "properties": { "index": "63", "last_edit_year": 2024, "years_since_edit": 2, "label": "1.5–4.5 yr", "color": "#67a9cf" }, "geometry": { "type": "Point", "coordinates": [ 3.8831824, 43.6030027 ] } },
{ "type": "Feature", "properties": { "index": "64", "last_edit_year": 2019, "years_since_edit": 7, "label": "4.5–8.5 yr", "color": "#1c9099" }, "geometry": { "type": "Point", "coordinates": [ 3.889376, 43.6132199 ] } },
{ "type": "Feature", "properties": { "index": "65", "last_edit_year": 2026, "years_since_edit": 0, "label": "0.0–0.5 yr", "color": "#f6eff7" }, "geometry": { "type": "Point", "coordinates": [ 3.8798014, 43.6104402 ] } },
{ "type": "Feature", "properties": { "index": "66", "last_edit_year": 2023, "years_since_edit": 3, "label": "1.5–4.5 yr", "color": "#67a9cf" }, "geometry": { "type": "Point", "coordinates": [ 3.8794993, 43.6096526 ] } },
{ "type": "Feature", "properties": { "index": "67", "last_edit_year": 2024, "years_since_edit": 2, "label": "1.5–4.5 yr", "color": "#67a9cf" }, "geometry": { "type": "Point", "coordinates": [ 3.8806177, 43.6058251 ] } },
{ "type": "Feature", "properties": { "index": "68", "last_edit_year": 2024, "years_since_edit": 2, "label": "1.5–4.5 yr", "color": "#67a9cf" }, "geometry": { "type": "Point", "coordinates": [ 3.8776134, 43.6071808 ] } },
{ "type": "Feature", "properties": { "index": "69", "last_edit_year": 2024, "years_since_edit": 2, "label": "1.5–4.5 yr", "color": "#67a9cf" }, "geometry": { "type": "Point", "coordinates": [ 3.8770691, 43.6142425 ] } },
{ "type": "Feature", "properties": { "index": "70", "last_edit_year": 2025, "years_since_edit": 1, "label": "0.5–1.5 yr", "color": "#bdc9e1" }, "geometry": { "type": "Point", "coordinates": [ 3.8777763, 43.6125626 ] } },
{ "type": "Feature", "properties": { "index": "71", "last_edit_year": 2022, "years_since_edit": 4, "label": "1.5–4.5 yr", "color": "#67a9cf" }, "geometry": { "type": "Point", "coordinates": [ 3.8795687, 43.6120339 ] } },
{ "type": "Feature", "properties": { "index": "72", "last_edit_year": 2019, "years_since_edit": 7, "label": "4.5–8.5 yr", "color": "#1c9099" }, "geometry": { "type": "Point", "coordinates": [ 3.8704211, 43.6095436 ] } },
{ "type": "Feature", "properties": { "index": "73", "last_edit_year": 2025, "years_since_edit": 1, "label": "0.5–1.5 yr", "color": "#bdc9e1" }, "geometry": { "type": "Point", "coordinates": [ 3.8747874, 43.6049958 ] } },
{ "type": "Feature", "properties": { "index": "74", "last_edit_year": 2023, "years_since_edit": 3, "label": "1.5–4.5 yr", "color": "#67a9cf" }, "geometry": { "type": "Point", "coordinates": [ 3.869495, 43.6055765 ] } },
{ "type": "Feature", "properties": { "index": "75", "last_edit_year": 2019, "years_since_edit": 7, "label": "4.5–8.5 yr", "color": "#1c9099" }, "geometry": { "type": "Point", "coordinates": [ 3.8735866, 43.6054892 ] } },
{ "type": "Feature", "properties": { "index": "76", "last_edit_year": 2024, "years_since_edit": 2, "label": "1.5–4.5 yr", "color": "#67a9cf" }, "geometry": { "type": "Point", "coordinates": [ 3.8737493, 43.614002 ] } },
{ "type": "Feature", "properties": { "index": "77", "last_edit_year": 2025, "years_since_edit": 1, "label": "0.5–1.5 yr", "color": "#bdc9e1" }, "geometry": { "type": "Point", "coordinates": [ 3.8848435, 43.608422 ] } },
{ "type": "Feature", "properties": { "index": "78", "last_edit_year": 2025, "years_since_edit": 1, "label": "0.5–1.5 yr", "color": "#bdc9e1" }, "geometry": { "type": "Point", "coordinates": [ 3.8759736, 43.612339 ] } },
{ "type": "Feature", "properties": { "index": "79", "last_edit_year": 2019, "years_since_edit": 7, "label": "4.5–8.5 yr", "color": "#1c9099" }, "geometry": { "type": "Point", "coordinates": [ 3.8784845, 43.613511 ] } },
{ "type": "Feature", "properties": { "index": "80", "last_edit_year": 2019, "years_since_edit": 7, "label": "4.5–8.5 yr", "color": "#1c9099" }, "geometry": { "type": "Point", "coordinates": [ 3.870185, 43.6133703 ] } },
{ "type": "Feature", "properties": { "index": "81", "last_edit_year": 2025, "years_since_edit": 1, "label": "0.5–1.5 yr", "color": "#bdc9e1" }, "geometry": { "type": "Point", "coordinates": [ 3.8761182, 43.6086816 ] } },
{ "type": "Feature", "properties": { "index": "82", "last_edit_year": 2024, "years_since_edit": 2, "label": "1.5–4.5 yr", "color": "#67a9cf" }, "geometry": { "type": "Point", "coordinates": [ 3.8757543, 43.6149779 ] } },
{ "type": "Feature", "properties": { "index": "83", "last_edit_year": 2026, "years_since_edit": 0, "label": "0.0–0.5 yr", "color": "#f6eff7" }, "geometry": { "type": "Point", "coordinates": [ 3.8740327, 43.6133276 ] } },
{ "type": "Feature", "properties": { "index": "84", "last_edit_year": 2024, "years_since_edit": 2, "label": "1.5–4.5 yr", "color": "#67a9cf" }, "geometry": { "type": "Point", "coordinates": [ 3.8758702, 43.608696 ] } },
{ "type": "Feature", "properties": { "index": "85", "last_edit_year": 2016, "years_since_edit": 10, "label": "8.5–14.0 yr", "color": "#016c59" }, "geometry": { "type": "Point", "coordinates": [ 3.8676123, 43.6002261 ] } },
{ "type": "Feature", "properties": { "index": "86", "last_edit_year": 2016, "years_since_edit": 10, "label": "8.5–14.0 yr", "color": "#016c59" }, "geometry": { "type": "Point", "coordinates": [ 3.8754301, 43.6138664 ] } },
{ "type": "Feature", "properties": { "index": "87", "last_edit_year": 2019, "years_since_edit": 7, "label": "4.5–8.5 yr", "color": "#1c9099" }, "geometry": { "type": "Point", "coordinates": [ 3.8749247, 43.6136614 ] } },
{ "type": "Feature", "properties": { "index": "88", "last_edit_year": 2025, "years_since_edit": 1, "label": "0.5–1.5 yr", "color": "#bdc9e1" }, "geometry": { "type": "Point", "coordinates": [ 3.8680145, 43.6113321 ] } },
{ "type": "Feature", "properties": { "index": "89", "last_edit_year": 2020, "years_since_edit": 6, "label": "4.5–8.5 yr", "color": "#1c9099" }, "geometry": { "type": "Point", "coordinates": [ 3.8780906, 43.6128159 ] } },
{ "type": "Feature", "properties": { "index": "90", "last_edit_year": 2026, "years_since_edit": 0, "label": "0.0–0.5 yr", "color": "#f6eff7" }, "geometry": { "type": "Point", "coordinates": [ 3.8700358, 43.6113121 ] } },
{ "type": "Feature", "properties": { "index": "91", "last_edit_year": 2024, "years_since_edit": 2, "label": "1.5–4.5 yr", "color": "#67a9cf" }, "geometry": { "type": "Point", "coordinates": [ 3.8740625, 43.6158353 ] } },
{ "type": "Feature", "properties": { "index": "92", "last_edit_year": 2025, "years_since_edit": 1, "label": "0.5–1.5 yr", "color": "#bdc9e1" }, "geometry": { "type": "Point", "coordinates": [ 3.8866753, 43.6030821 ] } },
{ "type": "Feature", "properties": { "index": "93", "last_edit_year": 2026, "years_since_edit": 0, "label": "0.0–0.5 yr", "color": "#f6eff7" }, "geometry": { "type": "Point", "coordinates": [ 3.8815954, 43.6097546 ] } },
{ "type": "Feature", "properties": { "index": "94", "last_edit_year": 2024, "years_since_edit": 2, "label": "1.5–4.5 yr", "color": "#67a9cf" }, "geometry": { "type": "Point", "coordinates": [ 3.8632206, 43.6172973 ] } },
{ "type": "Feature", "properties": { "index": "95", "last_edit_year": 2024, "years_since_edit": 2, "label": "1.5–4.5 yr", "color": "#67a9cf" }, "geometry": { "type": "Point", "coordinates": [ 3.8584426, 43.611069 ] } },
{ "type": "Feature", "properties": { "index": "96", "last_edit_year": 2024, "years_since_edit": 2, "label": "1.5–4.5 yr", "color": "#67a9cf" }, "geometry": { "type": "Point", "coordinates": [ 3.8660775, 43.6069015 ] } },
{ "type": "Feature", "properties": { "index": "97", "last_edit_year": 2017, "years_since_edit": 9, "label": "8.5–14.0 yr", "color": "#016c59" }, "geometry": { "type": "Point", "coordinates": [ 3.8624323, 43.6219895 ] } },
{ "type": "Feature", "properties": { "index": "98", "last_edit_year": 2025, "years_since_edit": 1, "label": "0.5–1.5 yr", "color": "#bdc9e1" }, "geometry": { "type": "Point", "coordinates": [ 3.8612791, 43.6120295 ] } },
{ "type": "Feature", "properties": { "index": "99", "last_edit_year": 2023, "years_since_edit": 3, "label": "1.5–4.5 yr", "color": "#67a9cf" }, "geometry": { "type": "Point", "coordinates": [ 3.8618612, 43.6117881 ] } },
{ "type": "Feature", "properties": { "index": "100", "last_edit_year": 2024, "years_since_edit": 2, "label": "1.5–4.5 yr", "color": "#67a9cf" }, "geometry": { "type": "Point", "coordinates": [ 3.8670227, 43.621895 ] } },
{ "type": "Feature", "properties": { "index": "101", "last_edit_year": 2023, "years_since_edit": 3, "label": "1.5–4.5 yr", "color": "#67a9cf" }, "geometry": { "type": "Point", "coordinates": [ 3.8689858, 43.6134209 ] } },
{ "type": "Feature", "properties": { "index": "102", "last_edit_year": 2024, "years_since_edit": 2, "label": "1.5–4.5 yr", "color": "#67a9cf" }, "geometry": { "type": "Point", "coordinates": [ 3.8719821, 43.6041743 ] } },
{ "type": "Feature", "properties": { "index": "103", "last_edit_year": 2023, "years_since_edit": 3, "label": "1.5–4.5 yr", "color": "#67a9cf" }, "geometry": { "type": "Point", "coordinates": [ 3.8785566, 43.6175488 ] } },
{ "type": "Feature", "properties": { "index": "104", "last_edit_year": 2023, "years_since_edit": 3, "label": "1.5–4.5 yr", "color": "#67a9cf" }, "geometry": { "type": "Point", "coordinates": [ 3.8769363, 43.6089025 ] } },
{ "type": "Feature", "properties": { "index": "105", "last_edit_year": 2026, "years_since_edit": 0, "label": "0.0–0.5 yr", "color": "#f6eff7" }, "geometry": { "type": "Point", "coordinates": [ 3.8771451, 43.613544 ] } },
{ "type": "Feature", "properties": { "index": "106", "last_edit_year": 2020, "years_since_edit": 6, "label": "4.5–8.5 yr", "color": "#1c9099" }, "geometry": { "type": "Point", "coordinates": [ 3.8791384, 43.6095397 ] } },
{ "type": "Feature", "properties": { "index": "107", "last_edit_year": 2021, "years_since_edit": 5, "label": "4.5–8.5 yr", "color": "#1c9099" }, "geometry": { "type": "Point", "coordinates": [ 3.8735835, 43.6161721 ] } },
{ "type": "Feature", "properties": { "index": "108", "last_edit_year": 2025, "years_since_edit": 1, "label": "0.5–1.5 yr", "color": "#bdc9e1" }, "geometry": { "type": "Point", "coordinates": [ 3.8736884, 43.6195005 ] } },
{ "type": "Feature", "properties": { "index": "109", "last_edit_year": 2025, "years_since_edit": 1, "label": "0.5–1.5 yr", "color": "#bdc9e1" }, "geometry": { "type": "Point", "coordinates": [ 3.88948, 43.6076035 ] } },
{ "type": "Feature", "properties": { "index": "110", "last_edit_year": 2024, "years_since_edit": 2, "label": "1.5–4.5 yr", "color": "#67a9cf" }, "geometry": { "type": "Point", "coordinates": [ 3.8937304, 43.6016 ] } },
{ "type": "Feature", "properties": { "index": "111", "last_edit_year": 2024, "years_since_edit": 2, "label": "1.5–4.5 yr", "color": "#67a9cf" }, "geometry": { "type": "Point", "coordinates": [ 3.8891991, 43.6040261 ] } },
{ "type": "Feature", "properties": { "index": "112", "last_edit_year": 2012, "years_since_edit": 14, "label": "8.5–14.0 yr", "color": "#016c59" }, "geometry": { "type": "Point", "coordinates": [ 3.8772545, 43.6063976 ] } },
{ "type": "Feature", "properties": { "index": "113", "last_edit_year": 2025, "years_since_edit": 1, "label": "0.5–1.5 yr", "color": "#bdc9e1" }, "geometry": { "type": "Point", "coordinates": [ 3.8825895, 43.6102849 ] } },
{ "type": "Feature", "properties": { "index": "114", "last_edit_year": 2025, "years_since_edit": 1, "label": "0.5–1.5 yr", "color": "#bdc9e1" }, "geometry": { "type": "Point", "coordinates": [ 3.8706599, 43.6108055 ] } },
{ "type": "Feature", "properties": { "index": "115", "last_edit_year": 2024, "years_since_edit": 2, "label": "1.5–4.5 yr", "color": "#67a9cf" }, "geometry": { "type": "Point", "coordinates": [ 3.8737843, 43.6140054 ] } },
{ "type": "Feature", "properties": { "index": "116", "last_edit_year": 2024, "years_since_edit": 2, "label": "1.5–4.5 yr", "color": "#67a9cf" }, "geometry": { "type": "Point", "coordinates": [ 3.8756478, 43.6149999 ] } },
{ "type": "Feature", "properties": { "index": "117", "last_edit_year": 2012, "years_since_edit": 14, "label": "8.5–14.0 yr", "color": "#016c59" }, "geometry": { "type": "Point", "coordinates": [ 3.8786293, 43.6170992 ] } },
{ "type": "Feature", "properties": { "index": "118", "last_edit_year": 2024, "years_since_edit": 2, "label": "1.5–4.5 yr", "color": "#67a9cf" }, "geometry": { "type": "Point", "coordinates": [ 3.8994416, 43.6208997 ] } },
{ "type": "Feature", "properties": { "index": "119", "last_edit_year": 2024, "years_since_edit": 2, "label": "1.5–4.5 yr", "color": "#67a9cf" }, "geometry": { "type": "Point", "coordinates": [ 3.8885295, 43.6222997 ] } },
{ "type": "Feature", "properties": { "index": "120", "last_edit_year": 2024, "years_since_edit": 2, "label": "1.5–4.5 yr", "color": "#67a9cf" }, "geometry": { "type": "Point", "coordinates": [ 3.8722725, 43.6242055 ] } },
{ "type": "Feature", "properties": { "index": "121", "last_edit_year": 2014, "years_since_edit": 12, "label": "8.5–14.0 yr", "color": "#016c59" }, "geometry": { "type": "Point", "coordinates": [ 3.8989028, 43.6049592 ] } },
{ "type": "Feature", "properties": { "index": "122", "last_edit_year": 2025, "years_since_edit": 1, "label": "0.5–1.5 yr", "color": "#bdc9e1" }, "geometry": { "type": "Point", "coordinates": [ 3.8969844, 43.6024338 ] } },
{ "type": "Feature", "properties": { "index": "123", "last_edit_year": 2026, "years_since_edit": 0, "label": "0.0–0.5 yr", "color": "#f6eff7" }, "geometry": { "type": "Point", "coordinates": [ 3.8840466, 43.6146254 ] } },
{ "type": "Feature", "properties": { "index": "124", "last_edit_year": 2024, "years_since_edit": 2, "label": "1.5–4.5 yr", "color": "#67a9cf" }, "geometry": { "type": "Point", "coordinates": [ 3.8735831, 43.6196022 ] } },
{ "type": "Feature", "properties": { "index": "125", "last_edit_year": 2024, "years_since_edit": 2, "label": "1.5–4.5 yr", "color": "#67a9cf" }, "geometry": { "type": "Point", "coordinates": [ 3.8819538, 43.6168714 ] } },
{ "type": "Feature", "properties": { "index": "126", "last_edit_year": 2025, "years_since_edit": 1, "label": "0.5–1.5 yr", "color": "#bdc9e1" }, "geometry": { "type": "Point", "coordinates": [ 3.8707813, 43.6116951 ] } },
{ "type": "Feature", "properties": { "index": "127", "last_edit_year": 2024, "years_since_edit": 2, "label": "1.5–4.5 yr", "color": "#67a9cf" }, "geometry": { "type": "Point", "coordinates": [ 3.8751716, 43.6126312 ] } },
{ "type": "Feature", "properties": { "index": "128", "last_edit_year": 2025, "years_since_edit": 1, "label": "0.5–1.5 yr", "color": "#bdc9e1" }, "geometry": { "type": "Point", "coordinates": [ 3.8936898, 43.608388 ] } },
{ "type": "Feature", "properties": { "index": "129", "last_edit_year": 2024, "years_since_edit": 2, "label": "1.5–4.5 yr", "color": "#67a9cf" }, "geometry": { "type": "Point", "coordinates": [ 3.8792357, 43.6107381 ] } },
{ "type": "Feature", "properties": { "index": "130", "last_edit_year": 2024, "years_since_edit": 2, "label": "1.5–4.5 yr", "color": "#67a9cf" }, "geometry": { "type": "Point", "coordinates": [ 3.8942664, 43.617777 ] } },
{ "type": "Feature", "properties": { "index": "131", "last_edit_year": 2025, "years_since_edit": 1, "label": "0.5–1.5 yr", "color": "#bdc9e1" }, "geometry": { "type": "Point", "coordinates": [ 3.8765754, 43.6088244 ] } },
{ "type": "Feature", "properties": { "index": "132", "last_edit_year": 2017, "years_since_edit": 9, "label": "8.5–14.0 yr", "color": "#016c59" }, "geometry": { "type": "Point", "coordinates": [ 3.8864352, 43.6108232 ] } },
{ "type": "Feature", "properties": { "index": "133", "last_edit_year": 2017, "years_since_edit": 9, "label": "8.5–14.0 yr", "color": "#016c59" }, "geometry": { "type": "Point", "coordinates": [ 3.8905405, 43.6109387 ] } },
{ "type": "Feature", "properties": { "index": "134", "last_edit_year": 2018, "years_since_edit": 8, "label": "4.5–8.5 yr", "color": "#1c9099" }, "geometry": { "type": "Point", "coordinates": [ 3.8887276, 43.6037904 ] } },
{ "type": "Feature", "properties": { "index": "135", "last_edit_year": 2025, "years_since_edit": 1, "label": "0.5–1.5 yr", "color": "#bdc9e1" }, "geometry": { "type": "Point", "coordinates": [ 3.8783515, 43.6074525 ] } },
{ "type": "Feature", "properties": { "index": "136", "last_edit_year": 2025, "years_since_edit": 1, "label": "0.5–1.5 yr", "color": "#bdc9e1" }, "geometry": { "type": "Point", "coordinates": [ 3.8919167, 43.6078055 ] } },
{ "type": "Feature", "properties": { "index": "137", "last_edit_year": 2025, "years_since_edit": 1, "label": "0.5–1.5 yr", "color": "#bdc9e1" }, "geometry": { "type": "Point", "coordinates": [ 3.8878889, 43.6079722 ] } },
{ "type": "Feature", "properties": { "index": "138", "last_edit_year": 2025, "years_since_edit": 1, "label": "0.5–1.5 yr", "color": "#bdc9e1" }, "geometry": { "type": "Point", "coordinates": [ 3.8971394, 43.6018018 ] } },
{ "type": "Feature", "properties": { "index": "139", "last_edit_year": 2025, "years_since_edit": 1, "label": "0.5–1.5 yr", "color": "#bdc9e1" }, "geometry": { "type": "Point", "coordinates": [ 3.8951123, 43.6020006 ] } },
{ "type": "Feature", "properties": { "index": "140", "last_edit_year": 2025, "years_since_edit": 1, "label": "0.5–1.5 yr", "color": "#bdc9e1" }, "geometry": { "type": "Point", "coordinates": [ 3.8812224, 43.6097226 ] } },
{ "type": "Feature", "properties": { "index": "141", "last_edit_year": 2024, "years_since_edit": 2, "label": "1.5–4.5 yr", "color": "#67a9cf" }, "geometry": { "type": "Point", "coordinates": [ 3.8730292, 43.6138891 ] } },
{ "type": "Feature", "properties": { "index": "142", "last_edit_year": 2024, "years_since_edit": 2, "label": "1.5–4.5 yr", "color": "#67a9cf" }, "geometry": { "type": "Point", "coordinates": [ 3.8765288, 43.6022205 ] } },
{ "type": "Feature", "properties": { "index": "143", "last_edit_year": 2024, "years_since_edit": 2, "label": "1.5–4.5 yr", "color": "#67a9cf" }, "geometry": { "type": "Point", "coordinates": [ 3.8754644, 43.601488 ] } },
{ "type": "Feature", "properties": { "index": "144", "last_edit_year": 2023, "years_since_edit": 3, "label": "1.5–4.5 yr", "color": "#67a9cf" }, "geometry": { "type": "Point", "coordinates": [ 3.8797954, 43.6033591 ] } },
{ "type": "Feature", "properties": { "index": "145", "last_edit_year": 2024, "years_since_edit": 2, "label": "1.5–4.5 yr", "color": "#67a9cf" }, "geometry": { "type": "Point", "coordinates": [ 3.8741418, 43.6152979 ] } },
{ "type": "Feature", "properties": { "index": "146", "last_edit_year": 2025, "years_since_edit": 1, "label": "0.5–1.5 yr", "color": "#bdc9e1" }, "geometry": { "type": "Point", "coordinates": [ 3.880166, 43.6051685 ] } },
{ "type": "Feature", "properties": { "index": "147", "last_edit_year": 2023, "years_since_edit": 3, "label": "1.5–4.5 yr", "color": "#67a9cf" }, "geometry": { "type": "Point", "coordinates": [ 3.8741317, 43.6002374 ] } },
{ "type": "Feature", "properties": { "index": "148", "last_edit_year": 2023, "years_since_edit": 3, "label": "1.5–4.5 yr", "color": "#67a9cf" }, "geometry": { "type": "Point", "coordinates": [ 3.8763486, 43.6046765 ] } },
{ "type": "Feature", "properties": { "index": "149", "last_edit_year": 2024, "years_since_edit": 2, "label": "1.5–4.5 yr", "color": "#67a9cf" }, "geometry": { "type": "Point", "coordinates": [ 3.9033585, 43.6014722 ] } },
{ "type": "Feature", "properties": { "index": "150", "last_edit_year": 2025, "years_since_edit": 1, "label": "0.5–1.5 yr", "color": "#bdc9e1" }, "geometry": { "type": "Point", "coordinates": [ 3.8964516, 43.6041268 ] } },
{ "type": "Feature", "properties": { "index": "151", "last_edit_year": 2025, "years_since_edit": 1, "label": "0.5–1.5 yr", "color": "#bdc9e1" }, "geometry": { "type": "Point", "coordinates": [ 3.8982793, 43.6046939 ] } },
{ "type": "Feature", "properties": { "index": "152", "last_edit_year": 2025, "years_since_edit": 1, "label": "0.5–1.5 yr", "color": "#bdc9e1" }, "geometry": { "type": "Point", "coordinates": [ 3.8804158, 43.6164199 ] } },
{ "type": "Feature", "properties": { "index": "153", "last_edit_year": 2024, "years_since_edit": 2, "label": "1.5–4.5 yr", "color": "#67a9cf" }, "geometry": { "type": "Point", "coordinates": [ 3.8673321, 43.6214352 ] } },
{ "type": "Feature", "properties": { "index": "154", "last_edit_year": 2025, "years_since_edit": 1, "label": "0.5–1.5 yr", "color": "#bdc9e1" }, "geometry": { "type": "Point", "coordinates": [ 3.8808358, 43.6047974 ] } },
{ "type": "Feature", "properties": { "index": "155", "last_edit_year": 2024, "years_since_edit": 2, "label": "1.5–4.5 yr", "color": "#67a9cf" }, "geometry": { "type": "Point", "coordinates": [ 3.8675405, 43.6177665 ] } },
{ "type": "Feature", "properties": { "index": "156", "last_edit_year": 2025, "years_since_edit": 1, "label": "0.5–1.5 yr", "color": "#bdc9e1" }, "geometry": { "type": "Point", "coordinates": [ 3.868639, 43.620201 ] } },
{ "type": "Feature", "properties": { "index": "157", "last_edit_year": 2025, "years_since_edit": 1, "label": "0.5–1.5 yr", "color": "#bdc9e1" }, "geometry": { "type": "Point", "coordinates": [ 3.8814149, 43.6112145 ] } },
{ "type": "Feature", "properties": { "index": "158", "last_edit_year": 2025, "years_since_edit": 1, "label": "0.5–1.5 yr", "color": "#bdc9e1" }, "geometry": { "type": "Point", "coordinates": [ 3.8672085, 43.6068657 ] } },
{ "type": "Feature", "properties": { "index": "159", "last_edit_year": 2025, "years_since_edit": 1, "label": "0.5–1.5 yr", "color": "#bdc9e1" }, "geometry": { "type": "Point", "coordinates": [ 3.8811065, 43.6158712 ] } },
{ "type": "Feature", "properties": { "index": "160", "last_edit_year": 2025, "years_since_edit": 1, "label": "0.5–1.5 yr", "color": "#bdc9e1" }, "geometry": { "type": "Point", "coordinates": [ 3.8805775, 43.6042951 ] } },
{ "type": "Feature", "properties": { "index": "161", "last_edit_year": 2025, "years_since_edit": 1, "label": "0.5–1.5 yr", "color": "#bdc9e1" }, "geometry": { "type": "Point", "coordinates": [ 3.8679892, 43.622134 ] } }
]
}
