{
"type": "FeatureCollection",
"features": [
{ "type": "Feature", "properties": { "index": "456", "@osmId": "node/6397929664", "name": null, "opening_hours": null, "label": "Water taps & filling points", "color": "#7bccc4" }, "geometry": { "type": "Point", "coordinates": [ 39.2486936, -6.8333273 ] } },
{ "type": "Feature", "properties": { "index": "457", "@osmId": "node/6397929665", "name": "Machachuni Water Point", "opening_hours": null, "label": "Water taps & filling points", "color": "#7bccc4" }, "geometry": { "type": "Point", "coordinates": [ 39.250634, -6.8342169 ] } },
{ "type": "Feature", "properties": { "index": "458", "@osmId": "node/6398092172", "name": "Salim Cost Water Point", "opening_hours": null, "label": "Water taps & filling points", "color": "#7bccc4" }, "geometry": { "type": "Point", "coordinates": [ 39.255034, -6.8268168 ] } },
{ "type": "Feature", "properties": { "index": "459", "@osmId": "node/6398092173", "name": "Cost Water Point", "opening_hours": null, "label": "Water taps & filling points", "color": "#7bccc4" }, "geometry": { "type": "Point", "coordinates": [ 39.2540781, -6.8257352 ] } },
{ "type": "Feature", "properties": { "index": "460", "@osmId": "node/6398092178", "name": "Bayabo water point", "opening_hours": null, "label": "Water taps & filling points", "color": "#7bccc4" }, "geometry": { "type": "Point", "coordinates": [ 39.2530598, -6.8262056 ] } },
{ "type": "Feature", "properties": { "index": "461", "@osmId": "node/6398092180", "name": "Heri water point", "opening_hours": null, "label": "Water taps & filling points", "color": "#7bccc4" }, "geometry": { "type": "Point", "coordinates": [ 39.2539504, -6.8258098 ] } },
{ "type": "Feature", "properties": { "index": "462", "@osmId": "node/6398092181", "name": "Rombo Water Point", "opening_hours": null, "label": "Water taps & filling points", "color": "#7bccc4" }, "geometry": { "type": "Point", "coordinates": [ 39.2527672, -6.8257589 ] } },
{ "type": "Feature", "properties": { "index": "463", "@osmId": "node/6398092182", "name": "Yahaya Water point", "opening_hours": null, "label": "Water taps & filling points", "color": "#7bccc4" }, "geometry": { "type": "Point", "coordinates": [ 39.2539672, -6.8254865 ] } },
{ "type": "Feature", "properties": { "index": "464", "@osmId": "node/6398093611", "name": "Government Water Point", "opening_hours": null, "label": "Water taps & filling points", "color": "#7bccc4" }, "geometry": { "type": "Point", "coordinates": [ 39.2654911, -6.8282568 ] } },
{ "type": "Feature", "properties": { "index": "465", "@osmId": "node/6400359589", "name": "Kingochi Public Water Point", "opening_hours": null, "label": "Water taps & filling points", "color": "#7bccc4" }, "geometry": { "type": "Point", "coordinates": [ 39.2491782, -6.7924764 ] } },
{ "type": "Feature", "properties": { "index": "466", "@osmId": "node/6400555955", "name": "Minicipal Public Water Point", "opening_hours": null, "label": "Water taps & filling points", "color": "#7bccc4" }, "geometry": { "type": "Point", "coordinates": [ 39.2442539, -6.8064633 ] } },
{ "type": "Feature", "properties": { "index": "467", "@osmId": "node/6400555966", "name": "Baptist Water Point", "opening_hours": null, "label": "Water taps & filling points", "color": "#7bccc4" }, "geometry": { "type": "Point", "coordinates": [ 39.2444613, -6.8069248 ] } },
{ "type": "Feature", "properties": { "index": "468", "@osmId": "node/6405873775", "name": "Water tap", "opening_hours": null, "label": "Water taps & filling points", "color": "#7bccc4" }, "geometry": { "type": "Point", "coordinates": [ 39.2476243, -6.7991657 ] } },
{ "type": "Feature", "properties": { "index": "469", "@osmId": "node/3752511488", "name": null, "opening_hours": null, "label": "Water taps & filling points", "color": "#7bccc4" }, "geometry": { "type": "Point", "coordinates": [ 39.2355009, -6.8026754 ] } },
{ "type": "Feature", "properties": { "index": "470", "@osmId": "node/3752512606", "name": null, "opening_hours": null, "label": "Water taps & filling points", "color": "#7bccc4" }, "geometry": { "type": "Point", "coordinates": [ 39.2348011, -6.8026767 ] } },
{ "type": "Feature", "properties": { "index": "471", "@osmId": "node/3752512609", "name": null, "opening_hours": null, "label": "Water taps & filling points", "color": "#7bccc4" }, "geometry": { "type": "Point", "coordinates": [ 39.2348141, -6.8026649 ] } },
{ "type": "Feature", "properties": { "index": "472", "@osmId": "node/3752512612", "name": null, "opening_hours": null, "label": "Water taps & filling points", "color": "#7bccc4" }, "geometry": { "type": "Point", "coordinates": [ 39.2348141, -6.8026833 ] } },
{ "type": "Feature", "properties": { "index": "473", "@osmId": "node/3752521797", "name": null, "opening_hours": null, "label": "Water taps & filling points", "color": "#7bccc4" }, "geometry": { "type": "Point", "coordinates": [ 39.2345176, -6.8025917 ] } },
{ "type": "Feature", "properties": { "index": "474", "@osmId": "node/3752521798", "name": null, "opening_hours": null, "label": "Water taps & filling points", "color": "#7bccc4" }, "geometry": { "type": "Point", "coordinates": [ 39.2345316, -6.8025811 ] } },
{ "type": "Feature", "properties": { "index": "475", "@osmId": "node/3752521800", "name": null, "opening_hours": null, "label": "Water taps & filling points", "color": "#7bccc4" }, "geometry": { "type": "Point", "coordinates": [ 39.2346198, -6.8026122 ] } },
{ "type": "Feature", "properties": { "index": "476", "@osmId": "node/3756069638", "name": null, "opening_hours": null, "label": "Water taps & filling points", "color": "#7bccc4" }, "geometry": { "type": "Point", "coordinates": [ 39.2338789, -6.8031434 ] } },
{ "type": "Feature", "properties": { "index": "477", "@osmId": "node/3756095921", "name": null, "opening_hours": null, "label": "Water taps & filling points", "color": "#7bccc4" }, "geometry": { "type": "Point", "coordinates": [ 39.2339088, -6.8035673 ] } },
{ "type": "Feature", "properties": { "index": "478", "@osmId": "node/3756112552", "name": null, "opening_hours": null, "label": "Water taps & filling points", "color": "#7bccc4" }, "geometry": { "type": "Point", "coordinates": [ 39.2346177, -6.8027709 ] } },
{ "type": "Feature", "properties": { "index": "479", "@osmId": "node/3756112553", "name": null, "opening_hours": null, "label": "Water taps & filling points", "color": "#7bccc4" }, "geometry": { "type": "Point", "coordinates": [ 39.2346293, -6.8027787 ] } },
{ "type": "Feature", "properties": { "index": "480", "@osmId": "node/3756128617", "name": null, "opening_hours": null, "label": "Water taps & filling points", "color": "#7bccc4" }, "geometry": { "type": "Point", "coordinates": [ 39.235071, -6.8032008 ] } },
{ "type": "Feature", "properties": { "index": "481", "@osmId": "node/3756128618", "name": null, "opening_hours": null, "label": "Water taps & filling points", "color": "#7bccc4" }, "geometry": { "type": "Point", "coordinates": [ 39.2351129, -6.8031997 ] } },
{ "type": "Feature", "properties": { "index": "482", "@osmId": "node/3758027614", "name": null, "opening_hours": null, "label": "Water taps & filling points", "color": "#7bccc4" }, "geometry": { "type": "Point", "coordinates": [ 39.2341857, -6.8036202 ] } },
{ "type": "Feature", "properties": { "index": "483", "@osmId": "node/3758027615", "name": null, "opening_hours": null, "label": "Water taps & filling points", "color": "#7bccc4" }, "geometry": { "type": "Point", "coordinates": [ 39.2345728, -6.8036013 ] } },
{ "type": "Feature", "properties": { "index": "484", "@osmId": "node/6398244380", "name": "Public Water Point", "opening_hours": null, "label": "Water taps & filling points", "color": "#7bccc4" }, "geometry": { "type": "Point", "coordinates": [ 39.2385429, -6.7878359 ] } },
{ "type": "Feature", "properties": { "index": "485", "@osmId": "node/6400555969", "name": "Kwa Manane Water Point", "opening_hours": null, "label": "Water taps & filling points", "color": "#7bccc4" }, "geometry": { "type": "Point", "coordinates": [ 39.2403889, -6.8084549 ] } },
{ "type": "Feature", "properties": { "index": "486", "@osmId": "node/6400555970", "name": "Kwa Babuu Sabuni Water Point", "opening_hours": null, "label": "Water taps & filling points", "color": "#7bccc4" }, "geometry": { "type": "Point", "coordinates": [ 39.2429178, -6.8067172 ] } },
{ "type": "Feature", "properties": { "index": "487", "@osmId": "node/6405873741", "name": "Water tap", "opening_hours": null, "label": "Water taps & filling points", "color": "#7bccc4" }, "geometry": { "type": "Point", "coordinates": [ 39.2403789, -6.8005714 ] } },
{ "type": "Feature", "properties": { "index": "488", "@osmId": "node/6406787753", "name": "Uwanja wa raha water point", "opening_hours": null, "label": "Water taps & filling points", "color": "#7bccc4" }, "geometry": { "type": "Point", "coordinates": [ 39.2360591, -6.7954092 ] } }
]
}
