{
"type": "FeatureCollection",
"features": [
{ "type": "Feature", "properties": { "index": "0", "label": "Within 1500 m by bike", "color": "#2b8cbe" }, "geometry": { "type": "Polygon", "coordinates": [ [ [ 39.2211521, -6.780759 ], [ 39.2204565, -6.7807251 ], [ 39.22, -6.7807478 ], [ 39.22, -6.85 ], [ 39.2528595, -6.8500016 ], [ 39.2530879, -6.8496935 ], [ 39.2533886, -6.8491916 ], [ 39.2543981, -6.8490414 ], [ 39.2556903, -6.8487172 ], [ 39.2569445, -6.8482679 ], [ 39.2581485, -6.8476979 ], [ 39.2592909, -6.8470127 ], [ 39.2603606, -6.8462189 ], [ 39.2613473, -6.8453241 ], [ 39.2616202, -6.8450229 ], [ 39.2623476, -6.8449146 ], [ 39.2636397, -6.8445904 ], [ 39.2648939, -6.8441411 ], [ 39.2651196, -6.8440343 ], [ 39.2650675, -6.8443864 ], [ 39.2650029, -6.8457164 ], [ 39.265069, -6.8470463 ], [ 39.2652652, -6.8483634 ], [ 39.2655896, -6.8496549 ], [ 39.265714, -6.8500016 ], [ 39.29231, -6.8500006 ], [ 39.2925873, -6.8492244 ], [ 39.2929102, -6.8479325 ], [ 39.2931049, -6.8466152 ], [ 39.2931695, -6.8452852 ], [ 39.2931033, -6.8439553 ], [ 39.292907, -6.8426382 ], [ 39.2925825, -6.8413467 ], [ 39.2921329, -6.8400933 ], [ 39.2915626, -6.8388899 ], [ 39.2908769, -6.8377482 ], [ 39.2900827, -6.8366791 ], [ 39.2891874, -6.835693 ], [ 39.2881997, -6.8347993 ], [ 39.2871291, -6.8340068 ], [ 39.285986, -6.8333229 ], [ 39.2847813, -6.8327543 ], [ 39.2835267, -6.8323064 ], [ 39.2822342, -6.8319836 ], [ 39.2809162, -6.831789 ], [ 39.2808564, -6.8317861 ], [ 39.2814285, -6.8310141 ], [ 39.2821128, -6.8298716 ], [ 39.2826817, -6.8286675 ], [ 39.2831297, -6.8274135 ], [ 39.2834527, -6.8261216 ], [ 39.2834586, -6.8260818 ], [ 39.2837146, -6.8258918 ], [ 39.2847012, -6.824997 ], [ 39.2855953, -6.8240098 ], [ 39.2863883, -6.8229398 ], [ 39.2870725, -6.8217973 ], [ 39.2876414, -6.8205932 ], [ 39.2880895, -6.8193392 ], [ 39.2884124, -6.8180473 ], [ 39.2886071, -6.81673 ], [ 39.2886288, -6.8162829 ], [ 39.2887954, -6.8151553 ], [ 39.28886, -6.8138253 ], [ 39.2887938, -6.8124953 ], [ 39.2885976, -6.8111783 ], [ 39.2882731, -6.8098868 ], [ 39.2878236, -6.8086333 ], [ 39.2872533, -6.8074299 ], [ 39.2865677, -6.8062882 ], [ 39.2857735, -6.8052191 ], [ 39.2848783, -6.804233 ], [ 39.2838907, -6.8033393 ], [ 39.2828202, -6.8025467 ], [ 39.2820936, -6.802112 ], [ 39.2822677, -6.8009339 ], [ 39.2822922, -6.8004307 ], [ 39.2823001, -6.8003769 ], [ 39.2823647, -6.7990469 ], [ 39.2823039, -6.7978236 ], [ 39.2823074, -6.7977516 ], [ 39.2822412, -6.7964216 ], [ 39.282045, -6.7951046 ], [ 39.2817205, -6.7938131 ], [ 39.281684, -6.7937111 ], [ 39.2818517, -6.7925764 ], [ 39.2819163, -6.7912464 ], [ 39.2818501, -6.7899164 ], [ 39.2816539, -6.7885994 ], [ 39.2813295, -6.7873079 ], [ 39.28088, -6.7860544 ], [ 39.2803097, -6.784851 ], [ 39.2796242, -6.7837092 ], [ 39.27883, -6.7826402 ], [ 39.2779349, -6.781654 ], [ 39.2769473, -6.7807603 ], [ 39.2759224, -6.7800014 ], [ 39.2225901, -6.7800002 ], [ 39.2217696, -6.7803886 ], [ 39.2211521, -6.780759 ] ] ] } },
{ "type": "Feature", "properties": { "index": "1", "label": "Beyond 1500 m", "color": "#d9d9d9" }, "geometry": { "type": "MultiPolygon", "coordinates": [ [ [ [ 39.3, -6.85 ], [ 39.3, -6.78 ], [ 39.2759224, -6.7800014 ], [ 39.2769473, -6.7807603 ], [ 39.2779349, -6.781654 ], [ 39.27883, -6.7826402 ], [ 39.2796242, -6.7837092 ], [ 39.2803097, -6.784851 ], [ 39.28088, -6.7860544 ], [ 39.2813295, -6.7873079 ], [ 39.2816539, -6.7885994 ], [ 39.2818501, -6.7899164 ], [ 39.2819163, -6.7912464 ], [ 39.2818517, -6.7925764 ], [ 39.281684, -6.7937111 ], [ 39.2817205, -6.7938131 ], [ 39.282045, -6.7951046 ], [ 39.2822412, -6.7964216 ], [ 39.2823074, -6.7977516 ], [ 39.2823039, -6.7978236 ], [ 39.2823647, -6.7990469 ], [ 39.2823001, -6.8003769 ], [ 39.2822922, -6.8004307 ], [ 39.2822677, -6.8009339 ], [ 39.2820936, -6.802112 ], [ 39.2828202, -6.8025467 ], [ 39.2838907, -6.8033393 ], [ 39.2848783, -6.804233 ], [ 39.2857735, -6.8052191 ], [ 39.2865677, -6.8062882 ], [ 39.2872533, -6.8074299 ], [ 39.2878236, -6.8086333 ], [ 39.2882731, -6.8098868 ], [ 39.2885976, -6.8111783 ], [ 39.2887938, -6.8124953 ], [ 39.28886, -6.8138253 ], [ 39.2887954, -6.8151553 ], [ 39.2886288, -6.8162829 ], [ 39.2886071, -6.81673 ], [ 39.2884124, -6.8180473 ], [ 39.2880895, -6.8193392 ], [ 39.2876414, -6.8205932 ], [ 39.2870725, -6.8217973 ], [ 39.2863883, -6.8229398 ], [ 39.2855953, -6.8240098 ], [ 39.2847012, -6.824997 ], [ 39.2837146, -6.8258918 ], [ 39.2834586, -6.8260818 ], [ 39.2834527, -6.8261216 ], [ 39.2831297, -6.8274135 ], [ 39.2826817, -6.8286675 ], [ 39.2821128, -6.8298716 ], [ 39.2814285, -6.8310141 ], [ 39.2808564, -6.8317861 ], [ 39.2809162, -6.831789 ], [ 39.2822342, -6.8319836 ], [ 39.2835267, -6.8323064 ], [ 39.2847813, -6.8327543 ], [ 39.285986, -6.8333229 ], [ 39.2871291, -6.8340068 ], [ 39.2881997, -6.8347993 ], [ 39.2891874, -6.835693 ], [ 39.2900827, -6.8366791 ], [ 39.2908769, -6.8377482 ], [ 39.2915626, -6.8388899 ], [ 39.2921329, -6.8400933 ], [ 39.2925825, -6.8413467 ], [ 39.292907, -6.8426382 ], [ 39.2931033, -6.8439553 ], [ 39.2931695, -6.8452852 ], [ 39.2931049, -6.8466152 ], [ 39.2929102, -6.8479325 ], [ 39.2925873, -6.8492244 ], [ 39.29231, -6.8500006 ], [ 39.3, -6.85 ] ] ], [ [ [ 39.2225901, -6.7800002 ], [ 39.22, -6.78 ], [ 39.22, -6.7807478 ], [ 39.2204565, -6.7807251 ], [ 39.2211521, -6.780759 ], [ 39.2217696, -6.7803886 ], [ 39.2225901, -6.7800002 ] ] ], [ [ [ 39.2530879, -6.8496935 ], [ 39.2528595, -6.8500016 ], [ 39.265714, -6.8500016 ], [ 39.2655896, -6.8496549 ], [ 39.2652652, -6.8483634 ], [ 39.265069, -6.8470463 ], [ 39.2650029, -6.8457164 ], [ 39.2650675, -6.8443864 ], [ 39.2651196, -6.8440343 ], [ 39.2648939, -6.8441411 ], [ 39.2636397, -6.8445904 ], [ 39.2623476, -6.8449146 ], [ 39.2616202, -6.8450229 ], [ 39.2613473, -6.8453241 ], [ 39.2603606, -6.8462189 ], [ 39.2592909, -6.8470127 ], [ 39.2581485, -6.8476979 ], [ 39.2569445, -6.8482679 ], [ 39.2556903, -6.8487172 ], [ 39.2543981, -6.8490414 ], [ 39.2533886, -6.8491916 ], [ 39.2530879, -6.8496935 ] ] ] ] } }
]
}
