{
"type": "FeatureCollection",
"features": [
{ "type": "Feature", "properties": { "index": "0", "@osmId": "node/247386305", "name": null, "opening_hours": null, "label": "Signalised crossings with acoustic guidance", "color": "#e6550d" }, "geometry": { "type": "Point", "coordinates": [ 3.8576113, 43.6208307 ] } },
{ "type": "Feature", "properties": { "index": "1", "@osmId": "node/1556444446", "name": null, "opening_hours": null, "label": "Signalised crossings with acoustic guidance", "color": "#e6550d" }, "geometry": { "type": "Point", "coordinates": [ 3.8574186, 43.6207367 ] } },
{ "type": "Feature", "properties": { "index": "2", "@osmId": "node/1556444453", "name": null, "opening_hours": null, "label": "Signalised crossings with acoustic guidance", "color": "#e6550d" }, "geometry": { "type": "Point", "coordinates": [ 3.8575557, 43.6207661 ] } },
{ "type": "Feature", "properties": { "index": "3", "@osmId": "node/3417313102", "name": null, "opening_hours": null, "label": "Signalised crossings with acoustic guidance", "color": "#e6550d" }, "geometry": { "type": "Point", "coordinates": [ 3.8584326, 43.6042305 ] } },
{ "type": "Feature", "properties": { "index": "4", "@osmId": "node/3417321195", "name": null, "opening_hours": null, "label": "Signalised crossings with acoustic guidance", "color": "#e6550d" }, "geometry": { "type": "Point", "coordinates": [ 3.8581408, 43.6040125 ] } },
{ "type": "Feature", "properties": { "index": "5", "@osmId": "node/3417322098", "name": null, "opening_hours": null, "label": "Signalised crossings with acoustic guidance", "color": "#e6550d" }, "geometry": { "type": "Point", "coordinates": [ 3.8581824, 43.6041823 ] } },
{ "type": "Feature", "properties": { "index": "6", "@osmId": "node/5545921218", "name": null, "opening_hours": null, "label": "Signalised crossings with acoustic guidance", "color": "#e6550d" }, "geometry": { "type": "Point", "coordinates": [ 3.86703, 43.6057872 ] } },
{ "type": "Feature", "properties": { "index": "7", "@osmId": "node/132789367", "name": null, "opening_hours": null, "label": "Signalised crossings with acoustic guidance", "color": "#e6550d" }, "geometry": { "type": "Point", "coordinates": [ 3.9011116, 43.6013957 ] } },
{ "type": "Feature", "properties": { "index": "8", "@osmId": "node/221830410", "name": null, "opening_hours": null, "label": "Signalised crossings with acoustic guidance", "color": "#e6550d" }, "geometry": { "type": "Point", "coordinates": [ 3.8784138, 43.618156 ] } },
{ "type": "Feature", "properties": { "index": "9", "@osmId": "node/250680201", "name": null, "opening_hours": null, "label": "Signalised crossings with acoustic guidance", "color": "#e6550d" }, "geometry": { "type": "Point", "coordinates": [ 3.8887031, 43.6134951 ] } },
{ "type": "Feature", "properties": { "index": "10", "@osmId": "node/283318237", "name": null, "opening_hours": null, "label": "Signalised crossings with acoustic guidance", "color": "#e6550d" }, "geometry": { "type": "Point", "coordinates": [ 3.8883751, 43.6033273 ] } },
{ "type": "Feature", "properties": { "index": "11", "@osmId": "node/286491641", "name": null, "opening_hours": null, "label": "Signalised crossings with acoustic guidance", "color": "#e6550d" }, "geometry": { "type": "Point", "coordinates": [ 3.9001575, 43.601857 ] } },
{ "type": "Feature", "properties": { "index": "12", "@osmId": "node/286491642", "name": null, "opening_hours": null, "label": "Signalised crossings with acoustic guidance", "color": "#e6550d" }, "geometry": { "type": "Point", "coordinates": [ 3.9002465, 43.6017214 ] } },
{ "type": "Feature", "properties": { "index": "13", "@osmId": "node/290825389", "name": null, "opening_hours": null, "label": "Signalised crossings with acoustic guidance", "color": "#e6550d" }, "geometry": { "type": "Point", "coordinates": [ 3.8887816, 43.6132099 ] } },
{ "type": "Feature", "properties": { "index": "14", "@osmId": "node/323731572", "name": null, "opening_hours": null, "label": "Signalised crossings with acoustic guidance", "color": "#e6550d" }, "geometry": { "type": "Point", "coordinates": [ 3.8847783, 43.603221 ] } },
{ "type": "Feature", "properties": { "index": "15", "@osmId": "node/368009808", "name": null, "opening_hours": null, "label": "Signalised crossings with acoustic guidance", "color": "#e6550d" }, "geometry": { "type": "Point", "coordinates": [ 3.8880793, 43.6091381 ] } },
{ "type": "Feature", "properties": { "index": "16", "@osmId": "node/933849173", "name": null, "opening_hours": null, "label": "Signalised crossings with acoustic guidance", "color": "#e6550d" }, "geometry": { "type": "Point", "coordinates": [ 3.8695282, 43.6175681 ] } },
{ "type": "Feature", "properties": { "index": "17", "@osmId": "node/940786647", "name": null, "opening_hours": null, "label": "Signalised crossings with acoustic guidance", "color": "#e6550d" }, "geometry": { "type": "Point", "coordinates": [ 3.884799, 43.6075381 ] } },
{ "type": "Feature", "properties": { "index": "18", "@osmId": "node/976921158", "name": null, "opening_hours": null, "label": "Signalised crossings with acoustic guidance", "color": "#e6550d" }, "geometry": { "type": "Point", "coordinates": [ 3.883383, 43.6148465 ] } },
{ "type": "Feature", "properties": { "index": "19", "@osmId": "node/976921307", "name": null, "opening_hours": null, "label": "Signalised crossings with acoustic guidance", "color": "#e6550d" }, "geometry": { "type": "Point", "coordinates": [ 3.8830524, 43.6149804 ] } },
{ "type": "Feature", "properties": { "index": "20", "@osmId": "node/977654098", "name": null, "opening_hours": null, "label": "Signalised crossings with acoustic guidance", "color": "#e6550d" }, "geometry": { "type": "Point", "coordinates": [ 3.8888055, 43.6134857 ] } },
{ "type": "Feature", "properties": { "index": "21", "@osmId": "node/977674883", "name": null, "opening_hours": null, "label": "Signalised crossings with acoustic guidance", "color": "#e6550d" }, "geometry": { "type": "Point", "coordinates": [ 3.892207, 43.6147486 ] } },
{ "type": "Feature", "properties": { "index": "22", "@osmId": "node/977921883", "name": null, "opening_hours": null, "label": "Signalised crossings with acoustic guidance", "color": "#e6550d" }, "geometry": { "type": "Point", "coordinates": [ 3.892006, 43.615033 ] } },
{ "type": "Feature", "properties": { "index": "23", "@osmId": "node/1357894433", "name": null, "opening_hours": null, "label": "Signalised crossings with acoustic guidance", "color": "#e6550d" }, "geometry": { "type": "Point", "coordinates": [ 3.8883331, 43.613327 ] } },
{ "type": "Feature", "properties": { "index": "24", "@osmId": "node/1357894440", "name": null, "opening_hours": null, "label": "Signalised crossings with acoustic guidance", "color": "#e6550d" }, "geometry": { "type": "Point", "coordinates": [ 3.8883866, 43.6133765 ] } },
{ "type": "Feature", "properties": { "index": "25", "@osmId": "node/1357894441", "name": null, "opening_hours": null, "label": "Signalised crossings with acoustic guidance", "color": "#e6550d" }, "geometry": { "type": "Point", "coordinates": [ 3.8884563, 43.6134411 ] } },
{ "type": "Feature", "properties": { "index": "26", "@osmId": "node/1539538156", "name": null, "opening_hours": null, "label": "Signalised crossings with acoustic guidance", "color": "#e6550d" }, "geometry": { "type": "Point", "coordinates": [ 3.8976742, 43.6006755 ] } },
{ "type": "Feature", "properties": { "index": "27", "@osmId": "node/1556143031", "name": null, "opening_hours": null, "label": "Signalised crossings with acoustic guidance", "color": "#e6550d" }, "geometry": { "type": "Point", "coordinates": [ 3.8837738, 43.6144064 ] } },
{ "type": "Feature", "properties": { "index": "28", "@osmId": "node/1583996889", "name": null, "opening_hours": null, "label": "Signalised crossings with acoustic guidance", "color": "#e6550d" }, "geometry": { "type": "Point", "coordinates": [ 3.8747486, 43.6161802 ] } },
{ "type": "Feature", "properties": { "index": "29", "@osmId": "node/1583996894", "name": null, "opening_hours": null, "label": "Signalised crossings with acoustic guidance", "color": "#e6550d" }, "geometry": { "type": "Point", "coordinates": [ 3.8745253, 43.6163751 ] } },
{ "type": "Feature", "properties": { "index": "30", "@osmId": "node/1601172856", "name": null, "opening_hours": null, "label": "Signalised crossings with acoustic guidance", "color": "#e6550d" }, "geometry": { "type": "Point", "coordinates": [ 3.8899687, 43.6041232 ] } },
{ "type": "Feature", "properties": { "index": "31", "@osmId": "node/1605459488", "name": null, "opening_hours": null, "label": "Signalised crossings with acoustic guidance", "color": "#e6550d" }, "geometry": { "type": "Point", "coordinates": [ 3.8932666, 43.6038458 ] } },
{ "type": "Feature", "properties": { "index": "32", "@osmId": "node/1605459509", "name": null, "opening_hours": null, "label": "Signalised crossings with acoustic guidance", "color": "#e6550d" }, "geometry": { "type": "Point", "coordinates": [ 3.8928275, 43.6039231 ] } },
{ "type": "Feature", "properties": { "index": "33", "@osmId": "node/1605459510", "name": null, "opening_hours": null, "label": "Signalised crossings with acoustic guidance", "color": "#e6550d" }, "geometry": { "type": "Point", "coordinates": [ 3.8947006, 43.603938 ] } },
{ "type": "Feature", "properties": { "index": "34", "@osmId": "node/1605459556", "name": null, "opening_hours": null, "label": "Signalised crossings with acoustic guidance", "color": "#e6550d" }, "geometry": { "type": "Point", "coordinates": [ 3.892911, 43.6040122 ] } },
{ "type": "Feature", "properties": { "index": "35", "@osmId": "node/1605459683", "name": null, "opening_hours": null, "label": "Signalised crossings with acoustic guidance", "color": "#e6550d" }, "geometry": { "type": "Point", "coordinates": [ 3.894936, 43.6044352 ] } },
{ "type": "Feature", "properties": { "index": "36", "@osmId": "node/1605459707", "name": null, "opening_hours": null, "label": "Signalised crossings with acoustic guidance", "color": "#e6550d" }, "geometry": { "type": "Point", "coordinates": [ 3.8945883, 43.604499 ] } },
{ "type": "Feature", "properties": { "index": "37", "@osmId": "node/1616132595", "name": null, "opening_hours": null, "label": "Signalised crossings with acoustic guidance", "color": "#e6550d" }, "geometry": { "type": "Point", "coordinates": [ 3.8770837, 43.6060944 ] } },
{ "type": "Feature", "properties": { "index": "38", "@osmId": "node/1627079578", "name": null, "opening_hours": null, "label": "Signalised crossings with acoustic guidance", "color": "#e6550d" }, "geometry": { "type": "Point", "coordinates": [ 3.8880909, 43.6034829 ] } },
{ "type": "Feature", "properties": { "index": "39", "@osmId": "node/1627079581", "name": null, "opening_hours": null, "label": "Signalised crossings with acoustic guidance", "color": "#e6550d" }, "geometry": { "type": "Point", "coordinates": [ 3.890412, 43.6035164 ] } },
{ "type": "Feature", "properties": { "index": "40", "@osmId": "node/1627079582", "name": null, "opening_hours": null, "label": "Signalised crossings with acoustic guidance", "color": "#e6550d" }, "geometry": { "type": "Point", "coordinates": [ 3.8883253, 43.6035178 ] } },
{ "type": "Feature", "properties": { "index": "41", "@osmId": "node/1627079585", "name": null, "opening_hours": null, "label": "Signalised crossings with acoustic guidance", "color": "#e6550d" }, "geometry": { "type": "Point", "coordinates": [ 3.8905259, 43.6035397 ] } },
{ "type": "Feature", "properties": { "index": "42", "@osmId": "node/1627079598", "name": null, "opening_hours": null, "label": "Signalised crossings with acoustic guidance", "color": "#e6550d" }, "geometry": { "type": "Point", "coordinates": [ 3.8900261, 43.6036138 ] } },
{ "type": "Feature", "properties": { "index": "43", "@osmId": "node/1627079599", "name": null, "opening_hours": null, "label": "Signalised crossings with acoustic guidance", "color": "#e6550d" }, "geometry": { "type": "Point", "coordinates": [ 3.8905854, 43.6036151 ] } },
{ "type": "Feature", "properties": { "index": "44", "@osmId": "node/1627079606", "name": null, "opening_hours": null, "label": "Signalised crossings with acoustic guidance", "color": "#e6550d" }, "geometry": { "type": "Point", "coordinates": [ 3.8897348, 43.6036798 ] } },
{ "type": "Feature", "properties": { "index": "45", "@osmId": "node/1627079610", "name": null, "opening_hours": null, "label": "Signalised crossings with acoustic guidance", "color": "#e6550d" }, "geometry": { "type": "Point", "coordinates": [ 3.8905711, 43.6037206 ] } },
{ "type": "Feature", "properties": { "index": "46", "@osmId": "node/1826255710", "name": null, "opening_hours": null, "label": "Signalised crossings with acoustic guidance", "color": "#e6550d" }, "geometry": { "type": "Point", "coordinates": [ 3.8938259, 43.6068614 ] } },
{ "type": "Feature", "properties": { "index": "47", "@osmId": "node/1905690688", "name": null, "opening_hours": null, "label": "Signalised crossings with acoustic guidance", "color": "#e6550d" }, "geometry": { "type": "Point", "coordinates": [ 3.8830373, 43.6147835 ] } },
{ "type": "Feature", "properties": { "index": "48", "@osmId": "node/1905841813", "name": null, "opening_hours": null, "label": "Signalised crossings with acoustic guidance", "color": "#e6550d" }, "geometry": { "type": "Point", "coordinates": [ 3.8790714, 43.6151243 ] } },
{ "type": "Feature", "properties": { "index": "49", "@osmId": "node/1931294112", "name": null, "opening_hours": null, "label": "Signalised crossings with acoustic guidance", "color": "#e6550d" }, "geometry": { "type": "Point", "coordinates": [ 3.869888, 43.6148842 ] } },
{ "type": "Feature", "properties": { "index": "50", "@osmId": "node/1931294114", "name": null, "opening_hours": null, "label": "Signalised crossings with acoustic guidance", "color": "#e6550d" }, "geometry": { "type": "Point", "coordinates": [ 3.8699167, 43.6149735 ] } },
{ "type": "Feature", "properties": { "index": "51", "@osmId": "node/1931294116", "name": null, "opening_hours": null, "label": "Signalised crossings with acoustic guidance", "color": "#e6550d" }, "geometry": { "type": "Point", "coordinates": [ 3.8697226, 43.6152839 ] } },
{ "type": "Feature", "properties": { "index": "52", "@osmId": "node/1931294120", "name": null, "opening_hours": null, "label": "Signalised crossings with acoustic guidance", "color": "#e6550d" }, "geometry": { "type": "Point", "coordinates": [ 3.8695763, 43.6155299 ] } },
{ "type": "Feature", "properties": { "index": "53", "@osmId": "node/1968231094", "name": null, "opening_hours": null, "label": "Signalised crossings with acoustic guidance", "color": "#e6550d" }, "geometry": { "type": "Point", "coordinates": [ 3.8831959, 43.6148708 ] } },
{ "type": "Feature", "properties": { "index": "54", "@osmId": "node/1968231111", "name": null, "opening_hours": null, "label": "Signalised crossings with acoustic guidance", "color": "#e6550d" }, "geometry": { "type": "Point", "coordinates": [ 3.8831062, 43.6148645 ] } },
{ "type": "Feature", "properties": { "index": "55", "@osmId": "node/1994584571", "name": null, "opening_hours": null, "label": "Signalised crossings with acoustic guidance", "color": "#e6550d" }, "geometry": { "type": "Point", "coordinates": [ 3.8674609, 43.6127586 ] } },
{ "type": "Feature", "properties": { "index": "56", "@osmId": "node/2001357142", "name": null, "opening_hours": null, "label": "Signalised crossings with acoustic guidance", "color": "#e6550d" }, "geometry": { "type": "Point", "coordinates": [ 3.8784457, 43.6182493 ] } },
{ "type": "Feature", "properties": { "index": "57", "@osmId": "node/2129896101", "name": null, "opening_hours": null, "label": "Signalised crossings with acoustic guidance", "color": "#e6550d" }, "geometry": { "type": "Point", "coordinates": [ 3.8825946, 43.6016652 ] } },
{ "type": "Feature", "properties": { "index": "58", "@osmId": "node/2129896105", "name": null, "opening_hours": null, "label": "Signalised crossings with acoustic guidance", "color": "#e6550d" }, "geometry": { "type": "Point", "coordinates": [ 3.8828279, 43.6015708 ] } },
{ "type": "Feature", "properties": { "index": "59", "@osmId": "node/2129896107", "name": null, "opening_hours": null, "label": "Signalised crossings with acoustic guidance", "color": "#e6550d" }, "geometry": { "type": "Point", "coordinates": [ 3.8824691, 43.6016144 ] } },
{ "type": "Feature", "properties": { "index": "60", "@osmId": "node/2129896113", "name": null, "opening_hours": null, "label": "Signalised crossings with acoustic guidance", "color": "#e6550d" }, "geometry": { "type": "Point", "coordinates": [ 3.8828179, 43.601495 ] } },
{ "type": "Feature", "properties": { "index": "61", "@osmId": "node/2279471937", "name": null, "opening_hours": null, "label": "Signalised crossings with acoustic guidance", "color": "#e6550d" }, "geometry": { "type": "Point", "coordinates": [ 3.8846947, 43.6074911 ] } },
{ "type": "Feature", "properties": { "index": "62", "@osmId": "node/2296499446", "name": null, "opening_hours": null, "label": "Signalised crossings with acoustic guidance", "color": "#e6550d" }, "geometry": { "type": "Point", "coordinates": [ 3.8747211, 43.6163848 ] } },
{ "type": "Feature", "properties": { "index": "63", "@osmId": "node/2442545865", "name": null, "opening_hours": null, "label": "Signalised crossings with acoustic guidance", "color": "#e6550d" }, "geometry": { "type": "Point", "coordinates": [ 3.9036066, 43.602722 ] } },
{ "type": "Feature", "properties": { "index": "64", "@osmId": "node/2442545866", "name": null, "opening_hours": null, "label": "Signalised crossings with acoustic guidance", "color": "#e6550d" }, "geometry": { "type": "Point", "coordinates": [ 3.9036603, 43.6026027 ] } },
{ "type": "Feature", "properties": { "index": "65", "@osmId": "node/2530617668", "name": null, "opening_hours": null, "label": "Signalised crossings with acoustic guidance", "color": "#e6550d" }, "geometry": { "type": "Point", "coordinates": [ 3.889629, 43.6121904 ] } },
{ "type": "Feature", "properties": { "index": "66", "@osmId": "node/2530617670", "name": null, "opening_hours": null, "label": "Signalised crossings with acoustic guidance", "color": "#e6550d" }, "geometry": { "type": "Point", "coordinates": [ 3.8893912, 43.6123343 ] } },
{ "type": "Feature", "properties": { "index": "67", "@osmId": "node/2530617701", "name": null, "opening_hours": null, "label": "Signalised crossings with acoustic guidance", "color": "#e6550d" }, "geometry": { "type": "Point", "coordinates": [ 3.8889158, 43.6134072 ] } },
{ "type": "Feature", "properties": { "index": "68", "@osmId": "node/2597367149", "name": null, "opening_hours": null, "label": "Signalised crossings with acoustic guidance", "color": "#e6550d" }, "geometry": { "type": "Point", "coordinates": [ 3.8744424, 43.6029778 ] } },
{ "type": "Feature", "properties": { "index": "69", "@osmId": "node/2948127142", "name": null, "opening_hours": null, "label": "Signalised crossings with acoustic guidance", "color": "#e6550d" }, "geometry": { "type": "Point", "coordinates": [ 3.8846827, 43.6017335 ] } },
{ "type": "Feature", "properties": { "index": "70", "@osmId": "node/2948127143", "name": null, "opening_hours": null, "label": "Signalised crossings with acoustic guidance", "color": "#e6550d" }, "geometry": { "type": "Point", "coordinates": [ 3.8845583, 43.6017989 ] } },
{ "type": "Feature", "properties": { "index": "71", "@osmId": "node/2948127144", "name": null, "opening_hours": null, "label": "Signalised crossings with acoustic guidance", "color": "#e6550d" }, "geometry": { "type": "Point", "coordinates": [ 3.8847907, 43.6018318 ] } },
{ "type": "Feature", "properties": { "index": "72", "@osmId": "node/2948127145", "name": null, "opening_hours": null, "label": "Signalised crossings with acoustic guidance", "color": "#e6550d" }, "geometry": { "type": "Point", "coordinates": [ 3.8845598, 43.6019093 ] } },
{ "type": "Feature", "properties": { "index": "73", "@osmId": "node/3147213453", "name": null, "opening_hours": null, "label": "Signalised crossings with acoustic guidance", "color": "#e6550d" }, "geometry": { "type": "Point", "coordinates": [ 3.8677552, 43.6032652 ] } },
{ "type": "Feature", "properties": { "index": "74", "@osmId": "node/3147213454", "name": null, "opening_hours": null, "label": "Signalised crossings with acoustic guidance", "color": "#e6550d" }, "geometry": { "type": "Point", "coordinates": [ 3.8678719, 43.6036586 ] } },
{ "type": "Feature", "properties": { "index": "75", "@osmId": "node/3147213457", "name": null, "opening_hours": null, "label": "Signalised crossings with acoustic guidance", "color": "#e6550d" }, "geometry": { "type": "Point", "coordinates": [ 3.8677328, 43.6035544 ] } },
{ "type": "Feature", "properties": { "index": "76", "@osmId": "node/3147213458", "name": null, "opening_hours": null, "label": "Signalised crossings with acoustic guidance", "color": "#e6550d" }, "geometry": { "type": "Point", "coordinates": [ 3.8677605, 43.6037194 ] } },
{ "type": "Feature", "properties": { "index": "77", "@osmId": "node/3574330696", "name": null, "opening_hours": null, "label": "Signalised crossings with acoustic guidance", "color": "#e6550d" }, "geometry": { "type": "Point", "coordinates": [ 3.8673649, 43.6127497 ] } },
{ "type": "Feature", "properties": { "index": "78", "@osmId": "node/3643428067", "name": null, "opening_hours": null, "label": "Signalised crossings with acoustic guidance", "color": "#e6550d" }, "geometry": { "type": "Point", "coordinates": [ 3.8946455, 43.6001519 ] } },
{ "type": "Feature", "properties": { "index": "79", "@osmId": "node/3670034498", "name": null, "opening_hours": null, "label": "Signalised crossings with acoustic guidance", "color": "#e6550d" }, "geometry": { "type": "Point", "coordinates": [ 3.8973707, 43.6007277 ] } },
{ "type": "Feature", "properties": { "index": "80", "@osmId": "node/3671584108", "name": null, "opening_hours": null, "label": "Signalised crossings with acoustic guidance", "color": "#e6550d" }, "geometry": { "type": "Point", "coordinates": [ 3.8938311, 43.6058416 ] } },
{ "type": "Feature", "properties": { "index": "81", "@osmId": "node/3742670451", "name": null, "opening_hours": null, "label": "Signalised crossings with acoustic guidance", "color": "#e6550d" }, "geometry": { "type": "Point", "coordinates": [ 3.8894947, 43.6054473 ] } },
{ "type": "Feature", "properties": { "index": "82", "@osmId": "node/3742670452", "name": null, "opening_hours": null, "label": "Signalised crossings with acoustic guidance", "color": "#e6550d" }, "geometry": { "type": "Point", "coordinates": [ 3.889555, 43.6054951 ] } },
{ "type": "Feature", "properties": { "index": "83", "@osmId": "node/3742670456", "name": null, "opening_hours": null, "label": "Signalised crossings with acoustic guidance", "color": "#e6550d" }, "geometry": { "type": "Point", "coordinates": [ 3.8894422, 43.6055636 ] } },
{ "type": "Feature", "properties": { "index": "84", "@osmId": "node/3744335474", "name": null, "opening_hours": null, "label": "Signalised crossings with acoustic guidance", "color": "#e6550d" }, "geometry": { "type": "Point", "coordinates": [ 3.8845482, 43.6031867 ] } },
{ "type": "Feature", "properties": { "index": "85", "@osmId": "node/3744335486", "name": null, "opening_hours": null, "label": "Signalised crossings with acoustic guidance", "color": "#e6550d" }, "geometry": { "type": "Point", "coordinates": [ 3.8846685, 43.6032713 ] } },
{ "type": "Feature", "properties": { "index": "86", "@osmId": "node/3803625214", "name": null, "opening_hours": null, "label": "Signalised crossings with acoustic guidance", "color": "#e6550d" }, "geometry": { "type": "Point", "coordinates": [ 3.897829, 43.6221895 ] } },
{ "type": "Feature", "properties": { "index": "87", "@osmId": "node/3804190245", "name": null, "opening_hours": null, "label": "Signalised crossings with acoustic guidance", "color": "#e6550d" }, "geometry": { "type": "Point", "coordinates": [ 3.895316, 43.6062305 ] } },
{ "type": "Feature", "properties": { "index": "88", "@osmId": "node/3804190770", "name": null, "opening_hours": null, "label": "Signalised crossings with acoustic guidance", "color": "#e6550d" }, "geometry": { "type": "Point", "coordinates": [ 3.8941839, 43.6066709 ] } },
{ "type": "Feature", "properties": { "index": "89", "@osmId": "node/3804190788", "name": null, "opening_hours": null, "label": "Signalised crossings with acoustic guidance", "color": "#e6550d" }, "geometry": { "type": "Point", "coordinates": [ 3.8941724, 43.6067623 ] } },
{ "type": "Feature", "properties": { "index": "90", "@osmId": "node/3956833456", "name": null, "opening_hours": null, "label": "Signalised crossings with acoustic guidance", "color": "#e6550d" }, "geometry": { "type": "Point", "coordinates": [ 3.8885937, 43.6131448 ] } },
{ "type": "Feature", "properties": { "index": "91", "@osmId": "node/3956836057", "name": null, "opening_hours": null, "label": "Signalised crossings with acoustic guidance", "color": "#e6550d" }, "geometry": { "type": "Point", "coordinates": [ 3.8886306, 43.6131705 ] } },
{ "type": "Feature", "properties": { "index": "92", "@osmId": "node/4025994796", "name": null, "opening_hours": null, "label": "Signalised crossings with acoustic guidance", "color": "#e6550d" }, "geometry": { "type": "Point", "coordinates": [ 3.8945143, 43.6001067 ] } },
{ "type": "Feature", "properties": { "index": "93", "@osmId": "node/4025994798", "name": null, "opening_hours": null, "label": "Signalised crossings with acoustic guidance", "color": "#e6550d" }, "geometry": { "type": "Point", "coordinates": [ 3.8944947, 43.6002291 ] } },
{ "type": "Feature", "properties": { "index": "94", "@osmId": "node/4025994799", "name": null, "opening_hours": null, "label": "Signalised crossings with acoustic guidance", "color": "#e6550d" }, "geometry": { "type": "Point", "coordinates": [ 3.8946073, 43.6002599 ] } },
{ "type": "Feature", "properties": { "index": "95", "@osmId": "node/4073661525", "name": null, "opening_hours": null, "label": "Signalised crossings with acoustic guidance", "color": "#e6550d" }, "geometry": { "type": "Point", "coordinates": [ 3.8950386, 43.6039655 ] } },
{ "type": "Feature", "properties": { "index": "96", "@osmId": "node/4150604492", "name": null, "opening_hours": null, "label": "Signalised crossings with acoustic guidance", "color": "#e6550d" }, "geometry": { "type": "Point", "coordinates": [ 3.8937805, 43.606865 ] } },
{ "type": "Feature", "properties": { "index": "97", "@osmId": "node/4150604493", "name": null, "opening_hours": null, "label": "Signalised crossings with acoustic guidance", "color": "#e6550d" }, "geometry": { "type": "Point", "coordinates": [ 3.8940156, 43.606972 ] } },
{ "type": "Feature", "properties": { "index": "98", "@osmId": "node/4150604497", "name": null, "opening_hours": null, "label": "Signalised crossings with acoustic guidance", "color": "#e6550d" }, "geometry": { "type": "Point", "coordinates": [ 3.8939507, 43.606511 ] } },
{ "type": "Feature", "properties": { "index": "99", "@osmId": "node/5100610634", "name": null, "opening_hours": null, "label": "Signalised crossings with acoustic guidance", "color": "#e6550d" }, "geometry": { "type": "Point", "coordinates": [ 3.8784823, 43.6180051 ] } },
{ "type": "Feature", "properties": { "index": "100", "@osmId": "node/5100610635", "name": null, "opening_hours": null, "label": "Signalised crossings with acoustic guidance", "color": "#e6550d" }, "geometry": { "type": "Point", "coordinates": [ 3.878603, 43.6180823 ] } },
{ "type": "Feature", "properties": { "index": "101", "@osmId": "node/5130703395", "name": null, "opening_hours": null, "label": "Signalised crossings with acoustic guidance", "color": "#e6550d" }, "geometry": { "type": "Point", "coordinates": [ 3.8978317, 43.6007308 ] } },
{ "type": "Feature", "properties": { "index": "102", "@osmId": "node/1931294113", "name": null, "opening_hours": null, "label": "Any signal with acoustic guidance", "color": "#fd8d3c" }, "geometry": { "type": "Point", "coordinates": [ 3.869789, 43.6148989 ] } },
{ "type": "Feature", "properties": { "index": "103", "@osmId": "node/4787731969", "name": null, "opening_hours": null, "label": "Any signal with acoustic guidance", "color": "#fd8d3c" }, "geometry": { "type": "Point", "coordinates": [ 3.8752939, 43.605302 ] } },
{ "type": "Feature", "properties": { "index": "104", "@osmId": "node/5784255121", "name": null, "opening_hours": null, "label": "Any signal with acoustic guidance", "color": "#fd8d3c" }, "geometry": { "type": "Point", "coordinates": [ 3.8990186, 43.6011758 ] } },
{ "type": "Feature", "properties": { "index": "105", "@osmId": "node/5784255126", "name": null, "opening_hours": null, "label": "Any signal with acoustic guidance", "color": "#fd8d3c" }, "geometry": { "type": "Point", "coordinates": [ 3.8989301, 43.6011983 ] } },
{ "type": "Feature", "properties": { "index": "106", "@osmId": "node/6589069488", "name": null, "opening_hours": null, "label": "Any signal with acoustic guidance", "color": "#fd8d3c" }, "geometry": { "type": "Point", "coordinates": [ 3.8760179, 43.620636 ] } },
{ "type": "Feature", "properties": { "index": "107", "@osmId": "node/6245739856", "name": null, "opening_hours": null, "label": "Signals with tactile/vibration", "color": "#fdae6b" }, "geometry": { "type": "Point", "coordinates": [ 3.8836819, 43.6172835 ] } },
{ "type": "Feature", "properties": { "index": "108", "@osmId": "node/6245739857", "name": null, "opening_hours": null, "label": "Signals with tactile/vibration", "color": "#fdae6b" }, "geometry": { "type": "Point", "coordinates": [ 3.8837693, 43.6175112 ] } },
{ "type": "Feature", "properties": { "index": "109", "@osmId": "node/6245739890", "name": null, "opening_hours": null, "label": "Signals with tactile/vibration", "color": "#fdae6b" }, "geometry": { "type": "Point", "coordinates": [ 3.8839698, 43.6174081 ] } }
]
}
