{
"type": "FeatureCollection",
"features": [
{ "type": "Feature", "properties": { "index": "0", "label": "Within 300 m on foot", "color": "#2b8cbe" }, "geometry": { "type": "MultiPolygon", "coordinates": [ [ [ [ 3.8770428, 43.6010478 ], [ 3.8772906, 43.6012423 ], [ 3.8775109, 43.6014536 ], [ 3.8777017, 43.6016795 ], [ 3.8778612, 43.6019179 ], [ 3.8779877, 43.6021665 ], [ 3.87808, 43.6024229 ], [ 3.8781374, 43.6026847 ], [ 3.8781591, 43.6029493 ], [ 3.8781451, 43.6032142 ], [ 3.8780954, 43.6034768 ], [ 3.8780893, 43.6034953 ], [ 3.8781251, 43.6035015 ], [ 3.8784698, 43.6035882 ], [ 3.8788012, 43.6036989 ], [ 3.879116, 43.6038328 ], [ 3.8794113, 43.6039884 ], [ 3.8796841, 43.6041644 ], [ 3.8799319, 43.6043589 ], [ 3.8801523, 43.6045701 ], [ 3.8803432, 43.604796 ], [ 3.8805026, 43.6050344 ], [ 3.8806291, 43.605283 ], [ 3.8807215, 43.6055394 ], [ 3.8807789, 43.6058012 ], [ 3.8808006, 43.6060658 ], [ 3.8807866, 43.6063307 ], [ 3.8807369, 43.6065933 ], [ 3.880652, 43.6068511 ], [ 3.8805328, 43.6071016 ], [ 3.8803803, 43.6073424 ], [ 3.8801961, 43.6075712 ], [ 3.8799819, 43.6077858 ], [ 3.8797398, 43.607984 ], [ 3.8794721, 43.6081641 ], [ 3.8791814, 43.6083243 ], [ 3.8788705, 43.6084629 ], [ 3.8785424, 43.6085788 ], [ 3.8782003, 43.6086707 ], [ 3.8778474, 43.6087379 ], [ 3.8774871, 43.6087795 ], [ 3.8771229, 43.6087953 ], [ 3.8767584, 43.6087851 ], [ 3.876397, 43.608749 ], [ 3.8760422, 43.6086873 ], [ 3.8756975, 43.6086006 ], [ 3.8753661, 43.6084898 ], [ 3.8750512, 43.608356 ], [ 3.874756, 43.6082003 ], [ 3.8744831, 43.6080244 ], [ 3.8743369, 43.6079096 ], [ 3.8742524, 43.6078949 ], [ 3.8739076, 43.6078082 ], [ 3.8735763, 43.6076974 ], [ 3.8732614, 43.6075635 ], [ 3.8729661, 43.6074079 ], [ 3.8726933, 43.6072319 ], [ 3.8724455, 43.6070374 ], [ 3.8722251, 43.6068262 ], [ 3.8720343, 43.6066003 ], [ 3.8718749, 43.6063618 ], [ 3.8717484, 43.6061132 ], [ 3.8716561, 43.6058568 ], [ 3.8715988, 43.605595 ], [ 3.871577, 43.6053304 ], [ 3.8715911, 43.6050655 ], [ 3.8716408, 43.6048029 ], [ 3.8716547, 43.6047608 ], [ 3.8715941, 43.6047132 ], [ 3.871391, 43.6045185 ], [ 3.8713207, 43.6046661 ], [ 3.8711682, 43.6049069 ], [ 3.8709839, 43.6051357 ], [ 3.8707697, 43.6053502 ], [ 3.8707052, 43.605403 ], [ 3.8707252, 43.6054943 ], [ 3.8707469, 43.6057589 ], [ 3.8707328, 43.6060238 ], [ 3.8706831, 43.6062864 ], [ 3.8705982, 43.6065442 ], [ 3.8704789, 43.6067947 ], [ 3.8703264, 43.6070355 ], [ 3.8701421, 43.6072643 ], [ 3.8699279, 43.6074788 ], [ 3.8696858, 43.6076771 ], [ 3.8694181, 43.6078571 ], [ 3.8691273, 43.6080173 ], [ 3.8688164, 43.6081559 ], [ 3.8684883, 43.6082717 ], [ 3.8681461, 43.6083636 ], [ 3.8677932, 43.6084307 ], [ 3.8674329, 43.6084724 ], [ 3.8670688, 43.6084881 ], [ 3.8667043, 43.6084779 ], [ 3.8663429, 43.6084417 ], [ 3.8659881, 43.60838 ], [ 3.8656434, 43.6082933 ], [ 3.865312, 43.6081825 ], [ 3.8649972, 43.6080486 ], [ 3.8647019, 43.6078929 ], [ 3.8644291, 43.607717 ], [ 3.8641813, 43.6075224 ], [ 3.863961, 43.6073112 ], [ 3.8637702, 43.6070852 ], [ 3.8636108, 43.6068468 ], [ 3.8634844, 43.6065982 ], [ 3.863392, 43.6063417 ], [ 3.8633348, 43.6060799 ], [ 3.8633131, 43.6058153 ], [ 3.8633272, 43.6055505 ], [ 3.863377, 43.6052879 ], [ 3.8634619, 43.6050301 ], [ 3.8635812, 43.6047796 ], [ 3.8637338, 43.6045388 ], [ 3.863918, 43.60431 ], [ 3.8640924, 43.6041354 ], [ 3.8640654, 43.6040122 ], [ 3.8640604, 43.6039507 ], [ 3.8640377, 43.6038472 ], [ 3.864016, 43.6035826 ], [ 3.8640301, 43.6033177 ], [ 3.8640399, 43.6032662 ], [ 3.8640526, 43.6030285 ], [ 3.8641023, 43.6027659 ], [ 3.8641873, 43.6025081 ], [ 3.8643066, 43.6022576 ], [ 3.8644591, 43.6020168 ], [ 3.8646433, 43.6017881 ], [ 3.8648576, 43.6015735 ], [ 3.8650997, 43.6013753 ], [ 3.8653674, 43.6011952 ], [ 3.8656581, 43.6010351 ], [ 3.865969, 43.6008965 ], [ 3.8662971, 43.6007807 ], [ 3.8666392, 43.6006888 ], [ 3.8669921, 43.6006217 ], [ 3.8673523, 43.60058 ], [ 3.8677164, 43.6005643 ], [ 3.8680809, 43.6005745 ], [ 3.8684422, 43.6006107 ], [ 3.8687969, 43.6006724 ], [ 3.8691416, 43.6007591 ], [ 3.869473, 43.6008699 ], [ 3.8697878, 43.6010038 ], [ 3.870083, 43.6011594 ], [ 3.8703558, 43.6013354 ], [ 3.8706036, 43.6015299 ], [ 3.8708239, 43.6017411 ], [ 3.8710039, 43.6019543 ], [ 3.8711462, 43.6017296 ], [ 3.8713304, 43.6015008 ], [ 3.8715446, 43.6012863 ], [ 3.8717867, 43.601088 ], [ 3.8720544, 43.600908 ], [ 3.872345, 43.6007478 ], [ 3.8726559, 43.6006092 ], [ 3.872984, 43.6004933 ], [ 3.8733261, 43.6004014 ], [ 3.873679, 43.6003343 ], [ 3.8740392, 43.6002927 ], [ 3.8744033, 43.6002769 ], [ 3.8747678, 43.6002871 ], [ 3.8751291, 43.6003232 ], [ 3.8754838, 43.6003849 ], [ 3.8758285, 43.6004716 ], [ 3.8761599, 43.6005824 ], [ 3.8764747, 43.6007162 ], [ 3.8767699, 43.6008719 ], [ 3.8770428, 43.6010478 ] ] ], [ [ [ 3.8591829, 43.6014198 ], [ 3.8595276, 43.6015065 ], [ 3.859859, 43.6016173 ], [ 3.8601737, 43.6017512 ], [ 3.860469, 43.6019069 ], [ 3.8607417, 43.6020829 ], [ 3.860954, 43.6022496 ], [ 3.8610335, 43.6023009 ], [ 3.8612813, 43.6024954 ], [ 3.8615016, 43.6027067 ], [ 3.8616924, 43.6029326 ], [ 3.8618517, 43.6031711 ], [ 3.8619782, 43.6034197 ], [ 3.8620705, 43.6036761 ], [ 3.8621277, 43.6039379 ], [ 3.8621494, 43.6042025 ], [ 3.8621353, 43.6044674 ], [ 3.8620855, 43.60473 ], [ 3.8620006, 43.6049878 ], [ 3.8618812, 43.6052383 ], [ 3.8617287, 43.605479 ], [ 3.8615444, 43.6057078 ], [ 3.8613302, 43.6059223 ], [ 3.861088, 43.6061206 ], [ 3.8608203, 43.6063006 ], [ 3.8605296, 43.6064607 ], [ 3.8602186, 43.6065993 ], [ 3.8598905, 43.6067151 ], [ 3.8595483, 43.606807 ], [ 3.8591954, 43.6068741 ], [ 3.8588352, 43.6069157 ], [ 3.858471, 43.6069314 ], [ 3.8581065, 43.6069212 ], [ 3.8577451, 43.606885 ], [ 3.8573904, 43.6068232 ], [ 3.8573304, 43.6068081 ], [ 3.8571402, 43.606775 ], [ 3.8567955, 43.6066883 ], [ 3.8564641, 43.6065775 ], [ 3.8561493, 43.6064435 ], [ 3.8558541, 43.6062878 ], [ 3.8555813, 43.6061119 ], [ 3.8553335, 43.6059173 ], [ 3.8551132, 43.605706 ], [ 3.855, 43.6055719 ], [ 3.855, 43.6025713 ], [ 3.8550291, 43.6025351 ], [ 3.8552434, 43.6023206 ], [ 3.8554856, 43.6021223 ], [ 3.8557533, 43.6019423 ], [ 3.856044, 43.6017822 ], [ 3.8563549, 43.6016436 ], [ 3.856683, 43.6015278 ], [ 3.8570252, 43.601436 ], [ 3.8573781, 43.6013689 ], [ 3.8577383, 43.6013273 ], [ 3.8581024, 43.6013116 ], [ 3.8584669, 43.6013218 ], [ 3.8588282, 43.601358 ], [ 3.8591829, 43.6014198 ] ] ], [ [ [ 3.8649767, 43.6106797 ], [ 3.8652675, 43.6105196 ], [ 3.8655784, 43.610381 ], [ 3.8659065, 43.6102652 ], [ 3.8662487, 43.6101733 ], [ 3.8666016, 43.6101062 ], [ 3.8669619, 43.6100645 ], [ 3.8673261, 43.6100488 ], [ 3.8676906, 43.610059 ], [ 3.8677768, 43.6100676 ], [ 3.8677866, 43.6100679 ], [ 3.868148, 43.6101041 ], [ 3.8685028, 43.6101658 ], [ 3.8688475, 43.6102525 ], [ 3.8691789, 43.6103633 ], [ 3.8694938, 43.6104972 ], [ 3.8697891, 43.6106528 ], [ 3.8700619, 43.6108288 ], [ 3.8703097, 43.6110233 ], [ 3.8705301, 43.6112346 ], [ 3.8707209, 43.6114605 ], [ 3.8708804, 43.6116989 ], [ 3.8710068, 43.6119475 ], [ 3.8710992, 43.612204 ], [ 3.8711293, 43.6123415 ], [ 3.8712746, 43.612378 ], [ 3.871606, 43.6124888 ], [ 3.8719209, 43.6126227 ], [ 3.8722162, 43.6127784 ], [ 3.872489, 43.6129543 ], [ 3.8727369, 43.6131488 ], [ 3.8729572, 43.6133601 ], [ 3.8731481, 43.613586 ], [ 3.8732345, 43.6137153 ], [ 3.8732898, 43.6136958 ], [ 3.873632, 43.6136038 ], [ 3.873985, 43.6135367 ], [ 3.8743453, 43.6134951 ], [ 3.8747094, 43.6134793 ], [ 3.875074, 43.6134895 ], [ 3.8754354, 43.6135256 ], [ 3.8757902, 43.6135873 ], [ 3.8759729, 43.6136332 ], [ 3.8761729, 43.6134329 ], [ 3.876415, 43.6132346 ], [ 3.8766827, 43.6130546 ], [ 3.8769734, 43.6128944 ], [ 3.8772844, 43.6127558 ], [ 3.8776125, 43.6126399 ], [ 3.8779547, 43.612548 ], [ 3.8783076, 43.6124809 ], [ 3.8786679, 43.6124392 ], [ 3.8790321, 43.6124234 ], [ 3.8793966, 43.6124336 ], [ 3.879758, 43.6124697 ], [ 3.8801128, 43.6125314 ], [ 3.8804576, 43.612618 ], [ 3.8806847, 43.6126939 ], [ 3.8809392, 43.6125537 ], [ 3.8812501, 43.612415 ], [ 3.8812892, 43.6124012 ], [ 3.881385, 43.6123368 ], [ 3.8816757, 43.6121766 ], [ 3.8819866, 43.6120379 ], [ 3.8823147, 43.6119221 ], [ 3.8826569, 43.6118301 ], [ 3.8830098, 43.611763 ], [ 3.8833701, 43.6117213 ], [ 3.8837342, 43.6117055 ], [ 3.8840988, 43.6117157 ], [ 3.8844602, 43.6117518 ], [ 3.884815, 43.6118134 ], [ 3.8851598, 43.6119001 ], [ 3.8851759, 43.6119055 ], [ 3.8852202, 43.6118504 ], [ 3.8854344, 43.6116359 ], [ 3.8856765, 43.6114376 ], [ 3.8858707, 43.6113069 ], [ 3.8857518, 43.6112442 ], [ 3.8854789, 43.6110683 ], [ 3.8852311, 43.6108738 ], [ 3.8850107, 43.6106626 ], [ 3.8848198, 43.6104367 ], [ 3.8846846, 43.6102347 ], [ 3.8844741, 43.6102288 ], [ 3.8841127, 43.6101927 ], [ 3.8837579, 43.6101311 ], [ 3.8834131, 43.6100444 ], [ 3.8830817, 43.6099336 ], [ 3.8827668, 43.6097998 ], [ 3.8827407, 43.609786 ], [ 3.8826625, 43.6097528 ], [ 3.8823672, 43.6095972 ], [ 3.8820943, 43.6094212 ], [ 3.8818465, 43.6092267 ], [ 3.881626, 43.6090155 ], [ 3.8814352, 43.6087896 ], [ 3.8812757, 43.6085512 ], [ 3.8811492, 43.6083026 ], [ 3.8810568, 43.6080462 ], [ 3.8809995, 43.6077844 ], [ 3.8809777, 43.6075198 ], [ 3.8809917, 43.6072549 ], [ 3.8810414, 43.6069923 ], [ 3.8811263, 43.6067345 ], [ 3.8812456, 43.606484 ], [ 3.881398, 43.6062432 ], [ 3.8815822, 43.6060144 ], [ 3.8817964, 43.6057999 ], [ 3.8820385, 43.6056016 ], [ 3.8823061, 43.6054215 ], [ 3.8823642, 43.6053895 ], [ 3.8823411, 43.6053774 ], [ 3.8820683, 43.6052014 ], [ 3.882018, 43.605162 ], [ 3.881948, 43.6051168 ], [ 3.8817002, 43.6049223 ], [ 3.8814798, 43.6047111 ], [ 3.8812889, 43.6044852 ], [ 3.8811295, 43.6042468 ], [ 3.881067, 43.6041241 ], [ 3.8808773, 43.6040607 ], [ 3.88078, 43.6040193 ], [ 3.8807518, 43.6040099 ], [ 3.880437, 43.6038761 ], [ 3.8801417, 43.6037204 ], [ 3.8798689, 43.6035445 ], [ 3.8796211, 43.60335 ], [ 3.8794007, 43.6031388 ], [ 3.8792099, 43.6029129 ], [ 3.8790504, 43.6026745 ], [ 3.8789239, 43.6024258 ], [ 3.8788315, 43.6021694 ], [ 3.8787742, 43.6019076 ], [ 3.8787525, 43.601643 ], [ 3.8787665, 43.6013782 ], [ 3.8788162, 43.6011156 ], [ 3.8789011, 43.6008578 ], [ 3.8790203, 43.6006073 ], [ 3.8791728, 43.6003664 ], [ 3.879357, 43.6001377 ], [ 3.8794916, 43.6000027 ], [ 3.8875354, 43.6000025 ], [ 3.8876085, 43.6000726 ], [ 3.8876385, 43.6000961 ], [ 3.8878589, 43.6003073 ], [ 3.8880498, 43.6005332 ], [ 3.8881184, 43.6006358 ], [ 3.8883354, 43.6006264 ], [ 3.8886998, 43.6006366 ], [ 3.8890612, 43.6006726 ], [ 3.8894159, 43.6007343 ], [ 3.8897607, 43.6008209 ], [ 3.8898474, 43.6008499 ], [ 3.8900081, 43.6008313 ], [ 3.8903722, 43.6008155 ], [ 3.8907366, 43.6008257 ], [ 3.8908772, 43.6008397 ], [ 3.8908573, 43.6007845 ], [ 3.8908, 43.6005227 ], [ 3.8907782, 43.6002581 ], [ 3.8907917, 43.6000022 ], [ 3.9046458, 43.6000001 ], [ 3.9047005, 43.6000096 ], [ 3.905, 43.6000848 ], [ 3.905, 43.6052239 ], [ 3.9047242, 43.6052981 ], [ 3.9043714, 43.6053653 ], [ 3.9040112, 43.605407 ], [ 3.903647, 43.6054229 ], [ 3.9032825, 43.6054128 ], [ 3.9029211, 43.6053767 ], [ 3.9025663, 43.6053151 ], [ 3.9022216, 43.6052285 ], [ 3.9018902, 43.6051178 ], [ 3.9015753, 43.604984 ], [ 3.9012799, 43.6048284 ], [ 3.901007, 43.6046526 ], [ 3.900827, 43.6045113 ], [ 3.9005619, 43.604542 ], [ 3.9001978, 43.6045579 ], [ 3.8998333, 43.6045478 ], [ 3.8994719, 43.6045117 ], [ 3.8991171, 43.6044501 ], [ 3.8987724, 43.6043635 ], [ 3.8987144, 43.6043441 ], [ 3.8986918, 43.6044638 ], [ 3.8986417, 43.604616 ], [ 3.8986388, 43.6046709 ], [ 3.8985892, 43.6049335 ], [ 3.898585, 43.6049464 ], [ 3.8987346, 43.60517 ], [ 3.8988612, 43.6054186 ], [ 3.8989536, 43.605675 ], [ 3.8990111, 43.6059367 ], [ 3.8990329, 43.6062013 ], [ 3.8990189, 43.6064662 ], [ 3.8989693, 43.6067288 ], [ 3.8988845, 43.6069866 ], [ 3.8987654, 43.6072371 ], [ 3.898613, 43.607478 ], [ 3.8984288, 43.6077068 ], [ 3.8982147, 43.6079214 ], [ 3.8979727, 43.6081197 ], [ 3.897705, 43.6082998 ], [ 3.8974144, 43.60846 ], [ 3.8971035, 43.6085988 ], [ 3.8969085, 43.6086676 ], [ 3.8966723, 43.6088612 ], [ 3.8964046, 43.6090414 ], [ 3.896114, 43.6092016 ], [ 3.8958031, 43.6093403 ], [ 3.895475, 43.6094562 ], [ 3.8951329, 43.6095482 ], [ 3.89478, 43.6096153 ], [ 3.8944198, 43.6096571 ], [ 3.8940556, 43.6096729 ], [ 3.8936911, 43.6096628 ], [ 3.8933297, 43.6096267 ], [ 3.8929749, 43.609565 ], [ 3.8926301, 43.6094784 ], [ 3.8922987, 43.6093677 ], [ 3.8919838, 43.6092339 ], [ 3.8919142, 43.6091972 ], [ 3.8917944, 43.6091463 ], [ 3.8917824, 43.609374 ], [ 3.8917328, 43.6096366 ], [ 3.8916479, 43.6098944 ], [ 3.8916366, 43.6099182 ], [ 3.891661, 43.6099286 ], [ 3.8919564, 43.6100842 ], [ 3.8922293, 43.6102601 ], [ 3.8924772, 43.6104546 ], [ 3.8926976, 43.6106658 ], [ 3.8928885, 43.6108916 ], [ 3.893048, 43.61113 ], [ 3.8931746, 43.6113786 ], [ 3.893267, 43.611635 ], [ 3.8933245, 43.6118968 ], [ 3.8933463, 43.6121614 ], [ 3.8933453, 43.61218 ], [ 3.8935926, 43.6122422 ], [ 3.8939241, 43.6123529 ], [ 3.894239, 43.6124867 ], [ 3.8945344, 43.6126423 ], [ 3.8948073, 43.6128182 ], [ 3.8950552, 43.6130127 ], [ 3.8952757, 43.6132239 ], [ 3.8954666, 43.6134498 ], [ 3.8956261, 43.6136882 ], [ 3.8957527, 43.6139367 ], [ 3.8958452, 43.6141932 ], [ 3.8959026, 43.6144549 ], [ 3.8959244, 43.6147195 ], [ 3.8959105, 43.6149844 ], [ 3.8958608, 43.615247 ], [ 3.895776, 43.6155048 ], [ 3.8956568, 43.6157553 ], [ 3.8955044, 43.6159962 ], [ 3.8954062, 43.6161181 ], [ 3.8953034, 43.6162806 ], [ 3.8951192, 43.6165094 ], [ 3.894905, 43.616724 ], [ 3.8946629, 43.6169223 ], [ 3.8943953, 43.6171024 ], [ 3.8941046, 43.6172626 ], [ 3.8937937, 43.6174013 ], [ 3.8934656, 43.6175172 ], [ 3.8931234, 43.6176092 ], [ 3.8927704, 43.6176763 ], [ 3.8924101, 43.6177181 ], [ 3.8920459, 43.6177339 ], [ 3.8916813, 43.6177237 ], [ 3.8913199, 43.6176877 ], [ 3.890965, 43.617626 ], [ 3.8906202, 43.6175394 ], [ 3.8902888, 43.6174286 ], [ 3.8899738, 43.6172948 ], [ 3.8896785, 43.6171392 ], [ 3.8894055, 43.6169633 ], [ 3.8891576, 43.6167688 ], [ 3.8889372, 43.6165576 ], [ 3.8887463, 43.6163317 ], [ 3.8886538, 43.6161935 ], [ 3.8883783, 43.6161858 ], [ 3.8880169, 43.6161497 ], [ 3.887662, 43.6160881 ], [ 3.8875185, 43.616052 ], [ 3.8874152, 43.6160341 ], [ 3.8870988, 43.6159546 ], [ 3.8872297, 43.6161095 ], [ 3.8873892, 43.6163479 ], [ 3.8875158, 43.6165965 ], [ 3.8876082, 43.6168529 ], [ 3.8876656, 43.6171147 ], [ 3.8876874, 43.6173793 ], [ 3.8876734, 43.6176442 ], [ 3.8876237, 43.6179068 ], [ 3.8875389, 43.6181646 ], [ 3.8874196, 43.6184151 ], [ 3.8872672, 43.6186559 ], [ 3.8870829, 43.6188847 ], [ 3.8868687, 43.6190993 ], [ 3.8866266, 43.6192976 ], [ 3.8863589, 43.6194777 ], [ 3.8860682, 43.6196378 ], [ 3.885998, 43.6196691 ], [ 3.8858677, 43.6197409 ], [ 3.8855567, 43.6198796 ], [ 3.8852286, 43.6199955 ], [ 3.8848864, 43.6200875 ], [ 3.8845334, 43.6201546 ], [ 3.8841731, 43.6201963 ], [ 3.8838089, 43.6202121 ], [ 3.8834443, 43.6202019 ], [ 3.8830828, 43.6201658 ], [ 3.8827279, 43.6201042 ], [ 3.8823831, 43.6200175 ], [ 3.8820517, 43.6199067 ], [ 3.8817367, 43.6197729 ], [ 3.8815853, 43.6196931 ], [ 3.8815587, 43.6197261 ], [ 3.8813445, 43.6199406 ], [ 3.8811024, 43.6201389 ], [ 3.8808346, 43.620319 ], [ 3.8805439, 43.6204791 ], [ 3.8802329, 43.6206178 ], [ 3.8799048, 43.6207337 ], [ 3.8797265, 43.6207816 ], [ 3.8797217, 43.6208723 ], [ 3.879672, 43.6211349 ], [ 3.8795871, 43.6213927 ], [ 3.8794678, 43.6216432 ], [ 3.8793153, 43.621884 ], [ 3.879131, 43.6221128 ], [ 3.8789168, 43.6223274 ], [ 3.8786746, 43.6225257 ], [ 3.8784069, 43.6227057 ], [ 3.8781161, 43.6228659 ], [ 3.8778051, 43.6230046 ], [ 3.8774769, 43.6231204 ], [ 3.8771347, 43.6232123 ], [ 3.8767817, 43.6232795 ], [ 3.8764214, 43.6233211 ], [ 3.8760571, 43.6233369 ], [ 3.8756925, 43.6233267 ], [ 3.875331, 43.6232906 ], [ 3.8749762, 43.6232289 ], [ 3.8746313, 43.6231422 ], [ 3.8742999, 43.6230314 ], [ 3.8739849, 43.6228975 ], [ 3.8736896, 43.6227419 ], [ 3.8734167, 43.622566 ], [ 3.8731688, 43.6223714 ], [ 3.8729484, 43.6221602 ], [ 3.8727575, 43.6219343 ], [ 3.872598, 43.6216959 ], [ 3.8724715, 43.6214472 ], [ 3.8723791, 43.6211908 ], [ 3.8723218, 43.620929 ], [ 3.8723001, 43.6206644 ], [ 3.8723142, 43.6203996 ], [ 3.8723639, 43.620137 ], [ 3.8724488, 43.6198792 ], [ 3.8725681, 43.6196287 ], [ 3.8727207, 43.6193879 ], [ 3.8729049, 43.6191591 ], [ 3.8731192, 43.6189445 ], [ 3.8731829, 43.6188924 ], [ 3.8731388, 43.6188813 ], [ 3.8728461, 43.6187835 ], [ 3.8728253, 43.6188163 ], [ 3.872641, 43.6190451 ], [ 3.8724267, 43.6192597 ], [ 3.8721846, 43.6194579 ], [ 3.8719168, 43.619638 ], [ 3.871626, 43.6197981 ], [ 3.8713151, 43.6199368 ], [ 3.8709869, 43.6200526 ], [ 3.8706447, 43.6201445 ], [ 3.8702917, 43.6202116 ], [ 3.8699313, 43.6202532 ], [ 3.8695671, 43.620269 ], [ 3.8692025, 43.6202588 ], [ 3.8688411, 43.6202226 ], [ 3.8684862, 43.6201609 ], [ 3.8681414, 43.6200742 ], [ 3.86781, 43.6199634 ], [ 3.8674951, 43.6198295 ], [ 3.8671998, 43.6196739 ], [ 3.8669269, 43.6194979 ], [ 3.866679, 43.6193034 ], [ 3.8664587, 43.6190921 ], [ 3.8662678, 43.6188662 ], [ 3.8661084, 43.6186278 ], [ 3.8659819, 43.6183791 ], [ 3.8658896, 43.6181227 ], [ 3.8658323, 43.6178609 ], [ 3.8658106, 43.6175963 ], [ 3.8658247, 43.6173314 ], [ 3.8658744, 43.6170689 ], [ 3.8659594, 43.6168111 ], [ 3.8660787, 43.6165606 ], [ 3.8661137, 43.6165053 ], [ 3.8660301, 43.6163409 ], [ 3.8659378, 43.6160845 ], [ 3.8658805, 43.6158227 ], [ 3.8658588, 43.6155581 ], [ 3.8658729, 43.6152932 ], [ 3.8658858, 43.6152249 ], [ 3.8656467, 43.615145 ], [ 3.8653319, 43.6150111 ], [ 3.8650366, 43.6148554 ], [ 3.8647637, 43.6146795 ], [ 3.8645159, 43.6144849 ], [ 3.8642955, 43.6142737 ], [ 3.8641047, 43.6140477 ], [ 3.8639453, 43.6138093 ], [ 3.8638189, 43.6135607 ], [ 3.8637265, 43.6133042 ], [ 3.8636693, 43.6130424 ], [ 3.8636476, 43.6127778 ], [ 3.8636617, 43.612513 ], [ 3.8637114, 43.6122504 ], [ 3.8637964, 43.6119926 ], [ 3.8639157, 43.6117421 ], [ 3.8640683, 43.6115013 ], [ 3.8642526, 43.6112726 ], [ 3.8644668, 43.611058 ], [ 3.864709, 43.6108598 ], [ 3.8649767, 43.6106797 ] ] ], [ [ [ 3.8559604, 43.618252 ], [ 3.8563027, 43.6181602 ], [ 3.8566557, 43.6180931 ], [ 3.857016, 43.6180515 ], [ 3.8573802, 43.6180358 ], [ 3.8577448, 43.618046 ], [ 3.8581062, 43.6180822 ], [ 3.8584611, 43.618144 ], [ 3.8585326, 43.618162 ], [ 3.8585981, 43.6181734 ], [ 3.8589429, 43.6182601 ], [ 3.8592744, 43.6183709 ], [ 3.8595892, 43.6185048 ], [ 3.8598845, 43.6186605 ], [ 3.8601574, 43.6188365 ], [ 3.8604052, 43.6190311 ], [ 3.8606256, 43.6192423 ], [ 3.8606757, 43.6193016 ], [ 3.8606812, 43.6193069 ], [ 3.860872, 43.6195328 ], [ 3.8610314, 43.6197713 ], [ 3.8611579, 43.6200199 ], [ 3.8612502, 43.6202764 ], [ 3.8613075, 43.6205381 ], [ 3.8613291, 43.6208027 ], [ 3.861315, 43.6210676 ], [ 3.8612652, 43.6213302 ], [ 3.8611802, 43.621588 ], [ 3.8610609, 43.6218385 ], [ 3.8609083, 43.6220793 ], [ 3.860724, 43.622308 ], [ 3.8605097, 43.6225226 ], [ 3.8602674, 43.6227208 ], [ 3.8599996, 43.6229008 ], [ 3.8597088, 43.6230609 ], [ 3.8593978, 43.6231995 ], [ 3.8590696, 43.6233153 ], [ 3.8587273, 43.6234072 ], [ 3.8583743, 43.6234743 ], [ 3.8580139, 43.6235159 ], [ 3.8576497, 43.6235316 ], [ 3.8572851, 43.6235214 ], [ 3.8569236, 43.6234852 ], [ 3.8565688, 43.6234234 ], [ 3.856224, 43.6233367 ], [ 3.8558925, 43.6232258 ], [ 3.8555776, 43.6230919 ], [ 3.8554595, 43.6230296 ], [ 3.8553849, 43.6229979 ], [ 3.8550896, 43.6228422 ], [ 3.855, 43.6227844 ], [ 3.855, 43.618687 ], [ 3.8550304, 43.6186665 ], [ 3.8553212, 43.6185064 ], [ 3.8556322, 43.6183678 ], [ 3.8559604, 43.618252 ] ] ], [ [ [ 3.9001564, 43.6200831 ], [ 3.9004294, 43.620259 ], [ 3.9006774, 43.6204535 ], [ 3.9008979, 43.6206646 ], [ 3.9010889, 43.6208905 ], [ 3.9012484, 43.6211289 ], [ 3.9013751, 43.6213775 ], [ 3.9014676, 43.6216339 ], [ 3.901525, 43.6218956 ], [ 3.9015469, 43.6221602 ], [ 3.9015329, 43.6224251 ], [ 3.9014833, 43.6226877 ], [ 3.9013985, 43.6229455 ], [ 3.9012793, 43.6231961 ], [ 3.9011269, 43.6234369 ], [ 3.9009427, 43.6236657 ], [ 3.9007285, 43.6238803 ], [ 3.9004864, 43.6240786 ], [ 3.9002188, 43.6242588 ], [ 3.899928, 43.624419 ], [ 3.8996171, 43.6245577 ], [ 3.899289, 43.6246736 ], [ 3.8989468, 43.6247656 ], [ 3.8985938, 43.6248328 ], [ 3.8982334, 43.6248745 ], [ 3.8978692, 43.6248904 ], [ 3.8975046, 43.6248803 ], [ 3.8971431, 43.6248442 ], [ 3.8967882, 43.6247826 ], [ 3.8964433, 43.624696 ], [ 3.8961118, 43.6245852 ], [ 3.8957968, 43.6244514 ], [ 3.8955014, 43.6242958 ], [ 3.8952284, 43.6241199 ], [ 3.8949805, 43.6239255 ], [ 3.8947599, 43.6237143 ], [ 3.894569, 43.6234884 ], [ 3.8944094, 43.62325 ], [ 3.8942828, 43.6230014 ], [ 3.8941904, 43.622745 ], [ 3.8941329, 43.6224832 ], [ 3.8941111, 43.6222186 ], [ 3.8941251, 43.6219538 ], [ 3.8941747, 43.6216912 ], [ 3.8942596, 43.6214334 ], [ 3.8943788, 43.6211828 ], [ 3.8945312, 43.620942 ], [ 3.8947154, 43.6207132 ], [ 3.8949296, 43.6204986 ], [ 3.8951717, 43.6203003 ], [ 3.8954394, 43.6201202 ], [ 3.8957301, 43.61996 ], [ 3.896041, 43.6198213 ], [ 3.8963692, 43.6197054 ], [ 3.8967113, 43.6196134 ], [ 3.8970643, 43.6195462 ], [ 3.8974246, 43.6195045 ], [ 3.8977888, 43.6194886 ], [ 3.8981534, 43.6194987 ], [ 3.8985149, 43.6195348 ], [ 3.8988697, 43.6195964 ], [ 3.8992146, 43.619683 ], [ 3.8995461, 43.6197937 ], [ 3.899861, 43.6199275 ], [ 3.9001564, 43.6200831 ] ] ] ] } },
{ "type": "Feature", "properties": { "index": "1", "label": "Beyond 300 m", "color": "#d9d9d9" }, "geometry": { "type": "MultiPolygon", "coordinates": [ [ [ [ 3.8880498, 43.6005332 ], [ 3.8878589, 43.6003073 ], [ 3.8876385, 43.6000961 ], [ 3.8876085, 43.6000726 ], [ 3.8875354, 43.6000025 ], [ 3.9046458, 43.6000001 ], [ 3.8907917, 43.6000022 ], [ 3.8907782, 43.6002581 ], [ 3.8908, 43.6005227 ], [ 3.8908573, 43.6007845 ], [ 3.8908772, 43.6008397 ], [ 3.8907366, 43.6008257 ], [ 3.8903722, 43.6008155 ], [ 3.8900081, 43.6008313 ], [ 3.8898474, 43.6008499 ], [ 3.8897607, 43.6008209 ], [ 3.8894159, 43.6007343 ], [ 3.8890612, 43.6006726 ], [ 3.8886998, 43.6006366 ], [ 3.8883354, 43.6006264 ], [ 3.8881184, 43.6006358 ], [ 3.8880498, 43.6005332 ] ] ], [ [ [ 3.9047005, 43.6000096 ], [ 3.9046458, 43.6000001 ], [ 3.905, 43.6 ], [ 3.905, 43.6000848 ], [ 3.9047005, 43.6000096 ] ] ], [ [ [ 3.8550304, 43.6186665 ], [ 3.855, 43.618687 ], [ 3.855, 43.6055719 ], [ 3.8551132, 43.605706 ], [ 3.8553335, 43.6059173 ], [ 3.8555813, 43.6061119 ], [ 3.8558541, 43.6062878 ], [ 3.8561493, 43.6064435 ], [ 3.8564641, 43.6065775 ], [ 3.8567955, 43.6066883 ], [ 3.8571402, 43.606775 ], [ 3.8573304, 43.6068081 ], [ 3.8573904, 43.6068232 ], [ 3.8577451, 43.606885 ], [ 3.8581065, 43.6069212 ], [ 3.858471, 43.6069314 ], [ 3.8588352, 43.6069157 ], [ 3.8591954, 43.6068741 ], [ 3.8595483, 43.606807 ], [ 3.8598905, 43.6067151 ], [ 3.8602186, 43.6065993 ], [ 3.8605296, 43.6064607 ], [ 3.8608203, 43.6063006 ], [ 3.861088, 43.6061206 ], [ 3.8613302, 43.6059223 ], [ 3.8615444, 43.6057078 ], [ 3.8617287, 43.605479 ], [ 3.8618812, 43.6052383 ], [ 3.8620006, 43.6049878 ], [ 3.8620855, 43.60473 ], [ 3.8621353, 43.6044674 ], [ 3.8621494, 43.6042025 ], [ 3.8621277, 43.6039379 ], [ 3.8620705, 43.6036761 ], [ 3.8619782, 43.6034197 ], [ 3.8618517, 43.6031711 ], [ 3.8616924, 43.6029326 ], [ 3.8615016, 43.6027067 ], [ 3.8612813, 43.6024954 ], [ 3.8610335, 43.6023009 ], [ 3.860954, 43.6022496 ], [ 3.8607417, 43.6020829 ], [ 3.860469, 43.6019069 ], [ 3.8601737, 43.6017512 ], [ 3.859859, 43.6016173 ], [ 3.8595276, 43.6015065 ], [ 3.8591829, 43.6014198 ], [ 3.8588282, 43.601358 ], [ 3.8584669, 43.6013218 ], [ 3.8581024, 43.6013116 ], [ 3.8577383, 43.6013273 ], [ 3.8573781, 43.6013689 ], [ 3.8570252, 43.601436 ], [ 3.856683, 43.6015278 ], [ 3.8563549, 43.6016436 ], [ 3.856044, 43.6017822 ], [ 3.8557533, 43.6019423 ], [ 3.8554856, 43.6021223 ], [ 3.8552434, 43.6023206 ], [ 3.8550291, 43.6025351 ], [ 3.855, 43.6025713 ], [ 3.855, 43.6 ], [ 3.8874107, 43.6000025 ], [ 3.8794916, 43.6000027 ], [ 3.879357, 43.6001377 ], [ 3.8791728, 43.6003664 ], [ 3.8790203, 43.6006073 ], [ 3.8789011, 43.6008578 ], [ 3.8788162, 43.6011156 ], [ 3.8787665, 43.6013782 ], [ 3.8787525, 43.601643 ], [ 3.8787742, 43.6019076 ], [ 3.8788315, 43.6021694 ], [ 3.8789239, 43.6024258 ], [ 3.8790504, 43.6026745 ], [ 3.8792099, 43.6029129 ], [ 3.8794007, 43.6031388 ], [ 3.8796211, 43.60335 ], [ 3.8798689, 43.6035445 ], [ 3.8801417, 43.6037204 ], [ 3.880437, 43.6038761 ], [ 3.8807518, 43.6040099 ], [ 3.88078, 43.6040193 ], [ 3.8808773, 43.6040607 ], [ 3.881067, 43.6041241 ], [ 3.8811295, 43.6042468 ], [ 3.8812889, 43.6044852 ], [ 3.8814798, 43.6047111 ], [ 3.8817002, 43.6049223 ], [ 3.881948, 43.6051168 ], [ 3.882018, 43.605162 ], [ 3.8820683, 43.6052014 ], [ 3.8823411, 43.6053774 ], [ 3.8823642, 43.6053895 ], [ 3.8823061, 43.6054215 ], [ 3.8820385, 43.6056016 ], [ 3.8817964, 43.6057999 ], [ 3.8815822, 43.6060144 ], [ 3.881398, 43.6062432 ], [ 3.8812456, 43.606484 ], [ 3.8811263, 43.6067345 ], [ 3.8810414, 43.6069923 ], [ 3.8809917, 43.6072549 ], [ 3.8809777, 43.6075198 ], [ 3.8809995, 43.6077844 ], [ 3.8810568, 43.6080462 ], [ 3.8811492, 43.6083026 ], [ 3.8812757, 43.6085512 ], [ 3.8814352, 43.6087896 ], [ 3.881626, 43.6090155 ], [ 3.8818465, 43.6092267 ], [ 3.8820943, 43.6094212 ], [ 3.8823672, 43.6095972 ], [ 3.8826625, 43.6097528 ], [ 3.8827407, 43.609786 ], [ 3.8827668, 43.6097998 ], [ 3.8830817, 43.6099336 ], [ 3.8834131, 43.6100444 ], [ 3.8837579, 43.6101311 ], [ 3.8841127, 43.6101927 ], [ 3.8844741, 43.6102288 ], [ 3.8846846, 43.6102347 ], [ 3.8848198, 43.6104367 ], [ 3.8850107, 43.6106626 ], [ 3.8852311, 43.6108738 ], [ 3.8854789, 43.6110683 ], [ 3.8857518, 43.6112442 ], [ 3.8858707, 43.6113069 ], [ 3.8856765, 43.6114376 ], [ 3.8854344, 43.6116359 ], [ 3.8852202, 43.6118504 ], [ 3.8851759, 43.6119055 ], [ 3.8851598, 43.6119001 ], [ 3.884815, 43.6118134 ], [ 3.8844602, 43.6117518 ], [ 3.8840988, 43.6117157 ], [ 3.8837342, 43.6117055 ], [ 3.8833701, 43.6117213 ], [ 3.8830098, 43.611763 ], [ 3.8826569, 43.6118301 ], [ 3.8823147, 43.6119221 ], [ 3.8819866, 43.6120379 ], [ 3.8816757, 43.6121766 ], [ 3.881385, 43.6123368 ], [ 3.8812892, 43.6124012 ], [ 3.8812501, 43.612415 ], [ 3.8809392, 43.6125537 ], [ 3.8806847, 43.6126939 ], [ 3.8804576, 43.612618 ], [ 3.8801128, 43.6125314 ], [ 3.879758, 43.6124697 ], [ 3.8793966, 43.6124336 ], [ 3.8790321, 43.6124234 ], [ 3.8786679, 43.6124392 ], [ 3.8783076, 43.6124809 ], [ 3.8779547, 43.612548 ], [ 3.8776125, 43.6126399 ], [ 3.8772844, 43.6127558 ], [ 3.8769734, 43.6128944 ], [ 3.8766827, 43.6130546 ], [ 3.876415, 43.6132346 ], [ 3.8761729, 43.6134329 ], [ 3.8759729, 43.6136332 ], [ 3.8757902, 43.6135873 ], [ 3.8754354, 43.6135256 ], [ 3.875074, 43.6134895 ], [ 3.8747094, 43.6134793 ], [ 3.8743453, 43.6134951 ], [ 3.873985, 43.6135367 ], [ 3.873632, 43.6136038 ], [ 3.8732898, 43.6136958 ], [ 3.8732345, 43.6137153 ], [ 3.8731481, 43.613586 ], [ 3.8729572, 43.6133601 ], [ 3.8727369, 43.6131488 ], [ 3.872489, 43.6129543 ], [ 3.8722162, 43.6127784 ], [ 3.8719209, 43.6126227 ], [ 3.871606, 43.6124888 ], [ 3.8712746, 43.612378 ], [ 3.8711293, 43.6123415 ], [ 3.8710992, 43.612204 ], [ 3.8710068, 43.6119475 ], [ 3.8708804, 43.6116989 ], [ 3.8707209, 43.6114605 ], [ 3.8705301, 43.6112346 ], [ 3.8703097, 43.6110233 ], [ 3.8700619, 43.6108288 ], [ 3.8697891, 43.6106528 ], [ 3.8694938, 43.6104972 ], [ 3.8691789, 43.6103633 ], [ 3.8688475, 43.6102525 ], [ 3.8685028, 43.6101658 ], [ 3.868148, 43.6101041 ], [ 3.8677866, 43.6100679 ], [ 3.8677768, 43.6100676 ], [ 3.8676906, 43.610059 ], [ 3.8673261, 43.6100488 ], [ 3.8669619, 43.6100645 ], [ 3.8666016, 43.6101062 ], [ 3.8662487, 43.6101733 ], [ 3.8659065, 43.6102652 ], [ 3.8655784, 43.610381 ], [ 3.8652675, 43.6105196 ], [ 3.8649767, 43.6106797 ], [ 3.864709, 43.6108598 ], [ 3.8644668, 43.611058 ], [ 3.8642526, 43.6112726 ], [ 3.8640683, 43.6115013 ], [ 3.8639157, 43.6117421 ], [ 3.8637964, 43.6119926 ], [ 3.8637114, 43.6122504 ], [ 3.8636617, 43.612513 ], [ 3.8636476, 43.6127778 ], [ 3.8636693, 43.6130424 ], [ 3.8637265, 43.6133042 ], [ 3.8638189, 43.6135607 ], [ 3.8639453, 43.6138093 ], [ 3.8641047, 43.6140477 ], [ 3.8642955, 43.6142737 ], [ 3.8645159, 43.6144849 ], [ 3.8647637, 43.6146795 ], [ 3.8650366, 43.6148554 ], [ 3.8653319, 43.6150111 ], [ 3.8656467, 43.615145 ], [ 3.8658858, 43.6152249 ], [ 3.8658729, 43.6152932 ], [ 3.8658588, 43.6155581 ], [ 3.8658805, 43.6158227 ], [ 3.8659378, 43.6160845 ], [ 3.8660301, 43.6163409 ], [ 3.8661137, 43.6165053 ], [ 3.8660787, 43.6165606 ], [ 3.8659594, 43.6168111 ], [ 3.8658744, 43.6170689 ], [ 3.8658247, 43.6173314 ], [ 3.8658106, 43.6175963 ], [ 3.8658323, 43.6178609 ], [ 3.8658896, 43.6181227 ], [ 3.8659819, 43.6183791 ], [ 3.8661084, 43.6186278 ], [ 3.8662678, 43.6188662 ], [ 3.8664587, 43.6190921 ], [ 3.866679, 43.6193034 ], [ 3.8669269, 43.6194979 ], [ 3.8671998, 43.6196739 ], [ 3.8674951, 43.6198295 ], [ 3.86781, 43.6199634 ], [ 3.8681414, 43.6200742 ], [ 3.8684862, 43.6201609 ], [ 3.8688411, 43.6202226 ], [ 3.8692025, 43.6202588 ], [ 3.8695671, 43.620269 ], [ 3.8699313, 43.6202532 ], [ 3.8702917, 43.6202116 ], [ 3.8706447, 43.6201445 ], [ 3.8709869, 43.6200526 ], [ 3.8713151, 43.6199368 ], [ 3.871626, 43.6197981 ], [ 3.8719168, 43.619638 ], [ 3.8721846, 43.6194579 ], [ 3.8724267, 43.6192597 ], [ 3.872641, 43.6190451 ], [ 3.8728253, 43.6188163 ], [ 3.8728461, 43.6187835 ], [ 3.8731388, 43.6188813 ], [ 3.8731829, 43.6188924 ], [ 3.8731192, 43.6189445 ], [ 3.8729049, 43.6191591 ], [ 3.8727207, 43.6193879 ], [ 3.8725681, 43.6196287 ], [ 3.8724488, 43.6198792 ], [ 3.8723639, 43.620137 ], [ 3.8723142, 43.6203996 ], [ 3.8723001, 43.6206644 ], [ 3.8723218, 43.620929 ], [ 3.8723791, 43.6211908 ], [ 3.8724715, 43.6214472 ], [ 3.872598, 43.6216959 ], [ 3.8727575, 43.6219343 ], [ 3.8729484, 43.6221602 ], [ 3.8731688, 43.6223714 ], [ 3.8734167, 43.622566 ], [ 3.8736896, 43.6227419 ], [ 3.8739849, 43.6228975 ], [ 3.8742999, 43.6230314 ], [ 3.8746313, 43.6231422 ], [ 3.8749762, 43.6232289 ], [ 3.875331, 43.6232906 ], [ 3.8756925, 43.6233267 ], [ 3.8760571, 43.6233369 ], [ 3.8764214, 43.6233211 ], [ 3.8767817, 43.6232795 ], [ 3.8771347, 43.6232123 ], [ 3.8774769, 43.6231204 ], [ 3.8778051, 43.6230046 ], [ 3.8781161, 43.6228659 ], [ 3.8784069, 43.6227057 ], [ 3.8786746, 43.6225257 ], [ 3.8789168, 43.6223274 ], [ 3.879131, 43.6221128 ], [ 3.8793153, 43.621884 ], [ 3.8794678, 43.6216432 ], [ 3.8795871, 43.6213927 ], [ 3.879672, 43.6211349 ], [ 3.8797217, 43.6208723 ], [ 3.8797265, 43.6207816 ], [ 3.8799048, 43.6207337 ], [ 3.8802329, 43.6206178 ], [ 3.8805439, 43.6204791 ], [ 3.8808346, 43.620319 ], [ 3.8811024, 43.6201389 ], [ 3.8813445, 43.6199406 ], [ 3.8815587, 43.6197261 ], [ 3.8815853, 43.6196931 ], [ 3.8817367, 43.6197729 ], [ 3.8820517, 43.6199067 ], [ 3.8823831, 43.6200175 ], [ 3.8827279, 43.6201042 ], [ 3.8830828, 43.6201658 ], [ 3.8834443, 43.6202019 ], [ 3.8838089, 43.6202121 ], [ 3.8841731, 43.6201963 ], [ 3.8845334, 43.6201546 ], [ 3.8848864, 43.6200875 ], [ 3.8852286, 43.6199955 ], [ 3.8855567, 43.6198796 ], [ 3.8858677, 43.6197409 ], [ 3.885998, 43.6196691 ], [ 3.8860682, 43.6196378 ], [ 3.8863589, 43.6194777 ], [ 3.8866266, 43.6192976 ], [ 3.8868687, 43.6190993 ], [ 3.8870829, 43.6188847 ], [ 3.8872672, 43.6186559 ], [ 3.8874196, 43.6184151 ], [ 3.8875389, 43.6181646 ], [ 3.8876237, 43.6179068 ], [ 3.8876734, 43.6176442 ], [ 3.8876874, 43.6173793 ], [ 3.8876656, 43.6171147 ], [ 3.8876082, 43.6168529 ], [ 3.8875158, 43.6165965 ], [ 3.8873892, 43.6163479 ], [ 3.8872297, 43.6161095 ], [ 3.8870988, 43.6159546 ], [ 3.8874152, 43.6160341 ], [ 3.8875185, 43.616052 ], [ 3.887662, 43.6160881 ], [ 3.8880169, 43.6161497 ], [ 3.8883783, 43.6161858 ], [ 3.8886538, 43.6161935 ], [ 3.8887463, 43.6163317 ], [ 3.8889372, 43.6165576 ], [ 3.8891576, 43.6167688 ], [ 3.8894055, 43.6169633 ], [ 3.8896785, 43.6171392 ], [ 3.8899738, 43.6172948 ], [ 3.8902888, 43.6174286 ], [ 3.8906202, 43.6175394 ], [ 3.890965, 43.617626 ], [ 3.8913199, 43.6176877 ], [ 3.8916813, 43.6177237 ], [ 3.8920459, 43.6177339 ], [ 3.8924101, 43.6177181 ], [ 3.8927704, 43.6176763 ], [ 3.8931234, 43.6176092 ], [ 3.8934656, 43.6175172 ], [ 3.8937937, 43.6174013 ], [ 3.8941046, 43.6172626 ], [ 3.8943953, 43.6171024 ], [ 3.8946629, 43.6169223 ], [ 3.894905, 43.616724 ], [ 3.8951192, 43.6165094 ], [ 3.8953034, 43.6162806 ], [ 3.8954062, 43.6161181 ], [ 3.8955044, 43.6159962 ], [ 3.8956568, 43.6157553 ], [ 3.895776, 43.6155048 ], [ 3.8958608, 43.615247 ], [ 3.8959105, 43.6149844 ], [ 3.8959244, 43.6147195 ], [ 3.8959026, 43.6144549 ], [ 3.8958452, 43.6141932 ], [ 3.8957527, 43.6139367 ], [ 3.8956261, 43.6136882 ], [ 3.8954666, 43.6134498 ], [ 3.8952757, 43.6132239 ], [ 3.8950552, 43.6130127 ], [ 3.8948073, 43.6128182 ], [ 3.8945344, 43.6126423 ], [ 3.894239, 43.6124867 ], [ 3.8939241, 43.6123529 ], [ 3.8935926, 43.6122422 ], [ 3.8933453, 43.61218 ], [ 3.8933463, 43.6121614 ], [ 3.8933245, 43.6118968 ], [ 3.893267, 43.611635 ], [ 3.8931746, 43.6113786 ], [ 3.893048, 43.61113 ], [ 3.8928885, 43.6108916 ], [ 3.8926976, 43.6106658 ], [ 3.8924772, 43.6104546 ], [ 3.8922293, 43.6102601 ], [ 3.8919564, 43.6100842 ], [ 3.891661, 43.6099286 ], [ 3.8916366, 43.6099182 ], [ 3.8916479, 43.6098944 ], [ 3.8917328, 43.6096366 ], [ 3.8917824, 43.609374 ], [ 3.8917944, 43.6091463 ], [ 3.8919142, 43.6091972 ], [ 3.8919838, 43.6092339 ], [ 3.8922987, 43.6093677 ], [ 3.8926301, 43.6094784 ], [ 3.8929749, 43.609565 ], [ 3.8933297, 43.6096267 ], [ 3.8936911, 43.6096628 ], [ 3.8940556, 43.6096729 ], [ 3.8944198, 43.6096571 ], [ 3.89478, 43.6096153 ], [ 3.8951329, 43.6095482 ], [ 3.895475, 43.6094562 ], [ 3.8958031, 43.6093403 ], [ 3.896114, 43.6092016 ], [ 3.8964046, 43.6090414 ], [ 3.8966723, 43.6088612 ], [ 3.8969085, 43.6086676 ], [ 3.8971035, 43.6085988 ], [ 3.8974144, 43.60846 ], [ 3.897705, 43.6082998 ], [ 3.8979727, 43.6081197 ], [ 3.8982147, 43.6079214 ], [ 3.8984288, 43.6077068 ], [ 3.898613, 43.607478 ], [ 3.8987654, 43.6072371 ], [ 3.8988845, 43.6069866 ], [ 3.8989693, 43.6067288 ], [ 3.8990189, 43.6064662 ], [ 3.8990329, 43.6062013 ], [ 3.8990111, 43.6059367 ], [ 3.8989536, 43.605675 ], [ 3.8988612, 43.6054186 ], [ 3.8987346, 43.60517 ], [ 3.898585, 43.6049464 ], [ 3.8985892, 43.6049335 ], [ 3.8986388, 43.6046709 ], [ 3.8986417, 43.604616 ], [ 3.8986918, 43.6044638 ], [ 3.8987144, 43.6043441 ], [ 3.8987724, 43.6043635 ], [ 3.8991171, 43.6044501 ], [ 3.8994719, 43.6045117 ], [ 3.8998333, 43.6045478 ], [ 3.9001978, 43.6045579 ], [ 3.9005619, 43.604542 ], [ 3.900827, 43.6045113 ], [ 3.901007, 43.6046526 ], [ 3.9012799, 43.6048284 ], [ 3.9015753, 43.604984 ], [ 3.9018902, 43.6051178 ], [ 3.9022216, 43.6052285 ], [ 3.9025663, 43.6053151 ], [ 3.9029211, 43.6053767 ], [ 3.9032825, 43.6054128 ], [ 3.903647, 43.6054229 ], [ 3.9040112, 43.605407 ], [ 3.9043714, 43.6053653 ], [ 3.9047242, 43.6052981 ], [ 3.905, 43.6052239 ], [ 3.905, 43.625 ], [ 3.855, 43.625 ], [ 3.855, 43.6227844 ], [ 3.8550896, 43.6228422 ], [ 3.8553849, 43.6229979 ], [ 3.8554595, 43.6230296 ], [ 3.8555776, 43.6230919 ], [ 3.8558925, 43.6232258 ], [ 3.856224, 43.6233367 ], [ 3.8565688, 43.6234234 ], [ 3.8569236, 43.6234852 ], [ 3.8572851, 43.6235214 ], [ 3.8576497, 43.6235316 ], [ 3.8580139, 43.6235159 ], [ 3.8583743, 43.6234743 ], [ 3.8587273, 43.6234072 ], [ 3.8590696, 43.6233153 ], [ 3.8593978, 43.6231995 ], [ 3.8597088, 43.6230609 ], [ 3.8599996, 43.6229008 ], [ 3.8602674, 43.6227208 ], [ 3.8605097, 43.6225226 ], [ 3.860724, 43.622308 ], [ 3.8609083, 43.6220793 ], [ 3.8610609, 43.6218385 ], [ 3.8611802, 43.621588 ], [ 3.8612652, 43.6213302 ], [ 3.861315, 43.6210676 ], [ 3.8613291, 43.6208027 ], [ 3.8613075, 43.6205381 ], [ 3.8612502, 43.6202764 ], [ 3.8611579, 43.6200199 ], [ 3.8610314, 43.6197713 ], [ 3.860872, 43.6195328 ], [ 3.8606812, 43.6193069 ], [ 3.8606757, 43.6193016 ], [ 3.8606256, 43.6192423 ], [ 3.8604052, 43.6190311 ], [ 3.8601574, 43.6188365 ], [ 3.8598845, 43.6186605 ], [ 3.8595892, 43.6185048 ], [ 3.8592744, 43.6183709 ], [ 3.8589429, 43.6182601 ], [ 3.8585981, 43.6181734 ], [ 3.8585326, 43.618162 ], [ 3.8584611, 43.618144 ], [ 3.8581062, 43.6180822 ], [ 3.8577448, 43.618046 ], [ 3.8573802, 43.6180358 ], [ 3.857016, 43.6180515 ], [ 3.8566557, 43.6180931 ], [ 3.8563027, 43.6181602 ], [ 3.8559604, 43.618252 ], [ 3.8556322, 43.6183678 ], [ 3.8553212, 43.6185064 ], [ 3.8550304, 43.6186665 ] ], [ [ 3.8781374, 43.6026847 ], [ 3.87808, 43.6024229 ], [ 3.8779877, 43.6021665 ], [ 3.8778612, 43.6019179 ], [ 3.8777017, 43.6016795 ], [ 3.8775109, 43.6014536 ], [ 3.8772906, 43.6012423 ], [ 3.8770428, 43.6010478 ], [ 3.8767699, 43.6008719 ], [ 3.8764747, 43.6007162 ], [ 3.8761599, 43.6005824 ], [ 3.8758285, 43.6004716 ], [ 3.8754838, 43.6003849 ], [ 3.8751291, 43.6003232 ], [ 3.8747678, 43.6002871 ], [ 3.8744033, 43.6002769 ], [ 3.8740392, 43.6002927 ], [ 3.873679, 43.6003343 ], [ 3.8733261, 43.6004014 ], [ 3.872984, 43.6004933 ], [ 3.8726559, 43.6006092 ], [ 3.872345, 43.6007478 ], [ 3.8720544, 43.600908 ], [ 3.8717867, 43.601088 ], [ 3.8715446, 43.6012863 ], [ 3.8713304, 43.6015008 ], [ 3.8711462, 43.6017296 ], [ 3.8710039, 43.6019543 ], [ 3.8708239, 43.6017411 ], [ 3.8706036, 43.6015299 ], [ 3.8703558, 43.6013354 ], [ 3.870083, 43.6011594 ], [ 3.8697878, 43.6010038 ], [ 3.869473, 43.6008699 ], [ 3.8691416, 43.6007591 ], [ 3.8687969, 43.6006724 ], [ 3.8684422, 43.6006107 ], [ 3.8680809, 43.6005745 ], [ 3.8677164, 43.6005643 ], [ 3.8673523, 43.60058 ], [ 3.8669921, 43.6006217 ], [ 3.8666392, 43.6006888 ], [ 3.8662971, 43.6007807 ], [ 3.865969, 43.6008965 ], [ 3.8656581, 43.6010351 ], [ 3.8653674, 43.6011952 ], [ 3.8650997, 43.6013753 ], [ 3.8648576, 43.6015735 ], [ 3.8646433, 43.6017881 ], [ 3.8644591, 43.6020168 ], [ 3.8643066, 43.6022576 ], [ 3.8641873, 43.6025081 ], [ 3.8641023, 43.6027659 ], [ 3.8640526, 43.6030285 ], [ 3.8640399, 43.6032662 ], [ 3.8640301, 43.6033177 ], [ 3.864016, 43.6035826 ], [ 3.8640377, 43.6038472 ], [ 3.8640604, 43.6039507 ], [ 3.8640654, 43.6040122 ], [ 3.8640924, 43.6041354 ], [ 3.863918, 43.60431 ], [ 3.8637338, 43.6045388 ], [ 3.8635812, 43.6047796 ], [ 3.8634619, 43.6050301 ], [ 3.863377, 43.6052879 ], [ 3.8633272, 43.6055505 ], [ 3.8633131, 43.6058153 ], [ 3.8633348, 43.6060799 ], [ 3.863392, 43.6063417 ], [ 3.8634844, 43.6065982 ], [ 3.8636108, 43.6068468 ], [ 3.8637702, 43.6070852 ], [ 3.863961, 43.6073112 ], [ 3.8641813, 43.6075224 ], [ 3.8644291, 43.607717 ], [ 3.8647019, 43.6078929 ], [ 3.8649972, 43.6080486 ], [ 3.865312, 43.6081825 ], [ 3.8656434, 43.6082933 ], [ 3.8659881, 43.60838 ], [ 3.8663429, 43.6084417 ], [ 3.8667043, 43.6084779 ], [ 3.8670688, 43.6084881 ], [ 3.8674329, 43.6084724 ], [ 3.8677932, 43.6084307 ], [ 3.8681461, 43.6083636 ], [ 3.8684883, 43.6082717 ], [ 3.8688164, 43.6081559 ], [ 3.8691273, 43.6080173 ], [ 3.8694181, 43.6078571 ], [ 3.8696858, 43.6076771 ], [ 3.8699279, 43.6074788 ], [ 3.8701421, 43.6072643 ], [ 3.8703264, 43.6070355 ], [ 3.8704789, 43.6067947 ], [ 3.8705982, 43.6065442 ], [ 3.8706831, 43.6062864 ], [ 3.8707328, 43.6060238 ], [ 3.8707469, 43.6057589 ], [ 3.8707252, 43.6054943 ], [ 3.8707052, 43.605403 ], [ 3.8707697, 43.6053502 ], [ 3.8709839, 43.6051357 ], [ 3.8711682, 43.6049069 ], [ 3.8713207, 43.6046661 ], [ 3.871391, 43.6045185 ], [ 3.8715941, 43.6047132 ], [ 3.8716547, 43.6047608 ], [ 3.8716408, 43.6048029 ], [ 3.8715911, 43.6050655 ], [ 3.871577, 43.6053304 ], [ 3.8715988, 43.605595 ], [ 3.8716561, 43.6058568 ], [ 3.8717484, 43.6061132 ], [ 3.8718749, 43.6063618 ], [ 3.8720343, 43.6066003 ], [ 3.8722251, 43.6068262 ], [ 3.8724455, 43.6070374 ], [ 3.8726933, 43.6072319 ], [ 3.8729661, 43.6074079 ], [ 3.8732614, 43.6075635 ], [ 3.8735763, 43.6076974 ], [ 3.8739076, 43.6078082 ], [ 3.8742524, 43.6078949 ], [ 3.8743369, 43.6079096 ], [ 3.8744831, 43.6080244 ], [ 3.874756, 43.6082003 ], [ 3.8750512, 43.608356 ], [ 3.8753661, 43.6084898 ], [ 3.8756975, 43.6086006 ], [ 3.8760422, 43.6086873 ], [ 3.876397, 43.608749 ], [ 3.8767584, 43.6087851 ], [ 3.8771229, 43.6087953 ], [ 3.8774871, 43.6087795 ], [ 3.8778474, 43.6087379 ], [ 3.8782003, 43.6086707 ], [ 3.8785424, 43.6085788 ], [ 3.8788705, 43.6084629 ], [ 3.8791814, 43.6083243 ], [ 3.8794721, 43.6081641 ], [ 3.8797398, 43.607984 ], [ 3.8799819, 43.6077858 ], [ 3.8801961, 43.6075712 ], [ 3.8803803, 43.6073424 ], [ 3.8805328, 43.6071016 ], [ 3.880652, 43.6068511 ], [ 3.8807369, 43.6065933 ], [ 3.8807866, 43.6063307 ], [ 3.8808006, 43.6060658 ], [ 3.8807789, 43.6058012 ], [ 3.8807215, 43.6055394 ], [ 3.8806291, 43.605283 ], [ 3.8805026, 43.6050344 ], [ 3.8803432, 43.604796 ], [ 3.8801523, 43.6045701 ], [ 3.8799319, 43.6043589 ], [ 3.8796841, 43.6041644 ], [ 3.8794113, 43.6039884 ], [ 3.879116, 43.6038328 ], [ 3.8788012, 43.6036989 ], [ 3.8784698, 43.6035882 ], [ 3.8781251, 43.6035015 ], [ 3.8780893, 43.6034953 ], [ 3.8780954, 43.6034768 ], [ 3.8781451, 43.6032142 ], [ 3.8781591, 43.6029493 ], [ 3.8781374, 43.6026847 ] ], [ [ 3.9014676, 43.6216339 ], [ 3.9013751, 43.6213775 ], [ 3.9012484, 43.6211289 ], [ 3.9010889, 43.6208905 ], [ 3.9008979, 43.6206646 ], [ 3.9006774, 43.6204535 ], [ 3.9004294, 43.620259 ], [ 3.9001564, 43.6200831 ], [ 3.899861, 43.6199275 ], [ 3.8995461, 43.6197937 ], [ 3.8992146, 43.619683 ], [ 3.8988697, 43.6195964 ], [ 3.8985149, 43.6195348 ], [ 3.8981534, 43.6194987 ], [ 3.8977888, 43.6194886 ], [ 3.8974246, 43.6195045 ], [ 3.8970643, 43.6195462 ], [ 3.8967113, 43.6196134 ], [ 3.8963692, 43.6197054 ], [ 3.896041, 43.6198213 ], [ 3.8957301, 43.61996 ], [ 3.8954394, 43.6201202 ], [ 3.8951717, 43.6203003 ], [ 3.8949296, 43.6204986 ], [ 3.8947154, 43.6207132 ], [ 3.8945312, 43.620942 ], [ 3.8943788, 43.6211828 ], [ 3.8942596, 43.6214334 ], [ 3.8941747, 43.6216912 ], [ 3.8941251, 43.6219538 ], [ 3.8941111, 43.6222186 ], [ 3.8941329, 43.6224832 ], [ 3.8941904, 43.622745 ], [ 3.8942828, 43.6230014 ], [ 3.8944094, 43.62325 ], [ 3.894569, 43.6234884 ], [ 3.8947599, 43.6237143 ], [ 3.8949805, 43.6239255 ], [ 3.8952284, 43.6241199 ], [ 3.8955014, 43.6242958 ], [ 3.8957968, 43.6244514 ], [ 3.8961118, 43.6245852 ], [ 3.8964433, 43.624696 ], [ 3.8967882, 43.6247826 ], [ 3.8971431, 43.6248442 ], [ 3.8975046, 43.6248803 ], [ 3.8978692, 43.6248904 ], [ 3.8982334, 43.6248745 ], [ 3.8985938, 43.6248328 ], [ 3.8989468, 43.6247656 ], [ 3.899289, 43.6246736 ], [ 3.8996171, 43.6245577 ], [ 3.899928, 43.624419 ], [ 3.9002188, 43.6242588 ], [ 3.9004864, 43.6240786 ], [ 3.9007285, 43.6238803 ], [ 3.9009427, 43.6236657 ], [ 3.9011269, 43.6234369 ], [ 3.9012793, 43.6231961 ], [ 3.9013985, 43.6229455 ], [ 3.9014833, 43.6226877 ], [ 3.9015329, 43.6224251 ], [ 3.9015469, 43.6221602 ], [ 3.901525, 43.6218956 ], [ 3.9014676, 43.6216339 ] ] ] ] } }
]
}
