{
"type": "FeatureCollection",
"features": [
{ "type": "Feature", "properties": { "index": "0", "last_edit_year": 2024, "years_since_edit": 2, "label": "2.0–4.0 yr", "color": "#006837" }, "geometry": { "type": "Point", "coordinates": [ 3.8576113, 43.6208307 ] } },
{ "type": "Feature", "properties": { "index": "1", "last_edit_year": 2024, "years_since_edit": 2, "label": "2.0–4.0 yr", "color": "#006837" }, "geometry": { "type": "Point", "coordinates": [ 3.8574186, 43.6207367 ] } },
{ "type": "Feature", "properties": { "index": "2", "last_edit_year": 2024, "years_since_edit": 2, "label": "2.0–4.0 yr", "color": "#006837" }, "geometry": { "type": "Point", "coordinates": [ 3.8575557, 43.6207661 ] } },
{ "type": "Feature", "properties": { "index": "3", "last_edit_year": 2024, "years_since_edit": 2, "label": "2.0–4.0 yr", "color": "#006837" }, "geometry": { "type": "Point", "coordinates": [ 3.8584326, 43.6042305 ] } },
{ "type": "Feature", "properties": { "index": "4", "last_edit_year": 2025, "years_since_edit": 1, "label": "1.0–2.0 yr", "color": "#78c679" }, "geometry": { "type": "Point", "coordinates": [ 3.8581408, 43.6040125 ] } },
{ "type": "Feature", "properties": { "index": "5", "last_edit_year": 2025, "years_since_edit": 1, "label": "1.0–2.0 yr", "color": "#78c679" }, "geometry": { "type": "Point", "coordinates": [ 3.8581824, 43.6041823 ] } },
{ "type": "Feature", "properties": { "index": "6", "last_edit_year": 2024, "years_since_edit": 2, "label": "2.0–4.0 yr", "color": "#006837" }, "geometry": { "type": "Point", "coordinates": [ 3.86703, 43.6057872 ] } },
{ "type": "Feature", "properties": { "index": "7", "last_edit_year": 2025, "years_since_edit": 1, "label": "1.0–2.0 yr", "color": "#78c679" }, "geometry": { "type": "Point", "coordinates": [ 3.9011116, 43.6013957 ] } },
{ "type": "Feature", "properties": { "index": "8", "last_edit_year": 2024, "years_since_edit": 2, "label": "2.0–4.0 yr", "color": "#006837" }, "geometry": { "type": "Point", "coordinates": [ 3.8784138, 43.618156 ] } },
{ "type": "Feature", "properties": { "index": "9", "last_edit_year": 2024, "years_since_edit": 2, "label": "2.0–4.0 yr", "color": "#006837" }, "geometry": { "type": "Point", "coordinates": [ 3.8887031, 43.6134951 ] } },
{ "type": "Feature", "properties": { "index": "10", "last_edit_year": 2025, "years_since_edit": 1, "label": "1.0–2.0 yr", "color": "#78c679" }, "geometry": { "type": "Point", "coordinates": [ 3.8883751, 43.6033273 ] } },
{ "type": "Feature", "properties": { "index": "11", "last_edit_year": 2025, "years_since_edit": 1, "label": "1.0–2.0 yr", "color": "#78c679" }, "geometry": { "type": "Point", "coordinates": [ 3.9001575, 43.601857 ] } },
{ "type": "Feature", "properties": { "index": "12", "last_edit_year": 2025, "years_since_edit": 1, "label": "1.0–2.0 yr", "color": "#78c679" }, "geometry": { "type": "Point", "coordinates": [ 3.9002465, 43.6017214 ] } },
{ "type": "Feature", "properties": { "index": "13", "last_edit_year": 2024, "years_since_edit": 2, "label": "2.0–4.0 yr", "color": "#006837" }, "geometry": { "type": "Point", "coordinates": [ 3.8887816, 43.6132099 ] } },
{ "type": "Feature", "properties": { "index": "14", "last_edit_year": 2026, "years_since_edit": 0, "label": "0.0–1.0 yr", "color": "#ffc" }, "geometry": { "type": "Point", "coordinates": [ 3.8847783, 43.603221 ] } },
{ "type": "Feature", "properties": { "index": "15", "last_edit_year": 2026, "years_since_edit": 0, "label": "0.0–1.0 yr", "color": "#ffc" }, "geometry": { "type": "Point", "coordinates": [ 3.8880793, 43.6091381 ] } },
{ "type": "Feature", "properties": { "index": "16", "last_edit_year": 2026, "years_since_edit": 0, "label": "0.0–1.0 yr", "color": "#ffc" }, "geometry": { "type": "Point", "coordinates": [ 3.8695282, 43.6175681 ] } },
{ "type": "Feature", "properties": { "index": "17", "last_edit_year": 2024, "years_since_edit": 2, "label": "2.0–4.0 yr", "color": "#006837" }, "geometry": { "type": "Point", "coordinates": [ 3.884799, 43.6075381 ] } },
{ "type": "Feature", "properties": { "index": "18", "last_edit_year": 2024, "years_since_edit": 2, "label": "2.0–4.0 yr", "color": "#006837" }, "geometry": { "type": "Point", "coordinates": [ 3.883383, 43.6148465 ] } },
{ "type": "Feature", "properties": { "index": "19", "last_edit_year": 2024, "years_since_edit": 2, "label": "2.0–4.0 yr", "color": "#006837" }, "geometry": { "type": "Point", "coordinates": [ 3.8830524, 43.6149804 ] } },
{ "type": "Feature", "properties": { "index": "20", "last_edit_year": 2024, "years_since_edit": 2, "label": "2.0–4.0 yr", "color": "#006837" }, "geometry": { "type": "Point", "coordinates": [ 3.8888055, 43.6134857 ] } },
{ "type": "Feature", "properties": { "index": "21", "last_edit_year": 2024, "years_since_edit": 2, "label": "2.0–4.0 yr", "color": "#006837" }, "geometry": { "type": "Point", "coordinates": [ 3.892207, 43.6147486 ] } },
{ "type": "Feature", "properties": { "index": "22", "last_edit_year": 2024, "years_since_edit": 2, "label": "2.0–4.0 yr", "color": "#006837" }, "geometry": { "type": "Point", "coordinates": [ 3.892006, 43.615033 ] } },
{ "type": "Feature", "properties": { "index": "23", "last_edit_year": 2024, "years_since_edit": 2, "label": "2.0–4.0 yr", "color": "#006837" }, "geometry": { "type": "Point", "coordinates": [ 3.8883331, 43.613327 ] } },
{ "type": "Feature", "properties": { "index": "24", "last_edit_year": 2024, "years_since_edit": 2, "label": "2.0–4.0 yr", "color": "#006837" }, "geometry": { "type": "Point", "coordinates": [ 3.8883866, 43.6133765 ] } },
{ "type": "Feature", "properties": { "index": "25", "last_edit_year": 2024, "years_since_edit": 2, "label": "2.0–4.0 yr", "color": "#006837" }, "geometry": { "type": "Point", "coordinates": [ 3.8884563, 43.6134411 ] } },
{ "type": "Feature", "properties": { "index": "26", "last_edit_year": 2022, "years_since_edit": 4, "label": "2.0–4.0 yr", "color": "#006837" }, "geometry": { "type": "Point", "coordinates": [ 3.8976742, 43.6006755 ] } },
{ "type": "Feature", "properties": { "index": "27", "last_edit_year": 2024, "years_since_edit": 2, "label": "2.0–4.0 yr", "color": "#006837" }, "geometry": { "type": "Point", "coordinates": [ 3.8837738, 43.6144064 ] } },
{ "type": "Feature", "properties": { "index": "28", "last_edit_year": 2024, "years_since_edit": 2, "label": "2.0–4.0 yr", "color": "#006837" }, "geometry": { "type": "Point", "coordinates": [ 3.8747486, 43.6161802 ] } },
{ "type": "Feature", "properties": { "index": "29", "last_edit_year": 2024, "years_since_edit": 2, "label": "2.0–4.0 yr", "color": "#006837" }, "geometry": { "type": "Point", "coordinates": [ 3.8745253, 43.6163751 ] } },
{ "type": "Feature", "properties": { "index": "30", "last_edit_year": 2024, "years_since_edit": 2, "label": "2.0–4.0 yr", "color": "#006837" }, "geometry": { "type": "Point", "coordinates": [ 3.8899687, 43.6041232 ] } },
{ "type": "Feature", "properties": { "index": "31", "last_edit_year": 2024, "years_since_edit": 2, "label": "2.0–4.0 yr", "color": "#006837" }, "geometry": { "type": "Point", "coordinates": [ 3.8932666, 43.6038458 ] } },
{ "type": "Feature", "properties": { "index": "32", "last_edit_year": 2024, "years_since_edit": 2, "label": "2.0–4.0 yr", "color": "#006837" }, "geometry": { "type": "Point", "coordinates": [ 3.8928275, 43.6039231 ] } },
{ "type": "Feature", "properties": { "index": "33", "last_edit_year": 2025, "years_since_edit": 1, "label": "1.0–2.0 yr", "color": "#78c679" }, "geometry": { "type": "Point", "coordinates": [ 3.8947006, 43.603938 ] } },
{ "type": "Feature", "properties": { "index": "34", "last_edit_year": 2024, "years_since_edit": 2, "label": "2.0–4.0 yr", "color": "#006837" }, "geometry": { "type": "Point", "coordinates": [ 3.892911, 43.6040122 ] } },
{ "type": "Feature", "properties": { "index": "35", "last_edit_year": 2024, "years_since_edit": 2, "label": "2.0–4.0 yr", "color": "#006837" }, "geometry": { "type": "Point", "coordinates": [ 3.894936, 43.6044352 ] } },
{ "type": "Feature", "properties": { "index": "36", "last_edit_year": 2024, "years_since_edit": 2, "label": "2.0–4.0 yr", "color": "#006837" }, "geometry": { "type": "Point", "coordinates": [ 3.8945883, 43.604499 ] } },
{ "type": "Feature", "properties": { "index": "37", "last_edit_year": 2024, "years_since_edit": 2, "label": "2.0–4.0 yr", "color": "#006837" }, "geometry": { "type": "Point", "coordinates": [ 3.8770837, 43.6060944 ] } },
{ "type": "Feature", "properties": { "index": "38", "last_edit_year": 2025, "years_since_edit": 1, "label": "1.0–2.0 yr", "color": "#78c679" }, "geometry": { "type": "Point", "coordinates": [ 3.8880909, 43.6034829 ] } },
{ "type": "Feature", "properties": { "index": "39", "last_edit_year": 2024, "years_since_edit": 2, "label": "2.0–4.0 yr", "color": "#006837" }, "geometry": { "type": "Point", "coordinates": [ 3.890412, 43.6035164 ] } },
{ "type": "Feature", "properties": { "index": "40", "last_edit_year": 2024, "years_since_edit": 2, "label": "2.0–4.0 yr", "color": "#006837" }, "geometry": { "type": "Point", "coordinates": [ 3.8883253, 43.6035178 ] } },
{ "type": "Feature", "properties": { "index": "41", "last_edit_year": 2024, "years_since_edit": 2, "label": "2.0–4.0 yr", "color": "#006837" }, "geometry": { "type": "Point", "coordinates": [ 3.8905259, 43.6035397 ] } },
{ "type": "Feature", "properties": { "index": "42", "last_edit_year": 2024, "years_since_edit": 2, "label": "2.0–4.0 yr", "color": "#006837" }, "geometry": { "type": "Point", "coordinates": [ 3.8900261, 43.6036138 ] } },
{ "type": "Feature", "properties": { "index": "43", "last_edit_year": 2024, "years_since_edit": 2, "label": "2.0–4.0 yr", "color": "#006837" }, "geometry": { "type": "Point", "coordinates": [ 3.8905854, 43.6036151 ] } },
{ "type": "Feature", "properties": { "index": "44", "last_edit_year": 2024, "years_since_edit": 2, "label": "2.0–4.0 yr", "color": "#006837" }, "geometry": { "type": "Point", "coordinates": [ 3.8897348, 43.6036798 ] } },
{ "type": "Feature", "properties": { "index": "45", "last_edit_year": 2024, "years_since_edit": 2, "label": "2.0–4.0 yr", "color": "#006837" }, "geometry": { "type": "Point", "coordinates": [ 3.8905711, 43.6037206 ] } },
{ "type": "Feature", "properties": { "index": "46", "last_edit_year": 2023, "years_since_edit": 3, "label": "2.0–4.0 yr", "color": "#006837" }, "geometry": { "type": "Point", "coordinates": [ 3.8938259, 43.6068614 ] } },
{ "type": "Feature", "properties": { "index": "47", "last_edit_year": 2024, "years_since_edit": 2, "label": "2.0–4.0 yr", "color": "#006837" }, "geometry": { "type": "Point", "coordinates": [ 3.8830373, 43.6147835 ] } },
{ "type": "Feature", "properties": { "index": "48", "last_edit_year": 2024, "years_since_edit": 2, "label": "2.0–4.0 yr", "color": "#006837" }, "geometry": { "type": "Point", "coordinates": [ 3.8790714, 43.6151243 ] } },
{ "type": "Feature", "properties": { "index": "49", "last_edit_year": 2025, "years_since_edit": 1, "label": "1.0–2.0 yr", "color": "#78c679" }, "geometry": { "type": "Point", "coordinates": [ 3.869888, 43.6148842 ] } },
{ "type": "Feature", "properties": { "index": "50", "last_edit_year": 2026, "years_since_edit": 0, "label": "0.0–1.0 yr", "color": "#ffc" }, "geometry": { "type": "Point", "coordinates": [ 3.869789, 43.6148989 ] } },
{ "type": "Feature", "properties": { "index": "51", "last_edit_year": 2026, "years_since_edit": 0, "label": "0.0–1.0 yr", "color": "#ffc" }, "geometry": { "type": "Point", "coordinates": [ 3.8699167, 43.6149735 ] } },
{ "type": "Feature", "properties": { "index": "52", "last_edit_year": 2024, "years_since_edit": 2, "label": "2.0–4.0 yr", "color": "#006837" }, "geometry": { "type": "Point", "coordinates": [ 3.8697226, 43.6152839 ] } },
{ "type": "Feature", "properties": { "index": "53", "last_edit_year": 2025, "years_since_edit": 1, "label": "1.0–2.0 yr", "color": "#78c679" }, "geometry": { "type": "Point", "coordinates": [ 3.8695763, 43.6155299 ] } },
{ "type": "Feature", "properties": { "index": "54", "last_edit_year": 2024, "years_since_edit": 2, "label": "2.0–4.0 yr", "color": "#006837" }, "geometry": { "type": "Point", "coordinates": [ 3.8831959, 43.6148708 ] } },
{ "type": "Feature", "properties": { "index": "55", "last_edit_year": 2024, "years_since_edit": 2, "label": "2.0–4.0 yr", "color": "#006837" }, "geometry": { "type": "Point", "coordinates": [ 3.8831062, 43.6148645 ] } },
{ "type": "Feature", "properties": { "index": "56", "last_edit_year": 2026, "years_since_edit": 0, "label": "0.0–1.0 yr", "color": "#ffc" }, "geometry": { "type": "Point", "coordinates": [ 3.8674609, 43.6127586 ] } },
{ "type": "Feature", "properties": { "index": "57", "last_edit_year": 2024, "years_since_edit": 2, "label": "2.0–4.0 yr", "color": "#006837" }, "geometry": { "type": "Point", "coordinates": [ 3.8784457, 43.6182493 ] } },
{ "type": "Feature", "properties": { "index": "58", "last_edit_year": 2024, "years_since_edit": 2, "label": "2.0–4.0 yr", "color": "#006837" }, "geometry": { "type": "Point", "coordinates": [ 3.8825946, 43.6016652 ] } },
{ "type": "Feature", "properties": { "index": "59", "last_edit_year": 2024, "years_since_edit": 2, "label": "2.0–4.0 yr", "color": "#006837" }, "geometry": { "type": "Point", "coordinates": [ 3.8828279, 43.6015708 ] } },
{ "type": "Feature", "properties": { "index": "60", "last_edit_year": 2024, "years_since_edit": 2, "label": "2.0–4.0 yr", "color": "#006837" }, "geometry": { "type": "Point", "coordinates": [ 3.8824691, 43.6016144 ] } },
{ "type": "Feature", "properties": { "index": "61", "last_edit_year": 2024, "years_since_edit": 2, "label": "2.0–4.0 yr", "color": "#006837" }, "geometry": { "type": "Point", "coordinates": [ 3.8828179, 43.601495 ] } },
{ "type": "Feature", "properties": { "index": "62", "last_edit_year": 2024, "years_since_edit": 2, "label": "2.0–4.0 yr", "color": "#006837" }, "geometry": { "type": "Point", "coordinates": [ 3.8846947, 43.6074911 ] } },
{ "type": "Feature", "properties": { "index": "63", "last_edit_year": 2024, "years_since_edit": 2, "label": "2.0–4.0 yr", "color": "#006837" }, "geometry": { "type": "Point", "coordinates": [ 3.8747211, 43.6163848 ] } },
{ "type": "Feature", "properties": { "index": "64", "last_edit_year": 2026, "years_since_edit": 0, "label": "0.0–1.0 yr", "color": "#ffc" }, "geometry": { "type": "Point", "coordinates": [ 3.9036066, 43.602722 ] } },
{ "type": "Feature", "properties": { "index": "65", "last_edit_year": 2026, "years_since_edit": 0, "label": "0.0–1.0 yr", "color": "#ffc" }, "geometry": { "type": "Point", "coordinates": [ 3.9036603, 43.6026027 ] } },
{ "type": "Feature", "properties": { "index": "66", "last_edit_year": 2024, "years_since_edit": 2, "label": "2.0–4.0 yr", "color": "#006837" }, "geometry": { "type": "Point", "coordinates": [ 3.889629, 43.6121904 ] } },
{ "type": "Feature", "properties": { "index": "67", "last_edit_year": 2024, "years_since_edit": 2, "label": "2.0–4.0 yr", "color": "#006837" }, "geometry": { "type": "Point", "coordinates": [ 3.8893912, 43.6123343 ] } },
{ "type": "Feature", "properties": { "index": "68", "last_edit_year": 2024, "years_since_edit": 2, "label": "2.0–4.0 yr", "color": "#006837" }, "geometry": { "type": "Point", "coordinates": [ 3.8889158, 43.6134072 ] } },
{ "type": "Feature", "properties": { "index": "69", "last_edit_year": 2024, "years_since_edit": 2, "label": "2.0–4.0 yr", "color": "#006837" }, "geometry": { "type": "Point", "coordinates": [ 3.8744424, 43.6029778 ] } },
{ "type": "Feature", "properties": { "index": "70", "last_edit_year": 2024, "years_since_edit": 2, "label": "2.0–4.0 yr", "color": "#006837" }, "geometry": { "type": "Point", "coordinates": [ 3.8846827, 43.6017335 ] } },
{ "type": "Feature", "properties": { "index": "71", "last_edit_year": 2024, "years_since_edit": 2, "label": "2.0–4.0 yr", "color": "#006837" }, "geometry": { "type": "Point", "coordinates": [ 3.8845583, 43.6017989 ] } },
{ "type": "Feature", "properties": { "index": "72", "last_edit_year": 2025, "years_since_edit": 1, "label": "1.0–2.0 yr", "color": "#78c679" }, "geometry": { "type": "Point", "coordinates": [ 3.8847907, 43.6018318 ] } },
{ "type": "Feature", "properties": { "index": "73", "last_edit_year": 2024, "years_since_edit": 2, "label": "2.0–4.0 yr", "color": "#006837" }, "geometry": { "type": "Point", "coordinates": [ 3.8845598, 43.6019093 ] } },
{ "type": "Feature", "properties": { "index": "74", "last_edit_year": 2024, "years_since_edit": 2, "label": "2.0–4.0 yr", "color": "#006837" }, "geometry": { "type": "Point", "coordinates": [ 3.8677552, 43.6032652 ] } },
{ "type": "Feature", "properties": { "index": "75", "last_edit_year": 2024, "years_since_edit": 2, "label": "2.0–4.0 yr", "color": "#006837" }, "geometry": { "type": "Point", "coordinates": [ 3.8678719, 43.6036586 ] } },
{ "type": "Feature", "properties": { "index": "76", "last_edit_year": 2024, "years_since_edit": 2, "label": "2.0–4.0 yr", "color": "#006837" }, "geometry": { "type": "Point", "coordinates": [ 3.8677328, 43.6035544 ] } },
{ "type": "Feature", "properties": { "index": "77", "last_edit_year": 2025, "years_since_edit": 1, "label": "1.0–2.0 yr", "color": "#78c679" }, "geometry": { "type": "Point", "coordinates": [ 3.8677605, 43.6037194 ] } },
{ "type": "Feature", "properties": { "index": "78", "last_edit_year": 2026, "years_since_edit": 0, "label": "0.0–1.0 yr", "color": "#ffc" }, "geometry": { "type": "Point", "coordinates": [ 3.8673649, 43.6127497 ] } },
{ "type": "Feature", "properties": { "index": "79", "last_edit_year": 2024, "years_since_edit": 2, "label": "2.0–4.0 yr", "color": "#006837" }, "geometry": { "type": "Point", "coordinates": [ 3.8946455, 43.6001519 ] } },
{ "type": "Feature", "properties": { "index": "80", "last_edit_year": 2024, "years_since_edit": 2, "label": "2.0–4.0 yr", "color": "#006837" }, "geometry": { "type": "Point", "coordinates": [ 3.8973707, 43.6007277 ] } },
{ "type": "Feature", "properties": { "index": "81", "last_edit_year": 2026, "years_since_edit": 0, "label": "0.0–1.0 yr", "color": "#ffc" }, "geometry": { "type": "Point", "coordinates": [ 3.8938311, 43.6058416 ] } },
{ "type": "Feature", "properties": { "index": "82", "last_edit_year": 2025, "years_since_edit": 1, "label": "1.0–2.0 yr", "color": "#78c679" }, "geometry": { "type": "Point", "coordinates": [ 3.8894947, 43.6054473 ] } },
{ "type": "Feature", "properties": { "index": "83", "last_edit_year": 2025, "years_since_edit": 1, "label": "1.0–2.0 yr", "color": "#78c679" }, "geometry": { "type": "Point", "coordinates": [ 3.889555, 43.6054951 ] } },
{ "type": "Feature", "properties": { "index": "84", "last_edit_year": 2025, "years_since_edit": 1, "label": "1.0–2.0 yr", "color": "#78c679" }, "geometry": { "type": "Point", "coordinates": [ 3.8894422, 43.6055636 ] } },
{ "type": "Feature", "properties": { "index": "85", "last_edit_year": 2024, "years_since_edit": 2, "label": "2.0–4.0 yr", "color": "#006837" }, "geometry": { "type": "Point", "coordinates": [ 3.8845482, 43.6031867 ] } },
{ "type": "Feature", "properties": { "index": "86", "last_edit_year": 2024, "years_since_edit": 2, "label": "2.0–4.0 yr", "color": "#006837" }, "geometry": { "type": "Point", "coordinates": [ 3.8846685, 43.6032713 ] } },
{ "type": "Feature", "properties": { "index": "87", "last_edit_year": 2025, "years_since_edit": 1, "label": "1.0–2.0 yr", "color": "#78c679" }, "geometry": { "type": "Point", "coordinates": [ 3.897829, 43.6221895 ] } },
{ "type": "Feature", "properties": { "index": "88", "last_edit_year": 2024, "years_since_edit": 2, "label": "2.0–4.0 yr", "color": "#006837" }, "geometry": { "type": "Point", "coordinates": [ 3.895316, 43.6062305 ] } },
{ "type": "Feature", "properties": { "index": "89", "last_edit_year": 2024, "years_since_edit": 2, "label": "2.0–4.0 yr", "color": "#006837" }, "geometry": { "type": "Point", "coordinates": [ 3.8941839, 43.6066709 ] } },
{ "type": "Feature", "properties": { "index": "90", "last_edit_year": 2024, "years_since_edit": 2, "label": "2.0–4.0 yr", "color": "#006837" }, "geometry": { "type": "Point", "coordinates": [ 3.8941724, 43.6067623 ] } },
{ "type": "Feature", "properties": { "index": "91", "last_edit_year": 2024, "years_since_edit": 2, "label": "2.0–4.0 yr", "color": "#006837" }, "geometry": { "type": "Point", "coordinates": [ 3.8885937, 43.6131448 ] } },
{ "type": "Feature", "properties": { "index": "92", "last_edit_year": 2024, "years_since_edit": 2, "label": "2.0–4.0 yr", "color": "#006837" }, "geometry": { "type": "Point", "coordinates": [ 3.8886306, 43.6131705 ] } },
{ "type": "Feature", "properties": { "index": "93", "last_edit_year": 2024, "years_since_edit": 2, "label": "2.0–4.0 yr", "color": "#006837" }, "geometry": { "type": "Point", "coordinates": [ 3.8945143, 43.6001067 ] } },
{ "type": "Feature", "properties": { "index": "94", "last_edit_year": 2024, "years_since_edit": 2, "label": "2.0–4.0 yr", "color": "#006837" }, "geometry": { "type": "Point", "coordinates": [ 3.8944947, 43.6002291 ] } },
{ "type": "Feature", "properties": { "index": "95", "last_edit_year": 2024, "years_since_edit": 2, "label": "2.0–4.0 yr", "color": "#006837" }, "geometry": { "type": "Point", "coordinates": [ 3.8946073, 43.6002599 ] } },
{ "type": "Feature", "properties": { "index": "96", "last_edit_year": 2024, "years_since_edit": 2, "label": "2.0–4.0 yr", "color": "#006837" }, "geometry": { "type": "Point", "coordinates": [ 3.8950386, 43.6039655 ] } },
{ "type": "Feature", "properties": { "index": "97", "last_edit_year": 2023, "years_since_edit": 3, "label": "2.0–4.0 yr", "color": "#006837" }, "geometry": { "type": "Point", "coordinates": [ 3.8937805, 43.606865 ] } },
{ "type": "Feature", "properties": { "index": "98", "last_edit_year": 2024, "years_since_edit": 2, "label": "2.0–4.0 yr", "color": "#006837" }, "geometry": { "type": "Point", "coordinates": [ 3.8940156, 43.606972 ] } },
{ "type": "Feature", "properties": { "index": "99", "last_edit_year": 2024, "years_since_edit": 2, "label": "2.0–4.0 yr", "color": "#006837" }, "geometry": { "type": "Point", "coordinates": [ 3.8939507, 43.606511 ] } },
{ "type": "Feature", "properties": { "index": "100", "last_edit_year": 2025, "years_since_edit": 1, "label": "1.0–2.0 yr", "color": "#78c679" }, "geometry": { "type": "Point", "coordinates": [ 3.8752939, 43.605302 ] } },
{ "type": "Feature", "properties": { "index": "101", "last_edit_year": 2024, "years_since_edit": 2, "label": "2.0–4.0 yr", "color": "#006837" }, "geometry": { "type": "Point", "coordinates": [ 3.8784823, 43.6180051 ] } },
{ "type": "Feature", "properties": { "index": "102", "last_edit_year": 2024, "years_since_edit": 2, "label": "2.0–4.0 yr", "color": "#006837" }, "geometry": { "type": "Point", "coordinates": [ 3.878603, 43.6180823 ] } },
{ "type": "Feature", "properties": { "index": "103", "last_edit_year": 2022, "years_since_edit": 4, "label": "2.0–4.0 yr", "color": "#006837" }, "geometry": { "type": "Point", "coordinates": [ 3.8978317, 43.6007308 ] } },
{ "type": "Feature", "properties": { "index": "104", "last_edit_year": 2025, "years_since_edit": 1, "label": "1.0–2.0 yr", "color": "#78c679" }, "geometry": { "type": "Point", "coordinates": [ 3.8990186, 43.6011758 ] } },
{ "type": "Feature", "properties": { "index": "105", "last_edit_year": 2025, "years_since_edit": 1, "label": "1.0–2.0 yr", "color": "#78c679" }, "geometry": { "type": "Point", "coordinates": [ 3.8989301, 43.6011983 ] } },
{ "type": "Feature", "properties": { "index": "106", "last_edit_year": 2026, "years_since_edit": 0, "label": "0.0–1.0 yr", "color": "#ffc" }, "geometry": { "type": "Point", "coordinates": [ 3.8836819, 43.6172835 ] } },
{ "type": "Feature", "properties": { "index": "107", "last_edit_year": 2026, "years_since_edit": 0, "label": "0.0–1.0 yr", "color": "#ffc" }, "geometry": { "type": "Point", "coordinates": [ 3.8837693, 43.6175112 ] } },
{ "type": "Feature", "properties": { "index": "108", "last_edit_year": 2026, "years_since_edit": 0, "label": "0.0–1.0 yr", "color": "#ffc" }, "geometry": { "type": "Point", "coordinates": [ 3.8839698, 43.6174081 ] } },
{ "type": "Feature", "properties": { "index": "109", "last_edit_year": 2024, "years_since_edit": 2, "label": "2.0–4.0 yr", "color": "#006837" }, "geometry": { "type": "Point", "coordinates": [ 3.8760179, 43.620636 ] } }
]
}
