{
"type": "FeatureCollection",
"features": [
{ "type": "Feature", "properties": { "index": "0", "subarea": "H0-0", "count": 3, "area_km2": 0.202, "density_per_km2": 14.86, "label": "12.5–35.7/km²", "color": "#006837" }, "geometry": { "type": "Polygon", "coordinates": [ [ [ 3.8617579, 43.6000013 ], [ 3.8582862, 43.6044774 ], [ 3.855, 43.604502 ], [ 3.855, 43.6 ], [ 3.8617579, 43.6000013 ] ] ] } },
{ "type": "Feature", "properties": { "index": "1", "subarea": "H0-1", "count": 0, "area_km2": 0.415, "density_per_km2": 0.0, "label": "0.0–2.3/km²", "color": "#ffc" }, "geometry": { "type": "Polygon", "coordinates": [ [ [ 3.861927, 43.6089521 ], [ 3.8584142, 43.6134805 ], [ 3.855, 43.6135061 ], [ 3.855, 43.604502 ], [ 3.8582862, 43.6044774 ], [ 3.861927, 43.6089521 ] ] ] } },
{ "type": "Feature", "properties": { "index": "2", "subarea": "H0-2", "count": 3, "area_km2": 0.425, "density_per_km2": 7.06, "label": "2.3–7.1/km²", "color": "#a9db8e" }, "geometry": { "type": "Polygon", "coordinates": [ [ [ 3.8620556, 43.6179552 ], [ 3.8585423, 43.6224836 ], [ 3.855, 43.6225102 ], [ 3.855, 43.6135061 ], [ 3.8584142, 43.6134805 ], [ 3.8620556, 43.6179552 ] ] ] } },
{ "type": "Feature", "properties": { "index": "3", "subarea": "H0-3", "count": 0, "area_km2": 0.103, "density_per_km2": 0.0, "label": "0.0–2.3/km²", "color": "#ffc" }, "geometry": { "type": "Polygon", "coordinates": [ [ [ 3.855, 43.6225102 ], [ 3.8585423, 43.6224836 ], [ 3.8605912, 43.6250011 ], [ 3.855, 43.625 ], [ 3.855, 43.6225102 ] ] ] } },
{ "type": "Feature", "properties": { "index": "4", "subarea": "H1-0", "count": 5, "area_km2": 0.861, "density_per_km2": 5.81, "label": "2.3–7.1/km²", "color": "#a9db8e" }, "geometry": { "type": "Polygon", "coordinates": [ [ [ 3.861927, 43.6089521 ], [ 3.8582862, 43.6044774 ], [ 3.8617579, 43.6000013 ], [ 3.8690383, 43.6000022 ], [ 3.8725922, 43.6043691 ], [ 3.8690805, 43.6088979 ], [ 3.861927, 43.6089521 ] ] ] } },
{ "type": "Feature", "properties": { "index": "5", "subarea": "H1-1", "count": 7, "area_km2": 0.866, "density_per_km2": 8.08, "label": "7.1–12.5/km²", "color": "#49af60" }, "geometry": { "type": "Polygon", "coordinates": [ [ [ 3.861927, 43.6089521 ], [ 3.8690805, 43.6088979 ], [ 3.8727224, 43.6133722 ], [ 3.8692102, 43.617901 ], [ 3.8620556, 43.6179552 ], [ 3.8584142, 43.6134805 ], [ 3.861927, 43.6089521 ] ] ] } },
{ "type": "Feature", "properties": { "index": "6", "subarea": "H1-2", "count": 0, "area_km2": 0.716, "density_per_km2": 0.0, "label": "0.0–2.3/km²", "color": "#ffc" }, "geometry": { "type": "Polygon", "coordinates": [ [ [ 3.8692102, 43.617901 ], [ 3.8728526, 43.6223753 ], [ 3.870815, 43.6250024 ], [ 3.8605912, 43.6250011 ], [ 3.8585423, 43.6224836 ], [ 3.8620556, 43.6179552 ], [ 3.8692102, 43.617901 ] ] ] } },
{ "type": "Feature", "properties": { "index": "7", "subarea": "H2-0", "count": 1, "area_km2": 0.412, "density_per_km2": 2.42, "label": "2.3–7.1/km²", "color": "#a9db8e" }, "geometry": { "type": "Polygon", "coordinates": [ [ [ 3.8797452, 43.6043143 ], [ 3.8725922, 43.6043691 ], [ 3.8690383, 43.6000022 ], [ 3.8830873, 43.6000027 ], [ 3.8797452, 43.6043143 ] ] ] } },
{ "type": "Feature", "properties": { "index": "8", "subarea": "H2-1", "count": 2, "area_km2": 0.866, "density_per_km2": 2.31, "label": "2.3–7.1/km²", "color": "#a9db8e" }, "geometry": { "type": "Polygon", "coordinates": [ [ [ 3.8725922, 43.6043691 ], [ 3.8797452, 43.6043143 ], [ 3.8833876, 43.6087882 ], [ 3.8798765, 43.6133174 ], [ 3.8727224, 43.6133722 ], [ 3.8690805, 43.6088979 ], [ 3.8725922, 43.6043691 ] ] ] } },
{ "type": "Feature", "properties": { "index": "9", "subarea": "H2-2", "count": 10, "area_km2": 0.866, "density_per_km2": 11.55, "label": "7.1–12.5/km²", "color": "#49af60" }, "geometry": { "type": "Polygon", "coordinates": [ [ [ 3.8727224, 43.6133722 ], [ 3.8798765, 43.6133174 ], [ 3.8835194, 43.6177913 ], [ 3.8800078, 43.6223204 ], [ 3.8728526, 43.6223753 ], [ 3.8692102, 43.617901 ], [ 3.8727224, 43.6133722 ] ] ] } },
{ "type": "Feature", "properties": { "index": "10", "subarea": "H2-3", "count": 0, "area_km2": 0.22, "density_per_km2": 0.0, "label": "0.0–2.3/km²", "color": "#ffc" }, "geometry": { "type": "Polygon", "coordinates": [ [ [ 3.8728526, 43.6223753 ], [ 3.8800078, 43.6223204 ], [ 3.8821921, 43.6250027 ], [ 3.870815, 43.6250024 ], [ 3.8728526, 43.6223753 ] ] ] } },
{ "type": "Feature", "properties": { "index": "11", "subarea": "H3-0", "count": 29, "area_km2": 0.85, "density_per_km2": 34.12, "label": "12.5–35.7/km²", "color": "#006837" }, "geometry": { "type": "Polygon", "coordinates": [ [ [ 3.8833876, 43.6087882 ], [ 3.8797452, 43.6043143 ], [ 3.8830873, 43.6000027 ], [ 3.8906302, 43.6000022 ], [ 3.8940512, 43.6042033 ], [ 3.8905411, 43.6087327 ], [ 3.8833876, 43.6087882 ] ] ] } },
{ "type": "Feature", "properties": { "index": "12", "subarea": "H3-1", "count": 23, "area_km2": 0.866, "density_per_km2": 26.56, "label": "12.5–35.7/km²", "color": "#006837" }, "geometry": { "type": "Polygon", "coordinates": [ [ [ 3.8833876, 43.6087882 ], [ 3.8905411, 43.6087327 ], [ 3.8941845, 43.6132063 ], [ 3.890674, 43.6177358 ], [ 3.8835194, 43.6177913 ], [ 3.8798765, 43.6133174 ], [ 3.8833876, 43.6087882 ] ] ] } },
{ "type": "Feature", "properties": { "index": "13", "subarea": "H3-2", "count": 0, "area_km2": 0.731, "density_per_km2": 0.0, "label": "0.0–2.3/km²", "color": "#ffc" }, "geometry": { "type": "Polygon", "coordinates": [ [ [ 3.890674, 43.6177358 ], [ 3.894318, 43.6222093 ], [ 3.8921532, 43.6250021 ], [ 3.8821921, 43.6250027 ], [ 3.8800078, 43.6223204 ], [ 3.8835194, 43.6177913 ], [ 3.890674, 43.6177358 ] ] ] } },
{ "type": "Feature", "properties": { "index": "14", "subarea": "H4-0", "count": 14, "area_km2": 0.392, "density_per_km2": 35.73, "label": "12.5–35.7/km²", "color": "#006837" }, "geometry": { "type": "Polygon", "coordinates": [ [ [ 3.9012041, 43.6041471 ], [ 3.8940512, 43.6042033 ], [ 3.8906302, 43.6000022 ], [ 3.9044166, 43.6000001 ], [ 3.9012041, 43.6041471 ] ] ] } },
{ "type": "Feature", "properties": { "index": "15", "subarea": "H4-1", "count": 10, "area_km2": 0.866, "density_per_km2": 11.55, "label": "7.1–12.5/km²", "color": "#49af60" }, "geometry": { "type": "Polygon", "coordinates": [ [ [ 3.8940512, 43.6042033 ], [ 3.9012041, 43.6041471 ], [ 3.904848, 43.6086204 ], [ 3.9013385, 43.6131501 ], [ 3.8941845, 43.6132063 ], [ 3.8905411, 43.6087327 ], [ 3.8940512, 43.6042033 ] ] ] } },
{ "type": "Feature", "properties": { "index": "16", "subarea": "H4-2", "count": 0, "area_km2": 0.866, "density_per_km2": 0.0, "label": "0.0–2.3/km²", "color": "#ffc" }, "geometry": { "type": "Polygon", "coordinates": [ [ [ 3.8941845, 43.6132063 ], [ 3.9013385, 43.6131501 ], [ 3.9049831, 43.6176234 ], [ 3.901473, 43.6221531 ], [ 3.894318, 43.6222093 ], [ 3.890674, 43.6177358 ], [ 3.8941845, 43.6132063 ] ] ] } },
{ "type": "Feature", "properties": { "index": "17", "subarea": "H4-3", "count": 1, "area_km2": 0.238, "density_per_km2": 4.21, "label": "2.3–7.1/km²", "color": "#a9db8e" }, "geometry": { "type": "Polygon", "coordinates": [ [ [ 3.894318, 43.6222093 ], [ 3.901473, 43.6221531 ], [ 3.903793, 43.6250003 ], [ 3.8921532, 43.6250021 ], [ 3.894318, 43.6222093 ] ] ] } },
{ "type": "Feature", "properties": { "index": "18", "subarea": "H5-0", "count": 2, "area_km2": 0.161, "density_per_km2": 12.46, "label": "12.5–35.7/km²", "color": "#006837" }, "geometry": { "type": "Polygon", "coordinates": [ [ [ 3.904848, 43.6086204 ], [ 3.9012041, 43.6041471 ], [ 3.9044166, 43.6000001 ], [ 3.905, 43.6 ], [ 3.905, 43.6086192 ], [ 3.904848, 43.6086204 ] ] ] } },
{ "type": "Feature", "properties": { "index": "19", "subarea": "H5-1", "count": 0, "area_km2": 0.151, "density_per_km2": 0.0, "label": "0.0–2.3/km²", "color": "#ffc" }, "geometry": { "type": "Polygon", "coordinates": [ [ [ 3.9013385, 43.6131501 ], [ 3.904848, 43.6086204 ], [ 3.905, 43.6086192 ], [ 3.905, 43.6176232 ], [ 3.9049831, 43.6176234 ], [ 3.9013385, 43.6131501 ] ] ] } },
{ "type": "Feature", "properties": { "index": "20", "subarea": "H5-2", "count": 0, "area_km2": 0.132, "density_per_km2": 0.0, "label": "0.0–2.3/km²", "color": "#ffc" }, "geometry": { "type": "Polygon", "coordinates": [ [ [ 3.901473, 43.6221531 ], [ 3.9049831, 43.6176234 ], [ 3.905, 43.6176232 ], [ 3.905, 43.625 ], [ 3.903793, 43.6250003 ], [ 3.901473, 43.6221531 ] ] ] } }
]
}
