{
"type": "FeatureCollection",
"features": [
{ "type": "Feature", "properties": { "index": "0", "subarea": "H0-0", "underserved_pct": 43.7, "underserved_population": 632.0, "label": "40–60%", "color": "#fb6a4a" }, "geometry": { "type": "Polygon", "coordinates": [ [ [ 3.8617579, 43.6000013 ], [ 3.8582862, 43.6044774 ], [ 3.855, 43.604502 ], [ 3.855, 43.6 ], [ 3.8617579, 43.6000013 ] ] ] } },
{ "type": "Feature", "properties": { "index": "1", "subarea": "H0-1", "underserved_pct": 80.7, "underserved_population": 2921.0, "label": "80–100%", "color": "#a50f15" }, "geometry": { "type": "Polygon", "coordinates": [ [ [ 3.861927, 43.6089521 ], [ 3.8584142, 43.6134805 ], [ 3.855, 43.6135061 ], [ 3.855, 43.604502 ], [ 3.8582862, 43.6044774 ], [ 3.861927, 43.6089521 ] ] ] } },
{ "type": "Feature", "properties": { "index": "2", "subarea": "H0-2", "underserved_pct": 56.4, "underserved_population": 1725.0, "label": "40–60%", "color": "#fb6a4a" }, "geometry": { "type": "Polygon", "coordinates": [ [ [ 3.8620556, 43.6179552 ], [ 3.8585423, 43.6224836 ], [ 3.855, 43.6225102 ], [ 3.855, 43.6135061 ], [ 3.8584142, 43.6134805 ], [ 3.8620556, 43.6179552 ] ] ] } },
{ "type": "Feature", "properties": { "index": "3", "subarea": "H0-3", "underserved_pct": 71.0, "underserved_population": 260.0, "label": "60–80%", "color": "#de2d26" }, "geometry": { "type": "Polygon", "coordinates": [ [ [ 3.855, 43.6225102 ], [ 3.8585423, 43.6224836 ], [ 3.8605912, 43.6250011 ], [ 3.855, 43.625 ], [ 3.855, 43.6225102 ] ] ] } },
{ "type": "Feature", "properties": { "index": "4", "subarea": "H1-0", "underserved_pct": 34.8, "underserved_population": 2861.0, "label": "20–40%", "color": "#fcae91" }, "geometry": { "type": "Polygon", "coordinates": [ [ [ 3.861927, 43.6089521 ], [ 3.8582862, 43.6044774 ], [ 3.8617579, 43.6000013 ], [ 3.8690383, 43.6000022 ], [ 3.8725922, 43.6043691 ], [ 3.8690805, 43.6088979 ], [ 3.861927, 43.6089521 ] ] ] } },
{ "type": "Feature", "properties": { "index": "5", "subarea": "H1-1", "underserved_pct": 51.1, "underserved_population": 3172.0, "label": "40–60%", "color": "#fb6a4a" }, "geometry": { "type": "Polygon", "coordinates": [ [ [ 3.861927, 43.6089521 ], [ 3.8690805, 43.6088979 ], [ 3.8727224, 43.6133722 ], [ 3.8692102, 43.617901 ], [ 3.8620556, 43.6179552 ], [ 3.8584142, 43.6134805 ], [ 3.861927, 43.6089521 ] ] ] } },
{ "type": "Feature", "properties": { "index": "6", "subarea": "H1-2", "underserved_pct": 83.6, "underserved_population": 4986.0, "label": "80–100%", "color": "#a50f15" }, "geometry": { "type": "Polygon", "coordinates": [ [ [ 3.8692102, 43.617901 ], [ 3.8728526, 43.6223753 ], [ 3.870815, 43.6250024 ], [ 3.8605912, 43.6250011 ], [ 3.8585423, 43.6224836 ], [ 3.8620556, 43.6179552 ], [ 3.8692102, 43.617901 ] ] ] } },
{ "type": "Feature", "properties": { "index": "7", "subarea": "H2-0", "underserved_pct": 25.1, "underserved_population": 549.0, "label": "20–40%", "color": "#fcae91" }, "geometry": { "type": "Polygon", "coordinates": [ [ [ 3.8797452, 43.6043143 ], [ 3.8725922, 43.6043691 ], [ 3.8690383, 43.6000022 ], [ 3.8830873, 43.6000027 ], [ 3.8797452, 43.6043143 ] ] ] } },
{ "type": "Feature", "properties": { "index": "8", "subarea": "H2-1", "underserved_pct": 59.2, "underserved_population": 6201.0, "label": "40–60%", "color": "#fb6a4a" }, "geometry": { "type": "Polygon", "coordinates": [ [ [ 3.8725922, 43.6043691 ], [ 3.8797452, 43.6043143 ], [ 3.8833876, 43.6087882 ], [ 3.8798765, 43.6133174 ], [ 3.8727224, 43.6133722 ], [ 3.8690805, 43.6088979 ], [ 3.8725922, 43.6043691 ] ] ] } },
{ "type": "Feature", "properties": { "index": "9", "subarea": "H2-2", "underserved_pct": 5.5, "underserved_population": 560.0, "label": "0–20%", "color": "#fee5d9" }, "geometry": { "type": "Polygon", "coordinates": [ [ [ 3.8727224, 43.6133722 ], [ 3.8798765, 43.6133174 ], [ 3.8835194, 43.6177913 ], [ 3.8800078, 43.6223204 ], [ 3.8728526, 43.6223753 ], [ 3.8692102, 43.617901 ], [ 3.8727224, 43.6133722 ] ] ] } },
{ "type": "Feature", "properties": { "index": "10", "subarea": "H2-3", "underserved_pct": 84.0, "underserved_population": 1581.0, "label": "80–100%", "color": "#a50f15" }, "geometry": { "type": "Polygon", "coordinates": [ [ [ 3.8728526, 43.6223753 ], [ 3.8800078, 43.6223204 ], [ 3.8821921, 43.6250027 ], [ 3.870815, 43.6250024 ], [ 3.8728526, 43.6223753 ] ] ] } },
{ "type": "Feature", "properties": { "index": "11", "subarea": "H3-0", "underserved_pct": 5.0, "underserved_population": 511.0, "label": "0–20%", "color": "#fee5d9" }, "geometry": { "type": "Polygon", "coordinates": [ [ [ 3.8833876, 43.6087882 ], [ 3.8797452, 43.6043143 ], [ 3.8830873, 43.6000027 ], [ 3.8906302, 43.6000022 ], [ 3.8940512, 43.6042033 ], [ 3.8905411, 43.6087327 ], [ 3.8833876, 43.6087882 ] ] ] } },
{ "type": "Feature", "properties": { "index": "12", "subarea": "H3-1", "underserved_pct": 10.4, "underserved_population": 298.0, "label": "0–20%", "color": "#fee5d9" }, "geometry": { "type": "Polygon", "coordinates": [ [ [ 3.8833876, 43.6087882 ], [ 3.8905411, 43.6087327 ], [ 3.8941845, 43.6132063 ], [ 3.890674, 43.6177358 ], [ 3.8835194, 43.6177913 ], [ 3.8798765, 43.6133174 ], [ 3.8833876, 43.6087882 ] ] ] } },
{ "type": "Feature", "properties": { "index": "13", "subarea": "H3-2", "underserved_pct": 88.0, "underserved_population": 4409.0, "label": "80–100%", "color": "#a50f15" }, "geometry": { "type": "Polygon", "coordinates": [ [ [ 3.890674, 43.6177358 ], [ 3.894318, 43.6222093 ], [ 3.8921532, 43.6250021 ], [ 3.8821921, 43.6250027 ], [ 3.8800078, 43.6223204 ], [ 3.8835194, 43.6177913 ], [ 3.890674, 43.6177358 ] ] ] } },
{ "type": "Feature", "properties": { "index": "14", "subarea": "H4-0", "underserved_pct": 0.0, "underserved_population": null, "label": "0–20%", "color": "#fee5d9" }, "geometry": { "type": "Polygon", "coordinates": [ [ [ 3.9012041, 43.6041471 ], [ 3.8940512, 43.6042033 ], [ 3.8906302, 43.6000022 ], [ 3.9044166, 43.6000001 ], [ 3.9012041, 43.6041471 ] ] ] } },
{ "type": "Feature", "properties": { "index": "15", "subarea": "H4-1", "underserved_pct": 62.9, "underserved_population": 4106.0, "label": "60–80%", "color": "#de2d26" }, "geometry": { "type": "Polygon", "coordinates": [ [ [ 3.8940512, 43.6042033 ], [ 3.9012041, 43.6041471 ], [ 3.904848, 43.6086204 ], [ 3.9013385, 43.6131501 ], [ 3.8941845, 43.6132063 ], [ 3.8905411, 43.6087327 ], [ 3.8940512, 43.6042033 ] ] ] } },
{ "type": "Feature", "properties": { "index": "16", "subarea": "H4-2", "underserved_pct": 70.5, "underserved_population": 5076.0, "label": "60–80%", "color": "#de2d26" }, "geometry": { "type": "Polygon", "coordinates": [ [ [ 3.8941845, 43.6132063 ], [ 3.9013385, 43.6131501 ], [ 3.9049831, 43.6176234 ], [ 3.901473, 43.6221531 ], [ 3.894318, 43.6222093 ], [ 3.890674, 43.6177358 ], [ 3.8941845, 43.6132063 ] ] ] } },
{ "type": "Feature", "properties": { "index": "17", "subarea": "H4-3", "underserved_pct": 40.5, "underserved_population": 103.0, "label": "40–60%", "color": "#fb6a4a" }, "geometry": { "type": "Polygon", "coordinates": [ [ [ 3.894318, 43.6222093 ], [ 3.901473, 43.6221531 ], [ 3.903793, 43.6250003 ], [ 3.8921532, 43.6250021 ], [ 3.894318, 43.6222093 ] ] ] } },
{ "type": "Feature", "properties": { "index": "18", "subarea": "H5-0", "underserved_pct": 27.2, "underserved_population": 120.0, "label": "20–40%", "color": "#fcae91" }, "geometry": { "type": "Polygon", "coordinates": [ [ [ 3.904848, 43.6086204 ], [ 3.9012041, 43.6041471 ], [ 3.9044166, 43.6000001 ], [ 3.905, 43.6 ], [ 3.905, 43.6086192 ], [ 3.904848, 43.6086204 ] ] ] } },
{ "type": "Feature", "properties": { "index": "19", "subarea": "H5-1", "underserved_pct": 100.0, "underserved_population": 921.0, "label": "80–100%", "color": "#a50f15" }, "geometry": { "type": "Polygon", "coordinates": [ [ [ 3.9013385, 43.6131501 ], [ 3.904848, 43.6086204 ], [ 3.905, 43.6086192 ], [ 3.905, 43.6176232 ], [ 3.9049831, 43.6176234 ], [ 3.9013385, 43.6131501 ] ] ] } },
{ "type": "Feature", "properties": { "index": "20", "subarea": "H5-2", "underserved_pct": 100.0, "underserved_population": 640.0, "label": "80–100%", "color": "#a50f15" }, "geometry": { "type": "Polygon", "coordinates": [ [ [ 3.901473, 43.6221531 ], [ 3.9049831, 43.6176234 ], [ 3.905, 43.6176232 ], [ 3.905, 43.625 ], [ 3.903793, 43.6250003 ], [ 3.901473, 43.6221531 ] ] ] } }
]
}
