{
"type": "FeatureCollection",
"features": [
{ "type": "Feature", "properties": { "index": "0", "label": "Within 300 m on foot", "color": "#2b8cbe" }, "geometry": { "type": "Polygon", "coordinates": [ [ [ 39.2668553, -6.7955483 ], [ 39.2668942, -6.7952848 ], [ 39.2669071, -6.7950188 ], [ 39.2668939, -6.7947528 ], [ 39.2668547, -6.7944894 ], [ 39.2667898, -6.7942311 ], [ 39.2666999, -6.7939804 ], [ 39.2665859, -6.7937397 ], [ 39.2664488, -6.7935114 ], [ 39.2662899, -6.7932975 ], [ 39.2661109, -6.7931003 ], [ 39.2659134, -6.7929216 ], [ 39.2656993, -6.792763 ], [ 39.2654707, -6.7926263 ], [ 39.2652298, -6.7925125 ], [ 39.2649789, -6.7924229 ], [ 39.2647204, -6.7923584 ], [ 39.2644568, -6.7923194 ], [ 39.2641907, -6.7923065 ], [ 39.2639246, -6.7923197 ], [ 39.2636611, -6.7923589 ], [ 39.2634027, -6.7924238 ], [ 39.2631519, -6.7925137 ], [ 39.2629111, -6.7926277 ], [ 39.2626826, -6.7927647 ], [ 39.2624687, -6.7929235 ], [ 39.2622714, -6.7931024 ], [ 39.2620926, -6.7932998 ], [ 39.261934, -6.7935138 ], [ 39.2617971, -6.7937423 ], [ 39.2616834, -6.7939831 ], [ 39.2615937, -6.7942339 ], [ 39.2615291, -6.7944923 ], [ 39.2614902, -6.7947558 ], [ 39.2614773, -6.7950218 ], [ 39.2614905, -6.7952878 ], [ 39.2615297, -6.7955512 ], [ 39.2615946, -6.7958095 ], [ 39.2616845, -6.7960602 ], [ 39.2617985, -6.7963009 ], [ 39.2619356, -6.7965292 ], [ 39.2620945, -6.796743 ], [ 39.2622735, -6.7969403 ], [ 39.262471, -6.797119 ], [ 39.2626851, -6.7972775 ], [ 39.2629137, -6.7974143 ], [ 39.2631546, -6.7975281 ], [ 39.2634055, -6.7976177 ], [ 39.263664, -6.7976822 ], [ 39.2639276, -6.7977212 ], [ 39.2641937, -6.7977341 ], [ 39.2644598, -6.7977209 ], [ 39.2647233, -6.7976816 ], [ 39.2649817, -6.7976168 ], [ 39.2652325, -6.7975269 ], [ 39.2654733, -6.7974129 ], [ 39.2657018, -6.7972759 ], [ 39.2659157, -6.7971171 ], [ 39.266113, -6.7969382 ], [ 39.2662918, -6.7967408 ], [ 39.2664504, -6.7965268 ], [ 39.2665873, -6.7962983 ], [ 39.266701, -6.7960574 ], [ 39.2667907, -6.7958066 ], [ 39.2668553, -6.7955483 ] ] ] } },
{ "type": "Feature", "properties": { "index": "1", "label": "Beyond 300 m", "color": "#d9d9d9" }, "geometry": { "type": "Polygon", "coordinates": [ [ [ 39.22, -6.78 ], [ 39.22, -6.85 ], [ 39.3, -6.85 ], [ 39.3, -6.78 ], [ 39.22, -6.78 ] ], [ [ 39.2668939, -6.7947528 ], [ 39.2669071, -6.7950188 ], [ 39.2668942, -6.7952848 ], [ 39.2668553, -6.7955483 ], [ 39.2667907, -6.7958066 ], [ 39.266701, -6.7960574 ], [ 39.2665873, -6.7962983 ], [ 39.2664504, -6.7965268 ], [ 39.2662918, -6.7967408 ], [ 39.266113, -6.7969382 ], [ 39.2659157, -6.7971171 ], [ 39.2657018, -6.7972759 ], [ 39.2654733, -6.7974129 ], [ 39.2652325, -6.7975269 ], [ 39.2649817, -6.7976168 ], [ 39.2647233, -6.7976816 ], [ 39.2644598, -6.7977209 ], [ 39.2641937, -6.7977341 ], [ 39.2639276, -6.7977212 ], [ 39.263664, -6.7976822 ], [ 39.2634055, -6.7976177 ], [ 39.2631546, -6.7975281 ], [ 39.2629137, -6.7974143 ], [ 39.2626851, -6.7972775 ], [ 39.262471, -6.797119 ], [ 39.2622735, -6.7969403 ], [ 39.2620945, -6.796743 ], [ 39.2619356, -6.7965292 ], [ 39.2617985, -6.7963009 ], [ 39.2616845, -6.7960602 ], [ 39.2615946, -6.7958095 ], [ 39.2615297, -6.7955512 ], [ 39.2614905, -6.7952878 ], [ 39.2614773, -6.7950218 ], [ 39.2614902, -6.7947558 ], [ 39.2615291, -6.7944923 ], [ 39.2615937, -6.7942339 ], [ 39.2616834, -6.7939831 ], [ 39.2617971, -6.7937423 ], [ 39.261934, -6.7935138 ], [ 39.2620926, -6.7932998 ], [ 39.2622714, -6.7931024 ], [ 39.2624687, -6.7929235 ], [ 39.2626826, -6.7927647 ], [ 39.2629111, -6.7926277 ], [ 39.2631519, -6.7925137 ], [ 39.2634027, -6.7924238 ], [ 39.2636611, -6.7923589 ], [ 39.2639246, -6.7923197 ], [ 39.2641907, -6.7923065 ], [ 39.2644568, -6.7923194 ], [ 39.2647204, -6.7923584 ], [ 39.2649789, -6.7924229 ], [ 39.2652298, -6.7925125 ], [ 39.2654707, -6.7926263 ], [ 39.2656993, -6.792763 ], [ 39.2659134, -6.7929216 ], [ 39.2661109, -6.7931003 ], [ 39.2662899, -6.7932975 ], [ 39.2664488, -6.7935114 ], [ 39.2665859, -6.7937397 ], [ 39.2666999, -6.7939804 ], [ 39.2667898, -6.7942311 ], [ 39.2668547, -6.7944894 ], [ 39.2668939, -6.7947528 ] ] ] } }
]
}
