{
"type": "FeatureCollection",
"features": [
{ "type": "Feature", "properties": { "index": "0", "label": "Within 150 m on foot", "color": "#2b8cbe" }, "geometry": { "type": "MultiPolygon", "coordinates": [ [ [ [ 8.6755927, 49.4023743 ], [ 8.6756786, 49.4024942 ], [ 8.6757461, 49.4026191 ], [ 8.6757946, 49.4027477 ], [ 8.6758235, 49.4028787 ], [ 8.6758326, 49.403011 ], [ 8.6758218, 49.4031432 ], [ 8.6757911, 49.4032741 ], [ 8.675741, 49.4034024 ], [ 8.6756718, 49.4035269 ], [ 8.6755843, 49.4036464 ], [ 8.6754792, 49.4037596 ], [ 8.6753576, 49.4038656 ], [ 8.6752207, 49.4039634 ], [ 8.6750698, 49.4040519 ], [ 8.6749063, 49.4041303 ], [ 8.6747318, 49.4041979 ], [ 8.6745481, 49.404254 ], [ 8.6743567, 49.404298 ], [ 8.6741597, 49.4043296 ], [ 8.6739589, 49.4043485 ], [ 8.6737562, 49.4043544 ], [ 8.6735535, 49.4043474 ], [ 8.673353, 49.4043274 ], [ 8.6731564, 49.4042946 ], [ 8.6729656, 49.4042495 ], [ 8.6727826, 49.4041924 ], [ 8.672609, 49.4041238 ], [ 8.6724466, 49.4040445 ], [ 8.6722968, 49.4039551 ], [ 8.6721612, 49.4038566 ], [ 8.6720411, 49.4037499 ], [ 8.6719375, 49.4036361 ], [ 8.6718515, 49.4035161 ], [ 8.671784, 49.4033913 ], [ 8.6717356, 49.4032627 ], [ 8.6717067, 49.4031316 ], [ 8.6716976, 49.4029993 ], [ 8.6717084, 49.4028671 ], [ 8.6717391, 49.4027362 ], [ 8.6717892, 49.4026079 ], [ 8.6718584, 49.4024835 ], [ 8.671946, 49.402364 ], [ 8.672051, 49.4022507 ], [ 8.6721726, 49.4021447 ], [ 8.6723095, 49.402047 ], [ 8.6724604, 49.4019585 ], [ 8.6726239, 49.4018801 ], [ 8.6727984, 49.4018125 ], [ 8.6729822, 49.4017564 ], [ 8.6731735, 49.4017124 ], [ 8.6733705, 49.4016808 ], [ 8.6735714, 49.4016619 ], [ 8.673774, 49.401656 ], [ 8.6739766, 49.401663 ], [ 8.6741772, 49.401683 ], [ 8.6743738, 49.4017158 ], [ 8.6745645, 49.4017609 ], [ 8.6747476, 49.401818 ], [ 8.6749211, 49.4018866 ], [ 8.6750836, 49.4019659 ], [ 8.6752333, 49.4020553 ], [ 8.6753689, 49.4021538 ], [ 8.6754891, 49.4022604 ], [ 8.6755927, 49.4023743 ] ] ], [ [ [ 8.7020841, 49.408877 ], [ 8.7021701, 49.4089969 ], [ 8.7022377, 49.4091218 ], [ 8.7022862, 49.4092503 ], [ 8.7023152, 49.4093814 ], [ 8.7023244, 49.4095136 ], [ 8.7023136, 49.4096459 ], [ 8.7023043, 49.4096856 ], [ 8.7024352, 49.4097073 ], [ 8.702626, 49.4097524 ], [ 8.7028091, 49.4098095 ], [ 8.7029827, 49.409878 ], [ 8.7031452, 49.4099573 ], [ 8.703295, 49.4100466 ], [ 8.7034307, 49.4101451 ], [ 8.703551, 49.4102517 ], [ 8.7036546, 49.4103656 ], [ 8.7036843, 49.410407 ], [ 8.703879, 49.4103757 ], [ 8.7040799, 49.4103568 ], [ 8.7042826, 49.4103508 ], [ 8.7044852, 49.4103578 ], [ 8.7046859, 49.4103777 ], [ 8.7048825, 49.4104104 ], [ 8.7050733, 49.4104555 ], [ 8.7052564, 49.4105126 ], [ 8.7054301, 49.4105811 ], [ 8.7055926, 49.4106604 ], [ 8.7057424, 49.4107497 ], [ 8.7058781, 49.4108481 ], [ 8.7059983, 49.4109548 ], [ 8.706102, 49.4110686 ], [ 8.706188, 49.4111885 ], [ 8.7062557, 49.4113134 ], [ 8.7063042, 49.4114419 ], [ 8.7063332, 49.411573 ], [ 8.7063424, 49.4117053 ], [ 8.7063316, 49.4118375 ], [ 8.7063011, 49.4119684 ], [ 8.706251, 49.4120967 ], [ 8.7061819, 49.4122212 ], [ 8.7060944, 49.4123407 ], [ 8.7059894, 49.412454 ], [ 8.7058679, 49.41256 ], [ 8.705731, 49.4126578 ], [ 8.7055801, 49.4127463 ], [ 8.7054166, 49.4128248 ], [ 8.7052422, 49.4128924 ], [ 8.7050584, 49.4129485 ], [ 8.704867, 49.4129927 ], [ 8.70467, 49.4130243 ], [ 8.7044691, 49.4130432 ], [ 8.7042664, 49.4130492 ], [ 8.7040637, 49.4130422 ], [ 8.7038631, 49.4130223 ], [ 8.7036665, 49.4129896 ], [ 8.7034757, 49.4129445 ], [ 8.7032925, 49.4128874 ], [ 8.7031189, 49.4128189 ], [ 8.7029564, 49.4127396 ], [ 8.7028065, 49.4126503 ], [ 8.7026709, 49.4125518 ], [ 8.7025506, 49.4124452 ], [ 8.702447, 49.4123313 ], [ 8.7024173, 49.4122899 ], [ 8.7022225, 49.4123212 ], [ 8.7020217, 49.4123402 ], [ 8.7018189, 49.4123461 ], [ 8.7016163, 49.4123391 ], [ 8.7014157, 49.4123192 ], [ 8.701219, 49.4122865 ], [ 8.7010282, 49.4122414 ], [ 8.7008451, 49.4121843 ], [ 8.7006715, 49.4121158 ], [ 8.7005089, 49.4120365 ], [ 8.7003591, 49.4119472 ], [ 8.7002234, 49.4118487 ], [ 8.7001032, 49.411742 ], [ 8.6999996, 49.4116282 ], [ 8.6999135, 49.4115083 ], [ 8.6998459, 49.4113834 ], [ 8.6997974, 49.4112549 ], [ 8.6997684, 49.4111238 ], [ 8.6997593, 49.4109915 ], [ 8.69977, 49.4108593 ], [ 8.6997793, 49.4108196 ], [ 8.6996485, 49.4107979 ], [ 8.6994577, 49.4107528 ], [ 8.6992746, 49.4106957 ], [ 8.699101, 49.4106272 ], [ 8.6989384, 49.4105479 ], [ 8.6987886, 49.4104585 ], [ 8.698653, 49.4103601 ], [ 8.6985327, 49.4102534 ], [ 8.6984291, 49.4101396 ], [ 8.6983431, 49.4100197 ], [ 8.6982755, 49.4098948 ], [ 8.698227, 49.4097662 ], [ 8.698198, 49.4096352 ], [ 8.6981888, 49.4095029 ], [ 8.6981996, 49.4093707 ], [ 8.6982302, 49.4092398 ], [ 8.6982803, 49.4091115 ], [ 8.6983494, 49.408987 ], [ 8.6984369, 49.4088675 ], [ 8.6985419, 49.4087542 ], [ 8.6986634, 49.4086482 ], [ 8.6988003, 49.4085505 ], [ 8.6989512, 49.4084619 ], [ 8.6991147, 49.4083835 ], [ 8.6992891, 49.4083159 ], [ 8.6994729, 49.4082597 ], [ 8.6996642, 49.4082156 ], [ 8.6998613, 49.408184 ], [ 8.7000621, 49.408165 ], [ 8.7002648, 49.4081591 ], [ 8.7004674, 49.4081661 ], [ 8.700668, 49.408186 ], [ 8.7008647, 49.4082187 ], [ 8.7010555, 49.4082638 ], [ 8.7012386, 49.4083209 ], [ 8.7014122, 49.4083894 ], [ 8.7015747, 49.4084687 ], [ 8.7017245, 49.408558 ], [ 8.7018602, 49.4086565 ], [ 8.7019804, 49.4087632 ], [ 8.7020841, 49.408877 ] ] ], [ [ [ 8.6814179, 49.408864 ], [ 8.6815039, 49.408984 ], [ 8.6815715, 49.4091088 ], [ 8.6816199, 49.4092374 ], [ 8.6816489, 49.4093684 ], [ 8.681658, 49.4095007 ], [ 8.6816472, 49.4096329 ], [ 8.6816165, 49.4097638 ], [ 8.6815664, 49.4098921 ], [ 8.6814972, 49.4100166 ], [ 8.6814097, 49.4101361 ], [ 8.6813046, 49.4102493 ], [ 8.6811831, 49.4103554 ], [ 8.6810461, 49.4104531 ], [ 8.6808952, 49.4105416 ], [ 8.6807317, 49.41062 ], [ 8.6805572, 49.4106876 ], [ 8.6803734, 49.4107437 ], [ 8.6801821, 49.4107878 ], [ 8.679985, 49.4108194 ], [ 8.6797841, 49.4108383 ], [ 8.6795814, 49.4108442 ], [ 8.6793788, 49.4108372 ], [ 8.6791782, 49.4108172 ], [ 8.6789815, 49.4107845 ], [ 8.6787908, 49.4107393 ], [ 8.6786077, 49.4106822 ], [ 8.6784341, 49.4106137 ], [ 8.6782716, 49.4105343 ], [ 8.6781218, 49.410445 ], [ 8.6779862, 49.4103465 ], [ 8.677866, 49.4102398 ], [ 8.6777624, 49.410126 ], [ 8.6776765, 49.410006 ], [ 8.6776089, 49.4098812 ], [ 8.6775604, 49.4097526 ], [ 8.6775315, 49.4096215 ], [ 8.6775224, 49.4094893 ], [ 8.6775333, 49.409357 ], [ 8.6775639, 49.4092261 ], [ 8.677614, 49.4090978 ], [ 8.6776832, 49.4089734 ], [ 8.6777708, 49.4088539 ], [ 8.6778758, 49.4087406 ], [ 8.6779974, 49.4086346 ], [ 8.6781343, 49.4085369 ], [ 8.6782852, 49.4084484 ], [ 8.6784487, 49.40837 ], [ 8.6786232, 49.4083024 ], [ 8.678807, 49.4082463 ], [ 8.6789984, 49.4082022 ], [ 8.6791954, 49.4081706 ], [ 8.6793963, 49.4081517 ], [ 8.679599, 49.4081458 ], [ 8.6798016, 49.4081528 ], [ 8.6800022, 49.4081728 ], [ 8.6801988, 49.4082055 ], [ 8.6803896, 49.4082507 ], [ 8.6805727, 49.4083078 ], [ 8.6807463, 49.4083763 ], [ 8.6809087, 49.4084557 ], [ 8.6810585, 49.408545 ], [ 8.6811941, 49.4086435 ], [ 8.6813143, 49.4087502 ], [ 8.6814179, 49.408864 ] ] ], [ [ [ 8.7004603, 49.4143769 ], [ 8.700663, 49.4143839 ], [ 8.7008636, 49.4144038 ], [ 8.7010603, 49.4144365 ], [ 8.7012142, 49.4144729 ], [ 8.701248, 49.4144785 ], [ 8.7014388, 49.4145236 ], [ 8.7016219, 49.4145807 ], [ 8.7017955, 49.4146492 ], [ 8.7019581, 49.4147285 ], [ 8.7021079, 49.4148178 ], [ 8.7022436, 49.4149163 ], [ 8.7023638, 49.4150229 ], [ 8.7024675, 49.4151368 ], [ 8.7025535, 49.4152567 ], [ 8.7026211, 49.4153815 ], [ 8.7026697, 49.4155101 ], [ 8.7026987, 49.4156412 ], [ 8.7027078, 49.4157734 ], [ 8.7026971, 49.4159057 ], [ 8.7026665, 49.4160366 ], [ 8.7026164, 49.4161649 ], [ 8.7025473, 49.4162894 ], [ 8.7024598, 49.4164088 ], [ 8.7023548, 49.4165221 ], [ 8.7022332, 49.4166282 ], [ 8.7020963, 49.4167259 ], [ 8.7019454, 49.4168145 ], [ 8.7017819, 49.4168929 ], [ 8.7016074, 49.4169605 ], [ 8.7014236, 49.4170167 ], [ 8.7012323, 49.4170608 ], [ 8.7010352, 49.4170924 ], [ 8.7008343, 49.4171114 ], [ 8.7006316, 49.4171173 ], [ 8.7004289, 49.4171103 ], [ 8.7002283, 49.4170904 ], [ 8.7000316, 49.4170577 ], [ 8.6998776, 49.4170213 ], [ 8.6998439, 49.4170157 ], [ 8.6996531, 49.4169706 ], [ 8.69947, 49.4169135 ], [ 8.6992963, 49.416845 ], [ 8.6991338, 49.4167657 ], [ 8.6989839, 49.4166763 ], [ 8.6988483, 49.4165779 ], [ 8.698728, 49.4164712 ], [ 8.6986244, 49.4163574 ], [ 8.6985383, 49.4162375 ], [ 8.6984707, 49.4161126 ], [ 8.6984222, 49.415984 ], [ 8.6983932, 49.415853 ], [ 8.6983841, 49.4157207 ], [ 8.6983948, 49.4155885 ], [ 8.6984254, 49.4154576 ], [ 8.6984755, 49.4153293 ], [ 8.6985447, 49.4152048 ], [ 8.6986322, 49.4150853 ], [ 8.6987372, 49.414972 ], [ 8.6988587, 49.414866 ], [ 8.6989956, 49.4147683 ], [ 8.6991465, 49.4146797 ], [ 8.69931, 49.4146013 ], [ 8.6994845, 49.4145337 ], [ 8.6996683, 49.4144775 ], [ 8.6998597, 49.4144334 ], [ 8.7000567, 49.4144018 ], [ 8.7002576, 49.4143828 ], [ 8.7004603, 49.4143769 ] ] ], [ [ [ 8.6848969, 49.4183341 ], [ 8.6849829, 49.418454 ], [ 8.6850505, 49.4185788 ], [ 8.685099, 49.4187074 ], [ 8.6851279, 49.4188385 ], [ 8.6851371, 49.4189707 ], [ 8.6851263, 49.419103 ], [ 8.6850956, 49.4192339 ], [ 8.6850455, 49.4193622 ], [ 8.6849763, 49.4194866 ], [ 8.6848888, 49.4196061 ], [ 8.6847837, 49.4197194 ], [ 8.6846621, 49.4198254 ], [ 8.6845252, 49.4199231 ], [ 8.6843742, 49.4200117 ], [ 8.6842107, 49.4200901 ], [ 8.6840362, 49.4201577 ], [ 8.6838523, 49.4202138 ], [ 8.683661, 49.4202579 ], [ 8.6834639, 49.4202895 ], [ 8.683263, 49.4203084 ], [ 8.6830602, 49.4203143 ], [ 8.6828575, 49.4203073 ], [ 8.6826569, 49.4202873 ], [ 8.6824602, 49.4202546 ], [ 8.6822694, 49.4202094 ], [ 8.6820863, 49.4201523 ], [ 8.6819126, 49.4200838 ], [ 8.6817501, 49.4200045 ], [ 8.6816003, 49.4199151 ], [ 8.6814646, 49.4198166 ], [ 8.6813444, 49.41971 ], [ 8.6812408, 49.4195961 ], [ 8.6811548, 49.4194762 ], [ 8.6810873, 49.4193513 ], [ 8.6810388, 49.4192227 ], [ 8.6810098, 49.4190917 ], [ 8.6810007, 49.4189594 ], [ 8.6810116, 49.4188272 ], [ 8.6810422, 49.4186963 ], [ 8.6810923, 49.418568 ], [ 8.6811615, 49.4184435 ], [ 8.6812491, 49.4183241 ], [ 8.6813541, 49.4182108 ], [ 8.6814757, 49.4181048 ], [ 8.6816127, 49.418007 ], [ 8.6817636, 49.4179185 ], [ 8.6819271, 49.4178401 ], [ 8.6821017, 49.4177725 ], [ 8.6822855, 49.4177164 ], [ 8.6824769, 49.4176723 ], [ 8.682674, 49.4176407 ], [ 8.6828748, 49.4176218 ], [ 8.6830776, 49.4176159 ], [ 8.6832803, 49.4176229 ], [ 8.6834809, 49.4176429 ], [ 8.6836776, 49.4176756 ], [ 8.6838684, 49.4177207 ], [ 8.6840515, 49.4177779 ], [ 8.6842251, 49.4178464 ], [ 8.6843876, 49.4179257 ], [ 8.6845374, 49.4180151 ], [ 8.6846731, 49.4181135 ], [ 8.6847933, 49.4182202 ], [ 8.6848969, 49.4183341 ] ] ] ] } },
{ "type": "Feature", "properties": { "index": "1", "label": "Beyond 150 m", "color": "#d9d9d9" }, "geometry": { "type": "Polygon", "coordinates": [ [ [ 8.66, 49.422 ], [ 8.66, 49.398 ], [ 8.72, 49.398 ], [ 8.72, 49.422 ], [ 8.66, 49.422 ] ], [ [ 8.6757946, 49.4027477 ], [ 8.6757461, 49.4026191 ], [ 8.6756786, 49.4024942 ], [ 8.6755927, 49.4023743 ], [ 8.6754891, 49.4022604 ], [ 8.6753689, 49.4021538 ], [ 8.6752333, 49.4020553 ], [ 8.6750836, 49.4019659 ], [ 8.6749211, 49.4018866 ], [ 8.6747476, 49.401818 ], [ 8.6745645, 49.4017609 ], [ 8.6743738, 49.4017158 ], [ 8.6741772, 49.401683 ], [ 8.6739766, 49.401663 ], [ 8.673774, 49.401656 ], [ 8.6735714, 49.4016619 ], [ 8.6733705, 49.4016808 ], [ 8.6731735, 49.4017124 ], [ 8.6729822, 49.4017564 ], [ 8.6727984, 49.4018125 ], [ 8.6726239, 49.4018801 ], [ 8.6724604, 49.4019585 ], [ 8.6723095, 49.402047 ], [ 8.6721726, 49.4021447 ], [ 8.672051, 49.4022507 ], [ 8.671946, 49.402364 ], [ 8.6718584, 49.4024835 ], [ 8.6717892, 49.4026079 ], [ 8.6717391, 49.4027362 ], [ 8.6717084, 49.4028671 ], [ 8.6716976, 49.4029993 ], [ 8.6717067, 49.4031316 ], [ 8.6717356, 49.4032627 ], [ 8.671784, 49.4033913 ], [ 8.6718515, 49.4035161 ], [ 8.6719375, 49.4036361 ], [ 8.6720411, 49.4037499 ], [ 8.6721612, 49.4038566 ], [ 8.6722968, 49.4039551 ], [ 8.6724466, 49.4040445 ], [ 8.672609, 49.4041238 ], [ 8.6727826, 49.4041924 ], [ 8.6729656, 49.4042495 ], [ 8.6731564, 49.4042946 ], [ 8.673353, 49.4043274 ], [ 8.6735535, 49.4043474 ], [ 8.6737562, 49.4043544 ], [ 8.6739589, 49.4043485 ], [ 8.6741597, 49.4043296 ], [ 8.6743567, 49.404298 ], [ 8.6745481, 49.404254 ], [ 8.6747318, 49.4041979 ], [ 8.6749063, 49.4041303 ], [ 8.6750698, 49.4040519 ], [ 8.6752207, 49.4039634 ], [ 8.6753576, 49.4038656 ], [ 8.6754792, 49.4037596 ], [ 8.6755843, 49.4036464 ], [ 8.6756718, 49.4035269 ], [ 8.675741, 49.4034024 ], [ 8.6757911, 49.4032741 ], [ 8.6758218, 49.4031432 ], [ 8.6758326, 49.403011 ], [ 8.6758235, 49.4028787 ], [ 8.6757946, 49.4027477 ] ], [ [ 8.7022862, 49.4092503 ], [ 8.7022377, 49.4091218 ], [ 8.7021701, 49.4089969 ], [ 8.7020841, 49.408877 ], [ 8.7019804, 49.4087632 ], [ 8.7018602, 49.4086565 ], [ 8.7017245, 49.408558 ], [ 8.7015747, 49.4084687 ], [ 8.7014122, 49.4083894 ], [ 8.7012386, 49.4083209 ], [ 8.7010555, 49.4082638 ], [ 8.7008647, 49.4082187 ], [ 8.700668, 49.408186 ], [ 8.7004674, 49.4081661 ], [ 8.7002648, 49.4081591 ], [ 8.7000621, 49.408165 ], [ 8.6998613, 49.408184 ], [ 8.6996642, 49.4082156 ], [ 8.6994729, 49.4082597 ], [ 8.6992891, 49.4083159 ], [ 8.6991147, 49.4083835 ], [ 8.6989512, 49.4084619 ], [ 8.6988003, 49.4085505 ], [ 8.6986634, 49.4086482 ], [ 8.6985419, 49.4087542 ], [ 8.6984369, 49.4088675 ], [ 8.6983494, 49.408987 ], [ 8.6982803, 49.4091115 ], [ 8.6982302, 49.4092398 ], [ 8.6981996, 49.4093707 ], [ 8.6981888, 49.4095029 ], [ 8.698198, 49.4096352 ], [ 8.698227, 49.4097662 ], [ 8.6982755, 49.4098948 ], [ 8.6983431, 49.4100197 ], [ 8.6984291, 49.4101396 ], [ 8.6985327, 49.4102534 ], [ 8.698653, 49.4103601 ], [ 8.6987886, 49.4104585 ], [ 8.6989384, 49.4105479 ], [ 8.699101, 49.4106272 ], [ 8.6992746, 49.4106957 ], [ 8.6994577, 49.4107528 ], [ 8.6996485, 49.4107979 ], [ 8.6997793, 49.4108196 ], [ 8.69977, 49.4108593 ], [ 8.6997593, 49.4109915 ], [ 8.6997684, 49.4111238 ], [ 8.6997974, 49.4112549 ], [ 8.6998459, 49.4113834 ], [ 8.6999135, 49.4115083 ], [ 8.6999996, 49.4116282 ], [ 8.7001032, 49.411742 ], [ 8.7002234, 49.4118487 ], [ 8.7003591, 49.4119472 ], [ 8.7005089, 49.4120365 ], [ 8.7006715, 49.4121158 ], [ 8.7008451, 49.4121843 ], [ 8.7010282, 49.4122414 ], [ 8.701219, 49.4122865 ], [ 8.7014157, 49.4123192 ], [ 8.7016163, 49.4123391 ], [ 8.7018189, 49.4123461 ], [ 8.7020217, 49.4123402 ], [ 8.7022225, 49.4123212 ], [ 8.7024173, 49.4122899 ], [ 8.702447, 49.4123313 ], [ 8.7025506, 49.4124452 ], [ 8.7026709, 49.4125518 ], [ 8.7028065, 49.4126503 ], [ 8.7029564, 49.4127396 ], [ 8.7031189, 49.4128189 ], [ 8.7032925, 49.4128874 ], [ 8.7034757, 49.4129445 ], [ 8.7036665, 49.4129896 ], [ 8.7038631, 49.4130223 ], [ 8.7040637, 49.4130422 ], [ 8.7042664, 49.4130492 ], [ 8.7044691, 49.4130432 ], [ 8.70467, 49.4130243 ], [ 8.704867, 49.4129927 ], [ 8.7050584, 49.4129485 ], [ 8.7052422, 49.4128924 ], [ 8.7054166, 49.4128248 ], [ 8.7055801, 49.4127463 ], [ 8.705731, 49.4126578 ], [ 8.7058679, 49.41256 ], [ 8.7059894, 49.412454 ], [ 8.7060944, 49.4123407 ], [ 8.7061819, 49.4122212 ], [ 8.706251, 49.4120967 ], [ 8.7063011, 49.4119684 ], [ 8.7063316, 49.4118375 ], [ 8.7063424, 49.4117053 ], [ 8.7063332, 49.411573 ], [ 8.7063042, 49.4114419 ], [ 8.7062557, 49.4113134 ], [ 8.706188, 49.4111885 ], [ 8.706102, 49.4110686 ], [ 8.7059983, 49.4109548 ], [ 8.7058781, 49.4108481 ], [ 8.7057424, 49.4107497 ], [ 8.7055926, 49.4106604 ], [ 8.7054301, 49.4105811 ], [ 8.7052564, 49.4105126 ], [ 8.7050733, 49.4104555 ], [ 8.7048825, 49.4104104 ], [ 8.7046859, 49.4103777 ], [ 8.7044852, 49.4103578 ], [ 8.7042826, 49.4103508 ], [ 8.7040799, 49.4103568 ], [ 8.703879, 49.4103757 ], [ 8.7036843, 49.410407 ], [ 8.7036546, 49.4103656 ], [ 8.703551, 49.4102517 ], [ 8.7034307, 49.4101451 ], [ 8.703295, 49.4100466 ], [ 8.7031452, 49.4099573 ], [ 8.7029827, 49.409878 ], [ 8.7028091, 49.4098095 ], [ 8.702626, 49.4097524 ], [ 8.7024352, 49.4097073 ], [ 8.7023043, 49.4096856 ], [ 8.7023136, 49.4096459 ], [ 8.7023244, 49.4095136 ], [ 8.7023152, 49.4093814 ], [ 8.7022862, 49.4092503 ] ], [ [ 8.6816199, 49.4092374 ], [ 8.6815715, 49.4091088 ], [ 8.6815039, 49.408984 ], [ 8.6814179, 49.408864 ], [ 8.6813143, 49.4087502 ], [ 8.6811941, 49.4086435 ], [ 8.6810585, 49.408545 ], [ 8.6809087, 49.4084557 ], [ 8.6807463, 49.4083763 ], [ 8.6805727, 49.4083078 ], [ 8.6803896, 49.4082507 ], [ 8.6801988, 49.4082055 ], [ 8.6800022, 49.4081728 ], [ 8.6798016, 49.4081528 ], [ 8.679599, 49.4081458 ], [ 8.6793963, 49.4081517 ], [ 8.6791954, 49.4081706 ], [ 8.6789984, 49.4082022 ], [ 8.678807, 49.4082463 ], [ 8.6786232, 49.4083024 ], [ 8.6784487, 49.40837 ], [ 8.6782852, 49.4084484 ], [ 8.6781343, 49.4085369 ], [ 8.6779974, 49.4086346 ], [ 8.6778758, 49.4087406 ], [ 8.6777708, 49.4088539 ], [ 8.6776832, 49.4089734 ], [ 8.677614, 49.4090978 ], [ 8.6775639, 49.4092261 ], [ 8.6775333, 49.409357 ], [ 8.6775224, 49.4094893 ], [ 8.6775315, 49.4096215 ], [ 8.6775604, 49.4097526 ], [ 8.6776089, 49.4098812 ], [ 8.6776765, 49.410006 ], [ 8.6777624, 49.410126 ], [ 8.677866, 49.4102398 ], [ 8.6779862, 49.4103465 ], [ 8.6781218, 49.410445 ], [ 8.6782716, 49.4105343 ], [ 8.6784341, 49.4106137 ], [ 8.6786077, 49.4106822 ], [ 8.6787908, 49.4107393 ], [ 8.6789815, 49.4107845 ], [ 8.6791782, 49.4108172 ], [ 8.6793788, 49.4108372 ], [ 8.6795814, 49.4108442 ], [ 8.6797841, 49.4108383 ], [ 8.679985, 49.4108194 ], [ 8.6801821, 49.4107878 ], [ 8.6803734, 49.4107437 ], [ 8.6805572, 49.4106876 ], [ 8.6807317, 49.41062 ], [ 8.6808952, 49.4105416 ], [ 8.6810461, 49.4104531 ], [ 8.6811831, 49.4103554 ], [ 8.6813046, 49.4102493 ], [ 8.6814097, 49.4101361 ], [ 8.6814972, 49.4100166 ], [ 8.6815664, 49.4098921 ], [ 8.6816165, 49.4097638 ], [ 8.6816472, 49.4096329 ], [ 8.681658, 49.4095007 ], [ 8.6816489, 49.4093684 ], [ 8.6816199, 49.4092374 ] ], [ [ 8.7010603, 49.4144365 ], [ 8.7008636, 49.4144038 ], [ 8.700663, 49.4143839 ], [ 8.7004603, 49.4143769 ], [ 8.7002576, 49.4143828 ], [ 8.7000567, 49.4144018 ], [ 8.6998597, 49.4144334 ], [ 8.6996683, 49.4144775 ], [ 8.6994845, 49.4145337 ], [ 8.69931, 49.4146013 ], [ 8.6991465, 49.4146797 ], [ 8.6989956, 49.4147683 ], [ 8.6988587, 49.414866 ], [ 8.6987372, 49.414972 ], [ 8.6986322, 49.4150853 ], [ 8.6985447, 49.4152048 ], [ 8.6984755, 49.4153293 ], [ 8.6984254, 49.4154576 ], [ 8.6983948, 49.4155885 ], [ 8.6983841, 49.4157207 ], [ 8.6983932, 49.415853 ], [ 8.6984222, 49.415984 ], [ 8.6984707, 49.4161126 ], [ 8.6985383, 49.4162375 ], [ 8.6986244, 49.4163574 ], [ 8.698728, 49.4164712 ], [ 8.6988483, 49.4165779 ], [ 8.6989839, 49.4166763 ], [ 8.6991338, 49.4167657 ], [ 8.6992963, 49.416845 ], [ 8.69947, 49.4169135 ], [ 8.6996531, 49.4169706 ], [ 8.6998439, 49.4170157 ], [ 8.6998776, 49.4170213 ], [ 8.7000316, 49.4170577 ], [ 8.7002283, 49.4170904 ], [ 8.7004289, 49.4171103 ], [ 8.7006316, 49.4171173 ], [ 8.7008343, 49.4171114 ], [ 8.7010352, 49.4170924 ], [ 8.7012323, 49.4170608 ], [ 8.7014236, 49.4170167 ], [ 8.7016074, 49.4169605 ], [ 8.7017819, 49.4168929 ], [ 8.7019454, 49.4168145 ], [ 8.7020963, 49.4167259 ], [ 8.7022332, 49.4166282 ], [ 8.7023548, 49.4165221 ], [ 8.7024598, 49.4164088 ], [ 8.7025473, 49.4162894 ], [ 8.7026164, 49.4161649 ], [ 8.7026665, 49.4160366 ], [ 8.7026971, 49.4159057 ], [ 8.7027078, 49.4157734 ], [ 8.7026987, 49.4156412 ], [ 8.7026697, 49.4155101 ], [ 8.7026211, 49.4153815 ], [ 8.7025535, 49.4152567 ], [ 8.7024675, 49.4151368 ], [ 8.7023638, 49.4150229 ], [ 8.7022436, 49.4149163 ], [ 8.7021079, 49.4148178 ], [ 8.7019581, 49.4147285 ], [ 8.7017955, 49.4146492 ], [ 8.7016219, 49.4145807 ], [ 8.7014388, 49.4145236 ], [ 8.701248, 49.4144785 ], [ 8.7012142, 49.4144729 ], [ 8.7010603, 49.4144365 ] ], [ [ 8.685099, 49.4187074 ], [ 8.6850505, 49.4185788 ], [ 8.6849829, 49.418454 ], [ 8.6848969, 49.4183341 ], [ 8.6847933, 49.4182202 ], [ 8.6846731, 49.4181135 ], [ 8.6845374, 49.4180151 ], [ 8.6843876, 49.4179257 ], [ 8.6842251, 49.4178464 ], [ 8.6840515, 49.4177779 ], [ 8.6838684, 49.4177207 ], [ 8.6836776, 49.4176756 ], [ 8.6834809, 49.4176429 ], [ 8.6832803, 49.4176229 ], [ 8.6830776, 49.4176159 ], [ 8.6828748, 49.4176218 ], [ 8.682674, 49.4176407 ], [ 8.6824769, 49.4176723 ], [ 8.6822855, 49.4177164 ], [ 8.6821017, 49.4177725 ], [ 8.6819271, 49.4178401 ], [ 8.6817636, 49.4179185 ], [ 8.6816127, 49.418007 ], [ 8.6814757, 49.4181048 ], [ 8.6813541, 49.4182108 ], [ 8.6812491, 49.4183241 ], [ 8.6811615, 49.4184435 ], [ 8.6810923, 49.418568 ], [ 8.6810422, 49.4186963 ], [ 8.6810116, 49.4188272 ], [ 8.6810007, 49.4189594 ], [ 8.6810098, 49.4190917 ], [ 8.6810388, 49.4192227 ], [ 8.6810873, 49.4193513 ], [ 8.6811548, 49.4194762 ], [ 8.6812408, 49.4195961 ], [ 8.6813444, 49.41971 ], [ 8.6814646, 49.4198166 ], [ 8.6816003, 49.4199151 ], [ 8.6817501, 49.4200045 ], [ 8.6819126, 49.4200838 ], [ 8.6820863, 49.4201523 ], [ 8.6822694, 49.4202094 ], [ 8.6824602, 49.4202546 ], [ 8.6826569, 49.4202873 ], [ 8.6828575, 49.4203073 ], [ 8.6830602, 49.4203143 ], [ 8.683263, 49.4203084 ], [ 8.6834639, 49.4202895 ], [ 8.683661, 49.4202579 ], [ 8.6838523, 49.4202138 ], [ 8.6840362, 49.4201577 ], [ 8.6842107, 49.4200901 ], [ 8.6843742, 49.4200117 ], [ 8.6845252, 49.4199231 ], [ 8.6846621, 49.4198254 ], [ 8.6847837, 49.4197194 ], [ 8.6848888, 49.4196061 ], [ 8.6849763, 49.4194866 ], [ 8.6850455, 49.4193622 ], [ 8.6850956, 49.4192339 ], [ 8.6851263, 49.419103 ], [ 8.6851371, 49.4189707 ], [ 8.6851279, 49.4188385 ], [ 8.685099, 49.4187074 ] ] ] } }
]
}
