{
"type": "FeatureCollection",
"features": [
{ "type": "Feature", "properties": { "index": "0", "label": "Within 1000 m by bike", "color": "#2b8cbe" }, "geometry": { "type": "Polygon", "coordinates": [ [ [ 8.6859479, 49.3987987 ], [ 8.6865211, 49.3995982 ], [ 8.6869715, 49.4004306 ], [ 8.6872947, 49.4012877 ], [ 8.6874799, 49.4021267 ], [ 8.6883794, 49.4025658 ], [ 8.6893779, 49.4031613 ], [ 8.6899315, 49.4035633 ], [ 8.690549, 49.4031223 ], [ 8.691555, 49.4025322 ], [ 8.6926447, 49.4020092 ], [ 8.6938077, 49.4015585 ], [ 8.6950327, 49.4011843 ], [ 8.6963081, 49.4008903 ], [ 8.6976214, 49.4006793 ], [ 8.6989602, 49.4005532 ], [ 8.7003114, 49.4005134 ], [ 8.701662, 49.4005602 ], [ 8.7029992, 49.4006932 ], [ 8.7043099, 49.4009111 ], [ 8.7055816, 49.4012117 ], [ 8.7068021, 49.4015922 ], [ 8.7079596, 49.4020489 ], [ 8.7090429, 49.4025775 ], [ 8.7100416, 49.4031728 ], [ 8.7109461, 49.4038291 ], [ 8.7109552, 49.4038371 ], [ 8.7119772, 49.4042404 ], [ 8.7130606, 49.4047689 ], [ 8.7140594, 49.4053642 ], [ 8.7149641, 49.4060205 ], [ 8.7157658, 49.4067315 ], [ 8.7164569, 49.4074903 ], [ 8.7170307, 49.4082897 ], [ 8.7174816, 49.4091219 ], [ 8.7178054, 49.409979 ], [ 8.7179989, 49.4108526 ], [ 8.7180602, 49.4117344 ], [ 8.7179888, 49.4126159 ], [ 8.7177853, 49.4134886 ], [ 8.7174517, 49.4143441 ], [ 8.7169911, 49.4151741 ], [ 8.716408, 49.4159706 ], [ 8.7157081, 49.416726 ], [ 8.714898, 49.417433 ], [ 8.7139855, 49.4180848 ], [ 8.7139339, 49.4181152 ], [ 8.7138178, 49.4184126 ], [ 8.7133572, 49.4192426 ], [ 8.712774, 49.4200391 ], [ 8.7120739, 49.4207945 ], [ 8.7112637, 49.4215015 ], [ 8.7105628, 49.4220021 ], [ 8.6701078, 49.4220022 ], [ 8.6698573, 49.4215392 ], [ 8.6695343, 49.420682 ], [ 8.6693416, 49.4198083 ], [ 8.6692812, 49.4189265 ], [ 8.6693535, 49.418045 ], [ 8.6695579, 49.4171724 ], [ 8.6698924, 49.4163171 ], [ 8.6700736, 49.4159911 ], [ 8.6698, 49.4158279 ], [ 8.6688958, 49.4151712 ], [ 8.6680946, 49.4144599 ], [ 8.6674042, 49.4137008 ], [ 8.6668312, 49.4129012 ], [ 8.666381, 49.4120688 ], [ 8.6660581, 49.4112115 ], [ 8.6658732, 49.4103726 ], [ 8.6649738, 49.4099333 ], [ 8.6639755, 49.4093376 ], [ 8.6630715, 49.4086809 ], [ 8.6622705, 49.4079696 ], [ 8.6615802, 49.4072104 ], [ 8.6610073, 49.4064107 ], [ 8.6605574, 49.4055783 ], [ 8.6602346, 49.4047211 ], [ 8.6600421, 49.4038473 ], [ 8.66, 49.403231 ], [ 8.66, 49.4027447 ], [ 8.6600543, 49.402084 ], [ 8.6602588, 49.4012115 ], [ 8.6605934, 49.4003562 ], [ 8.6610547, 49.3995264 ], [ 8.6616385, 49.3987301 ], [ 8.6623153, 49.3980006 ], [ 8.685217, 49.3980038 ], [ 8.6852574, 49.3980397 ], [ 8.6859479, 49.3987987 ] ] ] } },
{ "type": "Feature", "properties": { "index": "1", "label": "Beyond 1000 m", "color": "#d9d9d9" }, "geometry": { "type": "MultiPolygon", "coordinates": [ [ [ [ 8.6698573, 49.4215392 ], [ 8.6701066, 49.422 ], [ 8.66, 49.422 ], [ 8.66, 49.403231 ], [ 8.6600421, 49.4038473 ], [ 8.6602346, 49.4047211 ], [ 8.6605574, 49.4055783 ], [ 8.6610073, 49.4064107 ], [ 8.6615802, 49.4072104 ], [ 8.6622705, 49.4079696 ], [ 8.6630715, 49.4086809 ], [ 8.6639755, 49.4093376 ], [ 8.6649738, 49.4099333 ], [ 8.6658732, 49.4103726 ], [ 8.6660581, 49.4112115 ], [ 8.666381, 49.4120688 ], [ 8.6668312, 49.4129012 ], [ 8.6674042, 49.4137008 ], [ 8.6680946, 49.4144599 ], [ 8.6688958, 49.4151712 ], [ 8.6698, 49.4158279 ], [ 8.6700736, 49.4159911 ], [ 8.6698924, 49.4163171 ], [ 8.6695579, 49.4171724 ], [ 8.6693535, 49.418045 ], [ 8.6692812, 49.4189265 ], [ 8.6693416, 49.4198083 ], [ 8.6695343, 49.420682 ], [ 8.6698573, 49.4215392 ] ] ], [ [ [ 8.6600543, 49.402084 ], [ 8.66, 49.4027447 ], [ 8.66, 49.398 ], [ 8.6781425, 49.3980033 ], [ 8.6623153, 49.3980006 ], [ 8.6616385, 49.3987301 ], [ 8.6610547, 49.3995264 ], [ 8.6605934, 49.4003562 ], [ 8.6602588, 49.4012115 ], [ 8.6600543, 49.402084 ] ] ], [ [ [ 8.6852574, 49.3980397 ], [ 8.685217, 49.3980038 ], [ 8.72, 49.398 ], [ 8.72, 49.422 ], [ 8.7105657, 49.422 ], [ 8.7112637, 49.4215015 ], [ 8.7120739, 49.4207945 ], [ 8.712774, 49.4200391 ], [ 8.7133572, 49.4192426 ], [ 8.7138178, 49.4184126 ], [ 8.7139339, 49.4181152 ], [ 8.7139855, 49.4180848 ], [ 8.714898, 49.417433 ], [ 8.7157081, 49.416726 ], [ 8.716408, 49.4159706 ], [ 8.7169911, 49.4151741 ], [ 8.7174517, 49.4143441 ], [ 8.7177853, 49.4134886 ], [ 8.7179888, 49.4126159 ], [ 8.7180602, 49.4117344 ], [ 8.7179989, 49.4108526 ], [ 8.7178054, 49.409979 ], [ 8.7174816, 49.4091219 ], [ 8.7170307, 49.4082897 ], [ 8.7164569, 49.4074903 ], [ 8.7157658, 49.4067315 ], [ 8.7149641, 49.4060205 ], [ 8.7140594, 49.4053642 ], [ 8.7130606, 49.4047689 ], [ 8.7119772, 49.4042404 ], [ 8.7109552, 49.4038371 ], [ 8.7109461, 49.4038291 ], [ 8.7100416, 49.4031728 ], [ 8.7090429, 49.4025775 ], [ 8.7079596, 49.4020489 ], [ 8.7068021, 49.4015922 ], [ 8.7055816, 49.4012117 ], [ 8.7043099, 49.4009111 ], [ 8.7029992, 49.4006932 ], [ 8.701662, 49.4005602 ], [ 8.7003114, 49.4005134 ], [ 8.6989602, 49.4005532 ], [ 8.6976214, 49.4006793 ], [ 8.6963081, 49.4008903 ], [ 8.6950327, 49.4011843 ], [ 8.6938077, 49.4015585 ], [ 8.6926447, 49.4020092 ], [ 8.691555, 49.4025322 ], [ 8.690549, 49.4031223 ], [ 8.6899315, 49.4035633 ], [ 8.6893779, 49.4031613 ], [ 8.6883794, 49.4025658 ], [ 8.6874799, 49.4021267 ], [ 8.6872947, 49.4012877 ], [ 8.6869715, 49.4004306 ], [ 8.6865211, 49.3995982 ], [ 8.6859479, 49.3987987 ], [ 8.6852574, 49.3980397 ] ] ], [ [ [ 8.7105657, 49.422 ], [ 8.7105628, 49.4220021 ], [ 8.6701078, 49.4220022 ], [ 8.6701066, 49.422 ], [ 8.7105657, 49.422 ] ] ] ] } }
]
}
