{
"type": "FeatureCollection",
"features": [
{ "type": "Feature", "properties": { "index": "0", "label": "Within 400 m on foot", "color": "#2b8cbe" }, "geometry": { "type": "MultiPolygon", "coordinates": [ [ [ [ 8.6786385, 49.4013228 ], [ 8.6788677, 49.4016426 ], [ 8.6790478, 49.4019755 ], [ 8.679177, 49.4023184 ], [ 8.6792542, 49.4026679 ], [ 8.6792784, 49.4030206 ], [ 8.6792496, 49.4033732 ], [ 8.6791679, 49.4037223 ], [ 8.6790342, 49.4040644 ], [ 8.6788498, 49.4043963 ], [ 8.6786163, 49.4047149 ], [ 8.6783362, 49.4050169 ], [ 8.678012, 49.4052997 ], [ 8.6776469, 49.4055603 ], [ 8.6772445, 49.4057963 ], [ 8.6768085, 49.4060054 ], [ 8.6763432, 49.4061856 ], [ 8.6758531, 49.4063352 ], [ 8.6753428, 49.4064527 ], [ 8.6748174, 49.406537 ], [ 8.6742818, 49.4065873 ], [ 8.6737413, 49.4066031 ], [ 8.6732009, 49.4065843 ], [ 8.672666, 49.406531 ], [ 8.6721417, 49.4064437 ], [ 8.6716331, 49.4063233 ], [ 8.671145, 49.4061709 ], [ 8.6706821, 49.4059881 ], [ 8.6702489, 49.4057765 ], [ 8.6698495, 49.4055383 ], [ 8.6694879, 49.4052756 ], [ 8.6691675, 49.4049911 ], [ 8.6688914, 49.4046874 ], [ 8.6686622, 49.4043676 ], [ 8.6684822, 49.4040346 ], [ 8.668353, 49.4036917 ], [ 8.668276, 49.4033422 ], [ 8.6682518, 49.4029895 ], [ 8.6682807, 49.4026369 ], [ 8.6683625, 49.4022879 ], [ 8.6684962, 49.4019458 ], [ 8.6686807, 49.4016138 ], [ 8.6689142, 49.4012953 ], [ 8.6691944, 49.4009933 ], [ 8.6695186, 49.4007106 ], [ 8.6698837, 49.40045 ], [ 8.6702861, 49.400214 ], [ 8.6707221, 49.4000049 ], [ 8.6711873, 49.3998247 ], [ 8.6716774, 49.3996752 ], [ 8.6721876, 49.3995577 ], [ 8.672713, 49.3994734 ], [ 8.6732485, 49.3994231 ], [ 8.6737889, 49.3994073 ], [ 8.6743292, 49.3994261 ], [ 8.674864, 49.3994794 ], [ 8.6753882, 49.3995667 ], [ 8.6758968, 49.3996871 ], [ 8.6763849, 49.3998394 ], [ 8.6768478, 49.4000222 ], [ 8.6772809, 49.4002338 ], [ 8.6776802, 49.400472 ], [ 8.6780419, 49.4007346 ], [ 8.6783623, 49.4010191 ], [ 8.6786385, 49.4013228 ] ] ], [ [ [ 8.7045327, 49.4072368 ], [ 8.7048533, 49.4075212 ], [ 8.7051297, 49.4078247 ], [ 8.7053592, 49.4081445 ], [ 8.7053755, 49.4081746 ], [ 8.7058958, 49.4082611 ], [ 8.7064046, 49.4083813 ], [ 8.7068928, 49.4085335 ], [ 8.7073559, 49.4087162 ], [ 8.7077892, 49.4089276 ], [ 8.7081888, 49.4091658 ], [ 8.7085506, 49.4094283 ], [ 8.7088713, 49.4097127 ], [ 8.7091477, 49.4100163 ], [ 8.7093772, 49.410336 ], [ 8.7095575, 49.4106689 ], [ 8.709687, 49.4110118 ], [ 8.7097643, 49.4113612 ], [ 8.7097888, 49.411714 ], [ 8.7097602, 49.4120666 ], [ 8.7096787, 49.4124156 ], [ 8.7095452, 49.4127578 ], [ 8.7093609, 49.4130898 ], [ 8.7091277, 49.4134084 ], [ 8.7088476, 49.4137105 ], [ 8.7085236, 49.4139933 ], [ 8.7081586, 49.414254 ], [ 8.7077562, 49.4144901 ], [ 8.7073203, 49.4146994 ], [ 8.706855, 49.4148797 ], [ 8.7063649, 49.4150294 ], [ 8.7060573, 49.4151004 ], [ 8.7061301, 49.4154295 ], [ 8.7061546, 49.4157822 ], [ 8.7061259, 49.4161348 ], [ 8.7060444, 49.4164839 ], [ 8.7059108, 49.4168261 ], [ 8.7057265, 49.417158 ], [ 8.7054932, 49.4174766 ], [ 8.7052132, 49.4177788 ], [ 8.7048891, 49.4180616 ], [ 8.704524, 49.4183223 ], [ 8.7041216, 49.4185583 ], [ 8.7036856, 49.4187676 ], [ 8.7032203, 49.4189479 ], [ 8.7027301, 49.4190976 ], [ 8.7022198, 49.4192152 ], [ 8.7016943, 49.4192997 ], [ 8.7011586, 49.4193501 ], [ 8.7006179, 49.419366 ], [ 8.7000774, 49.4193473 ], [ 8.6995424, 49.4192941 ], [ 8.6990179, 49.419207 ], [ 8.6988639, 49.4191706 ], [ 8.6988302, 49.419165 ], [ 8.6983213, 49.4190447 ], [ 8.697833, 49.4188924 ], [ 8.6973699, 49.4187097 ], [ 8.6969365, 49.4184982 ], [ 8.6965369, 49.4182601 ], [ 8.6961751, 49.4179975 ], [ 8.6958544, 49.417713 ], [ 8.695578, 49.4174095 ], [ 8.6953486, 49.4170897 ], [ 8.6951684, 49.4167567 ], [ 8.695039, 49.4164139 ], [ 8.6949617, 49.4160644 ], [ 8.6949374, 49.4157117 ], [ 8.6949661, 49.4153591 ], [ 8.6950477, 49.41501 ], [ 8.6951813, 49.4146679 ], [ 8.6953657, 49.4143359 ], [ 8.695599, 49.4140173 ], [ 8.6958791, 49.4137152 ], [ 8.6962032, 49.4134325 ], [ 8.6965683, 49.4131718 ], [ 8.6969707, 49.4129357 ], [ 8.6971206, 49.4128638 ], [ 8.6969536, 49.4126803 ], [ 8.6967241, 49.4123605 ], [ 8.6966519, 49.4122271 ], [ 8.6963419, 49.4120423 ], [ 8.6959801, 49.4117797 ], [ 8.6956595, 49.4114952 ], [ 8.6953832, 49.4111916 ], [ 8.6951538, 49.4108719 ], [ 8.6949735, 49.4105389 ], [ 8.6948442, 49.4101961 ], [ 8.6947669, 49.4098466 ], [ 8.6947426, 49.4094939 ], [ 8.6947713, 49.4091413 ], [ 8.6948529, 49.4087922 ], [ 8.6949865, 49.4084501 ], [ 8.6951708, 49.4081181 ], [ 8.6954041, 49.4077995 ], [ 8.6956842, 49.4074974 ], [ 8.6960083, 49.4072147 ], [ 8.6963733, 49.406954 ], [ 8.6967757, 49.4067179 ], [ 8.6972116, 49.4065087 ], [ 8.6976768, 49.4063284 ], [ 8.6981668, 49.4061787 ], [ 8.698677, 49.4060611 ], [ 8.6992024, 49.4059767 ], [ 8.699738, 49.4059263 ], [ 8.7002785, 49.4059104 ], [ 8.7008188, 49.4059291 ], [ 8.7013537, 49.4059823 ], [ 8.7018781, 49.4060694 ], [ 8.7023868, 49.4061897 ], [ 8.7028751, 49.4063419 ], [ 8.7033381, 49.4065246 ], [ 8.7037714, 49.4067361 ], [ 8.7041709, 49.4069742 ], [ 8.7045327, 49.4072368 ] ] ], [ [ [ 8.684464, 49.4078123 ], [ 8.6846933, 49.4081321 ], [ 8.6848735, 49.4084651 ], [ 8.6850028, 49.4088079 ], [ 8.6850799, 49.4091574 ], [ 8.6851042, 49.4095101 ], [ 8.6850754, 49.4098627 ], [ 8.6849938, 49.4102118 ], [ 8.6848601, 49.4105539 ], [ 8.6846757, 49.4108859 ], [ 8.6844423, 49.4112044 ], [ 8.6841621, 49.4115065 ], [ 8.6838379, 49.4117892 ], [ 8.6834729, 49.4120499 ], [ 8.6830704, 49.4122859 ], [ 8.6826343, 49.412495 ], [ 8.682169, 49.4126753 ], [ 8.6816788, 49.4128249 ], [ 8.6811685, 49.4129424 ], [ 8.680643, 49.4130268 ], [ 8.6801074, 49.4130771 ], [ 8.6795668, 49.4130929 ], [ 8.6790264, 49.4130741 ], [ 8.6784914, 49.4130208 ], [ 8.677967, 49.4129336 ], [ 8.6774583, 49.4128132 ], [ 8.6769701, 49.4126609 ], [ 8.6765071, 49.412478 ], [ 8.6760738, 49.4122665 ], [ 8.6756744, 49.4120283 ], [ 8.6753127, 49.4117656 ], [ 8.6749923, 49.4114811 ], [ 8.6747161, 49.4111775 ], [ 8.6744868, 49.4108576 ], [ 8.6743067, 49.4105247 ], [ 8.6741775, 49.4101818 ], [ 8.6741004, 49.4098323 ], [ 8.6740762, 49.4094796 ], [ 8.6741051, 49.409127 ], [ 8.6741868, 49.408778 ], [ 8.6743205, 49.4084358 ], [ 8.674505, 49.4081039 ], [ 8.6747385, 49.4077854 ], [ 8.6750186, 49.4074833 ], [ 8.6753428, 49.4072006 ], [ 8.6757079, 49.40694 ], [ 8.6761104, 49.406704 ], [ 8.6765464, 49.4064949 ], [ 8.6770117, 49.4063147 ], [ 8.6775018, 49.4061651 ], [ 8.6780121, 49.4060475 ], [ 8.6785375, 49.4059632 ], [ 8.6790731, 49.4059129 ], [ 8.6796136, 49.4058971 ], [ 8.6801539, 49.4059159 ], [ 8.6806888, 49.4059692 ], [ 8.6812131, 49.4060564 ], [ 8.6817218, 49.4061768 ], [ 8.68221, 49.4063291 ], [ 8.6826729, 49.4065119 ], [ 8.6831062, 49.4067234 ], [ 8.6835056, 49.4069616 ], [ 8.6838673, 49.4072242 ], [ 8.6841878, 49.4075087 ], [ 8.684464, 49.4078123 ] ] ], [ [ [ 8.6879435, 49.4172823 ], [ 8.6881729, 49.4176021 ], [ 8.6883531, 49.417935 ], [ 8.6884825, 49.4182779 ], [ 8.6885597, 49.4186274 ], [ 8.688584, 49.4189801 ], [ 8.6885552, 49.4193327 ], [ 8.6884736, 49.4196817 ], [ 8.6883399, 49.4200239 ], [ 8.6881555, 49.4203558 ], [ 8.687922, 49.4206744 ], [ 8.6876419, 49.4209765 ], [ 8.6873176, 49.4212592 ], [ 8.6869525, 49.4215198 ], [ 8.6865499, 49.4217559 ], [ 8.6861138, 49.421965 ], [ 8.6860137, 49.4220038 ], [ 8.6801254, 49.4220035 ], [ 8.6799854, 49.4219482 ], [ 8.6795521, 49.4217367 ], [ 8.6791526, 49.4214985 ], [ 8.6787908, 49.4212358 ], [ 8.6784702, 49.4209513 ], [ 8.6781939, 49.4206477 ], [ 8.6779646, 49.4203279 ], [ 8.6777844, 49.4199949 ], [ 8.6776552, 49.4196521 ], [ 8.6775781, 49.4193026 ], [ 8.6775538, 49.4189499 ], [ 8.6775827, 49.4185973 ], [ 8.6776644, 49.4182482 ], [ 8.6777981, 49.4179061 ], [ 8.6779826, 49.4175742 ], [ 8.6782161, 49.4172556 ], [ 8.6784963, 49.4169535 ], [ 8.6788206, 49.4166708 ], [ 8.6791857, 49.4164102 ], [ 8.6795883, 49.4161742 ], [ 8.6800243, 49.4159651 ], [ 8.6804897, 49.4157849 ], [ 8.6809799, 49.4156352 ], [ 8.6814902, 49.4155177 ], [ 8.6820158, 49.4154333 ], [ 8.6825514, 49.415383 ], [ 8.6830921, 49.4153672 ], [ 8.6836325, 49.415386 ], [ 8.6841675, 49.4154392 ], [ 8.6846919, 49.4155265 ], [ 8.6852007, 49.4156468 ], [ 8.685689, 49.4157991 ], [ 8.686152, 49.4159819 ], [ 8.6865854, 49.4161934 ], [ 8.6869848, 49.4164316 ], [ 8.6873466, 49.4166942 ], [ 8.6876672, 49.4169787 ], [ 8.6879435, 49.4172823 ] ] ] ] } },
{ "type": "Feature", "properties": { "index": "1", "label": "Beyond 400 m", "color": "#d9d9d9" }, "geometry": { "type": "MultiPolygon", "coordinates": [ [ [ [ 8.66, 49.422 ], [ 8.66, 49.398 ], [ 8.72, 49.398 ], [ 8.72, 49.422 ], [ 8.6860139, 49.4220037 ], [ 8.6861138, 49.421965 ], [ 8.6865499, 49.4217559 ], [ 8.6869525, 49.4215198 ], [ 8.6873176, 49.4212592 ], [ 8.6876419, 49.4209765 ], [ 8.687922, 49.4206744 ], [ 8.6881555, 49.4203558 ], [ 8.6883399, 49.4200239 ], [ 8.6884736, 49.4196817 ], [ 8.6885552, 49.4193327 ], [ 8.688584, 49.4189801 ], [ 8.6885597, 49.4186274 ], [ 8.6884825, 49.4182779 ], [ 8.6883531, 49.417935 ], [ 8.6881729, 49.4176021 ], [ 8.6879435, 49.4172823 ], [ 8.6876672, 49.4169787 ], [ 8.6873466, 49.4166942 ], [ 8.6869848, 49.4164316 ], [ 8.6865854, 49.4161934 ], [ 8.686152, 49.4159819 ], [ 8.685689, 49.4157991 ], [ 8.6852007, 49.4156468 ], [ 8.6846919, 49.4155265 ], [ 8.6841675, 49.4154392 ], [ 8.6836325, 49.415386 ], [ 8.6830921, 49.4153672 ], [ 8.6825514, 49.415383 ], [ 8.6820158, 49.4154333 ], [ 8.6814902, 49.4155177 ], [ 8.6809799, 49.4156352 ], [ 8.6804897, 49.4157849 ], [ 8.6800243, 49.4159651 ], [ 8.6795883, 49.4161742 ], [ 8.6791857, 49.4164102 ], [ 8.6788206, 49.4166708 ], [ 8.6784963, 49.4169535 ], [ 8.6782161, 49.4172556 ], [ 8.6779826, 49.4175742 ], [ 8.6777981, 49.4179061 ], [ 8.6776644, 49.4182482 ], [ 8.6775827, 49.4185973 ], [ 8.6775538, 49.4189499 ], [ 8.6775781, 49.4193026 ], [ 8.6776552, 49.4196521 ], [ 8.6777844, 49.4199949 ], [ 8.6779646, 49.4203279 ], [ 8.6781939, 49.4206477 ], [ 8.6784702, 49.4209513 ], [ 8.6787908, 49.4212358 ], [ 8.6791526, 49.4214985 ], [ 8.6795521, 49.4217367 ], [ 8.6799854, 49.4219482 ], [ 8.6801254, 49.4220035 ], [ 8.66, 49.422 ] ], [ [ 8.6792784, 49.4030206 ], [ 8.6792542, 49.4026679 ], [ 8.679177, 49.4023184 ], [ 8.6790478, 49.4019755 ], [ 8.6788677, 49.4016426 ], [ 8.6786385, 49.4013228 ], [ 8.6783623, 49.4010191 ], [ 8.6780419, 49.4007346 ], [ 8.6776802, 49.400472 ], [ 8.6772809, 49.4002338 ], [ 8.6768478, 49.4000222 ], [ 8.6763849, 49.3998394 ], [ 8.6758968, 49.3996871 ], [ 8.6753882, 49.3995667 ], [ 8.674864, 49.3994794 ], [ 8.6743292, 49.3994261 ], [ 8.6737889, 49.3994073 ], [ 8.6732485, 49.3994231 ], [ 8.672713, 49.3994734 ], [ 8.6721876, 49.3995577 ], [ 8.6716774, 49.3996752 ], [ 8.6711873, 49.3998247 ], [ 8.6707221, 49.4000049 ], [ 8.6702861, 49.400214 ], [ 8.6698837, 49.40045 ], [ 8.6695186, 49.4007106 ], [ 8.6691944, 49.4009933 ], [ 8.6689142, 49.4012953 ], [ 8.6686807, 49.4016138 ], [ 8.6684962, 49.4019458 ], [ 8.6683625, 49.4022879 ], [ 8.6682807, 49.4026369 ], [ 8.6682518, 49.4029895 ], [ 8.668276, 49.4033422 ], [ 8.668353, 49.4036917 ], [ 8.6684822, 49.4040346 ], [ 8.6686622, 49.4043676 ], [ 8.6688914, 49.4046874 ], [ 8.6691675, 49.4049911 ], [ 8.6694879, 49.4052756 ], [ 8.6698495, 49.4055383 ], [ 8.6702489, 49.4057765 ], [ 8.6706821, 49.4059881 ], [ 8.671145, 49.4061709 ], [ 8.6716331, 49.4063233 ], [ 8.6721417, 49.4064437 ], [ 8.672666, 49.406531 ], [ 8.6732009, 49.4065843 ], [ 8.6737413, 49.4066031 ], [ 8.6742818, 49.4065873 ], [ 8.6748174, 49.406537 ], [ 8.6753428, 49.4064527 ], [ 8.6758531, 49.4063352 ], [ 8.6763432, 49.4061856 ], [ 8.6768085, 49.4060054 ], [ 8.6772445, 49.4057963 ], [ 8.6776469, 49.4055603 ], [ 8.678012, 49.4052997 ], [ 8.6783362, 49.4050169 ], [ 8.6786163, 49.4047149 ], [ 8.6788498, 49.4043963 ], [ 8.6790342, 49.4040644 ], [ 8.6791679, 49.4037223 ], [ 8.6792496, 49.4033732 ], [ 8.6792784, 49.4030206 ] ], [ [ 8.7058958, 49.4082611 ], [ 8.7053755, 49.4081746 ], [ 8.7053592, 49.4081445 ], [ 8.7051297, 49.4078247 ], [ 8.7048533, 49.4075212 ], [ 8.7045327, 49.4072368 ], [ 8.7041709, 49.4069742 ], [ 8.7037714, 49.4067361 ], [ 8.7033381, 49.4065246 ], [ 8.7028751, 49.4063419 ], [ 8.7023868, 49.4061897 ], [ 8.7018781, 49.4060694 ], [ 8.7013537, 49.4059823 ], [ 8.7008188, 49.4059291 ], [ 8.7002785, 49.4059104 ], [ 8.699738, 49.4059263 ], [ 8.6992024, 49.4059767 ], [ 8.698677, 49.4060611 ], [ 8.6981668, 49.4061787 ], [ 8.6976768, 49.4063284 ], [ 8.6972116, 49.4065087 ], [ 8.6967757, 49.4067179 ], [ 8.6963733, 49.406954 ], [ 8.6960083, 49.4072147 ], [ 8.6956842, 49.4074974 ], [ 8.6954041, 49.4077995 ], [ 8.6951708, 49.4081181 ], [ 8.6949865, 49.4084501 ], [ 8.6948529, 49.4087922 ], [ 8.6947713, 49.4091413 ], [ 8.6947426, 49.4094939 ], [ 8.6947669, 49.4098466 ], [ 8.6948442, 49.4101961 ], [ 8.6949735, 49.4105389 ], [ 8.6951538, 49.4108719 ], [ 8.6953832, 49.4111916 ], [ 8.6956595, 49.4114952 ], [ 8.6959801, 49.4117797 ], [ 8.6963419, 49.4120423 ], [ 8.6966519, 49.4122271 ], [ 8.6967241, 49.4123605 ], [ 8.6969536, 49.4126803 ], [ 8.6971206, 49.4128638 ], [ 8.6969707, 49.4129357 ], [ 8.6965683, 49.4131718 ], [ 8.6962032, 49.4134325 ], [ 8.6958791, 49.4137152 ], [ 8.695599, 49.4140173 ], [ 8.6953657, 49.4143359 ], [ 8.6951813, 49.4146679 ], [ 8.6950477, 49.41501 ], [ 8.6949661, 49.4153591 ], [ 8.6949374, 49.4157117 ], [ 8.6949617, 49.4160644 ], [ 8.695039, 49.4164139 ], [ 8.6951684, 49.4167567 ], [ 8.6953486, 49.4170897 ], [ 8.695578, 49.4174095 ], [ 8.6958544, 49.417713 ], [ 8.6961751, 49.4179975 ], [ 8.6965369, 49.4182601 ], [ 8.6969365, 49.4184982 ], [ 8.6973699, 49.4187097 ], [ 8.697833, 49.4188924 ], [ 8.6983213, 49.4190447 ], [ 8.6988302, 49.419165 ], [ 8.6988639, 49.4191706 ], [ 8.6990179, 49.419207 ], [ 8.6995424, 49.4192941 ], [ 8.7000774, 49.4193473 ], [ 8.7006179, 49.419366 ], [ 8.7011586, 49.4193501 ], [ 8.7016943, 49.4192997 ], [ 8.7022198, 49.4192152 ], [ 8.7027301, 49.4190976 ], [ 8.7032203, 49.4189479 ], [ 8.7036856, 49.4187676 ], [ 8.7041216, 49.4185583 ], [ 8.704524, 49.4183223 ], [ 8.7048891, 49.4180616 ], [ 8.7052132, 49.4177788 ], [ 8.7054932, 49.4174766 ], [ 8.7057265, 49.417158 ], [ 8.7059108, 49.4168261 ], [ 8.7060444, 49.4164839 ], [ 8.7061259, 49.4161348 ], [ 8.7061546, 49.4157822 ], [ 8.7061301, 49.4154295 ], [ 8.7060573, 49.4151004 ], [ 8.7063649, 49.4150294 ], [ 8.706855, 49.4148797 ], [ 8.7073203, 49.4146994 ], [ 8.7077562, 49.4144901 ], [ 8.7081586, 49.414254 ], [ 8.7085236, 49.4139933 ], [ 8.7088476, 49.4137105 ], [ 8.7091277, 49.4134084 ], [ 8.7093609, 49.4130898 ], [ 8.7095452, 49.4127578 ], [ 8.7096787, 49.4124156 ], [ 8.7097602, 49.4120666 ], [ 8.7097888, 49.411714 ], [ 8.7097643, 49.4113612 ], [ 8.709687, 49.4110118 ], [ 8.7095575, 49.4106689 ], [ 8.7093772, 49.410336 ], [ 8.7091477, 49.4100163 ], [ 8.7088713, 49.4097127 ], [ 8.7085506, 49.4094283 ], [ 8.7081888, 49.4091658 ], [ 8.7077892, 49.4089276 ], [ 8.7073559, 49.4087162 ], [ 8.7068928, 49.4085335 ], [ 8.7064046, 49.4083813 ], [ 8.7058958, 49.4082611 ] ], [ [ 8.6851042, 49.4095101 ], [ 8.6850799, 49.4091574 ], [ 8.6850028, 49.4088079 ], [ 8.6848735, 49.4084651 ], [ 8.6846933, 49.4081321 ], [ 8.684464, 49.4078123 ], [ 8.6841878, 49.4075087 ], [ 8.6838673, 49.4072242 ], [ 8.6835056, 49.4069616 ], [ 8.6831062, 49.4067234 ], [ 8.6826729, 49.4065119 ], [ 8.68221, 49.4063291 ], [ 8.6817218, 49.4061768 ], [ 8.6812131, 49.4060564 ], [ 8.6806888, 49.4059692 ], [ 8.6801539, 49.4059159 ], [ 8.6796136, 49.4058971 ], [ 8.6790731, 49.4059129 ], [ 8.6785375, 49.4059632 ], [ 8.6780121, 49.4060475 ], [ 8.6775018, 49.4061651 ], [ 8.6770117, 49.4063147 ], [ 8.6765464, 49.4064949 ], [ 8.6761104, 49.406704 ], [ 8.6757079, 49.40694 ], [ 8.6753428, 49.4072006 ], [ 8.6750186, 49.4074833 ], [ 8.6747385, 49.4077854 ], [ 8.674505, 49.4081039 ], [ 8.6743205, 49.4084358 ], [ 8.6741868, 49.408778 ], [ 8.6741051, 49.409127 ], [ 8.6740762, 49.4094796 ], [ 8.6741004, 49.4098323 ], [ 8.6741775, 49.4101818 ], [ 8.6743067, 49.4105247 ], [ 8.6744868, 49.4108576 ], [ 8.6747161, 49.4111775 ], [ 8.6749923, 49.4114811 ], [ 8.6753127, 49.4117656 ], [ 8.6756744, 49.4120283 ], [ 8.6760738, 49.4122665 ], [ 8.6765071, 49.412478 ], [ 8.6769701, 49.4126609 ], [ 8.6774583, 49.4128132 ], [ 8.677967, 49.4129336 ], [ 8.6784914, 49.4130208 ], [ 8.6790264, 49.4130741 ], [ 8.6795668, 49.4130929 ], [ 8.6801074, 49.4130771 ], [ 8.680643, 49.4130268 ], [ 8.6811685, 49.4129424 ], [ 8.6816788, 49.4128249 ], [ 8.682169, 49.4126753 ], [ 8.6826343, 49.412495 ], [ 8.6830704, 49.4122859 ], [ 8.6834729, 49.4120499 ], [ 8.6838379, 49.4117892 ], [ 8.6841621, 49.4115065 ], [ 8.6844423, 49.4112044 ], [ 8.6846757, 49.4108859 ], [ 8.6848601, 49.4105539 ], [ 8.6849938, 49.4102118 ], [ 8.6850754, 49.4098627 ], [ 8.6851042, 49.4095101 ] ] ], [ [ [ 8.6860139, 49.4220037 ], [ 8.6860137, 49.4220038 ], [ 8.6854131, 49.4220038 ], [ 8.6860139, 49.4220037 ] ] ] ] } }
]
}
