{
"type": "FeatureCollection",
"features": [
{ "type": "Feature", "properties": { "index": "0", "last_edit_year": 2025, "years_since_edit": 1, "label": "1.0–1.5 yr", "color": "#eff3ff" }, "geometry": { "type": "Point", "coordinates": [ 8.7004521, 49.4157261 ] } },
{ "type": "Feature", "properties": { "index": "1", "last_edit_year": 2025, "years_since_edit": 1, "label": "1.0–1.5 yr", "color": "#eff3ff" }, "geometry": { "type": "Point", "coordinates": [ 8.7006398, 49.4157681 ] } },
{ "type": "Feature", "properties": { "index": "2", "last_edit_year": 2025, "years_since_edit": 1, "label": "1.0–1.5 yr", "color": "#eff3ff" }, "geometry": { "type": "Point", "coordinates": [ 8.7002566, 49.4095083 ] } },
{ "type": "Feature", "properties": { "index": "3", "last_edit_year": 2025, "years_since_edit": 1, "label": "1.0–1.5 yr", "color": "#eff3ff" }, "geometry": { "type": "Point", "coordinates": [ 8.7018271, 49.4109969 ] } },
{ "type": "Feature", "properties": { "index": "4", "last_edit_year": 2025, "years_since_edit": 1, "label": "1.0–1.5 yr", "color": "#eff3ff" }, "geometry": { "type": "Point", "coordinates": [ 8.6795902, 49.409495 ] } },
{ "type": "Feature", "properties": { "index": "5", "last_edit_year": 2024, "years_since_edit": 2, "label": "1.5–2.0 yr", "color": "#08519c" }, "geometry": { "type": "Point", "coordinates": [ 8.7042745, 49.4117 ] } },
{ "type": "Feature", "properties": { "index": "6", "last_edit_year": 2024, "years_since_edit": 2, "label": "1.5–2.0 yr", "color": "#08519c" }, "geometry": { "type": "Point", "coordinates": [ 8.6737651, 49.4030052 ] } },
{ "type": "Feature", "properties": { "index": "7", "last_edit_year": 2025, "years_since_edit": 1, "label": "1.0–1.5 yr", "color": "#eff3ff" }, "geometry": { "type": "Point", "coordinates": [ 8.6830689, 49.4189651 ] } }
]
}
