{
"type": "FeatureCollection",
"features": [
{ "type": "Feature", "properties": { "index": "252", "@osmId": "way/807112999", "name": null, "opening_hours": "24/7", "label": "Car-sharing points", "color": "#f16913" }, "geometry": { "type": "Point", "coordinates": [ 8.6768307, 49.4145822 ] } },
{ "type": "Feature", "properties": { "index": "253", "@osmId": "node/283338419", "name": null, "opening_hours": "24/7", "label": "Car-sharing points", "color": "#f16913" }, "geometry": { "type": "Point", "coordinates": [ 8.6749087, 49.4201572 ] } },
{ "type": "Feature", "properties": { "index": "254", "@osmId": "node/493669728", "name": null, "opening_hours": "24/7", "label": "Car-sharing points", "color": "#f16913" }, "geometry": { "type": "Point", "coordinates": [ 8.69235, 49.4134671 ] } },
{ "type": "Feature", "properties": { "index": "255", "@osmId": "node/1027945008", "name": "Untere Neckarstraße 2, P6 (Kraus)", "opening_hours": null, "label": "Car-sharing points", "color": "#f16913" }, "geometry": { "type": "Point", "coordinates": [ 8.6967738, 49.4116285 ] } },
{ "type": "Feature", "properties": { "index": "256", "@osmId": "node/1027945018", "name": null, "opening_hours": "24/7", "label": "Car-sharing points", "color": "#f16913" }, "geometry": { "type": "Point", "coordinates": [ 8.7120306, 49.4112877 ] } },
{ "type": "Feature", "properties": { "index": "257", "@osmId": "node/1027945022", "name": null, "opening_hours": null, "label": "Car-sharing points", "color": "#f16913" }, "geometry": { "type": "Point", "coordinates": [ 8.7045338, 49.4105746 ] } },
{ "type": "Feature", "properties": { "index": "258", "@osmId": "node/1027945035", "name": null, "opening_hours": null, "label": "Car-sharing points", "color": "#f16913" }, "geometry": { "type": "Point", "coordinates": [ 8.6985594, 49.4088982 ] } },
{ "type": "Feature", "properties": { "index": "259", "@osmId": "node/1440227724", "name": null, "opening_hours": "24/7", "label": "Car-sharing points", "color": "#f16913" }, "geometry": { "type": "Point", "coordinates": [ 8.6815662, 49.4178168 ] } },
{ "type": "Feature", "properties": { "index": "260", "@osmId": "node/1440237586", "name": null, "opening_hours": "24/7", "label": "Car-sharing points", "color": "#f16913" }, "geometry": { "type": "Point", "coordinates": [ 8.6871221, 49.4197789 ] } },
{ "type": "Feature", "properties": { "index": "261", "@osmId": "node/1873548575", "name": "Bonifatiuskirche / Wilhemsplatz", "opening_hours": null, "label": "Car-sharing points", "color": "#f16913" }, "geometry": { "type": "Point", "coordinates": [ 8.6878647, 49.4036198 ] } },
{ "type": "Feature", "properties": { "index": "262", "@osmId": "node/1899288007", "name": null, "opening_hours": "24/7", "label": "Car-sharing points", "color": "#f16913" }, "geometry": { "type": "Point", "coordinates": [ 8.7187531, 49.4143251 ] } },
{ "type": "Feature", "properties": { "index": "263", "@osmId": "node/1985522075", "name": null, "opening_hours": null, "label": "Car-sharing points", "color": "#f16913" }, "geometry": { "type": "Point", "coordinates": [ 8.6869038, 49.3995012 ] } },
{ "type": "Feature", "properties": { "index": "264", "@osmId": "node/2208760320", "name": null, "opening_hours": null, "label": "Car-sharing points", "color": "#f16913" }, "geometry": { "type": "Point", "coordinates": [ 8.6751788, 49.4056096 ] } },
{ "type": "Feature", "properties": { "index": "265", "@osmId": "node/2284015342", "name": null, "opening_hours": "24/7", "label": "Car-sharing points", "color": "#f16913" }, "geometry": { "type": "Point", "coordinates": [ 8.6918619, 49.4064409 ] } },
{ "type": "Feature", "properties": { "index": "266", "@osmId": "node/2284021120", "name": null, "opening_hours": null, "label": "Car-sharing points", "color": "#f16913" }, "geometry": { "type": "Point", "coordinates": [ 8.6902108, 49.4075653 ] } },
{ "type": "Feature", "properties": { "index": "267", "@osmId": "node/2339182116", "name": null, "opening_hours": null, "label": "Car-sharing points", "color": "#f16913" }, "geometry": { "type": "Point", "coordinates": [ 8.6829974, 49.40578 ] } },
{ "type": "Feature", "properties": { "index": "268", "@osmId": "node/2340225604", "name": "stadtmobil", "opening_hours": null, "label": "Car-sharing points", "color": "#f16913" }, "geometry": { "type": "Point", "coordinates": [ 8.6791001, 49.4145642 ] } },
{ "type": "Feature", "properties": { "index": "269", "@osmId": "node/2340227227", "name": null, "opening_hours": null, "label": "Car-sharing points", "color": "#f16913" }, "geometry": { "type": "Point", "coordinates": [ 8.6925032, 49.4135781 ] } },
{ "type": "Feature", "properties": { "index": "270", "@osmId": "node/2340228089", "name": "stadtmobil", "opening_hours": null, "label": "Car-sharing points", "color": "#f16913" }, "geometry": { "type": "Point", "coordinates": [ 8.6836921, 49.4159532 ] } },
{ "type": "Feature", "properties": { "index": "271", "@osmId": "node/2340228958", "name": "stadtmobil", "opening_hours": null, "label": "Car-sharing points", "color": "#f16913" }, "geometry": { "type": "Point", "coordinates": [ 8.6813317, 49.415674 ] } },
{ "type": "Feature", "properties": { "index": "272", "@osmId": "node/2340250034", "name": "stadtmobil", "opening_hours": null, "label": "Car-sharing points", "color": "#f16913" }, "geometry": { "type": "Point", "coordinates": [ 8.6679456, 49.4201221 ] } },
{ "type": "Feature", "properties": { "index": "273", "@osmId": "node/2738568597", "name": null, "opening_hours": "24/7", "label": "Car-sharing points", "color": "#f16913" }, "geometry": { "type": "Point", "coordinates": [ 8.6672838, 49.4017075 ] } },
{ "type": "Feature", "properties": { "index": "274", "@osmId": "node/3100188409", "name": null, "opening_hours": null, "label": "Car-sharing points", "color": "#f16913" }, "geometry": { "type": "Point", "coordinates": [ 8.6635942, 49.4035509 ] } },
{ "type": "Feature", "properties": { "index": "275", "@osmId": "node/3183773127", "name": null, "opening_hours": null, "label": "Car-sharing points", "color": "#f16913" }, "geometry": { "type": "Point", "coordinates": [ 8.6761325, 49.4083514 ] } },
{ "type": "Feature", "properties": { "index": "276", "@osmId": "node/3212351971", "name": null, "opening_hours": "24/7", "label": "Car-sharing points", "color": "#f16913" }, "geometry": { "type": "Point", "coordinates": [ 8.681428, 49.4036252 ] } },
{ "type": "Feature", "properties": { "index": "277", "@osmId": "node/3962606278", "name": null, "opening_hours": "24/7", "label": "Car-sharing points", "color": "#f16913" }, "geometry": { "type": "Point", "coordinates": [ 8.6703539, 49.4000461 ] } },
{ "type": "Feature", "properties": { "index": "278", "@osmId": "node/5594732473", "name": null, "opening_hours": null, "label": "Car-sharing points", "color": "#f16913" }, "geometry": { "type": "Point", "coordinates": [ 8.6890859, 49.3988811 ] } },
{ "type": "Feature", "properties": { "index": "279", "@osmId": "node/7111015416", "name": null, "opening_hours": null, "label": "Car-sharing points", "color": "#f16913" }, "geometry": { "type": "Point", "coordinates": [ 8.6897778, 49.4075186 ] } },
{ "type": "Feature", "properties": { "index": "280", "@osmId": "node/7927294172", "name": null, "opening_hours": null, "label": "Car-sharing points", "color": "#f16913" }, "geometry": { "type": "Point", "coordinates": [ 8.6655994, 49.4028685 ] } },
{ "type": "Feature", "properties": { "index": "281", "@osmId": "node/8093818736", "name": null, "opening_hours": null, "label": "Car-sharing points", "color": "#f16913" }, "geometry": { "type": "Point", "coordinates": [ 8.6729777, 49.4021439 ] } },
{ "type": "Feature", "properties": { "index": "282", "@osmId": "node/8474086679", "name": null, "opening_hours": null, "label": "Car-sharing points", "color": "#f16913" }, "geometry": { "type": "Point", "coordinates": [ 8.6813477, 49.4064227 ] } },
{ "type": "Feature", "properties": { "index": "283", "@osmId": "node/9689504584", "name": null, "opening_hours": null, "label": "Car-sharing points", "color": "#f16913" }, "geometry": { "type": "Point", "coordinates": [ 8.6781269, 49.415526 ] } },
{ "type": "Feature", "properties": { "index": "284", "@osmId": "node/12115903488", "name": null, "opening_hours": null, "label": "Car-sharing points", "color": "#f16913" }, "geometry": { "type": "Point", "coordinates": [ 8.6831045, 49.4096094 ] } },
{ "type": "Feature", "properties": { "index": "285", "@osmId": "node/12705117559", "name": "Zentrum für umweltbewusste Mobilität", "opening_hours": "Mo,Fr 10:00-13:30,14:30-18:00; We 10:00-13:30,14:30-19:00; Th 14:30-19:00", "label": "Car-sharing points", "color": "#f16913" }, "geometry": { "type": "Point", "coordinates": [ 8.6761917, 49.4052185 ] } },
{ "type": "Feature", "properties": { "index": "286", "@osmId": "node/13727298285", "name": null, "opening_hours": null, "label": "Car-sharing points", "color": "#f16913" }, "geometry": { "type": "Point", "coordinates": [ 8.6663282, 49.4046348 ] } }
]
}
