{
"type": "FeatureCollection",
"features": [
{ "type": "Feature", "properties": { "index": "14", "@osmId": "node/252641514", "name": "Stadtwerke", "opening_hours": null, "label": "Tram & light-rail stops", "color": "#ef3b2c" }, "geometry": { "type": "Point", "coordinates": [ 8.6815921, 49.4049513 ] } },
{ "type": "Feature", "properties": { "index": "15", "@osmId": "node/252641521", "name": "Stadtbücherei", "opening_hours": null, "label": "Tram & light-rail stops", "color": "#ef3b2c" }, "geometry": { "type": "Point", "coordinates": [ 8.6863809, 49.4061575 ] } },
{ "type": "Feature", "properties": { "index": "16", "@osmId": "node/252641522", "name": "Seegarten", "opening_hours": null, "label": "Tram & light-rail stops", "color": "#ef3b2c" }, "geometry": { "type": "Point", "coordinates": [ 8.691709, 49.4070936 ] } },
{ "type": "Feature", "properties": { "index": "17", "@osmId": "node/252643801", "name": "Kußmaulstraße", "opening_hours": null, "label": "Tram & light-rail stops", "color": "#ef3b2c" }, "geometry": { "type": "Point", "coordinates": [ 8.6906526, 49.4187633 ] } },
{ "type": "Feature", "properties": { "index": "18", "@osmId": "node/262249174", "name": "Montpellierbrücke", "opening_hours": null, "label": "Tram & light-rail stops", "color": "#ef3b2c" }, "geometry": { "type": "Point", "coordinates": [ 8.6783159, 49.4005061 ] } },
{ "type": "Feature", "properties": { "index": "19", "@osmId": "node/262249175", "name": "Montpellierbrücke", "opening_hours": null, "label": "Tram & light-rail stops", "color": "#ef3b2c" }, "geometry": { "type": "Point", "coordinates": [ 8.678611, 49.4006697 ] } },
{ "type": "Feature", "properties": { "index": "20", "@osmId": "node/267766008", "name": "Jahnstraße", "opening_hours": null, "label": "Tram & light-rail stops", "color": "#ef3b2c" }, "geometry": { "type": "Point", "coordinates": [ 8.6766081, 49.4129122 ] } },
{ "type": "Feature", "properties": { "index": "21", "@osmId": "node/267766025", "name": "Technologiepark", "opening_hours": null, "label": "Tram & light-rail stops", "color": "#ef3b2c" }, "geometry": { "type": "Point", "coordinates": [ 8.676258, 49.4192709 ] } },
{ "type": "Feature", "properties": { "index": "22", "@osmId": "node/267766039", "name": "Betriebshof", "opening_hours": null, "label": "Tram & light-rail stops", "color": "#ef3b2c" }, "geometry": { "type": "Point", "coordinates": [ 8.6759885, 49.4078954 ] } },
{ "type": "Feature", "properties": { "index": "23", "@osmId": "node/267766041", "name": "Römerkreis Süd", "opening_hours": null, "label": "Tram & light-rail stops", "color": "#ef3b2c" }, "geometry": { "type": "Point", "coordinates": [ 8.6846279, 49.4047241 ] } },
{ "type": "Feature", "properties": { "index": "24", "@osmId": "node/267766056", "name": "Christuskirche", "opening_hours": null, "label": "Tram & light-rail stops", "color": "#ef3b2c" }, "geometry": { "type": "Point", "coordinates": [ 8.6851066, 49.4017503 ] } },
{ "type": "Feature", "properties": { "index": "25", "@osmId": "node/269228291", "name": "Czernybrücke", "opening_hours": null, "label": "Tram & light-rail stops", "color": "#ef3b2c" }, "geometry": { "type": "Point", "coordinates": [ 8.6713623, 49.4068771 ] } },
{ "type": "Feature", "properties": { "index": "26", "@osmId": "node/293619791", "name": "Volkshochschule", "opening_hours": null, "label": "Tram & light-rail stops", "color": "#ef3b2c" }, "geometry": { "type": "Point", "coordinates": [ 8.6806013, 49.4078315 ] } },
{ "type": "Feature", "properties": { "index": "27", "@osmId": "node/639642931", "name": "S-Bf. Weststadt/Südstadt", "opening_hours": null, "label": "Tram & light-rail stops", "color": "#ef3b2c" }, "geometry": { "type": "Point", "coordinates": [ 8.6893414, 49.3984594 ] } },
{ "type": "Feature", "properties": { "index": "28", "@osmId": "node/1446890318", "name": "Bismarckplatz (Steig A)", "opening_hours": null, "label": "Tram & light-rail stops", "color": "#ef3b2c" }, "geometry": { "type": "Point", "coordinates": [ 8.6931593, 49.4097928 ] } },
{ "type": "Feature", "properties": { "index": "29", "@osmId": "node/1994178245", "name": "Römerkreis Süd", "opening_hours": null, "label": "Tram & light-rail stops", "color": "#ef3b2c" }, "geometry": { "type": "Point", "coordinates": [ 8.6846068, 49.4046512 ] } },
{ "type": "Feature", "properties": { "index": "30", "@osmId": "node/1994178366", "name": "Volkshochschule", "opening_hours": null, "label": "Tram & light-rail stops", "color": "#ef3b2c" }, "geometry": { "type": "Point", "coordinates": [ 8.6805997, 49.4078596 ] } },
{ "type": "Feature", "properties": { "index": "31", "@osmId": "node/1995270923", "name": "Blumenthalstraße", "opening_hours": null, "label": "Tram & light-rail stops", "color": "#ef3b2c" }, "geometry": { "type": "Point", "coordinates": [ 8.6891933, 49.4214391 ] } },
{ "type": "Feature", "properties": { "index": "32", "@osmId": "node/1995270953", "name": "Brückenstraße", "opening_hours": null, "label": "Tram & light-rail stops", "color": "#ef3b2c" }, "geometry": { "type": "Point", "coordinates": [ 8.6920906, 49.415436 ] } },
{ "type": "Feature", "properties": { "index": "33", "@osmId": "node/1995271004", "name": "Kußmaulstraße", "opening_hours": null, "label": "Tram & light-rail stops", "color": "#ef3b2c" }, "geometry": { "type": "Point", "coordinates": [ 8.6906225, 49.4187734 ] } },
{ "type": "Feature", "properties": { "index": "34", "@osmId": "node/1995349051", "name": "Technologiepark", "opening_hours": null, "label": "Tram & light-rail stops", "color": "#ef3b2c" }, "geometry": { "type": "Point", "coordinates": [ 8.6762216, 49.418978 ] } },
{ "type": "Feature", "properties": { "index": "35", "@osmId": "node/1995364991", "name": "Czernybrücke", "opening_hours": null, "label": "Tram & light-rail stops", "color": "#ef3b2c" }, "geometry": { "type": "Point", "coordinates": [ 8.671346, 49.4069024 ] } },
{ "type": "Feature", "properties": { "index": "36", "@osmId": "node/2050548818", "name": "Bismarckplatz (Steig B)", "opening_hours": null, "label": "Tram & light-rail stops", "color": "#ef3b2c" }, "geometry": { "type": "Point", "coordinates": [ 8.6929734, 49.4095374 ] } },
{ "type": "Feature", "properties": { "index": "37", "@osmId": "node/2819403566", "name": "Bunsengymnasium", "opening_hours": null, "label": "Tram & light-rail stops", "color": "#ef3b2c" }, "geometry": { "type": "Point", "coordinates": [ 8.6763152, 49.4165698 ] } },
{ "type": "Feature", "properties": { "index": "38", "@osmId": "node/2819403567", "name": "Bunsengymnasium", "opening_hours": null, "label": "Tram & light-rail stops", "color": "#ef3b2c" }, "geometry": { "type": "Point", "coordinates": [ 8.6763264, 49.4174281 ] } },
{ "type": "Feature", "properties": { "index": "39", "@osmId": "node/3152018631", "name": "Kußmaulstraße", "opening_hours": null, "label": "Tram & light-rail stops", "color": "#ef3b2c" }, "geometry": { "type": "Point", "coordinates": [ 8.6906588, 49.4187871 ] } },
{ "type": "Feature", "properties": { "index": "40", "@osmId": "node/3265385974", "name": "Altes Hallenbad", "opening_hours": null, "label": "Tram & light-rail stops", "color": "#ef3b2c" }, "geometry": { "type": "Point", "coordinates": [ 8.6883863, 49.4084184 ] } },
{ "type": "Feature", "properties": { "index": "41", "@osmId": "node/3265385984", "name": "Czernybrücke", "opening_hours": null, "label": "Tram & light-rail stops", "color": "#ef3b2c" }, "geometry": { "type": "Point", "coordinates": [ 8.6713859, 49.4068967 ] } },
{ "type": "Feature", "properties": { "index": "42", "@osmId": "node/3265385995", "name": "Römerkreis Süd", "opening_hours": null, "label": "Tram & light-rail stops", "color": "#ef3b2c" }, "geometry": { "type": "Point", "coordinates": [ 8.6846607, 49.4046127 ] } },
{ "type": "Feature", "properties": { "index": "43", "@osmId": "node/3265386001", "name": "Volkshochschule", "opening_hours": null, "label": "Tram & light-rail stops", "color": "#ef3b2c" }, "geometry": { "type": "Point", "coordinates": [ 8.680577, 49.4078463 ] } },
{ "type": "Feature", "properties": { "index": "44", "@osmId": "node/3338557762", "name": "Blumenthalstraße", "opening_hours": null, "label": "Tram & light-rail stops", "color": "#ef3b2c" }, "geometry": { "type": "Point", "coordinates": [ 8.689127, 49.4215275 ] } },
{ "type": "Feature", "properties": { "index": "45", "@osmId": "node/5290673242", "name": "Gadamerplatz", "opening_hours": null, "label": "Tram & light-rail stops", "color": "#ef3b2c" }, "geometry": { "type": "Point", "coordinates": [ 8.6684037, 49.4041868 ] } },
{ "type": "Feature", "properties": { "index": "46", "@osmId": "node/5771123711", "name": "Heidelberg Hauptbahnhof West", "opening_hours": null, "label": "Tram & light-rail stops", "color": "#ef3b2c" }, "geometry": { "type": "Point", "coordinates": [ 8.6737926, 49.4052001 ] } },
{ "type": "Feature", "properties": { "index": "47", "@osmId": "node/6127351233", "name": "Gadamerplatz", "opening_hours": null, "label": "Tram & light-rail stops", "color": "#ef3b2c" }, "geometry": { "type": "Point", "coordinates": [ 8.6682373, 49.4034162 ] } },
{ "type": "Feature", "properties": { "index": "48", "@osmId": "node/6127351234", "name": "Gadamerplatz", "opening_hours": null, "label": "Tram & light-rail stops", "color": "#ef3b2c" }, "geometry": { "type": "Point", "coordinates": [ 8.6685995, 49.4033068 ] } },
{ "type": "Feature", "properties": { "index": "49", "@osmId": "node/6127351235", "name": "Heidelberg Hauptbahnhof Süd", "opening_hours": null, "label": "Tram & light-rail stops", "color": "#ef3b2c" }, "geometry": { "type": "Point", "coordinates": [ 8.6740118, 49.401918 ] } },
{ "type": "Feature", "properties": { "index": "50", "@osmId": "node/6127351323", "name": "Heidelberg Hauptbahnhof Süd", "opening_hours": null, "label": "Tram & light-rail stops", "color": "#ef3b2c" }, "geometry": { "type": "Point", "coordinates": [ 8.6740118, 49.4018854 ] } },
{ "type": "Feature", "properties": { "index": "51", "@osmId": "node/6779583616", "name": "Heidelberg Hauptbahnhof", "opening_hours": null, "label": "Tram & light-rail stops", "color": "#ef3b2c" }, "geometry": { "type": "Point", "coordinates": [ 8.6761107, 49.4048051 ] } },
{ "type": "Feature", "properties": { "index": "52", "@osmId": "node/6792277306", "name": "Heidelberg Hauptbahnhof, B", "opening_hours": null, "label": "Tram & light-rail stops", "color": "#ef3b2c" }, "geometry": { "type": "Point", "coordinates": [ 8.67651, 49.4046347 ] } },
{ "type": "Feature", "properties": { "index": "53", "@osmId": "node/6792277309", "name": "Heidelberg Hauptbahnhof, E", "opening_hours": null, "label": "Tram & light-rail stops", "color": "#ef3b2c" }, "geometry": { "type": "Point", "coordinates": [ 8.6757202, 49.4049779 ] } },
{ "type": "Feature", "properties": { "index": "54", "@osmId": "node/8305369043", "name": "Gadamerplatz", "opening_hours": null, "label": "Tram & light-rail stops", "color": "#ef3b2c" }, "geometry": { "type": "Point", "coordinates": [ 8.6679982, 49.403887 ] } },
{ "type": "Feature", "properties": { "index": "55", "@osmId": "node/8806654689", "name": "Blumenthalstraße", "opening_hours": null, "label": "Tram & light-rail stops", "color": "#ef3b2c" }, "geometry": { "type": "Point", "coordinates": [ 8.6890281, 49.4218652 ] } },
{ "type": "Feature", "properties": { "index": "56", "@osmId": "node/9801404591", "name": "Brückenstraße", "opening_hours": null, "label": "Tram & light-rail stops", "color": "#ef3b2c" }, "geometry": { "type": "Point", "coordinates": [ 8.6921213, 49.4157284 ] } }
]
}
