{
"type": "FeatureCollection",
"features": [
{ "type": "Feature", "properties": { "index": "57", "@osmId": "way/321018184", "name": "Alte Brücke", "opening_hours": null, "label": "Bus stops", "color": "#4292c6" }, "geometry": { "type": "Point", "coordinates": [ 8.7086199, 49.4133846 ] } },
{ "type": "Feature", "properties": { "index": "58", "@osmId": "way/321018189", "name": "Stadthalle", "opening_hours": null, "label": "Bus stops", "color": "#4292c6" }, "geometry": { "type": "Point", "coordinates": [ 8.7027846, 49.4129301 ] } },
{ "type": "Feature", "properties": { "index": "59", "@osmId": "way/321018191", "name": "Marstallstraße", "opening_hours": null, "label": "Bus stops", "color": "#4292c6" }, "geometry": { "type": "Point", "coordinates": [ 8.7055901, 49.4132281 ] } },
{ "type": "Feature", "properties": { "index": "60", "@osmId": "way/321018195", "name": "Peterskirche", "opening_hours": null, "label": "Bus stops", "color": "#4292c6" }, "geometry": { "type": "Point", "coordinates": [ 8.705394, 49.4088745 ] } },
{ "type": "Feature", "properties": { "index": "61", "@osmId": "way/321018196", "name": "Peterskirche", "opening_hours": null, "label": "Bus stops", "color": "#4292c6" }, "geometry": { "type": "Point", "coordinates": [ 8.7053114, 49.4090408 ] } },
{ "type": "Feature", "properties": { "index": "62", "@osmId": "way/321089239", "name": "Stadthalle", "opening_hours": null, "label": "Bus stops", "color": "#4292c6" }, "geometry": { "type": "Point", "coordinates": [ 8.7016201, 49.4126316 ] } },
{ "type": "Feature", "properties": { "index": "63", "@osmId": "way/107884526", "name": "Stadtwerke", "opening_hours": null, "label": "Bus stops", "color": "#4292c6" }, "geometry": { "type": "Point", "coordinates": [ 8.6817453, 49.4050126 ] } },
{ "type": "Feature", "properties": { "index": "64", "@osmId": "way/107884535", "name": "Stadtbücherei", "opening_hours": null, "label": "Bus stops", "color": "#4292c6" }, "geometry": { "type": "Point", "coordinates": [ 8.6864236, 49.4061297 ] } },
{ "type": "Feature", "properties": { "index": "65", "@osmId": "way/107884537", "name": "Stadtbücherei", "opening_hours": null, "label": "Bus stops", "color": "#4292c6" }, "geometry": { "type": "Point", "coordinates": [ 8.6863472, 49.4061849 ] } },
{ "type": "Feature", "properties": { "index": "66", "@osmId": "way/107884543", "name": "Seegarten", "opening_hours": null, "label": "Bus stops", "color": "#4292c6" }, "geometry": { "type": "Point", "coordinates": [ 8.6918105, 49.4070612 ] } },
{ "type": "Feature", "properties": { "index": "67", "@osmId": "way/119364929", "name": "Brückenstraße", "opening_hours": null, "label": "Bus stops", "color": "#4292c6" }, "geometry": { "type": "Point", "coordinates": [ 8.6920417, 49.4156241 ] } },
{ "type": "Feature", "properties": { "index": "68", "@osmId": "way/243245707", "name": "Seegarten", "opening_hours": null, "label": "Bus stops", "color": "#4292c6" }, "geometry": { "type": "Point", "coordinates": [ 8.690207, 49.4069498 ] } },
{ "type": "Feature", "properties": { "index": "69", "@osmId": "way/320034097", "name": "Bismarckplatz", "opening_hours": null, "label": "Bus stops", "color": "#4292c6" }, "geometry": { "type": "Point", "coordinates": [ 8.6933043, 49.4095802 ] } },
{ "type": "Feature", "properties": { "index": "70", "@osmId": "way/320034098", "name": "Bismarckplatz", "opening_hours": null, "label": "Bus stops", "color": "#4292c6" }, "geometry": { "type": "Point", "coordinates": [ 8.692828, 49.4098302 ] } },
{ "type": "Feature", "properties": { "index": "71", "@osmId": "way/320034104", "name": "Friedrich-Ebert-Platz", "opening_hours": null, "label": "Bus stops", "color": "#4292c6" }, "geometry": { "type": "Point", "coordinates": [ 8.6999604, 49.4080745 ] } },
{ "type": "Feature", "properties": { "index": "72", "@osmId": "way/320034106", "name": "Gaisbergstraße", "opening_hours": null, "label": "Bus stops", "color": "#4292c6" }, "geometry": { "type": "Point", "coordinates": [ 8.6934675, 49.4068757 ] } },
{ "type": "Feature", "properties": { "index": "73", "@osmId": "way/107884480", "name": "Betriebshof", "opening_hours": null, "label": "Bus stops", "color": "#4292c6" }, "geometry": { "type": "Point", "coordinates": [ 8.6760508, 49.4079318 ] } },
{ "type": "Feature", "properties": { "index": "74", "@osmId": "way/107884484", "name": "Betriebshof", "opening_hours": null, "label": "Bus stops", "color": "#4292c6" }, "geometry": { "type": "Point", "coordinates": [ 8.6760574, 49.4078508 ] } },
{ "type": "Feature", "properties": { "index": "75", "@osmId": "way/246395893", "name": "Technologiepark", "opening_hours": null, "label": "Bus stops", "color": "#4292c6" }, "geometry": { "type": "Point", "coordinates": [ 8.6763349, 49.4191792 ] } },
{ "type": "Feature", "properties": { "index": "76", "@osmId": "way/320034109", "name": "Heidelberg Hauptbahnhof", "opening_hours": null, "label": "Bus stops", "color": "#4292c6" }, "geometry": { "type": "Point", "coordinates": [ 8.6767081, 49.4043349 ] } },
{ "type": "Feature", "properties": { "index": "77", "@osmId": "way/323703360", "name": "Heidelberg Hauptbahnhof Süd", "opening_hours": null, "label": "Bus stops", "color": "#4292c6" }, "geometry": { "type": "Point", "coordinates": [ 8.6725151, 49.4014039 ] } },
{ "type": "Feature", "properties": { "index": "78", "@osmId": "way/721164933", "name": "Heidelberg Hauptbahnhof", "opening_hours": null, "label": "Bus stops", "color": "#4292c6" }, "geometry": { "type": "Point", "coordinates": [ 8.6761517, 49.404868 ] } },
{ "type": "Feature", "properties": { "index": "79", "@osmId": "way/722759670", "name": "Heidelberg Hauptbahnhof", "opening_hours": null, "label": "Bus stops", "color": "#4292c6" }, "geometry": { "type": "Point", "coordinates": [ 8.6761052, 49.4047675 ] } },
{ "type": "Feature", "properties": { "index": "80", "@osmId": "way/722759671", "name": "Heidelberg Hauptbahnhof", "opening_hours": null, "label": "Bus stops", "color": "#4292c6" }, "geometry": { "type": "Point", "coordinates": [ 8.6761388, 49.4048447 ] } },
{ "type": "Feature", "properties": { "index": "81", "@osmId": "way/1065521177", "name": "Maria-Mitchell-Str.", "opening_hours": null, "label": "Bus stops", "color": "#4292c6" }, "geometry": { "type": "Point", "coordinates": [ 8.6703402, 49.4043315 ] } },
{ "type": "Feature", "properties": { "index": "82", "@osmId": "way/1219558878", "name": null, "opening_hours": null, "label": "Bus stops", "color": "#4292c6" }, "geometry": { "type": "Point", "coordinates": [ 8.6678672, 49.4052675 ] } },
{ "type": "Feature", "properties": { "index": "83", "@osmId": "way/1312888538", "name": "HD Hauptbahnhof Süd", "opening_hours": null, "label": "Bus stops", "color": "#4292c6" }, "geometry": { "type": "Point", "coordinates": [ 8.6729735, 49.4018997 ] } },
{ "type": "Feature", "properties": { "index": "84", "@osmId": "way/1528624079", "name": null, "opening_hours": null, "label": "Bus stops", "color": "#4292c6" }, "geometry": { "type": "Point", "coordinates": [ 8.673584, 49.4023544 ] } },
{ "type": "Feature", "properties": { "index": "85", "@osmId": "node/107479229", "name": "Bunsengymnasium", "opening_hours": null, "label": "Bus stops", "color": "#4292c6" }, "geometry": { "type": "Point", "coordinates": [ 8.6756639, 49.4168625 ] } },
{ "type": "Feature", "properties": { "index": "86", "@osmId": "node/274092714", "name": "Bunsengymnasium", "opening_hours": null, "label": "Bus stops", "color": "#4292c6" }, "geometry": { "type": "Point", "coordinates": [ 8.6768373, 49.4168763 ] } },
{ "type": "Feature", "properties": { "index": "87", "@osmId": "node/274248593", "name": "Jahnstraße", "opening_hours": null, "label": "Bus stops", "color": "#4292c6" }, "geometry": { "type": "Point", "coordinates": [ 8.6759075, 49.4127267 ] } },
{ "type": "Feature", "properties": { "index": "88", "@osmId": "node/274827464", "name": "Pädagogische Hochschule", "opening_hours": null, "label": "Bus stops", "color": "#4292c6" }, "geometry": { "type": "Point", "coordinates": [ 8.6698006, 49.419498 ] } },
{ "type": "Feature", "properties": { "index": "89", "@osmId": "node/276109572", "name": "Kopfklinik", "opening_hours": null, "label": "Bus stops", "color": "#4292c6" }, "geometry": { "type": "Point", "coordinates": [ 8.6668931, 49.4191883 ] } },
{ "type": "Feature", "properties": { "index": "90", "@osmId": "node/276109583", "name": "Kopfklinik", "opening_hours": null, "label": "Bus stops", "color": "#4292c6" }, "geometry": { "type": "Point", "coordinates": [ 8.6671927, 49.4190191 ] } },
{ "type": "Feature", "properties": { "index": "91", "@osmId": "node/277757594", "name": "Technologiepark", "opening_hours": null, "label": "Bus stops", "color": "#4292c6" }, "geometry": { "type": "Point", "coordinates": [ 8.6754058, 49.4195175 ] } },
{ "type": "Feature", "properties": { "index": "92", "@osmId": "node/278687512", "name": "Pädagogische Hochschule", "opening_hours": null, "label": "Bus stops", "color": "#4292c6" }, "geometry": { "type": "Point", "coordinates": [ 8.6698926, 49.4194276 ] } },
{ "type": "Feature", "properties": { "index": "93", "@osmId": "node/278689992", "name": "Jugendherberge", "opening_hours": null, "label": "Bus stops", "color": "#4292c6" }, "geometry": { "type": "Point", "coordinates": [ 8.661164, 49.4172938 ] } },
{ "type": "Feature", "properties": { "index": "94", "@osmId": "node/278689993", "name": "Jugendherberge", "opening_hours": null, "label": "Bus stops", "color": "#4292c6" }, "geometry": { "type": "Point", "coordinates": [ 8.6610628, 49.4172721 ] } },
{ "type": "Feature", "properties": { "index": "95", "@osmId": "node/278730268", "name": "Studentenwohnheim", "opening_hours": null, "label": "Bus stops", "color": "#4292c6" }, "geometry": { "type": "Point", "coordinates": [ 8.6631354, 49.4187635 ] } },
{ "type": "Feature", "properties": { "index": "96", "@osmId": "node/278730270", "name": "Studentenwohnheim", "opening_hours": null, "label": "Bus stops", "color": "#4292c6" }, "geometry": { "type": "Point", "coordinates": [ 8.6627535, 49.4187979 ] } },
{ "type": "Feature", "properties": { "index": "97", "@osmId": "node/282209495", "name": "Bunsengymnasium", "opening_hours": null, "label": "Bus stops", "color": "#4292c6" }, "geometry": { "type": "Point", "coordinates": [ 8.6767755, 49.417056 ] } },
{ "type": "Feature", "properties": { "index": "98", "@osmId": "node/283234178", "name": "Campus Im Neuenheimer Feld", "opening_hours": null, "label": "Bus stops", "color": "#4292c6" }, "geometry": { "type": "Point", "coordinates": [ 8.6701162, 49.4134695 ] } },
{ "type": "Feature", "properties": { "index": "99", "@osmId": "node/283544935", "name": "Jahnstraße", "opening_hours": null, "label": "Bus stops", "color": "#4292c6" }, "geometry": { "type": "Point", "coordinates": [ 8.6753927, 49.4129744 ] } },
{ "type": "Feature", "properties": { "index": "100", "@osmId": "node/283552744", "name": "Campus Im Neuenheimer Feld", "opening_hours": null, "label": "Bus stops", "color": "#4292c6" }, "geometry": { "type": "Point", "coordinates": [ 8.6704361, 49.4133468 ] } },
{ "type": "Feature", "properties": { "index": "101", "@osmId": "node/283552747", "name": "Medizinische Klinik/Chirurgie/Zoo", "opening_hours": null, "label": "Bus stops", "color": "#4292c6" }, "geometry": { "type": "Point", "coordinates": [ 8.6655363, 49.4148543 ] } },
{ "type": "Feature", "properties": { "index": "102", "@osmId": "node/283552748", "name": "Medizinische Klinik/Chirurgie/Zoo", "opening_hours": null, "label": "Bus stops", "color": "#4292c6" }, "geometry": { "type": "Point", "coordinates": [ 8.6663105, 49.4145691 ] } },
{ "type": "Feature", "properties": { "index": "103", "@osmId": "node/283552749", "name": null, "opening_hours": null, "label": "Bus stops", "color": "#4292c6" }, "geometry": { "type": "Point", "coordinates": [ 8.6752144, 49.4152208 ] } },
{ "type": "Feature", "properties": { "index": "104", "@osmId": "node/283552750", "name": "Kirschnerstraße", "opening_hours": null, "label": "Bus stops", "color": "#4292c6" }, "geometry": { "type": "Point", "coordinates": [ 8.6734387, 49.4137552 ] } },
{ "type": "Feature", "properties": { "index": "105", "@osmId": "node/283552751", "name": "Kirschnerstraße", "opening_hours": null, "label": "Bus stops", "color": "#4292c6" }, "geometry": { "type": "Point", "coordinates": [ 8.6737185, 49.4136575 ] } },
{ "type": "Feature", "properties": { "index": "106", "@osmId": "node/283554155", "name": "Zoo", "opening_hours": null, "label": "Bus stops", "color": "#4292c6" }, "geometry": { "type": "Point", "coordinates": [ 8.6635301, 49.4152068 ] } },
{ "type": "Feature", "properties": { "index": "107", "@osmId": "node/297353579", "name": "Hirschgasse", "opening_hours": null, "label": "Bus stops", "color": "#4292c6" }, "geometry": { "type": "Point", "coordinates": [ 8.7159505, 49.4159882 ] } },
{ "type": "Feature", "properties": { "index": "108", "@osmId": "node/297489765", "name": "Alte Brücke Nord", "opening_hours": null, "label": "Bus stops", "color": "#4292c6" }, "geometry": { "type": "Point", "coordinates": [ 8.708932, 49.4152724 ] } },
{ "type": "Feature", "properties": { "index": "109", "@osmId": "node/297489766", "name": "Alte Brücke Nord", "opening_hours": null, "label": "Bus stops", "color": "#4292c6" }, "geometry": { "type": "Point", "coordinates": [ 8.7091544, 49.4152263 ] } },
{ "type": "Feature", "properties": { "index": "110", "@osmId": "node/298040971", "name": "Hirschgasse", "opening_hours": null, "label": "Bus stops", "color": "#4292c6" }, "geometry": { "type": "Point", "coordinates": [ 8.7168545, 49.4161997 ] } },
{ "type": "Feature", "properties": { "index": "111", "@osmId": "node/300751566", "name": "Alte Brücke", "opening_hours": null, "label": "Bus stops", "color": "#4292c6" }, "geometry": { "type": "Point", "coordinates": [ 8.7108, 49.4136759 ] } },
{ "type": "Feature", "properties": { "index": "112", "@osmId": "node/300751568", "name": "Neckarmünzplatz", "opening_hours": null, "label": "Bus stops", "color": "#4292c6" }, "geometry": { "type": "Point", "coordinates": [ 8.7131886, 49.413716 ] } },
{ "type": "Feature", "properties": { "index": "113", "@osmId": "node/303222540", "name": "Alois-Link-Platz", "opening_hours": null, "label": "Bus stops", "color": "#4292c6" }, "geometry": { "type": "Point", "coordinates": [ 8.6912464, 49.3999244 ] } },
{ "type": "Feature", "properties": { "index": "114", "@osmId": "node/303222541", "name": "Alois-Link-Platz", "opening_hours": null, "label": "Bus stops", "color": "#4292c6" }, "geometry": { "type": "Point", "coordinates": [ 8.6911005, 49.4002825 ] } },
{ "type": "Feature", "properties": { "index": "115", "@osmId": "node/307006490", "name": "Gneisenaustraße", "opening_hours": null, "label": "Bus stops", "color": "#4292c6" }, "geometry": { "type": "Point", "coordinates": [ 8.6685941, 49.4092508 ] } },
{ "type": "Feature", "properties": { "index": "116", "@osmId": "node/308850814", "name": "Neckarspitze", "opening_hours": null, "label": "Bus stops", "color": "#4292c6" }, "geometry": { "type": "Point", "coordinates": [ 8.6639042, 49.4100572 ] } },
{ "type": "Feature", "properties": { "index": "117", "@osmId": "node/308850815", "name": "Neckarspitze", "opening_hours": null, "label": "Bus stops", "color": "#4292c6" }, "geometry": { "type": "Point", "coordinates": [ 8.6645773, 49.4098198 ] } },
{ "type": "Feature", "properties": { "index": "118", "@osmId": "node/308850816", "name": "Gneisenaustraße", "opening_hours": null, "label": "Bus stops", "color": "#4292c6" }, "geometry": { "type": "Point", "coordinates": [ 8.667691, 49.4085717 ] } },
{ "type": "Feature", "properties": { "index": "119", "@osmId": "node/309414394", "name": "Heidelberg Hauptbahnhof (Steig L)", "opening_hours": null, "label": "Bus stops", "color": "#4292c6" }, "geometry": { "type": "Point", "coordinates": [ 8.6769361, 49.4043518 ] } },
{ "type": "Feature", "properties": { "index": "120", "@osmId": "node/309414400", "name": "Heidelberg Hauptbahnhof (Steig P)", "opening_hours": null, "label": "Bus stops", "color": "#4292c6" }, "geometry": { "type": "Point", "coordinates": [ 8.6779356, 49.404146 ] } },
{ "type": "Feature", "properties": { "index": "121", "@osmId": "node/309414403", "name": "Heidelberg Hauptbahnhof (Steig Q)", "opening_hours": null, "label": "Bus stops", "color": "#4292c6" }, "geometry": { "type": "Point", "coordinates": [ 8.6782558, 49.4042065 ] } },
{ "type": "Feature", "properties": { "index": "122", "@osmId": "node/309414412", "name": "Betriebshof", "opening_hours": null, "label": "Bus stops", "color": "#4292c6" }, "geometry": { "type": "Point", "coordinates": [ 8.6747206, 49.4075859 ] } },
{ "type": "Feature", "properties": { "index": "123", "@osmId": "node/309414415", "name": "Betriebshof", "opening_hours": null, "label": "Bus stops", "color": "#4292c6" }, "geometry": { "type": "Point", "coordinates": [ 8.6761474, 49.4078525 ] } },
{ "type": "Feature", "properties": { "index": "124", "@osmId": "node/309414417", "name": "Betriebshof", "opening_hours": null, "label": "Bus stops", "color": "#4292c6" }, "geometry": { "type": "Point", "coordinates": [ 8.6756934, 49.4079294 ] } },
{ "type": "Feature", "properties": { "index": "125", "@osmId": "node/309419593", "name": "Volkshochschule", "opening_hours": null, "label": "Bus stops", "color": "#4292c6" }, "geometry": { "type": "Point", "coordinates": [ 8.6806746, 49.4078028 ] } },
{ "type": "Feature", "properties": { "index": "126", "@osmId": "node/309419594", "name": "Volkshochschule", "opening_hours": null, "label": "Bus stops", "color": "#4292c6" }, "geometry": { "type": "Point", "coordinates": [ 8.6805181, 49.4078767 ] } },
{ "type": "Feature", "properties": { "index": "127", "@osmId": "node/309421885", "name": "Altes Hallenbad", "opening_hours": null, "label": "Bus stops", "color": "#4292c6" }, "geometry": { "type": "Point", "coordinates": [ 8.6884254, 49.408405 ] } },
{ "type": "Feature", "properties": { "index": "128", "@osmId": "node/309428989", "name": "Bismarckplatz", "opening_hours": null, "label": "Bus stops", "color": "#4292c6" }, "geometry": { "type": "Point", "coordinates": [ 8.6928995, 49.4101809 ] } },
{ "type": "Feature", "properties": { "index": "129", "@osmId": "node/309428992", "name": "Bismarckplatz", "opening_hours": null, "label": "Bus stops", "color": "#4292c6" }, "geometry": { "type": "Point", "coordinates": [ 8.6928532, 49.4099846 ] } },
{ "type": "Feature", "properties": { "index": "130", "@osmId": "node/309428995", "name": "Bismarckplatz", "opening_hours": null, "label": "Bus stops", "color": "#4292c6" }, "geometry": { "type": "Point", "coordinates": [ 8.6932968, 49.4095744 ] } },
{ "type": "Feature", "properties": { "index": "131", "@osmId": "node/309428997", "name": "Bismarckplatz", "opening_hours": null, "label": "Bus stops", "color": "#4292c6" }, "geometry": { "type": "Point", "coordinates": [ 8.6931627, 49.4093461 ] } },
{ "type": "Feature", "properties": { "index": "132", "@osmId": "node/309428998", "name": "Bismarckplatz", "opening_hours": null, "label": "Bus stops", "color": "#4292c6" }, "geometry": { "type": "Point", "coordinates": [ 8.6929959, 49.4092112 ] } },
{ "type": "Feature", "properties": { "index": "133", "@osmId": "node/309429000", "name": "Bismarckplatz", "opening_hours": null, "label": "Bus stops", "color": "#4292c6" }, "geometry": { "type": "Point", "coordinates": [ 8.6927592, 49.4090525 ] } },
{ "type": "Feature", "properties": { "index": "134", "@osmId": "node/312655153", "name": "Universitätsplatz", "opening_hours": null, "label": "Bus stops", "color": "#4292c6" }, "geometry": { "type": "Point", "coordinates": [ 8.7057655, 49.4111209 ] } },
{ "type": "Feature", "properties": { "index": "135", "@osmId": "node/313843360", "name": "Wielandtstraße", "opening_hours": null, "label": "Bus stops", "color": "#4292c6" }, "geometry": { "type": "Point", "coordinates": [ 8.6816986, 49.4173023 ] } },
{ "type": "Feature", "properties": { "index": "136", "@osmId": "node/313843361", "name": "Wielandtstraße", "opening_hours": null, "label": "Bus stops", "color": "#4292c6" }, "geometry": { "type": "Point", "coordinates": [ 8.6820724, 49.4174607 ] } },
{ "type": "Feature", "properties": { "index": "137", "@osmId": "node/313843492", "name": "Marstallstraße", "opening_hours": null, "label": "Bus stops", "color": "#4292c6" }, "geometry": { "type": "Point", "coordinates": [ 8.7053701, 49.4130422 ] } },
{ "type": "Feature", "properties": { "index": "138", "@osmId": "node/313843494", "name": "Marstallstraße", "opening_hours": null, "label": "Bus stops", "color": "#4292c6" }, "geometry": { "type": "Point", "coordinates": [ 8.7058799, 49.4133722 ] } },
{ "type": "Feature", "properties": { "index": "139", "@osmId": "node/313845045", "name": "Lutherstraße", "opening_hours": null, "label": "Bus stops", "color": "#4292c6" }, "geometry": { "type": "Point", "coordinates": [ 8.6908888, 49.4173515 ] } },
{ "type": "Feature", "properties": { "index": "140", "@osmId": "node/313845046", "name": "Lutherstraße", "opening_hours": null, "label": "Bus stops", "color": "#4292c6" }, "geometry": { "type": "Point", "coordinates": [ 8.6912051, 49.4171632 ] } },
{ "type": "Feature", "properties": { "index": "141", "@osmId": "node/317569178", "name": "Jubiläumsplatz", "opening_hours": null, "label": "Bus stops", "color": "#4292c6" }, "geometry": { "type": "Point", "coordinates": [ 8.6972359, 49.4119771 ] } },
{ "type": "Feature", "properties": { "index": "142", "@osmId": "node/317569183", "name": "Jubiläumsplatz", "opening_hours": null, "label": "Bus stops", "color": "#4292c6" }, "geometry": { "type": "Point", "coordinates": [ 8.697206, 49.4120763 ] } },
{ "type": "Feature", "properties": { "index": "143", "@osmId": "node/317569186", "name": "Stadtwerke", "opening_hours": null, "label": "Bus stops", "color": "#4292c6" }, "geometry": { "type": "Point", "coordinates": [ 8.6828676, 49.4055633 ] } },
{ "type": "Feature", "properties": { "index": "144", "@osmId": "node/317569189", "name": "Stadtwerke", "opening_hours": null, "label": "Bus stops", "color": "#4292c6" }, "geometry": { "type": "Point", "coordinates": [ 8.6822752, 49.4050333 ] } },
{ "type": "Feature", "properties": { "index": "145", "@osmId": "node/317571767", "name": "Peterskirche", "opening_hours": null, "label": "Bus stops", "color": "#4292c6" }, "geometry": { "type": "Point", "coordinates": [ 8.7054522, 49.409072 ] } },
{ "type": "Feature", "properties": { "index": "146", "@osmId": "node/317571769", "name": "Friedrich-Ebert-Platz", "opening_hours": null, "label": "Bus stops", "color": "#4292c6" }, "geometry": { "type": "Point", "coordinates": [ 8.6986037, 49.4084064 ] } },
{ "type": "Feature", "properties": { "index": "147", "@osmId": "node/317575971", "name": "Bergstraße", "opening_hours": null, "label": "Bus stops", "color": "#4292c6" }, "geometry": { "type": "Point", "coordinates": [ 8.6943285, 49.4137668 ] } },
{ "type": "Feature", "properties": { "index": "148", "@osmId": "node/323191863", "name": "Seegarten", "opening_hours": null, "label": "Bus stops", "color": "#4292c6" }, "geometry": { "type": "Point", "coordinates": [ 8.6900774, 49.4069337 ] } },
{ "type": "Feature", "properties": { "index": "149", "@osmId": "node/323191866", "name": "Gaisbergstraße", "opening_hours": null, "label": "Bus stops", "color": "#4292c6" }, "geometry": { "type": "Point", "coordinates": [ 8.6934775, 49.4068742 ] } },
{ "type": "Feature", "properties": { "index": "150", "@osmId": "node/323191871", "name": "Peterskirche", "opening_hours": null, "label": "Bus stops", "color": "#4292c6" }, "geometry": { "type": "Point", "coordinates": [ 8.7053904, 49.4088905 ] } },
{ "type": "Feature", "properties": { "index": "151", "@osmId": "node/323191875", "name": "Oberer Fauler Pelz", "opening_hours": null, "label": "Bus stops", "color": "#4292c6" }, "geometry": { "type": "Point", "coordinates": [ 8.7080457, 49.4092125 ] } },
{ "type": "Feature", "properties": { "index": "152", "@osmId": "node/323191877", "name": "Oberer Fauler Pelz", "opening_hours": null, "label": "Bus stops", "color": "#4292c6" }, "geometry": { "type": "Point", "coordinates": [ 8.7093183, 49.4096121 ] } },
{ "type": "Feature", "properties": { "index": "153", "@osmId": "node/323269977", "name": "Herrenmühle", "opening_hours": null, "label": "Bus stops", "color": "#4292c6" }, "geometry": { "type": "Point", "coordinates": [ 8.7167012, 49.4136898 ] } },
{ "type": "Feature", "properties": { "index": "154", "@osmId": "node/323269980", "name": "Karlsplatz", "opening_hours": null, "label": "Bus stops", "color": "#4292c6" }, "geometry": { "type": "Point", "coordinates": [ 8.7128024, 49.4124456 ] } },
{ "type": "Feature", "properties": { "index": "155", "@osmId": "node/323269983", "name": "Rathaus/Bergbahn", "opening_hours": null, "label": "Bus stops", "color": "#4292c6" }, "geometry": { "type": "Point", "coordinates": [ 8.7119309, 49.4114089 ] } },
{ "type": "Feature", "properties": { "index": "156", "@osmId": "node/323269987", "name": "Rathaus/Bergbahn", "opening_hours": null, "label": "Bus stops", "color": "#4292c6" }, "geometry": { "type": "Point", "coordinates": [ 8.7114111, 49.4112175 ] } },
{ "type": "Feature", "properties": { "index": "157", "@osmId": "node/323814337", "name": "Friedrich-Ebert-Platz", "opening_hours": null, "label": "Bus stops", "color": "#4292c6" }, "geometry": { "type": "Point", "coordinates": [ 8.6999304, 49.4080587 ] } },
{ "type": "Feature", "properties": { "index": "158", "@osmId": "node/325839689", "name": "Czernybrücke", "opening_hours": null, "label": "Bus stops", "color": "#4292c6" }, "geometry": { "type": "Point", "coordinates": [ 8.6712204, 49.4067817 ] } },
{ "type": "Feature", "properties": { "index": "159", "@osmId": "node/336248904", "name": "Hans-Böckler-Straße", "opening_hours": null, "label": "Bus stops", "color": "#4292c6" }, "geometry": { "type": "Point", "coordinates": [ 8.6926553, 49.4054462 ] } },
{ "type": "Feature", "properties": { "index": "160", "@osmId": "node/336248905", "name": "Hans-Böckler-Straße", "opening_hours": null, "label": "Bus stops", "color": "#4292c6" }, "geometry": { "type": "Point", "coordinates": [ 8.6925319, 49.4055795 ] } },
{ "type": "Feature", "properties": { "index": "161", "@osmId": "node/336248907", "name": "Kaiserstraße", "opening_hours": null, "label": "Bus stops", "color": "#4292c6" }, "geometry": { "type": "Point", "coordinates": [ 8.6915578, 49.4020509 ] } },
{ "type": "Feature", "properties": { "index": "162", "@osmId": "node/336248908", "name": "Kaiserstraße", "opening_hours": null, "label": "Bus stops", "color": "#4292c6" }, "geometry": { "type": "Point", "coordinates": [ 8.6916456, 49.4026927 ] } },
{ "type": "Feature", "properties": { "index": "163", "@osmId": "node/374382330", "name": "Bergstraße", "opening_hours": null, "label": "Bus stops", "color": "#4292c6" }, "geometry": { "type": "Point", "coordinates": [ 8.6941956, 49.4136993 ] } },
{ "type": "Feature", "properties": { "index": "164", "@osmId": "node/375627033", "name": "Jahnstraße", "opening_hours": null, "label": "Bus stops", "color": "#4292c6" }, "geometry": { "type": "Point", "coordinates": [ 8.6764049, 49.4130324 ] } },
{ "type": "Feature", "properties": { "index": "165", "@osmId": "node/375627035", "name": "Jahnstraße", "opening_hours": null, "label": "Bus stops", "color": "#4292c6" }, "geometry": { "type": "Point", "coordinates": [ 8.6768015, 49.4131995 ] } },
{ "type": "Feature", "properties": { "index": "166", "@osmId": "node/622290190", "name": "Mönchhofschule", "opening_hours": null, "label": "Bus stops", "color": "#4292c6" }, "geometry": { "type": "Point", "coordinates": [ 8.6856825, 49.4174337 ] } },
{ "type": "Feature", "properties": { "index": "167", "@osmId": "node/1239025964", "name": "Brückenstraße", "opening_hours": null, "label": "Bus stops", "color": "#4292c6" }, "geometry": { "type": "Point", "coordinates": [ 8.6920489, 49.4154941 ] } },
{ "type": "Feature", "properties": { "index": "168", "@osmId": "node/1239025978", "name": "Brückenstraße", "opening_hours": null, "label": "Bus stops", "color": "#4292c6" }, "geometry": { "type": "Point", "coordinates": [ 8.6921408, 49.4157681 ] } },
{ "type": "Feature", "properties": { "index": "169", "@osmId": "node/1269937406", "name": "Molkenkur", "opening_hours": null, "label": "Bus stops", "color": "#4292c6" }, "geometry": { "type": "Point", "coordinates": [ 8.7150844, 49.4070167 ] } },
{ "type": "Feature", "properties": { "index": "170", "@osmId": "node/1269937506", "name": "Molkenkur", "opening_hours": null, "label": "Bus stops", "color": "#4292c6" }, "geometry": { "type": "Point", "coordinates": [ 8.7149274, 49.4070255 ] } },
{ "type": "Feature", "properties": { "index": "171", "@osmId": "node/1269937535", "name": "Molkenkur", "opening_hours": null, "label": "Bus stops", "color": "#4292c6" }, "geometry": { "type": "Point", "coordinates": [ 8.7145104, 49.4062811 ] } },
{ "type": "Feature", "properties": { "index": "172", "@osmId": "node/1286950767", "name": "Blockhaus", "opening_hours": null, "label": "Bus stops", "color": "#4292c6" }, "geometry": { "type": "Point", "coordinates": [ 8.7136432, 49.4009711 ] } },
{ "type": "Feature", "properties": { "index": "173", "@osmId": "node/1464163776", "name": "Montpellierbrücke", "opening_hours": null, "label": "Bus stops", "color": "#4292c6" }, "geometry": { "type": "Point", "coordinates": [ 8.6764203, 49.3996087 ] } },
{ "type": "Feature", "properties": { "index": "174", "@osmId": "node/1905430106", "name": "Schloss", "opening_hours": null, "label": "Bus stops", "color": "#4292c6" }, "geometry": { "type": "Point", "coordinates": [ 8.7128442, 49.4088954 ] } },
{ "type": "Feature", "properties": { "index": "175", "@osmId": "node/2050548819", "name": "Bismarckplatz", "opening_hours": null, "label": "Bus stops", "color": "#4292c6" }, "geometry": { "type": "Point", "coordinates": [ 8.6928288, 49.4098287 ] } },
{ "type": "Feature", "properties": { "index": "176", "@osmId": "node/2283861744", "name": "Mönchhofschule", "opening_hours": null, "label": "Bus stops", "color": "#4292c6" }, "geometry": { "type": "Point", "coordinates": [ 8.6871846, 49.4172979 ] } },
{ "type": "Feature", "properties": { "index": "177", "@osmId": "node/2380139990", "name": "Heidelberg Hauptbahnhof Süd", "opening_hours": null, "label": "Bus stops", "color": "#4292c6" }, "geometry": { "type": "Point", "coordinates": [ 8.6724622, 49.4013885 ] } },
{ "type": "Feature", "properties": { "index": "178", "@osmId": "node/2380140001", "name": "Schwetzinger Terrasse", "opening_hours": null, "label": "Bus stops", "color": "#4292c6" }, "geometry": { "type": "Point", "coordinates": [ 8.6714984, 49.3993841 ] } },
{ "type": "Feature", "properties": { "index": "179", "@osmId": "node/2380140004", "name": "Schwetzinger Terrasse", "opening_hours": null, "label": "Bus stops", "color": "#4292c6" }, "geometry": { "type": "Point", "coordinates": [ 8.6716997, 49.3994314 ] } },
{ "type": "Feature", "properties": { "index": "180", "@osmId": "node/2382067411", "name": null, "opening_hours": null, "label": "Bus stops", "color": "#4292c6" }, "geometry": { "type": "Point", "coordinates": [ 8.6787123, 49.4047148 ] } },
{ "type": "Feature", "properties": { "index": "181", "@osmId": "node/2534500489", "name": "Technologiepark", "opening_hours": null, "label": "Bus stops", "color": "#4292c6" }, "geometry": { "type": "Point", "coordinates": [ 8.6763297, 49.4192296 ] } },
{ "type": "Feature", "properties": { "index": "182", "@osmId": "node/2598225703", "name": "Heidelberg Hauptbahnhof Süd", "opening_hours": null, "label": "Bus stops", "color": "#4292c6" }, "geometry": { "type": "Point", "coordinates": [ 8.6730302, 49.4019555 ] } },
{ "type": "Feature", "properties": { "index": "183", "@osmId": "node/2819403568", "name": "Stadtwerke", "opening_hours": null, "label": "Bus stops", "color": "#4292c6" }, "geometry": { "type": "Point", "coordinates": [ 8.681213, 49.4050422 ] } },
{ "type": "Feature", "properties": { "index": "184", "@osmId": "node/3212351968", "name": "Hölderlin Gymnasium", "opening_hours": null, "label": "Bus stops", "color": "#4292c6" }, "geometry": { "type": "Point", "coordinates": [ 8.7006247, 49.4087518 ] } },
{ "type": "Feature", "properties": { "index": "185", "@osmId": "node/3265385990", "name": "Heidelberg Hauptbahnhof, K", "opening_hours": null, "label": "Bus stops", "color": "#4292c6" }, "geometry": { "type": "Point", "coordinates": [ 8.6767936, 49.4043066 ] } },
{ "type": "Feature", "properties": { "index": "186", "@osmId": "node/3265386025", "name": "Czernybrücke", "opening_hours": null, "label": "Bus stops", "color": "#4292c6" }, "geometry": { "type": "Point", "coordinates": [ 8.6716477, 49.4060979 ] } },
{ "type": "Feature", "properties": { "index": "187", "@osmId": "node/3265386029", "name": "Betriebshof", "opening_hours": null, "label": "Bus stops", "color": "#4292c6" }, "geometry": { "type": "Point", "coordinates": [ 8.6748725, 49.4074995 ] } },
{ "type": "Feature", "properties": { "index": "188", "@osmId": "node/4363463135", "name": "Technologiepark", "opening_hours": null, "label": "Bus stops", "color": "#4292c6" }, "geometry": { "type": "Point", "coordinates": [ 8.674955, 49.4189146 ] } },
{ "type": "Feature", "properties": { "index": "189", "@osmId": "node/4801418695", "name": "Agnesistraße", "opening_hours": null, "label": "Bus stops", "color": "#4292c6" }, "geometry": { "type": "Point", "coordinates": [ 8.6628297, 49.4056451 ] } },
{ "type": "Feature", "properties": { "index": "190", "@osmId": "node/4801419752", "name": "Da-Vinci-Straße", "opening_hours": null, "label": "Bus stops", "color": "#4292c6" }, "geometry": { "type": "Point", "coordinates": [ 8.6678467, 49.4053025 ] } },
{ "type": "Feature", "properties": { "index": "191", "@osmId": "node/5020169784", "name": "Schulbus", "opening_hours": null, "label": "Bus stops", "color": "#4292c6" }, "geometry": { "type": "Point", "coordinates": [ 8.684978, 49.4174236 ] } },
{ "type": "Feature", "properties": { "index": "192", "@osmId": "node/5020173662", "name": "Heidelberg Schloss", "opening_hours": null, "label": "Bus stops", "color": "#4292c6" }, "geometry": { "type": "Point", "coordinates": [ 8.711782, 49.4089741 ] } },
{ "type": "Feature", "properties": { "index": "193", "@osmId": "node/5645956422", "name": "Heidelberg Hbf", "opening_hours": null, "label": "Bus stops", "color": "#4292c6" }, "geometry": { "type": "Point", "coordinates": [ 8.673302, 49.4060844 ] } },
{ "type": "Feature", "properties": { "index": "194", "@osmId": "node/6074587001", "name": "Herrenmühle", "opening_hours": null, "label": "Bus stops", "color": "#4292c6" }, "geometry": { "type": "Point", "coordinates": [ 8.7177399, 49.413812 ] } },
{ "type": "Feature", "properties": { "index": "195", "@osmId": "node/6845695847", "name": "Technologiepark", "opening_hours": null, "label": "Bus stops", "color": "#4292c6" }, "geometry": { "type": "Point", "coordinates": [ 8.6751021, 49.4187951 ] } },
{ "type": "Feature", "properties": { "index": "196", "@osmId": "node/7920616787", "name": "Blockhaus", "opening_hours": null, "label": "Bus stops", "color": "#4292c6" }, "geometry": { "type": "Point", "coordinates": [ 8.7130745, 49.4012429 ] } },
{ "type": "Feature", "properties": { "index": "197", "@osmId": "node/8320620257", "name": "Theodor-Heuss-Brücke", "opening_hours": null, "label": "Bus stops", "color": "#4292c6" }, "geometry": { "type": "Point", "coordinates": [ 8.692321, 49.4132919 ] } },
{ "type": "Feature", "properties": { "index": "198", "@osmId": "node/8320620258", "name": "Theodor-Heuss-Brücke", "opening_hours": null, "label": "Bus stops", "color": "#4292c6" }, "geometry": { "type": "Point", "coordinates": [ 8.6909702, 49.4134012 ] } },
{ "type": "Feature", "properties": { "index": "199", "@osmId": "node/8388865799", "name": "Betriebshof", "opening_hours": null, "label": "Bus stops", "color": "#4292c6" }, "geometry": { "type": "Point", "coordinates": [ 8.6756815, 49.4079263 ] } },
{ "type": "Feature", "properties": { "index": "200", "@osmId": "node/8388865804", "name": "Stadthalle", "opening_hours": null, "label": "Bus stops", "color": "#4292c6" }, "geometry": { "type": "Point", "coordinates": [ 8.7028405, 49.4129617 ] } },
{ "type": "Feature", "properties": { "index": "201", "@osmId": "node/8388865805", "name": "Marstallstraße", "opening_hours": null, "label": "Bus stops", "color": "#4292c6" }, "geometry": { "type": "Point", "coordinates": [ 8.7056109, 49.4132436 ] } },
{ "type": "Feature", "properties": { "index": "202", "@osmId": "node/8390129077", "name": "Campus Bergheim", "opening_hours": null, "label": "Bus stops", "color": "#4292c6" }, "geometry": { "type": "Point", "coordinates": [ 8.6851497, 49.4078738 ] } },
{ "type": "Feature", "properties": { "index": "203", "@osmId": "node/8390129078", "name": "Campus Bergheim", "opening_hours": null, "label": "Bus stops", "color": "#4292c6" }, "geometry": { "type": "Point", "coordinates": [ 8.6851309, 49.4079357 ] } },
{ "type": "Feature", "properties": { "index": "204", "@osmId": "node/8390129079", "name": "Altes Hallenbad", "opening_hours": null, "label": "Bus stops", "color": "#4292c6" }, "geometry": { "type": "Point", "coordinates": [ 8.6883147, 49.4084418 ] } },
{ "type": "Feature", "properties": { "index": "205", "@osmId": "node/8390129080", "name": "Altes Hallenbad", "opening_hours": null, "label": "Bus stops", "color": "#4292c6" }, "geometry": { "type": "Point", "coordinates": [ 8.6883469, 49.4083825 ] } },
{ "type": "Feature", "properties": { "index": "206", "@osmId": "node/8664417141", "name": "Montpellierbrücke", "opening_hours": null, "label": "Bus stops", "color": "#4292c6" }, "geometry": { "type": "Point", "coordinates": [ 8.6769359, 49.39951 ] } },
{ "type": "Feature", "properties": { "index": "207", "@osmId": "node/9216223618", "name": "Maria-Mitchell-Straße", "opening_hours": null, "label": "Bus stops", "color": "#4292c6" }, "geometry": { "type": "Point", "coordinates": [ 8.6703272, 49.4043099 ] } },
{ "type": "Feature", "properties": { "index": "208", "@osmId": "node/9346518743", "name": "Neckarwiese", "opening_hours": null, "label": "Bus stops", "color": "#4292c6" }, "geometry": { "type": "Point", "coordinates": [ 8.6825298, 49.4125579 ] } },
{ "type": "Feature", "properties": { "index": "209", "@osmId": "node/9346518744", "name": "Neckarwiese", "opening_hours": null, "label": "Bus stops", "color": "#4292c6" }, "geometry": { "type": "Point", "coordinates": [ 8.6823251, 49.4123917 ] } },
{ "type": "Feature", "properties": { "index": "210", "@osmId": "node/9413057229", "name": "Neckarmünzplatz", "opening_hours": null, "label": "Bus stops", "color": "#4292c6" }, "geometry": { "type": "Point", "coordinates": [ 8.7139646, 49.4137392 ] } },
{ "type": "Feature", "properties": { "index": "211", "@osmId": "node/9415529593", "name": "Heidelberg Hauptbahnhof (Steig R)", "opening_hours": null, "label": "Bus stops", "color": "#4292c6" }, "geometry": { "type": "Point", "coordinates": [ 8.678579, 49.4042619 ] } },
{ "type": "Feature", "properties": { "index": "212", "@osmId": "node/10594142966", "name": "Jahnstraße", "opening_hours": null, "label": "Bus stops", "color": "#4292c6" }, "geometry": { "type": "Point", "coordinates": [ 8.6774013, 49.4125977 ] } },
{ "type": "Feature", "properties": { "index": "213", "@osmId": "node/11176910292", "name": "Heidelberg Hauptbahnhof Süd", "opening_hours": null, "label": "Bus stops", "color": "#4292c6" }, "geometry": { "type": "Point", "coordinates": [ 8.6742026, 49.4018785 ] } },
{ "type": "Feature", "properties": { "index": "214", "@osmId": "node/12293558605", "name": "Peterskirche", "opening_hours": null, "label": "Bus stops", "color": "#4292c6" }, "geometry": { "type": "Point", "coordinates": [ 8.7053246, 49.409054 ] } },
{ "type": "Feature", "properties": { "index": "215", "@osmId": "node/12293558606", "name": "Peterskirche", "opening_hours": null, "label": "Bus stops", "color": "#4292c6" }, "geometry": { "type": "Point", "coordinates": [ 8.7051001, 49.4090401 ] } },
{ "type": "Feature", "properties": { "index": "216", "@osmId": "node/13727292746", "name": "Ersatzhaltestelle", "opening_hours": null, "label": "Bus stops", "color": "#4292c6" }, "geometry": { "type": "Point", "coordinates": [ 8.6662284, 49.4052384 ] } },
{ "type": "Feature", "properties": { "index": "217", "@osmId": "node/13929883522", "name": "Heidelberg Hauptbahnhof Süd", "opening_hours": null, "label": "Bus stops", "color": "#4292c6" }, "geometry": { "type": "Point", "coordinates": [ 8.6735156, 49.4024017 ] } }
]
}
