{
"type": "FeatureCollection",
"features": [
{ "type": "Feature", "properties": { "index": "218", "@osmId": "node/3428533595", "name": "Heidelberg Neuenheim - Neckarwiese", "opening_hours": null, "label": "Bike-sharing points", "color": "#41ab5d" }, "geometry": { "type": "Point", "coordinates": [ 8.6918182, 49.4133047 ] } },
{ "type": "Feature", "properties": { "index": "219", "@osmId": "node/3429511451", "name": "Heidelberg Neuenheim - Kußmaulstraße", "opening_hours": null, "label": "Bike-sharing points", "color": "#41ab5d" }, "geometry": { "type": "Point", "coordinates": [ 8.6905365, 49.418466 ] } },
{ "type": "Feature", "properties": { "index": "220", "@osmId": "node/3454974114", "name": "Heidelberg Hauptbahnhof Bahnstadt", "opening_hours": null, "label": "Bike-sharing points", "color": "#41ab5d" }, "geometry": { "type": "Point", "coordinates": [ 8.6758185, 49.4025101 ] } },
{ "type": "Feature", "properties": { "index": "221", "@osmId": "node/3498523761", "name": "Heidelberg Altstadt - Stadthalle", "opening_hours": null, "label": "Bike-sharing points", "color": "#41ab5d" }, "geometry": { "type": "Point", "coordinates": [ 8.699159, 49.4119954 ] } },
{ "type": "Feature", "properties": { "index": "222", "@osmId": "node/3584458569", "name": "Heidelberg S-Bahnhof Weststadt/Südstadt", "opening_hours": null, "label": "Bike-sharing points", "color": "#41ab5d" }, "geometry": { "type": "Point", "coordinates": [ 8.6891931, 49.3989628 ] } },
{ "type": "Feature", "properties": { "index": "223", "@osmId": "node/3763267774", "name": "Heidelberg Altstadt - Plöck", "opening_hours": null, "label": "Bike-sharing points", "color": "#41ab5d" }, "geometry": { "type": "Point", "coordinates": [ 8.693822, 49.4086829 ] } },
{ "type": "Feature", "properties": { "index": "224", "@osmId": "node/3764985540", "name": "Bahnstadt Halle 02", "opening_hours": null, "label": "Bike-sharing points", "color": "#41ab5d" }, "geometry": { "type": "Point", "coordinates": [ 8.6725783, 49.4018638 ] } },
{ "type": "Feature", "properties": { "index": "225", "@osmId": "node/3773428899", "name": "INF - Universitätsklinikum/Zoo", "opening_hours": null, "label": "Bike-sharing points", "color": "#41ab5d" }, "geometry": { "type": "Point", "coordinates": [ 8.6647975, 49.4148893 ] } },
{ "type": "Feature", "properties": { "index": "226", "@osmId": "node/4067867917", "name": "S-Bahnhof Heidelberg-Altstadt", "opening_hours": null, "label": "Bike-sharing points", "color": "#41ab5d" }, "geometry": { "type": "Point", "coordinates": [ 8.7199136, 49.4148944 ] } },
{ "type": "Feature", "properties": { "index": "227", "@osmId": "node/4346569397", "name": "Heidelberg Bergheim - RNV Betriebshof Bergheimerstraße", "opening_hours": null, "label": "Bike-sharing points", "color": "#41ab5d" }, "geometry": { "type": "Point", "coordinates": [ 8.6751095, 49.4077301 ] } },
{ "type": "Feature", "properties": { "index": "228", "@osmId": "node/4519298691", "name": "INF - Zentralmensa", "opening_hours": "24/7", "label": "Bike-sharing points", "color": "#41ab5d" }, "geometry": { "type": "Point", "coordinates": [ 8.6713535, 49.4162718 ] } },
{ "type": "Feature", "properties": { "index": "229", "@osmId": "node/4546803165", "name": "Heidelberg Neuenheimer Feld - Mathematikon", "opening_hours": "24/7", "label": "Bike-sharing points", "color": "#41ab5d" }, "geometry": { "type": "Point", "coordinates": [ 8.6748361, 49.4198285 ] } },
{ "type": "Feature", "properties": { "index": "230", "@osmId": "node/4765455115", "name": "Heidelberg Bergheim - Kurfürstenanlage", "opening_hours": "24/7", "label": "Bike-sharing points", "color": "#41ab5d" }, "geometry": { "type": "Point", "coordinates": [ 8.6906563, 49.4071695 ] } },
{ "type": "Feature", "properties": { "index": "231", "@osmId": "node/5105377427", "name": "Rhein-Neckar-Kreis / Kurfürstenanlage", "opening_hours": null, "label": "Bike-sharing points", "color": "#41ab5d" }, "geometry": { "type": "Point", "coordinates": [ 8.6837174, 49.4058288 ] } },
{ "type": "Feature", "properties": { "index": "232", "@osmId": "node/5113641991", "name": "Heidelberg Bergheim - Altes Hallenbad 1-10", "opening_hours": null, "label": "Bike-sharing points", "color": "#41ab5d" }, "geometry": { "type": "Point", "coordinates": [ 8.68802, 49.408006 ] } },
{ "type": "Feature", "properties": { "index": "233", "@osmId": "node/5126342535", "name": "Heidelberg Altstadt - Neckarmünzplatz", "opening_hours": null, "label": "Bike-sharing points", "color": "#41ab5d" }, "geometry": { "type": "Point", "coordinates": [ 8.7142912, 49.4137016 ] } },
{ "type": "Feature", "properties": { "index": "234", "@osmId": "node/5139030658", "name": "Heidelberg Altstadt - Marstall", "opening_hours": null, "label": "Bike-sharing points", "color": "#41ab5d" }, "geometry": { "type": "Point", "coordinates": [ 8.7056927, 49.4132161 ] } },
{ "type": "Feature", "properties": { "index": "235", "@osmId": "node/5139030666", "name": "Heidelberg Altstadt - Theaterstraße", "opening_hours": null, "label": "Bike-sharing points", "color": "#41ab5d" }, "geometry": { "type": "Point", "coordinates": [ 8.7037542, 49.4101107 ] } },
{ "type": "Feature", "properties": { "index": "236", "@osmId": "node/5139030668", "name": "Heidelberg Altstadt - Friedrich-Ebert-Platz", "opening_hours": null, "label": "Bike-sharing points", "color": "#41ab5d" }, "geometry": { "type": "Point", "coordinates": [ 8.6981276, 49.4091831 ] } },
{ "type": "Feature", "properties": { "index": "237", "@osmId": "node/8474042264", "name": "Heidelberg Grüne Meile", "opening_hours": null, "label": "Bike-sharing points", "color": "#41ab5d" }, "geometry": { "type": "Point", "coordinates": [ 8.6675014, 49.4036514 ] } },
{ "type": "Feature", "properties": { "index": "238", "@osmId": "node/8856635294", "name": "Heidelberg Langer Anger", "opening_hours": null, "label": "Bike-sharing points", "color": "#41ab5d" }, "geometry": { "type": "Point", "coordinates": [ 8.6689903, 49.4010777 ] } },
{ "type": "Feature", "properties": { "index": "239", "@osmId": "node/8856635298", "name": "INF - Neue PH Heidelberg", "opening_hours": null, "label": "Bike-sharing points", "color": "#41ab5d" }, "geometry": { "type": "Point", "coordinates": [ 8.6694756, 49.4195154 ] } },
{ "type": "Feature", "properties": { "index": "240", "@osmId": "node/9198438343", "name": "Altstadt - Universitätsplatz", "opening_hours": null, "label": "Bike-sharing points", "color": "#41ab5d" }, "geometry": { "type": "Point", "coordinates": [ 8.7067361, 49.4110404 ] } },
{ "type": "Feature", "properties": { "index": "241", "@osmId": "node/10822469946", "name": "Weststadt - Blumenstraße", "opening_hours": null, "label": "Bike-sharing points", "color": "#41ab5d" }, "geometry": { "type": "Point", "coordinates": [ 8.6848208, 49.4043273 ] } },
{ "type": "Feature", "properties": { "index": "242", "@osmId": "node/10844401868", "name": "Heidelberg Emil-Maier-Straße", "opening_hours": null, "label": "Bike-sharing points", "color": "#41ab5d" }, "geometry": { "type": "Point", "coordinates": [ 8.6725103, 49.4086541 ] } },
{ "type": "Feature", "properties": { "index": "243", "@osmId": "node/11300299512", "name": "Heidelberg Grüne Meile", "opening_hours": null, "label": "Bike-sharing points", "color": "#41ab5d" }, "geometry": { "type": "Point", "coordinates": [ 8.6660691, 49.4036135 ] } },
{ "type": "Feature", "properties": { "index": "244", "@osmId": "node/11505987279", "name": "Neuenheim - Alte PH / Quinckestraße", "opening_hours": null, "label": "Bike-sharing points", "color": "#41ab5d" }, "geometry": { "type": "Point", "coordinates": [ 8.6830195, 49.4201437 ] } },
{ "type": "Feature", "properties": { "index": "245", "@osmId": "node/11673785050", "name": "Weststadt - Gaisbergstraße", "opening_hours": null, "label": "Bike-sharing points", "color": "#41ab5d" }, "geometry": { "type": "Point", "coordinates": [ 8.6939528, 49.4054492 ] } },
{ "type": "Feature", "properties": { "index": "246", "@osmId": "node/12299978100", "name": "INF - Cafe Botanik", "opening_hours": "24/7", "label": "Bike-sharing points", "color": "#41ab5d" }, "geometry": { "type": "Point", "coordinates": [ 8.6713047, 49.4150164 ] } },
{ "type": "Feature", "properties": { "index": "247", "@osmId": "node/12299986201", "name": "INF - Hörsaal Physik", "opening_hours": "24/7", "label": "Bike-sharing points", "color": "#41ab5d" }, "geometry": { "type": "Point", "coordinates": [ 8.6705699, 49.4180189 ] } },
{ "type": "Feature", "properties": { "index": "248", "@osmId": "node/13241695980", "name": "INF - Kopfklinik/NCT", "opening_hours": null, "label": "Bike-sharing points", "color": "#41ab5d" }, "geometry": { "type": "Point", "coordinates": [ 8.6647876, 49.4185945 ] } },
{ "type": "Feature", "properties": { "index": "249", "@osmId": "node/13241695983", "name": "Neuenheim - Alte PH / Keplerstraße", "opening_hours": null, "label": "Bike-sharing points", "color": "#41ab5d" }, "geometry": { "type": "Point", "coordinates": [ 8.6848263, 49.4201573 ] } },
{ "type": "Feature", "properties": { "index": "250", "@osmId": "node/13810463350", "name": null, "opening_hours": null, "label": "Bike-sharing points", "color": "#41ab5d" }, "geometry": { "type": "Point", "coordinates": [ 8.6791727, 49.4043746 ] } },
{ "type": "Feature", "properties": { "index": "251", "@osmId": "node/13810509662", "name": null, "opening_hours": null, "label": "Bike-sharing points", "color": "#41ab5d" }, "geometry": { "type": "Point", "coordinates": [ 8.6787461, 49.4030324 ] } }
]
}
