{
"type": "FeatureCollection",
"features": [
{ "type": "Feature", "properties": { "index": "0", "label": "Within 255 m by wheelchair", "color": "#2b8cbe" }, "geometry": { "type": "MultiPolygon", "coordinates": [ [ [ [ 8.6674403, 49.3987634 ], [ 8.667647, 49.3985832 ], [ 8.6678797, 49.3984171 ], [ 8.6681363, 49.3982667 ], [ 8.6684142, 49.3981334 ], [ 8.6686553, 49.39804 ], [ 8.6686989, 49.3980019 ], [ 8.6795808, 49.3980034 ], [ 8.6796621, 49.3980625 ], [ 8.6798664, 49.3982438 ], [ 8.6800424, 49.3984374 ], [ 8.6801152, 49.398539 ], [ 8.6802809, 49.3986044 ], [ 8.680557, 49.3987392 ], [ 8.6807371, 49.3988467 ], [ 8.6808521, 49.3989028 ], [ 8.6811067, 49.3990547 ], [ 8.6813372, 49.3992221 ], [ 8.6815415, 49.3994035 ], [ 8.6817176, 49.399597 ], [ 8.6818637, 49.3998009 ], [ 8.6819785, 49.4000132 ], [ 8.6820609, 49.4002318 ], [ 8.6821101, 49.4004545 ], [ 8.6821166, 49.4005498 ], [ 8.6821925, 49.400468 ], [ 8.6823991, 49.4002878 ], [ 8.6826318, 49.4001216 ], [ 8.6828883, 49.3999712 ], [ 8.6831662, 49.3998378 ], [ 8.6834107, 49.3997431 ], [ 8.6834048, 49.3997165 ], [ 8.6833893, 49.3994916 ], [ 8.6834077, 49.3992669 ], [ 8.6834597, 49.3990443 ], [ 8.6835449, 49.3988262 ], [ 8.6836625, 49.3986146 ], [ 8.6838112, 49.3984115 ], [ 8.6839898, 49.3982189 ], [ 8.6841964, 49.3980387 ], [ 8.6842454, 49.3980037 ], [ 8.6931637, 49.3980038 ], [ 8.6932108, 49.3980225 ], [ 8.693487, 49.3981573 ], [ 8.6937416, 49.3983091 ], [ 8.6939722, 49.3984765 ], [ 8.6941765, 49.3986579 ], [ 8.6943526, 49.3988514 ], [ 8.6944988, 49.3990553 ], [ 8.6946137, 49.3992675 ], [ 8.6946962, 49.3994861 ], [ 8.6947454, 49.3997089 ], [ 8.6947609, 49.3999337 ], [ 8.6947426, 49.4001585 ], [ 8.6946906, 49.400381 ], [ 8.6946055, 49.4005992 ], [ 8.6945571, 49.4006863 ], [ 8.6945447, 49.4007391 ], [ 8.6945154, 49.4008144 ], [ 8.6946642, 49.4009779 ], [ 8.6948104, 49.4011818 ], [ 8.6949253, 49.401394 ], [ 8.6950077, 49.4016126 ], [ 8.6950569, 49.4018354 ], [ 8.6950725, 49.4020602 ], [ 8.6950636, 49.4021696 ], [ 8.6950956, 49.4022544 ], [ 8.6951448, 49.4024772 ], [ 8.6951603, 49.402702 ], [ 8.695142, 49.4029268 ], [ 8.69509, 49.4031493 ], [ 8.6950428, 49.4032702 ], [ 8.695311, 49.4033337 ], [ 8.6956222, 49.4034307 ], [ 8.6959174, 49.4035472 ], [ 8.6961936, 49.403682 ], [ 8.6964482, 49.4038339 ], [ 8.6966788, 49.4040013 ], [ 8.6968832, 49.4041826 ], [ 8.6970593, 49.4043761 ], [ 8.6972056, 49.40458 ], [ 8.6973205, 49.4047922 ], [ 8.6974029, 49.4050108 ], [ 8.6974522, 49.4052336 ], [ 8.6974677, 49.4054584 ], [ 8.6974494, 49.4056832 ], [ 8.6973974, 49.4059057 ], [ 8.6973123, 49.4061239 ], [ 8.6972137, 49.4063015 ], [ 8.6972715, 49.4062838 ], [ 8.6975968, 49.4062088 ], [ 8.6979317, 49.406155 ], [ 8.6979812, 49.4061503 ], [ 8.6979892, 49.4061465 ], [ 8.6982858, 49.4060315 ], [ 8.6985982, 49.4059361 ], [ 8.6989234, 49.4058611 ], [ 8.6992584, 49.4058073 ], [ 8.6995998, 49.4057752 ], [ 8.6999444, 49.405765 ], [ 8.7002888, 49.4057769 ], [ 8.7006298, 49.4058109 ], [ 8.7009641, 49.4058664 ], [ 8.7012884, 49.4059431 ], [ 8.7015997, 49.4060401 ], [ 8.7018948, 49.4061566 ], [ 8.7021711, 49.4062914 ], [ 8.7021818, 49.4062978 ], [ 8.7022011, 49.4063072 ], [ 8.7024558, 49.406459 ], [ 8.7026864, 49.4066264 ], [ 8.7028908, 49.4068077 ], [ 8.703067, 49.4070013 ], [ 8.7031466, 49.4071122 ], [ 8.7031747, 49.4070958 ], [ 8.7034526, 49.4069624 ], [ 8.7037491, 49.4068474 ], [ 8.7040615, 49.406752 ], [ 8.7043868, 49.406677 ], [ 8.7047217, 49.4066231 ], [ 8.7050631, 49.406591 ], [ 8.7054077, 49.4065808 ], [ 8.7057522, 49.4065927 ], [ 8.7060932, 49.4066266 ], [ 8.7064275, 49.4066822 ], [ 8.7067518, 49.4067588 ], [ 8.7070631, 49.4068559 ], [ 8.7073425, 49.4069661 ], [ 8.7073733, 49.4069611 ], [ 8.7077147, 49.406929 ], [ 8.7080593, 49.4069188 ], [ 8.7084038, 49.4069307 ], [ 8.7087448, 49.4069646 ], [ 8.7090791, 49.4070201 ], [ 8.7094034, 49.4070968 ], [ 8.7096245, 49.4071657 ], [ 8.7098403, 49.4070621 ], [ 8.7101369, 49.4069471 ], [ 8.7104493, 49.4068516 ], [ 8.7107745, 49.4067766 ], [ 8.7110641, 49.4067301 ], [ 8.7110603, 49.40672 ], [ 8.711011, 49.4064972 ], [ 8.7109954, 49.4062724 ], [ 8.7110137, 49.4060476 ], [ 8.7110656, 49.4058251 ], [ 8.7111507, 49.4056069 ], [ 8.7112681, 49.4053953 ], [ 8.7114168, 49.4051922 ], [ 8.7115953, 49.4049995 ], [ 8.7118018, 49.4048193 ], [ 8.7120344, 49.4046531 ], [ 8.7122909, 49.4045025 ], [ 8.7125687, 49.4043691 ], [ 8.7128652, 49.4042541 ], [ 8.7131776, 49.4041587 ], [ 8.7135028, 49.4040837 ], [ 8.7138377, 49.4040298 ], [ 8.7141791, 49.4039976 ], [ 8.7145237, 49.4039874 ], [ 8.7148681, 49.4039993 ], [ 8.7152092, 49.4040332 ], [ 8.7155434, 49.4040887 ], [ 8.7158678, 49.4041653 ], [ 8.716179, 49.4042623 ], [ 8.7164742, 49.4043788 ], [ 8.7167505, 49.4045135 ], [ 8.7170052, 49.4046653 ], [ 8.7172359, 49.4048327 ], [ 8.7174403, 49.405014 ], [ 8.7176165, 49.4052075 ], [ 8.7177628, 49.4054113 ], [ 8.7178778, 49.4056235 ], [ 8.7178807, 49.405631 ], [ 8.7180143, 49.4057496 ], [ 8.7181906, 49.4059431 ], [ 8.7183369, 49.4061469 ], [ 8.7184519, 49.4063591 ], [ 8.7185345, 49.4065777 ], [ 8.7185838, 49.4068004 ], [ 8.7185994, 49.4070253 ], [ 8.7185812, 49.4072501 ], [ 8.7185293, 49.4074726 ], [ 8.7184443, 49.4076908 ], [ 8.7183268, 49.4079024 ], [ 8.7181782, 49.4081055 ], [ 8.7179997, 49.4082982 ], [ 8.7179617, 49.4083314 ], [ 8.7178308, 49.4085102 ], [ 8.7176524, 49.4087029 ], [ 8.7174458, 49.4088832 ], [ 8.7172132, 49.4090494 ], [ 8.7169567, 49.4091999 ], [ 8.7166789, 49.4093333 ], [ 8.7165025, 49.4094018 ], [ 8.7164742, 49.4095231 ], [ 8.7163891, 49.4097412 ], [ 8.7162716, 49.4099529 ], [ 8.716123, 49.410156 ], [ 8.7159445, 49.4103486 ], [ 8.715738, 49.4105289 ], [ 8.7155053, 49.4106951 ], [ 8.7154379, 49.4107347 ], [ 8.715481, 49.4108488 ], [ 8.7155111, 49.4109848 ], [ 8.7155283, 49.4109972 ], [ 8.7157327, 49.4111785 ], [ 8.715909, 49.411372 ], [ 8.7159641, 49.4114488 ], [ 8.7160283, 49.4114385 ], [ 8.7163698, 49.4114063 ], [ 8.7167144, 49.4113961 ], [ 8.7170589, 49.411408 ], [ 8.7174, 49.4114419 ], [ 8.7177343, 49.4114974 ], [ 8.7178349, 49.4115211 ], [ 8.7180976, 49.4115302 ], [ 8.7184386, 49.4115641 ], [ 8.7187729, 49.4116196 ], [ 8.7190973, 49.4116962 ], [ 8.7194086, 49.4117932 ], [ 8.7197039, 49.4119096 ], [ 8.7199802, 49.4120444 ], [ 8.72, 49.4120562 ], [ 8.72, 49.4172187 ], [ 8.7199489, 49.4172885 ], [ 8.7197704, 49.4174811 ], [ 8.7195639, 49.4176614 ], [ 8.7193312, 49.4178276 ], [ 8.7190747, 49.4179782 ], [ 8.7187968, 49.4181116 ], [ 8.7185002, 49.4182266 ], [ 8.7181878, 49.4183221 ], [ 8.7178625, 49.4183971 ], [ 8.7175275, 49.418451 ], [ 8.717186, 49.4184832 ], [ 8.7168413, 49.4184934 ], [ 8.7164968, 49.4184815 ], [ 8.7161556, 49.4184476 ], [ 8.7158213, 49.4183921 ], [ 8.7154969, 49.4183155 ], [ 8.7152313, 49.4182328 ], [ 8.7149172, 49.4181806 ], [ 8.7145928, 49.418104 ], [ 8.7142815, 49.418007 ], [ 8.7139862, 49.4178905 ], [ 8.7137099, 49.4177557 ], [ 8.7134551, 49.4176039 ], [ 8.7132244, 49.4174366 ], [ 8.7130199, 49.4172553 ], [ 8.7128436, 49.4170618 ], [ 8.7126973, 49.4168579 ], [ 8.7125823, 49.4166457 ], [ 8.7124998, 49.4164272 ], [ 8.7124504, 49.4162044 ], [ 8.7124388, 49.4160373 ], [ 8.7123973, 49.4161122 ], [ 8.7122486, 49.4163153 ], [ 8.7120701, 49.4165079 ], [ 8.7118635, 49.4166882 ], [ 8.7116308, 49.4168544 ], [ 8.7113743, 49.4170049 ], [ 8.7110964, 49.4171383 ], [ 8.7107998, 49.4172533 ], [ 8.7104873, 49.4173488 ], [ 8.710162, 49.4174238 ], [ 8.7100877, 49.4174357 ], [ 8.7099396, 49.4174699 ], [ 8.7096046, 49.4175237 ], [ 8.7092631, 49.4175559 ], [ 8.7089184, 49.4175661 ], [ 8.7085739, 49.4175542 ], [ 8.7082328, 49.4175203 ], [ 8.7078984, 49.4174647 ], [ 8.707574, 49.4173881 ], [ 8.7072627, 49.4172911 ], [ 8.7069675, 49.4171746 ], [ 8.7066911, 49.4170398 ], [ 8.7064364, 49.416888 ], [ 8.7062057, 49.4167206 ], [ 8.7060013, 49.4165393 ], [ 8.705825, 49.4163458 ], [ 8.7056787, 49.4161419 ], [ 8.7055638, 49.4159297 ], [ 8.7054813, 49.4157111 ], [ 8.7054674, 49.4156486 ], [ 8.7051806, 49.4156201 ], [ 8.7048462, 49.4155645 ], [ 8.7045219, 49.4154879 ], [ 8.7042106, 49.4153908 ], [ 8.7039153, 49.4152743 ], [ 8.7037211, 49.4151796 ], [ 8.7035128, 49.4152131 ], [ 8.7031713, 49.4152452 ], [ 8.7028267, 49.4152554 ], [ 8.7024821, 49.4152435 ], [ 8.702451, 49.4152404 ], [ 8.7024652, 49.415278 ], [ 8.7025145, 49.4155008 ], [ 8.70253, 49.4157257 ], [ 8.7025118, 49.4159505 ], [ 8.7024598, 49.416173 ], [ 8.7023746, 49.4163911 ], [ 8.7022571, 49.4166028 ], [ 8.7021084, 49.4168059 ], [ 8.7019298, 49.4169985 ], [ 8.7017232, 49.4171787 ], [ 8.7014905, 49.4173449 ], [ 8.7012339, 49.4174954 ], [ 8.700956, 49.4176288 ], [ 8.7006594, 49.4177438 ], [ 8.7003469, 49.4178392 ], [ 8.7000216, 49.4179142 ], [ 8.6996865, 49.417968 ], [ 8.6993451, 49.4180001 ], [ 8.6990004, 49.4180103 ], [ 8.6986558, 49.4179983 ], [ 8.6983147, 49.4179644 ], [ 8.6979804, 49.4179089 ], [ 8.697656, 49.4178322 ], [ 8.6973447, 49.4177351 ], [ 8.6970495, 49.4176186 ], [ 8.6967732, 49.4174838 ], [ 8.6965185, 49.417332 ], [ 8.6962878, 49.4171646 ], [ 8.6960834, 49.4169833 ], [ 8.6959072, 49.4167897 ], [ 8.6957609, 49.4165859 ], [ 8.695646, 49.4163736 ], [ 8.6956356, 49.4163459 ], [ 8.6955793, 49.4162421 ], [ 8.6955009, 49.4164428 ], [ 8.6953834, 49.4166545 ], [ 8.6952346, 49.4168575 ], [ 8.6950561, 49.4170501 ], [ 8.6948494, 49.4172304 ], [ 8.6947079, 49.4173314 ], [ 8.6947025, 49.4173973 ], [ 8.6946505, 49.4176198 ], [ 8.6945653, 49.417838 ], [ 8.6944478, 49.4180496 ], [ 8.694299, 49.4182527 ], [ 8.6941291, 49.4184359 ], [ 8.6941591, 49.4185716 ], [ 8.6941747, 49.4187965 ], [ 8.6941563, 49.4190212 ], [ 8.6941043, 49.4192437 ], [ 8.6940191, 49.4194619 ], [ 8.6939016, 49.4196735 ], [ 8.6937528, 49.4198766 ], [ 8.6935742, 49.4200692 ], [ 8.6933675, 49.4202494 ], [ 8.6931348, 49.4204156 ], [ 8.6928782, 49.4205661 ], [ 8.6926002, 49.4206994 ], [ 8.6925316, 49.420726 ], [ 8.6925621, 49.4207823 ], [ 8.6926446, 49.4210008 ], [ 8.6926938, 49.4212236 ], [ 8.6927094, 49.4214485 ], [ 8.692691, 49.4216733 ], [ 8.692639, 49.4218958 ], [ 8.6925968, 49.4220039 ], [ 8.6809679, 49.4220035 ], [ 8.6807775, 49.4219106 ], [ 8.6805228, 49.4217587 ], [ 8.6802922, 49.4215913 ], [ 8.6800878, 49.4214099 ], [ 8.6799117, 49.4212164 ], [ 8.6797655, 49.4210125 ], [ 8.6796506, 49.4208002 ], [ 8.6795682, 49.4205817 ], [ 8.679519, 49.4203589 ], [ 8.6795083, 49.4202036 ], [ 8.6794234, 49.4203195 ], [ 8.6792448, 49.420512 ], [ 8.679038, 49.4206923 ], [ 8.6788052, 49.4208584 ], [ 8.6785486, 49.4210089 ], [ 8.6785417, 49.4210121 ], [ 8.6784769, 49.4210502 ], [ 8.6781989, 49.4211835 ], [ 8.6779844, 49.4212665 ], [ 8.6778238, 49.4214397 ], [ 8.677617, 49.4216199 ], [ 8.6773842, 49.421786 ], [ 8.6771276, 49.4219365 ], [ 8.6769885, 49.4220032 ], [ 8.6728276, 49.4220026 ], [ 8.6726664, 49.4219239 ], [ 8.6724117, 49.4217721 ], [ 8.6721811, 49.4216046 ], [ 8.6719768, 49.4214232 ], [ 8.6718973, 49.4213359 ], [ 8.6717412, 49.4214107 ], [ 8.6714445, 49.4215256 ], [ 8.6711319, 49.4216209 ], [ 8.6708065, 49.4216958 ], [ 8.6704715, 49.4217496 ], [ 8.6704144, 49.4217549 ], [ 8.6701642, 49.4219015 ], [ 8.6699543, 49.4220022 ], [ 8.6659338, 49.4220014 ], [ 8.6657031, 49.4218887 ], [ 8.6654484, 49.4217368 ], [ 8.6652178, 49.4215694 ], [ 8.6650135, 49.421388 ], [ 8.6648374, 49.4211944 ], [ 8.6646913, 49.4209905 ], [ 8.6646798, 49.4209691 ], [ 8.6646506, 49.4209549 ], [ 8.6645242, 49.4208795 ], [ 8.6644929, 49.4208784 ], [ 8.6644664, 49.4208865 ], [ 8.664141, 49.4209614 ], [ 8.6638059, 49.4210151 ], [ 8.6634644, 49.4210471 ], [ 8.6634331, 49.421048 ], [ 8.663424, 49.4210495 ], [ 8.6630825, 49.4210815 ], [ 8.6627378, 49.4210916 ], [ 8.6623932, 49.4210795 ], [ 8.6620521, 49.4210455 ], [ 8.6617178, 49.4209898 ], [ 8.6613935, 49.420913 ], [ 8.6610822, 49.4208159 ], [ 8.6607871, 49.4206993 ], [ 8.6605108, 49.4205644 ], [ 8.6602562, 49.4204125 ], [ 8.6600257, 49.420245 ], [ 8.66, 49.4202223 ], [ 8.66, 49.4150874 ], [ 8.6600239, 49.4150819 ], [ 8.660033, 49.4149717 ], [ 8.6600851, 49.4147492 ], [ 8.6601705, 49.4145311 ], [ 8.6602882, 49.4143196 ], [ 8.6604371, 49.4141165 ], [ 8.6606158, 49.413924 ], [ 8.6608225, 49.4137438 ], [ 8.6610554, 49.4135777 ], [ 8.661312, 49.4134273 ], [ 8.66159, 49.413294 ], [ 8.6618868, 49.4131791 ], [ 8.6621993, 49.4130838 ], [ 8.6625246, 49.4130089 ], [ 8.6628596, 49.4129552 ], [ 8.6629293, 49.4129487 ], [ 8.6631541, 49.4128616 ], [ 8.6634666, 49.4127663 ], [ 8.663792, 49.4126914 ], [ 8.664127, 49.4126377 ], [ 8.6644685, 49.4126057 ], [ 8.6645039, 49.4126046 ], [ 8.6646671, 49.4125415 ], [ 8.6649796, 49.4124461 ], [ 8.6653049, 49.4123712 ], [ 8.6656399, 49.4123175 ], [ 8.6659814, 49.4122855 ], [ 8.666326, 49.4122754 ], [ 8.6666705, 49.4122875 ], [ 8.6670116, 49.4123215 ], [ 8.6670681, 49.4123309 ], [ 8.6672018, 49.4121868 ], [ 8.6674085, 49.4120066 ], [ 8.6676413, 49.4118405 ], [ 8.667898, 49.4116901 ], [ 8.668176, 49.4115568 ], [ 8.6682384, 49.4115326 ], [ 8.6682342, 49.4115324 ], [ 8.6678931, 49.4114984 ], [ 8.6675589, 49.4114428 ], [ 8.6672346, 49.411366 ], [ 8.6671883, 49.4113516 ], [ 8.667052, 49.4114489 ], [ 8.6667953, 49.4115993 ], [ 8.6665173, 49.4117326 ], [ 8.6662206, 49.4118474 ], [ 8.6659081, 49.4119428 ], [ 8.6658943, 49.411946 ], [ 8.6658442, 49.41197 ], [ 8.6655475, 49.4120848 ], [ 8.665235, 49.4121802 ], [ 8.6649097, 49.4122551 ], [ 8.6645747, 49.4123088 ], [ 8.6642332, 49.4123408 ], [ 8.6638885, 49.4123509 ], [ 8.663544, 49.4123388 ], [ 8.663203, 49.4123048 ], [ 8.6628688, 49.4122491 ], [ 8.6625445, 49.4121724 ], [ 8.6622333, 49.4120752 ], [ 8.6619381, 49.4119586 ], [ 8.661662, 49.4118237 ], [ 8.6614074, 49.4116718 ], [ 8.6611769, 49.4115044 ], [ 8.6609726, 49.411323 ], [ 8.6607966, 49.4111294 ], [ 8.6606505, 49.4109255 ], [ 8.6605922, 49.4108176 ], [ 8.6604568, 49.4108128 ], [ 8.6601158, 49.4107788 ], [ 8.66, 49.4107595 ], [ 8.66, 49.404289 ], [ 8.6601227, 49.404182 ], [ 8.6601969, 49.4041291 ], [ 8.6601439, 49.4039883 ], [ 8.6600948, 49.4037655 ], [ 8.6600794, 49.4035406 ], [ 8.6600979, 49.4033159 ], [ 8.6601501, 49.4030933 ], [ 8.6602354, 49.4028752 ], [ 8.660353, 49.4026637 ], [ 8.6605019, 49.4024606 ], [ 8.6606806, 49.4022681 ], [ 8.6608873, 49.4020879 ], [ 8.66112, 49.4019218 ], [ 8.6613766, 49.4017714 ], [ 8.6616546, 49.4016381 ], [ 8.6619512, 49.4015232 ], [ 8.6622637, 49.4014279 ], [ 8.662589, 49.401353 ], [ 8.6629239, 49.4012993 ], [ 8.6630591, 49.4012866 ], [ 8.6631252, 49.4012394 ], [ 8.6633818, 49.401089 ], [ 8.6636598, 49.4009557 ], [ 8.6639564, 49.4008408 ], [ 8.6640482, 49.4008128 ], [ 8.6641915, 49.4006173 ], [ 8.6643702, 49.4004248 ], [ 8.6645769, 49.4002446 ], [ 8.6648096, 49.4000784 ], [ 8.6650662, 49.399928 ], [ 8.6653441, 49.3997947 ], [ 8.6656407, 49.3996799 ], [ 8.6659532, 49.3995845 ], [ 8.6662784, 49.3995096 ], [ 8.6664748, 49.3994781 ], [ 8.6665161, 49.3994487 ], [ 8.6667727, 49.3992983 ], [ 8.6670506, 49.399165 ], [ 8.6671315, 49.3991336 ], [ 8.6672617, 49.398956 ], [ 8.6674403, 49.3987634 ] ], [ [ 8.685772, 49.4134445 ], [ 8.6856232, 49.4136476 ], [ 8.6854446, 49.4138402 ], [ 8.685343, 49.4139288 ], [ 8.6853623, 49.4139349 ], [ 8.6856575, 49.4140514 ], [ 8.6859337, 49.4141862 ], [ 8.6861884, 49.4143381 ], [ 8.686419, 49.4145055 ], [ 8.6866234, 49.4146869 ], [ 8.6867995, 49.4148804 ], [ 8.6868947, 49.4150132 ], [ 8.6871992, 49.4150042 ], [ 8.6875437, 49.4150162 ], [ 8.6878848, 49.4150501 ], [ 8.6882191, 49.4151057 ], [ 8.6885434, 49.4151824 ], [ 8.6885679, 49.4151901 ], [ 8.6885921, 49.4150868 ], [ 8.6884741, 49.4150164 ], [ 8.6882435, 49.414849 ], [ 8.6880391, 49.4146677 ], [ 8.687863, 49.4144741 ], [ 8.6877168, 49.4142702 ], [ 8.6876019, 49.414058 ], [ 8.6875194, 49.4138394 ], [ 8.6874702, 49.4136166 ], [ 8.6874547, 49.4133918 ], [ 8.6874731, 49.413167 ], [ 8.6875251, 49.4129445 ], [ 8.6876103, 49.4127263 ], [ 8.6877279, 49.4125147 ], [ 8.6878767, 49.4123116 ], [ 8.6880553, 49.412119 ], [ 8.6882619, 49.4119388 ], [ 8.6884946, 49.4117727 ], [ 8.6887512, 49.4116222 ], [ 8.6890292, 49.4114888 ], [ 8.6893258, 49.4113739 ], [ 8.6896382, 49.4112785 ], [ 8.6897858, 49.4112445 ], [ 8.6896463, 49.41105 ], [ 8.6895314, 49.4108377 ], [ 8.689449, 49.4106192 ], [ 8.6894471, 49.4106105 ], [ 8.6893212, 49.4106395 ], [ 8.6889863, 49.4106933 ], [ 8.6886448, 49.4107254 ], [ 8.6883002, 49.4107355 ], [ 8.6879557, 49.4107235 ], [ 8.6876147, 49.4106896 ], [ 8.6872804, 49.410634 ], [ 8.686956, 49.4105573 ], [ 8.6866448, 49.4104602 ], [ 8.6864165, 49.41037 ], [ 8.6863465, 49.410496 ], [ 8.6861977, 49.4106991 ], [ 8.6860192, 49.4108917 ], [ 8.6858125, 49.4110719 ], [ 8.6855798, 49.4112381 ], [ 8.6854705, 49.4113021 ], [ 8.685637, 49.4114851 ], [ 8.6857832, 49.411689 ], [ 8.6858981, 49.4119013 ], [ 8.6859805, 49.4121198 ], [ 8.6860297, 49.4123426 ], [ 8.6860452, 49.4125675 ], [ 8.6860269, 49.4127923 ], [ 8.6859748, 49.4130148 ], [ 8.6858896, 49.4132329 ], [ 8.685772, 49.4134445 ] ], [ [ 8.679643, 49.4108309 ], [ 8.6797039, 49.4108672 ], [ 8.6798499, 49.410763 ], [ 8.6799945, 49.4106782 ], [ 8.6798512, 49.4104782 ], [ 8.6797363, 49.410266 ], [ 8.679674, 49.4101005 ], [ 8.6794834, 49.4100688 ], [ 8.6791591, 49.4099921 ], [ 8.6788479, 49.409895 ], [ 8.67877, 49.4098642 ], [ 8.6786075, 49.4099802 ], [ 8.6783509, 49.4101307 ], [ 8.6780729, 49.410264 ], [ 8.6779022, 49.4103301 ], [ 8.6781018, 49.41035 ], [ 8.6784361, 49.4104056 ], [ 8.6787604, 49.4104824 ], [ 8.6790716, 49.4105795 ], [ 8.6793668, 49.410696 ], [ 8.679643, 49.4108309 ] ], [ [ 8.6714712, 49.4111548 ], [ 8.6717955, 49.4112315 ], [ 8.6721068, 49.4113287 ], [ 8.6724019, 49.4114452 ], [ 8.6725216, 49.4115037 ], [ 8.6727126, 49.4114597 ], [ 8.6727708, 49.4114504 ], [ 8.6729177, 49.4113455 ], [ 8.6731743, 49.4111951 ], [ 8.6734523, 49.4110618 ], [ 8.6735751, 49.4110142 ], [ 8.6736891, 49.4109474 ], [ 8.6739671, 49.4108141 ], [ 8.6742637, 49.4106992 ], [ 8.6745762, 49.4106038 ], [ 8.6749015, 49.4105289 ], [ 8.6749818, 49.410516 ], [ 8.6747733, 49.4104667 ], [ 8.6747042, 49.4104451 ], [ 8.6744506, 49.4105667 ], [ 8.6741539, 49.4106816 ], [ 8.6738414, 49.410777 ], [ 8.6735161, 49.4108519 ], [ 8.6731811, 49.4109056 ], [ 8.6728397, 49.4109377 ], [ 8.672495, 49.4109478 ], [ 8.6721506, 49.4109358 ], [ 8.6718095, 49.4109018 ], [ 8.6714753, 49.4108461 ], [ 8.6712055, 49.4107823 ], [ 8.6710689, 49.4108798 ], [ 8.6708122, 49.4110302 ], [ 8.6707432, 49.4110633 ], [ 8.6707959, 49.4110651 ], [ 8.671137, 49.4110991 ], [ 8.6714712, 49.4111548 ] ], [ [ 8.6676455, 49.4167467 ], [ 8.6676552, 49.4167362 ], [ 8.6677406, 49.4166618 ], [ 8.6676415, 49.4166921 ], [ 8.6676251, 49.4166958 ], [ 8.6675393, 49.416737 ], [ 8.6675527, 49.4167375 ], [ 8.6676455, 49.4167467 ] ] ], [ [ [ 8.7153117, 49.3989523 ], [ 8.7156068, 49.3990688 ], [ 8.7158831, 49.3992036 ], [ 8.7161377, 49.3993553 ], [ 8.7163684, 49.3995227 ], [ 8.7165728, 49.399704 ], [ 8.716749, 49.3998975 ], [ 8.7168953, 49.4001013 ], [ 8.7170103, 49.4003136 ], [ 8.7170928, 49.4005321 ], [ 8.7171422, 49.4007549 ], [ 8.7171578, 49.4009798 ], [ 8.7171396, 49.4012045 ], [ 8.7170877, 49.4014271 ], [ 8.7170026, 49.4016452 ], [ 8.7168852, 49.4018569 ], [ 8.7167366, 49.40206 ], [ 8.7165581, 49.4022526 ], [ 8.7163516, 49.4024329 ], [ 8.716119, 49.4025991 ], [ 8.7158626, 49.4027496 ], [ 8.7155848, 49.4028831 ], [ 8.7154224, 49.402946 ], [ 8.7152939, 49.4030215 ], [ 8.7150161, 49.4031549 ], [ 8.7147196, 49.4032699 ], [ 8.7144072, 49.4033653 ], [ 8.714082, 49.4034404 ], [ 8.7137471, 49.4034942 ], [ 8.7134057, 49.4035264 ], [ 8.7130611, 49.4035366 ], [ 8.7127167, 49.4035247 ], [ 8.7123757, 49.4034908 ], [ 8.7120414, 49.4034353 ], [ 8.7117171, 49.4033587 ], [ 8.7114059, 49.4032616 ], [ 8.7111107, 49.4031452 ], [ 8.7108344, 49.4030104 ], [ 8.7105798, 49.4028586 ], [ 8.7103491, 49.4026912 ], [ 8.7101447, 49.4025099 ], [ 8.7099685, 49.4023164 ], [ 8.7098222, 49.4021126 ], [ 8.7097073, 49.4019003 ], [ 8.7096248, 49.4016818 ], [ 8.7095755, 49.401459 ], [ 8.7095599, 49.4012341 ], [ 8.7095781, 49.4010093 ], [ 8.7096301, 49.4007868 ], [ 8.7097151, 49.4005687 ], [ 8.7098326, 49.400357 ], [ 8.7099813, 49.4001539 ], [ 8.7101597, 49.3999613 ], [ 8.7103662, 49.399781 ], [ 8.7105988, 49.3996148 ], [ 8.7108553, 49.3994643 ], [ 8.7111331, 49.3993309 ], [ 8.7112955, 49.3992679 ], [ 8.711424, 49.3991925 ], [ 8.7117018, 49.3990591 ], [ 8.7119983, 49.3989441 ], [ 8.7123106, 49.3988487 ], [ 8.7126358, 49.3987736 ], [ 8.7129706, 49.3987198 ], [ 8.713312, 49.3986876 ], [ 8.7136565, 49.3986774 ], [ 8.7140009, 49.3986893 ], [ 8.7143419, 49.3987232 ], [ 8.7146762, 49.3987787 ], [ 8.7150004, 49.3988553 ], [ 8.7153117, 49.3989523 ] ] ] ] } },
{ "type": "Feature", "properties": { "index": "1", "label": "Beyond 255 m", "color": "#d9d9d9" }, "geometry": { "type": "MultiPolygon", "coordinates": [ [ [ [ 8.6931637, 49.3980038 ], [ 8.72, 49.398 ], [ 8.72, 49.4120562 ], [ 8.7199802, 49.4120444 ], [ 8.7197039, 49.4119096 ], [ 8.7194086, 49.4117932 ], [ 8.7190973, 49.4116962 ], [ 8.7187729, 49.4116196 ], [ 8.7184386, 49.4115641 ], [ 8.7180976, 49.4115302 ], [ 8.7178349, 49.4115211 ], [ 8.7177343, 49.4114974 ], [ 8.7174, 49.4114419 ], [ 8.7170589, 49.411408 ], [ 8.7167144, 49.4113961 ], [ 8.7163698, 49.4114063 ], [ 8.7160283, 49.4114385 ], [ 8.7159641, 49.4114488 ], [ 8.715909, 49.411372 ], [ 8.7157327, 49.4111785 ], [ 8.7155283, 49.4109972 ], [ 8.7155111, 49.4109848 ], [ 8.715481, 49.4108488 ], [ 8.7154379, 49.4107347 ], [ 8.7155053, 49.4106951 ], [ 8.715738, 49.4105289 ], [ 8.7159445, 49.4103486 ], [ 8.716123, 49.410156 ], [ 8.7162716, 49.4099529 ], [ 8.7163891, 49.4097412 ], [ 8.7164742, 49.4095231 ], [ 8.7165025, 49.4094018 ], [ 8.7166789, 49.4093333 ], [ 8.7169567, 49.4091999 ], [ 8.7172132, 49.4090494 ], [ 8.7174458, 49.4088832 ], [ 8.7176524, 49.4087029 ], [ 8.7178308, 49.4085102 ], [ 8.7179617, 49.4083314 ], [ 8.7179997, 49.4082982 ], [ 8.7181782, 49.4081055 ], [ 8.7183268, 49.4079024 ], [ 8.7184443, 49.4076908 ], [ 8.7185293, 49.4074726 ], [ 8.7185812, 49.4072501 ], [ 8.7185994, 49.4070253 ], [ 8.7185838, 49.4068004 ], [ 8.7185345, 49.4065777 ], [ 8.7184519, 49.4063591 ], [ 8.7183369, 49.4061469 ], [ 8.7181906, 49.4059431 ], [ 8.7180143, 49.4057496 ], [ 8.7178807, 49.405631 ], [ 8.7178778, 49.4056235 ], [ 8.7177628, 49.4054113 ], [ 8.7176165, 49.4052075 ], [ 8.7174403, 49.405014 ], [ 8.7172359, 49.4048327 ], [ 8.7170052, 49.4046653 ], [ 8.7167505, 49.4045135 ], [ 8.7164742, 49.4043788 ], [ 8.716179, 49.4042623 ], [ 8.7158678, 49.4041653 ], [ 8.7155434, 49.4040887 ], [ 8.7152092, 49.4040332 ], [ 8.7148681, 49.4039993 ], [ 8.7145237, 49.4039874 ], [ 8.7141791, 49.4039976 ], [ 8.7138377, 49.4040298 ], [ 8.7135028, 49.4040837 ], [ 8.7131776, 49.4041587 ], [ 8.7128652, 49.4042541 ], [ 8.7125687, 49.4043691 ], [ 8.7122909, 49.4045025 ], [ 8.7120344, 49.4046531 ], [ 8.7118018, 49.4048193 ], [ 8.7115953, 49.4049995 ], [ 8.7114168, 49.4051922 ], [ 8.7112681, 49.4053953 ], [ 8.7111507, 49.4056069 ], [ 8.7110656, 49.4058251 ], [ 8.7110137, 49.4060476 ], [ 8.7109954, 49.4062724 ], [ 8.711011, 49.4064972 ], [ 8.7110603, 49.40672 ], [ 8.7110641, 49.4067301 ], [ 8.7107745, 49.4067766 ], [ 8.7104493, 49.4068516 ], [ 8.7101369, 49.4069471 ], [ 8.7098403, 49.4070621 ], [ 8.7096245, 49.4071657 ], [ 8.7094034, 49.4070968 ], [ 8.7090791, 49.4070201 ], [ 8.7087448, 49.4069646 ], [ 8.7084038, 49.4069307 ], [ 8.7080593, 49.4069188 ], [ 8.7077147, 49.406929 ], [ 8.7073733, 49.4069611 ], [ 8.7073425, 49.4069661 ], [ 8.7070631, 49.4068559 ], [ 8.7067518, 49.4067588 ], [ 8.7064275, 49.4066822 ], [ 8.7060932, 49.4066266 ], [ 8.7057522, 49.4065927 ], [ 8.7054077, 49.4065808 ], [ 8.7050631, 49.406591 ], [ 8.7047217, 49.4066231 ], [ 8.7043868, 49.406677 ], [ 8.7040615, 49.406752 ], [ 8.7037491, 49.4068474 ], [ 8.7034526, 49.4069624 ], [ 8.7031747, 49.4070958 ], [ 8.7031466, 49.4071122 ], [ 8.703067, 49.4070013 ], [ 8.7028908, 49.4068077 ], [ 8.7026864, 49.4066264 ], [ 8.7024558, 49.406459 ], [ 8.7022011, 49.4063072 ], [ 8.7021818, 49.4062978 ], [ 8.7021711, 49.4062914 ], [ 8.7018948, 49.4061566 ], [ 8.7015997, 49.4060401 ], [ 8.7012884, 49.4059431 ], [ 8.7009641, 49.4058664 ], [ 8.7006298, 49.4058109 ], [ 8.7002888, 49.4057769 ], [ 8.6999444, 49.405765 ], [ 8.6995998, 49.4057752 ], [ 8.6992584, 49.4058073 ], [ 8.6989234, 49.4058611 ], [ 8.6985982, 49.4059361 ], [ 8.6982858, 49.4060315 ], [ 8.6979892, 49.4061465 ], [ 8.6979812, 49.4061503 ], [ 8.6979317, 49.406155 ], [ 8.6975968, 49.4062088 ], [ 8.6972715, 49.4062838 ], [ 8.6972137, 49.4063015 ], [ 8.6973123, 49.4061239 ], [ 8.6973974, 49.4059057 ], [ 8.6974494, 49.4056832 ], [ 8.6974677, 49.4054584 ], [ 8.6974522, 49.4052336 ], [ 8.6974029, 49.4050108 ], [ 8.6973205, 49.4047922 ], [ 8.6972056, 49.40458 ], [ 8.6970593, 49.4043761 ], [ 8.6968832, 49.4041826 ], [ 8.6966788, 49.4040013 ], [ 8.6964482, 49.4038339 ], [ 8.6961936, 49.403682 ], [ 8.6959174, 49.4035472 ], [ 8.6956222, 49.4034307 ], [ 8.695311, 49.4033337 ], [ 8.6950428, 49.4032702 ], [ 8.69509, 49.4031493 ], [ 8.695142, 49.4029268 ], [ 8.6951603, 49.402702 ], [ 8.6951448, 49.4024772 ], [ 8.6950956, 49.4022544 ], [ 8.6950636, 49.4021696 ], [ 8.6950725, 49.4020602 ], [ 8.6950569, 49.4018354 ], [ 8.6950077, 49.4016126 ], [ 8.6949253, 49.401394 ], [ 8.6948104, 49.4011818 ], [ 8.6946642, 49.4009779 ], [ 8.6945154, 49.4008144 ], [ 8.6945447, 49.4007391 ], [ 8.6945571, 49.4006863 ], [ 8.6946055, 49.4005992 ], [ 8.6946906, 49.400381 ], [ 8.6947426, 49.4001585 ], [ 8.6947609, 49.3999337 ], [ 8.6947454, 49.3997089 ], [ 8.6946962, 49.3994861 ], [ 8.6946137, 49.3992675 ], [ 8.6944988, 49.3990553 ], [ 8.6943526, 49.3988514 ], [ 8.6941765, 49.3986579 ], [ 8.6939722, 49.3984765 ], [ 8.6937416, 49.3983091 ], [ 8.693487, 49.3981573 ], [ 8.6932108, 49.3980225 ], [ 8.6931637, 49.3980038 ] ], [ [ 8.7161377, 49.3993553 ], [ 8.7158831, 49.3992036 ], [ 8.7156068, 49.3990688 ], [ 8.7153117, 49.3989523 ], [ 8.7150004, 49.3988553 ], [ 8.7146762, 49.3987787 ], [ 8.7143419, 49.3987232 ], [ 8.7140009, 49.3986893 ], [ 8.7136565, 49.3986774 ], [ 8.713312, 49.3986876 ], [ 8.7129706, 49.3987198 ], [ 8.7126358, 49.3987736 ], [ 8.7123106, 49.3988487 ], [ 8.7119983, 49.3989441 ], [ 8.7117018, 49.3990591 ], [ 8.711424, 49.3991925 ], [ 8.7112955, 49.3992679 ], [ 8.7111331, 49.3993309 ], [ 8.7108553, 49.3994643 ], [ 8.7105988, 49.3996148 ], [ 8.7103662, 49.399781 ], [ 8.7101597, 49.3999613 ], [ 8.7099813, 49.4001539 ], [ 8.7098326, 49.400357 ], [ 8.7097151, 49.4005687 ], [ 8.7096301, 49.4007868 ], [ 8.7095781, 49.4010093 ], [ 8.7095599, 49.4012341 ], [ 8.7095755, 49.401459 ], [ 8.7096248, 49.4016818 ], [ 8.7097073, 49.4019003 ], [ 8.7098222, 49.4021126 ], [ 8.7099685, 49.4023164 ], [ 8.7101447, 49.4025099 ], [ 8.7103491, 49.4026912 ], [ 8.7105798, 49.4028586 ], [ 8.7108344, 49.4030104 ], [ 8.7111107, 49.4031452 ], [ 8.7114059, 49.4032616 ], [ 8.7117171, 49.4033587 ], [ 8.7120414, 49.4034353 ], [ 8.7123757, 49.4034908 ], [ 8.7127167, 49.4035247 ], [ 8.7130611, 49.4035366 ], [ 8.7134057, 49.4035264 ], [ 8.7137471, 49.4034942 ], [ 8.714082, 49.4034404 ], [ 8.7144072, 49.4033653 ], [ 8.7147196, 49.4032699 ], [ 8.7150161, 49.4031549 ], [ 8.7152939, 49.4030215 ], [ 8.7154224, 49.402946 ], [ 8.7155848, 49.4028831 ], [ 8.7158626, 49.4027496 ], [ 8.716119, 49.4025991 ], [ 8.7163516, 49.4024329 ], [ 8.7165581, 49.4022526 ], [ 8.7167366, 49.40206 ], [ 8.7168852, 49.4018569 ], [ 8.7170026, 49.4016452 ], [ 8.7170877, 49.4014271 ], [ 8.7171396, 49.4012045 ], [ 8.7171578, 49.4009798 ], [ 8.7171422, 49.4007549 ], [ 8.7170928, 49.4005321 ], [ 8.7170103, 49.4003136 ], [ 8.7168953, 49.4001013 ], [ 8.716749, 49.3998975 ], [ 8.7165728, 49.399704 ], [ 8.7163684, 49.3995227 ], [ 8.7161377, 49.3993553 ] ] ], [ [ [ 8.72, 49.4172187 ], [ 8.72, 49.422 ], [ 8.6925968, 49.4220039 ], [ 8.692639, 49.4218958 ], [ 8.692691, 49.4216733 ], [ 8.6927094, 49.4214485 ], [ 8.6926938, 49.4212236 ], [ 8.6926446, 49.4210008 ], [ 8.6925621, 49.4207823 ], [ 8.6925316, 49.420726 ], [ 8.6926002, 49.4206994 ], [ 8.6928782, 49.4205661 ], [ 8.6931348, 49.4204156 ], [ 8.6933675, 49.4202494 ], [ 8.6935742, 49.4200692 ], [ 8.6937528, 49.4198766 ], [ 8.6939016, 49.4196735 ], [ 8.6940191, 49.4194619 ], [ 8.6941043, 49.4192437 ], [ 8.6941563, 49.4190212 ], [ 8.6941747, 49.4187965 ], [ 8.6941591, 49.4185716 ], [ 8.6941291, 49.4184359 ], [ 8.694299, 49.4182527 ], [ 8.6944478, 49.4180496 ], [ 8.6945653, 49.417838 ], [ 8.6946505, 49.4176198 ], [ 8.6947025, 49.4173973 ], [ 8.6947079, 49.4173314 ], [ 8.6948494, 49.4172304 ], [ 8.6950561, 49.4170501 ], [ 8.6952346, 49.4168575 ], [ 8.6953834, 49.4166545 ], [ 8.6955009, 49.4164428 ], [ 8.6955793, 49.4162421 ], [ 8.6956356, 49.4163459 ], [ 8.695646, 49.4163736 ], [ 8.6957609, 49.4165859 ], [ 8.6959072, 49.4167897 ], [ 8.6960834, 49.4169833 ], [ 8.6962878, 49.4171646 ], [ 8.6965185, 49.417332 ], [ 8.6967732, 49.4174838 ], [ 8.6970495, 49.4176186 ], [ 8.6973447, 49.4177351 ], [ 8.697656, 49.4178322 ], [ 8.6979804, 49.4179089 ], [ 8.6983147, 49.4179644 ], [ 8.6986558, 49.4179983 ], [ 8.6990004, 49.4180103 ], [ 8.6993451, 49.4180001 ], [ 8.6996865, 49.417968 ], [ 8.7000216, 49.4179142 ], [ 8.7003469, 49.4178392 ], [ 8.7006594, 49.4177438 ], [ 8.700956, 49.4176288 ], [ 8.7012339, 49.4174954 ], [ 8.7014905, 49.4173449 ], [ 8.7017232, 49.4171787 ], [ 8.7019298, 49.4169985 ], [ 8.7021084, 49.4168059 ], [ 8.7022571, 49.4166028 ], [ 8.7023746, 49.4163911 ], [ 8.7024598, 49.416173 ], [ 8.7025118, 49.4159505 ], [ 8.70253, 49.4157257 ], [ 8.7025145, 49.4155008 ], [ 8.7024652, 49.415278 ], [ 8.702451, 49.4152404 ], [ 8.7024821, 49.4152435 ], [ 8.7028267, 49.4152554 ], [ 8.7031713, 49.4152452 ], [ 8.7035128, 49.4152131 ], [ 8.7037211, 49.4151796 ], [ 8.7039153, 49.4152743 ], [ 8.7042106, 49.4153908 ], [ 8.7045219, 49.4154879 ], [ 8.7048462, 49.4155645 ], [ 8.7051806, 49.4156201 ], [ 8.7054674, 49.4156486 ], [ 8.7054813, 49.4157111 ], [ 8.7055638, 49.4159297 ], [ 8.7056787, 49.4161419 ], [ 8.705825, 49.4163458 ], [ 8.7060013, 49.4165393 ], [ 8.7062057, 49.4167206 ], [ 8.7064364, 49.416888 ], [ 8.7066911, 49.4170398 ], [ 8.7069675, 49.4171746 ], [ 8.7072627, 49.4172911 ], [ 8.707574, 49.4173881 ], [ 8.7078984, 49.4174647 ], [ 8.7082328, 49.4175203 ], [ 8.7085739, 49.4175542 ], [ 8.7089184, 49.4175661 ], [ 8.7092631, 49.4175559 ], [ 8.7096046, 49.4175237 ], [ 8.7099396, 49.4174699 ], [ 8.7100877, 49.4174357 ], [ 8.710162, 49.4174238 ], [ 8.7104873, 49.4173488 ], [ 8.7107998, 49.4172533 ], [ 8.7110964, 49.4171383 ], [ 8.7113743, 49.4170049 ], [ 8.7116308, 49.4168544 ], [ 8.7118635, 49.4166882 ], [ 8.7120701, 49.4165079 ], [ 8.7122486, 49.4163153 ], [ 8.7123973, 49.4161122 ], [ 8.7124388, 49.4160373 ], [ 8.7124504, 49.4162044 ], [ 8.7124998, 49.4164272 ], [ 8.7125823, 49.4166457 ], [ 8.7126973, 49.4168579 ], [ 8.7128436, 49.4170618 ], [ 8.7130199, 49.4172553 ], [ 8.7132244, 49.4174366 ], [ 8.7134551, 49.4176039 ], [ 8.7137099, 49.4177557 ], [ 8.7139862, 49.4178905 ], [ 8.7142815, 49.418007 ], [ 8.7145928, 49.418104 ], [ 8.7149172, 49.4181806 ], [ 8.7152313, 49.4182328 ], [ 8.7154969, 49.4183155 ], [ 8.7158213, 49.4183921 ], [ 8.7161556, 49.4184476 ], [ 8.7164968, 49.4184815 ], [ 8.7168413, 49.4184934 ], [ 8.717186, 49.4184832 ], [ 8.7175275, 49.418451 ], [ 8.7178625, 49.4183971 ], [ 8.7181878, 49.4183221 ], [ 8.7185002, 49.4182266 ], [ 8.7187968, 49.4181116 ], [ 8.7190747, 49.4179782 ], [ 8.7193312, 49.4178276 ], [ 8.7195639, 49.4176614 ], [ 8.7197704, 49.4174811 ], [ 8.7199489, 49.4172885 ], [ 8.72, 49.4172187 ] ] ], [ [ [ 8.6807775, 49.4219106 ], [ 8.6809679, 49.4220035 ], [ 8.6769885, 49.4220032 ], [ 8.6771276, 49.4219365 ], [ 8.6773842, 49.421786 ], [ 8.677617, 49.4216199 ], [ 8.6778238, 49.4214397 ], [ 8.6779844, 49.4212665 ], [ 8.6781989, 49.4211835 ], [ 8.6784769, 49.4210502 ], [ 8.6785417, 49.4210121 ], [ 8.6785486, 49.4210089 ], [ 8.6788052, 49.4208584 ], [ 8.679038, 49.4206923 ], [ 8.6792448, 49.420512 ], [ 8.6794234, 49.4203195 ], [ 8.6795083, 49.4202036 ], [ 8.679519, 49.4203589 ], [ 8.6795682, 49.4205817 ], [ 8.6796506, 49.4208002 ], [ 8.6797655, 49.4210125 ], [ 8.6799117, 49.4212164 ], [ 8.6800878, 49.4214099 ], [ 8.6802922, 49.4215913 ], [ 8.6805228, 49.4217587 ], [ 8.6807775, 49.4219106 ] ] ], [ [ [ 8.6726664, 49.4219239 ], [ 8.6728276, 49.4220026 ], [ 8.6699543, 49.4220022 ], [ 8.6701642, 49.4219015 ], [ 8.6704144, 49.4217549 ], [ 8.6704715, 49.4217496 ], [ 8.6708065, 49.4216958 ], [ 8.6711319, 49.4216209 ], [ 8.6714445, 49.4215256 ], [ 8.6717412, 49.4214107 ], [ 8.6718973, 49.4213359 ], [ 8.6719768, 49.4214232 ], [ 8.6721811, 49.4216046 ], [ 8.6724117, 49.4217721 ], [ 8.6726664, 49.4219239 ] ] ], [ [ [ 8.6659338, 49.4220014 ], [ 8.66, 49.422 ], [ 8.66, 49.4202223 ], [ 8.6600257, 49.420245 ], [ 8.6602562, 49.4204125 ], [ 8.6605108, 49.4205644 ], [ 8.6607871, 49.4206993 ], [ 8.6610822, 49.4208159 ], [ 8.6613935, 49.420913 ], [ 8.6617178, 49.4209898 ], [ 8.6620521, 49.4210455 ], [ 8.6623932, 49.4210795 ], [ 8.6627378, 49.4210916 ], [ 8.6630825, 49.4210815 ], [ 8.663424, 49.4210495 ], [ 8.6634331, 49.421048 ], [ 8.6634644, 49.4210471 ], [ 8.6638059, 49.4210151 ], [ 8.664141, 49.4209614 ], [ 8.6644664, 49.4208865 ], [ 8.6644929, 49.4208784 ], [ 8.6645242, 49.4208795 ], [ 8.6646506, 49.4209549 ], [ 8.6646798, 49.4209691 ], [ 8.6646913, 49.4209905 ], [ 8.6648374, 49.4211944 ], [ 8.6650135, 49.421388 ], [ 8.6652178, 49.4215694 ], [ 8.6654484, 49.4217368 ], [ 8.6657031, 49.4218887 ], [ 8.6659338, 49.4220014 ] ] ], [ [ [ 8.6600239, 49.4150819 ], [ 8.66, 49.4150874 ], [ 8.66, 49.4107595 ], [ 8.6601158, 49.4107788 ], [ 8.6604568, 49.4108128 ], [ 8.6605922, 49.4108176 ], [ 8.6606505, 49.4109255 ], [ 8.6607966, 49.4111294 ], [ 8.6609726, 49.411323 ], [ 8.6611769, 49.4115044 ], [ 8.6614074, 49.4116718 ], [ 8.661662, 49.4118237 ], [ 8.6619381, 49.4119586 ], [ 8.6622333, 49.4120752 ], [ 8.6625445, 49.4121724 ], [ 8.6628688, 49.4122491 ], [ 8.663203, 49.4123048 ], [ 8.663544, 49.4123388 ], [ 8.6638885, 49.4123509 ], [ 8.6642332, 49.4123408 ], [ 8.6645747, 49.4123088 ], [ 8.6649097, 49.4122551 ], [ 8.665235, 49.4121802 ], [ 8.6655475, 49.4120848 ], [ 8.6658442, 49.41197 ], [ 8.6658943, 49.411946 ], [ 8.6659081, 49.4119428 ], [ 8.6662206, 49.4118474 ], [ 8.6665173, 49.4117326 ], [ 8.6667953, 49.4115993 ], [ 8.667052, 49.4114489 ], [ 8.6671883, 49.4113516 ], [ 8.6672346, 49.411366 ], [ 8.6675589, 49.4114428 ], [ 8.6678931, 49.4114984 ], [ 8.6682342, 49.4115324 ], [ 8.6682384, 49.4115326 ], [ 8.668176, 49.4115568 ], [ 8.667898, 49.4116901 ], [ 8.6676413, 49.4118405 ], [ 8.6674085, 49.4120066 ], [ 8.6672018, 49.4121868 ], [ 8.6670681, 49.4123309 ], [ 8.6670116, 49.4123215 ], [ 8.6666705, 49.4122875 ], [ 8.666326, 49.4122754 ], [ 8.6659814, 49.4122855 ], [ 8.6656399, 49.4123175 ], [ 8.6653049, 49.4123712 ], [ 8.6649796, 49.4124461 ], [ 8.6646671, 49.4125415 ], [ 8.6645039, 49.4126046 ], [ 8.6644685, 49.4126057 ], [ 8.664127, 49.4126377 ], [ 8.663792, 49.4126914 ], [ 8.6634666, 49.4127663 ], [ 8.6631541, 49.4128616 ], [ 8.6629293, 49.4129487 ], [ 8.6628596, 49.4129552 ], [ 8.6625246, 49.4130089 ], [ 8.6621993, 49.4130838 ], [ 8.6618868, 49.4131791 ], [ 8.66159, 49.413294 ], [ 8.661312, 49.4134273 ], [ 8.6610554, 49.4135777 ], [ 8.6608225, 49.4137438 ], [ 8.6606158, 49.413924 ], [ 8.6604371, 49.4141165 ], [ 8.6602882, 49.4143196 ], [ 8.6601705, 49.4145311 ], [ 8.6600851, 49.4147492 ], [ 8.660033, 49.4149717 ], [ 8.6600239, 49.4150819 ] ] ], [ [ [ 8.66, 49.404289 ], [ 8.66, 49.398 ], [ 8.6686989, 49.3980019 ], [ 8.6686553, 49.39804 ], [ 8.6684142, 49.3981334 ], [ 8.6681363, 49.3982667 ], [ 8.6678797, 49.3984171 ], [ 8.667647, 49.3985832 ], [ 8.6674403, 49.3987634 ], [ 8.6672617, 49.398956 ], [ 8.6671315, 49.3991336 ], [ 8.6670506, 49.399165 ], [ 8.6667727, 49.3992983 ], [ 8.6665161, 49.3994487 ], [ 8.6664748, 49.3994781 ], [ 8.6662784, 49.3995096 ], [ 8.6659532, 49.3995845 ], [ 8.6656407, 49.3996799 ], [ 8.6653441, 49.3997947 ], [ 8.6650662, 49.399928 ], [ 8.6648096, 49.4000784 ], [ 8.6645769, 49.4002446 ], [ 8.6643702, 49.4004248 ], [ 8.6641915, 49.4006173 ], [ 8.6640482, 49.4008128 ], [ 8.6639564, 49.4008408 ], [ 8.6636598, 49.4009557 ], [ 8.6633818, 49.401089 ], [ 8.6631252, 49.4012394 ], [ 8.6630591, 49.4012866 ], [ 8.6629239, 49.4012993 ], [ 8.662589, 49.401353 ], [ 8.6622637, 49.4014279 ], [ 8.6619512, 49.4015232 ], [ 8.6616546, 49.4016381 ], [ 8.6613766, 49.4017714 ], [ 8.66112, 49.4019218 ], [ 8.6608873, 49.4020879 ], [ 8.6606806, 49.4022681 ], [ 8.6605019, 49.4024606 ], [ 8.660353, 49.4026637 ], [ 8.6602354, 49.4028752 ], [ 8.6601501, 49.4030933 ], [ 8.6600979, 49.4033159 ], [ 8.6600794, 49.4035406 ], [ 8.6600948, 49.4037655 ], [ 8.6601439, 49.4039883 ], [ 8.6601969, 49.4041291 ], [ 8.6601227, 49.404182 ], [ 8.66, 49.404289 ] ] ], [ [ [ 8.6796621, 49.3980625 ], [ 8.6795808, 49.3980034 ], [ 8.6842454, 49.3980037 ], [ 8.6841964, 49.3980387 ], [ 8.6839898, 49.3982189 ], [ 8.6838112, 49.3984115 ], [ 8.6836625, 49.3986146 ], [ 8.6835449, 49.3988262 ], [ 8.6834597, 49.3990443 ], [ 8.6834077, 49.3992669 ], [ 8.6833893, 49.3994916 ], [ 8.6834048, 49.3997165 ], [ 8.6834107, 49.3997431 ], [ 8.6831662, 49.3998378 ], [ 8.6828883, 49.3999712 ], [ 8.6826318, 49.4001216 ], [ 8.6823991, 49.4002878 ], [ 8.6821925, 49.400468 ], [ 8.6821166, 49.4005498 ], [ 8.6821101, 49.4004545 ], [ 8.6820609, 49.4002318 ], [ 8.6819785, 49.4000132 ], [ 8.6818637, 49.3998009 ], [ 8.6817176, 49.399597 ], [ 8.6815415, 49.3994035 ], [ 8.6813372, 49.3992221 ], [ 8.6811067, 49.3990547 ], [ 8.6808521, 49.3989028 ], [ 8.6807371, 49.3988467 ], [ 8.680557, 49.3987392 ], [ 8.6802809, 49.3986044 ], [ 8.6801152, 49.398539 ], [ 8.6800424, 49.3984374 ], [ 8.6798664, 49.3982438 ], [ 8.6796621, 49.3980625 ] ] ], [ [ [ 8.685343, 49.4139288 ], [ 8.6854446, 49.4138402 ], [ 8.6856232, 49.4136476 ], [ 8.685772, 49.4134445 ], [ 8.6858896, 49.4132329 ], [ 8.6859748, 49.4130148 ], [ 8.6860269, 49.4127923 ], [ 8.6860452, 49.4125675 ], [ 8.6860297, 49.4123426 ], [ 8.6859805, 49.4121198 ], [ 8.6858981, 49.4119013 ], [ 8.6857832, 49.411689 ], [ 8.685637, 49.4114851 ], [ 8.6854705, 49.4113021 ], [ 8.6855798, 49.4112381 ], [ 8.6858125, 49.4110719 ], [ 8.6860192, 49.4108917 ], [ 8.6861977, 49.4106991 ], [ 8.6863465, 49.410496 ], [ 8.6864165, 49.41037 ], [ 8.6866448, 49.4104602 ], [ 8.686956, 49.4105573 ], [ 8.6872804, 49.410634 ], [ 8.6876147, 49.4106896 ], [ 8.6879557, 49.4107235 ], [ 8.6883002, 49.4107355 ], [ 8.6886448, 49.4107254 ], [ 8.6889863, 49.4106933 ], [ 8.6893212, 49.4106395 ], [ 8.6894471, 49.4106105 ], [ 8.689449, 49.4106192 ], [ 8.6895314, 49.4108377 ], [ 8.6896463, 49.41105 ], [ 8.6897858, 49.4112445 ], [ 8.6896382, 49.4112785 ], [ 8.6893258, 49.4113739 ], [ 8.6890292, 49.4114888 ], [ 8.6887512, 49.4116222 ], [ 8.6884946, 49.4117727 ], [ 8.6882619, 49.4119388 ], [ 8.6880553, 49.412119 ], [ 8.6878767, 49.4123116 ], [ 8.6877279, 49.4125147 ], [ 8.6876103, 49.4127263 ], [ 8.6875251, 49.4129445 ], [ 8.6874731, 49.413167 ], [ 8.6874547, 49.4133918 ], [ 8.6874702, 49.4136166 ], [ 8.6875194, 49.4138394 ], [ 8.6876019, 49.414058 ], [ 8.6877168, 49.4142702 ], [ 8.687863, 49.4144741 ], [ 8.6880391, 49.4146677 ], [ 8.6882435, 49.414849 ], [ 8.6884741, 49.4150164 ], [ 8.6885921, 49.4150868 ], [ 8.6885679, 49.4151901 ], [ 8.6885434, 49.4151824 ], [ 8.6882191, 49.4151057 ], [ 8.6878848, 49.4150501 ], [ 8.6875437, 49.4150162 ], [ 8.6871992, 49.4150042 ], [ 8.6868947, 49.4150132 ], [ 8.6867995, 49.4148804 ], [ 8.6866234, 49.4146869 ], [ 8.686419, 49.4145055 ], [ 8.6861884, 49.4143381 ], [ 8.6859337, 49.4141862 ], [ 8.6856575, 49.4140514 ], [ 8.6853623, 49.4139349 ], [ 8.685343, 49.4139288 ] ] ], [ [ [ 8.6799945, 49.4106782 ], [ 8.6798499, 49.410763 ], [ 8.6797039, 49.4108672 ], [ 8.679643, 49.4108309 ], [ 8.6793668, 49.410696 ], [ 8.6790716, 49.4105795 ], [ 8.6787604, 49.4104824 ], [ 8.6784361, 49.4104056 ], [ 8.6781018, 49.41035 ], [ 8.6779022, 49.4103301 ], [ 8.6780729, 49.410264 ], [ 8.6783509, 49.4101307 ], [ 8.6786075, 49.4099802 ], [ 8.67877, 49.4098642 ], [ 8.6788479, 49.409895 ], [ 8.6791591, 49.4099921 ], [ 8.6794834, 49.4100688 ], [ 8.679674, 49.4101005 ], [ 8.6797363, 49.410266 ], [ 8.6798512, 49.4104782 ], [ 8.6799945, 49.4106782 ] ] ], [ [ [ 8.6724019, 49.4114452 ], [ 8.6721068, 49.4113287 ], [ 8.6717955, 49.4112315 ], [ 8.6714712, 49.4111548 ], [ 8.671137, 49.4110991 ], [ 8.6707959, 49.4110651 ], [ 8.6707432, 49.4110633 ], [ 8.6708122, 49.4110302 ], [ 8.6710689, 49.4108798 ], [ 8.6712055, 49.4107823 ], [ 8.6714753, 49.4108461 ], [ 8.6718095, 49.4109018 ], [ 8.6721506, 49.4109358 ], [ 8.672495, 49.4109478 ], [ 8.6728397, 49.4109377 ], [ 8.6731811, 49.4109056 ], [ 8.6735161, 49.4108519 ], [ 8.6738414, 49.410777 ], [ 8.6741539, 49.4106816 ], [ 8.6744506, 49.4105667 ], [ 8.6747042, 49.4104451 ], [ 8.6747733, 49.4104667 ], [ 8.6749818, 49.410516 ], [ 8.6749015, 49.4105289 ], [ 8.6745762, 49.4106038 ], [ 8.6742637, 49.4106992 ], [ 8.6739671, 49.4108141 ], [ 8.6736891, 49.4109474 ], [ 8.6735751, 49.4110142 ], [ 8.6734523, 49.4110618 ], [ 8.6731743, 49.4111951 ], [ 8.6729177, 49.4113455 ], [ 8.6727708, 49.4114504 ], [ 8.6727126, 49.4114597 ], [ 8.6725216, 49.4115037 ], [ 8.6724019, 49.4114452 ] ] ], [ [ [ 8.6676415, 49.4166921 ], [ 8.6677406, 49.4166618 ], [ 8.6676552, 49.4167362 ], [ 8.6676455, 49.4167467 ], [ 8.6675527, 49.4167375 ], [ 8.6675393, 49.416737 ], [ 8.6676251, 49.4166958 ], [ 8.6676415, 49.4166921 ] ] ] ] } }
]
}
