{
"type": "FeatureCollection",
"features": [
{ "type": "Feature", "properties": { "index": "0", "label": "Within 300 m on foot", "color": "#2b8cbe" }, "geometry": { "type": "Polygon", "coordinates": [ [ [ 8.6669261, 49.3985371 ], [ 8.6671693, 49.3983251 ], [ 8.6674431, 49.3981296 ], [ 8.6676612, 49.3980017 ], [ 8.6803645, 49.3980035 ], [ 8.6803835, 49.3980204 ], [ 8.6805906, 49.3982481 ], [ 8.6805967, 49.3982566 ], [ 8.6806276, 49.3982688 ], [ 8.6809525, 49.3984274 ], [ 8.6811325, 49.3985348 ], [ 8.6812476, 49.398591 ], [ 8.6815471, 49.3987697 ], [ 8.6818183, 49.3989667 ], [ 8.6820586, 49.39918 ], [ 8.6822658, 49.3994077 ], [ 8.6824377, 49.3996476 ], [ 8.6824559, 49.3996812 ], [ 8.6824969, 49.3996572 ], [ 8.6827716, 49.3995254 ], [ 8.6827691, 49.3994899 ], [ 8.6827907, 49.3992255 ], [ 8.6828519, 49.3989637 ], [ 8.6829522, 49.3987071 ], [ 8.6830905, 49.3984581 ], [ 8.6832655, 49.3982192 ], [ 8.6834653, 49.3980037 ], [ 8.694148, 49.3980038 ], [ 8.6941819, 49.3980241 ], [ 8.6944532, 49.398221 ], [ 8.6946936, 49.3984343 ], [ 8.6949008, 49.398662 ], [ 8.6950728, 49.3989019 ], [ 8.6952079, 49.3991516 ], [ 8.6953049, 49.3994087 ], [ 8.6953629, 49.3996708 ], [ 8.6953811, 49.3999354 ], [ 8.6953596, 49.4001998 ], [ 8.6952984, 49.4004616 ], [ 8.6951982, 49.4007182 ], [ 8.6951793, 49.4007523 ], [ 8.6952123, 49.4007885 ], [ 8.6953843, 49.4010284 ], [ 8.6955195, 49.4012781 ], [ 8.6956165, 49.4015352 ], [ 8.6956744, 49.4017973 ], [ 8.6956927, 49.4020619 ], [ 8.6956871, 49.4021311 ], [ 8.6957044, 49.402177 ], [ 8.6957623, 49.4024391 ], [ 8.6957806, 49.4027037 ], [ 8.695759, 49.4029681 ], [ 8.6957466, 49.4030214 ], [ 8.6959168, 49.4030745 ], [ 8.696264, 49.4032116 ], [ 8.696589, 49.4033702 ], [ 8.6968886, 49.4035488 ], [ 8.6971599, 49.4037457 ], [ 8.6974003, 49.4039591 ], [ 8.6976075, 49.4041868 ], [ 8.6977796, 49.4044266 ], [ 8.6979147, 49.4046763 ], [ 8.6980118, 49.4049334 ], [ 8.6980697, 49.4051955 ], [ 8.698088, 49.4054601 ], [ 8.6980725, 49.4056503 ], [ 8.6983631, 49.4055615 ], [ 8.6987458, 49.4054733 ], [ 8.6991398, 49.40541 ], [ 8.6995414, 49.4053722 ], [ 8.6999468, 49.4053602 ], [ 8.7003521, 49.4053743 ], [ 8.7007533, 49.4054142 ], [ 8.7011465, 49.4054795 ], [ 8.7015281, 49.4055697 ], [ 8.7018942, 49.4056839 ], [ 8.7022415, 49.405821 ], [ 8.7025665, 49.4059795 ], [ 8.7025772, 49.4059859 ], [ 8.7025965, 49.4059953 ], [ 8.7028961, 49.406174 ], [ 8.7031674, 49.4063709 ], [ 8.7033493, 49.4065322 ], [ 8.7034589, 49.4064897 ], [ 8.7038264, 49.4063774 ], [ 8.704209, 49.4062892 ], [ 8.7046031, 49.4062258 ], [ 8.7050047, 49.406188 ], [ 8.7054101, 49.406176 ], [ 8.7058154, 49.4061901 ], [ 8.7062166, 49.4062299 ], [ 8.7066099, 49.4062953 ], [ 8.7069914, 49.4063855 ], [ 8.7073576, 49.4064996 ], [ 8.7074692, 49.4065436 ], [ 8.7076563, 49.406526 ], [ 8.7080617, 49.406514 ], [ 8.708467, 49.4065281 ], [ 8.7088681, 49.4065679 ], [ 8.7092614, 49.4066333 ], [ 8.7095547, 49.4067026 ], [ 8.7098466, 49.4065894 ], [ 8.7102141, 49.4064771 ], [ 8.7103867, 49.4064373 ], [ 8.7103751, 49.4062708 ], [ 8.7103966, 49.4060064 ], [ 8.7104577, 49.4057446 ], [ 8.7105578, 49.4054879 ], [ 8.710696, 49.4052389 ], [ 8.7108709, 49.405 ], [ 8.7110808, 49.4047734 ], [ 8.7113238, 49.4045613 ], [ 8.7115975, 49.4043657 ], [ 8.7118992, 49.4041887 ], [ 8.7122261, 49.4040317 ], [ 8.7125275, 49.4039148 ], [ 8.7122524, 49.4038875 ], [ 8.7118591, 49.4038222 ], [ 8.7114776, 49.403732 ], [ 8.7111114, 49.4036179 ], [ 8.7107641, 49.4034809 ], [ 8.7104391, 49.4033223 ], [ 8.7101395, 49.4031437 ], [ 8.7098681, 49.4029468 ], [ 8.7096277, 49.4027335 ], [ 8.7094204, 49.4025058 ], [ 8.7092483, 49.402266 ], [ 8.7091131, 49.4020163 ], [ 8.709016, 49.4017592 ], [ 8.708958, 49.4014971 ], [ 8.7089397, 49.4012326 ], [ 8.7089611, 49.4009681 ], [ 8.7090222, 49.4007063 ], [ 8.7091223, 49.4004497 ], [ 8.7092605, 49.4002007 ], [ 8.7094354, 49.3999617 ], [ 8.7096453, 49.3997351 ], [ 8.7098883, 49.399523 ], [ 8.710162, 49.3993275 ], [ 8.7104636, 49.3991504 ], [ 8.7107905, 49.3989935 ], [ 8.7109266, 49.3989407 ], [ 8.7110323, 49.3988786 ], [ 8.7113592, 49.3987217 ], [ 8.711708, 49.3985864 ], [ 8.7120754, 49.3984741 ], [ 8.712458, 49.3983859 ], [ 8.712852, 49.3983225 ], [ 8.7132536, 49.3982846 ], [ 8.7136589, 49.3982726 ], [ 8.7140641, 49.3982866 ], [ 8.7144652, 49.3983265 ], [ 8.7148584, 49.3983918 ], [ 8.7152399, 49.398482 ], [ 8.7156061, 49.3985961 ], [ 8.7159533, 49.3987331 ], [ 8.7162783, 49.3988916 ], [ 8.7165779, 49.3990702 ], [ 8.7168493, 49.3992671 ], [ 8.7170898, 49.3994804 ], [ 8.7172971, 49.399708 ], [ 8.7174692, 49.3999478 ], [ 8.7176045, 49.4001975 ], [ 8.7177016, 49.4004546 ], [ 8.7177596, 49.4007167 ], [ 8.717778, 49.4009813 ], [ 8.7177566, 49.4012457 ], [ 8.7176956, 49.4015075 ], [ 8.7175955, 49.4017642 ], [ 8.7174574, 49.4020132 ], [ 8.7172825, 49.4022521 ], [ 8.7170726, 49.4024787 ], [ 8.7168296, 49.4026909 ], [ 8.716556, 49.4028864 ], [ 8.7162543, 49.4030635 ], [ 8.7159274, 49.4032205 ], [ 8.7157913, 49.4032732 ], [ 8.7156856, 49.4033353 ], [ 8.7153587, 49.4034923 ], [ 8.7150573, 49.4036092 ], [ 8.7153325, 49.4036365 ], [ 8.7157257, 49.4037018 ], [ 8.7161073, 49.4037919 ], [ 8.7164735, 49.4039061 ], [ 8.7168207, 49.4040431 ], [ 8.7171458, 49.4042016 ], [ 8.7174454, 49.4043802 ], [ 8.7177168, 49.4045771 ], [ 8.7179573, 49.4047904 ], [ 8.7181647, 49.405018 ], [ 8.7183368, 49.4052578 ], [ 8.7184365, 49.4054418 ], [ 8.7185314, 49.4055259 ], [ 8.7187387, 49.4057536 ], [ 8.7189108, 49.4059934 ], [ 8.7190461, 49.4062431 ], [ 8.7191433, 49.4065002 ], [ 8.7192013, 49.4067623 ], [ 8.7192197, 49.4070268 ], [ 8.7191983, 49.4072913 ], [ 8.7191373, 49.4075531 ], [ 8.7190372, 49.4078097 ], [ 8.7188991, 49.4080587 ], [ 8.7187242, 49.4082977 ], [ 8.7185142, 49.4085243 ], [ 8.7184945, 49.4085415 ], [ 8.7183768, 49.4087024 ], [ 8.7181668, 49.408929 ], [ 8.7179239, 49.4091411 ], [ 8.7176502, 49.4093367 ], [ 8.7173485, 49.4095138 ], [ 8.7170638, 49.4096505 ], [ 8.716982, 49.4098602 ], [ 8.7168439, 49.4101092 ], [ 8.716669, 49.4103481 ], [ 8.716459, 49.4105748 ], [ 8.716216, 49.4107869 ], [ 8.7161298, 49.4108485 ], [ 8.7162498, 49.4109549 ], [ 8.7162953, 49.4110048 ], [ 8.7163113, 49.4110033 ], [ 8.7167167, 49.4109913 ], [ 8.717122, 49.4110053 ], [ 8.7175233, 49.4110452 ], [ 8.7179166, 49.4111105 ], [ 8.7179594, 49.4111206 ], [ 8.7181607, 49.4111275 ], [ 8.7185619, 49.4111674 ], [ 8.7189552, 49.4112327 ], [ 8.7193369, 49.4113228 ], [ 8.7197031, 49.4114369 ], [ 8.72, 49.411554 ], [ 8.72, 49.4179494 ], [ 8.7197683, 49.4181149 ], [ 8.7194665, 49.418292 ], [ 8.7191396, 49.418449 ], [ 8.7187906, 49.4185843 ], [ 8.7184231, 49.4186966 ], [ 8.7180404, 49.4187849 ], [ 8.7176462, 49.4188483 ], [ 8.7172445, 49.4188862 ], [ 8.716839, 49.4188982 ], [ 8.7164336, 49.4188842 ], [ 8.7160323, 49.4188443 ], [ 8.7156389, 49.418779 ], [ 8.7152573, 49.4186889 ], [ 8.7150194, 49.4186147 ], [ 8.7147349, 49.4185675 ], [ 8.7143532, 49.4184773 ], [ 8.7139869, 49.4183632 ], [ 8.7136396, 49.4182262 ], [ 8.7133144, 49.4180677 ], [ 8.7130147, 49.4178891 ], [ 8.7127433, 49.4176922 ], [ 8.7125027, 49.4174789 ], [ 8.7122954, 49.4172512 ], [ 8.7121663, 49.4170714 ], [ 8.7120678, 49.4171417 ], [ 8.711766, 49.4173188 ], [ 8.7114391, 49.4174757 ], [ 8.7110901, 49.417611 ], [ 8.7107225, 49.4177233 ], [ 8.7103398, 49.4178116 ], [ 8.7102656, 49.4178235 ], [ 8.7101174, 49.4178577 ], [ 8.7097233, 49.417921 ], [ 8.7093215, 49.4179589 ], [ 8.708916, 49.4179709 ], [ 8.7085107, 49.4179568 ], [ 8.7081094, 49.417917 ], [ 8.707716, 49.4178516 ], [ 8.7073344, 49.4177615 ], [ 8.7069681, 49.4176473 ], [ 8.7066208, 49.4175103 ], [ 8.7062957, 49.4173517 ], [ 8.705996, 49.4171731 ], [ 8.7057246, 49.4169762 ], [ 8.7054841, 49.4167629 ], [ 8.7052767, 49.4165352 ], [ 8.7051046, 49.4162954 ], [ 8.7049694, 49.4160457 ], [ 8.7049518, 49.4159993 ], [ 8.7046638, 49.4159514 ], [ 8.7042822, 49.4158612 ], [ 8.703916, 49.415747 ], [ 8.7035815, 49.4156151 ], [ 8.7032297, 49.4156482 ], [ 8.7031452, 49.4156507 ], [ 8.7031505, 49.4157273 ], [ 8.7031289, 49.4159917 ], [ 8.7030678, 49.4162535 ], [ 8.7029676, 49.4165102 ], [ 8.7028294, 49.4167591 ], [ 8.7026544, 49.4169981 ], [ 8.7024443, 49.4172247 ], [ 8.7022013, 49.4174368 ], [ 8.7019275, 49.4176323 ], [ 8.7016256, 49.4178093 ], [ 8.7012987, 49.4179662 ], [ 8.7009497, 49.4181015 ], [ 8.700582, 49.4182138 ], [ 8.7001993, 49.418302 ], [ 8.6998052, 49.4183653 ], [ 8.6994034, 49.4184031 ], [ 8.6989979, 49.4184151 ], [ 8.6985926, 49.418401 ], [ 8.6981913, 49.4183611 ], [ 8.6977979, 49.4182957 ], [ 8.6974163, 49.4182055 ], [ 8.69705, 49.4180913 ], [ 8.6967027, 49.4179543 ], [ 8.6963776, 49.4177957 ], [ 8.696078, 49.417617 ], [ 8.6958066, 49.4174201 ], [ 8.695604, 49.4172403 ], [ 8.6955705, 49.4172764 ], [ 8.6953274, 49.4174884 ], [ 8.6953042, 49.417505 ], [ 8.6952585, 49.4177004 ], [ 8.6951583, 49.417957 ], [ 8.69502, 49.418206 ], [ 8.694845, 49.4184449 ], [ 8.6947741, 49.4185213 ], [ 8.6947768, 49.4185335 ], [ 8.6947951, 49.4187981 ], [ 8.6947736, 49.4190625 ], [ 8.6947124, 49.4193243 ], [ 8.6946121, 49.4195809 ], [ 8.6944738, 49.4198299 ], [ 8.6942988, 49.4200688 ], [ 8.6940887, 49.4202954 ], [ 8.6938456, 49.4205075 ], [ 8.6935717, 49.420703 ], [ 8.6932698, 49.42088 ], [ 8.6932422, 49.4208933 ], [ 8.6932536, 49.4209235 ], [ 8.6933116, 49.4211856 ], [ 8.6933298, 49.4214501 ], [ 8.6933083, 49.4217146 ], [ 8.6932471, 49.4219764 ], [ 8.6932363, 49.4220038 ], [ 8.6800267, 49.4220035 ], [ 8.6798109, 49.4218468 ], [ 8.6795704, 49.4216334 ], [ 8.6793632, 49.4214057 ], [ 8.6791962, 49.4211728 ], [ 8.6789402, 49.4213228 ], [ 8.6789333, 49.4213261 ], [ 8.6788685, 49.4213641 ], [ 8.6785414, 49.421521 ], [ 8.6784343, 49.4215625 ], [ 8.6783382, 49.421666 ], [ 8.678095, 49.421878 ], [ 8.6779195, 49.4220033 ], [ 8.671896, 49.4220025 ], [ 8.6717327, 49.4218839 ], [ 8.6713669, 49.4219955 ], [ 8.6713372, 49.4220024 ], [ 8.6649794, 49.4220012 ], [ 8.6647364, 49.4218247 ], [ 8.6644961, 49.4216113 ], [ 8.6642889, 49.4213836 ], [ 8.6642699, 49.421357 ], [ 8.6639243, 49.4214124 ], [ 8.6635225, 49.4214501 ], [ 8.6635005, 49.4214508 ], [ 8.6631405, 49.4214845 ], [ 8.662735, 49.4214963 ], [ 8.6623296, 49.4214822 ], [ 8.6619284, 49.4214421 ], [ 8.661535, 49.4213766 ], [ 8.6611534, 49.4212863 ], [ 8.6607873, 49.421172 ], [ 8.66044, 49.4210348 ], [ 8.6601151, 49.4208761 ], [ 8.66, 49.4208075 ], [ 8.66, 49.4138069 ], [ 8.6601015, 49.4136976 ], [ 8.6603447, 49.4134856 ], [ 8.6606187, 49.4132902 ], [ 8.6609206, 49.4131132 ], [ 8.6612477, 49.4129564 ], [ 8.6615968, 49.4128213 ], [ 8.6619644, 49.4127091 ], [ 8.6623472, 49.4126211 ], [ 8.6625117, 49.4125947 ], [ 8.6623045, 49.4125456 ], [ 8.6619384, 49.4124313 ], [ 8.6615912, 49.4122942 ], [ 8.6612663, 49.4121355 ], [ 8.6609668, 49.4119568 ], [ 8.6606956, 49.4117597 ], [ 8.6604553, 49.4115463 ], [ 8.6602482, 49.4113186 ], [ 8.6601574, 49.4111919 ], [ 8.66, 49.4111762 ], [ 8.66, 49.402221 ], [ 8.6601664, 49.4020417 ], [ 8.6604096, 49.4018297 ], [ 8.6606834, 49.4016343 ], [ 8.6609853, 49.4014573 ], [ 8.6613123, 49.4013005 ], [ 8.6616613, 49.4011654 ], [ 8.6620289, 49.4010532 ], [ 8.6624116, 49.4009651 ], [ 8.6627619, 49.400909 ], [ 8.6629905, 49.400775 ], [ 8.6633175, 49.4006182 ], [ 8.6635782, 49.4005172 ], [ 8.6636459, 49.4004249 ], [ 8.663856, 49.4001984 ], [ 8.6640992, 49.3999864 ], [ 8.664373, 49.399791 ], [ 8.6646749, 49.399614 ], [ 8.6650019, 49.3994572 ], [ 8.6653508, 49.3993221 ], [ 8.6657184, 49.3992099 ], [ 8.666101, 49.3991218 ], [ 8.6661639, 49.3991117 ], [ 8.6663813, 49.3989842 ], [ 8.666648, 49.3988563 ], [ 8.666716, 49.3987636 ], [ 8.6669261, 49.3985371 ] ], [ [ 8.6865828, 49.4130954 ], [ 8.6864825, 49.413352 ], [ 8.6863442, 49.413601 ], [ 8.6861927, 49.4138077 ], [ 8.6863293, 49.4138744 ], [ 8.6866289, 49.4140531 ], [ 8.6869002, 49.41425 ], [ 8.6871406, 49.4144634 ], [ 8.6872665, 49.4146017 ], [ 8.6872704, 49.4146018 ], [ 8.6871426, 49.4144236 ], [ 8.6870075, 49.4141739 ], [ 8.6869105, 49.4139167 ], [ 8.6868526, 49.4136546 ], [ 8.6868343, 49.4133901 ], [ 8.6868559, 49.4131256 ], [ 8.6869172, 49.4128638 ], [ 8.6870174, 49.4126072 ], [ 8.6871557, 49.4123583 ], [ 8.6873308, 49.4121194 ], [ 8.6875409, 49.4118928 ], [ 8.687784, 49.4116807 ], [ 8.6880578, 49.4114853 ], [ 8.6883596, 49.4113082 ], [ 8.6886866, 49.4111514 ], [ 8.6887598, 49.411123 ], [ 8.6887031, 49.4111284 ], [ 8.6882976, 49.4111403 ], [ 8.6878923, 49.4111262 ], [ 8.6874911, 49.4110862 ], [ 8.6870978, 49.4110208 ], [ 8.6867163, 49.4109306 ], [ 8.6867093, 49.4109284 ], [ 8.6865335, 49.411118 ], [ 8.6862904, 49.41133 ], [ 8.6862371, 49.411368 ], [ 8.6863573, 49.4115357 ], [ 8.6864925, 49.4117854 ], [ 8.6865895, 49.4120425 ], [ 8.6866474, 49.4123046 ], [ 8.6866656, 49.4125692 ], [ 8.686644, 49.4128336 ], [ 8.6865828, 49.4130954 ] ] ] } },
{ "type": "Feature", "properties": { "index": "1", "label": "Beyond 300 m", "color": "#d9d9d9" }, "geometry": { "type": "MultiPolygon", "coordinates": [ [ [ [ 8.694148, 49.3980038 ], [ 8.72, 49.398 ], [ 8.72, 49.411554 ], [ 8.7197031, 49.4114369 ], [ 8.7193369, 49.4113228 ], [ 8.7189552, 49.4112327 ], [ 8.7185619, 49.4111674 ], [ 8.7181607, 49.4111275 ], [ 8.7179594, 49.4111206 ], [ 8.7179166, 49.4111105 ], [ 8.7175233, 49.4110452 ], [ 8.717122, 49.4110053 ], [ 8.7167167, 49.4109913 ], [ 8.7163113, 49.4110033 ], [ 8.7162953, 49.4110048 ], [ 8.7162498, 49.4109549 ], [ 8.7161298, 49.4108485 ], [ 8.716216, 49.4107869 ], [ 8.716459, 49.4105748 ], [ 8.716669, 49.4103481 ], [ 8.7168439, 49.4101092 ], [ 8.716982, 49.4098602 ], [ 8.7170638, 49.4096505 ], [ 8.7173485, 49.4095138 ], [ 8.7176502, 49.4093367 ], [ 8.7179239, 49.4091411 ], [ 8.7181668, 49.408929 ], [ 8.7183768, 49.4087024 ], [ 8.7184945, 49.4085415 ], [ 8.7185142, 49.4085243 ], [ 8.7187242, 49.4082977 ], [ 8.7188991, 49.4080587 ], [ 8.7190372, 49.4078097 ], [ 8.7191373, 49.4075531 ], [ 8.7191983, 49.4072913 ], [ 8.7192197, 49.4070268 ], [ 8.7192013, 49.4067623 ], [ 8.7191433, 49.4065002 ], [ 8.7190461, 49.4062431 ], [ 8.7189108, 49.4059934 ], [ 8.7187387, 49.4057536 ], [ 8.7185314, 49.4055259 ], [ 8.7184365, 49.4054418 ], [ 8.7183368, 49.4052578 ], [ 8.7181647, 49.405018 ], [ 8.7179573, 49.4047904 ], [ 8.7177168, 49.4045771 ], [ 8.7174454, 49.4043802 ], [ 8.7171458, 49.4042016 ], [ 8.7168207, 49.4040431 ], [ 8.7164735, 49.4039061 ], [ 8.7161073, 49.4037919 ], [ 8.7157257, 49.4037018 ], [ 8.7153325, 49.4036365 ], [ 8.7150573, 49.4036092 ], [ 8.7153587, 49.4034923 ], [ 8.7156856, 49.4033353 ], [ 8.7157913, 49.4032732 ], [ 8.7159274, 49.4032205 ], [ 8.7162543, 49.4030635 ], [ 8.716556, 49.4028864 ], [ 8.7168296, 49.4026909 ], [ 8.7170726, 49.4024787 ], [ 8.7172825, 49.4022521 ], [ 8.7174574, 49.4020132 ], [ 8.7175955, 49.4017642 ], [ 8.7176956, 49.4015075 ], [ 8.7177566, 49.4012457 ], [ 8.717778, 49.4009813 ], [ 8.7177596, 49.4007167 ], [ 8.7177016, 49.4004546 ], [ 8.7176045, 49.4001975 ], [ 8.7174692, 49.3999478 ], [ 8.7172971, 49.399708 ], [ 8.7170898, 49.3994804 ], [ 8.7168493, 49.3992671 ], [ 8.7165779, 49.3990702 ], [ 8.7162783, 49.3988916 ], [ 8.7159533, 49.3987331 ], [ 8.7156061, 49.3985961 ], [ 8.7152399, 49.398482 ], [ 8.7148584, 49.3983918 ], [ 8.7144652, 49.3983265 ], [ 8.7140641, 49.3982866 ], [ 8.7136589, 49.3982726 ], [ 8.7132536, 49.3982846 ], [ 8.712852, 49.3983225 ], [ 8.712458, 49.3983859 ], [ 8.7120754, 49.3984741 ], [ 8.711708, 49.3985864 ], [ 8.7113592, 49.3987217 ], [ 8.7110323, 49.3988786 ], [ 8.7109266, 49.3989407 ], [ 8.7107905, 49.3989935 ], [ 8.7104636, 49.3991504 ], [ 8.710162, 49.3993275 ], [ 8.7098883, 49.399523 ], [ 8.7096453, 49.3997351 ], [ 8.7094354, 49.3999617 ], [ 8.7092605, 49.4002007 ], [ 8.7091223, 49.4004497 ], [ 8.7090222, 49.4007063 ], [ 8.7089611, 49.4009681 ], [ 8.7089397, 49.4012326 ], [ 8.708958, 49.4014971 ], [ 8.709016, 49.4017592 ], [ 8.7091131, 49.4020163 ], [ 8.7092483, 49.402266 ], [ 8.7094204, 49.4025058 ], [ 8.7096277, 49.4027335 ], [ 8.7098681, 49.4029468 ], [ 8.7101395, 49.4031437 ], [ 8.7104391, 49.4033223 ], [ 8.7107641, 49.4034809 ], [ 8.7111114, 49.4036179 ], [ 8.7114776, 49.403732 ], [ 8.7118591, 49.4038222 ], [ 8.7122524, 49.4038875 ], [ 8.7125275, 49.4039148 ], [ 8.7122261, 49.4040317 ], [ 8.7118992, 49.4041887 ], [ 8.7115975, 49.4043657 ], [ 8.7113238, 49.4045613 ], [ 8.7110808, 49.4047734 ], [ 8.7108709, 49.405 ], [ 8.710696, 49.4052389 ], [ 8.7105578, 49.4054879 ], [ 8.7104577, 49.4057446 ], [ 8.7103966, 49.4060064 ], [ 8.7103751, 49.4062708 ], [ 8.7103867, 49.4064373 ], [ 8.7102141, 49.4064771 ], [ 8.7098466, 49.4065894 ], [ 8.7095547, 49.4067026 ], [ 8.7092614, 49.4066333 ], [ 8.7088681, 49.4065679 ], [ 8.708467, 49.4065281 ], [ 8.7080617, 49.406514 ], [ 8.7076563, 49.406526 ], [ 8.7074692, 49.4065436 ], [ 8.7073576, 49.4064996 ], [ 8.7069914, 49.4063855 ], [ 8.7066099, 49.4062953 ], [ 8.7062166, 49.4062299 ], [ 8.7058154, 49.4061901 ], [ 8.7054101, 49.406176 ], [ 8.7050047, 49.406188 ], [ 8.7046031, 49.4062258 ], [ 8.704209, 49.4062892 ], [ 8.7038264, 49.4063774 ], [ 8.7034589, 49.4064897 ], [ 8.7033493, 49.4065322 ], [ 8.7031674, 49.4063709 ], [ 8.7028961, 49.406174 ], [ 8.7025965, 49.4059953 ], [ 8.7025772, 49.4059859 ], [ 8.7025665, 49.4059795 ], [ 8.7022415, 49.405821 ], [ 8.7018942, 49.4056839 ], [ 8.7015281, 49.4055697 ], [ 8.7011465, 49.4054795 ], [ 8.7007533, 49.4054142 ], [ 8.7003521, 49.4053743 ], [ 8.6999468, 49.4053602 ], [ 8.6995414, 49.4053722 ], [ 8.6991398, 49.40541 ], [ 8.6987458, 49.4054733 ], [ 8.6983631, 49.4055615 ], [ 8.6980725, 49.4056503 ], [ 8.698088, 49.4054601 ], [ 8.6980697, 49.4051955 ], [ 8.6980118, 49.4049334 ], [ 8.6979147, 49.4046763 ], [ 8.6977796, 49.4044266 ], [ 8.6976075, 49.4041868 ], [ 8.6974003, 49.4039591 ], [ 8.6971599, 49.4037457 ], [ 8.6968886, 49.4035488 ], [ 8.696589, 49.4033702 ], [ 8.696264, 49.4032116 ], [ 8.6959168, 49.4030745 ], [ 8.6957466, 49.4030214 ], [ 8.695759, 49.4029681 ], [ 8.6957806, 49.4027037 ], [ 8.6957623, 49.4024391 ], [ 8.6957044, 49.402177 ], [ 8.6956871, 49.4021311 ], [ 8.6956927, 49.4020619 ], [ 8.6956744, 49.4017973 ], [ 8.6956165, 49.4015352 ], [ 8.6955195, 49.4012781 ], [ 8.6953843, 49.4010284 ], [ 8.6952123, 49.4007885 ], [ 8.6951793, 49.4007523 ], [ 8.6951982, 49.4007182 ], [ 8.6952984, 49.4004616 ], [ 8.6953596, 49.4001998 ], [ 8.6953811, 49.3999354 ], [ 8.6953629, 49.3996708 ], [ 8.6953049, 49.3994087 ], [ 8.6952079, 49.3991516 ], [ 8.6950728, 49.3989019 ], [ 8.6949008, 49.398662 ], [ 8.6946936, 49.3984343 ], [ 8.6944532, 49.398221 ], [ 8.6941819, 49.3980241 ], [ 8.694148, 49.3980038 ] ] ], [ [ [ 8.72, 49.4179494 ], [ 8.72, 49.422 ], [ 8.6932363, 49.4220038 ], [ 8.6932471, 49.4219764 ], [ 8.6933083, 49.4217146 ], [ 8.6933298, 49.4214501 ], [ 8.6933116, 49.4211856 ], [ 8.6932536, 49.4209235 ], [ 8.6932422, 49.4208933 ], [ 8.6932698, 49.42088 ], [ 8.6935717, 49.420703 ], [ 8.6938456, 49.4205075 ], [ 8.6940887, 49.4202954 ], [ 8.6942988, 49.4200688 ], [ 8.6944738, 49.4198299 ], [ 8.6946121, 49.4195809 ], [ 8.6947124, 49.4193243 ], [ 8.6947736, 49.4190625 ], [ 8.6947951, 49.4187981 ], [ 8.6947768, 49.4185335 ], [ 8.6947741, 49.4185213 ], [ 8.694845, 49.4184449 ], [ 8.69502, 49.418206 ], [ 8.6951583, 49.417957 ], [ 8.6952585, 49.4177004 ], [ 8.6953042, 49.417505 ], [ 8.6953274, 49.4174884 ], [ 8.6955705, 49.4172764 ], [ 8.695604, 49.4172403 ], [ 8.6958066, 49.4174201 ], [ 8.696078, 49.417617 ], [ 8.6963776, 49.4177957 ], [ 8.6967027, 49.4179543 ], [ 8.69705, 49.4180913 ], [ 8.6974163, 49.4182055 ], [ 8.6977979, 49.4182957 ], [ 8.6981913, 49.4183611 ], [ 8.6985926, 49.418401 ], [ 8.6989979, 49.4184151 ], [ 8.6994034, 49.4184031 ], [ 8.6998052, 49.4183653 ], [ 8.7001993, 49.418302 ], [ 8.700582, 49.4182138 ], [ 8.7009497, 49.4181015 ], [ 8.7012987, 49.4179662 ], [ 8.7016256, 49.4178093 ], [ 8.7019275, 49.4176323 ], [ 8.7022013, 49.4174368 ], [ 8.7024443, 49.4172247 ], [ 8.7026544, 49.4169981 ], [ 8.7028294, 49.4167591 ], [ 8.7029676, 49.4165102 ], [ 8.7030678, 49.4162535 ], [ 8.7031289, 49.4159917 ], [ 8.7031505, 49.4157273 ], [ 8.7031452, 49.4156507 ], [ 8.7032297, 49.4156482 ], [ 8.7035815, 49.4156151 ], [ 8.703916, 49.415747 ], [ 8.7042822, 49.4158612 ], [ 8.7046638, 49.4159514 ], [ 8.7049518, 49.4159993 ], [ 8.7049694, 49.4160457 ], [ 8.7051046, 49.4162954 ], [ 8.7052767, 49.4165352 ], [ 8.7054841, 49.4167629 ], [ 8.7057246, 49.4169762 ], [ 8.705996, 49.4171731 ], [ 8.7062957, 49.4173517 ], [ 8.7066208, 49.4175103 ], [ 8.7069681, 49.4176473 ], [ 8.7073344, 49.4177615 ], [ 8.707716, 49.4178516 ], [ 8.7081094, 49.417917 ], [ 8.7085107, 49.4179568 ], [ 8.708916, 49.4179709 ], [ 8.7093215, 49.4179589 ], [ 8.7097233, 49.417921 ], [ 8.7101174, 49.4178577 ], [ 8.7102656, 49.4178235 ], [ 8.7103398, 49.4178116 ], [ 8.7107225, 49.4177233 ], [ 8.7110901, 49.417611 ], [ 8.7114391, 49.4174757 ], [ 8.711766, 49.4173188 ], [ 8.7120678, 49.4171417 ], [ 8.7121663, 49.4170714 ], [ 8.7122954, 49.4172512 ], [ 8.7125027, 49.4174789 ], [ 8.7127433, 49.4176922 ], [ 8.7130147, 49.4178891 ], [ 8.7133144, 49.4180677 ], [ 8.7136396, 49.4182262 ], [ 8.7139869, 49.4183632 ], [ 8.7143532, 49.4184773 ], [ 8.7147349, 49.4185675 ], [ 8.7150194, 49.4186147 ], [ 8.7152573, 49.4186889 ], [ 8.7156389, 49.418779 ], [ 8.7160323, 49.4188443 ], [ 8.7164336, 49.4188842 ], [ 8.716839, 49.4188982 ], [ 8.7172445, 49.4188862 ], [ 8.7176462, 49.4188483 ], [ 8.7180404, 49.4187849 ], [ 8.7184231, 49.4186966 ], [ 8.7187906, 49.4185843 ], [ 8.7191396, 49.418449 ], [ 8.7194665, 49.418292 ], [ 8.7197683, 49.4181149 ], [ 8.72, 49.4179494 ] ] ], [ [ [ 8.6798109, 49.4218468 ], [ 8.6800267, 49.4220035 ], [ 8.6779195, 49.4220033 ], [ 8.678095, 49.421878 ], [ 8.6783382, 49.421666 ], [ 8.6784343, 49.4215625 ], [ 8.6785414, 49.421521 ], [ 8.6788685, 49.4213641 ], [ 8.6789333, 49.4213261 ], [ 8.6789402, 49.4213228 ], [ 8.6791962, 49.4211728 ], [ 8.6793632, 49.4214057 ], [ 8.6795704, 49.4216334 ], [ 8.6798109, 49.4218468 ] ] ], [ [ [ 8.6717327, 49.4218839 ], [ 8.671896, 49.4220025 ], [ 8.6713372, 49.4220024 ], [ 8.6713669, 49.4219955 ], [ 8.6717327, 49.4218839 ] ] ], [ [ [ 8.6649794, 49.4220012 ], [ 8.66, 49.422 ], [ 8.66, 49.4208075 ], [ 8.6601151, 49.4208761 ], [ 8.66044, 49.4210348 ], [ 8.6607873, 49.421172 ], [ 8.6611534, 49.4212863 ], [ 8.661535, 49.4213766 ], [ 8.6619284, 49.4214421 ], [ 8.6623296, 49.4214822 ], [ 8.662735, 49.4214963 ], [ 8.6631405, 49.4214845 ], [ 8.6635005, 49.4214508 ], [ 8.6635225, 49.4214501 ], [ 8.6639243, 49.4214124 ], [ 8.6642699, 49.421357 ], [ 8.6642889, 49.4213836 ], [ 8.6644961, 49.4216113 ], [ 8.6647364, 49.4218247 ], [ 8.6649794, 49.4220012 ] ] ], [ [ [ 8.6601015, 49.4136976 ], [ 8.66, 49.4138069 ], [ 8.66, 49.4111762 ], [ 8.6601574, 49.4111919 ], [ 8.6602482, 49.4113186 ], [ 8.6604553, 49.4115463 ], [ 8.6606956, 49.4117597 ], [ 8.6609668, 49.4119568 ], [ 8.6612663, 49.4121355 ], [ 8.6615912, 49.4122942 ], [ 8.6619384, 49.4124313 ], [ 8.6623045, 49.4125456 ], [ 8.6625117, 49.4125947 ], [ 8.6623472, 49.4126211 ], [ 8.6619644, 49.4127091 ], [ 8.6615968, 49.4128213 ], [ 8.6612477, 49.4129564 ], [ 8.6609206, 49.4131132 ], [ 8.6606187, 49.4132902 ], [ 8.6603447, 49.4134856 ], [ 8.6601015, 49.4136976 ] ] ], [ [ [ 8.66, 49.402221 ], [ 8.66, 49.398 ], [ 8.6676612, 49.3980017 ], [ 8.6674431, 49.3981296 ], [ 8.6671693, 49.3983251 ], [ 8.6669261, 49.3985371 ], [ 8.666716, 49.3987636 ], [ 8.666648, 49.3988563 ], [ 8.6663813, 49.3989842 ], [ 8.6661639, 49.3991117 ], [ 8.666101, 49.3991218 ], [ 8.6657184, 49.3992099 ], [ 8.6653508, 49.3993221 ], [ 8.6650019, 49.3994572 ], [ 8.6646749, 49.399614 ], [ 8.664373, 49.399791 ], [ 8.6640992, 49.3999864 ], [ 8.663856, 49.4001984 ], [ 8.6636459, 49.4004249 ], [ 8.6635782, 49.4005172 ], [ 8.6633175, 49.4006182 ], [ 8.6629905, 49.400775 ], [ 8.6627619, 49.400909 ], [ 8.6624116, 49.4009651 ], [ 8.6620289, 49.4010532 ], [ 8.6616613, 49.4011654 ], [ 8.6613123, 49.4013005 ], [ 8.6609853, 49.4014573 ], [ 8.6606834, 49.4016343 ], [ 8.6604096, 49.4018297 ], [ 8.6601664, 49.4020417 ], [ 8.66, 49.402221 ] ] ], [ [ [ 8.6803835, 49.3980204 ], [ 8.6803645, 49.3980035 ], [ 8.6834653, 49.3980037 ], [ 8.6832655, 49.3982192 ], [ 8.6830905, 49.3984581 ], [ 8.6829522, 49.3987071 ], [ 8.6828519, 49.3989637 ], [ 8.6827907, 49.3992255 ], [ 8.6827691, 49.3994899 ], [ 8.6827716, 49.3995254 ], [ 8.6824969, 49.3996572 ], [ 8.6824559, 49.3996812 ], [ 8.6824377, 49.3996476 ], [ 8.6822658, 49.3994077 ], [ 8.6820586, 49.39918 ], [ 8.6818183, 49.3989667 ], [ 8.6815471, 49.3987697 ], [ 8.6812476, 49.398591 ], [ 8.6811325, 49.3985348 ], [ 8.6809525, 49.3984274 ], [ 8.6806276, 49.3982688 ], [ 8.6805967, 49.3982566 ], [ 8.6805906, 49.3982481 ], [ 8.6803835, 49.3980204 ] ] ], [ [ [ 8.6861927, 49.4138077 ], [ 8.6863442, 49.413601 ], [ 8.6864825, 49.413352 ], [ 8.6865828, 49.4130954 ], [ 8.686644, 49.4128336 ], [ 8.6866656, 49.4125692 ], [ 8.6866474, 49.4123046 ], [ 8.6865895, 49.4120425 ], [ 8.6864925, 49.4117854 ], [ 8.6863573, 49.4115357 ], [ 8.6862371, 49.411368 ], [ 8.6862904, 49.41133 ], [ 8.6865335, 49.411118 ], [ 8.6867093, 49.4109284 ], [ 8.6867163, 49.4109306 ], [ 8.6870978, 49.4110208 ], [ 8.6874911, 49.4110862 ], [ 8.6878923, 49.4111262 ], [ 8.6882976, 49.4111403 ], [ 8.6887031, 49.4111284 ], [ 8.6887598, 49.411123 ], [ 8.6886866, 49.4111514 ], [ 8.6883596, 49.4113082 ], [ 8.6880578, 49.4114853 ], [ 8.687784, 49.4116807 ], [ 8.6875409, 49.4118928 ], [ 8.6873308, 49.4121194 ], [ 8.6871557, 49.4123583 ], [ 8.6870174, 49.4126072 ], [ 8.6869172, 49.4128638 ], [ 8.6868559, 49.4131256 ], [ 8.6868343, 49.4133901 ], [ 8.6868526, 49.4136546 ], [ 8.6869105, 49.4139167 ], [ 8.6870075, 49.4141739 ], [ 8.6871426, 49.4144236 ], [ 8.6872704, 49.4146018 ], [ 8.6872665, 49.4146017 ], [ 8.6871406, 49.4144634 ], [ 8.6869002, 49.41425 ], [ 8.6866289, 49.4140531 ], [ 8.6863293, 49.4138744 ], [ 8.6861927, 49.4138077 ] ] ] ] } }
]
}
