{
"type": "FeatureCollection",
"features": [
{ "type": "Feature", "properties": { "index": "0", "last_edit_year": 2026, "years_since_edit": 0, "label": "0.0–1.0 yr", "color": "#eff3ff" }, "geometry": { "type": "Point", "coordinates": [ 8.660822, 49.4085306 ] } },
{ "type": "Feature", "properties": { "index": "1", "last_edit_year": 2026, "years_since_edit": 0, "label": "0.0–1.0 yr", "color": "#eff3ff" }, "geometry": { "type": "Point", "coordinates": [ 8.6672729, 49.4066228 ] } },
{ "type": "Feature", "properties": { "index": "2", "last_edit_year": 2024, "years_since_edit": 2, "label": "2.0–3.0 yr", "color": "#4491c5" }, "geometry": { "type": "Point", "coordinates": [ 8.7086199, 49.4133846 ] } },
{ "type": "Feature", "properties": { "index": "3", "last_edit_year": 2022, "years_since_edit": 4, "label": "3.0–12.0 yr", "color": "#08519c" }, "geometry": { "type": "Point", "coordinates": [ 8.7027846, 49.4129301 ] } },
{ "type": "Feature", "properties": { "index": "4", "last_edit_year": 2024, "years_since_edit": 2, "label": "2.0–3.0 yr", "color": "#4491c5" }, "geometry": { "type": "Point", "coordinates": [ 8.7055901, 49.4132281 ] } },
{ "type": "Feature", "properties": { "index": "5", "last_edit_year": 2024, "years_since_edit": 2, "label": "2.0–3.0 yr", "color": "#4491c5" }, "geometry": { "type": "Point", "coordinates": [ 8.705394, 49.4088745 ] } },
{ "type": "Feature", "properties": { "index": "6", "last_edit_year": 2023, "years_since_edit": 3, "label": "3.0–12.0 yr", "color": "#08519c" }, "geometry": { "type": "Point", "coordinates": [ 8.7053114, 49.4090408 ] } },
{ "type": "Feature", "properties": { "index": "7", "last_edit_year": 2024, "years_since_edit": 2, "label": "2.0–3.0 yr", "color": "#4491c5" }, "geometry": { "type": "Point", "coordinates": [ 8.7016201, 49.4126316 ] } },
{ "type": "Feature", "properties": { "index": "8", "last_edit_year": 2025, "years_since_edit": 1, "label": "1.0–2.0 yr", "color": "#a2c9e1" }, "geometry": { "type": "Point", "coordinates": [ 8.6817453, 49.4050126 ] } },
{ "type": "Feature", "properties": { "index": "9", "last_edit_year": 2026, "years_since_edit": 0, "label": "0.0–1.0 yr", "color": "#eff3ff" }, "geometry": { "type": "Point", "coordinates": [ 8.6864236, 49.4061297 ] } },
{ "type": "Feature", "properties": { "index": "10", "last_edit_year": 2026, "years_since_edit": 0, "label": "0.0–1.0 yr", "color": "#eff3ff" }, "geometry": { "type": "Point", "coordinates": [ 8.6863472, 49.4061849 ] } },
{ "type": "Feature", "properties": { "index": "11", "last_edit_year": 2025, "years_since_edit": 1, "label": "1.0–2.0 yr", "color": "#a2c9e1" }, "geometry": { "type": "Point", "coordinates": [ 8.6918105, 49.4070612 ] } },
{ "type": "Feature", "properties": { "index": "12", "last_edit_year": 2025, "years_since_edit": 1, "label": "1.0–2.0 yr", "color": "#a2c9e1" }, "geometry": { "type": "Point", "coordinates": [ 8.6920417, 49.4156241 ] } },
{ "type": "Feature", "properties": { "index": "13", "last_edit_year": 2024, "years_since_edit": 2, "label": "2.0–3.0 yr", "color": "#4491c5" }, "geometry": { "type": "Point", "coordinates": [ 8.690207, 49.4069498 ] } },
{ "type": "Feature", "properties": { "index": "14", "last_edit_year": 2025, "years_since_edit": 1, "label": "1.0–2.0 yr", "color": "#a2c9e1" }, "geometry": { "type": "Point", "coordinates": [ 8.6933043, 49.4095802 ] } },
{ "type": "Feature", "properties": { "index": "15", "last_edit_year": 2024, "years_since_edit": 2, "label": "2.0–3.0 yr", "color": "#4491c5" }, "geometry": { "type": "Point", "coordinates": [ 8.692828, 49.4098302 ] } },
{ "type": "Feature", "properties": { "index": "16", "last_edit_year": 2024, "years_since_edit": 2, "label": "2.0–3.0 yr", "color": "#4491c5" }, "geometry": { "type": "Point", "coordinates": [ 8.6999604, 49.4080745 ] } },
{ "type": "Feature", "properties": { "index": "17", "last_edit_year": 2023, "years_since_edit": 3, "label": "3.0–12.0 yr", "color": "#08519c" }, "geometry": { "type": "Point", "coordinates": [ 8.6934675, 49.4068757 ] } },
{ "type": "Feature", "properties": { "index": "18", "last_edit_year": 2025, "years_since_edit": 1, "label": "1.0–2.0 yr", "color": "#a2c9e1" }, "geometry": { "type": "Point", "coordinates": [ 8.6760508, 49.4079318 ] } },
{ "type": "Feature", "properties": { "index": "19", "last_edit_year": 2026, "years_since_edit": 0, "label": "0.0–1.0 yr", "color": "#eff3ff" }, "geometry": { "type": "Point", "coordinates": [ 8.6760574, 49.4078508 ] } },
{ "type": "Feature", "properties": { "index": "20", "last_edit_year": 2024, "years_since_edit": 2, "label": "2.0–3.0 yr", "color": "#4491c5" }, "geometry": { "type": "Point", "coordinates": [ 8.6763349, 49.4191792 ] } },
{ "type": "Feature", "properties": { "index": "21", "last_edit_year": 2025, "years_since_edit": 1, "label": "1.0–2.0 yr", "color": "#a2c9e1" }, "geometry": { "type": "Point", "coordinates": [ 8.6767081, 49.4043349 ] } },
{ "type": "Feature", "properties": { "index": "22", "last_edit_year": 2023, "years_since_edit": 3, "label": "3.0–12.0 yr", "color": "#08519c" }, "geometry": { "type": "Point", "coordinates": [ 8.6725151, 49.4014039 ] } },
{ "type": "Feature", "properties": { "index": "23", "last_edit_year": 2025, "years_since_edit": 1, "label": "1.0–2.0 yr", "color": "#a2c9e1" }, "geometry": { "type": "Point", "coordinates": [ 8.6761517, 49.404868 ] } },
{ "type": "Feature", "properties": { "index": "24", "last_edit_year": 2025, "years_since_edit": 1, "label": "1.0–2.0 yr", "color": "#a2c9e1" }, "geometry": { "type": "Point", "coordinates": [ 8.6761052, 49.4047675 ] } },
{ "type": "Feature", "properties": { "index": "25", "last_edit_year": 2025, "years_since_edit": 1, "label": "1.0–2.0 yr", "color": "#a2c9e1" }, "geometry": { "type": "Point", "coordinates": [ 8.6761388, 49.4048447 ] } },
{ "type": "Feature", "properties": { "index": "26", "last_edit_year": 2020, "years_since_edit": 6, "label": "3.0–12.0 yr", "color": "#08519c" }, "geometry": { "type": "Point", "coordinates": [ 8.6768307, 49.4145822 ] } },
{ "type": "Feature", "properties": { "index": "27", "last_edit_year": 2023, "years_since_edit": 3, "label": "3.0–12.0 yr", "color": "#08519c" }, "geometry": { "type": "Point", "coordinates": [ 8.6703402, 49.4043315 ] } },
{ "type": "Feature", "properties": { "index": "28", "last_edit_year": 2024, "years_since_edit": 2, "label": "2.0–3.0 yr", "color": "#4491c5" }, "geometry": { "type": "Point", "coordinates": [ 8.6678672, 49.4052675 ] } },
{ "type": "Feature", "properties": { "index": "29", "last_edit_year": 2026, "years_since_edit": 0, "label": "0.0–1.0 yr", "color": "#eff3ff" }, "geometry": { "type": "Point", "coordinates": [ 8.6729735, 49.4018997 ] } },
{ "type": "Feature", "properties": { "index": "30", "last_edit_year": 2026, "years_since_edit": 0, "label": "0.0–1.0 yr", "color": "#eff3ff" }, "geometry": { "type": "Point", "coordinates": [ 8.673584, 49.4023544 ] } },
{ "type": "Feature", "properties": { "index": "31", "last_edit_year": 2023, "years_since_edit": 3, "label": "3.0–12.0 yr", "color": "#08519c" }, "geometry": { "type": "Point", "coordinates": [ 8.7130291, 49.4090671 ] } },
{ "type": "Feature", "properties": { "index": "32", "last_edit_year": 2026, "years_since_edit": 0, "label": "0.0–1.0 yr", "color": "#eff3ff" }, "geometry": { "type": "Point", "coordinates": [ 8.7119186, 49.4111178 ] } },
{ "type": "Feature", "properties": { "index": "33", "last_edit_year": 2024, "years_since_edit": 2, "label": "2.0–3.0 yr", "color": "#4491c5" }, "geometry": { "type": "Point", "coordinates": [ 8.714737, 49.4074214 ] } },
{ "type": "Feature", "properties": { "index": "34", "last_edit_year": 2024, "years_since_edit": 2, "label": "2.0–3.0 yr", "color": "#4491c5" }, "geometry": { "type": "Point", "coordinates": [ 8.6756639, 49.4168625 ] } },
{ "type": "Feature", "properties": { "index": "35", "last_edit_year": 2019, "years_since_edit": 7, "label": "3.0–12.0 yr", "color": "#08519c" }, "geometry": { "type": "Point", "coordinates": [ 8.6815921, 49.4049513 ] } },
{ "type": "Feature", "properties": { "index": "36", "last_edit_year": 2016, "years_since_edit": 10, "label": "3.0–12.0 yr", "color": "#08519c" }, "geometry": { "type": "Point", "coordinates": [ 8.6863809, 49.4061575 ] } },
{ "type": "Feature", "properties": { "index": "37", "last_edit_year": 2024, "years_since_edit": 2, "label": "2.0–3.0 yr", "color": "#4491c5" }, "geometry": { "type": "Point", "coordinates": [ 8.691709, 49.4070936 ] } },
{ "type": "Feature", "properties": { "index": "38", "last_edit_year": 2025, "years_since_edit": 1, "label": "1.0–2.0 yr", "color": "#a2c9e1" }, "geometry": { "type": "Point", "coordinates": [ 8.6906526, 49.4187633 ] } },
{ "type": "Feature", "properties": { "index": "39", "last_edit_year": 2025, "years_since_edit": 1, "label": "1.0–2.0 yr", "color": "#a2c9e1" }, "geometry": { "type": "Point", "coordinates": [ 8.6783159, 49.4005061 ] } },
{ "type": "Feature", "properties": { "index": "40", "last_edit_year": 2025, "years_since_edit": 1, "label": "1.0–2.0 yr", "color": "#a2c9e1" }, "geometry": { "type": "Point", "coordinates": [ 8.678611, 49.4006697 ] } },
{ "type": "Feature", "properties": { "index": "41", "last_edit_year": 2014, "years_since_edit": 12, "label": "3.0–12.0 yr", "color": "#08519c" }, "geometry": { "type": "Point", "coordinates": [ 8.6766081, 49.4129122 ] } },
{ "type": "Feature", "properties": { "index": "42", "last_edit_year": 2015, "years_since_edit": 11, "label": "3.0–12.0 yr", "color": "#08519c" }, "geometry": { "type": "Point", "coordinates": [ 8.676258, 49.4192709 ] } },
{ "type": "Feature", "properties": { "index": "43", "last_edit_year": 2015, "years_since_edit": 11, "label": "3.0–12.0 yr", "color": "#08519c" }, "geometry": { "type": "Point", "coordinates": [ 8.6759885, 49.4078954 ] } },
{ "type": "Feature", "properties": { "index": "44", "last_edit_year": 2014, "years_since_edit": 12, "label": "3.0–12.0 yr", "color": "#08519c" }, "geometry": { "type": "Point", "coordinates": [ 8.6846279, 49.4047241 ] } },
{ "type": "Feature", "properties": { "index": "45", "last_edit_year": 2014, "years_since_edit": 12, "label": "3.0–12.0 yr", "color": "#08519c" }, "geometry": { "type": "Point", "coordinates": [ 8.6851066, 49.4017503 ] } },
{ "type": "Feature", "properties": { "index": "46", "last_edit_year": 2024, "years_since_edit": 2, "label": "2.0–3.0 yr", "color": "#4491c5" }, "geometry": { "type": "Point", "coordinates": [ 8.6713623, 49.4068771 ] } },
{ "type": "Feature", "properties": { "index": "47", "last_edit_year": 2023, "years_since_edit": 3, "label": "3.0–12.0 yr", "color": "#08519c" }, "geometry": { "type": "Point", "coordinates": [ 8.6768373, 49.4168763 ] } },
{ "type": "Feature", "properties": { "index": "48", "last_edit_year": 2025, "years_since_edit": 1, "label": "1.0–2.0 yr", "color": "#a2c9e1" }, "geometry": { "type": "Point", "coordinates": [ 8.6759075, 49.4127267 ] } },
{ "type": "Feature", "properties": { "index": "49", "last_edit_year": 2022, "years_since_edit": 4, "label": "3.0–12.0 yr", "color": "#08519c" }, "geometry": { "type": "Point", "coordinates": [ 8.6698006, 49.419498 ] } },
{ "type": "Feature", "properties": { "index": "50", "last_edit_year": 2024, "years_since_edit": 2, "label": "2.0–3.0 yr", "color": "#4491c5" }, "geometry": { "type": "Point", "coordinates": [ 8.6668931, 49.4191883 ] } },
{ "type": "Feature", "properties": { "index": "51", "last_edit_year": 2026, "years_since_edit": 0, "label": "0.0–1.0 yr", "color": "#eff3ff" }, "geometry": { "type": "Point", "coordinates": [ 8.6671927, 49.4190191 ] } },
{ "type": "Feature", "properties": { "index": "52", "last_edit_year": 2025, "years_since_edit": 1, "label": "1.0–2.0 yr", "color": "#a2c9e1" }, "geometry": { "type": "Point", "coordinates": [ 8.6754058, 49.4195175 ] } },
{ "type": "Feature", "properties": { "index": "53", "last_edit_year": 2022, "years_since_edit": 4, "label": "3.0–12.0 yr", "color": "#08519c" }, "geometry": { "type": "Point", "coordinates": [ 8.6698926, 49.4194276 ] } },
{ "type": "Feature", "properties": { "index": "54", "last_edit_year": 2023, "years_since_edit": 3, "label": "3.0–12.0 yr", "color": "#08519c" }, "geometry": { "type": "Point", "coordinates": [ 8.661164, 49.4172938 ] } },
{ "type": "Feature", "properties": { "index": "55", "last_edit_year": 2024, "years_since_edit": 2, "label": "2.0–3.0 yr", "color": "#4491c5" }, "geometry": { "type": "Point", "coordinates": [ 8.6610628, 49.4172721 ] } },
{ "type": "Feature", "properties": { "index": "56", "last_edit_year": 2023, "years_since_edit": 3, "label": "3.0–12.0 yr", "color": "#08519c" }, "geometry": { "type": "Point", "coordinates": [ 8.6631354, 49.4187635 ] } },
{ "type": "Feature", "properties": { "index": "57", "last_edit_year": 2023, "years_since_edit": 3, "label": "3.0–12.0 yr", "color": "#08519c" }, "geometry": { "type": "Point", "coordinates": [ 8.6627535, 49.4187979 ] } },
{ "type": "Feature", "properties": { "index": "58", "last_edit_year": 2025, "years_since_edit": 1, "label": "1.0–2.0 yr", "color": "#a2c9e1" }, "geometry": { "type": "Point", "coordinates": [ 8.6767755, 49.417056 ] } },
{ "type": "Feature", "properties": { "index": "59", "last_edit_year": 2025, "years_since_edit": 1, "label": "1.0–2.0 yr", "color": "#a2c9e1" }, "geometry": { "type": "Point", "coordinates": [ 8.6701162, 49.4134695 ] } },
{ "type": "Feature", "properties": { "index": "60", "last_edit_year": 2022, "years_since_edit": 4, "label": "3.0–12.0 yr", "color": "#08519c" }, "geometry": { "type": "Point", "coordinates": [ 8.6749087, 49.4201572 ] } },
{ "type": "Feature", "properties": { "index": "61", "last_edit_year": 2025, "years_since_edit": 1, "label": "1.0–2.0 yr", "color": "#a2c9e1" }, "geometry": { "type": "Point", "coordinates": [ 8.6753927, 49.4129744 ] } },
{ "type": "Feature", "properties": { "index": "62", "last_edit_year": 2025, "years_since_edit": 1, "label": "1.0–2.0 yr", "color": "#a2c9e1" }, "geometry": { "type": "Point", "coordinates": [ 8.6704361, 49.4133468 ] } },
{ "type": "Feature", "properties": { "index": "63", "last_edit_year": 2025, "years_since_edit": 1, "label": "1.0–2.0 yr", "color": "#a2c9e1" }, "geometry": { "type": "Point", "coordinates": [ 8.6655363, 49.4148543 ] } },
{ "type": "Feature", "properties": { "index": "64", "last_edit_year": 2025, "years_since_edit": 1, "label": "1.0–2.0 yr", "color": "#a2c9e1" }, "geometry": { "type": "Point", "coordinates": [ 8.6663105, 49.4145691 ] } },
{ "type": "Feature", "properties": { "index": "65", "last_edit_year": 2025, "years_since_edit": 1, "label": "1.0–2.0 yr", "color": "#a2c9e1" }, "geometry": { "type": "Point", "coordinates": [ 8.6752144, 49.4152208 ] } },
{ "type": "Feature", "properties": { "index": "66", "last_edit_year": 2025, "years_since_edit": 1, "label": "1.0–2.0 yr", "color": "#a2c9e1" }, "geometry": { "type": "Point", "coordinates": [ 8.6734387, 49.4137552 ] } },
{ "type": "Feature", "properties": { "index": "67", "last_edit_year": 2025, "years_since_edit": 1, "label": "1.0–2.0 yr", "color": "#a2c9e1" }, "geometry": { "type": "Point", "coordinates": [ 8.6737185, 49.4136575 ] } },
{ "type": "Feature", "properties": { "index": "68", "last_edit_year": 2025, "years_since_edit": 1, "label": "1.0–2.0 yr", "color": "#a2c9e1" }, "geometry": { "type": "Point", "coordinates": [ 8.6635301, 49.4152068 ] } },
{ "type": "Feature", "properties": { "index": "69", "last_edit_year": 2026, "years_since_edit": 0, "label": "0.0–1.0 yr", "color": "#eff3ff" }, "geometry": { "type": "Point", "coordinates": [ 8.6806013, 49.4078315 ] } },
{ "type": "Feature", "properties": { "index": "70", "last_edit_year": 2022, "years_since_edit": 4, "label": "3.0–12.0 yr", "color": "#08519c" }, "geometry": { "type": "Point", "coordinates": [ 8.7159505, 49.4159882 ] } },
{ "type": "Feature", "properties": { "index": "71", "last_edit_year": 2025, "years_since_edit": 1, "label": "1.0–2.0 yr", "color": "#a2c9e1" }, "geometry": { "type": "Point", "coordinates": [ 8.708932, 49.4152724 ] } },
{ "type": "Feature", "properties": { "index": "72", "last_edit_year": 2025, "years_since_edit": 1, "label": "1.0–2.0 yr", "color": "#a2c9e1" }, "geometry": { "type": "Point", "coordinates": [ 8.7091544, 49.4152263 ] } },
{ "type": "Feature", "properties": { "index": "73", "last_edit_year": 2022, "years_since_edit": 4, "label": "3.0–12.0 yr", "color": "#08519c" }, "geometry": { "type": "Point", "coordinates": [ 8.7168545, 49.4161997 ] } },
{ "type": "Feature", "properties": { "index": "74", "last_edit_year": 2025, "years_since_edit": 1, "label": "1.0–2.0 yr", "color": "#a2c9e1" }, "geometry": { "type": "Point", "coordinates": [ 8.7108, 49.4136759 ] } },
{ "type": "Feature", "properties": { "index": "75", "last_edit_year": 2024, "years_since_edit": 2, "label": "2.0–3.0 yr", "color": "#4491c5" }, "geometry": { "type": "Point", "coordinates": [ 8.7131886, 49.413716 ] } },
{ "type": "Feature", "properties": { "index": "76", "last_edit_year": 2025, "years_since_edit": 1, "label": "1.0–2.0 yr", "color": "#a2c9e1" }, "geometry": { "type": "Point", "coordinates": [ 8.6912464, 49.3999244 ] } },
{ "type": "Feature", "properties": { "index": "77", "last_edit_year": 2025, "years_since_edit": 1, "label": "1.0–2.0 yr", "color": "#a2c9e1" }, "geometry": { "type": "Point", "coordinates": [ 8.6911005, 49.4002825 ] } },
{ "type": "Feature", "properties": { "index": "78", "last_edit_year": 2025, "years_since_edit": 1, "label": "1.0–2.0 yr", "color": "#a2c9e1" }, "geometry": { "type": "Point", "coordinates": [ 8.6685941, 49.4092508 ] } },
{ "type": "Feature", "properties": { "index": "79", "last_edit_year": 2025, "years_since_edit": 1, "label": "1.0–2.0 yr", "color": "#a2c9e1" }, "geometry": { "type": "Point", "coordinates": [ 8.6639042, 49.4100572 ] } },
{ "type": "Feature", "properties": { "index": "80", "last_edit_year": 2025, "years_since_edit": 1, "label": "1.0–2.0 yr", "color": "#a2c9e1" }, "geometry": { "type": "Point", "coordinates": [ 8.6645773, 49.4098198 ] } },
{ "type": "Feature", "properties": { "index": "81", "last_edit_year": 2025, "years_since_edit": 1, "label": "1.0–2.0 yr", "color": "#a2c9e1" }, "geometry": { "type": "Point", "coordinates": [ 8.667691, 49.4085717 ] } },
{ "type": "Feature", "properties": { "index": "82", "last_edit_year": 2024, "years_since_edit": 2, "label": "2.0–3.0 yr", "color": "#4491c5" }, "geometry": { "type": "Point", "coordinates": [ 8.6769361, 49.4043518 ] } },
{ "type": "Feature", "properties": { "index": "83", "last_edit_year": 2025, "years_since_edit": 1, "label": "1.0–2.0 yr", "color": "#a2c9e1" }, "geometry": { "type": "Point", "coordinates": [ 8.6779356, 49.404146 ] } },
{ "type": "Feature", "properties": { "index": "84", "last_edit_year": 2025, "years_since_edit": 1, "label": "1.0–2.0 yr", "color": "#a2c9e1" }, "geometry": { "type": "Point", "coordinates": [ 8.6782558, 49.4042065 ] } },
{ "type": "Feature", "properties": { "index": "85", "last_edit_year": 2025, "years_since_edit": 1, "label": "1.0–2.0 yr", "color": "#a2c9e1" }, "geometry": { "type": "Point", "coordinates": [ 8.6747206, 49.4075859 ] } },
{ "type": "Feature", "properties": { "index": "86", "last_edit_year": 2025, "years_since_edit": 1, "label": "1.0–2.0 yr", "color": "#a2c9e1" }, "geometry": { "type": "Point", "coordinates": [ 8.6761474, 49.4078525 ] } },
{ "type": "Feature", "properties": { "index": "87", "last_edit_year": 2025, "years_since_edit": 1, "label": "1.0–2.0 yr", "color": "#a2c9e1" }, "geometry": { "type": "Point", "coordinates": [ 8.6756934, 49.4079294 ] } },
{ "type": "Feature", "properties": { "index": "88", "last_edit_year": 2025, "years_since_edit": 1, "label": "1.0–2.0 yr", "color": "#a2c9e1" }, "geometry": { "type": "Point", "coordinates": [ 8.6806746, 49.4078028 ] } },
{ "type": "Feature", "properties": { "index": "89", "last_edit_year": 2025, "years_since_edit": 1, "label": "1.0–2.0 yr", "color": "#a2c9e1" }, "geometry": { "type": "Point", "coordinates": [ 8.6805181, 49.4078767 ] } },
{ "type": "Feature", "properties": { "index": "90", "last_edit_year": 2025, "years_since_edit": 1, "label": "1.0–2.0 yr", "color": "#a2c9e1" }, "geometry": { "type": "Point", "coordinates": [ 8.6884254, 49.408405 ] } },
{ "type": "Feature", "properties": { "index": "91", "last_edit_year": 2025, "years_since_edit": 1, "label": "1.0–2.0 yr", "color": "#a2c9e1" }, "geometry": { "type": "Point", "coordinates": [ 8.6928995, 49.4101809 ] } },
{ "type": "Feature", "properties": { "index": "92", "last_edit_year": 2025, "years_since_edit": 1, "label": "1.0–2.0 yr", "color": "#a2c9e1" }, "geometry": { "type": "Point", "coordinates": [ 8.6928532, 49.4099846 ] } },
{ "type": "Feature", "properties": { "index": "93", "last_edit_year": 2025, "years_since_edit": 1, "label": "1.0–2.0 yr", "color": "#a2c9e1" }, "geometry": { "type": "Point", "coordinates": [ 8.6932968, 49.4095744 ] } },
{ "type": "Feature", "properties": { "index": "94", "last_edit_year": 2025, "years_since_edit": 1, "label": "1.0–2.0 yr", "color": "#a2c9e1" }, "geometry": { "type": "Point", "coordinates": [ 8.6931627, 49.4093461 ] } },
{ "type": "Feature", "properties": { "index": "95", "last_edit_year": 2025, "years_since_edit": 1, "label": "1.0–2.0 yr", "color": "#a2c9e1" }, "geometry": { "type": "Point", "coordinates": [ 8.6929959, 49.4092112 ] } },
{ "type": "Feature", "properties": { "index": "96", "last_edit_year": 2025, "years_since_edit": 1, "label": "1.0–2.0 yr", "color": "#a2c9e1" }, "geometry": { "type": "Point", "coordinates": [ 8.6927592, 49.4090525 ] } },
{ "type": "Feature", "properties": { "index": "97", "last_edit_year": 2025, "years_since_edit": 1, "label": "1.0–2.0 yr", "color": "#a2c9e1" }, "geometry": { "type": "Point", "coordinates": [ 8.7057655, 49.4111209 ] } },
{ "type": "Feature", "properties": { "index": "98", "last_edit_year": 2025, "years_since_edit": 1, "label": "1.0–2.0 yr", "color": "#a2c9e1" }, "geometry": { "type": "Point", "coordinates": [ 8.6816986, 49.4173023 ] } },
{ "type": "Feature", "properties": { "index": "99", "last_edit_year": 2025, "years_since_edit": 1, "label": "1.0–2.0 yr", "color": "#a2c9e1" }, "geometry": { "type": "Point", "coordinates": [ 8.6820724, 49.4174607 ] } },
{ "type": "Feature", "properties": { "index": "100", "last_edit_year": 2025, "years_since_edit": 1, "label": "1.0–2.0 yr", "color": "#a2c9e1" }, "geometry": { "type": "Point", "coordinates": [ 8.7053701, 49.4130422 ] } },
{ "type": "Feature", "properties": { "index": "101", "last_edit_year": 2025, "years_since_edit": 1, "label": "1.0–2.0 yr", "color": "#a2c9e1" }, "geometry": { "type": "Point", "coordinates": [ 8.7058799, 49.4133722 ] } },
{ "type": "Feature", "properties": { "index": "102", "last_edit_year": 2023, "years_since_edit": 3, "label": "3.0–12.0 yr", "color": "#08519c" }, "geometry": { "type": "Point", "coordinates": [ 8.6908888, 49.4173515 ] } },
{ "type": "Feature", "properties": { "index": "103", "last_edit_year": 2024, "years_since_edit": 2, "label": "2.0–3.0 yr", "color": "#4491c5" }, "geometry": { "type": "Point", "coordinates": [ 8.6912051, 49.4171632 ] } },
{ "type": "Feature", "properties": { "index": "104", "last_edit_year": 2025, "years_since_edit": 1, "label": "1.0–2.0 yr", "color": "#a2c9e1" }, "geometry": { "type": "Point", "coordinates": [ 8.6972359, 49.4119771 ] } },
{ "type": "Feature", "properties": { "index": "105", "last_edit_year": 2025, "years_since_edit": 1, "label": "1.0–2.0 yr", "color": "#a2c9e1" }, "geometry": { "type": "Point", "coordinates": [ 8.697206, 49.4120763 ] } },
{ "type": "Feature", "properties": { "index": "106", "last_edit_year": 2025, "years_since_edit": 1, "label": "1.0–2.0 yr", "color": "#a2c9e1" }, "geometry": { "type": "Point", "coordinates": [ 8.6828676, 49.4055633 ] } },
{ "type": "Feature", "properties": { "index": "107", "last_edit_year": 2025, "years_since_edit": 1, "label": "1.0–2.0 yr", "color": "#a2c9e1" }, "geometry": { "type": "Point", "coordinates": [ 8.6822752, 49.4050333 ] } },
{ "type": "Feature", "properties": { "index": "108", "last_edit_year": 2025, "years_since_edit": 1, "label": "1.0–2.0 yr", "color": "#a2c9e1" }, "geometry": { "type": "Point", "coordinates": [ 8.7054522, 49.409072 ] } },
{ "type": "Feature", "properties": { "index": "109", "last_edit_year": 2025, "years_since_edit": 1, "label": "1.0–2.0 yr", "color": "#a2c9e1" }, "geometry": { "type": "Point", "coordinates": [ 8.6986037, 49.4084064 ] } },
{ "type": "Feature", "properties": { "index": "110", "last_edit_year": 2025, "years_since_edit": 1, "label": "1.0–2.0 yr", "color": "#a2c9e1" }, "geometry": { "type": "Point", "coordinates": [ 8.6943285, 49.4137668 ] } },
{ "type": "Feature", "properties": { "index": "111", "last_edit_year": 2025, "years_since_edit": 1, "label": "1.0–2.0 yr", "color": "#a2c9e1" }, "geometry": { "type": "Point", "coordinates": [ 8.6900774, 49.4069337 ] } },
{ "type": "Feature", "properties": { "index": "112", "last_edit_year": 2025, "years_since_edit": 1, "label": "1.0–2.0 yr", "color": "#a2c9e1" }, "geometry": { "type": "Point", "coordinates": [ 8.6934775, 49.4068742 ] } },
{ "type": "Feature", "properties": { "index": "113", "last_edit_year": 2025, "years_since_edit": 1, "label": "1.0–2.0 yr", "color": "#a2c9e1" }, "geometry": { "type": "Point", "coordinates": [ 8.7053904, 49.4088905 ] } },
{ "type": "Feature", "properties": { "index": "114", "last_edit_year": 2024, "years_since_edit": 2, "label": "2.0–3.0 yr", "color": "#4491c5" }, "geometry": { "type": "Point", "coordinates": [ 8.7080457, 49.4092125 ] } },
{ "type": "Feature", "properties": { "index": "115", "last_edit_year": 2024, "years_since_edit": 2, "label": "2.0–3.0 yr", "color": "#4491c5" }, "geometry": { "type": "Point", "coordinates": [ 8.7093183, 49.4096121 ] } },
{ "type": "Feature", "properties": { "index": "116", "last_edit_year": 2022, "years_since_edit": 4, "label": "3.0–12.0 yr", "color": "#08519c" }, "geometry": { "type": "Point", "coordinates": [ 8.7167012, 49.4136898 ] } },
{ "type": "Feature", "properties": { "index": "117", "last_edit_year": 2023, "years_since_edit": 3, "label": "3.0–12.0 yr", "color": "#08519c" }, "geometry": { "type": "Point", "coordinates": [ 8.7128024, 49.4124456 ] } },
{ "type": "Feature", "properties": { "index": "118", "last_edit_year": 2026, "years_since_edit": 0, "label": "0.0–1.0 yr", "color": "#eff3ff" }, "geometry": { "type": "Point", "coordinates": [ 8.7119309, 49.4114089 ] } },
{ "type": "Feature", "properties": { "index": "119", "last_edit_year": 2022, "years_since_edit": 4, "label": "3.0–12.0 yr", "color": "#08519c" }, "geometry": { "type": "Point", "coordinates": [ 8.7114111, 49.4112175 ] } },
{ "type": "Feature", "properties": { "index": "120", "last_edit_year": 2025, "years_since_edit": 1, "label": "1.0–2.0 yr", "color": "#a2c9e1" }, "geometry": { "type": "Point", "coordinates": [ 8.6999304, 49.4080587 ] } },
{ "type": "Feature", "properties": { "index": "121", "last_edit_year": 2025, "years_since_edit": 1, "label": "1.0–2.0 yr", "color": "#a2c9e1" }, "geometry": { "type": "Point", "coordinates": [ 8.6712204, 49.4067817 ] } },
{ "type": "Feature", "properties": { "index": "122", "last_edit_year": 2024, "years_since_edit": 2, "label": "2.0–3.0 yr", "color": "#4491c5" }, "geometry": { "type": "Point", "coordinates": [ 8.7146699, 49.407157 ] } },
{ "type": "Feature", "properties": { "index": "123", "last_edit_year": 2025, "years_since_edit": 1, "label": "1.0–2.0 yr", "color": "#a2c9e1" }, "geometry": { "type": "Point", "coordinates": [ 8.6926553, 49.4054462 ] } },
{ "type": "Feature", "properties": { "index": "124", "last_edit_year": 2025, "years_since_edit": 1, "label": "1.0–2.0 yr", "color": "#a2c9e1" }, "geometry": { "type": "Point", "coordinates": [ 8.6925319, 49.4055795 ] } },
{ "type": "Feature", "properties": { "index": "125", "last_edit_year": 2025, "years_since_edit": 1, "label": "1.0–2.0 yr", "color": "#a2c9e1" }, "geometry": { "type": "Point", "coordinates": [ 8.6915578, 49.4020509 ] } },
{ "type": "Feature", "properties": { "index": "126", "last_edit_year": 2025, "years_since_edit": 1, "label": "1.0–2.0 yr", "color": "#a2c9e1" }, "geometry": { "type": "Point", "coordinates": [ 8.6916456, 49.4026927 ] } },
{ "type": "Feature", "properties": { "index": "127", "last_edit_year": 2025, "years_since_edit": 1, "label": "1.0–2.0 yr", "color": "#a2c9e1" }, "geometry": { "type": "Point", "coordinates": [ 8.6941956, 49.4136993 ] } },
{ "type": "Feature", "properties": { "index": "128", "last_edit_year": 2026, "years_since_edit": 0, "label": "0.0–1.0 yr", "color": "#eff3ff" }, "geometry": { "type": "Point", "coordinates": [ 8.6764049, 49.4130324 ] } },
{ "type": "Feature", "properties": { "index": "129", "last_edit_year": 2025, "years_since_edit": 1, "label": "1.0–2.0 yr", "color": "#a2c9e1" }, "geometry": { "type": "Point", "coordinates": [ 8.6768015, 49.4131995 ] } },
{ "type": "Feature", "properties": { "index": "130", "last_edit_year": 2025, "years_since_edit": 1, "label": "1.0–2.0 yr", "color": "#a2c9e1" }, "geometry": { "type": "Point", "coordinates": [ 8.69235, 49.4134671 ] } },
{ "type": "Feature", "properties": { "index": "131", "last_edit_year": 2025, "years_since_edit": 1, "label": "1.0–2.0 yr", "color": "#a2c9e1" }, "geometry": { "type": "Point", "coordinates": [ 8.6856825, 49.4174337 ] } },
{ "type": "Feature", "properties": { "index": "132", "last_edit_year": 2025, "years_since_edit": 1, "label": "1.0–2.0 yr", "color": "#a2c9e1" }, "geometry": { "type": "Point", "coordinates": [ 8.6893414, 49.3984594 ] } },
{ "type": "Feature", "properties": { "index": "133", "last_edit_year": 2025, "years_since_edit": 1, "label": "1.0–2.0 yr", "color": "#a2c9e1" }, "geometry": { "type": "Point", "coordinates": [ 8.6967738, 49.4116285 ] } },
{ "type": "Feature", "properties": { "index": "134", "last_edit_year": 2022, "years_since_edit": 4, "label": "3.0–12.0 yr", "color": "#08519c" }, "geometry": { "type": "Point", "coordinates": [ 8.7120306, 49.4112877 ] } },
{ "type": "Feature", "properties": { "index": "135", "last_edit_year": 2025, "years_since_edit": 1, "label": "1.0–2.0 yr", "color": "#a2c9e1" }, "geometry": { "type": "Point", "coordinates": [ 8.7045338, 49.4105746 ] } },
{ "type": "Feature", "properties": { "index": "136", "last_edit_year": 2017, "years_since_edit": 9, "label": "3.0–12.0 yr", "color": "#08519c" }, "geometry": { "type": "Point", "coordinates": [ 8.6985594, 49.4088982 ] } },
{ "type": "Feature", "properties": { "index": "137", "last_edit_year": 2026, "years_since_edit": 0, "label": "0.0–1.0 yr", "color": "#eff3ff" }, "geometry": { "type": "Point", "coordinates": [ 8.6920489, 49.4154941 ] } },
{ "type": "Feature", "properties": { "index": "138", "last_edit_year": 2025, "years_since_edit": 1, "label": "1.0–2.0 yr", "color": "#a2c9e1" }, "geometry": { "type": "Point", "coordinates": [ 8.6921408, 49.4157681 ] } },
{ "type": "Feature", "properties": { "index": "139", "last_edit_year": 2025, "years_since_edit": 1, "label": "1.0–2.0 yr", "color": "#a2c9e1" }, "geometry": { "type": "Point", "coordinates": [ 8.7150844, 49.4070167 ] } },
{ "type": "Feature", "properties": { "index": "140", "last_edit_year": 2025, "years_since_edit": 1, "label": "1.0–2.0 yr", "color": "#a2c9e1" }, "geometry": { "type": "Point", "coordinates": [ 8.7149274, 49.4070255 ] } },
{ "type": "Feature", "properties": { "index": "141", "last_edit_year": 2025, "years_since_edit": 1, "label": "1.0–2.0 yr", "color": "#a2c9e1" }, "geometry": { "type": "Point", "coordinates": [ 8.7145104, 49.4062811 ] } },
{ "type": "Feature", "properties": { "index": "142", "last_edit_year": 2025, "years_since_edit": 1, "label": "1.0–2.0 yr", "color": "#a2c9e1" }, "geometry": { "type": "Point", "coordinates": [ 8.7136432, 49.4009711 ] } },
{ "type": "Feature", "properties": { "index": "143", "last_edit_year": 2024, "years_since_edit": 2, "label": "2.0–3.0 yr", "color": "#4491c5" }, "geometry": { "type": "Point", "coordinates": [ 8.6815662, 49.4178168 ] } },
{ "type": "Feature", "properties": { "index": "144", "last_edit_year": 2025, "years_since_edit": 1, "label": "1.0–2.0 yr", "color": "#a2c9e1" }, "geometry": { "type": "Point", "coordinates": [ 8.6871221, 49.4197789 ] } },
{ "type": "Feature", "properties": { "index": "145", "last_edit_year": 2025, "years_since_edit": 1, "label": "1.0–2.0 yr", "color": "#a2c9e1" }, "geometry": { "type": "Point", "coordinates": [ 8.6931593, 49.4097928 ] } },
{ "type": "Feature", "properties": { "index": "146", "last_edit_year": 2023, "years_since_edit": 3, "label": "3.0–12.0 yr", "color": "#08519c" }, "geometry": { "type": "Point", "coordinates": [ 8.7129853, 49.4090544 ] } },
{ "type": "Feature", "properties": { "index": "147", "last_edit_year": 2023, "years_since_edit": 3, "label": "3.0–12.0 yr", "color": "#08519c" }, "geometry": { "type": "Point", "coordinates": [ 8.6764203, 49.3996087 ] } },
{ "type": "Feature", "properties": { "index": "148", "last_edit_year": 2024, "years_since_edit": 2, "label": "2.0–3.0 yr", "color": "#4491c5" }, "geometry": { "type": "Point", "coordinates": [ 8.6878647, 49.4036198 ] } },
{ "type": "Feature", "properties": { "index": "149", "last_edit_year": 2025, "years_since_edit": 1, "label": "1.0–2.0 yr", "color": "#a2c9e1" }, "geometry": { "type": "Point", "coordinates": [ 8.7187531, 49.4143251 ] } },
{ "type": "Feature", "properties": { "index": "150", "last_edit_year": 2024, "years_since_edit": 2, "label": "2.0–3.0 yr", "color": "#4491c5" }, "geometry": { "type": "Point", "coordinates": [ 8.7128442, 49.4088954 ] } },
{ "type": "Feature", "properties": { "index": "151", "last_edit_year": 2017, "years_since_edit": 9, "label": "3.0–12.0 yr", "color": "#08519c" }, "geometry": { "type": "Point", "coordinates": [ 8.6869038, 49.3995012 ] } },
{ "type": "Feature", "properties": { "index": "152", "last_edit_year": 2026, "years_since_edit": 0, "label": "0.0–1.0 yr", "color": "#eff3ff" }, "geometry": { "type": "Point", "coordinates": [ 8.6846068, 49.4046512 ] } },
{ "type": "Feature", "properties": { "index": "153", "last_edit_year": 2026, "years_since_edit": 0, "label": "0.0–1.0 yr", "color": "#eff3ff" }, "geometry": { "type": "Point", "coordinates": [ 8.6805997, 49.4078596 ] } },
{ "type": "Feature", "properties": { "index": "154", "last_edit_year": 2020, "years_since_edit": 6, "label": "3.0–12.0 yr", "color": "#08519c" }, "geometry": { "type": "Point", "coordinates": [ 8.6891933, 49.4214391 ] } },
{ "type": "Feature", "properties": { "index": "155", "last_edit_year": 2022, "years_since_edit": 4, "label": "3.0–12.0 yr", "color": "#08519c" }, "geometry": { "type": "Point", "coordinates": [ 8.6920906, 49.415436 ] } },
{ "type": "Feature", "properties": { "index": "156", "last_edit_year": 2022, "years_since_edit": 4, "label": "3.0–12.0 yr", "color": "#08519c" }, "geometry": { "type": "Point", "coordinates": [ 8.6906225, 49.4187734 ] } },
{ "type": "Feature", "properties": { "index": "157", "last_edit_year": 2025, "years_since_edit": 1, "label": "1.0–2.0 yr", "color": "#a2c9e1" }, "geometry": { "type": "Point", "coordinates": [ 8.6762216, 49.418978 ] } },
{ "type": "Feature", "properties": { "index": "158", "last_edit_year": 2024, "years_since_edit": 2, "label": "2.0–3.0 yr", "color": "#4491c5" }, "geometry": { "type": "Point", "coordinates": [ 8.671346, 49.4069024 ] } },
{ "type": "Feature", "properties": { "index": "159", "last_edit_year": 2025, "years_since_edit": 1, "label": "1.0–2.0 yr", "color": "#a2c9e1" }, "geometry": { "type": "Point", "coordinates": [ 8.6929734, 49.4095374 ] } },
{ "type": "Feature", "properties": { "index": "160", "last_edit_year": 2025, "years_since_edit": 1, "label": "1.0–2.0 yr", "color": "#a2c9e1" }, "geometry": { "type": "Point", "coordinates": [ 8.6928288, 49.4098287 ] } },
{ "type": "Feature", "properties": { "index": "161", "last_edit_year": 2018, "years_since_edit": 8, "label": "3.0–12.0 yr", "color": "#08519c" }, "geometry": { "type": "Point", "coordinates": [ 8.6751788, 49.4056096 ] } },
{ "type": "Feature", "properties": { "index": "162", "last_edit_year": 2025, "years_since_edit": 1, "label": "1.0–2.0 yr", "color": "#a2c9e1" }, "geometry": { "type": "Point", "coordinates": [ 8.6871846, 49.4172979 ] } },
{ "type": "Feature", "properties": { "index": "163", "last_edit_year": 2021, "years_since_edit": 5, "label": "3.0–12.0 yr", "color": "#08519c" }, "geometry": { "type": "Point", "coordinates": [ 8.6918619, 49.4064409 ] } },
{ "type": "Feature", "properties": { "index": "164", "last_edit_year": 2017, "years_since_edit": 9, "label": "3.0–12.0 yr", "color": "#08519c" }, "geometry": { "type": "Point", "coordinates": [ 8.6902108, 49.4075653 ] } },
{ "type": "Feature", "properties": { "index": "165", "last_edit_year": 2025, "years_since_edit": 1, "label": "1.0–2.0 yr", "color": "#a2c9e1" }, "geometry": { "type": "Point", "coordinates": [ 8.6829974, 49.40578 ] } },
{ "type": "Feature", "properties": { "index": "166", "last_edit_year": 2020, "years_since_edit": 6, "label": "3.0–12.0 yr", "color": "#08519c" }, "geometry": { "type": "Point", "coordinates": [ 8.6791001, 49.4145642 ] } },
{ "type": "Feature", "properties": { "index": "167", "last_edit_year": 2025, "years_since_edit": 1, "label": "1.0–2.0 yr", "color": "#a2c9e1" }, "geometry": { "type": "Point", "coordinates": [ 8.6925032, 49.4135781 ] } },
{ "type": "Feature", "properties": { "index": "168", "last_edit_year": 2020, "years_since_edit": 6, "label": "3.0–12.0 yr", "color": "#08519c" }, "geometry": { "type": "Point", "coordinates": [ 8.6836921, 49.4159532 ] } },
{ "type": "Feature", "properties": { "index": "169", "last_edit_year": 2020, "years_since_edit": 6, "label": "3.0–12.0 yr", "color": "#08519c" }, "geometry": { "type": "Point", "coordinates": [ 8.6813317, 49.415674 ] } },
{ "type": "Feature", "properties": { "index": "170", "last_edit_year": 2024, "years_since_edit": 2, "label": "2.0–3.0 yr", "color": "#4491c5" }, "geometry": { "type": "Point", "coordinates": [ 8.6679456, 49.4201221 ] } },
{ "type": "Feature", "properties": { "index": "171", "last_edit_year": 2025, "years_since_edit": 1, "label": "1.0–2.0 yr", "color": "#a2c9e1" }, "geometry": { "type": "Point", "coordinates": [ 8.6724622, 49.4013885 ] } },
{ "type": "Feature", "properties": { "index": "172", "last_edit_year": 2025, "years_since_edit": 1, "label": "1.0–2.0 yr", "color": "#a2c9e1" }, "geometry": { "type": "Point", "coordinates": [ 8.6714984, 49.3993841 ] } },
{ "type": "Feature", "properties": { "index": "173", "last_edit_year": 2025, "years_since_edit": 1, "label": "1.0–2.0 yr", "color": "#a2c9e1" }, "geometry": { "type": "Point", "coordinates": [ 8.6716997, 49.3994314 ] } },
{ "type": "Feature", "properties": { "index": "174", "last_edit_year": 2025, "years_since_edit": 1, "label": "1.0–2.0 yr", "color": "#a2c9e1" }, "geometry": { "type": "Point", "coordinates": [ 8.6787123, 49.4047148 ] } },
{ "type": "Feature", "properties": { "index": "175", "last_edit_year": 2025, "years_since_edit": 1, "label": "1.0–2.0 yr", "color": "#a2c9e1" }, "geometry": { "type": "Point", "coordinates": [ 8.6763297, 49.4192296 ] } },
{ "type": "Feature", "properties": { "index": "176", "last_edit_year": 2026, "years_since_edit": 0, "label": "0.0–1.0 yr", "color": "#eff3ff" }, "geometry": { "type": "Point", "coordinates": [ 8.6730302, 49.4019555 ] } },
{ "type": "Feature", "properties": { "index": "177", "last_edit_year": 2024, "years_since_edit": 2, "label": "2.0–3.0 yr", "color": "#4491c5" }, "geometry": { "type": "Point", "coordinates": [ 8.6672838, 49.4017075 ] } },
{ "type": "Feature", "properties": { "index": "178", "last_edit_year": 2025, "years_since_edit": 1, "label": "1.0–2.0 yr", "color": "#a2c9e1" }, "geometry": { "type": "Point", "coordinates": [ 8.6763152, 49.4165698 ] } },
{ "type": "Feature", "properties": { "index": "179", "last_edit_year": 2025, "years_since_edit": 1, "label": "1.0–2.0 yr", "color": "#a2c9e1" }, "geometry": { "type": "Point", "coordinates": [ 8.6763264, 49.4174281 ] } },
{ "type": "Feature", "properties": { "index": "180", "last_edit_year": 2025, "years_since_edit": 1, "label": "1.0–2.0 yr", "color": "#a2c9e1" }, "geometry": { "type": "Point", "coordinates": [ 8.681213, 49.4050422 ] } },
{ "type": "Feature", "properties": { "index": "181", "last_edit_year": 2026, "years_since_edit": 0, "label": "0.0–1.0 yr", "color": "#eff3ff" }, "geometry": { "type": "Point", "coordinates": [ 8.6754223, 49.4034737 ] } },
{ "type": "Feature", "properties": { "index": "182", "last_edit_year": 2026, "years_since_edit": 0, "label": "0.0–1.0 yr", "color": "#eff3ff" }, "geometry": { "type": "Point", "coordinates": [ 8.6635942, 49.4035509 ] } },
{ "type": "Feature", "properties": { "index": "183", "last_edit_year": 2022, "years_since_edit": 4, "label": "3.0–12.0 yr", "color": "#08519c" }, "geometry": { "type": "Point", "coordinates": [ 8.6906588, 49.4187871 ] } },
{ "type": "Feature", "properties": { "index": "184", "last_edit_year": 2026, "years_since_edit": 0, "label": "0.0–1.0 yr", "color": "#eff3ff" }, "geometry": { "type": "Point", "coordinates": [ 8.6761325, 49.4083514 ] } },
{ "type": "Feature", "properties": { "index": "185", "last_edit_year": 2025, "years_since_edit": 1, "label": "1.0–2.0 yr", "color": "#a2c9e1" }, "geometry": { "type": "Point", "coordinates": [ 8.7006247, 49.4087518 ] } },
{ "type": "Feature", "properties": { "index": "186", "last_edit_year": 2024, "years_since_edit": 2, "label": "2.0–3.0 yr", "color": "#4491c5" }, "geometry": { "type": "Point", "coordinates": [ 8.681428, 49.4036252 ] } },
{ "type": "Feature", "properties": { "index": "187", "last_edit_year": 2015, "years_since_edit": 11, "label": "3.0–12.0 yr", "color": "#08519c" }, "geometry": { "type": "Point", "coordinates": [ 8.6883863, 49.4084184 ] } },
{ "type": "Feature", "properties": { "index": "188", "last_edit_year": 2024, "years_since_edit": 2, "label": "2.0–3.0 yr", "color": "#4491c5" }, "geometry": { "type": "Point", "coordinates": [ 8.6713859, 49.4068967 ] } },
{ "type": "Feature", "properties": { "index": "189", "last_edit_year": 2025, "years_since_edit": 1, "label": "1.0–2.0 yr", "color": "#a2c9e1" }, "geometry": { "type": "Point", "coordinates": [ 8.6767936, 49.4043066 ] } },
{ "type": "Feature", "properties": { "index": "190", "last_edit_year": 2026, "years_since_edit": 0, "label": "0.0–1.0 yr", "color": "#eff3ff" }, "geometry": { "type": "Point", "coordinates": [ 8.6846607, 49.4046127 ] } },
{ "type": "Feature", "properties": { "index": "191", "last_edit_year": 2019, "years_since_edit": 7, "label": "3.0–12.0 yr", "color": "#08519c" }, "geometry": { "type": "Point", "coordinates": [ 8.680577, 49.4078463 ] } },
{ "type": "Feature", "properties": { "index": "192", "last_edit_year": 2025, "years_since_edit": 1, "label": "1.0–2.0 yr", "color": "#a2c9e1" }, "geometry": { "type": "Point", "coordinates": [ 8.6716477, 49.4060979 ] } },
{ "type": "Feature", "properties": { "index": "193", "last_edit_year": 2025, "years_since_edit": 1, "label": "1.0–2.0 yr", "color": "#a2c9e1" }, "geometry": { "type": "Point", "coordinates": [ 8.6748725, 49.4074995 ] } },
{ "type": "Feature", "properties": { "index": "194", "last_edit_year": 2025, "years_since_edit": 1, "label": "1.0–2.0 yr", "color": "#a2c9e1" }, "geometry": { "type": "Point", "coordinates": [ 8.6884853, 49.3982818 ] } },
{ "type": "Feature", "properties": { "index": "195", "last_edit_year": 2022, "years_since_edit": 4, "label": "3.0–12.0 yr", "color": "#08519c" }, "geometry": { "type": "Point", "coordinates": [ 8.689127, 49.4215275 ] } },
{ "type": "Feature", "properties": { "index": "196", "last_edit_year": 2025, "years_since_edit": 1, "label": "1.0–2.0 yr", "color": "#a2c9e1" }, "geometry": { "type": "Point", "coordinates": [ 8.6918182, 49.4133047 ] } },
{ "type": "Feature", "properties": { "index": "197", "last_edit_year": 2025, "years_since_edit": 1, "label": "1.0–2.0 yr", "color": "#a2c9e1" }, "geometry": { "type": "Point", "coordinates": [ 8.6905365, 49.418466 ] } },
{ "type": "Feature", "properties": { "index": "198", "last_edit_year": 2025, "years_since_edit": 1, "label": "1.0–2.0 yr", "color": "#a2c9e1" }, "geometry": { "type": "Point", "coordinates": [ 8.6758185, 49.4025101 ] } },
{ "type": "Feature", "properties": { "index": "199", "last_edit_year": 2025, "years_since_edit": 1, "label": "1.0–2.0 yr", "color": "#a2c9e1" }, "geometry": { "type": "Point", "coordinates": [ 8.699159, 49.4119954 ] } },
{ "type": "Feature", "properties": { "index": "200", "last_edit_year": 2024, "years_since_edit": 2, "label": "2.0–3.0 yr", "color": "#4491c5" }, "geometry": { "type": "Point", "coordinates": [ 8.6891931, 49.3989628 ] } },
{ "type": "Feature", "properties": { "index": "201", "last_edit_year": 2025, "years_since_edit": 1, "label": "1.0–2.0 yr", "color": "#a2c9e1" }, "geometry": { "type": "Point", "coordinates": [ 8.693822, 49.4086829 ] } },
{ "type": "Feature", "properties": { "index": "202", "last_edit_year": 2025, "years_since_edit": 1, "label": "1.0–2.0 yr", "color": "#a2c9e1" }, "geometry": { "type": "Point", "coordinates": [ 8.6725783, 49.4018638 ] } },
{ "type": "Feature", "properties": { "index": "203", "last_edit_year": 2025, "years_since_edit": 1, "label": "1.0–2.0 yr", "color": "#a2c9e1" }, "geometry": { "type": "Point", "coordinates": [ 8.6647975, 49.4148893 ] } },
{ "type": "Feature", "properties": { "index": "204", "last_edit_year": 2024, "years_since_edit": 2, "label": "2.0–3.0 yr", "color": "#4491c5" }, "geometry": { "type": "Point", "coordinates": [ 8.6703539, 49.4000461 ] } },
{ "type": "Feature", "properties": { "index": "205", "last_edit_year": 2025, "years_since_edit": 1, "label": "1.0–2.0 yr", "color": "#a2c9e1" }, "geometry": { "type": "Point", "coordinates": [ 8.7199136, 49.4148944 ] } },
{ "type": "Feature", "properties": { "index": "206", "last_edit_year": 2023, "years_since_edit": 3, "label": "3.0–12.0 yr", "color": "#08519c" }, "geometry": { "type": "Point", "coordinates": [ 8.6751095, 49.4077301 ] } },
{ "type": "Feature", "properties": { "index": "207", "last_edit_year": 2024, "years_since_edit": 2, "label": "2.0–3.0 yr", "color": "#4491c5" }, "geometry": { "type": "Point", "coordinates": [ 8.674955, 49.4189146 ] } },
{ "type": "Feature", "properties": { "index": "208", "last_edit_year": 2026, "years_since_edit": 0, "label": "0.0–1.0 yr", "color": "#eff3ff" }, "geometry": { "type": "Point", "coordinates": [ 8.6713535, 49.4162718 ] } },
{ "type": "Feature", "properties": { "index": "209", "last_edit_year": 2022, "years_since_edit": 4, "label": "3.0–12.0 yr", "color": "#08519c" }, "geometry": { "type": "Point", "coordinates": [ 8.6748361, 49.4198285 ] } },
{ "type": "Feature", "properties": { "index": "210", "last_edit_year": 2024, "years_since_edit": 2, "label": "2.0–3.0 yr", "color": "#4491c5" }, "geometry": { "type": "Point", "coordinates": [ 8.6906563, 49.4071695 ] } },
{ "type": "Feature", "properties": { "index": "211", "last_edit_year": 2024, "years_since_edit": 2, "label": "2.0–3.0 yr", "color": "#4491c5" }, "geometry": { "type": "Point", "coordinates": [ 8.6628297, 49.4056451 ] } },
{ "type": "Feature", "properties": { "index": "212", "last_edit_year": 2026, "years_since_edit": 0, "label": "0.0–1.0 yr", "color": "#eff3ff" }, "geometry": { "type": "Point", "coordinates": [ 8.6678467, 49.4053025 ] } },
{ "type": "Feature", "properties": { "index": "213", "last_edit_year": 2025, "years_since_edit": 1, "label": "1.0–2.0 yr", "color": "#a2c9e1" }, "geometry": { "type": "Point", "coordinates": [ 8.684978, 49.4174236 ] } },
{ "type": "Feature", "properties": { "index": "214", "last_edit_year": 2024, "years_since_edit": 2, "label": "2.0–3.0 yr", "color": "#4491c5" }, "geometry": { "type": "Point", "coordinates": [ 8.711782, 49.4089741 ] } },
{ "type": "Feature", "properties": { "index": "215", "last_edit_year": 2023, "years_since_edit": 3, "label": "3.0–12.0 yr", "color": "#08519c" }, "geometry": { "type": "Point", "coordinates": [ 8.6837174, 49.4058288 ] } },
{ "type": "Feature", "properties": { "index": "216", "last_edit_year": 2026, "years_since_edit": 0, "label": "0.0–1.0 yr", "color": "#eff3ff" }, "geometry": { "type": "Point", "coordinates": [ 8.68802, 49.408006 ] } },
{ "type": "Feature", "properties": { "index": "217", "last_edit_year": 2025, "years_since_edit": 1, "label": "1.0–2.0 yr", "color": "#a2c9e1" }, "geometry": { "type": "Point", "coordinates": [ 8.7142912, 49.4137016 ] } },
{ "type": "Feature", "properties": { "index": "218", "last_edit_year": 2022, "years_since_edit": 4, "label": "3.0–12.0 yr", "color": "#08519c" }, "geometry": { "type": "Point", "coordinates": [ 8.7056927, 49.4132161 ] } },
{ "type": "Feature", "properties": { "index": "219", "last_edit_year": 2025, "years_since_edit": 1, "label": "1.0–2.0 yr", "color": "#a2c9e1" }, "geometry": { "type": "Point", "coordinates": [ 8.7037542, 49.4101107 ] } },
{ "type": "Feature", "properties": { "index": "220", "last_edit_year": 2022, "years_since_edit": 4, "label": "3.0–12.0 yr", "color": "#08519c" }, "geometry": { "type": "Point", "coordinates": [ 8.6981276, 49.4091831 ] } },
{ "type": "Feature", "properties": { "index": "221", "last_edit_year": 2021, "years_since_edit": 5, "label": "3.0–12.0 yr", "color": "#08519c" }, "geometry": { "type": "Point", "coordinates": [ 8.6684037, 49.4041868 ] } },
{ "type": "Feature", "properties": { "index": "222", "last_edit_year": 2023, "years_since_edit": 3, "label": "3.0–12.0 yr", "color": "#08519c" }, "geometry": { "type": "Point", "coordinates": [ 8.6890859, 49.3988811 ] } },
{ "type": "Feature", "properties": { "index": "223", "last_edit_year": 2023, "years_since_edit": 3, "label": "3.0–12.0 yr", "color": "#08519c" }, "geometry": { "type": "Point", "coordinates": [ 8.673302, 49.4060844 ] } },
{ "type": "Feature", "properties": { "index": "224", "last_edit_year": 2026, "years_since_edit": 0, "label": "0.0–1.0 yr", "color": "#eff3ff" }, "geometry": { "type": "Point", "coordinates": [ 8.6737926, 49.4052001 ] } },
{ "type": "Feature", "properties": { "index": "225", "last_edit_year": 2022, "years_since_edit": 4, "label": "3.0–12.0 yr", "color": "#08519c" }, "geometry": { "type": "Point", "coordinates": [ 8.7177399, 49.413812 ] } },
{ "type": "Feature", "properties": { "index": "226", "last_edit_year": 2023, "years_since_edit": 3, "label": "3.0–12.0 yr", "color": "#08519c" }, "geometry": { "type": "Point", "coordinates": [ 8.6682373, 49.4034162 ] } },
{ "type": "Feature", "properties": { "index": "227", "last_edit_year": 2021, "years_since_edit": 5, "label": "3.0–12.0 yr", "color": "#08519c" }, "geometry": { "type": "Point", "coordinates": [ 8.6685995, 49.4033068 ] } },
{ "type": "Feature", "properties": { "index": "228", "last_edit_year": 2025, "years_since_edit": 1, "label": "1.0–2.0 yr", "color": "#a2c9e1" }, "geometry": { "type": "Point", "coordinates": [ 8.6740118, 49.401918 ] } },
{ "type": "Feature", "properties": { "index": "229", "last_edit_year": 2025, "years_since_edit": 1, "label": "1.0–2.0 yr", "color": "#a2c9e1" }, "geometry": { "type": "Point", "coordinates": [ 8.6740118, 49.4018854 ] } },
{ "type": "Feature", "properties": { "index": "230", "last_edit_year": 2021, "years_since_edit": 5, "label": "3.0–12.0 yr", "color": "#08519c" }, "geometry": { "type": "Point", "coordinates": [ 8.6761107, 49.4048051 ] } },
{ "type": "Feature", "properties": { "index": "231", "last_edit_year": 2026, "years_since_edit": 0, "label": "0.0–1.0 yr", "color": "#eff3ff" }, "geometry": { "type": "Point", "coordinates": [ 8.67651, 49.4046347 ] } },
{ "type": "Feature", "properties": { "index": "232", "last_edit_year": 2024, "years_since_edit": 2, "label": "2.0–3.0 yr", "color": "#4491c5" }, "geometry": { "type": "Point", "coordinates": [ 8.6757202, 49.4049779 ] } },
{ "type": "Feature", "properties": { "index": "233", "last_edit_year": 2025, "years_since_edit": 1, "label": "1.0–2.0 yr", "color": "#a2c9e1" }, "geometry": { "type": "Point", "coordinates": [ 8.6751021, 49.4187951 ] } },
{ "type": "Feature", "properties": { "index": "234", "last_edit_year": 2024, "years_since_edit": 2, "label": "2.0–3.0 yr", "color": "#4491c5" }, "geometry": { "type": "Point", "coordinates": [ 8.6897778, 49.4075186 ] } },
{ "type": "Feature", "properties": { "index": "235", "last_edit_year": 2025, "years_since_edit": 1, "label": "1.0–2.0 yr", "color": "#a2c9e1" }, "geometry": { "type": "Point", "coordinates": [ 8.7130745, 49.4012429 ] } },
{ "type": "Feature", "properties": { "index": "236", "last_edit_year": 2025, "years_since_edit": 1, "label": "1.0–2.0 yr", "color": "#a2c9e1" }, "geometry": { "type": "Point", "coordinates": [ 8.6655994, 49.4028685 ] } },
{ "type": "Feature", "properties": { "index": "237", "last_edit_year": 2025, "years_since_edit": 1, "label": "1.0–2.0 yr", "color": "#a2c9e1" }, "geometry": { "type": "Point", "coordinates": [ 8.6729777, 49.4021439 ] } },
{ "type": "Feature", "properties": { "index": "238", "last_edit_year": 2023, "years_since_edit": 3, "label": "3.0–12.0 yr", "color": "#08519c" }, "geometry": { "type": "Point", "coordinates": [ 8.6679982, 49.403887 ] } },
{ "type": "Feature", "properties": { "index": "239", "last_edit_year": 2021, "years_since_edit": 5, "label": "3.0–12.0 yr", "color": "#08519c" }, "geometry": { "type": "Point", "coordinates": [ 8.692321, 49.4132919 ] } },
{ "type": "Feature", "properties": { "index": "240", "last_edit_year": 2024, "years_since_edit": 2, "label": "2.0–3.0 yr", "color": "#4491c5" }, "geometry": { "type": "Point", "coordinates": [ 8.6909702, 49.4134012 ] } },
{ "type": "Feature", "properties": { "index": "241", "last_edit_year": 2024, "years_since_edit": 2, "label": "2.0–3.0 yr", "color": "#4491c5" }, "geometry": { "type": "Point", "coordinates": [ 8.6756815, 49.4079263 ] } },
{ "type": "Feature", "properties": { "index": "242", "last_edit_year": 2025, "years_since_edit": 1, "label": "1.0–2.0 yr", "color": "#a2c9e1" }, "geometry": { "type": "Point", "coordinates": [ 8.7028405, 49.4129617 ] } },
{ "type": "Feature", "properties": { "index": "243", "last_edit_year": 2025, "years_since_edit": 1, "label": "1.0–2.0 yr", "color": "#a2c9e1" }, "geometry": { "type": "Point", "coordinates": [ 8.7056109, 49.4132436 ] } },
{ "type": "Feature", "properties": { "index": "244", "last_edit_year": 2023, "years_since_edit": 3, "label": "3.0–12.0 yr", "color": "#08519c" }, "geometry": { "type": "Point", "coordinates": [ 8.6851497, 49.4078738 ] } },
{ "type": "Feature", "properties": { "index": "245", "last_edit_year": 2024, "years_since_edit": 2, "label": "2.0–3.0 yr", "color": "#4491c5" }, "geometry": { "type": "Point", "coordinates": [ 8.6851309, 49.4079357 ] } },
{ "type": "Feature", "properties": { "index": "246", "last_edit_year": 2023, "years_since_edit": 3, "label": "3.0–12.0 yr", "color": "#08519c" }, "geometry": { "type": "Point", "coordinates": [ 8.6883147, 49.4084418 ] } },
{ "type": "Feature", "properties": { "index": "247", "last_edit_year": 2023, "years_since_edit": 3, "label": "3.0–12.0 yr", "color": "#08519c" }, "geometry": { "type": "Point", "coordinates": [ 8.6883469, 49.4083825 ] } },
{ "type": "Feature", "properties": { "index": "248", "last_edit_year": 2023, "years_since_edit": 3, "label": "3.0–12.0 yr", "color": "#08519c" }, "geometry": { "type": "Point", "coordinates": [ 8.6675014, 49.4036514 ] } },
{ "type": "Feature", "properties": { "index": "249", "last_edit_year": 2022, "years_since_edit": 4, "label": "3.0–12.0 yr", "color": "#08519c" }, "geometry": { "type": "Point", "coordinates": [ 8.6813477, 49.4064227 ] } },
{ "type": "Feature", "properties": { "index": "250", "last_edit_year": 2022, "years_since_edit": 4, "label": "3.0–12.0 yr", "color": "#08519c" }, "geometry": { "type": "Point", "coordinates": [ 8.6769359, 49.39951 ] } },
{ "type": "Feature", "properties": { "index": "251", "last_edit_year": 2021, "years_since_edit": 5, "label": "3.0–12.0 yr", "color": "#08519c" }, "geometry": { "type": "Point", "coordinates": [ 8.6890281, 49.4218652 ] } },
{ "type": "Feature", "properties": { "index": "252", "last_edit_year": 2025, "years_since_edit": 1, "label": "1.0–2.0 yr", "color": "#a2c9e1" }, "geometry": { "type": "Point", "coordinates": [ 8.6689903, 49.4010777 ] } },
{ "type": "Feature", "properties": { "index": "253", "last_edit_year": 2025, "years_since_edit": 1, "label": "1.0–2.0 yr", "color": "#a2c9e1" }, "geometry": { "type": "Point", "coordinates": [ 8.6694756, 49.4195154 ] } },
{ "type": "Feature", "properties": { "index": "254", "last_edit_year": 2025, "years_since_edit": 1, "label": "1.0–2.0 yr", "color": "#a2c9e1" }, "geometry": { "type": "Point", "coordinates": [ 8.7067361, 49.4110404 ] } },
{ "type": "Feature", "properties": { "index": "255", "last_edit_year": 2025, "years_since_edit": 1, "label": "1.0–2.0 yr", "color": "#a2c9e1" }, "geometry": { "type": "Point", "coordinates": [ 8.6703272, 49.4043099 ] } },
{ "type": "Feature", "properties": { "index": "256", "last_edit_year": 2023, "years_since_edit": 3, "label": "3.0–12.0 yr", "color": "#08519c" }, "geometry": { "type": "Point", "coordinates": [ 8.6825298, 49.4125579 ] } },
{ "type": "Feature", "properties": { "index": "257", "last_edit_year": 2024, "years_since_edit": 2, "label": "2.0–3.0 yr", "color": "#4491c5" }, "geometry": { "type": "Point", "coordinates": [ 8.6823251, 49.4123917 ] } },
{ "type": "Feature", "properties": { "index": "258", "last_edit_year": 2022, "years_since_edit": 4, "label": "3.0–12.0 yr", "color": "#08519c" }, "geometry": { "type": "Point", "coordinates": [ 8.7139646, 49.4137392 ] } },
{ "type": "Feature", "properties": { "index": "259", "last_edit_year": 2025, "years_since_edit": 1, "label": "1.0–2.0 yr", "color": "#a2c9e1" }, "geometry": { "type": "Point", "coordinates": [ 8.678579, 49.4042619 ] } },
{ "type": "Feature", "properties": { "index": "260", "last_edit_year": 2022, "years_since_edit": 4, "label": "3.0–12.0 yr", "color": "#08519c" }, "geometry": { "type": "Point", "coordinates": [ 8.6781269, 49.415526 ] } },
{ "type": "Feature", "properties": { "index": "261", "last_edit_year": 2022, "years_since_edit": 4, "label": "3.0–12.0 yr", "color": "#08519c" }, "geometry": { "type": "Point", "coordinates": [ 8.6921213, 49.4157284 ] } },
{ "type": "Feature", "properties": { "index": "262", "last_edit_year": 2025, "years_since_edit": 1, "label": "1.0–2.0 yr", "color": "#a2c9e1" }, "geometry": { "type": "Point", "coordinates": [ 8.6774013, 49.4125977 ] } },
{ "type": "Feature", "properties": { "index": "263", "last_edit_year": 2024, "years_since_edit": 2, "label": "2.0–3.0 yr", "color": "#4491c5" }, "geometry": { "type": "Point", "coordinates": [ 8.6848208, 49.4043273 ] } },
{ "type": "Feature", "properties": { "index": "264", "last_edit_year": 2023, "years_since_edit": 3, "label": "3.0–12.0 yr", "color": "#08519c" }, "geometry": { "type": "Point", "coordinates": [ 8.6725103, 49.4086541 ] } },
{ "type": "Feature", "properties": { "index": "265", "last_edit_year": 2025, "years_since_edit": 1, "label": "1.0–2.0 yr", "color": "#a2c9e1" }, "geometry": { "type": "Point", "coordinates": [ 8.6742026, 49.4018785 ] } },
{ "type": "Feature", "properties": { "index": "266", "last_edit_year": 2025, "years_since_edit": 1, "label": "1.0–2.0 yr", "color": "#a2c9e1" }, "geometry": { "type": "Point", "coordinates": [ 8.6660691, 49.4036135 ] } },
{ "type": "Feature", "properties": { "index": "267", "last_edit_year": 2024, "years_since_edit": 2, "label": "2.0–3.0 yr", "color": "#4491c5" }, "geometry": { "type": "Point", "coordinates": [ 8.6830195, 49.4201437 ] } },
{ "type": "Feature", "properties": { "index": "268", "last_edit_year": 2025, "years_since_edit": 1, "label": "1.0–2.0 yr", "color": "#a2c9e1" }, "geometry": { "type": "Point", "coordinates": [ 8.6939528, 49.4054492 ] } },
{ "type": "Feature", "properties": { "index": "269", "last_edit_year": 2024, "years_since_edit": 2, "label": "2.0–3.0 yr", "color": "#4491c5" }, "geometry": { "type": "Point", "coordinates": [ 8.6831045, 49.4096094 ] } },
{ "type": "Feature", "properties": { "index": "270", "last_edit_year": 2025, "years_since_edit": 1, "label": "1.0–2.0 yr", "color": "#a2c9e1" }, "geometry": { "type": "Point", "coordinates": [ 8.7053246, 49.409054 ] } },
{ "type": "Feature", "properties": { "index": "271", "last_edit_year": 2025, "years_since_edit": 1, "label": "1.0–2.0 yr", "color": "#a2c9e1" }, "geometry": { "type": "Point", "coordinates": [ 8.7051001, 49.4090401 ] } },
{ "type": "Feature", "properties": { "index": "272", "last_edit_year": 2024, "years_since_edit": 2, "label": "2.0–3.0 yr", "color": "#4491c5" }, "geometry": { "type": "Point", "coordinates": [ 8.6713047, 49.4150164 ] } },
{ "type": "Feature", "properties": { "index": "273", "last_edit_year": 2024, "years_since_edit": 2, "label": "2.0–3.0 yr", "color": "#4491c5" }, "geometry": { "type": "Point", "coordinates": [ 8.6705699, 49.4180189 ] } },
{ "type": "Feature", "properties": { "index": "274", "last_edit_year": 2026, "years_since_edit": 0, "label": "0.0–1.0 yr", "color": "#eff3ff" }, "geometry": { "type": "Point", "coordinates": [ 8.6761917, 49.4052185 ] } },
{ "type": "Feature", "properties": { "index": "275", "last_edit_year": 2025, "years_since_edit": 1, "label": "1.0–2.0 yr", "color": "#a2c9e1" }, "geometry": { "type": "Point", "coordinates": [ 8.6647876, 49.4185945 ] } },
{ "type": "Feature", "properties": { "index": "276", "last_edit_year": 2025, "years_since_edit": 1, "label": "1.0–2.0 yr", "color": "#a2c9e1" }, "geometry": { "type": "Point", "coordinates": [ 8.6848263, 49.4201573 ] } },
{ "type": "Feature", "properties": { "index": "277", "last_edit_year": 2026, "years_since_edit": 0, "label": "0.0–1.0 yr", "color": "#eff3ff" }, "geometry": { "type": "Point", "coordinates": [ 8.6662284, 49.4052384 ] } },
{ "type": "Feature", "properties": { "index": "278", "last_edit_year": 2026, "years_since_edit": 0, "label": "0.0–1.0 yr", "color": "#eff3ff" }, "geometry": { "type": "Point", "coordinates": [ 8.6663282, 49.4046348 ] } },
{ "type": "Feature", "properties": { "index": "279", "last_edit_year": 2026, "years_since_edit": 0, "label": "0.0–1.0 yr", "color": "#eff3ff" }, "geometry": { "type": "Point", "coordinates": [ 8.6672681, 49.4066163 ] } },
{ "type": "Feature", "properties": { "index": "280", "last_edit_year": 2026, "years_since_edit": 0, "label": "0.0–1.0 yr", "color": "#eff3ff" }, "geometry": { "type": "Point", "coordinates": [ 8.6608171, 49.4085312 ] } },
{ "type": "Feature", "properties": { "index": "281", "last_edit_year": 2026, "years_since_edit": 0, "label": "0.0–1.0 yr", "color": "#eff3ff" }, "geometry": { "type": "Point", "coordinates": [ 8.6791727, 49.4043746 ] } },
{ "type": "Feature", "properties": { "index": "282", "last_edit_year": 2026, "years_since_edit": 0, "label": "0.0–1.0 yr", "color": "#eff3ff" }, "geometry": { "type": "Point", "coordinates": [ 8.6787461, 49.4030324 ] } },
{ "type": "Feature", "properties": { "index": "283", "last_edit_year": 2026, "years_since_edit": 0, "label": "0.0–1.0 yr", "color": "#eff3ff" }, "geometry": { "type": "Point", "coordinates": [ 8.6735156, 49.4024017 ] } },
{ "type": "Feature", "properties": { "index": "284", "last_edit_year": 2026, "years_since_edit": 0, "label": "0.0–1.0 yr", "color": "#eff3ff" }, "geometry": { "type": "Point", "coordinates": [ 8.6989329, 49.4155577 ] } },
{ "type": "Feature", "properties": { "index": "285", "last_edit_year": 2026, "years_since_edit": 0, "label": "0.0–1.0 yr", "color": "#eff3ff" }, "geometry": { "type": "Point", "coordinates": [ 8.6990144, 49.4157166 ] } },
{ "type": "Feature", "properties": { "index": "286", "last_edit_year": 2026, "years_since_edit": 0, "label": "0.0–1.0 yr", "color": "#eff3ff" }, "geometry": { "type": "Point", "coordinates": [ 8.6988268, 49.415351 ] } }
]
}
