{
"type": "FeatureCollection",
"features": [
{ "type": "Feature", "properties": { "index": "0", "@osmId": "relation/4139701", "name": "Berufsschule", "opening_hours": null, "label": "Train stations & halts", "color": "#08519c" }, "geometry": { "type": "GeometryCollection", "geometries": [ { "type": "Point", "coordinates": [ 8.6607735, 49.4085522 ] }, { "type": "Polygon", "coordinates": [ [ [ 8.660358, 49.408645 ], [ 8.6603505, 49.4086193 ], [ 8.6607046, 49.4085705 ], [ 8.6611247, 49.4085079 ], [ 8.6613066, 49.4084791 ], [ 8.6613129, 49.4084949 ], [ 8.6613164, 49.4085036 ], [ 8.6611419, 49.4085327 ], [ 8.6607204, 49.408599 ], [ 8.660358, 49.408645 ] ] ] }, { "type": "Polygon", "coordinates": [ [ [ 8.6606208, 49.40853 ], [ 8.6603418, 49.4085642 ], [ 8.6603353, 49.4085448 ], [ 8.6612809, 49.4084108 ], [ 8.661284, 49.40842 ], [ 8.6612874, 49.4084302 ], [ 8.6611015, 49.4084615 ], [ 8.6606208, 49.40853 ] ] ] }, { "type": "Point", "coordinates": [ 8.6608171, 49.4085312 ] }, { "type": "Point", "coordinates": [ 8.6610996, 49.4084722 ] } ] } },
{ "type": "Feature", "properties": { "index": "1", "@osmId": "relation/20619649", "name": "Gneisenaustraße Süd", "opening_hours": null, "label": "Train stations & halts", "color": "#08519c" }, "geometry": { "type": "GeometryCollection", "geometries": [ { "type": "Point", "coordinates": [ 8.6671612, 49.4066383 ] }, { "type": "Point", "coordinates": [ 8.6673205, 49.406617 ] }, { "type": "LineString", "coordinates": [ [ 8.6672299, 49.406586 ], [ 8.6664236, 49.406878 ] ] }, { "type": "Point", "coordinates": [ 8.6672681, 49.4066163 ] }, { "type": "LineString", "coordinates": [ [ 8.6681287, 49.406388 ], [ 8.6678727, 49.4064648 ], [ 8.667709, 49.4065139 ], [ 8.6673609, 49.4066271 ], [ 8.6673041, 49.4066456 ] ] } ] } },
{ "type": "Feature", "properties": { "index": "2", "@osmId": "node/36451626", "name": "Schloss", "opening_hours": null, "label": "Train stations & halts", "color": "#08519c" }, "geometry": { "type": "Point", "coordinates": [ 8.7130291, 49.4090671 ] } },
{ "type": "Feature", "properties": { "index": "3", "@osmId": "node/36451627", "name": "Station Kornmarkt", "opening_hours": null, "label": "Train stations & halts", "color": "#08519c" }, "geometry": { "type": "Point", "coordinates": [ 8.7119186, 49.4111178 ] } },
{ "type": "Feature", "properties": { "index": "4", "@osmId": "node/36451628", "name": "Molkenkur", "opening_hours": null, "label": "Train stations & halts", "color": "#08519c" }, "geometry": { "type": "Point", "coordinates": [ 8.714737, 49.4074214 ] } },
{ "type": "Feature", "properties": { "index": "5", "@osmId": "node/331194332", "name": "Molkenkur", "opening_hours": null, "label": "Train stations & halts", "color": "#08519c" }, "geometry": { "type": "Point", "coordinates": [ 8.7146699, 49.407157 ] } },
{ "type": "Feature", "properties": { "index": "6", "@osmId": "node/1446908064", "name": "Schloss", "opening_hours": null, "label": "Train stations & halts", "color": "#08519c" }, "geometry": { "type": "Point", "coordinates": [ 8.7129853, 49.4090544 ] } },
{ "type": "Feature", "properties": { "index": "7", "@osmId": "node/2820941790", "name": "Heidelberg Hauptbahnhof", "opening_hours": null, "label": "Train stations & halts", "color": "#08519c" }, "geometry": { "type": "Point", "coordinates": [ 8.6754223, 49.4034737 ] } },
{ "type": "Feature", "properties": { "index": "8", "@osmId": "node/3328488465", "name": "Heidelberg-Weststadt/Südstadt", "opening_hours": null, "label": "Train stations & halts", "color": "#08519c" }, "geometry": { "type": "Point", "coordinates": [ 8.6884853, 49.3982818 ] } },
{ "type": "Feature", "properties": { "index": "9", "@osmId": "node/13790173546", "name": "Gneisenaustraße Süd", "opening_hours": null, "label": "Train stations & halts", "color": "#08519c" }, "geometry": { "type": "Point", "coordinates": [ 8.6672681, 49.4066163 ] } },
{ "type": "Feature", "properties": { "index": "10", "@osmId": "node/13790173547", "name": "Berufsschule", "opening_hours": null, "label": "Train stations & halts", "color": "#08519c" }, "geometry": { "type": "Point", "coordinates": [ 8.6608171, 49.4085312 ] } },
{ "type": "Feature", "properties": { "index": "11", "@osmId": "node/13950453583", "name": null, "opening_hours": null, "label": "Train stations & halts", "color": "#08519c" }, "geometry": { "type": "Point", "coordinates": [ 8.6989329, 49.4155577 ] } },
{ "type": "Feature", "properties": { "index": "12", "@osmId": "node/13950453584", "name": null, "opening_hours": null, "label": "Train stations & halts", "color": "#08519c" }, "geometry": { "type": "Point", "coordinates": [ 8.6990144, 49.4157166 ] } },
{ "type": "Feature", "properties": { "index": "13", "@osmId": "node/13950453585", "name": null, "opening_hours": null, "label": "Train stations & halts", "color": "#08519c" }, "geometry": { "type": "Point", "coordinates": [ 8.6988268, 49.415351 ] } },
{ "type": "Feature", "properties": { "index": "14", "@osmId": "node/252641514", "name": "Stadtwerke", "opening_hours": null, "label": "Tram & light-rail stops", "color": "#ef3b2c" }, "geometry": { "type": "Point", "coordinates": [ 8.6815921, 49.4049513 ] } },
{ "type": "Feature", "properties": { "index": "15", "@osmId": "node/252641521", "name": "Stadtbücherei", "opening_hours": null, "label": "Tram & light-rail stops", "color": "#ef3b2c" }, "geometry": { "type": "Point", "coordinates": [ 8.6863809, 49.4061575 ] } },
{ "type": "Feature", "properties": { "index": "16", "@osmId": "node/252641522", "name": "Seegarten", "opening_hours": null, "label": "Tram & light-rail stops", "color": "#ef3b2c" }, "geometry": { "type": "Point", "coordinates": [ 8.691709, 49.4070936 ] } },
{ "type": "Feature", "properties": { "index": "17", "@osmId": "node/252643801", "name": "Kußmaulstraße", "opening_hours": null, "label": "Tram & light-rail stops", "color": "#ef3b2c" }, "geometry": { "type": "Point", "coordinates": [ 8.6906526, 49.4187633 ] } },
{ "type": "Feature", "properties": { "index": "18", "@osmId": "node/262249174", "name": "Montpellierbrücke", "opening_hours": null, "label": "Tram & light-rail stops", "color": "#ef3b2c" }, "geometry": { "type": "Point", "coordinates": [ 8.6783159, 49.4005061 ] } },
{ "type": "Feature", "properties": { "index": "19", "@osmId": "node/262249175", "name": "Montpellierbrücke", "opening_hours": null, "label": "Tram & light-rail stops", "color": "#ef3b2c" }, "geometry": { "type": "Point", "coordinates": [ 8.678611, 49.4006697 ] } },
{ "type": "Feature", "properties": { "index": "20", "@osmId": "node/267766008", "name": "Jahnstraße", "opening_hours": null, "label": "Tram & light-rail stops", "color": "#ef3b2c" }, "geometry": { "type": "Point", "coordinates": [ 8.6766081, 49.4129122 ] } },
{ "type": "Feature", "properties": { "index": "21", "@osmId": "node/267766025", "name": "Technologiepark", "opening_hours": null, "label": "Tram & light-rail stops", "color": "#ef3b2c" }, "geometry": { "type": "Point", "coordinates": [ 8.676258, 49.4192709 ] } },
{ "type": "Feature", "properties": { "index": "22", "@osmId": "node/267766039", "name": "Betriebshof", "opening_hours": null, "label": "Tram & light-rail stops", "color": "#ef3b2c" }, "geometry": { "type": "Point", "coordinates": [ 8.6759885, 49.4078954 ] } },
{ "type": "Feature", "properties": { "index": "23", "@osmId": "node/267766041", "name": "Römerkreis Süd", "opening_hours": null, "label": "Tram & light-rail stops", "color": "#ef3b2c" }, "geometry": { "type": "Point", "coordinates": [ 8.6846279, 49.4047241 ] } },
{ "type": "Feature", "properties": { "index": "24", "@osmId": "node/267766056", "name": "Christuskirche", "opening_hours": null, "label": "Tram & light-rail stops", "color": "#ef3b2c" }, "geometry": { "type": "Point", "coordinates": [ 8.6851066, 49.4017503 ] } },
{ "type": "Feature", "properties": { "index": "25", "@osmId": "node/269228291", "name": "Czernybrücke", "opening_hours": null, "label": "Tram & light-rail stops", "color": "#ef3b2c" }, "geometry": { "type": "Point", "coordinates": [ 8.6713623, 49.4068771 ] } },
{ "type": "Feature", "properties": { "index": "26", "@osmId": "node/293619791", "name": "Volkshochschule", "opening_hours": null, "label": "Tram & light-rail stops", "color": "#ef3b2c" }, "geometry": { "type": "Point", "coordinates": [ 8.6806013, 49.4078315 ] } },
{ "type": "Feature", "properties": { "index": "27", "@osmId": "node/639642931", "name": "S-Bf. Weststadt/Südstadt", "opening_hours": null, "label": "Tram & light-rail stops", "color": "#ef3b2c" }, "geometry": { "type": "Point", "coordinates": [ 8.6893414, 49.3984594 ] } },
{ "type": "Feature", "properties": { "index": "28", "@osmId": "node/1446890318", "name": "Bismarckplatz (Steig A)", "opening_hours": null, "label": "Tram & light-rail stops", "color": "#ef3b2c" }, "geometry": { "type": "Point", "coordinates": [ 8.6931593, 49.4097928 ] } },
{ "type": "Feature", "properties": { "index": "29", "@osmId": "node/1994178245", "name": "Römerkreis Süd", "opening_hours": null, "label": "Tram & light-rail stops", "color": "#ef3b2c" }, "geometry": { "type": "Point", "coordinates": [ 8.6846068, 49.4046512 ] } },
{ "type": "Feature", "properties": { "index": "30", "@osmId": "node/1994178366", "name": "Volkshochschule", "opening_hours": null, "label": "Tram & light-rail stops", "color": "#ef3b2c" }, "geometry": { "type": "Point", "coordinates": [ 8.6805997, 49.4078596 ] } },
{ "type": "Feature", "properties": { "index": "31", "@osmId": "node/1995270923", "name": "Blumenthalstraße", "opening_hours": null, "label": "Tram & light-rail stops", "color": "#ef3b2c" }, "geometry": { "type": "Point", "coordinates": [ 8.6891933, 49.4214391 ] } },
{ "type": "Feature", "properties": { "index": "32", "@osmId": "node/1995270953", "name": "Brückenstraße", "opening_hours": null, "label": "Tram & light-rail stops", "color": "#ef3b2c" }, "geometry": { "type": "Point", "coordinates": [ 8.6920906, 49.415436 ] } },
{ "type": "Feature", "properties": { "index": "33", "@osmId": "node/1995271004", "name": "Kußmaulstraße", "opening_hours": null, "label": "Tram & light-rail stops", "color": "#ef3b2c" }, "geometry": { "type": "Point", "coordinates": [ 8.6906225, 49.4187734 ] } },
{ "type": "Feature", "properties": { "index": "34", "@osmId": "node/1995349051", "name": "Technologiepark", "opening_hours": null, "label": "Tram & light-rail stops", "color": "#ef3b2c" }, "geometry": { "type": "Point", "coordinates": [ 8.6762216, 49.418978 ] } },
{ "type": "Feature", "properties": { "index": "35", "@osmId": "node/1995364991", "name": "Czernybrücke", "opening_hours": null, "label": "Tram & light-rail stops", "color": "#ef3b2c" }, "geometry": { "type": "Point", "coordinates": [ 8.671346, 49.4069024 ] } },
{ "type": "Feature", "properties": { "index": "36", "@osmId": "node/2050548818", "name": "Bismarckplatz (Steig B)", "opening_hours": null, "label": "Tram & light-rail stops", "color": "#ef3b2c" }, "geometry": { "type": "Point", "coordinates": [ 8.6929734, 49.4095374 ] } },
{ "type": "Feature", "properties": { "index": "37", "@osmId": "node/2819403566", "name": "Bunsengymnasium", "opening_hours": null, "label": "Tram & light-rail stops", "color": "#ef3b2c" }, "geometry": { "type": "Point", "coordinates": [ 8.6763152, 49.4165698 ] } },
{ "type": "Feature", "properties": { "index": "38", "@osmId": "node/2819403567", "name": "Bunsengymnasium", "opening_hours": null, "label": "Tram & light-rail stops", "color": "#ef3b2c" }, "geometry": { "type": "Point", "coordinates": [ 8.6763264, 49.4174281 ] } },
{ "type": "Feature", "properties": { "index": "39", "@osmId": "node/3152018631", "name": "Kußmaulstraße", "opening_hours": null, "label": "Tram & light-rail stops", "color": "#ef3b2c" }, "geometry": { "type": "Point", "coordinates": [ 8.6906588, 49.4187871 ] } },
{ "type": "Feature", "properties": { "index": "40", "@osmId": "node/3265385974", "name": "Altes Hallenbad", "opening_hours": null, "label": "Tram & light-rail stops", "color": "#ef3b2c" }, "geometry": { "type": "Point", "coordinates": [ 8.6883863, 49.4084184 ] } },
{ "type": "Feature", "properties": { "index": "41", "@osmId": "node/3265385984", "name": "Czernybrücke", "opening_hours": null, "label": "Tram & light-rail stops", "color": "#ef3b2c" }, "geometry": { "type": "Point", "coordinates": [ 8.6713859, 49.4068967 ] } },
{ "type": "Feature", "properties": { "index": "42", "@osmId": "node/3265385995", "name": "Römerkreis Süd", "opening_hours": null, "label": "Tram & light-rail stops", "color": "#ef3b2c" }, "geometry": { "type": "Point", "coordinates": [ 8.6846607, 49.4046127 ] } },
{ "type": "Feature", "properties": { "index": "43", "@osmId": "node/3265386001", "name": "Volkshochschule", "opening_hours": null, "label": "Tram & light-rail stops", "color": "#ef3b2c" }, "geometry": { "type": "Point", "coordinates": [ 8.680577, 49.4078463 ] } },
{ "type": "Feature", "properties": { "index": "44", "@osmId": "node/3338557762", "name": "Blumenthalstraße", "opening_hours": null, "label": "Tram & light-rail stops", "color": "#ef3b2c" }, "geometry": { "type": "Point", "coordinates": [ 8.689127, 49.4215275 ] } },
{ "type": "Feature", "properties": { "index": "45", "@osmId": "node/5290673242", "name": "Gadamerplatz", "opening_hours": null, "label": "Tram & light-rail stops", "color": "#ef3b2c" }, "geometry": { "type": "Point", "coordinates": [ 8.6684037, 49.4041868 ] } },
{ "type": "Feature", "properties": { "index": "46", "@osmId": "node/5771123711", "name": "Heidelberg Hauptbahnhof West", "opening_hours": null, "label": "Tram & light-rail stops", "color": "#ef3b2c" }, "geometry": { "type": "Point", "coordinates": [ 8.6737926, 49.4052001 ] } },
{ "type": "Feature", "properties": { "index": "47", "@osmId": "node/6127351233", "name": "Gadamerplatz", "opening_hours": null, "label": "Tram & light-rail stops", "color": "#ef3b2c" }, "geometry": { "type": "Point", "coordinates": [ 8.6682373, 49.4034162 ] } },
{ "type": "Feature", "properties": { "index": "48", "@osmId": "node/6127351234", "name": "Gadamerplatz", "opening_hours": null, "label": "Tram & light-rail stops", "color": "#ef3b2c" }, "geometry": { "type": "Point", "coordinates": [ 8.6685995, 49.4033068 ] } },
{ "type": "Feature", "properties": { "index": "49", "@osmId": "node/6127351235", "name": "Heidelberg Hauptbahnhof Süd", "opening_hours": null, "label": "Tram & light-rail stops", "color": "#ef3b2c" }, "geometry": { "type": "Point", "coordinates": [ 8.6740118, 49.401918 ] } },
{ "type": "Feature", "properties": { "index": "50", "@osmId": "node/6127351323", "name": "Heidelberg Hauptbahnhof Süd", "opening_hours": null, "label": "Tram & light-rail stops", "color": "#ef3b2c" }, "geometry": { "type": "Point", "coordinates": [ 8.6740118, 49.4018854 ] } },
{ "type": "Feature", "properties": { "index": "51", "@osmId": "node/6779583616", "name": "Heidelberg Hauptbahnhof", "opening_hours": null, "label": "Tram & light-rail stops", "color": "#ef3b2c" }, "geometry": { "type": "Point", "coordinates": [ 8.6761107, 49.4048051 ] } },
{ "type": "Feature", "properties": { "index": "52", "@osmId": "node/6792277306", "name": "Heidelberg Hauptbahnhof, B", "opening_hours": null, "label": "Tram & light-rail stops", "color": "#ef3b2c" }, "geometry": { "type": "Point", "coordinates": [ 8.67651, 49.4046347 ] } },
{ "type": "Feature", "properties": { "index": "53", "@osmId": "node/6792277309", "name": "Heidelberg Hauptbahnhof, E", "opening_hours": null, "label": "Tram & light-rail stops", "color": "#ef3b2c" }, "geometry": { "type": "Point", "coordinates": [ 8.6757202, 49.4049779 ] } },
{ "type": "Feature", "properties": { "index": "54", "@osmId": "node/8305369043", "name": "Gadamerplatz", "opening_hours": null, "label": "Tram & light-rail stops", "color": "#ef3b2c" }, "geometry": { "type": "Point", "coordinates": [ 8.6679982, 49.403887 ] } },
{ "type": "Feature", "properties": { "index": "55", "@osmId": "node/8806654689", "name": "Blumenthalstraße", "opening_hours": null, "label": "Tram & light-rail stops", "color": "#ef3b2c" }, "geometry": { "type": "Point", "coordinates": [ 8.6890281, 49.4218652 ] } },
{ "type": "Feature", "properties": { "index": "56", "@osmId": "node/9801404591", "name": "Brückenstraße", "opening_hours": null, "label": "Tram & light-rail stops", "color": "#ef3b2c" }, "geometry": { "type": "Point", "coordinates": [ 8.6921213, 49.4157284 ] } },
{ "type": "Feature", "properties": { "index": "57", "@osmId": "way/321018184", "name": "Alte Brücke", "opening_hours": null, "label": "Bus stops", "color": "#4292c6" }, "geometry": { "type": "LineString", "coordinates": [ [ 8.7085463, 49.4133863 ], [ 8.7086936, 49.4133829 ] ] } },
{ "type": "Feature", "properties": { "index": "58", "@osmId": "way/321018189", "name": "Stadthalle", "opening_hours": null, "label": "Bus stops", "color": "#4292c6" }, "geometry": { "type": "LineString", "coordinates": [ [ 8.7029062, 49.4129468 ], [ 8.702663, 49.4129135 ] ] } },
{ "type": "Feature", "properties": { "index": "59", "@osmId": "way/321018191", "name": "Marstallstraße", "opening_hours": null, "label": "Bus stops", "color": "#4292c6" }, "geometry": { "type": "LineString", "coordinates": [ [ 8.7054596, 49.4132049 ], [ 8.7055121, 49.4132135 ], [ 8.7056289, 49.413233 ], [ 8.7057193, 49.4132571 ] ] } },
{ "type": "Feature", "properties": { "index": "60", "@osmId": "way/321018195", "name": "Peterskirche", "opening_hours": null, "label": "Bus stops", "color": "#4292c6" }, "geometry": { "type": "LineString", "coordinates": [ [ 8.7053172, 49.4088688 ], [ 8.7054709, 49.4088801 ] ] } },
{ "type": "Feature", "properties": { "index": "61", "@osmId": "way/321018196", "name": "Peterskirche", "opening_hours": null, "label": "Bus stops", "color": "#4292c6" }, "geometry": { "type": "LineString", "coordinates": [ [ 8.7050427, 49.4090288 ], [ 8.7055801, 49.4090529 ] ] } },
{ "type": "Feature", "properties": { "index": "62", "@osmId": "way/321089239", "name": "Stadthalle", "opening_hours": null, "label": "Bus stops", "color": "#4292c6" }, "geometry": { "type": "LineString", "coordinates": [ [ 8.7015179, 49.4126155 ], [ 8.7017223, 49.4126478 ] ] } },
{ "type": "Feature", "properties": { "index": "63", "@osmId": "way/107884526", "name": "Stadtwerke", "opening_hours": null, "label": "Bus stops", "color": "#4292c6" }, "geometry": { "type": "LineString", "coordinates": [ [ 8.6812975, 49.4049352 ], [ 8.6818567, 49.4050318 ], [ 8.6821613, 49.4050844 ], [ 8.6821932, 49.4050899 ] ] } },
{ "type": "Feature", "properties": { "index": "64", "@osmId": "way/107884535", "name": "Stadtbücherei", "opening_hours": null, "label": "Bus stops", "color": "#4292c6" }, "geometry": { "type": "LineString", "coordinates": [ [ 8.6859395, 49.4060364 ], [ 8.6861082, 49.4060725 ], [ 8.6866115, 49.4061647 ], [ 8.6869087, 49.4062181 ] ] } },
{ "type": "Feature", "properties": { "index": "65", "@osmId": "way/107884537", "name": "Stadtbücherei", "opening_hours": null, "label": "Bus stops", "color": "#4292c6" }, "geometry": { "type": "LineString", "coordinates": [ [ 8.6858158, 49.4060835 ], [ 8.6860778, 49.4061365 ], [ 8.6863847, 49.406193 ], [ 8.6865854, 49.4062296 ], [ 8.6868796, 49.4062805 ] ] } },
{ "type": "Feature", "properties": { "index": "66", "@osmId": "way/107884543", "name": "Seegarten", "opening_hours": null, "label": "Bus stops", "color": "#4292c6" }, "geometry": { "type": "Polygon", "coordinates": [ [ [ 8.6923751, 49.4071759 ], [ 8.6910106, 49.406938 ], [ 8.6910145, 49.406929 ], [ 8.6910221, 49.406918 ], [ 8.6918314, 49.4070572 ], [ 8.6920098, 49.4070838 ], [ 8.6921803, 49.4071027 ], [ 8.6922914, 49.4071122 ], [ 8.6924037, 49.407118 ], [ 8.6923764, 49.4071705 ], [ 8.6923751, 49.4071759 ] ] ] } },
{ "type": "Feature", "properties": { "index": "67", "@osmId": "way/119364929", "name": "Brückenstraße", "opening_hours": null, "label": "Bus stops", "color": "#4292c6" }, "geometry": { "type": "LineString", "coordinates": [ [ 8.6920303, 49.4158307 ], [ 8.6920318, 49.4158036 ], [ 8.6920489, 49.4154941 ], [ 8.692053, 49.4154174 ] ] } },
{ "type": "Feature", "properties": { "index": "68", "@osmId": "way/243245707", "name": "Seegarten", "opening_hours": null, "label": "Bus stops", "color": "#4292c6" }, "geometry": { "type": "Polygon", "coordinates": [ [ [ 8.69041, 49.4069941 ], [ 8.6899975, 49.4069216 ], [ 8.6900042, 49.4069055 ], [ 8.6904166, 49.406978 ], [ 8.69041, 49.4069941 ] ] ] } },
{ "type": "Feature", "properties": { "index": "69", "@osmId": "way/320034097", "name": "Bismarckplatz", "opening_hours": null, "label": "Bus stops", "color": "#4292c6" }, "geometry": { "type": "LineString", "coordinates": [ [ 8.6933143, 49.4095961 ], [ 8.6932944, 49.4095643 ] ] } },
{ "type": "Feature", "properties": { "index": "70", "@osmId": "way/320034098", "name": "Bismarckplatz", "opening_hours": null, "label": "Bus stops", "color": "#4292c6" }, "geometry": { "type": "LineString", "coordinates": [ [ 8.6928353, 49.4098599 ], [ 8.6928208, 49.4098005 ] ] } },
{ "type": "Feature", "properties": { "index": "71", "@osmId": "way/320034104", "name": "Friedrich-Ebert-Platz", "opening_hours": null, "label": "Bus stops", "color": "#4292c6" }, "geometry": { "type": "LineString", "coordinates": [ [ 8.7000318, 49.4081007 ], [ 8.699889, 49.4080484 ] ] } },
{ "type": "Feature", "properties": { "index": "72", "@osmId": "way/320034106", "name": "Gaisbergstraße", "opening_hours": null, "label": "Bus stops", "color": "#4292c6" }, "geometry": { "type": "LineString", "coordinates": [ [ 8.6934125, 49.4068771 ], [ 8.6935224, 49.4068743 ] ] } },
{ "type": "Feature", "properties": { "index": "73", "@osmId": "way/107884480", "name": "Betriebshof", "opening_hours": null, "label": "Bus stops", "color": "#4292c6" }, "geometry": { "type": "LineString", "coordinates": [ [ 8.6765788, 49.4079367 ], [ 8.6755228, 49.4079269 ] ] } },
{ "type": "Feature", "properties": { "index": "74", "@osmId": "way/107884484", "name": "Betriebshof", "opening_hours": null, "label": "Bus stops", "color": "#4292c6" }, "geometry": { "type": "LineString", "coordinates": [ [ 8.6755247, 49.407847 ], [ 8.6765901, 49.4078546 ] ] } },
{ "type": "Feature", "properties": { "index": "75", "@osmId": "way/246395893", "name": "Technologiepark", "opening_hours": null, "label": "Bus stops", "color": "#4292c6" }, "geometry": { "type": "Polygon", "coordinates": [ [ [ 8.6763413, 49.4194529 ], [ 8.6763237, 49.419453 ], [ 8.6763136, 49.4189056 ], [ 8.676346, 49.4189054 ], [ 8.6763561, 49.4194528 ], [ 8.6763413, 49.4194529 ] ] ] } },
{ "type": "Feature", "properties": { "index": "76", "@osmId": "way/320034109", "name": "Heidelberg Hauptbahnhof", "opening_hours": null, "label": "Bus stops", "color": "#4292c6" }, "geometry": { "type": "Polygon", "coordinates": [ [ [ 8.6766805, 49.404265 ], [ 8.6767591, 49.4042699 ], [ 8.6767392, 49.4044034 ], [ 8.6766549, 49.404398 ], [ 8.6766549, 49.404394 ], [ 8.6766805, 49.404265 ] ] ] } },
{ "type": "Feature", "properties": { "index": "77", "@osmId": "way/323703360", "name": "Heidelberg Hauptbahnhof Süd", "opening_hours": null, "label": "Bus stops", "color": "#4292c6" }, "geometry": { "type": "LineString", "coordinates": [ [ 8.6725619, 49.4014777 ], [ 8.6724683, 49.4013301 ] ] } },
{ "type": "Feature", "properties": { "index": "78", "@osmId": "way/721164933", "name": "Heidelberg Hauptbahnhof", "opening_hours": null, "label": "Bus stops", "color": "#4292c6" }, "geometry": { "type": "LineString", "coordinates": [ [ 8.6756868, 49.4049696 ], [ 8.6766165, 49.4047664 ] ] } },
{ "type": "Feature", "properties": { "index": "79", "@osmId": "way/722759670", "name": "Heidelberg Hauptbahnhof", "opening_hours": null, "label": "Bus stops", "color": "#4292c6" }, "geometry": { "type": "LineString", "coordinates": [ [ 8.6756332, 49.4048672 ], [ 8.6765773, 49.4046678 ] ] } },
{ "type": "Feature", "properties": { "index": "80", "@osmId": "way/722759671", "name": "Heidelberg Hauptbahnhof", "opening_hours": null, "label": "Bus stops", "color": "#4292c6" }, "geometry": { "type": "LineString", "coordinates": [ [ 8.6756736, 49.4049464 ], [ 8.676604, 49.4047431 ] ] } },
{ "type": "Feature", "properties": { "index": "81", "@osmId": "way/1065521177", "name": "Maria-Mitchell-Str.", "opening_hours": null, "label": "Bus stops", "color": "#4292c6" }, "geometry": { "type": "LineString", "coordinates": [ [ 8.6702326, 49.4044177 ], [ 8.6704479, 49.4042453 ] ] } },
{ "type": "Feature", "properties": { "index": "82", "@osmId": "way/1219558878", "name": null, "opening_hours": null, "label": "Bus stops", "color": "#4292c6" }, "geometry": { "type": "LineString", "coordinates": [ [ 8.6679761, 49.4052652 ], [ 8.6677583, 49.4052698 ] ] } },
{ "type": "Feature", "properties": { "index": "83", "@osmId": "way/1312888538", "name": "HD Hauptbahnhof Süd", "opening_hours": null, "label": "Bus stops", "color": "#4292c6" }, "geometry": { "type": "LineString", "coordinates": [ [ 8.6729276, 49.4018315 ], [ 8.6730194, 49.4019678 ] ] } },
{ "type": "Feature", "properties": { "index": "84", "@osmId": "way/1528624079", "name": null, "opening_hours": null, "label": "Bus stops", "color": "#4292c6" }, "geometry": { "type": "LineString", "coordinates": [ [ 8.6737007, 49.402297 ], [ 8.6734673, 49.4024118 ] ] } },
{ "type": "Feature", "properties": { "index": "85", "@osmId": "node/107479229", "name": "Bunsengymnasium", "opening_hours": null, "label": "Bus stops", "color": "#4292c6" }, "geometry": { "type": "Point", "coordinates": [ 8.6756639, 49.4168625 ] } },
{ "type": "Feature", "properties": { "index": "86", "@osmId": "node/274092714", "name": "Bunsengymnasium", "opening_hours": null, "label": "Bus stops", "color": "#4292c6" }, "geometry": { "type": "Point", "coordinates": [ 8.6768373, 49.4168763 ] } },
{ "type": "Feature", "properties": { "index": "87", "@osmId": "node/274248593", "name": "Jahnstraße", "opening_hours": null, "label": "Bus stops", "color": "#4292c6" }, "geometry": { "type": "Point", "coordinates": [ 8.6759075, 49.4127267 ] } },
{ "type": "Feature", "properties": { "index": "88", "@osmId": "node/274827464", "name": "Pädagogische Hochschule", "opening_hours": null, "label": "Bus stops", "color": "#4292c6" }, "geometry": { "type": "Point", "coordinates": [ 8.6698006, 49.419498 ] } },
{ "type": "Feature", "properties": { "index": "89", "@osmId": "node/276109572", "name": "Kopfklinik", "opening_hours": null, "label": "Bus stops", "color": "#4292c6" }, "geometry": { "type": "Point", "coordinates": [ 8.6668931, 49.4191883 ] } },
{ "type": "Feature", "properties": { "index": "90", "@osmId": "node/276109583", "name": "Kopfklinik", "opening_hours": null, "label": "Bus stops", "color": "#4292c6" }, "geometry": { "type": "Point", "coordinates": [ 8.6671927, 49.4190191 ] } },
{ "type": "Feature", "properties": { "index": "91", "@osmId": "node/277757594", "name": "Technologiepark", "opening_hours": null, "label": "Bus stops", "color": "#4292c6" }, "geometry": { "type": "Point", "coordinates": [ 8.6754058, 49.4195175 ] } },
{ "type": "Feature", "properties": { "index": "92", "@osmId": "node/278687512", "name": "Pädagogische Hochschule", "opening_hours": null, "label": "Bus stops", "color": "#4292c6" }, "geometry": { "type": "Point", "coordinates": [ 8.6698926, 49.4194276 ] } },
{ "type": "Feature", "properties": { "index": "93", "@osmId": "node/278689992", "name": "Jugendherberge", "opening_hours": null, "label": "Bus stops", "color": "#4292c6" }, "geometry": { "type": "Point", "coordinates": [ 8.661164, 49.4172938 ] } },
{ "type": "Feature", "properties": { "index": "94", "@osmId": "node/278689993", "name": "Jugendherberge", "opening_hours": null, "label": "Bus stops", "color": "#4292c6" }, "geometry": { "type": "Point", "coordinates": [ 8.6610628, 49.4172721 ] } },
{ "type": "Feature", "properties": { "index": "95", "@osmId": "node/278730268", "name": "Studentenwohnheim", "opening_hours": null, "label": "Bus stops", "color": "#4292c6" }, "geometry": { "type": "Point", "coordinates": [ 8.6631354, 49.4187635 ] } },
{ "type": "Feature", "properties": { "index": "96", "@osmId": "node/278730270", "name": "Studentenwohnheim", "opening_hours": null, "label": "Bus stops", "color": "#4292c6" }, "geometry": { "type": "Point", "coordinates": [ 8.6627535, 49.4187979 ] } },
{ "type": "Feature", "properties": { "index": "97", "@osmId": "node/282209495", "name": "Bunsengymnasium", "opening_hours": null, "label": "Bus stops", "color": "#4292c6" }, "geometry": { "type": "Point", "coordinates": [ 8.6767755, 49.417056 ] } },
{ "type": "Feature", "properties": { "index": "98", "@osmId": "node/283234178", "name": "Campus Im Neuenheimer Feld", "opening_hours": null, "label": "Bus stops", "color": "#4292c6" }, "geometry": { "type": "Point", "coordinates": [ 8.6701162, 49.4134695 ] } },
{ "type": "Feature", "properties": { "index": "99", "@osmId": "node/283544935", "name": "Jahnstraße", "opening_hours": null, "label": "Bus stops", "color": "#4292c6" }, "geometry": { "type": "Point", "coordinates": [ 8.6753927, 49.4129744 ] } },
{ "type": "Feature", "properties": { "index": "100", "@osmId": "node/283552744", "name": "Campus Im Neuenheimer Feld", "opening_hours": null, "label": "Bus stops", "color": "#4292c6" }, "geometry": { "type": "Point", "coordinates": [ 8.6704361, 49.4133468 ] } },
{ "type": "Feature", "properties": { "index": "101", "@osmId": "node/283552747", "name": "Medizinische Klinik/Chirurgie/Zoo", "opening_hours": null, "label": "Bus stops", "color": "#4292c6" }, "geometry": { "type": "Point", "coordinates": [ 8.6655363, 49.4148543 ] } },
{ "type": "Feature", "properties": { "index": "102", "@osmId": "node/283552748", "name": "Medizinische Klinik/Chirurgie/Zoo", "opening_hours": null, "label": "Bus stops", "color": "#4292c6" }, "geometry": { "type": "Point", "coordinates": [ 8.6663105, 49.4145691 ] } },
{ "type": "Feature", "properties": { "index": "103", "@osmId": "node/283552749", "name": null, "opening_hours": null, "label": "Bus stops", "color": "#4292c6" }, "geometry": { "type": "Point", "coordinates": [ 8.6752144, 49.4152208 ] } },
{ "type": "Feature", "properties": { "index": "104", "@osmId": "node/283552750", "name": "Kirschnerstraße", "opening_hours": null, "label": "Bus stops", "color": "#4292c6" }, "geometry": { "type": "Point", "coordinates": [ 8.6734387, 49.4137552 ] } },
{ "type": "Feature", "properties": { "index": "105", "@osmId": "node/283552751", "name": "Kirschnerstraße", "opening_hours": null, "label": "Bus stops", "color": "#4292c6" }, "geometry": { "type": "Point", "coordinates": [ 8.6737185, 49.4136575 ] } },
{ "type": "Feature", "properties": { "index": "106", "@osmId": "node/283554155", "name": "Zoo", "opening_hours": null, "label": "Bus stops", "color": "#4292c6" }, "geometry": { "type": "Point", "coordinates": [ 8.6635301, 49.4152068 ] } },
{ "type": "Feature", "properties": { "index": "107", "@osmId": "node/297353579", "name": "Hirschgasse", "opening_hours": null, "label": "Bus stops", "color": "#4292c6" }, "geometry": { "type": "Point", "coordinates": [ 8.7159505, 49.4159882 ] } },
{ "type": "Feature", "properties": { "index": "108", "@osmId": "node/297489765", "name": "Alte Brücke Nord", "opening_hours": null, "label": "Bus stops", "color": "#4292c6" }, "geometry": { "type": "Point", "coordinates": [ 8.708932, 49.4152724 ] } },
{ "type": "Feature", "properties": { "index": "109", "@osmId": "node/297489766", "name": "Alte Brücke Nord", "opening_hours": null, "label": "Bus stops", "color": "#4292c6" }, "geometry": { "type": "Point", "coordinates": [ 8.7091544, 49.4152263 ] } },
{ "type": "Feature", "properties": { "index": "110", "@osmId": "node/298040971", "name": "Hirschgasse", "opening_hours": null, "label": "Bus stops", "color": "#4292c6" }, "geometry": { "type": "Point", "coordinates": [ 8.7168545, 49.4161997 ] } },
{ "type": "Feature", "properties": { "index": "111", "@osmId": "node/300751566", "name": "Alte Brücke", "opening_hours": null, "label": "Bus stops", "color": "#4292c6" }, "geometry": { "type": "Point", "coordinates": [ 8.7108, 49.4136759 ] } },
{ "type": "Feature", "properties": { "index": "112", "@osmId": "node/300751568", "name": "Neckarmünzplatz", "opening_hours": null, "label": "Bus stops", "color": "#4292c6" }, "geometry": { "type": "Point", "coordinates": [ 8.7131886, 49.413716 ] } },
{ "type": "Feature", "properties": { "index": "113", "@osmId": "node/303222540", "name": "Alois-Link-Platz", "opening_hours": null, "label": "Bus stops", "color": "#4292c6" }, "geometry": { "type": "Point", "coordinates": [ 8.6912464, 49.3999244 ] } },
{ "type": "Feature", "properties": { "index": "114", "@osmId": "node/303222541", "name": "Alois-Link-Platz", "opening_hours": null, "label": "Bus stops", "color": "#4292c6" }, "geometry": { "type": "Point", "coordinates": [ 8.6911005, 49.4002825 ] } },
{ "type": "Feature", "properties": { "index": "115", "@osmId": "node/307006490", "name": "Gneisenaustraße", "opening_hours": null, "label": "Bus stops", "color": "#4292c6" }, "geometry": { "type": "Point", "coordinates": [ 8.6685941, 49.4092508 ] } },
{ "type": "Feature", "properties": { "index": "116", "@osmId": "node/308850814", "name": "Neckarspitze", "opening_hours": null, "label": "Bus stops", "color": "#4292c6" }, "geometry": { "type": "Point", "coordinates": [ 8.6639042, 49.4100572 ] } },
{ "type": "Feature", "properties": { "index": "117", "@osmId": "node/308850815", "name": "Neckarspitze", "opening_hours": null, "label": "Bus stops", "color": "#4292c6" }, "geometry": { "type": "Point", "coordinates": [ 8.6645773, 49.4098198 ] } },
{ "type": "Feature", "properties": { "index": "118", "@osmId": "node/308850816", "name": "Gneisenaustraße", "opening_hours": null, "label": "Bus stops", "color": "#4292c6" }, "geometry": { "type": "Point", "coordinates": [ 8.667691, 49.4085717 ] } },
{ "type": "Feature", "properties": { "index": "119", "@osmId": "node/309414394", "name": "Heidelberg Hauptbahnhof (Steig L)", "opening_hours": null, "label": "Bus stops", "color": "#4292c6" }, "geometry": { "type": "Point", "coordinates": [ 8.6769361, 49.4043518 ] } },
{ "type": "Feature", "properties": { "index": "120", "@osmId": "node/309414400", "name": "Heidelberg Hauptbahnhof (Steig P)", "opening_hours": null, "label": "Bus stops", "color": "#4292c6" }, "geometry": { "type": "Point", "coordinates": [ 8.6779356, 49.404146 ] } },
{ "type": "Feature", "properties": { "index": "121", "@osmId": "node/309414403", "name": "Heidelberg Hauptbahnhof (Steig Q)", "opening_hours": null, "label": "Bus stops", "color": "#4292c6" }, "geometry": { "type": "Point", "coordinates": [ 8.6782558, 49.4042065 ] } },
{ "type": "Feature", "properties": { "index": "122", "@osmId": "node/309414412", "name": "Betriebshof", "opening_hours": null, "label": "Bus stops", "color": "#4292c6" }, "geometry": { "type": "Point", "coordinates": [ 8.6747206, 49.4075859 ] } },
{ "type": "Feature", "properties": { "index": "123", "@osmId": "node/309414415", "name": "Betriebshof", "opening_hours": null, "label": "Bus stops", "color": "#4292c6" }, "geometry": { "type": "Point", "coordinates": [ 8.6761474, 49.4078525 ] } },
{ "type": "Feature", "properties": { "index": "124", "@osmId": "node/309414417", "name": "Betriebshof", "opening_hours": null, "label": "Bus stops", "color": "#4292c6" }, "geometry": { "type": "Point", "coordinates": [ 8.6756934, 49.4079294 ] } },
{ "type": "Feature", "properties": { "index": "125", "@osmId": "node/309419593", "name": "Volkshochschule", "opening_hours": null, "label": "Bus stops", "color": "#4292c6" }, "geometry": { "type": "Point", "coordinates": [ 8.6806746, 49.4078028 ] } },
{ "type": "Feature", "properties": { "index": "126", "@osmId": "node/309419594", "name": "Volkshochschule", "opening_hours": null, "label": "Bus stops", "color": "#4292c6" }, "geometry": { "type": "Point", "coordinates": [ 8.6805181, 49.4078767 ] } },
{ "type": "Feature", "properties": { "index": "127", "@osmId": "node/309421885", "name": "Altes Hallenbad", "opening_hours": null, "label": "Bus stops", "color": "#4292c6" }, "geometry": { "type": "Point", "coordinates": [ 8.6884254, 49.408405 ] } },
{ "type": "Feature", "properties": { "index": "128", "@osmId": "node/309428989", "name": "Bismarckplatz", "opening_hours": null, "label": "Bus stops", "color": "#4292c6" }, "geometry": { "type": "Point", "coordinates": [ 8.6928995, 49.4101809 ] } },
{ "type": "Feature", "properties": { "index": "129", "@osmId": "node/309428992", "name": "Bismarckplatz", "opening_hours": null, "label": "Bus stops", "color": "#4292c6" }, "geometry": { "type": "Point", "coordinates": [ 8.6928532, 49.4099846 ] } },
{ "type": "Feature", "properties": { "index": "130", "@osmId": "node/309428995", "name": "Bismarckplatz", "opening_hours": null, "label": "Bus stops", "color": "#4292c6" }, "geometry": { "type": "Point", "coordinates": [ 8.6932968, 49.4095744 ] } },
{ "type": "Feature", "properties": { "index": "131", "@osmId": "node/309428997", "name": "Bismarckplatz", "opening_hours": null, "label": "Bus stops", "color": "#4292c6" }, "geometry": { "type": "Point", "coordinates": [ 8.6931627, 49.4093461 ] } },
{ "type": "Feature", "properties": { "index": "132", "@osmId": "node/309428998", "name": "Bismarckplatz", "opening_hours": null, "label": "Bus stops", "color": "#4292c6" }, "geometry": { "type": "Point", "coordinates": [ 8.6929959, 49.4092112 ] } },
{ "type": "Feature", "properties": { "index": "133", "@osmId": "node/309429000", "name": "Bismarckplatz", "opening_hours": null, "label": "Bus stops", "color": "#4292c6" }, "geometry": { "type": "Point", "coordinates": [ 8.6927592, 49.4090525 ] } },
{ "type": "Feature", "properties": { "index": "134", "@osmId": "node/312655153", "name": "Universitätsplatz", "opening_hours": null, "label": "Bus stops", "color": "#4292c6" }, "geometry": { "type": "Point", "coordinates": [ 8.7057655, 49.4111209 ] } },
{ "type": "Feature", "properties": { "index": "135", "@osmId": "node/313843360", "name": "Wielandtstraße", "opening_hours": null, "label": "Bus stops", "color": "#4292c6" }, "geometry": { "type": "Point", "coordinates": [ 8.6816986, 49.4173023 ] } },
{ "type": "Feature", "properties": { "index": "136", "@osmId": "node/313843361", "name": "Wielandtstraße", "opening_hours": null, "label": "Bus stops", "color": "#4292c6" }, "geometry": { "type": "Point", "coordinates": [ 8.6820724, 49.4174607 ] } },
{ "type": "Feature", "properties": { "index": "137", "@osmId": "node/313843492", "name": "Marstallstraße", "opening_hours": null, "label": "Bus stops", "color": "#4292c6" }, "geometry": { "type": "Point", "coordinates": [ 8.7053701, 49.4130422 ] } },
{ "type": "Feature", "properties": { "index": "138", "@osmId": "node/313843494", "name": "Marstallstraße", "opening_hours": null, "label": "Bus stops", "color": "#4292c6" }, "geometry": { "type": "Point", "coordinates": [ 8.7058799, 49.4133722 ] } },
{ "type": "Feature", "properties": { "index": "139", "@osmId": "node/313845045", "name": "Lutherstraße", "opening_hours": null, "label": "Bus stops", "color": "#4292c6" }, "geometry": { "type": "Point", "coordinates": [ 8.6908888, 49.4173515 ] } },
{ "type": "Feature", "properties": { "index": "140", "@osmId": "node/313845046", "name": "Lutherstraße", "opening_hours": null, "label": "Bus stops", "color": "#4292c6" }, "geometry": { "type": "Point", "coordinates": [ 8.6912051, 49.4171632 ] } },
{ "type": "Feature", "properties": { "index": "141", "@osmId": "node/317569178", "name": "Jubiläumsplatz", "opening_hours": null, "label": "Bus stops", "color": "#4292c6" }, "geometry": { "type": "Point", "coordinates": [ 8.6972359, 49.4119771 ] } },
{ "type": "Feature", "properties": { "index": "142", "@osmId": "node/317569183", "name": "Jubiläumsplatz", "opening_hours": null, "label": "Bus stops", "color": "#4292c6" }, "geometry": { "type": "Point", "coordinates": [ 8.697206, 49.4120763 ] } },
{ "type": "Feature", "properties": { "index": "143", "@osmId": "node/317569186", "name": "Stadtwerke", "opening_hours": null, "label": "Bus stops", "color": "#4292c6" }, "geometry": { "type": "Point", "coordinates": [ 8.6828676, 49.4055633 ] } },
{ "type": "Feature", "properties": { "index": "144", "@osmId": "node/317569189", "name": "Stadtwerke", "opening_hours": null, "label": "Bus stops", "color": "#4292c6" }, "geometry": { "type": "Point", "coordinates": [ 8.6822752, 49.4050333 ] } },
{ "type": "Feature", "properties": { "index": "145", "@osmId": "node/317571767", "name": "Peterskirche", "opening_hours": null, "label": "Bus stops", "color": "#4292c6" }, "geometry": { "type": "Point", "coordinates": [ 8.7054522, 49.409072 ] } },
{ "type": "Feature", "properties": { "index": "146", "@osmId": "node/317571769", "name": "Friedrich-Ebert-Platz", "opening_hours": null, "label": "Bus stops", "color": "#4292c6" }, "geometry": { "type": "Point", "coordinates": [ 8.6986037, 49.4084064 ] } },
{ "type": "Feature", "properties": { "index": "147", "@osmId": "node/317575971", "name": "Bergstraße", "opening_hours": null, "label": "Bus stops", "color": "#4292c6" }, "geometry": { "type": "Point", "coordinates": [ 8.6943285, 49.4137668 ] } },
{ "type": "Feature", "properties": { "index": "148", "@osmId": "node/323191863", "name": "Seegarten", "opening_hours": null, "label": "Bus stops", "color": "#4292c6" }, "geometry": { "type": "Point", "coordinates": [ 8.6900774, 49.4069337 ] } },
{ "type": "Feature", "properties": { "index": "149", "@osmId": "node/323191866", "name": "Gaisbergstraße", "opening_hours": null, "label": "Bus stops", "color": "#4292c6" }, "geometry": { "type": "Point", "coordinates": [ 8.6934775, 49.4068742 ] } },
{ "type": "Feature", "properties": { "index": "150", "@osmId": "node/323191871", "name": "Peterskirche", "opening_hours": null, "label": "Bus stops", "color": "#4292c6" }, "geometry": { "type": "Point", "coordinates": [ 8.7053904, 49.4088905 ] } },
{ "type": "Feature", "properties": { "index": "151", "@osmId": "node/323191875", "name": "Oberer Fauler Pelz", "opening_hours": null, "label": "Bus stops", "color": "#4292c6" }, "geometry": { "type": "Point", "coordinates": [ 8.7080457, 49.4092125 ] } },
{ "type": "Feature", "properties": { "index": "152", "@osmId": "node/323191877", "name": "Oberer Fauler Pelz", "opening_hours": null, "label": "Bus stops", "color": "#4292c6" }, "geometry": { "type": "Point", "coordinates": [ 8.7093183, 49.4096121 ] } },
{ "type": "Feature", "properties": { "index": "153", "@osmId": "node/323269977", "name": "Herrenmühle", "opening_hours": null, "label": "Bus stops", "color": "#4292c6" }, "geometry": { "type": "Point", "coordinates": [ 8.7167012, 49.4136898 ] } },
{ "type": "Feature", "properties": { "index": "154", "@osmId": "node/323269980", "name": "Karlsplatz", "opening_hours": null, "label": "Bus stops", "color": "#4292c6" }, "geometry": { "type": "Point", "coordinates": [ 8.7128024, 49.4124456 ] } },
{ "type": "Feature", "properties": { "index": "155", "@osmId": "node/323269983", "name": "Rathaus/Bergbahn", "opening_hours": null, "label": "Bus stops", "color": "#4292c6" }, "geometry": { "type": "Point", "coordinates": [ 8.7119309, 49.4114089 ] } },
{ "type": "Feature", "properties": { "index": "156", "@osmId": "node/323269987", "name": "Rathaus/Bergbahn", "opening_hours": null, "label": "Bus stops", "color": "#4292c6" }, "geometry": { "type": "Point", "coordinates": [ 8.7114111, 49.4112175 ] } },
{ "type": "Feature", "properties": { "index": "157", "@osmId": "node/323814337", "name": "Friedrich-Ebert-Platz", "opening_hours": null, "label": "Bus stops", "color": "#4292c6" }, "geometry": { "type": "Point", "coordinates": [ 8.6999304, 49.4080587 ] } },
{ "type": "Feature", "properties": { "index": "158", "@osmId": "node/325839689", "name": "Czernybrücke", "opening_hours": null, "label": "Bus stops", "color": "#4292c6" }, "geometry": { "type": "Point", "coordinates": [ 8.6712204, 49.4067817 ] } },
{ "type": "Feature", "properties": { "index": "159", "@osmId": "node/336248904", "name": "Hans-Böckler-Straße", "opening_hours": null, "label": "Bus stops", "color": "#4292c6" }, "geometry": { "type": "Point", "coordinates": [ 8.6926553, 49.4054462 ] } },
{ "type": "Feature", "properties": { "index": "160", "@osmId": "node/336248905", "name": "Hans-Böckler-Straße", "opening_hours": null, "label": "Bus stops", "color": "#4292c6" }, "geometry": { "type": "Point", "coordinates": [ 8.6925319, 49.4055795 ] } },
{ "type": "Feature", "properties": { "index": "161", "@osmId": "node/336248907", "name": "Kaiserstraße", "opening_hours": null, "label": "Bus stops", "color": "#4292c6" }, "geometry": { "type": "Point", "coordinates": [ 8.6915578, 49.4020509 ] } },
{ "type": "Feature", "properties": { "index": "162", "@osmId": "node/336248908", "name": "Kaiserstraße", "opening_hours": null, "label": "Bus stops", "color": "#4292c6" }, "geometry": { "type": "Point", "coordinates": [ 8.6916456, 49.4026927 ] } },
{ "type": "Feature", "properties": { "index": "163", "@osmId": "node/374382330", "name": "Bergstraße", "opening_hours": null, "label": "Bus stops", "color": "#4292c6" }, "geometry": { "type": "Point", "coordinates": [ 8.6941956, 49.4136993 ] } },
{ "type": "Feature", "properties": { "index": "164", "@osmId": "node/375627033", "name": "Jahnstraße", "opening_hours": null, "label": "Bus stops", "color": "#4292c6" }, "geometry": { "type": "Point", "coordinates": [ 8.6764049, 49.4130324 ] } },
{ "type": "Feature", "properties": { "index": "165", "@osmId": "node/375627035", "name": "Jahnstraße", "opening_hours": null, "label": "Bus stops", "color": "#4292c6" }, "geometry": { "type": "Point", "coordinates": [ 8.6768015, 49.4131995 ] } },
{ "type": "Feature", "properties": { "index": "166", "@osmId": "node/622290190", "name": "Mönchhofschule", "opening_hours": null, "label": "Bus stops", "color": "#4292c6" }, "geometry": { "type": "Point", "coordinates": [ 8.6856825, 49.4174337 ] } },
{ "type": "Feature", "properties": { "index": "167", "@osmId": "node/1239025964", "name": "Brückenstraße", "opening_hours": null, "label": "Bus stops", "color": "#4292c6" }, "geometry": { "type": "Point", "coordinates": [ 8.6920489, 49.4154941 ] } },
{ "type": "Feature", "properties": { "index": "168", "@osmId": "node/1239025978", "name": "Brückenstraße", "opening_hours": null, "label": "Bus stops", "color": "#4292c6" }, "geometry": { "type": "Point", "coordinates": [ 8.6921408, 49.4157681 ] } },
{ "type": "Feature", "properties": { "index": "169", "@osmId": "node/1269937406", "name": "Molkenkur", "opening_hours": null, "label": "Bus stops", "color": "#4292c6" }, "geometry": { "type": "Point", "coordinates": [ 8.7150844, 49.4070167 ] } },
{ "type": "Feature", "properties": { "index": "170", "@osmId": "node/1269937506", "name": "Molkenkur", "opening_hours": null, "label": "Bus stops", "color": "#4292c6" }, "geometry": { "type": "Point", "coordinates": [ 8.7149274, 49.4070255 ] } },
{ "type": "Feature", "properties": { "index": "171", "@osmId": "node/1269937535", "name": "Molkenkur", "opening_hours": null, "label": "Bus stops", "color": "#4292c6" }, "geometry": { "type": "Point", "coordinates": [ 8.7145104, 49.4062811 ] } },
{ "type": "Feature", "properties": { "index": "172", "@osmId": "node/1286950767", "name": "Blockhaus", "opening_hours": null, "label": "Bus stops", "color": "#4292c6" }, "geometry": { "type": "Point", "coordinates": [ 8.7136432, 49.4009711 ] } },
{ "type": "Feature", "properties": { "index": "173", "@osmId": "node/1464163776", "name": "Montpellierbrücke", "opening_hours": null, "label": "Bus stops", "color": "#4292c6" }, "geometry": { "type": "Point", "coordinates": [ 8.6764203, 49.3996087 ] } },
{ "type": "Feature", "properties": { "index": "174", "@osmId": "node/1905430106", "name": "Schloss", "opening_hours": null, "label": "Bus stops", "color": "#4292c6" }, "geometry": { "type": "Point", "coordinates": [ 8.7128442, 49.4088954 ] } },
{ "type": "Feature", "properties": { "index": "175", "@osmId": "node/2050548819", "name": "Bismarckplatz", "opening_hours": null, "label": "Bus stops", "color": "#4292c6" }, "geometry": { "type": "Point", "coordinates": [ 8.6928288, 49.4098287 ] } },
{ "type": "Feature", "properties": { "index": "176", "@osmId": "node/2283861744", "name": "Mönchhofschule", "opening_hours": null, "label": "Bus stops", "color": "#4292c6" }, "geometry": { "type": "Point", "coordinates": [ 8.6871846, 49.4172979 ] } },
{ "type": "Feature", "properties": { "index": "177", "@osmId": "node/2380139990", "name": "Heidelberg Hauptbahnhof Süd", "opening_hours": null, "label": "Bus stops", "color": "#4292c6" }, "geometry": { "type": "Point", "coordinates": [ 8.6724622, 49.4013885 ] } },
{ "type": "Feature", "properties": { "index": "178", "@osmId": "node/2380140001", "name": "Schwetzinger Terrasse", "opening_hours": null, "label": "Bus stops", "color": "#4292c6" }, "geometry": { "type": "Point", "coordinates": [ 8.6714984, 49.3993841 ] } },
{ "type": "Feature", "properties": { "index": "179", "@osmId": "node/2380140004", "name": "Schwetzinger Terrasse", "opening_hours": null, "label": "Bus stops", "color": "#4292c6" }, "geometry": { "type": "Point", "coordinates": [ 8.6716997, 49.3994314 ] } },
{ "type": "Feature", "properties": { "index": "180", "@osmId": "node/2382067411", "name": null, "opening_hours": null, "label": "Bus stops", "color": "#4292c6" }, "geometry": { "type": "Point", "coordinates": [ 8.6787123, 49.4047148 ] } },
{ "type": "Feature", "properties": { "index": "181", "@osmId": "node/2534500489", "name": "Technologiepark", "opening_hours": null, "label": "Bus stops", "color": "#4292c6" }, "geometry": { "type": "Point", "coordinates": [ 8.6763297, 49.4192296 ] } },
{ "type": "Feature", "properties": { "index": "182", "@osmId": "node/2598225703", "name": "Heidelberg Hauptbahnhof Süd", "opening_hours": null, "label": "Bus stops", "color": "#4292c6" }, "geometry": { "type": "Point", "coordinates": [ 8.6730302, 49.4019555 ] } },
{ "type": "Feature", "properties": { "index": "183", "@osmId": "node/2819403568", "name": "Stadtwerke", "opening_hours": null, "label": "Bus stops", "color": "#4292c6" }, "geometry": { "type": "Point", "coordinates": [ 8.681213, 49.4050422 ] } },
{ "type": "Feature", "properties": { "index": "184", "@osmId": "node/3212351968", "name": "Hölderlin Gymnasium", "opening_hours": null, "label": "Bus stops", "color": "#4292c6" }, "geometry": { "type": "Point", "coordinates": [ 8.7006247, 49.4087518 ] } },
{ "type": "Feature", "properties": { "index": "185", "@osmId": "node/3265385990", "name": "Heidelberg Hauptbahnhof, K", "opening_hours": null, "label": "Bus stops", "color": "#4292c6" }, "geometry": { "type": "Point", "coordinates": [ 8.6767936, 49.4043066 ] } },
{ "type": "Feature", "properties": { "index": "186", "@osmId": "node/3265386025", "name": "Czernybrücke", "opening_hours": null, "label": "Bus stops", "color": "#4292c6" }, "geometry": { "type": "Point", "coordinates": [ 8.6716477, 49.4060979 ] } },
{ "type": "Feature", "properties": { "index": "187", "@osmId": "node/3265386029", "name": "Betriebshof", "opening_hours": null, "label": "Bus stops", "color": "#4292c6" }, "geometry": { "type": "Point", "coordinates": [ 8.6748725, 49.4074995 ] } },
{ "type": "Feature", "properties": { "index": "188", "@osmId": "node/4363463135", "name": "Technologiepark", "opening_hours": null, "label": "Bus stops", "color": "#4292c6" }, "geometry": { "type": "Point", "coordinates": [ 8.674955, 49.4189146 ] } },
{ "type": "Feature", "properties": { "index": "189", "@osmId": "node/4801418695", "name": "Agnesistraße", "opening_hours": null, "label": "Bus stops", "color": "#4292c6" }, "geometry": { "type": "Point", "coordinates": [ 8.6628297, 49.4056451 ] } },
{ "type": "Feature", "properties": { "index": "190", "@osmId": "node/4801419752", "name": "Da-Vinci-Straße", "opening_hours": null, "label": "Bus stops", "color": "#4292c6" }, "geometry": { "type": "Point", "coordinates": [ 8.6678467, 49.4053025 ] } },
{ "type": "Feature", "properties": { "index": "191", "@osmId": "node/5020169784", "name": "Schulbus", "opening_hours": null, "label": "Bus stops", "color": "#4292c6" }, "geometry": { "type": "Point", "coordinates": [ 8.684978, 49.4174236 ] } },
{ "type": "Feature", "properties": { "index": "192", "@osmId": "node/5020173662", "name": "Heidelberg Schloss", "opening_hours": null, "label": "Bus stops", "color": "#4292c6" }, "geometry": { "type": "Point", "coordinates": [ 8.711782, 49.4089741 ] } },
{ "type": "Feature", "properties": { "index": "193", "@osmId": "node/5645956422", "name": "Heidelberg Hbf", "opening_hours": null, "label": "Bus stops", "color": "#4292c6" }, "geometry": { "type": "Point", "coordinates": [ 8.673302, 49.4060844 ] } },
{ "type": "Feature", "properties": { "index": "194", "@osmId": "node/6074587001", "name": "Herrenmühle", "opening_hours": null, "label": "Bus stops", "color": "#4292c6" }, "geometry": { "type": "Point", "coordinates": [ 8.7177399, 49.413812 ] } },
{ "type": "Feature", "properties": { "index": "195", "@osmId": "node/6845695847", "name": "Technologiepark", "opening_hours": null, "label": "Bus stops", "color": "#4292c6" }, "geometry": { "type": "Point", "coordinates": [ 8.6751021, 49.4187951 ] } },
{ "type": "Feature", "properties": { "index": "196", "@osmId": "node/7920616787", "name": "Blockhaus", "opening_hours": null, "label": "Bus stops", "color": "#4292c6" }, "geometry": { "type": "Point", "coordinates": [ 8.7130745, 49.4012429 ] } },
{ "type": "Feature", "properties": { "index": "197", "@osmId": "node/8320620257", "name": "Theodor-Heuss-Brücke", "opening_hours": null, "label": "Bus stops", "color": "#4292c6" }, "geometry": { "type": "Point", "coordinates": [ 8.692321, 49.4132919 ] } },
{ "type": "Feature", "properties": { "index": "198", "@osmId": "node/8320620258", "name": "Theodor-Heuss-Brücke", "opening_hours": null, "label": "Bus stops", "color": "#4292c6" }, "geometry": { "type": "Point", "coordinates": [ 8.6909702, 49.4134012 ] } },
{ "type": "Feature", "properties": { "index": "199", "@osmId": "node/8388865799", "name": "Betriebshof", "opening_hours": null, "label": "Bus stops", "color": "#4292c6" }, "geometry": { "type": "Point", "coordinates": [ 8.6756815, 49.4079263 ] } },
{ "type": "Feature", "properties": { "index": "200", "@osmId": "node/8388865804", "name": "Stadthalle", "opening_hours": null, "label": "Bus stops", "color": "#4292c6" }, "geometry": { "type": "Point", "coordinates": [ 8.7028405, 49.4129617 ] } },
{ "type": "Feature", "properties": { "index": "201", "@osmId": "node/8388865805", "name": "Marstallstraße", "opening_hours": null, "label": "Bus stops", "color": "#4292c6" }, "geometry": { "type": "Point", "coordinates": [ 8.7056109, 49.4132436 ] } },
{ "type": "Feature", "properties": { "index": "202", "@osmId": "node/8390129077", "name": "Campus Bergheim", "opening_hours": null, "label": "Bus stops", "color": "#4292c6" }, "geometry": { "type": "Point", "coordinates": [ 8.6851497, 49.4078738 ] } },
{ "type": "Feature", "properties": { "index": "203", "@osmId": "node/8390129078", "name": "Campus Bergheim", "opening_hours": null, "label": "Bus stops", "color": "#4292c6" }, "geometry": { "type": "Point", "coordinates": [ 8.6851309, 49.4079357 ] } },
{ "type": "Feature", "properties": { "index": "204", "@osmId": "node/8390129079", "name": "Altes Hallenbad", "opening_hours": null, "label": "Bus stops", "color": "#4292c6" }, "geometry": { "type": "Point", "coordinates": [ 8.6883147, 49.4084418 ] } },
{ "type": "Feature", "properties": { "index": "205", "@osmId": "node/8390129080", "name": "Altes Hallenbad", "opening_hours": null, "label": "Bus stops", "color": "#4292c6" }, "geometry": { "type": "Point", "coordinates": [ 8.6883469, 49.4083825 ] } },
{ "type": "Feature", "properties": { "index": "206", "@osmId": "node/8664417141", "name": "Montpellierbrücke", "opening_hours": null, "label": "Bus stops", "color": "#4292c6" }, "geometry": { "type": "Point", "coordinates": [ 8.6769359, 49.39951 ] } },
{ "type": "Feature", "properties": { "index": "207", "@osmId": "node/9216223618", "name": "Maria-Mitchell-Straße", "opening_hours": null, "label": "Bus stops", "color": "#4292c6" }, "geometry": { "type": "Point", "coordinates": [ 8.6703272, 49.4043099 ] } },
{ "type": "Feature", "properties": { "index": "208", "@osmId": "node/9346518743", "name": "Neckarwiese", "opening_hours": null, "label": "Bus stops", "color": "#4292c6" }, "geometry": { "type": "Point", "coordinates": [ 8.6825298, 49.4125579 ] } },
{ "type": "Feature", "properties": { "index": "209", "@osmId": "node/9346518744", "name": "Neckarwiese", "opening_hours": null, "label": "Bus stops", "color": "#4292c6" }, "geometry": { "type": "Point", "coordinates": [ 8.6823251, 49.4123917 ] } },
{ "type": "Feature", "properties": { "index": "210", "@osmId": "node/9413057229", "name": "Neckarmünzplatz", "opening_hours": null, "label": "Bus stops", "color": "#4292c6" }, "geometry": { "type": "Point", "coordinates": [ 8.7139646, 49.4137392 ] } },
{ "type": "Feature", "properties": { "index": "211", "@osmId": "node/9415529593", "name": "Heidelberg Hauptbahnhof (Steig R)", "opening_hours": null, "label": "Bus stops", "color": "#4292c6" }, "geometry": { "type": "Point", "coordinates": [ 8.678579, 49.4042619 ] } },
{ "type": "Feature", "properties": { "index": "212", "@osmId": "node/10594142966", "name": "Jahnstraße", "opening_hours": null, "label": "Bus stops", "color": "#4292c6" }, "geometry": { "type": "Point", "coordinates": [ 8.6774013, 49.4125977 ] } },
{ "type": "Feature", "properties": { "index": "213", "@osmId": "node/11176910292", "name": "Heidelberg Hauptbahnhof Süd", "opening_hours": null, "label": "Bus stops", "color": "#4292c6" }, "geometry": { "type": "Point", "coordinates": [ 8.6742026, 49.4018785 ] } },
{ "type": "Feature", "properties": { "index": "214", "@osmId": "node/12293558605", "name": "Peterskirche", "opening_hours": null, "label": "Bus stops", "color": "#4292c6" }, "geometry": { "type": "Point", "coordinates": [ 8.7053246, 49.409054 ] } },
{ "type": "Feature", "properties": { "index": "215", "@osmId": "node/12293558606", "name": "Peterskirche", "opening_hours": null, "label": "Bus stops", "color": "#4292c6" }, "geometry": { "type": "Point", "coordinates": [ 8.7051001, 49.4090401 ] } },
{ "type": "Feature", "properties": { "index": "216", "@osmId": "node/13727292746", "name": "Ersatzhaltestelle", "opening_hours": null, "label": "Bus stops", "color": "#4292c6" }, "geometry": { "type": "Point", "coordinates": [ 8.6662284, 49.4052384 ] } },
{ "type": "Feature", "properties": { "index": "217", "@osmId": "node/13929883522", "name": "Heidelberg Hauptbahnhof Süd", "opening_hours": null, "label": "Bus stops", "color": "#4292c6" }, "geometry": { "type": "Point", "coordinates": [ 8.6735156, 49.4024017 ] } },
{ "type": "Feature", "properties": { "index": "218", "@osmId": "node/3428533595", "name": "Heidelberg Neuenheim - Neckarwiese", "opening_hours": null, "label": "Bike-sharing points", "color": "#41ab5d" }, "geometry": { "type": "Point", "coordinates": [ 8.6918182, 49.4133047 ] } },
{ "type": "Feature", "properties": { "index": "219", "@osmId": "node/3429511451", "name": "Heidelberg Neuenheim - Kußmaulstraße", "opening_hours": null, "label": "Bike-sharing points", "color": "#41ab5d" }, "geometry": { "type": "Point", "coordinates": [ 8.6905365, 49.418466 ] } },
{ "type": "Feature", "properties": { "index": "220", "@osmId": "node/3454974114", "name": "Heidelberg Hauptbahnhof Bahnstadt", "opening_hours": null, "label": "Bike-sharing points", "color": "#41ab5d" }, "geometry": { "type": "Point", "coordinates": [ 8.6758185, 49.4025101 ] } },
{ "type": "Feature", "properties": { "index": "221", "@osmId": "node/3498523761", "name": "Heidelberg Altstadt - Stadthalle", "opening_hours": null, "label": "Bike-sharing points", "color": "#41ab5d" }, "geometry": { "type": "Point", "coordinates": [ 8.699159, 49.4119954 ] } },
{ "type": "Feature", "properties": { "index": "222", "@osmId": "node/3584458569", "name": "Heidelberg S-Bahnhof Weststadt/Südstadt", "opening_hours": null, "label": "Bike-sharing points", "color": "#41ab5d" }, "geometry": { "type": "Point", "coordinates": [ 8.6891931, 49.3989628 ] } },
{ "type": "Feature", "properties": { "index": "223", "@osmId": "node/3763267774", "name": "Heidelberg Altstadt - Plöck", "opening_hours": null, "label": "Bike-sharing points", "color": "#41ab5d" }, "geometry": { "type": "Point", "coordinates": [ 8.693822, 49.4086829 ] } },
{ "type": "Feature", "properties": { "index": "224", "@osmId": "node/3764985540", "name": "Bahnstadt Halle 02", "opening_hours": null, "label": "Bike-sharing points", "color": "#41ab5d" }, "geometry": { "type": "Point", "coordinates": [ 8.6725783, 49.4018638 ] } },
{ "type": "Feature", "properties": { "index": "225", "@osmId": "node/3773428899", "name": "INF - Universitätsklinikum/Zoo", "opening_hours": null, "label": "Bike-sharing points", "color": "#41ab5d" }, "geometry": { "type": "Point", "coordinates": [ 8.6647975, 49.4148893 ] } },
{ "type": "Feature", "properties": { "index": "226", "@osmId": "node/4067867917", "name": "S-Bahnhof Heidelberg-Altstadt", "opening_hours": null, "label": "Bike-sharing points", "color": "#41ab5d" }, "geometry": { "type": "Point", "coordinates": [ 8.7199136, 49.4148944 ] } },
{ "type": "Feature", "properties": { "index": "227", "@osmId": "node/4346569397", "name": "Heidelberg Bergheim - RNV Betriebshof Bergheimerstraße", "opening_hours": null, "label": "Bike-sharing points", "color": "#41ab5d" }, "geometry": { "type": "Point", "coordinates": [ 8.6751095, 49.4077301 ] } },
{ "type": "Feature", "properties": { "index": "228", "@osmId": "node/4519298691", "name": "INF - Zentralmensa", "opening_hours": "24/7", "label": "Bike-sharing points", "color": "#41ab5d" }, "geometry": { "type": "Point", "coordinates": [ 8.6713535, 49.4162718 ] } },
{ "type": "Feature", "properties": { "index": "229", "@osmId": "node/4546803165", "name": "Heidelberg Neuenheimer Feld - Mathematikon", "opening_hours": "24/7", "label": "Bike-sharing points", "color": "#41ab5d" }, "geometry": { "type": "Point", "coordinates": [ 8.6748361, 49.4198285 ] } },
{ "type": "Feature", "properties": { "index": "230", "@osmId": "node/4765455115", "name": "Heidelberg Bergheim - Kurfürstenanlage", "opening_hours": "24/7", "label": "Bike-sharing points", "color": "#41ab5d" }, "geometry": { "type": "Point", "coordinates": [ 8.6906563, 49.4071695 ] } },
{ "type": "Feature", "properties": { "index": "231", "@osmId": "node/5105377427", "name": "Rhein-Neckar-Kreis / Kurfürstenanlage", "opening_hours": null, "label": "Bike-sharing points", "color": "#41ab5d" }, "geometry": { "type": "Point", "coordinates": [ 8.6837174, 49.4058288 ] } },
{ "type": "Feature", "properties": { "index": "232", "@osmId": "node/5113641991", "name": "Heidelberg Bergheim - Altes Hallenbad 1-10", "opening_hours": null, "label": "Bike-sharing points", "color": "#41ab5d" }, "geometry": { "type": "Point", "coordinates": [ 8.68802, 49.408006 ] } },
{ "type": "Feature", "properties": { "index": "233", "@osmId": "node/5126342535", "name": "Heidelberg Altstadt - Neckarmünzplatz", "opening_hours": null, "label": "Bike-sharing points", "color": "#41ab5d" }, "geometry": { "type": "Point", "coordinates": [ 8.7142912, 49.4137016 ] } },
{ "type": "Feature", "properties": { "index": "234", "@osmId": "node/5139030658", "name": "Heidelberg Altstadt - Marstall", "opening_hours": null, "label": "Bike-sharing points", "color": "#41ab5d" }, "geometry": { "type": "Point", "coordinates": [ 8.7056927, 49.4132161 ] } },
{ "type": "Feature", "properties": { "index": "235", "@osmId": "node/5139030666", "name": "Heidelberg Altstadt - Theaterstraße", "opening_hours": null, "label": "Bike-sharing points", "color": "#41ab5d" }, "geometry": { "type": "Point", "coordinates": [ 8.7037542, 49.4101107 ] } },
{ "type": "Feature", "properties": { "index": "236", "@osmId": "node/5139030668", "name": "Heidelberg Altstadt - Friedrich-Ebert-Platz", "opening_hours": null, "label": "Bike-sharing points", "color": "#41ab5d" }, "geometry": { "type": "Point", "coordinates": [ 8.6981276, 49.4091831 ] } },
{ "type": "Feature", "properties": { "index": "237", "@osmId": "node/8474042264", "name": "Heidelberg Grüne Meile", "opening_hours": null, "label": "Bike-sharing points", "color": "#41ab5d" }, "geometry": { "type": "Point", "coordinates": [ 8.6675014, 49.4036514 ] } },
{ "type": "Feature", "properties": { "index": "238", "@osmId": "node/8856635294", "name": "Heidelberg Langer Anger", "opening_hours": null, "label": "Bike-sharing points", "color": "#41ab5d" }, "geometry": { "type": "Point", "coordinates": [ 8.6689903, 49.4010777 ] } },
{ "type": "Feature", "properties": { "index": "239", "@osmId": "node/8856635298", "name": "INF - Neue PH Heidelberg", "opening_hours": null, "label": "Bike-sharing points", "color": "#41ab5d" }, "geometry": { "type": "Point", "coordinates": [ 8.6694756, 49.4195154 ] } },
{ "type": "Feature", "properties": { "index": "240", "@osmId": "node/9198438343", "name": "Altstadt - Universitätsplatz", "opening_hours": null, "label": "Bike-sharing points", "color": "#41ab5d" }, "geometry": { "type": "Point", "coordinates": [ 8.7067361, 49.4110404 ] } },
{ "type": "Feature", "properties": { "index": "241", "@osmId": "node/10822469946", "name": "Weststadt - Blumenstraße", "opening_hours": null, "label": "Bike-sharing points", "color": "#41ab5d" }, "geometry": { "type": "Point", "coordinates": [ 8.6848208, 49.4043273 ] } },
{ "type": "Feature", "properties": { "index": "242", "@osmId": "node/10844401868", "name": "Heidelberg Emil-Maier-Straße", "opening_hours": null, "label": "Bike-sharing points", "color": "#41ab5d" }, "geometry": { "type": "Point", "coordinates": [ 8.6725103, 49.4086541 ] } },
{ "type": "Feature", "properties": { "index": "243", "@osmId": "node/11300299512", "name": "Heidelberg Grüne Meile", "opening_hours": null, "label": "Bike-sharing points", "color": "#41ab5d" }, "geometry": { "type": "Point", "coordinates": [ 8.6660691, 49.4036135 ] } },
{ "type": "Feature", "properties": { "index": "244", "@osmId": "node/11505987279", "name": "Neuenheim - Alte PH / Quinckestraße", "opening_hours": null, "label": "Bike-sharing points", "color": "#41ab5d" }, "geometry": { "type": "Point", "coordinates": [ 8.6830195, 49.4201437 ] } },
{ "type": "Feature", "properties": { "index": "245", "@osmId": "node/11673785050", "name": "Weststadt - Gaisbergstraße", "opening_hours": null, "label": "Bike-sharing points", "color": "#41ab5d" }, "geometry": { "type": "Point", "coordinates": [ 8.6939528, 49.4054492 ] } },
{ "type": "Feature", "properties": { "index": "246", "@osmId": "node/12299978100", "name": "INF - Cafe Botanik", "opening_hours": "24/7", "label": "Bike-sharing points", "color": "#41ab5d" }, "geometry": { "type": "Point", "coordinates": [ 8.6713047, 49.4150164 ] } },
{ "type": "Feature", "properties": { "index": "247", "@osmId": "node/12299986201", "name": "INF - Hörsaal Physik", "opening_hours": "24/7", "label": "Bike-sharing points", "color": "#41ab5d" }, "geometry": { "type": "Point", "coordinates": [ 8.6705699, 49.4180189 ] } },
{ "type": "Feature", "properties": { "index": "248", "@osmId": "node/13241695980", "name": "INF - Kopfklinik/NCT", "opening_hours": null, "label": "Bike-sharing points", "color": "#41ab5d" }, "geometry": { "type": "Point", "coordinates": [ 8.6647876, 49.4185945 ] } },
{ "type": "Feature", "properties": { "index": "249", "@osmId": "node/13241695983", "name": "Neuenheim - Alte PH / Keplerstraße", "opening_hours": null, "label": "Bike-sharing points", "color": "#41ab5d" }, "geometry": { "type": "Point", "coordinates": [ 8.6848263, 49.4201573 ] } },
{ "type": "Feature", "properties": { "index": "250", "@osmId": "node/13810463350", "name": null, "opening_hours": null, "label": "Bike-sharing points", "color": "#41ab5d" }, "geometry": { "type": "Point", "coordinates": [ 8.6791727, 49.4043746 ] } },
{ "type": "Feature", "properties": { "index": "251", "@osmId": "node/13810509662", "name": null, "opening_hours": null, "label": "Bike-sharing points", "color": "#41ab5d" }, "geometry": { "type": "Point", "coordinates": [ 8.6787461, 49.4030324 ] } },
{ "type": "Feature", "properties": { "index": "252", "@osmId": "way/807112999", "name": null, "opening_hours": "24/7", "label": "Car-sharing points", "color": "#f16913" }, "geometry": { "type": "Polygon", "coordinates": [ [ [ 8.6768611, 49.4146043 ], [ 8.6767991, 49.4146036 ], [ 8.6768002, 49.41456 ], [ 8.6768622, 49.4145607 ], [ 8.6768611, 49.4146043 ] ] ] } },
{ "type": "Feature", "properties": { "index": "253", "@osmId": "node/283338419", "name": null, "opening_hours": "24/7", "label": "Car-sharing points", "color": "#f16913" }, "geometry": { "type": "Point", "coordinates": [ 8.6749087, 49.4201572 ] } },
{ "type": "Feature", "properties": { "index": "254", "@osmId": "node/493669728", "name": null, "opening_hours": "24/7", "label": "Car-sharing points", "color": "#f16913" }, "geometry": { "type": "Point", "coordinates": [ 8.69235, 49.4134671 ] } },
{ "type": "Feature", "properties": { "index": "255", "@osmId": "node/1027945008", "name": "Untere Neckarstraße 2, P6 (Kraus)", "opening_hours": null, "label": "Car-sharing points", "color": "#f16913" }, "geometry": { "type": "Point", "coordinates": [ 8.6967738, 49.4116285 ] } },
{ "type": "Feature", "properties": { "index": "256", "@osmId": "node/1027945018", "name": null, "opening_hours": "24/7", "label": "Car-sharing points", "color": "#f16913" }, "geometry": { "type": "Point", "coordinates": [ 8.7120306, 49.4112877 ] } },
{ "type": "Feature", "properties": { "index": "257", "@osmId": "node/1027945022", "name": null, "opening_hours": null, "label": "Car-sharing points", "color": "#f16913" }, "geometry": { "type": "Point", "coordinates": [ 8.7045338, 49.4105746 ] } },
{ "type": "Feature", "properties": { "index": "258", "@osmId": "node/1027945035", "name": null, "opening_hours": null, "label": "Car-sharing points", "color": "#f16913" }, "geometry": { "type": "Point", "coordinates": [ 8.6985594, 49.4088982 ] } },
{ "type": "Feature", "properties": { "index": "259", "@osmId": "node/1440227724", "name": null, "opening_hours": "24/7", "label": "Car-sharing points", "color": "#f16913" }, "geometry": { "type": "Point", "coordinates": [ 8.6815662, 49.4178168 ] } },
{ "type": "Feature", "properties": { "index": "260", "@osmId": "node/1440237586", "name": null, "opening_hours": "24/7", "label": "Car-sharing points", "color": "#f16913" }, "geometry": { "type": "Point", "coordinates": [ 8.6871221, 49.4197789 ] } },
{ "type": "Feature", "properties": { "index": "261", "@osmId": "node/1873548575", "name": "Bonifatiuskirche / Wilhemsplatz", "opening_hours": null, "label": "Car-sharing points", "color": "#f16913" }, "geometry": { "type": "Point", "coordinates": [ 8.6878647, 49.4036198 ] } },
{ "type": "Feature", "properties": { "index": "262", "@osmId": "node/1899288007", "name": null, "opening_hours": "24/7", "label": "Car-sharing points", "color": "#f16913" }, "geometry": { "type": "Point", "coordinates": [ 8.7187531, 49.4143251 ] } },
{ "type": "Feature", "properties": { "index": "263", "@osmId": "node/1985522075", "name": null, "opening_hours": null, "label": "Car-sharing points", "color": "#f16913" }, "geometry": { "type": "Point", "coordinates": [ 8.6869038, 49.3995012 ] } },
{ "type": "Feature", "properties": { "index": "264", "@osmId": "node/2208760320", "name": null, "opening_hours": null, "label": "Car-sharing points", "color": "#f16913" }, "geometry": { "type": "Point", "coordinates": [ 8.6751788, 49.4056096 ] } },
{ "type": "Feature", "properties": { "index": "265", "@osmId": "node/2284015342", "name": null, "opening_hours": "24/7", "label": "Car-sharing points", "color": "#f16913" }, "geometry": { "type": "Point", "coordinates": [ 8.6918619, 49.4064409 ] } },
{ "type": "Feature", "properties": { "index": "266", "@osmId": "node/2284021120", "name": null, "opening_hours": null, "label": "Car-sharing points", "color": "#f16913" }, "geometry": { "type": "Point", "coordinates": [ 8.6902108, 49.4075653 ] } },
{ "type": "Feature", "properties": { "index": "267", "@osmId": "node/2339182116", "name": null, "opening_hours": null, "label": "Car-sharing points", "color": "#f16913" }, "geometry": { "type": "Point", "coordinates": [ 8.6829974, 49.40578 ] } },
{ "type": "Feature", "properties": { "index": "268", "@osmId": "node/2340225604", "name": "stadtmobil", "opening_hours": null, "label": "Car-sharing points", "color": "#f16913" }, "geometry": { "type": "Point", "coordinates": [ 8.6791001, 49.4145642 ] } },
{ "type": "Feature", "properties": { "index": "269", "@osmId": "node/2340227227", "name": null, "opening_hours": null, "label": "Car-sharing points", "color": "#f16913" }, "geometry": { "type": "Point", "coordinates": [ 8.6925032, 49.4135781 ] } },
{ "type": "Feature", "properties": { "index": "270", "@osmId": "node/2340228089", "name": "stadtmobil", "opening_hours": null, "label": "Car-sharing points", "color": "#f16913" }, "geometry": { "type": "Point", "coordinates": [ 8.6836921, 49.4159532 ] } },
{ "type": "Feature", "properties": { "index": "271", "@osmId": "node/2340228958", "name": "stadtmobil", "opening_hours": null, "label": "Car-sharing points", "color": "#f16913" }, "geometry": { "type": "Point", "coordinates": [ 8.6813317, 49.415674 ] } },
{ "type": "Feature", "properties": { "index": "272", "@osmId": "node/2340250034", "name": "stadtmobil", "opening_hours": null, "label": "Car-sharing points", "color": "#f16913" }, "geometry": { "type": "Point", "coordinates": [ 8.6679456, 49.4201221 ] } },
{ "type": "Feature", "properties": { "index": "273", "@osmId": "node/2738568597", "name": null, "opening_hours": "24/7", "label": "Car-sharing points", "color": "#f16913" }, "geometry": { "type": "Point", "coordinates": [ 8.6672838, 49.4017075 ] } },
{ "type": "Feature", "properties": { "index": "274", "@osmId": "node/3100188409", "name": null, "opening_hours": null, "label": "Car-sharing points", "color": "#f16913" }, "geometry": { "type": "Point", "coordinates": [ 8.6635942, 49.4035509 ] } },
{ "type": "Feature", "properties": { "index": "275", "@osmId": "node/3183773127", "name": null, "opening_hours": null, "label": "Car-sharing points", "color": "#f16913" }, "geometry": { "type": "Point", "coordinates": [ 8.6761325, 49.4083514 ] } },
{ "type": "Feature", "properties": { "index": "276", "@osmId": "node/3212351971", "name": null, "opening_hours": "24/7", "label": "Car-sharing points", "color": "#f16913" }, "geometry": { "type": "Point", "coordinates": [ 8.681428, 49.4036252 ] } },
{ "type": "Feature", "properties": { "index": "277", "@osmId": "node/3962606278", "name": null, "opening_hours": "24/7", "label": "Car-sharing points", "color": "#f16913" }, "geometry": { "type": "Point", "coordinates": [ 8.6703539, 49.4000461 ] } },
{ "type": "Feature", "properties": { "index": "278", "@osmId": "node/5594732473", "name": null, "opening_hours": null, "label": "Car-sharing points", "color": "#f16913" }, "geometry": { "type": "Point", "coordinates": [ 8.6890859, 49.3988811 ] } },
{ "type": "Feature", "properties": { "index": "279", "@osmId": "node/7111015416", "name": null, "opening_hours": null, "label": "Car-sharing points", "color": "#f16913" }, "geometry": { "type": "Point", "coordinates": [ 8.6897778, 49.4075186 ] } },
{ "type": "Feature", "properties": { "index": "280", "@osmId": "node/7927294172", "name": null, "opening_hours": null, "label": "Car-sharing points", "color": "#f16913" }, "geometry": { "type": "Point", "coordinates": [ 8.6655994, 49.4028685 ] } },
{ "type": "Feature", "properties": { "index": "281", "@osmId": "node/8093818736", "name": null, "opening_hours": null, "label": "Car-sharing points", "color": "#f16913" }, "geometry": { "type": "Point", "coordinates": [ 8.6729777, 49.4021439 ] } },
{ "type": "Feature", "properties": { "index": "282", "@osmId": "node/8474086679", "name": null, "opening_hours": null, "label": "Car-sharing points", "color": "#f16913" }, "geometry": { "type": "Point", "coordinates": [ 8.6813477, 49.4064227 ] } },
{ "type": "Feature", "properties": { "index": "283", "@osmId": "node/9689504584", "name": null, "opening_hours": null, "label": "Car-sharing points", "color": "#f16913" }, "geometry": { "type": "Point", "coordinates": [ 8.6781269, 49.415526 ] } },
{ "type": "Feature", "properties": { "index": "284", "@osmId": "node/12115903488", "name": null, "opening_hours": null, "label": "Car-sharing points", "color": "#f16913" }, "geometry": { "type": "Point", "coordinates": [ 8.6831045, 49.4096094 ] } },
{ "type": "Feature", "properties": { "index": "285", "@osmId": "node/12705117559", "name": "Zentrum für umweltbewusste Mobilität", "opening_hours": "Mo,Fr 10:00-13:30,14:30-18:00; We 10:00-13:30,14:30-19:00; Th 14:30-19:00", "label": "Car-sharing points", "color": "#f16913" }, "geometry": { "type": "Point", "coordinates": [ 8.6761917, 49.4052185 ] } },
{ "type": "Feature", "properties": { "index": "286", "@osmId": "node/13727298285", "name": null, "opening_hours": null, "label": "Car-sharing points", "color": "#f16913" }, "geometry": { "type": "Point", "coordinates": [ 8.6663282, 49.4046348 ] } }
]
}
