{
"type": "FeatureCollection",
"features": [
{ "type": "Feature", "properties": { "index": "0", "label": "Within 300 m on foot", "color": "#2b8cbe" }, "geometry": { "type": "MultiPolygon", "coordinates": [ [ [ [ 8.6768057, 49.4000732 ], [ 8.6769776, 49.4003131 ], [ 8.6771126, 49.4005628 ], [ 8.6772095, 49.40082 ], [ 8.6772314, 49.400919 ], [ 8.677286, 49.4009516 ], [ 8.6775572, 49.4011486 ], [ 8.6777975, 49.401362 ], [ 8.6780046, 49.4015897 ], [ 8.6780107, 49.4015982 ], [ 8.6780438, 49.4016346 ], [ 8.6782158, 49.4018744 ], [ 8.6783508, 49.4021242 ], [ 8.6784478, 49.4023813 ], [ 8.6785056, 49.4026434 ], [ 8.6785238, 49.402908 ], [ 8.6785021, 49.4031724 ], [ 8.6784409, 49.4034342 ], [ 8.6783406, 49.4036908 ], [ 8.6782023, 49.4039397 ], [ 8.6780272, 49.4041787 ], [ 8.6778171, 49.4044052 ], [ 8.677574, 49.4046172 ], [ 8.6773002, 49.4048127 ], [ 8.6769983, 49.4049897 ], [ 8.6766713, 49.4051465 ], [ 8.6763224, 49.4052817 ], [ 8.6759548, 49.4053939 ], [ 8.6755721, 49.405482 ], [ 8.675178, 49.4055453 ], [ 8.6747764, 49.405583 ], [ 8.674371, 49.4055949 ], [ 8.6739657, 49.4055807 ], [ 8.6735646, 49.4055407 ], [ 8.6731713, 49.4054753 ], [ 8.6727898, 49.405385 ], [ 8.6724238, 49.4052707 ], [ 8.6720766, 49.4051336 ], [ 8.6717517, 49.4049749 ], [ 8.6714522, 49.4047962 ], [ 8.671181, 49.4045992 ], [ 8.6709407, 49.4043858 ], [ 8.6707336, 49.4041581 ], [ 8.6707275, 49.4041496 ], [ 8.6706944, 49.4041132 ], [ 8.6705608, 49.4039268 ], [ 8.670503, 49.4038986 ], [ 8.6702035, 49.4037199 ], [ 8.6699323, 49.4035229 ], [ 8.669692, 49.4033095 ], [ 8.6694849, 49.4030818 ], [ 8.669313, 49.4028419 ], [ 8.669178, 49.4025922 ], [ 8.6690811, 49.402335 ], [ 8.6690234, 49.4020729 ], [ 8.6690052, 49.4018083 ], [ 8.6690269, 49.4015439 ], [ 8.6690301, 49.4015304 ], [ 8.6690159, 49.4013232 ], [ 8.6690376, 49.4010588 ], [ 8.6690989, 49.400797 ], [ 8.6691992, 49.4005404 ], [ 8.6693375, 49.4002915 ], [ 8.6695126, 49.4000526 ], [ 8.6697228, 49.3998261 ], [ 8.6699659, 49.399614 ], [ 8.6702397, 49.3994186 ], [ 8.6705415, 49.3992416 ], [ 8.6708685, 49.3990848 ], [ 8.6712174, 49.3989497 ], [ 8.671585, 49.3988375 ], [ 8.6719676, 49.3987493 ], [ 8.6723616, 49.3986861 ], [ 8.6727633, 49.3986484 ], [ 8.6731686, 49.3986365 ], [ 8.6735738, 49.3986507 ], [ 8.6739749, 49.3986907 ], [ 8.6743681, 49.3987561 ], [ 8.6747495, 49.3988464 ], [ 8.6751155, 49.3989607 ], [ 8.6754627, 49.3990978 ], [ 8.6757875, 49.3992565 ], [ 8.676087, 49.3994351 ], [ 8.6763582, 49.3996321 ], [ 8.6765985, 49.3998455 ], [ 8.6768057, 49.4000732 ] ] ], [ [ [ 8.7177108, 49.4083176 ], [ 8.717883, 49.4085574 ], [ 8.7180183, 49.4088071 ], [ 8.7181154, 49.4090642 ], [ 8.7181734, 49.4093263 ], [ 8.7181918, 49.4095909 ], [ 8.7181704, 49.4098553 ], [ 8.7181094, 49.4101171 ], [ 8.7180093, 49.4103737 ], [ 8.7178711, 49.4106227 ], [ 8.7176962, 49.4108617 ], [ 8.7174863, 49.4110883 ], [ 8.7172433, 49.4113004 ], [ 8.7169696, 49.411496 ], [ 8.7166679, 49.4116731 ], [ 8.7163489, 49.4118262 ], [ 8.7165265, 49.4119551 ], [ 8.7167671, 49.4121684 ], [ 8.7169744, 49.412396 ], [ 8.7171466, 49.4126359 ], [ 8.7172819, 49.4128855 ], [ 8.717379, 49.4131426 ], [ 8.7174371, 49.4134047 ], [ 8.7174555, 49.4136693 ], [ 8.7174341, 49.4139337 ], [ 8.717373, 49.4141955 ], [ 8.7172729, 49.4144522 ], [ 8.7171347, 49.4147012 ], [ 8.7169598, 49.4149401 ], [ 8.7167498, 49.4151668 ], [ 8.7165068, 49.4153789 ], [ 8.7162331, 49.4155744 ], [ 8.7159313, 49.4157515 ], [ 8.7156044, 49.4159085 ], [ 8.7152555, 49.4160437 ], [ 8.7148879, 49.4161561 ], [ 8.7145052, 49.4162443 ], [ 8.7141111, 49.4163077 ], [ 8.7137094, 49.4163456 ], [ 8.7133039, 49.4163576 ], [ 8.7128985, 49.4163436 ], [ 8.7124973, 49.4163037 ], [ 8.7121039, 49.4162384 ], [ 8.7117223, 49.4161482 ], [ 8.711356, 49.4160341 ], [ 8.7110087, 49.4158971 ], [ 8.7106836, 49.4157385 ], [ 8.7103839, 49.4155599 ], [ 8.7101124, 49.415363 ], [ 8.7098719, 49.4151497 ], [ 8.7096646, 49.414922 ], [ 8.7094924, 49.4146822 ], [ 8.7093572, 49.4144325 ], [ 8.7092601, 49.4141754 ], [ 8.7092021, 49.4139133 ], [ 8.7091837, 49.4136488 ], [ 8.7092052, 49.4133843 ], [ 8.7092663, 49.4131225 ], [ 8.7093664, 49.4128659 ], [ 8.7095046, 49.4126169 ], [ 8.7096796, 49.412378 ], [ 8.7098896, 49.4121513 ], [ 8.7101326, 49.4119392 ], [ 8.7104063, 49.4117437 ], [ 8.7107081, 49.4115666 ], [ 8.7110271, 49.4114135 ], [ 8.7108494, 49.4112846 ], [ 8.7106089, 49.4110713 ], [ 8.7104016, 49.4108437 ], [ 8.7102295, 49.4106038 ], [ 8.7100942, 49.4103542 ], [ 8.7099971, 49.410097 ], [ 8.7099391, 49.4098349 ], [ 8.7099208, 49.4095704 ], [ 8.7099422, 49.409306 ], [ 8.7100033, 49.4090442 ], [ 8.7101034, 49.4087875 ], [ 8.7102416, 49.4085385 ], [ 8.7104166, 49.4082996 ], [ 8.7106265, 49.408073 ], [ 8.7108695, 49.4078609 ], [ 8.7111432, 49.4076653 ], [ 8.711445, 49.4074882 ], [ 8.7117718, 49.4073313 ], [ 8.7121207, 49.407196 ], [ 8.7124883, 49.4070837 ], [ 8.7128709, 49.4069955 ], [ 8.7132649, 49.4069321 ], [ 8.7136666, 49.4068942 ], [ 8.714072, 49.4068822 ], [ 8.7144772, 49.4068962 ], [ 8.7148784, 49.4069361 ], [ 8.7152717, 49.4070014 ], [ 8.7156533, 49.4070916 ], [ 8.7160195, 49.4072057 ], [ 8.7163668, 49.4073427 ], [ 8.7166919, 49.4075012 ], [ 8.7169915, 49.4076798 ], [ 8.717263, 49.4078767 ], [ 8.7175035, 49.40809 ], [ 8.7177108, 49.4083176 ] ] ], [ [ [ 8.6784286, 49.4205204 ], [ 8.6786006, 49.4207602 ], [ 8.6787358, 49.4210099 ], [ 8.6788327, 49.4212671 ], [ 8.6788906, 49.4215292 ], [ 8.6789088, 49.4217938 ], [ 8.6788916, 49.4220034 ], [ 8.6706515, 49.4220023 ], [ 8.6706356, 49.4217705 ], [ 8.6706573, 49.4215061 ], [ 8.6707187, 49.4212443 ], [ 8.670819, 49.4209877 ], [ 8.6709574, 49.4207387 ], [ 8.6711326, 49.4204998 ], [ 8.6713428, 49.4202733 ], [ 8.671586, 49.4200613 ], [ 8.6718599, 49.4198658 ], [ 8.6721619, 49.4196889 ], [ 8.672489, 49.419532 ], [ 8.6728381, 49.4193969 ], [ 8.6732058, 49.4192847 ], [ 8.6735885, 49.4191966 ], [ 8.6739827, 49.4191333 ], [ 8.6743845, 49.4190956 ], [ 8.67479, 49.4190838 ], [ 8.6751954, 49.4190979 ], [ 8.6755966, 49.4191379 ], [ 8.67599, 49.4192033 ], [ 8.6763716, 49.4192936 ], [ 8.6767378, 49.4194079 ], [ 8.6770851, 49.419545 ], [ 8.6774101, 49.4197036 ], [ 8.6777097, 49.4198823 ], [ 8.677981, 49.4200793 ], [ 8.6782214, 49.4202926 ], [ 8.6784286, 49.4205204 ] ] ] ] } },
{ "type": "Feature", "properties": { "index": "1", "label": "Beyond 300 m", "color": "#d9d9d9" }, "geometry": { "type": "MultiPolygon", "coordinates": [ [ [ [ 8.66, 49.422 ], [ 8.66, 49.398 ], [ 8.72, 49.398 ], [ 8.72, 49.422 ], [ 8.6788917, 49.4220024 ], [ 8.6789088, 49.4217938 ], [ 8.6788906, 49.4215292 ], [ 8.6788327, 49.4212671 ], [ 8.6787358, 49.4210099 ], [ 8.6786006, 49.4207602 ], [ 8.6784286, 49.4205204 ], [ 8.6782214, 49.4202926 ], [ 8.677981, 49.4200793 ], [ 8.6777097, 49.4198823 ], [ 8.6774101, 49.4197036 ], [ 8.6770851, 49.419545 ], [ 8.6767378, 49.4194079 ], [ 8.6763716, 49.4192936 ], [ 8.67599, 49.4192033 ], [ 8.6755966, 49.4191379 ], [ 8.6751954, 49.4190979 ], [ 8.67479, 49.4190838 ], [ 8.6743845, 49.4190956 ], [ 8.6739827, 49.4191333 ], [ 8.6735885, 49.4191966 ], [ 8.6732058, 49.4192847 ], [ 8.6728381, 49.4193969 ], [ 8.672489, 49.419532 ], [ 8.6721619, 49.4196889 ], [ 8.6718599, 49.4198658 ], [ 8.671586, 49.4200613 ], [ 8.6713428, 49.4202733 ], [ 8.6711326, 49.4204998 ], [ 8.6709574, 49.4207387 ], [ 8.670819, 49.4209877 ], [ 8.6707187, 49.4212443 ], [ 8.6706573, 49.4215061 ], [ 8.6706356, 49.4217705 ], [ 8.6706515, 49.4220023 ], [ 8.66, 49.422 ] ], [ [ 8.677286, 49.4009516 ], [ 8.6772314, 49.400919 ], [ 8.6772095, 49.40082 ], [ 8.6771126, 49.4005628 ], [ 8.6769776, 49.4003131 ], [ 8.6768057, 49.4000732 ], [ 8.6765985, 49.3998455 ], [ 8.6763582, 49.3996321 ], [ 8.676087, 49.3994351 ], [ 8.6757875, 49.3992565 ], [ 8.6754627, 49.3990978 ], [ 8.6751155, 49.3989607 ], [ 8.6747495, 49.3988464 ], [ 8.6743681, 49.3987561 ], [ 8.6739749, 49.3986907 ], [ 8.6735738, 49.3986507 ], [ 8.6731686, 49.3986365 ], [ 8.6727633, 49.3986484 ], [ 8.6723616, 49.3986861 ], [ 8.6719676, 49.3987493 ], [ 8.671585, 49.3988375 ], [ 8.6712174, 49.3989497 ], [ 8.6708685, 49.3990848 ], [ 8.6705415, 49.3992416 ], [ 8.6702397, 49.3994186 ], [ 8.6699659, 49.399614 ], [ 8.6697228, 49.3998261 ], [ 8.6695126, 49.4000526 ], [ 8.6693375, 49.4002915 ], [ 8.6691992, 49.4005404 ], [ 8.6690989, 49.400797 ], [ 8.6690376, 49.4010588 ], [ 8.6690159, 49.4013232 ], [ 8.6690301, 49.4015304 ], [ 8.6690269, 49.4015439 ], [ 8.6690052, 49.4018083 ], [ 8.6690234, 49.4020729 ], [ 8.6690811, 49.402335 ], [ 8.669178, 49.4025922 ], [ 8.669313, 49.4028419 ], [ 8.6694849, 49.4030818 ], [ 8.669692, 49.4033095 ], [ 8.6699323, 49.4035229 ], [ 8.6702035, 49.4037199 ], [ 8.670503, 49.4038986 ], [ 8.6705608, 49.4039268 ], [ 8.6706944, 49.4041132 ], [ 8.6707275, 49.4041496 ], [ 8.6707336, 49.4041581 ], [ 8.6709407, 49.4043858 ], [ 8.671181, 49.4045992 ], [ 8.6714522, 49.4047962 ], [ 8.6717517, 49.4049749 ], [ 8.6720766, 49.4051336 ], [ 8.6724238, 49.4052707 ], [ 8.6727898, 49.405385 ], [ 8.6731713, 49.4054753 ], [ 8.6735646, 49.4055407 ], [ 8.6739657, 49.4055807 ], [ 8.674371, 49.4055949 ], [ 8.6747764, 49.405583 ], [ 8.675178, 49.4055453 ], [ 8.6755721, 49.405482 ], [ 8.6759548, 49.4053939 ], [ 8.6763224, 49.4052817 ], [ 8.6766713, 49.4051465 ], [ 8.6769983, 49.4049897 ], [ 8.6773002, 49.4048127 ], [ 8.677574, 49.4046172 ], [ 8.6778171, 49.4044052 ], [ 8.6780272, 49.4041787 ], [ 8.6782023, 49.4039397 ], [ 8.6783406, 49.4036908 ], [ 8.6784409, 49.4034342 ], [ 8.6785021, 49.4031724 ], [ 8.6785238, 49.402908 ], [ 8.6785056, 49.4026434 ], [ 8.6784478, 49.4023813 ], [ 8.6783508, 49.4021242 ], [ 8.6782158, 49.4018744 ], [ 8.6780438, 49.4016346 ], [ 8.6780107, 49.4015982 ], [ 8.6780046, 49.4015897 ], [ 8.6777975, 49.401362 ], [ 8.6775572, 49.4011486 ], [ 8.677286, 49.4009516 ] ], [ [ 8.7181918, 49.4095909 ], [ 8.7181734, 49.4093263 ], [ 8.7181154, 49.4090642 ], [ 8.7180183, 49.4088071 ], [ 8.717883, 49.4085574 ], [ 8.7177108, 49.4083176 ], [ 8.7175035, 49.40809 ], [ 8.717263, 49.4078767 ], [ 8.7169915, 49.4076798 ], [ 8.7166919, 49.4075012 ], [ 8.7163668, 49.4073427 ], [ 8.7160195, 49.4072057 ], [ 8.7156533, 49.4070916 ], [ 8.7152717, 49.4070014 ], [ 8.7148784, 49.4069361 ], [ 8.7144772, 49.4068962 ], [ 8.714072, 49.4068822 ], [ 8.7136666, 49.4068942 ], [ 8.7132649, 49.4069321 ], [ 8.7128709, 49.4069955 ], [ 8.7124883, 49.4070837 ], [ 8.7121207, 49.407196 ], [ 8.7117718, 49.4073313 ], [ 8.711445, 49.4074882 ], [ 8.7111432, 49.4076653 ], [ 8.7108695, 49.4078609 ], [ 8.7106265, 49.408073 ], [ 8.7104166, 49.4082996 ], [ 8.7102416, 49.4085385 ], [ 8.7101034, 49.4087875 ], [ 8.7100033, 49.4090442 ], [ 8.7099422, 49.409306 ], [ 8.7099208, 49.4095704 ], [ 8.7099391, 49.4098349 ], [ 8.7099971, 49.410097 ], [ 8.7100942, 49.4103542 ], [ 8.7102295, 49.4106038 ], [ 8.7104016, 49.4108437 ], [ 8.7106089, 49.4110713 ], [ 8.7108494, 49.4112846 ], [ 8.7110271, 49.4114135 ], [ 8.7107081, 49.4115666 ], [ 8.7104063, 49.4117437 ], [ 8.7101326, 49.4119392 ], [ 8.7098896, 49.4121513 ], [ 8.7096796, 49.412378 ], [ 8.7095046, 49.4126169 ], [ 8.7093664, 49.4128659 ], [ 8.7092663, 49.4131225 ], [ 8.7092052, 49.4133843 ], [ 8.7091837, 49.4136488 ], [ 8.7092021, 49.4139133 ], [ 8.7092601, 49.4141754 ], [ 8.7093572, 49.4144325 ], [ 8.7094924, 49.4146822 ], [ 8.7096646, 49.414922 ], [ 8.7098719, 49.4151497 ], [ 8.7101124, 49.415363 ], [ 8.7103839, 49.4155599 ], [ 8.7106836, 49.4157385 ], [ 8.7110087, 49.4158971 ], [ 8.711356, 49.4160341 ], [ 8.7117223, 49.4161482 ], [ 8.7121039, 49.4162384 ], [ 8.7124973, 49.4163037 ], [ 8.7128985, 49.4163436 ], [ 8.7133039, 49.4163576 ], [ 8.7137094, 49.4163456 ], [ 8.7141111, 49.4163077 ], [ 8.7145052, 49.4162443 ], [ 8.7148879, 49.4161561 ], [ 8.7152555, 49.4160437 ], [ 8.7156044, 49.4159085 ], [ 8.7159313, 49.4157515 ], [ 8.7162331, 49.4155744 ], [ 8.7165068, 49.4153789 ], [ 8.7167498, 49.4151668 ], [ 8.7169598, 49.4149401 ], [ 8.7171347, 49.4147012 ], [ 8.7172729, 49.4144522 ], [ 8.717373, 49.4141955 ], [ 8.7174341, 49.4139337 ], [ 8.7174555, 49.4136693 ], [ 8.7174371, 49.4134047 ], [ 8.717379, 49.4131426 ], [ 8.7172819, 49.4128855 ], [ 8.7171466, 49.4126359 ], [ 8.7169744, 49.412396 ], [ 8.7167671, 49.4121684 ], [ 8.7165265, 49.4119551 ], [ 8.7163489, 49.4118262 ], [ 8.7166679, 49.4116731 ], [ 8.7169696, 49.411496 ], [ 8.7172433, 49.4113004 ], [ 8.7174863, 49.4110883 ], [ 8.7176962, 49.4108617 ], [ 8.7178711, 49.4106227 ], [ 8.7180093, 49.4103737 ], [ 8.7181094, 49.4101171 ], [ 8.7181704, 49.4098553 ], [ 8.7181918, 49.4095909 ] ] ], [ [ [ 8.6788917, 49.4220024 ], [ 8.6788916, 49.4220034 ], [ 8.6736944, 49.4220027 ], [ 8.6788917, 49.4220024 ] ] ] ] } }
]
}
