{
"type": "FeatureCollection",
"features": [
{ "type": "Feature", "properties": { "index": "0", "label": "Within 1500 m by bike", "color": "#2b8cbe" }, "geometry": { "type": "Polygon", "coordinates": [ [ [ 8.6953636, 49.4205158 ], [ 8.695455, 49.4218385 ], [ 8.6954415, 49.4220038 ], [ 8.66, 49.422 ], [ 8.66, 49.398 ], [ 8.6936403, 49.3980038 ], [ 8.6941977, 49.3990338 ], [ 8.6946827, 49.4003195 ], [ 8.6949723, 49.40163 ], [ 8.6950637, 49.4029528 ], [ 8.6949559, 49.404275 ], [ 8.6948974, 49.4045257 ], [ 8.6949846, 49.4043686 ], [ 8.6958595, 49.4031739 ], [ 8.6969096, 49.402041 ], [ 8.6981247, 49.4009807 ], [ 8.6994932, 49.4000031 ], [ 8.7010018, 49.3991178 ], [ 8.7026361, 49.3983333 ], [ 8.7034878, 49.3980031 ], [ 8.72, 49.398 ], [ 8.72, 49.422 ], [ 8.6970853, 49.4220037 ], [ 8.696079, 49.4211111 ], [ 8.695308, 49.4202642 ], [ 8.6953636, 49.4205158 ] ], [ [ 8.6934578, 49.4081119 ], [ 8.6925827, 49.4093065 ], [ 8.6915324, 49.4104394 ], [ 8.6903169, 49.4114997 ], [ 8.6893287, 49.4122052 ], [ 8.6894574, 49.4122819 ], [ 8.690814, 49.4132667 ], [ 8.6920162, 49.4143334 ], [ 8.6927871, 49.4151803 ], [ 8.6927315, 49.4149287 ], [ 8.6926402, 49.413606 ], [ 8.692748, 49.4122838 ], [ 8.6930539, 49.4109748 ], [ 8.6934147, 49.410051 ], [ 8.6933786, 49.4095277 ], [ 8.6934864, 49.4082055 ], [ 8.693545, 49.4079548 ], [ 8.6934578, 49.4081119 ] ] ] } },
{ "type": "Feature", "properties": { "index": "1", "label": "Beyond 1500 m", "color": "#d9d9d9" }, "geometry": { "type": "MultiPolygon", "coordinates": [ [ [ [ 8.6950637, 49.4029528 ], [ 8.6949723, 49.40163 ], [ 8.6946827, 49.4003195 ], [ 8.6941977, 49.3990338 ], [ 8.6936403, 49.3980038 ], [ 8.72, 49.398 ], [ 8.7034878, 49.3980031 ], [ 8.7026361, 49.3983333 ], [ 8.7010018, 49.3991178 ], [ 8.6994932, 49.4000031 ], [ 8.6981247, 49.4009807 ], [ 8.6969096, 49.402041 ], [ 8.6958595, 49.4031739 ], [ 8.6949846, 49.4043686 ], [ 8.6948974, 49.4045257 ], [ 8.6949559, 49.404275 ], [ 8.6950637, 49.4029528 ] ] ], [ [ [ 8.690814, 49.4132667 ], [ 8.6894574, 49.4122819 ], [ 8.6893287, 49.4122052 ], [ 8.6903169, 49.4114997 ], [ 8.6915324, 49.4104394 ], [ 8.6925827, 49.4093065 ], [ 8.6934578, 49.4081119 ], [ 8.693545, 49.4079548 ], [ 8.6934864, 49.4082055 ], [ 8.6933786, 49.4095277 ], [ 8.6934147, 49.410051 ], [ 8.6930539, 49.4109748 ], [ 8.692748, 49.4122838 ], [ 8.6926402, 49.413606 ], [ 8.6927315, 49.4149287 ], [ 8.6927871, 49.4151803 ], [ 8.6920162, 49.4143334 ], [ 8.690814, 49.4132667 ] ] ], [ [ [ 8.695455, 49.4218385 ], [ 8.6953636, 49.4205158 ], [ 8.695308, 49.4202642 ], [ 8.696079, 49.4211111 ], [ 8.6970811, 49.422 ], [ 8.6954419, 49.422 ], [ 8.695455, 49.4218385 ] ] ], [ [ [ 8.72, 49.422 ], [ 8.6970853, 49.4220037 ], [ 8.6970811, 49.422 ], [ 8.72, 49.422 ] ] ], [ [ [ 8.6954415, 49.4220038 ], [ 8.66, 49.422 ], [ 8.6954419, 49.422 ], [ 8.6954415, 49.4220038 ] ] ] ] } }
]
}
