{
"type": "FeatureCollection",
"features": [
{ "type": "Feature", "properties": { "index": "0", "@osmId": "way/90406432", "name": "Heidelberg Suites", "opening_hours": null, "label": "Private swimming pools", "color": "#4292c6" }, "geometry": { "type": "Point", "coordinates": [ 8.7066565, 49.4151689 ] } },
{ "type": "Feature", "properties": { "index": "1", "@osmId": "way/1005094209", "name": null, "opening_hours": null, "label": "Private swimming pools", "color": "#4292c6" }, "geometry": { "type": "Point", "coordinates": [ 8.7121709, 49.4173705 ] } },
{ "type": "Feature", "properties": { "index": "2", "@osmId": "way/1005094214", "name": null, "opening_hours": null, "label": "Private swimming pools", "color": "#4292c6" }, "geometry": { "type": "Point", "coordinates": [ 8.710571, 49.4061503 ] } },
{ "type": "Feature", "properties": { "index": "3", "@osmId": "way/1005094215", "name": null, "opening_hours": null, "label": "Private swimming pools", "color": "#4292c6" }, "geometry": { "type": "Point", "coordinates": [ 8.710996, 49.4059727 ] } },
{ "type": "Feature", "properties": { "index": "4", "@osmId": "way/1051815025", "name": null, "opening_hours": null, "label": "Private swimming pools", "color": "#4292c6" }, "geometry": { "type": "Point", "coordinates": [ 8.7121439, 49.4129714 ] } },
{ "type": "Feature", "properties": { "index": "5", "@osmId": "way/1223401619", "name": null, "opening_hours": null, "label": "Private swimming pools", "color": "#4292c6" }, "geometry": { "type": "Point", "coordinates": [ 8.7106028, 49.4157229 ] } },
{ "type": "Feature", "properties": { "index": "6", "@osmId": "way/87498377", "name": null, "opening_hours": null, "label": "Private swimming pools", "color": "#4292c6" }, "geometry": { "type": "Point", "coordinates": [ 8.6801634, 49.4093622 ] } },
{ "type": "Feature", "properties": { "index": "7", "@osmId": "way/87498379", "name": null, "opening_hours": null, "label": "Private swimming pools", "color": "#4292c6" }, "geometry": { "type": "Point", "coordinates": [ 8.6801619, 49.4092105 ] } },
{ "type": "Feature", "properties": { "index": "8", "@osmId": "way/87498386", "name": null, "opening_hours": null, "label": "Private swimming pools", "color": "#4292c6" }, "geometry": { "type": "Point", "coordinates": [ 8.6804068, 49.4096468 ] } },
{ "type": "Feature", "properties": { "index": "9", "@osmId": "way/372764513", "name": null, "opening_hours": null, "label": "Private swimming pools", "color": "#4292c6" }, "geometry": { "type": "Point", "coordinates": [ 8.6805033, 49.4095928 ] } },
{ "type": "Feature", "properties": { "index": "10", "@osmId": "way/810070492", "name": null, "opening_hours": null, "label": "Private swimming pools", "color": "#4292c6" }, "geometry": { "type": "Point", "coordinates": [ 8.6951942, 49.4003521 ] } },
{ "type": "Feature", "properties": { "index": "11", "@osmId": "way/810070493", "name": null, "opening_hours": null, "label": "Private swimming pools", "color": "#4292c6" }, "geometry": { "type": "Point", "coordinates": [ 8.6950876, 49.4008197 ] } },
{ "type": "Feature", "properties": { "index": "12", "@osmId": "way/810070494", "name": null, "opening_hours": null, "label": "Private swimming pools", "color": "#4292c6" }, "geometry": { "type": "Point", "coordinates": [ 8.6952248, 49.4012157 ] } },
{ "type": "Feature", "properties": { "index": "13", "@osmId": "way/1473873551", "name": null, "opening_hours": null, "label": "Private swimming pools", "color": "#4292c6" }, "geometry": { "type": "Point", "coordinates": [ 8.6956412, 49.4156359 ] } },
{ "type": "Feature", "properties": { "index": "14", "@osmId": "way/90242418", "name": "Pension Berger", "opening_hours": null, "label": "Private swimming pools", "color": "#4292c6" }, "geometry": { "type": "Point", "coordinates": [ 8.6889694, 49.4180706 ] } },
{ "type": "Feature", "properties": { "index": "15", "@osmId": "way/96690362", "name": "Marriott Heidelberg", "opening_hours": null, "label": "Private swimming pools", "color": "#4292c6" }, "geometry": { "type": "Point", "coordinates": [ 8.6725531, 49.4093027 ] } },
{ "type": "Feature", "properties": { "index": "16", "@osmId": "way/1172350017", "name": null, "opening_hours": null, "label": "Private swimming pools", "color": "#4292c6" }, "geometry": { "type": "Point", "coordinates": [ 8.6937855, 49.4194765 ] } },
{ "type": "Feature", "properties": { "index": "17", "@osmId": "way/1172350018", "name": null, "opening_hours": null, "label": "Private swimming pools", "color": "#4292c6" }, "geometry": { "type": "Point", "coordinates": [ 8.6918212, 49.4214341 ] } },
{ "type": "Feature", "properties": { "index": "18", "@osmId": "way/1172350019", "name": null, "opening_hours": null, "label": "Private swimming pools", "color": "#4292c6" }, "geometry": { "type": "Point", "coordinates": [ 8.6921317, 49.4202663 ] } },
{ "type": "Feature", "properties": { "index": "19", "@osmId": "way/1172350022", "name": null, "opening_hours": null, "label": "Private swimming pools", "color": "#4292c6" }, "geometry": { "type": "Point", "coordinates": [ 8.6933403, 49.4182295 ] } },
{ "type": "Feature", "properties": { "index": "20", "@osmId": "way/1172350023", "name": null, "opening_hours": null, "label": "Private swimming pools", "color": "#4292c6" }, "geometry": { "type": "Point", "coordinates": [ 8.6960613, 49.4195067 ] } },
{ "type": "Feature", "properties": { "index": "21", "@osmId": "way/1172350024", "name": null, "opening_hours": null, "label": "Private swimming pools", "color": "#4292c6" }, "geometry": { "type": "Point", "coordinates": [ 8.6949935, 49.420989 ] } },
{ "type": "Feature", "properties": { "index": "22", "@osmId": "way/1172350026", "name": null, "opening_hours": null, "label": "Private swimming pools", "color": "#4292c6" }, "geometry": { "type": "Point", "coordinates": [ 8.6931164, 49.4218568 ] } },
{ "type": "Feature", "properties": { "index": "23", "@osmId": "way/1301765527", "name": null, "opening_hours": null, "label": "Private swimming pools", "color": "#4292c6" }, "geometry": { "type": "Point", "coordinates": [ 8.684603, 49.4181917 ] } },
{ "type": "Feature", "properties": { "index": "24", "@osmId": "way/1315690620", "name": null, "opening_hours": null, "label": "Private swimming pools", "color": "#4292c6" }, "geometry": { "type": "Point", "coordinates": [ 8.6786513, 49.4175874 ] } },
{ "type": "Feature", "properties": { "index": "25", "@osmId": "way/1462098252", "name": null, "opening_hours": null, "label": "Private swimming pools", "color": "#4292c6" }, "geometry": { "type": "Point", "coordinates": [ 8.6789228, 49.4121115 ] } }
]
}
