{
"type": "FeatureCollection",
"features": [
{ "type": "Feature", "properties": { "index": "0", "label": "Within 300 m on foot", "color": "#2b8cbe" }, "geometry": { "type": "MultiPolygon", "coordinates": [ [ [ [ 8.6827989, 49.4071318 ], [ 8.6830984, 49.4073105 ], [ 8.6833697, 49.4075074 ], [ 8.6836101, 49.4077208 ], [ 8.6838173, 49.4079485 ], [ 8.6838871, 49.4080459 ], [ 8.6839515, 49.4081031 ], [ 8.6841587, 49.4083308 ], [ 8.6843307, 49.4085706 ], [ 8.6844658, 49.4088203 ], [ 8.6845627, 49.4090775 ], [ 8.6846206, 49.4093396 ], [ 8.6846388, 49.4096042 ], [ 8.6846172, 49.4098686 ], [ 8.684556, 49.4101304 ], [ 8.6844557, 49.410387 ], [ 8.6843174, 49.4106359 ], [ 8.6841424, 49.4108749 ], [ 8.6839322, 49.4111014 ], [ 8.6836891, 49.4113135 ], [ 8.6834153, 49.4115089 ], [ 8.6831134, 49.4116859 ], [ 8.6830892, 49.4116976 ], [ 8.6830169, 49.41174 ], [ 8.6830145, 49.4117411 ], [ 8.6830403, 49.4118584 ], [ 8.6830585, 49.4121229 ], [ 8.6830369, 49.4123873 ], [ 8.6829757, 49.4126491 ], [ 8.6828754, 49.4129057 ], [ 8.6827371, 49.4131547 ], [ 8.682562, 49.4133936 ], [ 8.6823519, 49.4136202 ], [ 8.6821087, 49.4138322 ], [ 8.6818349, 49.4140277 ], [ 8.681533, 49.4142047 ], [ 8.681206, 49.4143615 ], [ 8.6808569, 49.4144967 ], [ 8.6804893, 49.4146089 ], [ 8.6801066, 49.4146971 ], [ 8.6797124, 49.4147603 ], [ 8.6793107, 49.4147981 ], [ 8.6789052, 49.4148099 ], [ 8.6784999, 49.4147958 ], [ 8.6780986, 49.4147559 ], [ 8.6777053, 49.4146904 ], [ 8.6773238, 49.4146001 ], [ 8.6769576, 49.4144859 ], [ 8.6766104, 49.4143488 ], [ 8.6762854, 49.4141901 ], [ 8.6759858, 49.4140114 ], [ 8.6757145, 49.4138145 ], [ 8.6754742, 49.4136011 ], [ 8.675267, 49.4133734 ], [ 8.6750951, 49.4131335 ], [ 8.67496, 49.4128838 ], [ 8.674863, 49.4126266 ], [ 8.6748052, 49.4123645 ], [ 8.6747871, 49.4120999 ], [ 8.6748087, 49.4118355 ], [ 8.67487, 49.4115737 ], [ 8.6748879, 49.4115279 ], [ 8.6748358, 49.4115529 ], [ 8.6744868, 49.411688 ], [ 8.6741192, 49.4118002 ], [ 8.6737365, 49.4118883 ], [ 8.6733423, 49.4119516 ], [ 8.6729406, 49.4119893 ], [ 8.6725352, 49.4120011 ], [ 8.6721299, 49.411987 ], [ 8.6717287, 49.411947 ], [ 8.6713354, 49.4118815 ], [ 8.6709538, 49.4117912 ], [ 8.6705877, 49.411677 ], [ 8.6702405, 49.4115398 ], [ 8.6699156, 49.4113812 ], [ 8.6696161, 49.4112025 ], [ 8.6693448, 49.4110055 ], [ 8.6691045, 49.4107921 ], [ 8.6688974, 49.4105644 ], [ 8.6687254, 49.4103245 ], [ 8.6685904, 49.4100747 ], [ 8.6684935, 49.4098176 ], [ 8.6684357, 49.4095555 ], [ 8.6684176, 49.4092909 ], [ 8.6684393, 49.4090265 ], [ 8.6685006, 49.4087647 ], [ 8.6686009, 49.4085081 ], [ 8.6687393, 49.4082592 ], [ 8.6689145, 49.4080203 ], [ 8.6691246, 49.4077937 ], [ 8.6693678, 49.4075817 ], [ 8.6696417, 49.4073863 ], [ 8.6699435, 49.4072093 ], [ 8.6702706, 49.4070525 ], [ 8.6706196, 49.4069173 ], [ 8.6709872, 49.4068052 ], [ 8.6713699, 49.406717 ], [ 8.6717639, 49.4066538 ], [ 8.6721656, 49.4066161 ], [ 8.672571, 49.4066043 ], [ 8.6729763, 49.4066184 ], [ 8.6733775, 49.4066584 ], [ 8.6737707, 49.4067238 ], [ 8.6741522, 49.4068141 ], [ 8.6745183, 49.4069284 ], [ 8.6748655, 49.4070655 ], [ 8.6751904, 49.4072242 ], [ 8.6754899, 49.4074029 ], [ 8.6757612, 49.4075998 ], [ 8.6760015, 49.4078132 ], [ 8.6762087, 49.4080409 ], [ 8.6763267, 49.4082056 ], [ 8.676348, 49.4081672 ], [ 8.6765231, 49.4079283 ], [ 8.6767332, 49.4077018 ], [ 8.6769763, 49.4074897 ], [ 8.6772502, 49.4072943 ], [ 8.677552, 49.4071173 ], [ 8.677879, 49.4069604 ], [ 8.678228, 49.4068253 ], [ 8.6785956, 49.4067131 ], [ 8.6789783, 49.4066249 ], [ 8.6793723, 49.4065617 ], [ 8.679774, 49.4065239 ], [ 8.6801794, 49.406512 ], [ 8.6805847, 49.4065262 ], [ 8.6809858, 49.4065661 ], [ 8.6813791, 49.4066316 ], [ 8.6817606, 49.4067218 ], [ 8.6821267, 49.4068361 ], [ 8.6824739, 49.4069732 ], [ 8.6827989, 49.4071318 ] ] ], [ [ [ 8.6802504, 49.4150987 ], [ 8.6806165, 49.415213 ], [ 8.6809638, 49.4153501 ], [ 8.6812888, 49.4155087 ], [ 8.6815884, 49.4156874 ], [ 8.6818597, 49.4158844 ], [ 8.682063, 49.4160648 ], [ 8.6823195, 49.4159417 ], [ 8.6826685, 49.4158065 ], [ 8.6830362, 49.4156943 ], [ 8.6834189, 49.4156062 ], [ 8.6838131, 49.4155429 ], [ 8.6842148, 49.4155051 ], [ 8.6846203, 49.4154933 ], [ 8.6850256, 49.4155074 ], [ 8.6854269, 49.4155473 ], [ 8.6858202, 49.4156127 ], [ 8.6862018, 49.415703 ], [ 8.686568, 49.4158172 ], [ 8.6866366, 49.4158443 ], [ 8.6866857, 49.4158207 ], [ 8.6870347, 49.4156855 ], [ 8.6874024, 49.4155733 ], [ 8.6877851, 49.4154851 ], [ 8.6881792, 49.4154218 ], [ 8.688581, 49.4153841 ], [ 8.6889865, 49.4153722 ], [ 8.6893918, 49.4153862 ], [ 8.689793, 49.4154262 ], [ 8.6901863, 49.4154916 ], [ 8.6905679, 49.4155818 ], [ 8.6909342, 49.415696 ], [ 8.6912815, 49.4158331 ], [ 8.6913493, 49.4158662 ], [ 8.6914054, 49.4158445 ], [ 8.6915179, 49.4158101 ], [ 8.6915052, 49.4156249 ], [ 8.6915267, 49.4153605 ], [ 8.6915879, 49.4150987 ], [ 8.6916882, 49.4148421 ], [ 8.6918265, 49.4145931 ], [ 8.6920015, 49.4143542 ], [ 8.6922116, 49.4141276 ], [ 8.6924547, 49.4139156 ], [ 8.6927285, 49.4137201 ], [ 8.6930303, 49.413543 ], [ 8.6933573, 49.4133861 ], [ 8.6937063, 49.4132509 ], [ 8.6940739, 49.4131387 ], [ 8.6944566, 49.4130505 ], [ 8.6948507, 49.4129872 ], [ 8.6952524, 49.4129494 ], [ 8.6956579, 49.4129374 ], [ 8.6960632, 49.4129515 ], [ 8.6964644, 49.4129914 ], [ 8.6968577, 49.4130568 ], [ 8.6972393, 49.413147 ], [ 8.6976055, 49.4132612 ], [ 8.6979528, 49.4133982 ], [ 8.6982779, 49.4135568 ], [ 8.6985775, 49.4137355 ], [ 8.6988489, 49.4139324 ], [ 8.6990894, 49.4141457 ], [ 8.6992966, 49.4143734 ], [ 8.6994687, 49.4146132 ], [ 8.6996039, 49.4148629 ], [ 8.699701, 49.4151201 ], [ 8.6997589, 49.4153822 ], [ 8.6997772, 49.4156467 ], [ 8.6997557, 49.4159112 ], [ 8.6996946, 49.4161729 ], [ 8.6995944, 49.4164296 ], [ 8.6994561, 49.4166785 ], [ 8.6992811, 49.4169175 ], [ 8.699071, 49.4171441 ], [ 8.6988279, 49.4173562 ], [ 8.6987143, 49.4174373 ], [ 8.6989978, 49.4176063 ], [ 8.6992692, 49.4178032 ], [ 8.6995097, 49.4180165 ], [ 8.699717, 49.4182442 ], [ 8.6998891, 49.418484 ], [ 8.7000243, 49.4187337 ], [ 8.7001214, 49.4189909 ], [ 8.7001794, 49.419253 ], [ 8.7001977, 49.4195175 ], [ 8.7001761, 49.4197819 ], [ 8.700115, 49.4200437 ], [ 8.7000148, 49.4203004 ], [ 8.6998765, 49.4205493 ], [ 8.6997015, 49.4207883 ], [ 8.6994914, 49.4210149 ], [ 8.6992483, 49.4212269 ], [ 8.6990909, 49.4213393 ], [ 8.6990473, 49.4215261 ], [ 8.6989471, 49.4217827 ], [ 8.6988244, 49.4220036 ], [ 8.6877813, 49.4220039 ], [ 8.6877608, 49.4219497 ], [ 8.6877029, 49.4216875 ], [ 8.6876847, 49.421423 ], [ 8.6877063, 49.4211586 ], [ 8.6877675, 49.4208968 ], [ 8.6878572, 49.4206671 ], [ 8.6877523, 49.4206496 ], [ 8.6873707, 49.4205594 ], [ 8.6870045, 49.4204452 ], [ 8.6869358, 49.4204181 ], [ 8.6868867, 49.4204416 ], [ 8.6865377, 49.4205768 ], [ 8.68617, 49.420689 ], [ 8.6857872, 49.4207772 ], [ 8.685393, 49.4208405 ], [ 8.6849912, 49.4208783 ], [ 8.6845857, 49.4208901 ], [ 8.6841803, 49.420876 ], [ 8.6837791, 49.4208361 ], [ 8.6833857, 49.4207707 ], [ 8.6830041, 49.4206804 ], [ 8.6826378, 49.4205662 ], [ 8.6822905, 49.4204291 ], [ 8.6819655, 49.4202704 ], [ 8.6816659, 49.4200918 ], [ 8.6813945, 49.4198948 ], [ 8.6811913, 49.4197144 ], [ 8.6809347, 49.4198374 ], [ 8.6805856, 49.4199726 ], [ 8.680218, 49.4200848 ], [ 8.6798352, 49.420173 ], [ 8.679441, 49.4202362 ], [ 8.6790392, 49.420274 ], [ 8.6786337, 49.4202858 ], [ 8.6782283, 49.4202717 ], [ 8.677827, 49.4202318 ], [ 8.6774337, 49.4201663 ], [ 8.6770521, 49.420076 ], [ 8.6766859, 49.4199618 ], [ 8.6763386, 49.4198247 ], [ 8.6760136, 49.419666 ], [ 8.675714, 49.4194873 ], [ 8.6754427, 49.4192903 ], [ 8.6752023, 49.419077 ], [ 8.6749951, 49.4188492 ], [ 8.6748231, 49.4186094 ], [ 8.674688, 49.4183597 ], [ 8.6745911, 49.4181025 ], [ 8.6745333, 49.4178404 ], [ 8.6745151, 49.4175758 ], [ 8.6745368, 49.4173114 ], [ 8.6745981, 49.4170496 ], [ 8.6746984, 49.416793 ], [ 8.6748368, 49.4165441 ], [ 8.6750119, 49.4163052 ], [ 8.6752221, 49.4160786 ], [ 8.6754653, 49.4158666 ], [ 8.6757391, 49.4156711 ], [ 8.676041, 49.4154942 ], [ 8.6763681, 49.4153373 ], [ 8.6767171, 49.4152021 ], [ 8.6770848, 49.41509 ], [ 8.6774675, 49.4150018 ], [ 8.6778617, 49.4149386 ], [ 8.6782634, 49.4149008 ], [ 8.6786689, 49.414889 ], [ 8.6790742, 49.4149031 ], [ 8.6794755, 49.414943 ], [ 8.6798688, 49.4150085 ], [ 8.6802504, 49.4150987 ] ] ], [ [ [ 8.6986413, 49.3988619 ], [ 8.6988485, 49.3990896 ], [ 8.6990205, 49.3993295 ], [ 8.6991557, 49.3995791 ], [ 8.6992527, 49.3998363 ], [ 8.6993107, 49.4000984 ], [ 8.699329, 49.4003629 ], [ 8.6993074, 49.4006274 ], [ 8.6992869, 49.4007155 ], [ 8.6993413, 49.400962 ], [ 8.6993596, 49.4012265 ], [ 8.6993381, 49.401491 ], [ 8.699277, 49.4017528 ], [ 8.6991768, 49.4020094 ], [ 8.6990386, 49.4022584 ], [ 8.6988636, 49.4024973 ], [ 8.6986536, 49.4027239 ], [ 8.6984106, 49.402936 ], [ 8.6981369, 49.4031315 ], [ 8.6978351, 49.4033085 ], [ 8.6975082, 49.4034654 ], [ 8.6971593, 49.4036006 ], [ 8.6967918, 49.4037129 ], [ 8.6964092, 49.4038011 ], [ 8.6960151, 49.4038644 ], [ 8.6956135, 49.4039022 ], [ 8.6952081, 49.4039142 ], [ 8.6948029, 49.4039001 ], [ 8.6944017, 49.4038602 ], [ 8.6940085, 49.4037948 ], [ 8.693627, 49.4037046 ], [ 8.6932608, 49.4035904 ], [ 8.6929136, 49.4034533 ], [ 8.6925887, 49.4032947 ], [ 8.6922891, 49.4031161 ], [ 8.6920178, 49.4029191 ], [ 8.6917774, 49.4027058 ], [ 8.6915702, 49.4024781 ], [ 8.6913982, 49.4022382 ], [ 8.6912631, 49.4019885 ], [ 8.6911661, 49.4017314 ], [ 8.691142, 49.4016222 ], [ 8.6911259, 49.4015925 ], [ 8.6910289, 49.4013354 ], [ 8.690971, 49.4010733 ], [ 8.6909528, 49.4008087 ], [ 8.6909744, 49.4005443 ], [ 8.6910355, 49.4002825 ], [ 8.6910718, 49.4001897 ], [ 8.691081, 49.4000767 ], [ 8.6911422, 49.3998149 ], [ 8.6912424, 49.3995583 ], [ 8.6913806, 49.3993093 ], [ 8.6915556, 49.3990704 ], [ 8.6917657, 49.3988438 ], [ 8.6920087, 49.3986317 ], [ 8.6922824, 49.3984363 ], [ 8.6925842, 49.3982592 ], [ 8.692911, 49.3981023 ], [ 8.6931651, 49.3980038 ], [ 8.6972245, 49.3980037 ], [ 8.6975051, 49.3981144 ], [ 8.6978301, 49.398273 ], [ 8.6981296, 49.3984517 ], [ 8.6984009, 49.3986486 ], [ 8.6986413, 49.3988619 ] ] ], [ [ [ 8.714443, 49.4044821 ], [ 8.7146503, 49.4047097 ], [ 8.7148224, 49.4049495 ], [ 8.7149577, 49.4051992 ], [ 8.7150548, 49.4054563 ], [ 8.7151129, 49.4057184 ], [ 8.7151312, 49.405983 ], [ 8.7151098, 49.4062474 ], [ 8.7150487, 49.4065092 ], [ 8.7149486, 49.4067658 ], [ 8.7148105, 49.4070148 ], [ 8.7146356, 49.4072538 ], [ 8.7144256, 49.4074804 ], [ 8.7141826, 49.4076925 ], [ 8.713909, 49.4078881 ], [ 8.7136072, 49.4080652 ], [ 8.7132804, 49.4082221 ], [ 8.7129941, 49.4083331 ], [ 8.7128553, 49.4083997 ], [ 8.7125065, 49.408535 ], [ 8.7121389, 49.4086473 ], [ 8.7117563, 49.4087356 ], [ 8.7113622, 49.4087989 ], [ 8.7109606, 49.4088368 ], [ 8.7105551, 49.4088488 ], [ 8.7101499, 49.4088347 ], [ 8.7097486, 49.4087949 ], [ 8.7093554, 49.4087296 ], [ 8.7089738, 49.4086394 ], [ 8.7086076, 49.4085252 ], [ 8.7082603, 49.4083882 ], [ 8.7079352, 49.4082296 ], [ 8.7076356, 49.408051 ], [ 8.7073642, 49.4078541 ], [ 8.7071237, 49.4076408 ], [ 8.7069165, 49.4074132 ], [ 8.7067444, 49.4071733 ], [ 8.7066091, 49.4069236 ], [ 8.7065121, 49.4066665 ], [ 8.7064541, 49.4064044 ], [ 8.7064357, 49.4061399 ], [ 8.7064572, 49.4058754 ], [ 8.7065183, 49.4056136 ], [ 8.7066185, 49.405357 ], [ 8.7067567, 49.405108 ], [ 8.7069316, 49.4048691 ], [ 8.7071416, 49.4046425 ], [ 8.7073846, 49.4044304 ], [ 8.7076583, 49.4042348 ], [ 8.70796, 49.4040578 ], [ 8.7082869, 49.4039008 ], [ 8.7085731, 49.4037898 ], [ 8.7087119, 49.4037232 ], [ 8.7090607, 49.403588 ], [ 8.7094282, 49.4034757 ], [ 8.7098108, 49.4033874 ], [ 8.7102048, 49.4033241 ], [ 8.7106065, 49.4032862 ], [ 8.7110118, 49.4032742 ], [ 8.7114171, 49.4032882 ], [ 8.7118182, 49.4033281 ], [ 8.7122115, 49.4033934 ], [ 8.712593, 49.4034836 ], [ 8.7129592, 49.4035977 ], [ 8.7133065, 49.4037347 ], [ 8.7136315, 49.4038933 ], [ 8.7139311, 49.4040719 ], [ 8.7142025, 49.4042688 ], [ 8.714443, 49.4044821 ] ] ], [ [ [ 8.7153508, 49.4112674 ], [ 8.7155914, 49.4114807 ], [ 8.7157987, 49.4117084 ], [ 8.7159709, 49.4119482 ], [ 8.7161062, 49.4121979 ], [ 8.7162033, 49.412455 ], [ 8.7162613, 49.4127171 ], [ 8.7162797, 49.4129816 ], [ 8.7162583, 49.4132461 ], [ 8.7161972, 49.4135079 ], [ 8.7160971, 49.4137645 ], [ 8.715959, 49.4140135 ], [ 8.715784, 49.4142525 ], [ 8.7155741, 49.4144791 ], [ 8.715331, 49.4146912 ], [ 8.7150573, 49.4148867 ], [ 8.7147556, 49.4150638 ], [ 8.7146311, 49.4151236 ], [ 8.7146624, 49.4152065 ], [ 8.7146659, 49.4152223 ], [ 8.714807, 49.4152911 ], [ 8.7151067, 49.4154696 ], [ 8.7153781, 49.4156665 ], [ 8.7156187, 49.4158798 ], [ 8.715826, 49.4161075 ], [ 8.7159982, 49.4163473 ], [ 8.7161335, 49.416597 ], [ 8.7162307, 49.4168541 ], [ 8.7162887, 49.4171162 ], [ 8.7163071, 49.4173807 ], [ 8.7162857, 49.4176452 ], [ 8.7162246, 49.417907 ], [ 8.7161245, 49.4181636 ], [ 8.7159863, 49.4184126 ], [ 8.7158114, 49.4186516 ], [ 8.7156014, 49.4188782 ], [ 8.7153583, 49.4190903 ], [ 8.7150846, 49.4192858 ], [ 8.7147828, 49.4194629 ], [ 8.7144558, 49.4196199 ], [ 8.7141069, 49.4197552 ], [ 8.7137393, 49.4198675 ], [ 8.7133565, 49.4199557 ], [ 8.7129624, 49.4200191 ], [ 8.7125606, 49.420057 ], [ 8.7121551, 49.420069 ], [ 8.7117498, 49.420055 ], [ 8.7113484, 49.4200151 ], [ 8.7109551, 49.4199498 ], [ 8.7105734, 49.4198596 ], [ 8.7102071, 49.4197455 ], [ 8.7098597, 49.4196084 ], [ 8.7095346, 49.4194499 ], [ 8.7092349, 49.4192713 ], [ 8.7089635, 49.4190744 ], [ 8.7087229, 49.4188611 ], [ 8.7085156, 49.4186334 ], [ 8.7083434, 49.4183936 ], [ 8.7082082, 49.4181439 ], [ 8.7081111, 49.4178868 ], [ 8.7081076, 49.417871 ], [ 8.7079665, 49.4178022 ], [ 8.7078736, 49.4177469 ], [ 8.7078418, 49.4177542 ], [ 8.7074477, 49.4178175 ], [ 8.7070459, 49.4178554 ], [ 8.7066404, 49.4178674 ], [ 8.7062351, 49.4178533 ], [ 8.7058338, 49.4178135 ], [ 8.7054404, 49.4177481 ], [ 8.7050588, 49.4176579 ], [ 8.7046925, 49.4175438 ], [ 8.7043452, 49.4174067 ], [ 8.7040201, 49.4172481 ], [ 8.7037204, 49.4170695 ], [ 8.703449, 49.4168726 ], [ 8.7032085, 49.4166593 ], [ 8.7030012, 49.4164316 ], [ 8.7028291, 49.4161918 ], [ 8.7026939, 49.4159421 ], [ 8.7025968, 49.415685 ], [ 8.7025388, 49.4154229 ], [ 8.7025205, 49.4151583 ], [ 8.702542, 49.4148939 ], [ 8.7026031, 49.4146321 ], [ 8.7027033, 49.4143755 ], [ 8.7028416, 49.4141265 ], [ 8.7030165, 49.4138875 ], [ 8.7032266, 49.4136609 ], [ 8.7034696, 49.4134489 ], [ 8.7037434, 49.4132533 ], [ 8.7040452, 49.4130763 ], [ 8.7043721, 49.4129194 ], [ 8.7047211, 49.4127841 ], [ 8.7050887, 49.4126718 ], [ 8.7054713, 49.4125836 ], [ 8.7058654, 49.4125202 ], [ 8.7062671, 49.4124824 ], [ 8.7066726, 49.4124704 ], [ 8.7070779, 49.4124845 ], [ 8.7074791, 49.4125243 ], [ 8.7078724, 49.4125897 ], [ 8.708045, 49.4126305 ], [ 8.7080907, 49.4124348 ], [ 8.7081908, 49.4121782 ], [ 8.708329, 49.4119292 ], [ 8.708504, 49.4116902 ], [ 8.708714, 49.4114636 ], [ 8.708957, 49.4112515 ], [ 8.7092307, 49.411056 ], [ 8.7095325, 49.4108789 ], [ 8.7098594, 49.410722 ], [ 8.7102083, 49.4105867 ], [ 8.7105758, 49.4104744 ], [ 8.7109585, 49.4103861 ], [ 8.7113526, 49.4103228 ], [ 8.7117542, 49.4102849 ], [ 8.7121597, 49.4102729 ], [ 8.712565, 49.4102869 ], [ 8.7129662, 49.4103268 ], [ 8.7133595, 49.4103921 ], [ 8.7137411, 49.4104823 ], [ 8.7141073, 49.4105964 ], [ 8.7144547, 49.4107334 ], [ 8.7147797, 49.410892 ], [ 8.7150794, 49.4110705 ], [ 8.7153508, 49.4112674 ] ] ] ] } },
{ "type": "Feature", "properties": { "index": "1", "label": "Beyond 300 m", "color": "#d9d9d9" }, "geometry": { "type": "Polygon", "coordinates": [ [ [ 8.66, 49.422 ], [ 8.66, 49.398 ], [ 8.72, 49.398 ], [ 8.72, 49.422 ], [ 8.6988244, 49.4220036 ], [ 8.6877813, 49.4220039 ], [ 8.66, 49.422 ] ], [ [ 8.6838871, 49.4080459 ], [ 8.6838173, 49.4079485 ], [ 8.6836101, 49.4077208 ], [ 8.6833697, 49.4075074 ], [ 8.6830984, 49.4073105 ], [ 8.6827989, 49.4071318 ], [ 8.6824739, 49.4069732 ], [ 8.6821267, 49.4068361 ], [ 8.6817606, 49.4067218 ], [ 8.6813791, 49.4066316 ], [ 8.6809858, 49.4065661 ], [ 8.6805847, 49.4065262 ], [ 8.6801794, 49.406512 ], [ 8.679774, 49.4065239 ], [ 8.6793723, 49.4065617 ], [ 8.6789783, 49.4066249 ], [ 8.6785956, 49.4067131 ], [ 8.678228, 49.4068253 ], [ 8.677879, 49.4069604 ], [ 8.677552, 49.4071173 ], [ 8.6772502, 49.4072943 ], [ 8.6769763, 49.4074897 ], [ 8.6767332, 49.4077018 ], [ 8.6765231, 49.4079283 ], [ 8.676348, 49.4081672 ], [ 8.6763267, 49.4082056 ], [ 8.6762087, 49.4080409 ], [ 8.6760015, 49.4078132 ], [ 8.6757612, 49.4075998 ], [ 8.6754899, 49.4074029 ], [ 8.6751904, 49.4072242 ], [ 8.6748655, 49.4070655 ], [ 8.6745183, 49.4069284 ], [ 8.6741522, 49.4068141 ], [ 8.6737707, 49.4067238 ], [ 8.6733775, 49.4066584 ], [ 8.6729763, 49.4066184 ], [ 8.672571, 49.4066043 ], [ 8.6721656, 49.4066161 ], [ 8.6717639, 49.4066538 ], [ 8.6713699, 49.406717 ], [ 8.6709872, 49.4068052 ], [ 8.6706196, 49.4069173 ], [ 8.6702706, 49.4070525 ], [ 8.6699435, 49.4072093 ], [ 8.6696417, 49.4073863 ], [ 8.6693678, 49.4075817 ], [ 8.6691246, 49.4077937 ], [ 8.6689145, 49.4080203 ], [ 8.6687393, 49.4082592 ], [ 8.6686009, 49.4085081 ], [ 8.6685006, 49.4087647 ], [ 8.6684393, 49.4090265 ], [ 8.6684176, 49.4092909 ], [ 8.6684357, 49.4095555 ], [ 8.6684935, 49.4098176 ], [ 8.6685904, 49.4100747 ], [ 8.6687254, 49.4103245 ], [ 8.6688974, 49.4105644 ], [ 8.6691045, 49.4107921 ], [ 8.6693448, 49.4110055 ], [ 8.6696161, 49.4112025 ], [ 8.6699156, 49.4113812 ], [ 8.6702405, 49.4115398 ], [ 8.6705877, 49.411677 ], [ 8.6709538, 49.4117912 ], [ 8.6713354, 49.4118815 ], [ 8.6717287, 49.411947 ], [ 8.6721299, 49.411987 ], [ 8.6725352, 49.4120011 ], [ 8.6729406, 49.4119893 ], [ 8.6733423, 49.4119516 ], [ 8.6737365, 49.4118883 ], [ 8.6741192, 49.4118002 ], [ 8.6744868, 49.411688 ], [ 8.6748358, 49.4115529 ], [ 8.6748879, 49.4115279 ], [ 8.67487, 49.4115737 ], [ 8.6748087, 49.4118355 ], [ 8.6747871, 49.4120999 ], [ 8.6748052, 49.4123645 ], [ 8.674863, 49.4126266 ], [ 8.67496, 49.4128838 ], [ 8.6750951, 49.4131335 ], [ 8.675267, 49.4133734 ], [ 8.6754742, 49.4136011 ], [ 8.6757145, 49.4138145 ], [ 8.6759858, 49.4140114 ], [ 8.6762854, 49.4141901 ], [ 8.6766104, 49.4143488 ], [ 8.6769576, 49.4144859 ], [ 8.6773238, 49.4146001 ], [ 8.6777053, 49.4146904 ], [ 8.6780986, 49.4147559 ], [ 8.6784999, 49.4147958 ], [ 8.6789052, 49.4148099 ], [ 8.6793107, 49.4147981 ], [ 8.6797124, 49.4147603 ], [ 8.6801066, 49.4146971 ], [ 8.6804893, 49.4146089 ], [ 8.6808569, 49.4144967 ], [ 8.681206, 49.4143615 ], [ 8.681533, 49.4142047 ], [ 8.6818349, 49.4140277 ], [ 8.6821087, 49.4138322 ], [ 8.6823519, 49.4136202 ], [ 8.682562, 49.4133936 ], [ 8.6827371, 49.4131547 ], [ 8.6828754, 49.4129057 ], [ 8.6829757, 49.4126491 ], [ 8.6830369, 49.4123873 ], [ 8.6830585, 49.4121229 ], [ 8.6830403, 49.4118584 ], [ 8.6830145, 49.4117411 ], [ 8.6830169, 49.41174 ], [ 8.6830892, 49.4116976 ], [ 8.6831134, 49.4116859 ], [ 8.6834153, 49.4115089 ], [ 8.6836891, 49.4113135 ], [ 8.6839322, 49.4111014 ], [ 8.6841424, 49.4108749 ], [ 8.6843174, 49.4106359 ], [ 8.6844557, 49.410387 ], [ 8.684556, 49.4101304 ], [ 8.6846172, 49.4098686 ], [ 8.6846388, 49.4096042 ], [ 8.6846206, 49.4093396 ], [ 8.6845627, 49.4090775 ], [ 8.6844658, 49.4088203 ], [ 8.6843307, 49.4085706 ], [ 8.6841587, 49.4083308 ], [ 8.6839515, 49.4081031 ], [ 8.6838871, 49.4080459 ] ], [ [ 8.6993107, 49.4000984 ], [ 8.6992527, 49.3998363 ], [ 8.6991557, 49.3995791 ], [ 8.6990205, 49.3993295 ], [ 8.6988485, 49.3990896 ], [ 8.6986413, 49.3988619 ], [ 8.6984009, 49.3986486 ], [ 8.6981296, 49.3984517 ], [ 8.6978301, 49.398273 ], [ 8.6975051, 49.3981144 ], [ 8.6972245, 49.3980037 ], [ 8.6931651, 49.3980038 ], [ 8.692911, 49.3981023 ], [ 8.6925842, 49.3982592 ], [ 8.6922824, 49.3984363 ], [ 8.6920087, 49.3986317 ], [ 8.6917657, 49.3988438 ], [ 8.6915556, 49.3990704 ], [ 8.6913806, 49.3993093 ], [ 8.6912424, 49.3995583 ], [ 8.6911422, 49.3998149 ], [ 8.691081, 49.4000767 ], [ 8.6910718, 49.4001897 ], [ 8.6910355, 49.4002825 ], [ 8.6909744, 49.4005443 ], [ 8.6909528, 49.4008087 ], [ 8.690971, 49.4010733 ], [ 8.6910289, 49.4013354 ], [ 8.6911259, 49.4015925 ], [ 8.691142, 49.4016222 ], [ 8.6911661, 49.4017314 ], [ 8.6912631, 49.4019885 ], [ 8.6913982, 49.4022382 ], [ 8.6915702, 49.4024781 ], [ 8.6917774, 49.4027058 ], [ 8.6920178, 49.4029191 ], [ 8.6922891, 49.4031161 ], [ 8.6925887, 49.4032947 ], [ 8.6929136, 49.4034533 ], [ 8.6932608, 49.4035904 ], [ 8.693627, 49.4037046 ], [ 8.6940085, 49.4037948 ], [ 8.6944017, 49.4038602 ], [ 8.6948029, 49.4039001 ], [ 8.6952081, 49.4039142 ], [ 8.6956135, 49.4039022 ], [ 8.6960151, 49.4038644 ], [ 8.6964092, 49.4038011 ], [ 8.6967918, 49.4037129 ], [ 8.6971593, 49.4036006 ], [ 8.6975082, 49.4034654 ], [ 8.6978351, 49.4033085 ], [ 8.6981369, 49.4031315 ], [ 8.6984106, 49.402936 ], [ 8.6986536, 49.4027239 ], [ 8.6988636, 49.4024973 ], [ 8.6990386, 49.4022584 ], [ 8.6991768, 49.4020094 ], [ 8.699277, 49.4017528 ], [ 8.6993381, 49.401491 ], [ 8.6993596, 49.4012265 ], [ 8.6993413, 49.400962 ], [ 8.6992869, 49.4007155 ], [ 8.6993074, 49.4006274 ], [ 8.699329, 49.4003629 ], [ 8.6993107, 49.4000984 ] ], [ [ 8.7151129, 49.4057184 ], [ 8.7150548, 49.4054563 ], [ 8.7149577, 49.4051992 ], [ 8.7148224, 49.4049495 ], [ 8.7146503, 49.4047097 ], [ 8.714443, 49.4044821 ], [ 8.7142025, 49.4042688 ], [ 8.7139311, 49.4040719 ], [ 8.7136315, 49.4038933 ], [ 8.7133065, 49.4037347 ], [ 8.7129592, 49.4035977 ], [ 8.712593, 49.4034836 ], [ 8.7122115, 49.4033934 ], [ 8.7118182, 49.4033281 ], [ 8.7114171, 49.4032882 ], [ 8.7110118, 49.4032742 ], [ 8.7106065, 49.4032862 ], [ 8.7102048, 49.4033241 ], [ 8.7098108, 49.4033874 ], [ 8.7094282, 49.4034757 ], [ 8.7090607, 49.403588 ], [ 8.7087119, 49.4037232 ], [ 8.7085731, 49.4037898 ], [ 8.7082869, 49.4039008 ], [ 8.70796, 49.4040578 ], [ 8.7076583, 49.4042348 ], [ 8.7073846, 49.4044304 ], [ 8.7071416, 49.4046425 ], [ 8.7069316, 49.4048691 ], [ 8.7067567, 49.405108 ], [ 8.7066185, 49.405357 ], [ 8.7065183, 49.4056136 ], [ 8.7064572, 49.4058754 ], [ 8.7064357, 49.4061399 ], [ 8.7064541, 49.4064044 ], [ 8.7065121, 49.4066665 ], [ 8.7066091, 49.4069236 ], [ 8.7067444, 49.4071733 ], [ 8.7069165, 49.4074132 ], [ 8.7071237, 49.4076408 ], [ 8.7073642, 49.4078541 ], [ 8.7076356, 49.408051 ], [ 8.7079352, 49.4082296 ], [ 8.7082603, 49.4083882 ], [ 8.7086076, 49.4085252 ], [ 8.7089738, 49.4086394 ], [ 8.7093554, 49.4087296 ], [ 8.7097486, 49.4087949 ], [ 8.7101499, 49.4088347 ], [ 8.7105551, 49.4088488 ], [ 8.7109606, 49.4088368 ], [ 8.7113622, 49.4087989 ], [ 8.7117563, 49.4087356 ], [ 8.7121389, 49.4086473 ], [ 8.7125065, 49.408535 ], [ 8.7128553, 49.4083997 ], [ 8.7129941, 49.4083331 ], [ 8.7132804, 49.4082221 ], [ 8.7136072, 49.4080652 ], [ 8.713909, 49.4078881 ], [ 8.7141826, 49.4076925 ], [ 8.7144256, 49.4074804 ], [ 8.7146356, 49.4072538 ], [ 8.7148105, 49.4070148 ], [ 8.7149486, 49.4067658 ], [ 8.7150487, 49.4065092 ], [ 8.7151098, 49.4062474 ], [ 8.7151312, 49.405983 ], [ 8.7151129, 49.4057184 ] ], [ [ 8.7162033, 49.412455 ], [ 8.7161062, 49.4121979 ], [ 8.7159709, 49.4119482 ], [ 8.7157987, 49.4117084 ], [ 8.7155914, 49.4114807 ], [ 8.7153508, 49.4112674 ], [ 8.7150794, 49.4110705 ], [ 8.7147797, 49.410892 ], [ 8.7144547, 49.4107334 ], [ 8.7141073, 49.4105964 ], [ 8.7137411, 49.4104823 ], [ 8.7133595, 49.4103921 ], [ 8.7129662, 49.4103268 ], [ 8.712565, 49.4102869 ], [ 8.7121597, 49.4102729 ], [ 8.7117542, 49.4102849 ], [ 8.7113526, 49.4103228 ], [ 8.7109585, 49.4103861 ], [ 8.7105758, 49.4104744 ], [ 8.7102083, 49.4105867 ], [ 8.7098594, 49.410722 ], [ 8.7095325, 49.4108789 ], [ 8.7092307, 49.411056 ], [ 8.708957, 49.4112515 ], [ 8.708714, 49.4114636 ], [ 8.708504, 49.4116902 ], [ 8.708329, 49.4119292 ], [ 8.7081908, 49.4121782 ], [ 8.7080907, 49.4124348 ], [ 8.708045, 49.4126305 ], [ 8.7078724, 49.4125897 ], [ 8.7074791, 49.4125243 ], [ 8.7070779, 49.4124845 ], [ 8.7066726, 49.4124704 ], [ 8.7062671, 49.4124824 ], [ 8.7058654, 49.4125202 ], [ 8.7054713, 49.4125836 ], [ 8.7050887, 49.4126718 ], [ 8.7047211, 49.4127841 ], [ 8.7043721, 49.4129194 ], [ 8.7040452, 49.4130763 ], [ 8.7037434, 49.4132533 ], [ 8.7034696, 49.4134489 ], [ 8.7032266, 49.4136609 ], [ 8.7030165, 49.4138875 ], [ 8.7028416, 49.4141265 ], [ 8.7027033, 49.4143755 ], [ 8.7026031, 49.4146321 ], [ 8.702542, 49.4148939 ], [ 8.7025205, 49.4151583 ], [ 8.7025388, 49.4154229 ], [ 8.7025968, 49.415685 ], [ 8.7026939, 49.4159421 ], [ 8.7028291, 49.4161918 ], [ 8.7030012, 49.4164316 ], [ 8.7032085, 49.4166593 ], [ 8.703449, 49.4168726 ], [ 8.7037204, 49.4170695 ], [ 8.7040201, 49.4172481 ], [ 8.7043452, 49.4174067 ], [ 8.7046925, 49.4175438 ], [ 8.7050588, 49.4176579 ], [ 8.7054404, 49.4177481 ], [ 8.7058338, 49.4178135 ], [ 8.7062351, 49.4178533 ], [ 8.7066404, 49.4178674 ], [ 8.7070459, 49.4178554 ], [ 8.7074477, 49.4178175 ], [ 8.7078418, 49.4177542 ], [ 8.7078736, 49.4177469 ], [ 8.7079665, 49.4178022 ], [ 8.7081076, 49.417871 ], [ 8.7081111, 49.4178868 ], [ 8.7082082, 49.4181439 ], [ 8.7083434, 49.4183936 ], [ 8.7085156, 49.4186334 ], [ 8.7087229, 49.4188611 ], [ 8.7089635, 49.4190744 ], [ 8.7092349, 49.4192713 ], [ 8.7095346, 49.4194499 ], [ 8.7098597, 49.4196084 ], [ 8.7102071, 49.4197455 ], [ 8.7105734, 49.4198596 ], [ 8.7109551, 49.4199498 ], [ 8.7113484, 49.4200151 ], [ 8.7117498, 49.420055 ], [ 8.7121551, 49.420069 ], [ 8.7125606, 49.420057 ], [ 8.7129624, 49.4200191 ], [ 8.7133565, 49.4199557 ], [ 8.7137393, 49.4198675 ], [ 8.7141069, 49.4197552 ], [ 8.7144558, 49.4196199 ], [ 8.7147828, 49.4194629 ], [ 8.7150846, 49.4192858 ], [ 8.7153583, 49.4190903 ], [ 8.7156014, 49.4188782 ], [ 8.7158114, 49.4186516 ], [ 8.7159863, 49.4184126 ], [ 8.7161245, 49.4181636 ], [ 8.7162246, 49.417907 ], [ 8.7162857, 49.4176452 ], [ 8.7163071, 49.4173807 ], [ 8.7162887, 49.4171162 ], [ 8.7162307, 49.4168541 ], [ 8.7161335, 49.416597 ], [ 8.7159982, 49.4163473 ], [ 8.715826, 49.4161075 ], [ 8.7156187, 49.4158798 ], [ 8.7153781, 49.4156665 ], [ 8.7151067, 49.4154696 ], [ 8.714807, 49.4152911 ], [ 8.7146659, 49.4152223 ], [ 8.7146624, 49.4152065 ], [ 8.7146311, 49.4151236 ], [ 8.7147556, 49.4150638 ], [ 8.7150573, 49.4148867 ], [ 8.715331, 49.4146912 ], [ 8.7155741, 49.4144791 ], [ 8.715784, 49.4142525 ], [ 8.715959, 49.4140135 ], [ 8.7160971, 49.4137645 ], [ 8.7161972, 49.4135079 ], [ 8.7162583, 49.4132461 ], [ 8.7162797, 49.4129816 ], [ 8.7162613, 49.4127171 ], [ 8.7162033, 49.412455 ] ] ] } }
]
}
