{
"type": "FeatureCollection",
"features": [
{ "type": "Feature", "properties": { "index": "0", "@osmId": "way/90406432", "name": "Heidelberg Suites", "opening_hours": null, "label": "Private swimming pools", "color": "#4292c6" }, "geometry": { "type": "Polygon", "coordinates": [ [ [ 8.7066563, 49.415253 ], [ 8.7065511, 49.4152415 ], [ 8.7065911, 49.4150853 ], [ 8.7066854, 49.4150956 ], [ 8.7066864, 49.4150918 ], [ 8.7067685, 49.4151007 ], [ 8.7067554, 49.4151518 ], [ 8.706748, 49.415151 ], [ 8.7067251, 49.4152405 ], [ 8.7066962, 49.4152374 ], [ 8.7066928, 49.4152508 ], [ 8.7066578, 49.415247 ], [ 8.7066563, 49.415253 ] ] ] } },
{ "type": "Feature", "properties": { "index": "1", "@osmId": "way/1005094209", "name": null, "opening_hours": null, "label": "Private swimming pools", "color": "#4292c6" }, "geometry": { "type": "Polygon", "coordinates": [ [ [ 8.7122593, 49.4174414 ], [ 8.712038, 49.4173411 ], [ 8.7120825, 49.4172996 ], [ 8.7123037, 49.4173999 ], [ 8.7122593, 49.4174414 ] ] ] } },
{ "type": "Feature", "properties": { "index": "2", "@osmId": "way/1005094214", "name": null, "opening_hours": null, "label": "Private swimming pools", "color": "#4292c6" }, "geometry": { "type": "Polygon", "coordinates": [ [ [ 8.710627, 49.4061404 ], [ 8.7105349, 49.4061799 ], [ 8.7105149, 49.4061602 ], [ 8.710607, 49.4061207 ], [ 8.710627, 49.4061404 ] ] ] } },
{ "type": "Feature", "properties": { "index": "3", "@osmId": "way/1005094215", "name": null, "opening_hours": null, "label": "Private swimming pools", "color": "#4292c6" }, "geometry": { "type": "Polygon", "coordinates": [ [ [ 8.7109713, 49.4059009 ], [ 8.7110621, 49.4060323 ], [ 8.7110206, 49.4060445 ], [ 8.7109298, 49.405913 ], [ 8.7109713, 49.4059009 ] ] ] } },
{ "type": "Feature", "properties": { "index": "4", "@osmId": "way/1051815025", "name": null, "opening_hours": null, "label": "Private swimming pools", "color": "#4292c6" }, "geometry": { "type": "Polygon", "coordinates": [ [ [ 8.7121441, 49.4129901 ], [ 8.7121227, 49.4129866 ], [ 8.7121341, 49.4129521 ], [ 8.7121656, 49.4129578 ], [ 8.7121569, 49.412984 ], [ 8.7121441, 49.4129901 ] ] ] } },
{ "type": "Feature", "properties": { "index": "5", "@osmId": "way/1223401619", "name": null, "opening_hours": null, "label": "Private swimming pools", "color": "#4292c6" }, "geometry": { "type": "Polygon", "coordinates": [ [ [ 8.7106419, 49.4157361 ], [ 8.7105641, 49.4157367 ], [ 8.7105636, 49.4157096 ], [ 8.7106414, 49.415709 ], [ 8.7106419, 49.4157361 ] ] ] } },
{ "type": "Feature", "properties": { "index": "6", "@osmId": "way/87498377", "name": null, "opening_hours": null, "label": "Private swimming pools", "color": "#4292c6" }, "geometry": { "type": "Polygon", "coordinates": [ [ [ 8.679822, 49.4093102 ], [ 8.6805053, 49.4092994 ], [ 8.6805095, 49.4094136 ], [ 8.6798097, 49.4094246 ], [ 8.6798085, 49.409392 ], [ 8.679825, 49.4093917 ], [ 8.679822, 49.4093102 ] ] ] } },
{ "type": "Feature", "properties": { "index": "7", "@osmId": "way/87498379", "name": null, "opening_hours": null, "label": "Private swimming pools", "color": "#4292c6" }, "geometry": { "type": "Polygon", "coordinates": [ [ [ 8.6805046, 49.4092818 ], [ 8.6798213, 49.4092926 ], [ 8.6798156, 49.4091401 ], [ 8.6804833, 49.4091296 ], [ 8.6804832, 49.4091266 ], [ 8.6804461, 49.4091271 ], [ 8.6804457, 49.4091167 ], [ 8.6804984, 49.4091158 ], [ 8.6805046, 49.4092818 ] ] ] } },
{ "type": "Feature", "properties": { "index": "8", "@osmId": "way/87498386", "name": null, "opening_hours": null, "label": "Private swimming pools", "color": "#4292c6" }, "geometry": { "type": "Polygon", "coordinates": [ [ [ 8.6804266, 49.409685 ], [ 8.6803793, 49.409683 ], [ 8.680348, 49.4096597 ], [ 8.6803513, 49.4096288 ], [ 8.680387, 49.4096085 ], [ 8.6804344, 49.4096106 ], [ 8.6804657, 49.4096339 ], [ 8.6804625, 49.4096647 ], [ 8.6804266, 49.409685 ] ] ] } },
{ "type": "Feature", "properties": { "index": "9", "@osmId": "way/372764513", "name": null, "opening_hours": null, "label": "Private swimming pools", "color": "#4292c6" }, "geometry": { "type": "Polygon", "coordinates": [ [ [ 8.6805231, 49.409631 ], [ 8.6804758, 49.409629 ], [ 8.6804445, 49.4096057 ], [ 8.6804478, 49.4095748 ], [ 8.6804835, 49.4095545 ], [ 8.6805309, 49.4095566 ], [ 8.6805622, 49.4095799 ], [ 8.6805589, 49.4096107 ], [ 8.6805231, 49.409631 ] ] ] } },
{ "type": "Feature", "properties": { "index": "10", "@osmId": "way/810070492", "name": null, "opening_hours": null, "label": "Private swimming pools", "color": "#4292c6" }, "geometry": { "type": "Polygon", "coordinates": [ [ [ 8.6952181, 49.4003891 ], [ 8.6951572, 49.4003842 ], [ 8.6951704, 49.4003151 ], [ 8.6952313, 49.4003201 ], [ 8.6952181, 49.4003891 ] ] ] } },
{ "type": "Feature", "properties": { "index": "11", "@osmId": "way/810070493", "name": null, "opening_hours": null, "label": "Private swimming pools", "color": "#4292c6" }, "geometry": { "type": "Polygon", "coordinates": [ [ [ 8.6951194, 49.4008669 ], [ 8.6950368, 49.4008592 ], [ 8.6950558, 49.4007725 ], [ 8.6951384, 49.4007801 ], [ 8.6951194, 49.4008669 ] ] ] } },
{ "type": "Feature", "properties": { "index": "12", "@osmId": "way/810070494", "name": null, "opening_hours": null, "label": "Private swimming pools", "color": "#4292c6" }, "geometry": { "type": "Polygon", "coordinates": [ [ [ 8.6952527, 49.4012522 ], [ 8.6951869, 49.4012481 ], [ 8.6951968, 49.4011792 ], [ 8.6952626, 49.4011832 ], [ 8.6952527, 49.4012522 ] ] ] } },
{ "type": "Feature", "properties": { "index": "13", "@osmId": "way/1473873551", "name": null, "opening_hours": null, "label": "Private swimming pools", "color": "#4292c6" }, "geometry": { "type": "Polygon", "coordinates": [ [ [ 8.6957097, 49.4156235 ], [ 8.6956007, 49.4156739 ], [ 8.6955726, 49.4156482 ], [ 8.6956816, 49.4155978 ], [ 8.6957097, 49.4156235 ] ] ] } },
{ "type": "Feature", "properties": { "index": "14", "@osmId": "way/90242418", "name": "Pension Berger", "opening_hours": null, "label": "Private swimming pools", "color": "#4292c6" }, "geometry": { "type": "Polygon", "coordinates": [ [ [ 8.6890515, 49.4181299 ], [ 8.688875, 49.4181231 ], [ 8.6888756, 49.4181149 ], [ 8.6888503, 49.4180997 ], [ 8.6888506, 49.4180845 ], [ 8.6888797, 49.4180694 ], [ 8.6888806, 49.4180529 ], [ 8.688886, 49.418053 ], [ 8.6888903, 49.4180068 ], [ 8.6890621, 49.4180134 ], [ 8.6890565, 49.4180751 ], [ 8.6890785, 49.4180759 ], [ 8.6890748, 49.4181162 ], [ 8.6890528, 49.4181153 ], [ 8.6890515, 49.4181299 ] ] ] } },
{ "type": "Feature", "properties": { "index": "15", "@osmId": "way/96690362", "name": "Marriott Heidelberg", "opening_hours": null, "label": "Private swimming pools", "color": "#4292c6" }, "geometry": { "type": "Polygon", "coordinates": [ [ [ 8.6718243, 49.4092903 ], [ 8.6718175, 49.4090911 ], [ 8.6721487, 49.4090809 ], [ 8.6721469, 49.4090598 ], [ 8.6722129, 49.4090585 ], [ 8.6722137, 49.4090922 ], [ 8.6722717, 49.4090911 ], [ 8.6722732, 49.4091204 ], [ 8.6724751, 49.4091166 ], [ 8.6724757, 49.4091404 ], [ 8.6726053, 49.4091382 ], [ 8.672676, 49.4091368 ], [ 8.672803, 49.4091339 ], [ 8.6728021, 49.4091083 ], [ 8.6730159, 49.4091036 ], [ 8.6730146, 49.4090739 ], [ 8.6731332, 49.4090716 ], [ 8.6731368, 49.4091349 ], [ 8.67314, 49.409204 ], [ 8.6731667, 49.4092034 ], [ 8.6731676, 49.4092186 ], [ 8.673177, 49.4093989 ], [ 8.6732038, 49.409399 ], [ 8.6732112, 49.4095687 ], [ 8.6731295, 49.4095696 ], [ 8.67313, 49.4095826 ], [ 8.6729911, 49.4095845 ], [ 8.672989, 49.4095391 ], [ 8.6729005, 49.4095402 ], [ 8.672846, 49.4093924 ], [ 8.6724593, 49.4094008 ], [ 8.6724121, 49.4095532 ], [ 8.6723375, 49.4095541 ], [ 8.6723386, 49.4096003 ], [ 8.6721997, 49.4096019 ], [ 8.6721995, 49.4095895 ], [ 8.6721092, 49.4095904 ], [ 8.6720956, 49.409285 ], [ 8.6718243, 49.4092903 ] ] ] } },
{ "type": "Feature", "properties": { "index": "16", "@osmId": "way/1172350017", "name": null, "opening_hours": null, "label": "Private swimming pools", "color": "#4292c6" }, "geometry": { "type": "Polygon", "coordinates": [ [ [ 8.6938013, 49.4195043 ], [ 8.6937626, 49.4195022 ], [ 8.6937696, 49.4194487 ], [ 8.6938084, 49.4194508 ], [ 8.6938013, 49.4195043 ] ] ] } },
{ "type": "Feature", "properties": { "index": "17", "@osmId": "way/1172350018", "name": null, "opening_hours": null, "label": "Private swimming pools", "color": "#4292c6" }, "geometry": { "type": "Polygon", "coordinates": [ [ [ 8.6918642, 49.4214016 ], [ 8.6918353, 49.4214759 ], [ 8.6917782, 49.4214666 ], [ 8.6918071, 49.4213922 ], [ 8.6918642, 49.4214016 ] ] ] } },
{ "type": "Feature", "properties": { "index": "18", "@osmId": "way/1172350019", "name": null, "opening_hours": null, "label": "Private swimming pools", "color": "#4292c6" }, "geometry": { "type": "Polygon", "coordinates": [ [ [ 8.6921824, 49.4202938 ], [ 8.692067, 49.420275 ], [ 8.6920809, 49.4202388 ], [ 8.6921963, 49.4202576 ], [ 8.6921824, 49.4202938 ] ] ] } },
{ "type": "Feature", "properties": { "index": "19", "@osmId": "way/1172350022", "name": null, "opening_hours": null, "label": "Private swimming pools", "color": "#4292c6" }, "geometry": { "type": "Polygon", "coordinates": [ [ [ 8.6933915, 49.4182254 ], [ 8.6933646, 49.4182591 ], [ 8.6932892, 49.4182337 ], [ 8.693316, 49.4182 ], [ 8.6933915, 49.4182254 ] ] ] } },
{ "type": "Feature", "properties": { "index": "20", "@osmId": "way/1172350023", "name": null, "opening_hours": null, "label": "Private swimming pools", "color": "#4292c6" }, "geometry": { "type": "Polygon", "coordinates": [ [ [ 8.6961104, 49.4194856 ], [ 8.6960687, 49.4195448 ], [ 8.6960121, 49.4195279 ], [ 8.6960538, 49.4194687 ], [ 8.6961104, 49.4194856 ] ] ] } },
{ "type": "Feature", "properties": { "index": "21", "@osmId": "way/1172350024", "name": null, "opening_hours": null, "label": "Private swimming pools", "color": "#4292c6" }, "geometry": { "type": "Polygon", "coordinates": [ [ [ 8.6950404, 49.4210473 ], [ 8.694979, 49.4210541 ], [ 8.6949466, 49.4209306 ], [ 8.695008, 49.4209238 ], [ 8.6950404, 49.4210473 ] ] ] } },
{ "type": "Feature", "properties": { "index": "22", "@osmId": "way/1172350026", "name": null, "opening_hours": null, "label": "Private swimming pools", "color": "#4292c6" }, "geometry": { "type": "Polygon", "coordinates": [ [ [ 8.6932058, 49.4218164 ], [ 8.6930751, 49.4219223 ], [ 8.693027, 49.4218971 ], [ 8.6931576, 49.4217913 ], [ 8.6932058, 49.4218164 ] ] ] } },
{ "type": "Feature", "properties": { "index": "23", "@osmId": "way/1301765527", "name": null, "opening_hours": null, "label": "Private swimming pools", "color": "#4292c6" }, "geometry": { "type": "Polygon", "coordinates": [ [ [ 8.684499, 49.418196 ], [ 8.6845039, 49.4181708 ], [ 8.6847069, 49.4181875 ], [ 8.684702, 49.4182127 ], [ 8.684499, 49.418196 ] ] ] } },
{ "type": "Feature", "properties": { "index": "24", "@osmId": "way/1315690620", "name": null, "opening_hours": null, "label": "Private swimming pools", "color": "#4292c6" }, "geometry": { "type": "Polygon", "coordinates": [ [ [ 8.6787118, 49.4176085 ], [ 8.6785827, 49.4175867 ], [ 8.6785908, 49.4175663 ], [ 8.67872, 49.4175881 ], [ 8.6787118, 49.4176085 ] ] ] } },
{ "type": "Feature", "properties": { "index": "25", "@osmId": "way/1462098252", "name": null, "opening_hours": null, "label": "Private swimming pools", "color": "#4292c6" }, "geometry": { "type": "Polygon", "coordinates": [ [ [ 8.6789673, 49.4121412 ], [ 8.678862, 49.4121242 ], [ 8.6788782, 49.4120818 ], [ 8.6789835, 49.4120988 ], [ 8.6789673, 49.4121412 ] ] ] } }
]
}
