{
"type": "FeatureCollection",
"features": [
{ "type": "Feature", "properties": { "index": "0", "label": "Within 255 m by wheelchair", "color": "#2b8cbe" }, "geometry": { "type": "MultiPolygon", "coordinates": [ [ [ [ 8.6645178, 49.3983288 ], [ 8.6645024, 49.398104 ], [ 8.6645109, 49.3980011 ], [ 8.6753176, 49.398003 ], [ 8.6753283, 49.3981588 ], [ 8.6753099, 49.3983836 ], [ 8.6752578, 49.3986061 ], [ 8.6751726, 49.3988242 ], [ 8.6751045, 49.3989467 ], [ 8.6751263, 49.3990045 ], [ 8.6751754, 49.3992273 ], [ 8.6751909, 49.3994521 ], [ 8.6751809, 49.3995742 ], [ 8.6751965, 49.3995769 ], [ 8.6755208, 49.3996536 ], [ 8.6758319, 49.3997507 ], [ 8.676127, 49.3998673 ], [ 8.6764031, 49.4000021 ], [ 8.6766577, 49.400154 ], [ 8.6768882, 49.4003214 ], [ 8.6770925, 49.4005028 ], [ 8.6772685, 49.4006964 ], [ 8.677287, 49.4007222 ], [ 8.677447, 49.4006284 ], [ 8.6777249, 49.400495 ], [ 8.6780215, 49.4003801 ], [ 8.6783339, 49.4002848 ], [ 8.6786592, 49.4002098 ], [ 8.6789941, 49.4001561 ], [ 8.6793355, 49.400124 ], [ 8.67968, 49.4001139 ], [ 8.6800244, 49.4001259 ], [ 8.6803654, 49.4001599 ], [ 8.6806996, 49.4002155 ], [ 8.6810238, 49.4002922 ], [ 8.681335, 49.4003893 ], [ 8.6816301, 49.4005059 ], [ 8.6816588, 49.4005199 ], [ 8.6816486, 49.4003704 ], [ 8.6816669, 49.4001456 ], [ 8.681719, 49.3999231 ], [ 8.6818042, 49.399705 ], [ 8.6819218, 49.3994934 ], [ 8.6820705, 49.3992903 ], [ 8.6822491, 49.3990977 ], [ 8.6824557, 49.3989175 ], [ 8.6825784, 49.3988299 ], [ 8.6825372, 49.3986432 ], [ 8.6825217, 49.3984183 ], [ 8.6825401, 49.3981935 ], [ 8.6825845, 49.3980037 ], [ 8.6935479, 49.3980038 ], [ 8.6937039, 49.3980655 ], [ 8.6939801, 49.3982003 ], [ 8.6942347, 49.3983521 ], [ 8.6944653, 49.3985195 ], [ 8.6946696, 49.3987008 ], [ 8.6948457, 49.3988944 ], [ 8.6949919, 49.3990983 ], [ 8.6951068, 49.3993105 ], [ 8.6951893, 49.3995291 ], [ 8.6951894, 49.3995295 ], [ 8.6951895, 49.3995298 ], [ 8.6952387, 49.3997526 ], [ 8.6952542, 49.3999774 ], [ 8.6952359, 49.4002022 ], [ 8.6951839, 49.4004247 ], [ 8.6950988, 49.4006428 ], [ 8.6949813, 49.4008545 ], [ 8.6948325, 49.4010576 ], [ 8.694654, 49.4012502 ], [ 8.6946532, 49.4012509 ], [ 8.6946506, 49.4012537 ], [ 8.6944987, 49.4013862 ], [ 8.6945113, 49.4013975 ], [ 8.6946874, 49.401591 ], [ 8.6948336, 49.4017949 ], [ 8.6949485, 49.4020071 ], [ 8.695031, 49.4022257 ], [ 8.6950802, 49.4024485 ], [ 8.6950957, 49.4026733 ], [ 8.6950774, 49.4028981 ], [ 8.6950254, 49.4031206 ], [ 8.6949402, 49.4033387 ], [ 8.694884, 49.4034401 ], [ 8.6951034, 49.4035993 ], [ 8.6953077, 49.4037806 ], [ 8.6953258, 49.4038005 ], [ 8.6954973, 49.4038411 ], [ 8.6958085, 49.4039381 ], [ 8.6961037, 49.4040546 ], [ 8.6963799, 49.4041894 ], [ 8.6966345, 49.4043413 ], [ 8.6968652, 49.4045087 ], [ 8.6970695, 49.40469 ], [ 8.6972457, 49.4048835 ], [ 8.6973919, 49.4050874 ], [ 8.6975068, 49.4052996 ], [ 8.6975893, 49.4055182 ], [ 8.6975925, 49.4055326 ], [ 8.6976901, 49.4055908 ], [ 8.6979207, 49.4057582 ], [ 8.6981251, 49.4059396 ], [ 8.6983012, 49.4061331 ], [ 8.6984365, 49.4063216 ], [ 8.698682, 49.4063144 ], [ 8.6990265, 49.4063264 ], [ 8.6993675, 49.4063603 ], [ 8.6997018, 49.4064158 ], [ 8.7000261, 49.4064925 ], [ 8.7003373, 49.4065896 ], [ 8.7006325, 49.406706 ], [ 8.7009088, 49.4068408 ], [ 8.7011634, 49.4069927 ], [ 8.7013125, 49.4071009 ], [ 8.7013659, 49.4070959 ], [ 8.7017105, 49.4070857 ], [ 8.702055, 49.4070976 ], [ 8.702396, 49.4071316 ], [ 8.7027303, 49.4071871 ], [ 8.7029484, 49.4072387 ], [ 8.7031985, 49.407092 ], [ 8.7034764, 49.4069586 ], [ 8.7037729, 49.4068436 ], [ 8.7040853, 49.4067482 ], [ 8.7044106, 49.4066732 ], [ 8.7045238, 49.406655 ], [ 8.7045305, 49.4066502 ], [ 8.7046968, 49.4065526 ], [ 8.7047812, 49.4063362 ], [ 8.7048987, 49.4061246 ], [ 8.7050474, 49.4059215 ], [ 8.7052259, 49.4057289 ], [ 8.7054325, 49.4055486 ], [ 8.7055871, 49.4054381 ], [ 8.7055899, 49.4054263 ], [ 8.705675, 49.4052082 ], [ 8.7057925, 49.4049965 ], [ 8.7059411, 49.4047934 ], [ 8.7061196, 49.4046008 ], [ 8.7063262, 49.4044205 ], [ 8.7065588, 49.4042543 ], [ 8.7068153, 49.4041038 ], [ 8.7070931, 49.4039704 ], [ 8.7073897, 49.4038555 ], [ 8.7077021, 49.40376 ], [ 8.7080273, 49.403685 ], [ 8.7083622, 49.4036312 ], [ 8.7087036, 49.403599 ], [ 8.7090482, 49.4035888 ], [ 8.7093926, 49.4036007 ], [ 8.7097336, 49.4036346 ], [ 8.7099736, 49.4036745 ], [ 8.7101367, 49.4036801 ], [ 8.7104777, 49.403714 ], [ 8.7108119, 49.4037695 ], [ 8.7111362, 49.4038462 ], [ 8.7114475, 49.4039432 ], [ 8.7117427, 49.4040597 ], [ 8.7120189, 49.4041944 ], [ 8.7122736, 49.4043462 ], [ 8.7125043, 49.4045136 ], [ 8.7127087, 49.4046949 ], [ 8.7128849, 49.4048884 ], [ 8.7130312, 49.4050922 ], [ 8.7130659, 49.4051563 ], [ 8.7132277, 49.4051069 ], [ 8.7135529, 49.4050319 ], [ 8.7138878, 49.404978 ], [ 8.7140253, 49.404965 ], [ 8.7141965, 49.4049375 ], [ 8.7145379, 49.4049053 ], [ 8.7148825, 49.4048951 ], [ 8.7152269, 49.404907 ], [ 8.7155679, 49.4049409 ], [ 8.7159022, 49.4049964 ], [ 8.7162266, 49.405073 ], [ 8.7165378, 49.40517 ], [ 8.716833, 49.4052865 ], [ 8.7171093, 49.4054212 ], [ 8.717364, 49.405573 ], [ 8.7175947, 49.4057404 ], [ 8.7177992, 49.4059217 ], [ 8.7179754, 49.4061152 ], [ 8.7181217, 49.406319 ], [ 8.7182367, 49.4065312 ], [ 8.7183193, 49.4067498 ], [ 8.7183686, 49.4069726 ], [ 8.7183841, 49.4071954 ], [ 8.7186233, 49.4072037 ], [ 8.7189643, 49.4072375 ], [ 8.7192986, 49.4072931 ], [ 8.719623, 49.4073697 ], [ 8.7199343, 49.4074667 ], [ 8.72, 49.4074926 ], [ 8.72, 49.4180482 ], [ 8.7197949, 49.4181686 ], [ 8.7195171, 49.418302 ], [ 8.7192205, 49.418417 ], [ 8.718908, 49.4185125 ], [ 8.7185827, 49.4185875 ], [ 8.7182477, 49.4186414 ], [ 8.7179062, 49.4186736 ], [ 8.7175615, 49.4186838 ], [ 8.717217, 49.4186719 ], [ 8.7168759, 49.418638 ], [ 8.7166926, 49.4186076 ], [ 8.7166006, 49.4187733 ], [ 8.7164519, 49.4189764 ], [ 8.7162734, 49.419169 ], [ 8.7160669, 49.4193493 ], [ 8.7158342, 49.4195155 ], [ 8.7155777, 49.4196661 ], [ 8.7152997, 49.4197995 ], [ 8.7150031, 49.4199144 ], [ 8.7146907, 49.4200099 ], [ 8.7145395, 49.4200448 ], [ 8.7145365, 49.420081 ], [ 8.7144846, 49.4203035 ], [ 8.7143995, 49.4205217 ], [ 8.714282, 49.4207333 ], [ 8.7141333, 49.4209364 ], [ 8.7139548, 49.4211291 ], [ 8.7137482, 49.4213094 ], [ 8.7135155, 49.4214756 ], [ 8.713259, 49.4216261 ], [ 8.712981, 49.4217595 ], [ 8.7126844, 49.4218745 ], [ 8.7123719, 49.4219699 ], [ 8.712234, 49.4220018 ], [ 8.7098458, 49.4220022 ], [ 8.7096808, 49.4219632 ], [ 8.7093694, 49.4218662 ], [ 8.7090742, 49.4217497 ], [ 8.7087978, 49.4216149 ], [ 8.708543, 49.4214631 ], [ 8.7083123, 49.4212958 ], [ 8.7081078, 49.4211145 ], [ 8.7079316, 49.4209209 ], [ 8.7077853, 49.4207171 ], [ 8.7076703, 49.4205049 ], [ 8.7075878, 49.4202863 ], [ 8.7075384, 49.4200635 ], [ 8.7075292, 49.4199299 ], [ 8.7075253, 49.4199464 ], [ 8.7074402, 49.4201646 ], [ 8.7073227, 49.4203762 ], [ 8.7071739, 49.4205793 ], [ 8.7069954, 49.4207719 ], [ 8.7067888, 49.4209522 ], [ 8.7065561, 49.4211184 ], [ 8.7062995, 49.4212689 ], [ 8.7060215, 49.4214023 ], [ 8.7057249, 49.4215173 ], [ 8.7054124, 49.4216127 ], [ 8.7050871, 49.4216877 ], [ 8.704752, 49.4217416 ], [ 8.7044105, 49.4217737 ], [ 8.7040658, 49.4217839 ], [ 8.7037212, 49.421772 ], [ 8.7036502, 49.4217649 ], [ 8.7035556, 49.4217677 ], [ 8.703211, 49.4217558 ], [ 8.7028699, 49.4217219 ], [ 8.7025355, 49.4216663 ], [ 8.7022111, 49.4215896 ], [ 8.7018998, 49.4214926 ], [ 8.7016045, 49.4213761 ], [ 8.7013282, 49.4212413 ], [ 8.7010734, 49.4210895 ], [ 8.7008427, 49.4209221 ], [ 8.7007229, 49.4208158 ], [ 8.7006541, 49.42089 ], [ 8.7004475, 49.4210703 ], [ 8.7002148, 49.4212365 ], [ 8.6999582, 49.4213869 ], [ 8.6996802, 49.4215203 ], [ 8.6993835, 49.4216353 ], [ 8.699071, 49.4217307 ], [ 8.6987457, 49.4218057 ], [ 8.6984106, 49.4218595 ], [ 8.6980691, 49.4218916 ], [ 8.6977244, 49.4219018 ], [ 8.6973798, 49.4218898 ], [ 8.6970387, 49.4218559 ], [ 8.6967044, 49.4218003 ], [ 8.6963799, 49.4217237 ], [ 8.6961357, 49.4216475 ], [ 8.6961103, 49.4216931 ], [ 8.6959616, 49.4218962 ], [ 8.6958619, 49.4220037 ], [ 8.6748397, 49.4220029 ], [ 8.6748016, 49.4219017 ], [ 8.6747716, 49.4217659 ], [ 8.6747259, 49.4217614 ], [ 8.6743916, 49.4217057 ], [ 8.6740672, 49.421629 ], [ 8.6737559, 49.4215319 ], [ 8.6734607, 49.4214153 ], [ 8.6734188, 49.4213949 ], [ 8.6731488, 49.4213855 ], [ 8.6728077, 49.4213515 ], [ 8.6724734, 49.4212958 ], [ 8.6723504, 49.4212667 ], [ 8.6722722, 49.421264 ], [ 8.6721833, 49.4213415 ], [ 8.6719504, 49.4215077 ], [ 8.6716938, 49.4216581 ], [ 8.6714157, 49.4217914 ], [ 8.671119, 49.4219063 ], [ 8.6708064, 49.4220016 ], [ 8.6708035, 49.4220023 ], [ 8.6681487, 49.4220018 ], [ 8.6681153, 49.4219939 ], [ 8.667804, 49.4218968 ], [ 8.6675089, 49.4217802 ], [ 8.6672326, 49.4216453 ], [ 8.6670232, 49.4215204 ], [ 8.6669065, 49.421501 ], [ 8.6665822, 49.4214242 ], [ 8.6662709, 49.4213271 ], [ 8.666209, 49.4213026 ], [ 8.6661887, 49.4212978 ], [ 8.6661666, 49.4212909 ], [ 8.6661446, 49.4212916 ], [ 8.6658001, 49.4212795 ], [ 8.665459, 49.4212455 ], [ 8.6652467, 49.4212102 ], [ 8.6652317, 49.4212744 ], [ 8.6651464, 49.4214925 ], [ 8.6650287, 49.4217041 ], [ 8.6648798, 49.4219072 ], [ 8.6647925, 49.4220011 ], [ 8.66, 49.422 ], [ 8.66, 49.4188445 ], [ 8.6601428, 49.4187892 ], [ 8.6604554, 49.4186939 ], [ 8.6607808, 49.418619 ], [ 8.6611159, 49.4185653 ], [ 8.6614574, 49.4185333 ], [ 8.6618021, 49.4185232 ], [ 8.6621466, 49.4185353 ], [ 8.6624877, 49.4185693 ], [ 8.6626519, 49.4185967 ], [ 8.6626498, 49.4185653 ], [ 8.6626591, 49.4184522 ], [ 8.6624191, 49.4184438 ], [ 8.6620781, 49.4184098 ], [ 8.6617438, 49.4183541 ], [ 8.6614194, 49.4182773 ], [ 8.6611082, 49.4181802 ], [ 8.6608131, 49.4180636 ], [ 8.6605369, 49.4179287 ], [ 8.6602823, 49.4177768 ], [ 8.6600517, 49.4176093 ], [ 8.66, 49.4175634 ], [ 8.66, 49.4147617 ], [ 8.6600718, 49.4146992 ], [ 8.6603046, 49.414533 ], [ 8.6605613, 49.4143826 ], [ 8.6608393, 49.4142494 ], [ 8.6611361, 49.4141345 ], [ 8.6614486, 49.4140392 ], [ 8.6617739, 49.4139643 ], [ 8.662109, 49.4139106 ], [ 8.6624505, 49.4138786 ], [ 8.6627951, 49.4138685 ], [ 8.6631296, 49.4138802 ], [ 8.6632395, 49.4137618 ], [ 8.6634463, 49.4135816 ], [ 8.6636791, 49.4134155 ], [ 8.6639357, 49.4132651 ], [ 8.6642138, 49.4131318 ], [ 8.6645105, 49.413017 ], [ 8.664823, 49.4129216 ], [ 8.6651483, 49.4128467 ], [ 8.6654833, 49.412793 ], [ 8.6658248, 49.412761 ], [ 8.6661695, 49.4127509 ], [ 8.666514, 49.412763 ], [ 8.666855, 49.412797 ], [ 8.6671893, 49.4128526 ], [ 8.6673557, 49.412892 ], [ 8.6675398, 49.4128497 ], [ 8.6676351, 49.4128344 ], [ 8.6676487, 49.4126683 ], [ 8.6677008, 49.4124458 ], [ 8.6677861, 49.4122277 ], [ 8.6679038, 49.4120161 ], [ 8.6680473, 49.4118202 ], [ 8.6680403, 49.4117173 ], [ 8.667997, 49.411738 ], [ 8.6677003, 49.4118529 ], [ 8.6673878, 49.4119483 ], [ 8.6670625, 49.4120232 ], [ 8.6667275, 49.4120769 ], [ 8.666386, 49.4121089 ], [ 8.6660413, 49.412119 ], [ 8.6656968, 49.4121069 ], [ 8.6653558, 49.4120729 ], [ 8.6652873, 49.4120615 ], [ 8.6652631, 49.4120654 ], [ 8.6649216, 49.4120974 ], [ 8.664577, 49.4121075 ], [ 8.6642325, 49.4120954 ], [ 8.6638915, 49.4120614 ], [ 8.6635572, 49.4120057 ], [ 8.6632329, 49.411929 ], [ 8.6629217, 49.4118318 ], [ 8.6626266, 49.4117152 ], [ 8.6623504, 49.4115803 ], [ 8.6620958, 49.4114284 ], [ 8.6619398, 49.4113151 ], [ 8.6619271, 49.4113155 ], [ 8.6615827, 49.4113034 ], [ 8.6612416, 49.4112694 ], [ 8.6609074, 49.4112137 ], [ 8.6605831, 49.4111369 ], [ 8.6602719, 49.4110398 ], [ 8.66, 49.4109324 ], [ 8.66, 49.4010971 ], [ 8.6602407, 49.4009817 ], [ 8.6605373, 49.4008668 ], [ 8.6605934, 49.4008497 ], [ 8.6606584, 49.400793 ], [ 8.6608912, 49.4006269 ], [ 8.6611478, 49.4004764 ], [ 8.6614258, 49.4003432 ], [ 8.6617224, 49.4002283 ], [ 8.6617401, 49.4002229 ], [ 8.6618521, 49.400143 ], [ 8.6619831, 49.3999642 ], [ 8.6621618, 49.3997717 ], [ 8.6623685, 49.3995915 ], [ 8.6626012, 49.3994254 ], [ 8.6628578, 49.399275 ], [ 8.6631357, 49.3991417 ], [ 8.6634324, 49.3990268 ], [ 8.6637448, 49.3989315 ], [ 8.66407, 49.3988566 ], [ 8.6641344, 49.3988463 ], [ 8.6641828, 49.3988117 ], [ 8.6644394, 49.3986613 ], [ 8.6645824, 49.3985927 ], [ 8.6645669, 49.3985516 ], [ 8.6645178, 49.3983288 ] ], [ [ 8.6859956, 49.4152512 ], [ 8.6863199, 49.4153279 ], [ 8.6866312, 49.415425 ], [ 8.6867665, 49.4154784 ], [ 8.6867818, 49.4154126 ], [ 8.6868671, 49.4151945 ], [ 8.6869073, 49.4151221 ], [ 8.6869042, 49.4150773 ], [ 8.6869057, 49.4150587 ], [ 8.6866246, 49.414971 ], [ 8.686502, 49.4149226 ], [ 8.6864657, 49.414919 ], [ 8.6862268, 49.414926 ], [ 8.6858823, 49.414914 ], [ 8.6855412, 49.41488 ], [ 8.6854867, 49.414871 ], [ 8.6852751, 49.4148772 ], [ 8.6849306, 49.4148652 ], [ 8.684829, 49.4148551 ], [ 8.684818, 49.4148547 ], [ 8.684593, 49.4148323 ], [ 8.6845606, 49.4148312 ], [ 8.6845344, 49.4149428 ], [ 8.6844492, 49.4151609 ], [ 8.6844399, 49.4151777 ], [ 8.684631, 49.4151597 ], [ 8.6849757, 49.4151496 ], [ 8.6853202, 49.4151616 ], [ 8.6856613, 49.4151956 ], [ 8.6859956, 49.4152512 ] ], [ [ 8.6831695, 49.4022678 ], [ 8.6831798, 49.4024173 ], [ 8.6831614, 49.4026421 ], [ 8.6831094, 49.4028646 ], [ 8.6831084, 49.4028671 ], [ 8.6833858, 49.4029766 ], [ 8.683662, 49.4031115 ], [ 8.6838219, 49.4032068 ], [ 8.683821, 49.4031937 ], [ 8.6838393, 49.402969 ], [ 8.6838741, 49.4028203 ], [ 8.6837822, 49.4026922 ], [ 8.6836674, 49.40248 ], [ 8.6836557, 49.402449 ], [ 8.6834934, 49.4023983 ], [ 8.6831983, 49.4022818 ], [ 8.6831695, 49.4022678 ] ] ], [ [ [ 8.7147269, 49.3992079 ], [ 8.7150221, 49.3993244 ], [ 8.7152983, 49.3994592 ], [ 8.715553, 49.399611 ], [ 8.7157836, 49.3997783 ], [ 8.715988, 49.3999596 ], [ 8.7161642, 49.4001531 ], [ 8.7163105, 49.400357 ], [ 8.7164255, 49.4005692 ], [ 8.7165081, 49.4007877 ], [ 8.7165574, 49.4010105 ], [ 8.716573, 49.4012354 ], [ 8.7165548, 49.4014601 ], [ 8.7165029, 49.4016827 ], [ 8.7164178, 49.4019008 ], [ 8.7163004, 49.4021125 ], [ 8.7161518, 49.4023156 ], [ 8.7159733, 49.4025082 ], [ 8.7157668, 49.4026885 ], [ 8.7155342, 49.4028547 ], [ 8.7152778, 49.4030053 ], [ 8.715, 49.4031387 ], [ 8.7147035, 49.4032537 ], [ 8.7143911, 49.4033491 ], [ 8.7140659, 49.4034242 ], [ 8.713731, 49.403478 ], [ 8.7133896, 49.4035102 ], [ 8.713045, 49.4035204 ], [ 8.7127006, 49.4035085 ], [ 8.7123596, 49.4034746 ], [ 8.7120253, 49.4034191 ], [ 8.711701, 49.4033425 ], [ 8.7113898, 49.4032454 ], [ 8.7110946, 49.403129 ], [ 8.7108183, 49.4029942 ], [ 8.7105637, 49.4028424 ], [ 8.710333, 49.402675 ], [ 8.7101286, 49.4024937 ], [ 8.7099524, 49.4023002 ], [ 8.7098061, 49.4020964 ], [ 8.7096912, 49.4018841 ], [ 8.7096087, 49.4016656 ], [ 8.7095594, 49.4014428 ], [ 8.7095438, 49.4012179 ], [ 8.709562, 49.4009931 ], [ 8.709614, 49.4007706 ], [ 8.709699, 49.4005525 ], [ 8.7098165, 49.4003408 ], [ 8.7099652, 49.4001377 ], [ 8.7101436, 49.3999451 ], [ 8.7103501, 49.3997648 ], [ 8.7105827, 49.3995986 ], [ 8.7108392, 49.3994481 ], [ 8.711117, 49.3993147 ], [ 8.7114135, 49.3991997 ], [ 8.7117258, 49.3991043 ], [ 8.712051, 49.3990292 ], [ 8.7123859, 49.3989754 ], [ 8.7127272, 49.3989432 ], [ 8.7130718, 49.398933 ], [ 8.7134162, 49.3989449 ], [ 8.7137571, 49.3989788 ], [ 8.7140914, 49.3990343 ], [ 8.7144157, 49.3991109 ], [ 8.7147269, 49.3992079 ] ] ] ] } },
{ "type": "Feature", "properties": { "index": "1", "label": "Beyond 255 m", "color": "#d9d9d9" }, "geometry": { "type": "MultiPolygon", "coordinates": [ [ [ [ 8.6935479, 49.3980038 ], [ 8.72, 49.398 ], [ 8.72, 49.4074926 ], [ 8.7199343, 49.4074667 ], [ 8.719623, 49.4073697 ], [ 8.7192986, 49.4072931 ], [ 8.7189643, 49.4072375 ], [ 8.7186233, 49.4072037 ], [ 8.7183841, 49.4071954 ], [ 8.7183686, 49.4069726 ], [ 8.7183193, 49.4067498 ], [ 8.7182367, 49.4065312 ], [ 8.7181217, 49.406319 ], [ 8.7179754, 49.4061152 ], [ 8.7177992, 49.4059217 ], [ 8.7175947, 49.4057404 ], [ 8.717364, 49.405573 ], [ 8.7171093, 49.4054212 ], [ 8.716833, 49.4052865 ], [ 8.7165378, 49.40517 ], [ 8.7162266, 49.405073 ], [ 8.7159022, 49.4049964 ], [ 8.7155679, 49.4049409 ], [ 8.7152269, 49.404907 ], [ 8.7148825, 49.4048951 ], [ 8.7145379, 49.4049053 ], [ 8.7141965, 49.4049375 ], [ 8.7140253, 49.404965 ], [ 8.7138878, 49.404978 ], [ 8.7135529, 49.4050319 ], [ 8.7132277, 49.4051069 ], [ 8.7130659, 49.4051563 ], [ 8.7130312, 49.4050922 ], [ 8.7128849, 49.4048884 ], [ 8.7127087, 49.4046949 ], [ 8.7125043, 49.4045136 ], [ 8.7122736, 49.4043462 ], [ 8.7120189, 49.4041944 ], [ 8.7117427, 49.4040597 ], [ 8.7114475, 49.4039432 ], [ 8.7111362, 49.4038462 ], [ 8.7108119, 49.4037695 ], [ 8.7104777, 49.403714 ], [ 8.7101367, 49.4036801 ], [ 8.7099736, 49.4036745 ], [ 8.7097336, 49.4036346 ], [ 8.7093926, 49.4036007 ], [ 8.7090482, 49.4035888 ], [ 8.7087036, 49.403599 ], [ 8.7083622, 49.4036312 ], [ 8.7080273, 49.403685 ], [ 8.7077021, 49.40376 ], [ 8.7073897, 49.4038555 ], [ 8.7070931, 49.4039704 ], [ 8.7068153, 49.4041038 ], [ 8.7065588, 49.4042543 ], [ 8.7063262, 49.4044205 ], [ 8.7061196, 49.4046008 ], [ 8.7059411, 49.4047934 ], [ 8.7057925, 49.4049965 ], [ 8.705675, 49.4052082 ], [ 8.7055899, 49.4054263 ], [ 8.7055871, 49.4054381 ], [ 8.7054325, 49.4055486 ], [ 8.7052259, 49.4057289 ], [ 8.7050474, 49.4059215 ], [ 8.7048987, 49.4061246 ], [ 8.7047812, 49.4063362 ], [ 8.7046968, 49.4065526 ], [ 8.7045305, 49.4066502 ], [ 8.7045238, 49.406655 ], [ 8.7044106, 49.4066732 ], [ 8.7040853, 49.4067482 ], [ 8.7037729, 49.4068436 ], [ 8.7034764, 49.4069586 ], [ 8.7031985, 49.407092 ], [ 8.7029484, 49.4072387 ], [ 8.7027303, 49.4071871 ], [ 8.702396, 49.4071316 ], [ 8.702055, 49.4070976 ], [ 8.7017105, 49.4070857 ], [ 8.7013659, 49.4070959 ], [ 8.7013125, 49.4071009 ], [ 8.7011634, 49.4069927 ], [ 8.7009088, 49.4068408 ], [ 8.7006325, 49.406706 ], [ 8.7003373, 49.4065896 ], [ 8.7000261, 49.4064925 ], [ 8.6997018, 49.4064158 ], [ 8.6993675, 49.4063603 ], [ 8.6990265, 49.4063264 ], [ 8.698682, 49.4063144 ], [ 8.6984365, 49.4063216 ], [ 8.6983012, 49.4061331 ], [ 8.6981251, 49.4059396 ], [ 8.6979207, 49.4057582 ], [ 8.6976901, 49.4055908 ], [ 8.6975925, 49.4055326 ], [ 8.6975893, 49.4055182 ], [ 8.6975068, 49.4052996 ], [ 8.6973919, 49.4050874 ], [ 8.6972457, 49.4048835 ], [ 8.6970695, 49.40469 ], [ 8.6968652, 49.4045087 ], [ 8.6966345, 49.4043413 ], [ 8.6963799, 49.4041894 ], [ 8.6961037, 49.4040546 ], [ 8.6958085, 49.4039381 ], [ 8.6954973, 49.4038411 ], [ 8.6953258, 49.4038005 ], [ 8.6953077, 49.4037806 ], [ 8.6951034, 49.4035993 ], [ 8.694884, 49.4034401 ], [ 8.6949402, 49.4033387 ], [ 8.6950254, 49.4031206 ], [ 8.6950774, 49.4028981 ], [ 8.6950957, 49.4026733 ], [ 8.6950802, 49.4024485 ], [ 8.695031, 49.4022257 ], [ 8.6949485, 49.4020071 ], [ 8.6948336, 49.4017949 ], [ 8.6946874, 49.401591 ], [ 8.6945113, 49.4013975 ], [ 8.6944987, 49.4013862 ], [ 8.6946506, 49.4012537 ], [ 8.6946532, 49.4012509 ], [ 8.694654, 49.4012502 ], [ 8.6948325, 49.4010576 ], [ 8.6949813, 49.4008545 ], [ 8.6950988, 49.4006428 ], [ 8.6951839, 49.4004247 ], [ 8.6952359, 49.4002022 ], [ 8.6952542, 49.3999774 ], [ 8.6952387, 49.3997526 ], [ 8.6951895, 49.3995298 ], [ 8.6951894, 49.3995295 ], [ 8.6951893, 49.3995291 ], [ 8.6951068, 49.3993105 ], [ 8.6949919, 49.3990983 ], [ 8.6948457, 49.3988944 ], [ 8.6946696, 49.3987008 ], [ 8.6944653, 49.3985195 ], [ 8.6942347, 49.3983521 ], [ 8.6939801, 49.3982003 ], [ 8.6937039, 49.3980655 ], [ 8.6935479, 49.3980038 ] ], [ [ 8.715553, 49.399611 ], [ 8.7152983, 49.3994592 ], [ 8.7150221, 49.3993244 ], [ 8.7147269, 49.3992079 ], [ 8.7144157, 49.3991109 ], [ 8.7140914, 49.3990343 ], [ 8.7137571, 49.3989788 ], [ 8.7134162, 49.3989449 ], [ 8.7130718, 49.398933 ], [ 8.7127272, 49.3989432 ], [ 8.7123859, 49.3989754 ], [ 8.712051, 49.3990292 ], [ 8.7117258, 49.3991043 ], [ 8.7114135, 49.3991997 ], [ 8.711117, 49.3993147 ], [ 8.7108392, 49.3994481 ], [ 8.7105827, 49.3995986 ], [ 8.7103501, 49.3997648 ], [ 8.7101436, 49.3999451 ], [ 8.7099652, 49.4001377 ], [ 8.7098165, 49.4003408 ], [ 8.709699, 49.4005525 ], [ 8.709614, 49.4007706 ], [ 8.709562, 49.4009931 ], [ 8.7095438, 49.4012179 ], [ 8.7095594, 49.4014428 ], [ 8.7096087, 49.4016656 ], [ 8.7096912, 49.4018841 ], [ 8.7098061, 49.4020964 ], [ 8.7099524, 49.4023002 ], [ 8.7101286, 49.4024937 ], [ 8.710333, 49.402675 ], [ 8.7105637, 49.4028424 ], [ 8.7108183, 49.4029942 ], [ 8.7110946, 49.403129 ], [ 8.7113898, 49.4032454 ], [ 8.711701, 49.4033425 ], [ 8.7120253, 49.4034191 ], [ 8.7123596, 49.4034746 ], [ 8.7127006, 49.4035085 ], [ 8.713045, 49.4035204 ], [ 8.7133896, 49.4035102 ], [ 8.713731, 49.403478 ], [ 8.7140659, 49.4034242 ], [ 8.7143911, 49.4033491 ], [ 8.7147035, 49.4032537 ], [ 8.715, 49.4031387 ], [ 8.7152778, 49.4030053 ], [ 8.7155342, 49.4028547 ], [ 8.7157668, 49.4026885 ], [ 8.7159733, 49.4025082 ], [ 8.7161518, 49.4023156 ], [ 8.7163004, 49.4021125 ], [ 8.7164178, 49.4019008 ], [ 8.7165029, 49.4016827 ], [ 8.7165548, 49.4014601 ], [ 8.716573, 49.4012354 ], [ 8.7165574, 49.4010105 ], [ 8.7165081, 49.4007877 ], [ 8.7164255, 49.4005692 ], [ 8.7163105, 49.400357 ], [ 8.7161642, 49.4001531 ], [ 8.715988, 49.3999596 ], [ 8.7157836, 49.3997783 ], [ 8.715553, 49.399611 ] ] ], [ [ [ 8.72, 49.4180482 ], [ 8.72, 49.422 ], [ 8.712234, 49.4220018 ], [ 8.7123719, 49.4219699 ], [ 8.7126844, 49.4218745 ], [ 8.712981, 49.4217595 ], [ 8.713259, 49.4216261 ], [ 8.7135155, 49.4214756 ], [ 8.7137482, 49.4213094 ], [ 8.7139548, 49.4211291 ], [ 8.7141333, 49.4209364 ], [ 8.714282, 49.4207333 ], [ 8.7143995, 49.4205217 ], [ 8.7144846, 49.4203035 ], [ 8.7145365, 49.420081 ], [ 8.7145395, 49.4200448 ], [ 8.7146907, 49.4200099 ], [ 8.7150031, 49.4199144 ], [ 8.7152997, 49.4197995 ], [ 8.7155777, 49.4196661 ], [ 8.7158342, 49.4195155 ], [ 8.7160669, 49.4193493 ], [ 8.7162734, 49.419169 ], [ 8.7164519, 49.4189764 ], [ 8.7166006, 49.4187733 ], [ 8.7166926, 49.4186076 ], [ 8.7168759, 49.418638 ], [ 8.717217, 49.4186719 ], [ 8.7175615, 49.4186838 ], [ 8.7179062, 49.4186736 ], [ 8.7182477, 49.4186414 ], [ 8.7185827, 49.4185875 ], [ 8.718908, 49.4185125 ], [ 8.7192205, 49.418417 ], [ 8.7195171, 49.418302 ], [ 8.7197949, 49.4181686 ], [ 8.72, 49.4180482 ] ] ], [ [ [ 8.7096808, 49.4219632 ], [ 8.7098458, 49.4220022 ], [ 8.6958619, 49.4220037 ], [ 8.6959616, 49.4218962 ], [ 8.6961103, 49.4216931 ], [ 8.6961357, 49.4216475 ], [ 8.6963799, 49.4217237 ], [ 8.6967044, 49.4218003 ], [ 8.6970387, 49.4218559 ], [ 8.6973798, 49.4218898 ], [ 8.6977244, 49.4219018 ], [ 8.6980691, 49.4218916 ], [ 8.6984106, 49.4218595 ], [ 8.6987457, 49.4218057 ], [ 8.699071, 49.4217307 ], [ 8.6993835, 49.4216353 ], [ 8.6996802, 49.4215203 ], [ 8.6999582, 49.4213869 ], [ 8.7002148, 49.4212365 ], [ 8.7004475, 49.4210703 ], [ 8.7006541, 49.42089 ], [ 8.7007229, 49.4208158 ], [ 8.7008427, 49.4209221 ], [ 8.7010734, 49.4210895 ], [ 8.7013282, 49.4212413 ], [ 8.7016045, 49.4213761 ], [ 8.7018998, 49.4214926 ], [ 8.7022111, 49.4215896 ], [ 8.7025355, 49.4216663 ], [ 8.7028699, 49.4217219 ], [ 8.703211, 49.4217558 ], [ 8.7035556, 49.4217677 ], [ 8.7036502, 49.4217649 ], [ 8.7037212, 49.421772 ], [ 8.7040658, 49.4217839 ], [ 8.7044105, 49.4217737 ], [ 8.704752, 49.4217416 ], [ 8.7050871, 49.4216877 ], [ 8.7054124, 49.4216127 ], [ 8.7057249, 49.4215173 ], [ 8.7060215, 49.4214023 ], [ 8.7062995, 49.4212689 ], [ 8.7065561, 49.4211184 ], [ 8.7067888, 49.4209522 ], [ 8.7069954, 49.4207719 ], [ 8.7071739, 49.4205793 ], [ 8.7073227, 49.4203762 ], [ 8.7074402, 49.4201646 ], [ 8.7075253, 49.4199464 ], [ 8.7075292, 49.4199299 ], [ 8.7075384, 49.4200635 ], [ 8.7075878, 49.4202863 ], [ 8.7076703, 49.4205049 ], [ 8.7077853, 49.4207171 ], [ 8.7079316, 49.4209209 ], [ 8.7081078, 49.4211145 ], [ 8.7083123, 49.4212958 ], [ 8.708543, 49.4214631 ], [ 8.7087978, 49.4216149 ], [ 8.7090742, 49.4217497 ], [ 8.7093694, 49.4218662 ], [ 8.7096808, 49.4219632 ] ] ], [ [ [ 8.6748016, 49.4219017 ], [ 8.6748397, 49.4220029 ], [ 8.6708035, 49.4220023 ], [ 8.6708064, 49.4220016 ], [ 8.671119, 49.4219063 ], [ 8.6714157, 49.4217914 ], [ 8.6716938, 49.4216581 ], [ 8.6719504, 49.4215077 ], [ 8.6721833, 49.4213415 ], [ 8.6722722, 49.421264 ], [ 8.6723504, 49.4212667 ], [ 8.6724734, 49.4212958 ], [ 8.6728077, 49.4213515 ], [ 8.6731488, 49.4213855 ], [ 8.6734188, 49.4213949 ], [ 8.6734607, 49.4214153 ], [ 8.6737559, 49.4215319 ], [ 8.6740672, 49.421629 ], [ 8.6743916, 49.4217057 ], [ 8.6747259, 49.4217614 ], [ 8.6747716, 49.4217659 ], [ 8.6748016, 49.4219017 ] ] ], [ [ [ 8.6681153, 49.4219939 ], [ 8.6681487, 49.4220018 ], [ 8.6647925, 49.4220011 ], [ 8.6648798, 49.4219072 ], [ 8.6650287, 49.4217041 ], [ 8.6651464, 49.4214925 ], [ 8.6652317, 49.4212744 ], [ 8.6652467, 49.4212102 ], [ 8.665459, 49.4212455 ], [ 8.6658001, 49.4212795 ], [ 8.6661446, 49.4212916 ], [ 8.6661666, 49.4212909 ], [ 8.6661887, 49.4212978 ], [ 8.666209, 49.4213026 ], [ 8.6662709, 49.4213271 ], [ 8.6665822, 49.4214242 ], [ 8.6669065, 49.421501 ], [ 8.6670232, 49.4215204 ], [ 8.6672326, 49.4216453 ], [ 8.6675089, 49.4217802 ], [ 8.667804, 49.4218968 ], [ 8.6681153, 49.4219939 ] ] ], [ [ [ 8.6601428, 49.4187892 ], [ 8.66, 49.4188445 ], [ 8.66, 49.4175634 ], [ 8.6600517, 49.4176093 ], [ 8.6602823, 49.4177768 ], [ 8.6605369, 49.4179287 ], [ 8.6608131, 49.4180636 ], [ 8.6611082, 49.4181802 ], [ 8.6614194, 49.4182773 ], [ 8.6617438, 49.4183541 ], [ 8.6620781, 49.4184098 ], [ 8.6624191, 49.4184438 ], [ 8.6626591, 49.4184522 ], [ 8.6626498, 49.4185653 ], [ 8.6626519, 49.4185967 ], [ 8.6624877, 49.4185693 ], [ 8.6621466, 49.4185353 ], [ 8.6618021, 49.4185232 ], [ 8.6614574, 49.4185333 ], [ 8.6611159, 49.4185653 ], [ 8.6607808, 49.418619 ], [ 8.6604554, 49.4186939 ], [ 8.6601428, 49.4187892 ] ] ], [ [ [ 8.6600718, 49.4146992 ], [ 8.66, 49.4147617 ], [ 8.66, 49.4109324 ], [ 8.6602719, 49.4110398 ], [ 8.6605831, 49.4111369 ], [ 8.6609074, 49.4112137 ], [ 8.6612416, 49.4112694 ], [ 8.6615827, 49.4113034 ], [ 8.6619271, 49.4113155 ], [ 8.6619398, 49.4113151 ], [ 8.6620958, 49.4114284 ], [ 8.6623504, 49.4115803 ], [ 8.6626266, 49.4117152 ], [ 8.6629217, 49.4118318 ], [ 8.6632329, 49.411929 ], [ 8.6635572, 49.4120057 ], [ 8.6638915, 49.4120614 ], [ 8.6642325, 49.4120954 ], [ 8.664577, 49.4121075 ], [ 8.6649216, 49.4120974 ], [ 8.6652631, 49.4120654 ], [ 8.6652873, 49.4120615 ], [ 8.6653558, 49.4120729 ], [ 8.6656968, 49.4121069 ], [ 8.6660413, 49.412119 ], [ 8.666386, 49.4121089 ], [ 8.6667275, 49.4120769 ], [ 8.6670625, 49.4120232 ], [ 8.6673878, 49.4119483 ], [ 8.6677003, 49.4118529 ], [ 8.667997, 49.411738 ], [ 8.6680403, 49.4117173 ], [ 8.6680473, 49.4118202 ], [ 8.6679038, 49.4120161 ], [ 8.6677861, 49.4122277 ], [ 8.6677008, 49.4124458 ], [ 8.6676487, 49.4126683 ], [ 8.6676351, 49.4128344 ], [ 8.6675398, 49.4128497 ], [ 8.6673557, 49.412892 ], [ 8.6671893, 49.4128526 ], [ 8.666855, 49.412797 ], [ 8.666514, 49.412763 ], [ 8.6661695, 49.4127509 ], [ 8.6658248, 49.412761 ], [ 8.6654833, 49.412793 ], [ 8.6651483, 49.4128467 ], [ 8.664823, 49.4129216 ], [ 8.6645105, 49.413017 ], [ 8.6642138, 49.4131318 ], [ 8.6639357, 49.4132651 ], [ 8.6636791, 49.4134155 ], [ 8.6634463, 49.4135816 ], [ 8.6632395, 49.4137618 ], [ 8.6631296, 49.4138802 ], [ 8.6627951, 49.4138685 ], [ 8.6624505, 49.4138786 ], [ 8.662109, 49.4139106 ], [ 8.6617739, 49.4139643 ], [ 8.6614486, 49.4140392 ], [ 8.6611361, 49.4141345 ], [ 8.6608393, 49.4142494 ], [ 8.6605613, 49.4143826 ], [ 8.6603046, 49.414533 ], [ 8.6600718, 49.4146992 ] ] ], [ [ [ 8.66, 49.4010971 ], [ 8.66, 49.398 ], [ 8.6645109, 49.3980011 ], [ 8.6645024, 49.398104 ], [ 8.6645178, 49.3983288 ], [ 8.6645669, 49.3985516 ], [ 8.6645824, 49.3985927 ], [ 8.6644394, 49.3986613 ], [ 8.6641828, 49.3988117 ], [ 8.6641344, 49.3988463 ], [ 8.66407, 49.3988566 ], [ 8.6637448, 49.3989315 ], [ 8.6634324, 49.3990268 ], [ 8.6631357, 49.3991417 ], [ 8.6628578, 49.399275 ], [ 8.6626012, 49.3994254 ], [ 8.6623685, 49.3995915 ], [ 8.6621618, 49.3997717 ], [ 8.6619831, 49.3999642 ], [ 8.6618521, 49.400143 ], [ 8.6617401, 49.4002229 ], [ 8.6617224, 49.4002283 ], [ 8.6614258, 49.4003432 ], [ 8.6611478, 49.4004764 ], [ 8.6608912, 49.4006269 ], [ 8.6606584, 49.400793 ], [ 8.6605934, 49.4008497 ], [ 8.6605373, 49.4008668 ], [ 8.6602407, 49.4009817 ], [ 8.66, 49.4010971 ] ] ], [ [ [ 8.6753283, 49.3981588 ], [ 8.6753176, 49.398003 ], [ 8.6825845, 49.3980037 ], [ 8.6825401, 49.3981935 ], [ 8.6825217, 49.3984183 ], [ 8.6825372, 49.3986432 ], [ 8.6825784, 49.3988299 ], [ 8.6824557, 49.3989175 ], [ 8.6822491, 49.3990977 ], [ 8.6820705, 49.3992903 ], [ 8.6819218, 49.3994934 ], [ 8.6818042, 49.399705 ], [ 8.681719, 49.3999231 ], [ 8.6816669, 49.4001456 ], [ 8.6816486, 49.4003704 ], [ 8.6816588, 49.4005199 ], [ 8.6816301, 49.4005059 ], [ 8.681335, 49.4003893 ], [ 8.6810238, 49.4002922 ], [ 8.6806996, 49.4002155 ], [ 8.6803654, 49.4001599 ], [ 8.6800244, 49.4001259 ], [ 8.67968, 49.4001139 ], [ 8.6793355, 49.400124 ], [ 8.6789941, 49.4001561 ], [ 8.6786592, 49.4002098 ], [ 8.6783339, 49.4002848 ], [ 8.6780215, 49.4003801 ], [ 8.6777249, 49.400495 ], [ 8.677447, 49.4006284 ], [ 8.677287, 49.4007222 ], [ 8.6772685, 49.4006964 ], [ 8.6770925, 49.4005028 ], [ 8.6768882, 49.4003214 ], [ 8.6766577, 49.400154 ], [ 8.6764031, 49.4000021 ], [ 8.676127, 49.3998673 ], [ 8.6758319, 49.3997507 ], [ 8.6755208, 49.3996536 ], [ 8.6751965, 49.3995769 ], [ 8.6751809, 49.3995742 ], [ 8.6751909, 49.3994521 ], [ 8.6751754, 49.3992273 ], [ 8.6751263, 49.3990045 ], [ 8.6751045, 49.3989467 ], [ 8.6751726, 49.3988242 ], [ 8.6752578, 49.3986061 ], [ 8.6753099, 49.3983836 ], [ 8.6753283, 49.3981588 ] ] ], [ [ [ 8.6867665, 49.4154784 ], [ 8.6866312, 49.415425 ], [ 8.6863199, 49.4153279 ], [ 8.6859956, 49.4152512 ], [ 8.6856613, 49.4151956 ], [ 8.6853202, 49.4151616 ], [ 8.6849757, 49.4151496 ], [ 8.684631, 49.4151597 ], [ 8.6844399, 49.4151777 ], [ 8.6844492, 49.4151609 ], [ 8.6845344, 49.4149428 ], [ 8.6845606, 49.4148312 ], [ 8.684593, 49.4148323 ], [ 8.684818, 49.4148547 ], [ 8.684829, 49.4148551 ], [ 8.6849306, 49.4148652 ], [ 8.6852751, 49.4148772 ], [ 8.6854867, 49.414871 ], [ 8.6855412, 49.41488 ], [ 8.6858823, 49.414914 ], [ 8.6862268, 49.414926 ], [ 8.6864657, 49.414919 ], [ 8.686502, 49.4149226 ], [ 8.6866246, 49.414971 ], [ 8.6869057, 49.4150587 ], [ 8.6869042, 49.4150773 ], [ 8.6869073, 49.4151221 ], [ 8.6868671, 49.4151945 ], [ 8.6867818, 49.4154126 ], [ 8.6867665, 49.4154784 ] ] ], [ [ [ 8.6831094, 49.4028646 ], [ 8.6831614, 49.4026421 ], [ 8.6831798, 49.4024173 ], [ 8.6831695, 49.4022678 ], [ 8.6831983, 49.4022818 ], [ 8.6834934, 49.4023983 ], [ 8.6836557, 49.402449 ], [ 8.6836674, 49.40248 ], [ 8.6837822, 49.4026922 ], [ 8.6838741, 49.4028203 ], [ 8.6838393, 49.402969 ], [ 8.683821, 49.4031937 ], [ 8.6838219, 49.4032068 ], [ 8.683662, 49.4031115 ], [ 8.6833858, 49.4029766 ], [ 8.6831084, 49.4028671 ], [ 8.6831094, 49.4028646 ] ] ] ] } }
]
}
