{
"type": "FeatureCollection",
"features": [
{ "type": "Feature", "properties": { "index": "0", "label": "Within 300 m on foot", "color": "#2b8cbe" }, "geometry": { "type": "Polygon", "coordinates": [ [ [ 8.6639003, 49.3983667 ], [ 8.6638822, 49.3981022 ], [ 8.6638905, 49.3980009 ], [ 8.6759377, 49.398003 ], [ 8.6759485, 49.3981606 ], [ 8.6759268, 49.398425 ], [ 8.6758656, 49.3986868 ], [ 8.6757653, 49.3989434 ], [ 8.6757462, 49.3989777 ], [ 8.6757929, 49.3991893 ], [ 8.6758, 49.3992926 ], [ 8.6761266, 49.3993946 ], [ 8.6764738, 49.3995317 ], [ 8.6767986, 49.3996903 ], [ 8.6770981, 49.399869 ], [ 8.6773693, 49.400066 ], [ 8.6774451, 49.4001333 ], [ 8.6777315, 49.4000224 ], [ 8.678099, 49.3999102 ], [ 8.6784817, 49.399822 ], [ 8.6788757, 49.3997588 ], [ 8.6792773, 49.399721 ], [ 8.6796827, 49.3997091 ], [ 8.6800878, 49.3997233 ], [ 8.680489, 49.3997632 ], [ 8.6808821, 49.3998287 ], [ 8.6811022, 49.3998807 ], [ 8.6811112, 49.3998424 ], [ 8.6812115, 49.3995858 ], [ 8.6813498, 49.3993369 ], [ 8.6815248, 49.399098 ], [ 8.6817349, 49.3988714 ], [ 8.6819251, 49.3987055 ], [ 8.6819197, 49.3986811 ], [ 8.6819015, 49.3984166 ], [ 8.6819231, 49.3981522 ], [ 8.6819579, 49.3980036 ], [ 8.694569, 49.3980038 ], [ 8.694675, 49.3980671 ], [ 8.6949463, 49.398264 ], [ 8.6951867, 49.3984773 ], [ 8.6953939, 49.398705 ], [ 8.6955659, 49.3989449 ], [ 8.695701, 49.3991946 ], [ 8.695798, 49.3994517 ], [ 8.6957981, 49.3994521 ], [ 8.6957982, 49.3994524 ], [ 8.6958562, 49.3997145 ], [ 8.6958744, 49.399979 ], [ 8.6958529, 49.4002435 ], [ 8.6957917, 49.4005053 ], [ 8.6956916, 49.4007619 ], [ 8.6955533, 49.4010109 ], [ 8.6953783, 49.4012498 ], [ 8.6952365, 49.4014029 ], [ 8.6954076, 49.4016415 ], [ 8.6955428, 49.4018912 ], [ 8.6956398, 49.4021483 ], [ 8.6956977, 49.4024104 ], [ 8.695716, 49.402675 ], [ 8.6956944, 49.4029394 ], [ 8.6956333, 49.4032012 ], [ 8.6955791, 49.4033399 ], [ 8.6955844, 49.4033438 ], [ 8.6957194, 49.4034636 ], [ 8.695737, 49.4034677 ], [ 8.6961031, 49.4035819 ], [ 8.6964503, 49.403719 ], [ 8.6967753, 49.4038776 ], [ 8.6970749, 49.4040562 ], [ 8.6973462, 49.4042531 ], [ 8.6975866, 49.4044665 ], [ 8.6977939, 49.4046941 ], [ 8.6979659, 49.404934 ], [ 8.6981011, 49.4051837 ], [ 8.6981535, 49.4053225 ], [ 8.6984017, 49.4055027 ], [ 8.6986422, 49.405716 ], [ 8.6988228, 49.4059144 ], [ 8.6990898, 49.4059237 ], [ 8.6994909, 49.4059636 ], [ 8.6998842, 49.406029 ], [ 8.7002657, 49.4061192 ], [ 8.7006319, 49.4062333 ], [ 8.7009792, 49.4063704 ], [ 8.7013042, 49.406529 ], [ 8.7015663, 49.4066853 ], [ 8.7017129, 49.4066809 ], [ 8.7021182, 49.406695 ], [ 8.7025194, 49.4067349 ], [ 8.7028008, 49.4067816 ], [ 8.7028069, 49.4067781 ], [ 8.7031338, 49.4066211 ], [ 8.7034827, 49.4064859 ], [ 8.7038502, 49.4063736 ], [ 8.7041547, 49.4063034 ], [ 8.7041883, 49.4062172 ], [ 8.7043266, 49.4059682 ], [ 8.7045015, 49.4057293 ], [ 8.7047115, 49.4055027 ], [ 8.7049545, 49.4052906 ], [ 8.7050224, 49.4052421 ], [ 8.7050821, 49.4050892 ], [ 8.7052203, 49.4048402 ], [ 8.7053953, 49.4046012 ], [ 8.7056052, 49.4043746 ], [ 8.7058482, 49.4041625 ], [ 8.7061219, 49.403967 ], [ 8.7064237, 49.4037899 ], [ 8.7067506, 49.403633 ], [ 8.7070994, 49.4034977 ], [ 8.7074669, 49.4033855 ], [ 8.7078495, 49.4032972 ], [ 8.7082435, 49.4032339 ], [ 8.7086452, 49.403196 ], [ 8.7090505, 49.403184 ], [ 8.7094558, 49.4031981 ], [ 8.7098569, 49.4032379 ], [ 8.7100673, 49.4032729 ], [ 8.7101998, 49.4032775 ], [ 8.71041, 49.4032983 ], [ 8.7101234, 49.4031275 ], [ 8.709852, 49.4029306 ], [ 8.7096116, 49.4027173 ], [ 8.7094043, 49.4024896 ], [ 8.7092322, 49.4022498 ], [ 8.709097, 49.4020001 ], [ 8.7089999, 49.401743 ], [ 8.7089419, 49.4014809 ], [ 8.7089236, 49.4012164 ], [ 8.708945, 49.4009519 ], [ 8.7090061, 49.4006901 ], [ 8.7091062, 49.4004335 ], [ 8.7092444, 49.4001845 ], [ 8.7094193, 49.3999455 ], [ 8.7096292, 49.3997189 ], [ 8.7098722, 49.3995068 ], [ 8.7101459, 49.3993113 ], [ 8.7104475, 49.3991342 ], [ 8.7107744, 49.3989773 ], [ 8.7111232, 49.398842 ], [ 8.7114907, 49.3987297 ], [ 8.7118732, 49.3986414 ], [ 8.7122672, 49.3985781 ], [ 8.7126688, 49.3985402 ], [ 8.7130741, 49.3985282 ], [ 8.7134793, 49.3985422 ], [ 8.7138804, 49.3985821 ], [ 8.7142737, 49.3986474 ], [ 8.7146552, 49.3987376 ], [ 8.7150213, 49.3988517 ], [ 8.7153686, 49.3989887 ], [ 8.7156936, 49.3991472 ], [ 8.7159932, 49.3993258 ], [ 8.7162645, 49.3995227 ], [ 8.716505, 49.399736 ], [ 8.7167123, 49.3999636 ], [ 8.7168844, 49.4002035 ], [ 8.7170197, 49.4004531 ], [ 8.7171168, 49.4007102 ], [ 8.7171749, 49.4009723 ], [ 8.7171932, 49.4012369 ], [ 8.7171718, 49.4015013 ], [ 8.7171108, 49.4017631 ], [ 8.7170107, 49.4020198 ], [ 8.7168726, 49.4022688 ], [ 8.7166977, 49.4025077 ], [ 8.7164878, 49.4027344 ], [ 8.7162448, 49.4029465 ], [ 8.7159712, 49.403142 ], [ 8.7156695, 49.4033191 ], [ 8.7153426, 49.4034761 ], [ 8.7149938, 49.4036114 ], [ 8.7146263, 49.4037237 ], [ 8.7142437, 49.4038119 ], [ 8.7138497, 49.4038753 ], [ 8.7134481, 49.4039132 ], [ 8.7130427, 49.4039252 ], [ 8.7126374, 49.4039112 ], [ 8.7124273, 49.4038903 ], [ 8.7127139, 49.4040611 ], [ 8.7129853, 49.404258 ], [ 8.7132258, 49.4044713 ], [ 8.7133821, 49.4046429 ], [ 8.7137691, 49.4045807 ], [ 8.7139066, 49.4045677 ], [ 8.7140778, 49.4045402 ], [ 8.7144794, 49.4045023 ], [ 8.7148848, 49.4044903 ], [ 8.7152901, 49.4045043 ], [ 8.7156912, 49.4045442 ], [ 8.7160845, 49.4046095 ], [ 8.7164661, 49.4046996 ], [ 8.7168323, 49.4048138 ], [ 8.7171796, 49.4049508 ], [ 8.7175046, 49.4051093 ], [ 8.7178043, 49.4052879 ], [ 8.7180757, 49.4054848 ], [ 8.7183162, 49.405698 ], [ 8.7185235, 49.4059257 ], [ 8.7186957, 49.4061655 ], [ 8.718831, 49.4064152 ], [ 8.7189281, 49.4066723 ], [ 8.7189627, 49.4068284 ], [ 8.7190876, 49.4068409 ], [ 8.7194809, 49.4069062 ], [ 8.7198625, 49.4069963 ], [ 8.72, 49.4070391 ], [ 8.72, 49.4185721 ], [ 8.7198598, 49.4186394 ], [ 8.7195109, 49.4187747 ], [ 8.7191433, 49.418887 ], [ 8.7187606, 49.4189753 ], [ 8.7183665, 49.4190387 ], [ 8.7179647, 49.4190766 ], [ 8.7175592, 49.4190886 ], [ 8.7171539, 49.4190746 ], [ 8.7170727, 49.4190665 ], [ 8.716998, 49.4191685 ], [ 8.716788, 49.4193952 ], [ 8.716545, 49.4196073 ], [ 8.7162713, 49.4198028 ], [ 8.7159695, 49.4199799 ], [ 8.7156425, 49.4201369 ], [ 8.7152935, 49.4202721 ], [ 8.7151054, 49.4203296 ], [ 8.7150927, 49.420384 ], [ 8.7149926, 49.4206406 ], [ 8.7148544, 49.4208896 ], [ 8.7146794, 49.4211286 ], [ 8.7144694, 49.4213552 ], [ 8.7142263, 49.4215673 ], [ 8.7139526, 49.4217629 ], [ 8.7136508, 49.42194 ], [ 8.7135226, 49.4220015 ], [ 8.7085572, 49.4220024 ], [ 8.7084023, 49.4219268 ], [ 8.7081026, 49.4217482 ], [ 8.7078312, 49.4215513 ], [ 8.7075906, 49.421338 ], [ 8.7073833, 49.4211104 ], [ 8.7073825, 49.4211093 ], [ 8.7072669, 49.4212102 ], [ 8.7069931, 49.4214057 ], [ 8.7066913, 49.4215828 ], [ 8.7063643, 49.4217397 ], [ 8.7060153, 49.421875 ], [ 8.7056476, 49.4219873 ], [ 8.7055801, 49.4220028 ], [ 8.7021418, 49.4220033 ], [ 8.7019714, 49.421963 ], [ 8.7016051, 49.4218488 ], [ 8.7012577, 49.4217118 ], [ 8.7009326, 49.4215532 ], [ 8.7007571, 49.4214486 ], [ 8.7006518, 49.4215238 ], [ 8.7003499, 49.4217009 ], [ 8.7000229, 49.4218578 ], [ 8.6996739, 49.421993 ], [ 8.6996395, 49.4220035 ], [ 8.6738293, 49.4220028 ], [ 8.6738273, 49.4220023 ], [ 8.673461, 49.421888 ], [ 8.6732199, 49.4217928 ], [ 8.6730853, 49.4217881 ], [ 8.672684, 49.4217481 ], [ 8.6724968, 49.421717 ], [ 8.6723873, 49.4217951 ], [ 8.6720853, 49.4219721 ], [ 8.6720219, 49.4220025 ], [ 8.666928, 49.4220016 ], [ 8.6668369, 49.4219571 ], [ 8.6667187, 49.4218866 ], [ 8.6663422, 49.4217975 ], [ 8.6660025, 49.4216915 ], [ 8.6657365, 49.4216822 ], [ 8.6657021, 49.4216787 ], [ 8.6656009, 49.4218607 ], [ 8.6654977, 49.4220013 ], [ 8.66, 49.422 ], [ 8.66, 49.4183865 ], [ 8.6602206, 49.4183192 ], [ 8.6602762, 49.4183064 ], [ 8.6601411, 49.4182404 ], [ 8.66, 49.4181563 ], [ 8.66, 49.4141682 ], [ 8.6601699, 49.4140686 ], [ 8.660497, 49.4139118 ], [ 8.6608461, 49.4137767 ], [ 8.6612138, 49.4136645 ], [ 8.6615965, 49.4135764 ], [ 8.6619907, 49.4135133 ], [ 8.6623924, 49.4134756 ], [ 8.6627979, 49.4134638 ], [ 8.6628071, 49.4134641 ], [ 8.6629685, 49.4133235 ], [ 8.6632424, 49.413128 ], [ 8.6635443, 49.4129511 ], [ 8.6638714, 49.4127943 ], [ 8.6642204, 49.4126591 ], [ 8.6645881, 49.412547 ], [ 8.6647629, 49.4125067 ], [ 8.6645742, 49.4125122 ], [ 8.6641689, 49.4124981 ], [ 8.6637677, 49.4124581 ], [ 8.6633745, 49.4123926 ], [ 8.6629929, 49.4123022 ], [ 8.6626268, 49.4121879 ], [ 8.6622796, 49.4120508 ], [ 8.6619547, 49.4118921 ], [ 8.6616552, 49.4117134 ], [ 8.6616515, 49.4117107 ], [ 8.6615191, 49.4117061 ], [ 8.6611179, 49.411666 ], [ 8.6607246, 49.4116005 ], [ 8.6603431, 49.4115102 ], [ 8.66, 49.4114031 ], [ 8.66, 49.4006048 ], [ 8.6601808, 49.4005348 ], [ 8.6604546, 49.4003394 ], [ 8.6607565, 49.4001624 ], [ 8.6610835, 49.4000056 ], [ 8.6613385, 49.3999069 ], [ 8.6614375, 49.3997718 ], [ 8.6616476, 49.3995453 ], [ 8.6618908, 49.3993333 ], [ 8.6621646, 49.3991379 ], [ 8.6624665, 49.3989609 ], [ 8.6627935, 49.3988041 ], [ 8.6631424, 49.398669 ], [ 8.66351, 49.3985569 ], [ 8.6638073, 49.3984884 ], [ 8.6639134, 49.3984262 ], [ 8.6639003, 49.3983667 ] ] ] } },
{ "type": "Feature", "properties": { "index": "1", "label": "Beyond 300 m", "color": "#d9d9d9" }, "geometry": { "type": "MultiPolygon", "coordinates": [ [ [ [ 8.694569, 49.3980038 ], [ 8.72, 49.398 ], [ 8.72, 49.4070391 ], [ 8.7198625, 49.4069963 ], [ 8.7194809, 49.4069062 ], [ 8.7190876, 49.4068409 ], [ 8.7189627, 49.4068284 ], [ 8.7189281, 49.4066723 ], [ 8.718831, 49.4064152 ], [ 8.7186957, 49.4061655 ], [ 8.7185235, 49.4059257 ], [ 8.7183162, 49.405698 ], [ 8.7180757, 49.4054848 ], [ 8.7178043, 49.4052879 ], [ 8.7175046, 49.4051093 ], [ 8.7171796, 49.4049508 ], [ 8.7168323, 49.4048138 ], [ 8.7164661, 49.4046996 ], [ 8.7160845, 49.4046095 ], [ 8.7156912, 49.4045442 ], [ 8.7152901, 49.4045043 ], [ 8.7148848, 49.4044903 ], [ 8.7144794, 49.4045023 ], [ 8.7140778, 49.4045402 ], [ 8.7139066, 49.4045677 ], [ 8.7137691, 49.4045807 ], [ 8.7133821, 49.4046429 ], [ 8.7132258, 49.4044713 ], [ 8.7129853, 49.404258 ], [ 8.7127139, 49.4040611 ], [ 8.7124273, 49.4038903 ], [ 8.7126374, 49.4039112 ], [ 8.7130427, 49.4039252 ], [ 8.7134481, 49.4039132 ], [ 8.7138497, 49.4038753 ], [ 8.7142437, 49.4038119 ], [ 8.7146263, 49.4037237 ], [ 8.7149938, 49.4036114 ], [ 8.7153426, 49.4034761 ], [ 8.7156695, 49.4033191 ], [ 8.7159712, 49.403142 ], [ 8.7162448, 49.4029465 ], [ 8.7164878, 49.4027344 ], [ 8.7166977, 49.4025077 ], [ 8.7168726, 49.4022688 ], [ 8.7170107, 49.4020198 ], [ 8.7171108, 49.4017631 ], [ 8.7171718, 49.4015013 ], [ 8.7171932, 49.4012369 ], [ 8.7171749, 49.4009723 ], [ 8.7171168, 49.4007102 ], [ 8.7170197, 49.4004531 ], [ 8.7168844, 49.4002035 ], [ 8.7167123, 49.3999636 ], [ 8.716505, 49.399736 ], [ 8.7162645, 49.3995227 ], [ 8.7159932, 49.3993258 ], [ 8.7156936, 49.3991472 ], [ 8.7153686, 49.3989887 ], [ 8.7150213, 49.3988517 ], [ 8.7146552, 49.3987376 ], [ 8.7142737, 49.3986474 ], [ 8.7138804, 49.3985821 ], [ 8.7134793, 49.3985422 ], [ 8.7130741, 49.3985282 ], [ 8.7126688, 49.3985402 ], [ 8.7122672, 49.3985781 ], [ 8.7118732, 49.3986414 ], [ 8.7114907, 49.3987297 ], [ 8.7111232, 49.398842 ], [ 8.7107744, 49.3989773 ], [ 8.7104475, 49.3991342 ], [ 8.7101459, 49.3993113 ], [ 8.7098722, 49.3995068 ], [ 8.7096292, 49.3997189 ], [ 8.7094193, 49.3999455 ], [ 8.7092444, 49.4001845 ], [ 8.7091062, 49.4004335 ], [ 8.7090061, 49.4006901 ], [ 8.708945, 49.4009519 ], [ 8.7089236, 49.4012164 ], [ 8.7089419, 49.4014809 ], [ 8.7089999, 49.401743 ], [ 8.709097, 49.4020001 ], [ 8.7092322, 49.4022498 ], [ 8.7094043, 49.4024896 ], [ 8.7096116, 49.4027173 ], [ 8.709852, 49.4029306 ], [ 8.7101234, 49.4031275 ], [ 8.71041, 49.4032983 ], [ 8.7101998, 49.4032775 ], [ 8.7100673, 49.4032729 ], [ 8.7098569, 49.4032379 ], [ 8.7094558, 49.4031981 ], [ 8.7090505, 49.403184 ], [ 8.7086452, 49.403196 ], [ 8.7082435, 49.4032339 ], [ 8.7078495, 49.4032972 ], [ 8.7074669, 49.4033855 ], [ 8.7070994, 49.4034977 ], [ 8.7067506, 49.403633 ], [ 8.7064237, 49.4037899 ], [ 8.7061219, 49.403967 ], [ 8.7058482, 49.4041625 ], [ 8.7056052, 49.4043746 ], [ 8.7053953, 49.4046012 ], [ 8.7052203, 49.4048402 ], [ 8.7050821, 49.4050892 ], [ 8.7050224, 49.4052421 ], [ 8.7049545, 49.4052906 ], [ 8.7047115, 49.4055027 ], [ 8.7045015, 49.4057293 ], [ 8.7043266, 49.4059682 ], [ 8.7041883, 49.4062172 ], [ 8.7041547, 49.4063034 ], [ 8.7038502, 49.4063736 ], [ 8.7034827, 49.4064859 ], [ 8.7031338, 49.4066211 ], [ 8.7028069, 49.4067781 ], [ 8.7028008, 49.4067816 ], [ 8.7025194, 49.4067349 ], [ 8.7021182, 49.406695 ], [ 8.7017129, 49.4066809 ], [ 8.7015663, 49.4066853 ], [ 8.7013042, 49.406529 ], [ 8.7009792, 49.4063704 ], [ 8.7006319, 49.4062333 ], [ 8.7002657, 49.4061192 ], [ 8.6998842, 49.406029 ], [ 8.6994909, 49.4059636 ], [ 8.6990898, 49.4059237 ], [ 8.6988228, 49.4059144 ], [ 8.6986422, 49.405716 ], [ 8.6984017, 49.4055027 ], [ 8.6981535, 49.4053225 ], [ 8.6981011, 49.4051837 ], [ 8.6979659, 49.404934 ], [ 8.6977939, 49.4046941 ], [ 8.6975866, 49.4044665 ], [ 8.6973462, 49.4042531 ], [ 8.6970749, 49.4040562 ], [ 8.6967753, 49.4038776 ], [ 8.6964503, 49.403719 ], [ 8.6961031, 49.4035819 ], [ 8.695737, 49.4034677 ], [ 8.6957194, 49.4034636 ], [ 8.6955844, 49.4033438 ], [ 8.6955791, 49.4033399 ], [ 8.6956333, 49.4032012 ], [ 8.6956944, 49.4029394 ], [ 8.695716, 49.402675 ], [ 8.6956977, 49.4024104 ], [ 8.6956398, 49.4021483 ], [ 8.6955428, 49.4018912 ], [ 8.6954076, 49.4016415 ], [ 8.6952365, 49.4014029 ], [ 8.6953783, 49.4012498 ], [ 8.6955533, 49.4010109 ], [ 8.6956916, 49.4007619 ], [ 8.6957917, 49.4005053 ], [ 8.6958529, 49.4002435 ], [ 8.6958744, 49.399979 ], [ 8.6958562, 49.3997145 ], [ 8.6957982, 49.3994524 ], [ 8.6957981, 49.3994521 ], [ 8.695798, 49.3994517 ], [ 8.695701, 49.3991946 ], [ 8.6955659, 49.3989449 ], [ 8.6953939, 49.398705 ], [ 8.6951867, 49.3984773 ], [ 8.6949463, 49.398264 ], [ 8.694675, 49.3980671 ], [ 8.694569, 49.3980038 ] ] ], [ [ [ 8.72, 49.4185721 ], [ 8.72, 49.422 ], [ 8.7135226, 49.4220015 ], [ 8.7136508, 49.42194 ], [ 8.7139526, 49.4217629 ], [ 8.7142263, 49.4215673 ], [ 8.7144694, 49.4213552 ], [ 8.7146794, 49.4211286 ], [ 8.7148544, 49.4208896 ], [ 8.7149926, 49.4206406 ], [ 8.7150927, 49.420384 ], [ 8.7151054, 49.4203296 ], [ 8.7152935, 49.4202721 ], [ 8.7156425, 49.4201369 ], [ 8.7159695, 49.4199799 ], [ 8.7162713, 49.4198028 ], [ 8.716545, 49.4196073 ], [ 8.716788, 49.4193952 ], [ 8.716998, 49.4191685 ], [ 8.7170727, 49.4190665 ], [ 8.7171539, 49.4190746 ], [ 8.7175592, 49.4190886 ], [ 8.7179647, 49.4190766 ], [ 8.7183665, 49.4190387 ], [ 8.7187606, 49.4189753 ], [ 8.7191433, 49.418887 ], [ 8.7195109, 49.4187747 ], [ 8.7198598, 49.4186394 ], [ 8.72, 49.4185721 ] ] ], [ [ [ 8.7084023, 49.4219268 ], [ 8.7085572, 49.4220024 ], [ 8.7055801, 49.4220028 ], [ 8.7056476, 49.4219873 ], [ 8.7060153, 49.421875 ], [ 8.7063643, 49.4217397 ], [ 8.7066913, 49.4215828 ], [ 8.7069931, 49.4214057 ], [ 8.7072669, 49.4212102 ], [ 8.7073825, 49.4211093 ], [ 8.7073833, 49.4211104 ], [ 8.7075906, 49.421338 ], [ 8.7078312, 49.4215513 ], [ 8.7081026, 49.4217482 ], [ 8.7084023, 49.4219268 ] ] ], [ [ [ 8.7019714, 49.421963 ], [ 8.7021418, 49.4220033 ], [ 8.6996395, 49.4220035 ], [ 8.6996739, 49.421993 ], [ 8.7000229, 49.4218578 ], [ 8.7003499, 49.4217009 ], [ 8.7006518, 49.4215238 ], [ 8.7007571, 49.4214486 ], [ 8.7009326, 49.4215532 ], [ 8.7012577, 49.4217118 ], [ 8.7016051, 49.4218488 ], [ 8.7019714, 49.421963 ] ] ], [ [ [ 8.6738273, 49.4220023 ], [ 8.6738293, 49.4220028 ], [ 8.6720219, 49.4220025 ], [ 8.6720853, 49.4219721 ], [ 8.6723873, 49.4217951 ], [ 8.6724968, 49.421717 ], [ 8.672684, 49.4217481 ], [ 8.6730853, 49.4217881 ], [ 8.6732199, 49.4217928 ], [ 8.673461, 49.421888 ], [ 8.6738273, 49.4220023 ] ] ], [ [ [ 8.6668369, 49.4219571 ], [ 8.666928, 49.4220016 ], [ 8.6654977, 49.4220013 ], [ 8.6656009, 49.4218607 ], [ 8.6657021, 49.4216787 ], [ 8.6657365, 49.4216822 ], [ 8.6660025, 49.4216915 ], [ 8.6663422, 49.4217975 ], [ 8.6667187, 49.4218866 ], [ 8.6668369, 49.4219571 ] ] ], [ [ [ 8.6602206, 49.4183192 ], [ 8.66, 49.4183865 ], [ 8.66, 49.4181563 ], [ 8.6601411, 49.4182404 ], [ 8.6602762, 49.4183064 ], [ 8.6602206, 49.4183192 ] ] ], [ [ [ 8.6601699, 49.4140686 ], [ 8.66, 49.4141682 ], [ 8.66, 49.4114031 ], [ 8.6603431, 49.4115102 ], [ 8.6607246, 49.4116005 ], [ 8.6611179, 49.411666 ], [ 8.6615191, 49.4117061 ], [ 8.6616515, 49.4117107 ], [ 8.6616552, 49.4117134 ], [ 8.6619547, 49.4118921 ], [ 8.6622796, 49.4120508 ], [ 8.6626268, 49.4121879 ], [ 8.6629929, 49.4123022 ], [ 8.6633745, 49.4123926 ], [ 8.6637677, 49.4124581 ], [ 8.6641689, 49.4124981 ], [ 8.6645742, 49.4125122 ], [ 8.6647629, 49.4125067 ], [ 8.6645881, 49.412547 ], [ 8.6642204, 49.4126591 ], [ 8.6638714, 49.4127943 ], [ 8.6635443, 49.4129511 ], [ 8.6632424, 49.413128 ], [ 8.6629685, 49.4133235 ], [ 8.6628071, 49.4134641 ], [ 8.6627979, 49.4134638 ], [ 8.6623924, 49.4134756 ], [ 8.6619907, 49.4135133 ], [ 8.6615965, 49.4135764 ], [ 8.6612138, 49.4136645 ], [ 8.6608461, 49.4137767 ], [ 8.660497, 49.4139118 ], [ 8.6601699, 49.4140686 ] ] ], [ [ [ 8.66, 49.4006048 ], [ 8.66, 49.398 ], [ 8.6638905, 49.3980009 ], [ 8.6638822, 49.3981022 ], [ 8.6639003, 49.3983667 ], [ 8.6639134, 49.3984262 ], [ 8.6638073, 49.3984884 ], [ 8.66351, 49.3985569 ], [ 8.6631424, 49.398669 ], [ 8.6627935, 49.3988041 ], [ 8.6624665, 49.3989609 ], [ 8.6621646, 49.3991379 ], [ 8.6618908, 49.3993333 ], [ 8.6616476, 49.3995453 ], [ 8.6614375, 49.3997718 ], [ 8.6613385, 49.3999069 ], [ 8.6610835, 49.4000056 ], [ 8.6607565, 49.4001624 ], [ 8.6604546, 49.4003394 ], [ 8.6601808, 49.4005348 ], [ 8.66, 49.4006048 ] ] ], [ [ [ 8.6759485, 49.3981606 ], [ 8.6759377, 49.398003 ], [ 8.6819579, 49.3980036 ], [ 8.6819231, 49.3981522 ], [ 8.6819015, 49.3984166 ], [ 8.6819197, 49.3986811 ], [ 8.6819251, 49.3987055 ], [ 8.6817349, 49.3988714 ], [ 8.6815248, 49.399098 ], [ 8.6813498, 49.3993369 ], [ 8.6812115, 49.3995858 ], [ 8.6811112, 49.3998424 ], [ 8.6811022, 49.3998807 ], [ 8.6808821, 49.3998287 ], [ 8.680489, 49.3997632 ], [ 8.6800878, 49.3997233 ], [ 8.6796827, 49.3997091 ], [ 8.6792773, 49.399721 ], [ 8.6788757, 49.3997588 ], [ 8.6784817, 49.399822 ], [ 8.678099, 49.3999102 ], [ 8.6777315, 49.4000224 ], [ 8.6774451, 49.4001333 ], [ 8.6773693, 49.400066 ], [ 8.6770981, 49.399869 ], [ 8.6767986, 49.3996903 ], [ 8.6764738, 49.3995317 ], [ 8.6761266, 49.3993946 ], [ 8.6758, 49.3992926 ], [ 8.6757929, 49.3991893 ], [ 8.6757462, 49.3989777 ], [ 8.6757653, 49.3989434 ], [ 8.6758656, 49.3986868 ], [ 8.6759268, 49.398425 ], [ 8.6759485, 49.3981606 ] ] ] ] } }
]
}
