{
"type": "FeatureCollection",
"features": [
{ "type": "Feature", "properties": { "index": "0", "@osmId": "way/116465493", "name": "Saron", "opening_hours": "Tu-Th 11:30-15:00,17:00-21:00; Fr 11:30-15:00,17:00-22:00; Sa 12:00-22:00; Mo,Su closed", "label": "Vegan-friendly places", "color": "#006d2c" }, "geometry": { "type": "Point", "coordinates": [ 8.6756894, 49.4080646 ] } },
{ "type": "Feature", "properties": { "index": "1", "@osmId": "way/462362636", "name": "Asiahung", "opening_hours": "Mo-Su 10:00-20:00", "label": "Vegan-friendly places", "color": "#006d2c" }, "geometry": { "type": "Point", "coordinates": [ 8.67598, 49.4044808 ] } },
{ "type": "Feature", "properties": { "index": "2", "@osmId": "way/462362717", "name": "Yorma's", "opening_hours": "Mo-Fr 05:30-21:00; PH,Su 06:00-21:00; Sa 05:00-21:00", "label": "Vegan-friendly places", "color": "#006d2c" }, "geometry": { "type": "Point", "coordinates": [ 8.6760026, 49.4044147 ] } },
{ "type": "Feature", "properties": { "index": "3", "@osmId": "node/303195887", "name": "Café Botanik", "opening_hours": "Mo-Fr 09:00-20:00", "label": "Vegan-friendly places", "color": "#006d2c" }, "geometry": { "type": "Point", "coordinates": [ 8.6703861, 49.4152611 ] } },
{ "type": "Feature", "properties": { "index": "4", "@osmId": "node/305963168", "name": "Cafe Frisch", "opening_hours": "Mo-Fr 06:00-18:00; Sa 06:00-12:00; Su,PH 08:00-17:00", "label": "Vegan-friendly places", "color": "#006d2c" }, "geometry": { "type": "Point", "coordinates": [ 8.678372, 49.4128139 ] } },
{ "type": "Feature", "properties": { "index": "5", "@osmId": "node/309414410", "name": "burgerme", "opening_hours": "Mo-Fr 11:00-22:30; Sa-Su 12:00-22:30", "label": "Vegan-friendly places", "color": "#006d2c" }, "geometry": { "type": "Point", "coordinates": [ 8.6736787, 49.4081137 ] } },
{ "type": "Feature", "properties": { "index": "6", "@osmId": "node/309419595", "name": "Gallo Nero", "opening_hours": "Mo-Su 11:00-23:00", "label": "Vegan-friendly places", "color": "#006d2c" }, "geometry": { "type": "Point", "coordinates": [ 8.6828376, 49.4076815 ] } },
{ "type": "Feature", "properties": { "index": "7", "@osmId": "node/332582911", "name": "red - die grüne Küche", "opening_hours": "Mo-Sa 11:30-22:00", "label": "Vegan-friendly places", "color": "#006d2c" }, "geometry": { "type": "Point", "coordinates": [ 8.6879365, 49.4074699 ] } },
{ "type": "Feature", "properties": { "index": "8", "@osmId": "node/364775656", "name": "Raja Rani", "opening_hours": "Mo-Su,PH 11:00-23:30", "label": "Vegan-friendly places", "color": "#006d2c" }, "geometry": { "type": "Point", "coordinates": [ 8.7032173, 49.4095279 ] } },
{ "type": "Feature", "properties": { "index": "9", "@osmId": "node/364775663", "name": "Schwarzer Walfisch", "opening_hours": "Mo-Fr 08:00-15:00; Sa,Su 08:30-15:30", "label": "Vegan-friendly places", "color": "#006d2c" }, "geometry": { "type": "Point", "coordinates": [ 8.6893638, 49.4056764 ] } },
{ "type": "Feature", "properties": { "index": "10", "@osmId": "node/444526125", "name": "Mahmoud's", "opening_hours": "Mo-Su 11:00-23:00", "label": "Vegan-friendly places", "color": "#006d2c" }, "geometry": { "type": "Point", "coordinates": [ 8.7078168, 49.4113938 ] } },
{ "type": "Feature", "properties": { "index": "11", "@osmId": "node/444526151", "name": "Frollein Bent", "opening_hours": "Oct-Apr Fr-Su 17:00+; May-Sep Tu-Su 14:00+", "label": "Vegan-friendly places", "color": "#006d2c" }, "geometry": { "type": "Point", "coordinates": [ 8.7139566, 49.4135025 ] } },
{ "type": "Feature", "properties": { "index": "12", "@osmId": "node/444526157", "name": "Raja Rani", "opening_hours": "11:00-23:00", "label": "Vegan-friendly places", "color": "#006d2c" }, "geometry": { "type": "Point", "coordinates": [ 8.7106845, 49.4114293 ] } },
{ "type": "Feature", "properties": { "index": "13", "@osmId": "node/454146432", "name": "Riegler", "opening_hours": "Mo-Fr 06:00-18:00; Sa 06:00-13:00", "label": "Vegan-friendly places", "color": "#006d2c" }, "geometry": { "type": "Point", "coordinates": [ 8.6904057, 49.4157557 ] } },
{ "type": "Feature", "properties": { "index": "14", "@osmId": "node/558798864", "name": "Bairro Café-Bar", "opening_hours": "Mo-Su 08:30-01:00", "label": "Vegan-friendly places", "color": "#006d2c" }, "geometry": { "type": "Point", "coordinates": [ 8.690787, 49.4147443 ] } },
{ "type": "Feature", "properties": { "index": "15", "@osmId": "node/639642935", "name": "Casa Mia", "opening_hours": "Mo-Fr 11:30-15:00,17:30-23:00; Tu off; PH,Sa,Su 12:00-23:00", "label": "Vegan-friendly places", "color": "#006d2c" }, "geometry": { "type": "Point", "coordinates": [ 8.6878667, 49.3995283 ] } },
{ "type": "Feature", "properties": { "index": "16", "@osmId": "node/660580381", "name": "Salerno", "opening_hours": "Mo-Sa 11:00-14:30,17:30-23:30; PH,Su 10:00-14:00,17:00-23:00", "label": "Vegan-friendly places", "color": "#006d2c" }, "geometry": { "type": "Point", "coordinates": [ 8.6922236, 49.4163625 ] } },
{ "type": "Feature", "properties": { "index": "17", "@osmId": "node/668905265", "name": "Literaturcafé", "opening_hours": "Tu-Fr 10:00-20:00; Sa 10:00-16:00", "label": "Vegan-friendly places", "color": "#006d2c" }, "geometry": { "type": "Point", "coordinates": [ 8.6865851, 49.4068758 ] } },
{ "type": "Feature", "properties": { "index": "18", "@osmId": "node/711960019", "name": "ON", "opening_hours": "Tu 18:00-22:00; We-Su 12:00-14:30,18:00-22:00", "label": "Vegan-friendly places", "color": "#006d2c" }, "geometry": { "type": "Point", "coordinates": [ 8.7088991, 49.4131044 ] } },
{ "type": "Feature", "properties": { "index": "19", "@osmId": "node/1029513833", "name": "Chocolaterie YilliY", "opening_hours": "Su-Th 10:00-20:00, Fr-Sa 10:00-21:00", "label": "Vegan-friendly places", "color": "#006d2c" }, "geometry": { "type": "Point", "coordinates": [ 8.7091739, 49.4125802 ] } },
{ "type": "Feature", "properties": { "index": "20", "@osmId": "node/1029535787", "name": "Riegler", "opening_hours": "Mo-Fr 05:00-20:00; Sa 06:00-20:00", "label": "Vegan-friendly places", "color": "#006d2c" }, "geometry": { "type": "Point", "coordinates": [ 8.6935335, 49.4101395 ] } },
{ "type": "Feature", "properties": { "index": "21", "@osmId": "node/1097197310", "name": "Golden Spoon", "opening_hours": "Mo-Sa 11:30-15:00,17:30-22:00", "label": "Vegan-friendly places", "color": "#006d2c" }, "geometry": { "type": "Point", "coordinates": [ 8.6917804, 49.4023297 ] } },
{ "type": "Feature", "properties": { "index": "22", "@osmId": "node/1097197367", "name": "The Indian Grill House", "opening_hours": "Mo-Fr 11:00-15:00,17:00-22:00; Sa,Su,PH 12:00-22:00", "label": "Vegan-friendly places", "color": "#006d2c" }, "geometry": { "type": "Point", "coordinates": [ 8.692209, 49.4036249 ] } },
{ "type": "Feature", "properties": { "index": "23", "@osmId": "node/1097197487", "name": "Kaschmir-Tandoori", "opening_hours": "11:30-23:00, Mo-Su 11:30-23:00", "label": "Vegan-friendly places", "color": "#006d2c" }, "geometry": { "type": "Point", "coordinates": [ 8.6919577, 49.4028381 ] } },
{ "type": "Feature", "properties": { "index": "24", "@osmId": "node/1097197518", "name": "Darwisch", "opening_hours": "Mo-Fr 17:30-22:30; Sa,Su,PH 12:00-22:30", "label": "Vegan-friendly places", "color": "#006d2c" }, "geometry": { "type": "Point", "coordinates": [ 8.6924169, 49.4055105 ] } },
{ "type": "Feature", "properties": { "index": "25", "@osmId": "node/1101923476", "name": "Café Villa", "opening_hours": "Mo-Tu 09:00-02:00, Fr-Sa 09:00-03:00, Su 09:00-02:00", "label": "Vegan-friendly places", "color": "#006d2c" }, "geometry": { "type": "Point", "coordinates": [ 8.7089926, 49.4118861 ] } },
{ "type": "Feature", "properties": { "index": "26", "@osmId": "node/1101948991", "name": "Café Ly", "opening_hours": "Mo-Fr 08:00-20:00; Sa,Su,PH 09:00-21:00", "label": "Vegan-friendly places", "color": "#006d2c" }, "geometry": { "type": "Point", "coordinates": [ 8.704093, 49.4095568 ] } },
{ "type": "Feature", "properties": { "index": "27", "@osmId": "node/1150941194", "name": "Mildner's", "opening_hours": "Mo-Fr 09:00-19:00; Sa-Su 10:00-18:00", "label": "Vegan-friendly places", "color": "#006d2c" }, "geometry": { "type": "Point", "coordinates": [ 8.6847996, 49.4077219 ] } },
{ "type": "Feature", "properties": { "index": "28", "@osmId": "node/1537481704", "name": "Subway", "opening_hours": "Mo-Sa 09:00-21:00; Su 12:00-20:00", "label": "Vegan-friendly places", "color": "#006d2c" }, "geometry": { "type": "Point", "coordinates": [ 8.6952928, 49.4098204 ] } },
{ "type": "Feature", "properties": { "index": "29", "@osmId": "node/1537481804", "name": "Nordsee", "opening_hours": "Mo-Sa 09:00-20:00; Su off", "label": "Vegan-friendly places", "color": "#006d2c" }, "geometry": { "type": "Point", "coordinates": [ 8.6954419, 49.4100552 ] } },
{ "type": "Feature", "properties": { "index": "30", "@osmId": "node/1537481833", "name": "Cafe Extrablatt", "opening_hours": "Mo-Su,PH 09:00-24:00", "label": "Vegan-friendly places", "color": "#006d2c" }, "geometry": { "type": "Point", "coordinates": [ 8.6986373, 49.4107114 ] } },
{ "type": "Feature", "properties": { "index": "31", "@osmId": "node/1539714523", "name": "Heidelburger", "opening_hours": "Mo-Th 11:00-23:00, Fr,Sa 11:00-24:00, Su,PH 12:00-23:00", "label": "Vegan-friendly places", "color": "#006d2c" }, "geometry": { "type": "Point", "coordinates": [ 8.7018994, 49.4111928 ] } },
{ "type": "Feature", "properties": { "index": "32", "@osmId": "node/1539732304", "name": "Regie", "opening_hours": "Mo-Th 12:00-01:00, Fr,Sa 12:00-03:00, Su 12:00-01:00", "label": "Vegan-friendly places", "color": "#006d2c" }, "geometry": { "type": "Point", "coordinates": [ 8.7037061, 49.4110383 ] } },
{ "type": "Feature", "properties": { "index": "33", "@osmId": "node/1539815077", "name": "Starbucks", "opening_hours": "Mo-Th 07:30-21:00; Fr-Sa 09:00-23:00; Su 09:00-21:00", "label": "Vegan-friendly places", "color": "#006d2c" }, "geometry": { "type": "Point", "coordinates": [ 8.7062625, 49.4117537 ] } },
{ "type": "Feature", "properties": { "index": "34", "@osmId": "node/1539815137", "name": "MoschMosch", "opening_hours": "Mo-Sa 11:00-23:00; PH,Su 12:00-22:00", "label": "Vegan-friendly places", "color": "#006d2c" }, "geometry": { "type": "Point", "coordinates": [ 8.7066124, 49.4116479 ] } },
{ "type": "Feature", "properties": { "index": "35", "@osmId": "node/1539844440", "name": "Sahara", "opening_hours": "Mo-Th 11:00-02:00, Fr-Sa 11:00-03:00, Su 11:00-02:00", "label": "Vegan-friendly places", "color": "#006d2c" }, "geometry": { "type": "Point", "coordinates": [ 8.7079159, 49.4118235 ] } },
{ "type": "Feature", "properties": { "index": "36", "@osmId": "node/1539856602", "name": "Saigon Sonne", "opening_hours": "Mo-Su 11:30-23:00", "label": "Vegan-friendly places", "color": "#006d2c" }, "geometry": { "type": "Point", "coordinates": [ 8.7087365, 49.411759 ] } },
{ "type": "Feature", "properties": { "index": "37", "@osmId": "node/1657964034", "name": "Café PUR", "opening_hours": "Mo-Fr 09:00-20:00; Sa 11:00-18:00", "label": "Vegan-friendly places", "color": "#006d2c" }, "geometry": { "type": "Point", "coordinates": [ 8.6841821, 49.4084898 ] } },
{ "type": "Feature", "properties": { "index": "38", "@osmId": "node/1692216595", "name": "Asmara", "opening_hours": "Tu,Th-Su 17:00-21:00", "label": "Vegan-friendly places", "color": "#006d2c" }, "geometry": { "type": "Point", "coordinates": [ 8.6920686, 49.4003937 ] } },
{ "type": "Feature", "properties": { "index": "39", "@osmId": "node/1779953548", "name": "Indian Curry", "opening_hours": "Mo-Sa 11:00-22:00; Su 12:00-22:00; PH 12:00-22:00", "label": "Vegan-friendly places", "color": "#006d2c" }, "geometry": { "type": "Point", "coordinates": [ 8.6848105, 49.4042713 ] } },
{ "type": "Feature", "properties": { "index": "40", "@osmId": "node/2181398848", "name": "Don Robert", "opening_hours": "Mo-Sa 17:00-01:00", "label": "Vegan-friendly places", "color": "#006d2c" }, "geometry": { "type": "Point", "coordinates": [ 8.6789459, 49.4061584 ] } },
{ "type": "Feature", "properties": { "index": "41", "@osmId": "node/2252190117", "name": "Riegler", "opening_hours": "Mo-Sa 06:00-18:00; Su 07:00-17:00", "label": "Vegan-friendly places", "color": "#006d2c" }, "geometry": { "type": "Point", "coordinates": [ 8.6920022, 49.4150633 ] } },
{ "type": "Feature", "properties": { "index": "42", "@osmId": "node/2588002432", "name": "MysKitchen", "opening_hours": null, "label": "Vegan-friendly places", "color": "#006d2c" }, "geometry": { "type": "Point", "coordinates": [ 8.70967, 49.4129138 ] } },
{ "type": "Feature", "properties": { "index": "43", "@osmId": "node/2589806452", "name": "Frittenwerk", "opening_hours": "Mo-Th 11:30-21:00; Fr 11:30-22:00; Sa 11:00-22:00; Su,PH 12:00-21:00", "label": "Vegan-friendly places", "color": "#006d2c" }, "geometry": { "type": "Point", "coordinates": [ 8.7047591, 49.4114358 ] } },
{ "type": "Feature", "properties": { "index": "44", "@osmId": "node/2609405269", "name": "Persepolis", "opening_hours": "Mo-We 11:30-15:00; Th-Sa 11:30-19:00", "label": "Vegan-friendly places", "color": "#006d2c" }, "geometry": { "type": "Point", "coordinates": [ 8.711607, 49.4113551 ] } },
{ "type": "Feature", "properties": { "index": "45", "@osmId": "node/2884170744", "name": "Puro Gelato", "opening_hours": "Mo-Su 11:00-22:00", "label": "Vegan-friendly places", "color": "#006d2c" }, "geometry": { "type": "Point", "coordinates": [ 8.7069117, 49.4117769 ] } },
{ "type": "Feature", "properties": { "index": "46", "@osmId": "node/3201004062", "name": "mahlzeit", "opening_hours": "Mo-Sa 11:00-23:00; Su 11:00-22:00", "label": "Vegan-friendly places", "color": "#006d2c" }, "geometry": { "type": "Point", "coordinates": [ 8.6919617, 49.4073895 ] } },
{ "type": "Feature", "properties": { "index": "47", "@osmId": "node/3216803596", "name": "Riegler", "opening_hours": "Mo-Fr 06:00-18:00; Sa 06:00-13:00; Su off", "label": "Vegan-friendly places", "color": "#006d2c" }, "geometry": { "type": "Point", "coordinates": [ 8.6880787, 49.4082317 ] } },
{ "type": "Feature", "properties": { "index": "48", "@osmId": "node/3280870477", "name": "Urban Kitchen", "opening_hours": "Mo-Su 09:00-01:00", "label": "Vegan-friendly places", "color": "#006d2c" }, "geometry": { "type": "Point", "coordinates": [ 8.6884718, 49.407756 ] } },
{ "type": "Feature", "properties": { "index": "49", "@osmId": "node/3294772161", "name": "Südseite", "opening_hours": "Tu-Sa 10:00-18:00; Su 13:00-17:00", "label": "Vegan-friendly places", "color": "#006d2c" }, "geometry": { "type": "Point", "coordinates": [ 8.6984454, 49.4118666 ] } },
{ "type": "Feature", "properties": { "index": "50", "@osmId": "node/3314335578", "name": "mahmoud's", "opening_hours": "Mo-Su 11:00-23:00", "label": "Vegan-friendly places", "color": "#006d2c" }, "geometry": { "type": "Point", "coordinates": [ 8.6882735, 49.4082548 ] } },
{ "type": "Feature", "properties": { "index": "51", "@osmId": "node/3370913154", "name": "Neckar", "opening_hours": "Mo-Sa 10:30-22:00; Su,PH 12:00-22:00", "label": "Vegan-friendly places", "color": "#006d2c" }, "geometry": { "type": "Point", "coordinates": [ 8.6837493, 49.4076697 ] } },
{ "type": "Feature", "properties": { "index": "52", "@osmId": "node/3384314543", "name": "That's Gelato", "opening_hours": null, "label": "Vegan-friendly places", "color": "#006d2c" }, "geometry": { "type": "Point", "coordinates": [ 8.6854637, 49.4078109 ] } },
{ "type": "Feature", "properties": { "index": "53", "@osmId": "node/3816676573", "name": "Hans im Glück", "opening_hours": "Su-Th 11:30-24:00, Fr,Sa 11:30-01:00", "label": "Vegan-friendly places", "color": "#006d2c" }, "geometry": { "type": "Point", "coordinates": [ 8.7091095, 49.4118928 ] } },
{ "type": "Feature", "properties": { "index": "54", "@osmId": "node/3962608831", "name": "Oven di Napoli", "opening_hours": "Tu-Sa 11:00-21:00; Su 12:00-21:00", "label": "Vegan-friendly places", "color": "#006d2c" }, "geometry": { "type": "Point", "coordinates": [ 8.6648699, 49.402057 ] } },
{ "type": "Feature", "properties": { "index": "55", "@osmId": "node/4021614237", "name": "Bäcker Görtz", "opening_hours": "Mo-Fr 06:30-18:30; Sa 07:00-17:00; Su 07:30-17:00", "label": "Vegan-friendly places", "color": "#006d2c" }, "geometry": { "type": "Point", "coordinates": [ 8.6757515, 49.4180853 ] } },
{ "type": "Feature", "properties": { "index": "56", "@osmId": "node/4245964495", "name": "Charisma", "opening_hours": "Mo-Sa 10:30-23:00; Su 12:00-23:00", "label": "Vegan-friendly places", "color": "#006d2c" }, "geometry": { "type": "Point", "coordinates": [ 8.6871149, 49.408013 ] } },
{ "type": "Feature", "properties": { "index": "57", "@osmId": "node/4906392621", "name": "Tuk Tuk", "opening_hours": "Mo-Sa 11:00-21:00", "label": "Vegan-friendly places", "color": "#006d2c" }, "geometry": { "type": "Point", "coordinates": [ 8.6879798, 49.4054771 ] } },
{ "type": "Feature", "properties": { "index": "58", "@osmId": "node/4954732154", "name": "Franz Soupmarine", "opening_hours": "Mo-Sa 11:00-20:00", "label": "Vegan-friendly places", "color": "#006d2c" }, "geometry": { "type": "Point", "coordinates": [ 8.6997045, 49.4103941 ] } },
{ "type": "Feature", "properties": { "index": "59", "@osmId": "node/5020169795", "name": "River Café", "opening_hours": "Mo-Su 09:00-01:00", "label": "Vegan-friendly places", "color": "#006d2c" }, "geometry": { "type": "Point", "coordinates": [ 8.6937053, 49.4139555 ] } },
{ "type": "Feature", "properties": { "index": "60", "@osmId": "node/5023594992", "name": "Subarashi", "opening_hours": null, "label": "Vegan-friendly places", "color": "#006d2c" }, "geometry": { "type": "Point", "coordinates": [ 8.7117688, 49.4114389 ] } },
{ "type": "Feature", "properties": { "index": "61", "@osmId": "node/5535699491", "name": "Kaschmir Tandoori 2", "opening_hours": "PH,Mo-Su 11:30-20:00", "label": "Vegan-friendly places", "color": "#006d2c" }, "geometry": { "type": "Point", "coordinates": [ 8.6698237, 49.4005794 ] } },
{ "type": "Feature", "properties": { "index": "62", "@osmId": "node/5589879349", "name": "Rada", "opening_hours": "Mo-Fr 11:00-18:00; Sa-Su 10:00-18:00", "label": "Vegan-friendly places", "color": "#006d2c" }, "geometry": { "type": "Point", "coordinates": [ 8.7077883, 49.4122362 ] } },
{ "type": "Feature", "properties": { "index": "63", "@osmId": "node/5595187251", "name": "Kaoru Sushi Restaurant", "opening_hours": "Mo-Fr 12:00-14:00,17:30-21:30; Sa 16:00-22:00; PH,Su 16:00-21:30", "label": "Vegan-friendly places", "color": "#006d2c" }, "geometry": { "type": "Point", "coordinates": [ 8.6692515, 49.4008752 ] } },
{ "type": "Feature", "properties": { "index": "64", "@osmId": "node/5980946188", "name": "Cinnamood", "opening_hours": "Mo-Su 10:30-20:00", "label": "Vegan-friendly places", "color": "#006d2c" }, "geometry": { "type": "Point", "coordinates": [ 8.7006015, 49.4108564 ] } },
{ "type": "Feature", "properties": { "index": "65", "@osmId": "node/5981004421", "name": "Mama Zoee", "opening_hours": "We-Sa 18:00-23:30", "label": "Vegan-friendly places", "color": "#006d2c" }, "geometry": { "type": "Point", "coordinates": [ 8.6945022, 49.4077256 ] } },
{ "type": "Feature", "properties": { "index": "66", "@osmId": "node/5981035570", "name": "Bentos Matcha", "opening_hours": null, "label": "Vegan-friendly places", "color": "#006d2c" }, "geometry": { "type": "Point", "coordinates": [ 8.6853731, 49.4077903 ] } },
{ "type": "Feature", "properties": { "index": "67", "@osmId": "node/6470005989", "name": "Earth Bowls", "opening_hours": "Mo 12:00-21:00, Th-Su 09:00-21:00", "label": "Vegan-friendly places", "color": "#006d2c" }, "geometry": { "type": "Point", "coordinates": [ 8.7105311, 49.4132306 ] } },
{ "type": "Feature", "properties": { "index": "68", "@osmId": "node/6879071985", "name": "Unter Freunden", "opening_hours": "Mo-Fr 09:00-20:00; Sa 10:00-20:00", "label": "Vegan-friendly places", "color": "#006d2c" }, "geometry": { "type": "Point", "coordinates": [ 8.6996632, 49.4104849 ] } },
{ "type": "Feature", "properties": { "index": "69", "@osmId": "node/7043278915", "name": "Até", "opening_hours": null, "label": "Vegan-friendly places", "color": "#006d2c" }, "geometry": { "type": "Point", "coordinates": [ 8.7085171, 49.4115789 ] } },
{ "type": "Feature", "properties": { "index": "70", "@osmId": "node/7057272772", "name": "kee vee", "opening_hours": null, "label": "Vegan-friendly places", "color": "#006d2c" }, "geometry": { "type": "Point", "coordinates": [ 8.7086955, 49.4113728 ] } },
{ "type": "Feature", "properties": { "index": "71", "@osmId": "node/7110970010", "name": "Hans im Glück", "opening_hours": "Mo-Th 11:30-14:00,16:30-22:00; Fr-Su,PH 11:30-22:00", "label": "Vegan-friendly places", "color": "#006d2c" }, "geometry": { "type": "Point", "coordinates": [ 8.6676711, 49.4039434 ] } },
{ "type": "Feature", "properties": { "index": "72", "@osmId": "node/9386081858", "name": "Compleat", "opening_hours": "Mo-Su 11:00-21:00", "label": "Vegan-friendly places", "color": "#006d2c" }, "geometry": { "type": "Point", "coordinates": [ 8.6922266, 49.4088741 ] } },
{ "type": "Feature", "properties": { "index": "73", "@osmId": "node/10011159743", "name": "Arepas.World", "opening_hours": "Mo-Th 12:00-18:00; Fr, Sa 12:00-20:00; Su 12:00-18:00", "label": "Vegan-friendly places", "color": "#006d2c" }, "geometry": { "type": "Point", "coordinates": [ 8.707783, 49.4122453 ] } },
{ "type": "Feature", "properties": { "index": "74", "@osmId": "node/11091653381", "name": "Studio Alfie", "opening_hours": "Tu-Sa 09:00-16:00", "label": "Vegan-friendly places", "color": "#006d2c" }, "geometry": { "type": "Point", "coordinates": [ 8.6916196, 49.4030208 ] } },
{ "type": "Feature", "properties": { "index": "75", "@osmId": "node/11850966060", "name": "Kokiya", "opening_hours": "Th 11:30-14:00; PH off", "label": "Vegan-friendly places", "color": "#006d2c" }, "geometry": { "type": "Point", "coordinates": [ 8.670586, 49.4180751 ] } },
{ "type": "Feature", "properties": { "index": "76", "@osmId": "node/13002333232", "name": "Katzentempel", "opening_hours": "Mo-Th 10:00-21:00; Fr,Sa 10:00-22:00; Su,PH 10:00-21:00", "label": "Vegan-friendly places", "color": "#006d2c" }, "geometry": { "type": "Point", "coordinates": [ 8.6693479, 49.4045704 ] } },
{ "type": "Feature", "properties": { "index": "77", "@osmId": "node/13109981783", "name": "The Fragrence of the Heart", "opening_hours": "Mo-Tu 11:00-18:00; Th-Fr 11:00-18:00; Sa-Su 09:00-18:00; PH off", "label": "Vegan-friendly places", "color": "#006d2c" }, "geometry": { "type": "Point", "coordinates": [ 8.6916709, 49.4061152 ] } },
{ "type": "Feature", "properties": { "index": "78", "@osmId": "node/13703117542", "name": "Deli & Events goods", "opening_hours": "Mo-Fr 10:00-19:00", "label": "Vegan-friendly places", "color": "#006d2c" }, "geometry": { "type": "Point", "coordinates": [ 8.6730463, 49.4016066 ] } },
{ "type": "Feature", "properties": { "index": "79", "@osmId": "way/256983334", "name": "Babylon", "opening_hours": "Mo-Fr 10:00-24:00; Sa-Su 00:00-05:00,10:00-24:00", "label": "Vegetarian-friendly places", "color": "#74c476" }, "geometry": { "type": "Point", "coordinates": [ 8.6924114, 49.4098134 ] } },
{ "type": "Feature", "properties": { "index": "80", "@osmId": "way/24252896", "name": "Mandy's Railway Diner", "opening_hours": "Mo-Su 08:00-01:00", "label": "Vegetarian-friendly places", "color": "#74c476" }, "geometry": { "type": "Point", "coordinates": [ 8.6780707, 49.3997938 ] } },
{ "type": "Feature", "properties": { "index": "81", "@osmId": "way/25208386", "name": "TP-Lounge", "opening_hours": null, "label": "Vegetarian-friendly places", "color": "#74c476" }, "geometry": { "type": "Point", "coordinates": [ 8.6754432, 49.4217978 ] } },
{ "type": "Feature", "properties": { "index": "82", "@osmId": "way/266080339", "name": "Bellini", "opening_hours": "Mo-Su 10:00-24:00", "label": "Vegetarian-friendly places", "color": "#74c476" }, "geometry": { "type": "Point", "coordinates": [ 8.6710541, 49.4138185 ] } },
{ "type": "Feature", "properties": { "index": "83", "@osmId": "way/445907791", "name": "Tiger-Bistro", "opening_hours": null, "label": "Vegetarian-friendly places", "color": "#74c476" }, "geometry": { "type": "Point", "coordinates": [ 8.6610913, 49.4140349 ] } },
{ "type": "Feature", "properties": { "index": "84", "@osmId": "node/269384884", "name": "uuuhmami", "opening_hours": "Mo-Su 11:00-01:00", "label": "Vegetarian-friendly places", "color": "#74c476" }, "geometry": { "type": "Point", "coordinates": [ 8.6755796, 49.4066074 ] } },
{ "type": "Feature", "properties": { "index": "85", "@osmId": "node/284233349", "name": "Zoo-Café", "opening_hours": null, "label": "Vegetarian-friendly places", "color": "#74c476" }, "geometry": { "type": "Point", "coordinates": [ 8.6632915, 49.4146254 ] } },
{ "type": "Feature", "properties": { "index": "86", "@osmId": "node/308265156", "name": "Bay Jok", "opening_hours": "Tu-Su 18:00-22:00", "label": "Vegetarian-friendly places", "color": "#74c476" }, "geometry": { "type": "Point", "coordinates": [ 8.6770388, 49.407709 ] } },
{ "type": "Feature", "properties": { "index": "87", "@osmId": "node/309437268", "name": "Krokodil", "opening_hours": "Mo-Fr 11:00-24:00; Sa,Su,PH 10:00-24:00", "label": "Vegetarian-friendly places", "color": "#74c476" }, "geometry": { "type": "Point", "coordinates": [ 8.6869857, 49.4045197 ] } },
{ "type": "Feature", "properties": { "index": "88", "@osmId": "node/309439736", "name": "Schwarzer Peter", "opening_hours": "We,Th,Su,Mo 17:30-24:00, Fr,Sa 17:30-01:00", "label": "Vegetarian-friendly places", "color": "#74c476" }, "geometry": { "type": "Point", "coordinates": [ 8.6845637, 49.4032452 ] } },
{ "type": "Feature", "properties": { "index": "89", "@osmId": "node/420777536", "name": "Jules", "opening_hours": "We,Fr 11:00-17:00; Sa 10:00-15:00", "label": "Vegetarian-friendly places", "color": "#74c476" }, "geometry": { "type": "Point", "coordinates": [ 8.6904722, 49.4144698 ] } },
{ "type": "Feature", "properties": { "index": "90", "@osmId": "node/444526130", "name": "Sweet home", "opening_hours": null, "label": "Vegetarian-friendly places", "color": "#74c476" }, "geometry": { "type": "Point", "coordinates": [ 8.710455, 49.4123947 ] } },
{ "type": "Feature", "properties": { "index": "91", "@osmId": "node/444526139", "name": "Pizza Paniz", "opening_hours": null, "label": "Vegetarian-friendly places", "color": "#74c476" }, "geometry": { "type": "Point", "coordinates": [ 8.7130359, 49.4126517 ] } },
{ "type": "Feature", "properties": { "index": "92", "@osmId": "node/444526178", "name": "Strohauer's Cafe Alt Heidelberg", "opening_hours": "Mo-Tu 09:00-21:00; Th-Su 09:00-21:00", "label": "Vegetarian-friendly places", "color": "#74c476" }, "geometry": { "type": "Point", "coordinates": [ 8.6985019, 49.4106881 ] } },
{ "type": "Feature", "properties": { "index": "93", "@osmId": "node/559473786", "name": "Bent", "opening_hours": "Mo-Th 10:00-20:00; Fr,Sa 10:00-21:00; Su 10:00-19:00", "label": "Vegetarian-friendly places", "color": "#74c476" }, "geometry": { "type": "Point", "coordinates": [ 8.6948378, 49.4101549 ] } },
{ "type": "Feature", "properties": { "index": "94", "@osmId": "node/667929782", "name": "Weinstube", "opening_hours": null, "label": "Vegetarian-friendly places", "color": "#74c476" }, "geometry": { "type": "Point", "coordinates": [ 8.7158634, 49.4104204 ] } },
{ "type": "Feature", "properties": { "index": "95", "@osmId": "node/668842504", "name": "P11 Café am Römerkreis", "opening_hours": "Mo-Fr 09:00-01:00, Sa 10:00-01:00, Su 13:00-19:00", "label": "Vegetarian-friendly places", "color": "#74c476" }, "geometry": { "type": "Point", "coordinates": [ 8.6848567, 49.4049159 ] } },
{ "type": "Feature", "properties": { "index": "96", "@osmId": "node/1029513867", "name": "Osteria Alfredo", "opening_hours": "PH,Tu-Su 12:00-23:00", "label": "Vegetarian-friendly places", "color": "#74c476" }, "geometry": { "type": "Point", "coordinates": [ 8.708027, 49.4121386 ] } },
{ "type": "Feature", "properties": { "index": "97", "@osmId": "node/1029535771", "name": "Deer", "opening_hours": "Mo-Th 09:00-24:00; Fr,Sa 09:00-02:00; Su 09:00-16:00", "label": "Vegetarian-friendly places", "color": "#74c476" }, "geometry": { "type": "Point", "coordinates": [ 8.6947015, 49.4077621 ] } },
{ "type": "Feature", "properties": { "index": "98", "@osmId": "node/1029572767", "name": "Coffeein", "opening_hours": "Mo-Fr 07:30-18:00; Sa 09:00-16:00", "label": "Vegetarian-friendly places", "color": "#74c476" }, "geometry": { "type": "Point", "coordinates": [ 8.6988928, 49.4092533 ] } },
{ "type": "Feature", "properties": { "index": "99", "@osmId": "node/1029572781", "name": "Istanbul", "opening_hours": "Mo-Th 11:00-23:00, Fr,Sa 11:00-24:00, Su 11:00-23:00", "label": "Vegetarian-friendly places", "color": "#74c476" }, "geometry": { "type": "Point", "coordinates": [ 8.7030396, 49.4095156 ] } },
{ "type": "Feature", "properties": { "index": "100", "@osmId": "node/1040998800", "name": "China Restaurant Asia", "opening_hours": "Mo-Th 12:00-14:30,17:30-21:30; Fr-Sa 12:00-14:30,17:30-22:00", "label": "Vegetarian-friendly places", "color": "#74c476" }, "geometry": { "type": "Point", "coordinates": [ 8.7088836, 49.4132204 ] } },
{ "type": "Feature", "properties": { "index": "101", "@osmId": "node/1097197223", "name": "Poseidon", "opening_hours": "We-Mo 11:30-14:30; Tu off, We-Mo 17:30-24:00", "label": "Vegetarian-friendly places", "color": "#74c476" }, "geometry": { "type": "Point", "coordinates": [ 8.6911143, 49.4008854 ] } },
{ "type": "Feature", "properties": { "index": "102", "@osmId": "node/1097197447", "name": "McDonald's", "opening_hours": "Mo-Th 07:00-20:00, Fr,Sa 07:00-05:00, Su,PH 09:00-01:00", "label": "Vegetarian-friendly places", "color": "#74c476" }, "geometry": { "type": "Point", "coordinates": [ 8.692787, 49.408317 ] } },
{ "type": "Feature", "properties": { "index": "103", "@osmId": "node/1103687978", "name": "Anatolien", "opening_hours": "Mo-Sa 11:00-22:00; Su 12:00-22:00; Su,PH 12:00-22:00", "label": "Vegetarian-friendly places", "color": "#74c476" }, "geometry": { "type": "Point", "coordinates": [ 8.6903428, 49.3998603 ] } },
{ "type": "Feature", "properties": { "index": "104", "@osmId": "node/1416343862", "name": "Buffet & Bistro", "opening_hours": "Mo-Sa 11:00-22:00; Su 12:00-21:00", "label": "Vegetarian-friendly places", "color": "#74c476" }, "geometry": { "type": "Point", "coordinates": [ 8.6802799, 49.4212552 ] } },
{ "type": "Feature", "properties": { "index": "105", "@osmId": "node/1537481660", "name": "La Flamm", "opening_hours": "Mo-Fr 07:00-19:00; Sa 09:00-18:00; Su 09:00-12:00", "label": "Vegetarian-friendly places", "color": "#74c476" }, "geometry": { "type": "Point", "coordinates": [ 8.6996434, 49.4105485 ] } },
{ "type": "Feature", "properties": { "index": "106", "@osmId": "node/1537481742", "name": "Wiener Feinbäckerei", "opening_hours": "Mo-Sa 07:00-18:00; Su 09:00-16:00", "label": "Vegetarian-friendly places", "color": "#74c476" }, "geometry": { "type": "Point", "coordinates": [ 8.6958198, 49.4100887 ] } },
{ "type": "Feature", "properties": { "index": "107", "@osmId": "node/1539714507", "name": "Schmelzpunkt", "opening_hours": "Mo-Sa 11:00-21:30; Su,PH 12:00-21:30", "label": "Vegetarian-friendly places", "color": "#74c476" }, "geometry": { "type": "Point", "coordinates": [ 8.7014859, 49.4109999 ] } },
{ "type": "Feature", "properties": { "index": "108", "@osmId": "node/1539741103", "name": "Gino's", "opening_hours": "Mo-Th 09:00-24:00, Fr-Sa 09:00-03:00, Su 09:00-24:00", "label": "Vegetarian-friendly places", "color": "#74c476" }, "geometry": { "type": "Point", "coordinates": [ 8.7043458, 49.4115061 ] } },
{ "type": "Feature", "properties": { "index": "109", "@osmId": "node/1540089349", "name": "Alte Gundtei", "opening_hours": "Mo-Sa 17:00-01:00; Su 16:00+", "label": "Vegetarian-friendly places", "color": "#74c476" }, "geometry": { "type": "Point", "coordinates": [ 8.7108767, 49.4110277 ] } },
{ "type": "Feature", "properties": { "index": "110", "@osmId": "node/1612834283", "name": "Da Baggio", "opening_hours": "Mo-Su,PH 11:00-23:00", "label": "Vegetarian-friendly places", "color": "#74c476" }, "geometry": { "type": "Point", "coordinates": [ 8.684556, 49.4042085 ] } },
{ "type": "Feature", "properties": { "index": "111", "@osmId": "node/1612834292", "name": "Chatuchak", "opening_hours": "Mo-Su 11:00-21:00", "label": "Vegetarian-friendly places", "color": "#74c476" }, "geometry": { "type": "Point", "coordinates": [ 8.6785157, 49.3999044 ] } },
{ "type": "Feature", "properties": { "index": "112", "@osmId": "node/1657964037", "name": "InfoCafé International", "opening_hours": "Mo-Th 09:00-17:00; Fr 09:00-15:00", "label": "Vegetarian-friendly places", "color": "#74c476" }, "geometry": { "type": "Point", "coordinates": [ 8.6708164, 49.4159348 ] } },
{ "type": "Feature", "properties": { "index": "113", "@osmId": "node/2017958525", "name": "Piccolo Mondo", "opening_hours": "Tu-Su 12:00-15:00,18:00-24:00", "label": "Vegetarian-friendly places", "color": "#74c476" }, "geometry": { "type": "Point", "coordinates": [ 8.705394, 49.4086744 ] } },
{ "type": "Feature", "properties": { "index": "114", "@osmId": "node/2599659587", "name": "Backstube", "opening_hours": "Sa,Su 12:00-17:00", "label": "Vegetarian-friendly places", "color": "#74c476" }, "geometry": { "type": "Point", "coordinates": [ 8.7157086, 49.4104061 ] } },
{ "type": "Feature", "properties": { "index": "115", "@osmId": "node/2599659588", "name": "Fasskeller", "opening_hours": null, "label": "Vegetarian-friendly places", "color": "#74c476" }, "geometry": { "type": "Point", "coordinates": [ 8.7149969, 49.4108155 ] } },
{ "type": "Feature", "properties": { "index": "116", "@osmId": "node/2730697395", "name": "Cafeteria Medizinische Klinik", "opening_hours": "Mo-Su 07:00-18:00", "label": "Vegetarian-friendly places", "color": "#74c476" }, "geometry": { "type": "Point", "coordinates": [ 8.666197, 49.4156419 ] } },
{ "type": "Feature", "properties": { "index": "117", "@osmId": "node/2754781605", "name": "friedrich", "opening_hours": "Mo-Th 09:30-24:00, Fr-Sa 09:30-02:00, Su 12:00-21:00", "label": "Vegetarian-friendly places", "color": "#74c476" }, "geometry": { "type": "Point", "coordinates": [ 8.6947758, 49.4077705 ] } },
{ "type": "Feature", "properties": { "index": "118", "@osmId": "node/2884170739", "name": "Waffelhaus", "opening_hours": null, "label": "Vegetarian-friendly places", "color": "#74c476" }, "geometry": { "type": "Point", "coordinates": [ 8.7075321, 49.4116936 ] } },
{ "type": "Feature", "properties": { "index": "119", "@osmId": "node/2884170742", "name": "Crêpes Time", "opening_hours": null, "label": "Vegetarian-friendly places", "color": "#74c476" }, "geometry": { "type": "Point", "coordinates": [ 8.7100989, 49.412028 ] } },
{ "type": "Feature", "properties": { "index": "120", "@osmId": "node/2889296501", "name": "Five Guys", "opening_hours": "Su-Th 11:00-23:00, Fr,Sa 11:00-24:00", "label": "Vegetarian-friendly places", "color": "#74c476" }, "geometry": { "type": "Point", "coordinates": [ 8.6997807, 49.4107305 ] } },
{ "type": "Feature", "properties": { "index": "121", "@osmId": "node/2908273909", "name": "Balthazar", "opening_hours": "Mo-Fr 11:30-15:00,17:00-24:00", "label": "Vegetarian-friendly places", "color": "#74c476" }, "geometry": { "type": "Point", "coordinates": [ 8.6710288, 49.3993585 ] } },
{ "type": "Feature", "properties": { "index": "122", "@osmId": "node/3300451614", "name": "Heidelberger Kebab Fakultät", "opening_hours": null, "label": "Vegetarian-friendly places", "color": "#74c476" }, "geometry": { "type": "Point", "coordinates": [ 8.6954178, 49.4095111 ] } },
{ "type": "Feature", "properties": { "index": "123", "@osmId": "node/3485691276", "name": "Grano To Go", "opening_hours": null, "label": "Vegetarian-friendly places", "color": "#74c476" }, "geometry": { "type": "Point", "coordinates": [ 8.7119011, 49.4119448 ] } },
{ "type": "Feature", "properties": { "index": "124", "@osmId": "node/3808463897", "name": "Hotel & Restaurant Sudpfanne", "opening_hours": null, "label": "Vegetarian-friendly places", "color": "#74c476" }, "geometry": { "type": "Point", "coordinates": [ 8.7138084, 49.4129263 ] } },
{ "type": "Feature", "properties": { "index": "125", "@osmId": "node/3854023178", "name": "Weinstube Witter", "opening_hours": "Mo-Sa 18:00+", "label": "Vegetarian-friendly places", "color": "#74c476" }, "geometry": { "type": "Point", "coordinates": [ 8.7139647, 49.4128323 ] } },
{ "type": "Feature", "properties": { "index": "126", "@osmId": "node/4043866709", "name": "Heart and Soul Cafe", "opening_hours": "Tu-Fr 10:00-18:00", "label": "Vegetarian-friendly places", "color": "#74c476" }, "geometry": { "type": "Point", "coordinates": [ 8.6775067, 49.4077447 ] } },
{ "type": "Feature", "properties": { "index": "127", "@osmId": "node/4115825430", "name": "Wok Mann", "opening_hours": "Mo-Fr 11:00-14:30,17:00-23:00; Su,PH 12:00-22:00", "label": "Vegetarian-friendly places", "color": "#74c476" }, "geometry": { "type": "Point", "coordinates": [ 8.6788398, 49.4029829 ] } },
{ "type": "Feature", "properties": { "index": "128", "@osmId": "node/4180478221", "name": "Das Bootshaus", "opening_hours": "Su-Fr 11:30+;Sa 17:00+", "label": "Vegetarian-friendly places", "color": "#74c476" }, "geometry": { "type": "Point", "coordinates": [ 8.6809727, 49.4094984 ] } },
{ "type": "Feature", "properties": { "index": "129", "@osmId": "node/4290023111", "name": "Safari Restaurant", "opening_hours": "Fr,Sa 10:00-02:00, Su-Th 10:00-24:00", "label": "Vegetarian-friendly places", "color": "#74c476" }, "geometry": { "type": "Point", "coordinates": [ 8.7068119, 49.4117717 ] } },
{ "type": "Feature", "properties": { "index": "130", "@osmId": "node/4336640009", "name": "Macaronnerie", "opening_hours": "Mo-Sa 07:30-18:30; Su 08:00-18:00", "label": "Vegetarian-friendly places", "color": "#74c476" }, "geometry": { "type": "Point", "coordinates": [ 8.6941239, 49.4085683 ] } },
{ "type": "Feature", "properties": { "index": "131", "@osmId": "node/4466096208", "name": "Amoroso", "opening_hours": "Tu-Sa 11:00-23:00", "label": "Vegetarian-friendly places", "color": "#74c476" }, "geometry": { "type": "Point", "coordinates": [ 8.6998436, 49.41048 ] } },
{ "type": "Feature", "properties": { "index": "132", "@osmId": "node/4857343889", "name": "Sattelkammer", "opening_hours": null, "label": "Vegetarian-friendly places", "color": "#74c476" }, "geometry": { "type": "Point", "coordinates": [ 8.7152542, 49.4094996 ] } },
{ "type": "Feature", "properties": { "index": "133", "@osmId": "node/5025869822", "name": "Park", "opening_hours": "Mo-Sa 10:00-18:00; Su 14:00-18:00", "label": "Vegetarian-friendly places", "color": "#74c476" }, "geometry": { "type": "Point", "coordinates": [ 8.6995116, 49.4093458 ] } },
{ "type": "Feature", "properties": { "index": "134", "@osmId": "node/5036176030", "name": "Ettli", "opening_hours": "Mo-Sa 08:00-20:00; Su 10:00-18:00", "label": "Vegetarian-friendly places", "color": "#74c476" }, "geometry": { "type": "Point", "coordinates": [ 8.6940066, 49.4098813 ] } },
{ "type": "Feature", "properties": { "index": "135", "@osmId": "node/5306375357", "name": "Exotica", "opening_hours": null, "label": "Vegetarian-friendly places", "color": "#74c476" }, "geometry": { "type": "Point", "coordinates": [ 8.6910451, 49.4081615 ] } },
{ "type": "Feature", "properties": { "index": "136", "@osmId": "node/5306375359", "name": "Bergheim 41 Kaffeekultur", "opening_hours": "Mo-Fr 06:30-21:00; Sa 07:00-21:00; Su 07:00-20:00", "label": "Vegetarian-friendly places", "color": "#74c476" }, "geometry": { "type": "Point", "coordinates": [ 8.6886118, 49.4083179 ] } },
{ "type": "Feature", "properties": { "index": "137", "@osmId": "node/5395572524", "name": "La Taperia Olé Olé", "opening_hours": "Fr,Sa 17:30-24:00", "label": "Vegetarian-friendly places", "color": "#74c476" }, "geometry": { "type": "Point", "coordinates": [ 8.6849819, 49.3995078 ] } },
{ "type": "Feature", "properties": { "index": "138", "@osmId": "node/5580801888", "name": "Café del Mundo", "opening_hours": "Mo 10:00-22:00; We-Sa 10:00-23:00; Su 10:00-20:00", "label": "Vegetarian-friendly places", "color": "#74c476" }, "geometry": { "type": "Point", "coordinates": [ 8.6659421, 49.4031106 ] } },
{ "type": "Feature", "properties": { "index": "139", "@osmId": "node/5580801896", "name": "Skama Bros", "opening_hours": "Tu-Su 09:00-18:00", "label": "Vegetarian-friendly places", "color": "#74c476" }, "geometry": { "type": "Point", "coordinates": [ 8.6650284, 49.4023293 ] } },
{ "type": "Feature", "properties": { "index": "140", "@osmId": "node/5981045366", "name": "Palmyra", "opening_hours": "Mo-Su 11:30-01:00", "label": "Vegetarian-friendly places", "color": "#74c476" }, "geometry": { "type": "Point", "coordinates": [ 8.6823037, 49.4048317 ] } },
{ "type": "Feature", "properties": { "index": "141", "@osmId": "node/6127351316", "name": "Punjab Curry", "opening_hours": "Mo-Sa 11:00-22:00; Su,PH 12:00-21:00", "label": "Vegetarian-friendly places", "color": "#74c476" }, "geometry": { "type": "Point", "coordinates": [ 8.7056445, 49.4123213 ] } },
{ "type": "Feature", "properties": { "index": "142", "@osmId": "node/6388324054", "name": "Marktstübel", "opening_hours": "PH,Mo-Su 12:00-15:00,18:00-22:00", "label": "Vegetarian-friendly places", "color": "#74c476" }, "geometry": { "type": "Point", "coordinates": [ 8.6900473, 49.4145685 ] } },
{ "type": "Feature", "properties": { "index": "143", "@osmId": "node/6752564185", "name": "La Tana", "opening_hours": "11:00-23:00", "label": "Vegetarian-friendly places", "color": "#74c476" }, "geometry": { "type": "Point", "coordinates": [ 8.6858698, 49.4078513 ] } },
{ "type": "Feature", "properties": { "index": "144", "@osmId": "node/6812899996", "name": "Altstadt Crêpes", "opening_hours": null, "label": "Vegetarian-friendly places", "color": "#74c476" }, "geometry": { "type": "Point", "coordinates": [ 8.7100843, 49.4121952 ] } },
{ "type": "Feature", "properties": { "index": "145", "@osmId": "node/6812899998", "name": "Crepes", "opening_hours": null, "label": "Vegetarian-friendly places", "color": "#74c476" }, "geometry": { "type": "Point", "coordinates": [ 8.7095225, 49.4121999 ] } },
{ "type": "Feature", "properties": { "index": "146", "@osmId": "node/6834316382", "name": "H&M Lab Café", "opening_hours": "Temporarily closed for renovation", "label": "Vegetarian-friendly places", "color": "#74c476" }, "geometry": { "type": "Point", "coordinates": [ 8.6936989, 49.4097965 ] } },
{ "type": "Feature", "properties": { "index": "147", "@osmId": "node/7601094029", "name": "Subway", "opening_hours": "Mo-Fr 10:30-21:00; Sa 11:00-21:00; PH,Su 12:00-21:00", "label": "Vegetarian-friendly places", "color": "#74c476" }, "geometry": { "type": "Point", "coordinates": [ 8.6664453, 49.4039512 ] } },
{ "type": "Feature", "properties": { "index": "148", "@osmId": "node/8474082121", "name": "Simon & Bearns", "opening_hours": "Mo-Su 09:00-19:00", "label": "Vegetarian-friendly places", "color": "#74c476" }, "geometry": { "type": "Point", "coordinates": [ 8.6619861, 49.4028376 ] } },
{ "type": "Feature", "properties": { "index": "149", "@osmId": "node/9811880194", "name": "Taumi", "opening_hours": "Mo-Th 11:00-22:30; Fr-Su,PH 11:00-23:30", "label": "Vegetarian-friendly places", "color": "#74c476" }, "geometry": { "type": "Point", "coordinates": [ 8.6675366, 49.403717 ] } },
{ "type": "Feature", "properties": { "index": "150", "@osmId": "node/10731658297", "name": "Luna", "opening_hours": "Mo-Sa 16:00-23:00; Su,PH 12:00-23:00", "label": "Vegetarian-friendly places", "color": "#74c476" }, "geometry": { "type": "Point", "coordinates": [ 8.6849765, 49.3999053 ] } },
{ "type": "Feature", "properties": { "index": "151", "@osmId": "node/11751612479", "name": "Heidelberg Kebap Haus", "opening_hours": "Mo-Sa 11:30-23:00, Su, PH 12:00-23:00", "label": "Vegetarian-friendly places", "color": "#74c476" }, "geometry": { "type": "Point", "coordinates": [ 8.6923077, 49.4074465 ] } },
{ "type": "Feature", "properties": { "index": "152", "@osmId": "node/11940083221", "name": "Kadokko", "opening_hours": "Tu-Th 12:00-14:00,18:00-21:00; Fr-Sa 12:00-14:30, 18:00-21:30; Su-Mo off", "label": "Vegetarian-friendly places", "color": "#74c476" }, "geometry": { "type": "Point", "coordinates": [ 8.7000323, 49.4094426 ] } },
{ "type": "Feature", "properties": { "index": "153", "@osmId": "node/11991874339", "name": "Yang", "opening_hours": "12:00-19:00", "label": "Vegetarian-friendly places", "color": "#74c476" }, "geometry": { "type": "Point", "coordinates": [ 8.6769855, 49.4116535 ] } },
{ "type": "Feature", "properties": { "index": "154", "@osmId": "node/12760093432", "name": "District Siam", "opening_hours": "Tu-Fr 11:30-14:30,17:30-22:00; Sa,Su 17:00-22:00", "label": "Vegetarian-friendly places", "color": "#74c476" }, "geometry": { "type": "Point", "coordinates": [ 8.6783706, 49.406318 ] } },
{ "type": "Feature", "properties": { "index": "155", "@osmId": "node/13232407658", "name": "Markt-Bäckerei", "opening_hours": "Mo-Sa 07:00-22:00", "label": "Vegetarian-friendly places", "color": "#74c476" }, "geometry": { "type": "Point", "coordinates": [ 8.6682907, 49.4043489 ] } }
]
}
