{
"type": "FeatureCollection",
"features": [
{ "type": "Feature", "properties": { "index": "0", "label": "Within 300 m on foot", "color": "#2b8cbe" }, "geometry": { "type": "Polygon", "coordinates": [ [ [ 8.6672158, 49.3983149 ], [ 8.6673909, 49.398076 ], [ 8.6674599, 49.3980017 ], [ 8.6745983, 49.3980029 ], [ 8.6746837, 49.3980968 ], [ 8.6747509, 49.3981906 ], [ 8.6748858, 49.398073 ], [ 8.674984, 49.3980029 ], [ 8.6814504, 49.3980036 ], [ 8.6814517, 49.3980044 ], [ 8.6815098, 49.3980466 ], [ 8.6815497, 49.3980036 ], [ 8.6939837, 49.3980038 ], [ 8.6940325, 49.398019 ], [ 8.6943797, 49.3981561 ], [ 8.6947046, 49.3983147 ], [ 8.6950041, 49.3984934 ], [ 8.6952754, 49.3986903 ], [ 8.6955158, 49.3989036 ], [ 8.695723, 49.3991313 ], [ 8.695895, 49.3993712 ], [ 8.6960302, 49.3996208 ], [ 8.6961272, 49.399878 ], [ 8.6961851, 49.4001401 ], [ 8.6962034, 49.4004046 ], [ 8.6961818, 49.4006691 ], [ 8.6961207, 49.4009309 ], [ 8.6960205, 49.4011875 ], [ 8.6958823, 49.4014365 ], [ 8.6957598, 49.4016037 ], [ 8.6958391, 49.401814 ], [ 8.6958775, 49.4019878 ], [ 8.6959195, 49.4020653 ], [ 8.6960165, 49.4023224 ], [ 8.6960744, 49.4025845 ], [ 8.6960815, 49.402687 ], [ 8.6961708, 49.402852 ], [ 8.6962678, 49.4031092 ], [ 8.6963258, 49.4033713 ], [ 8.696344, 49.4036358 ], [ 8.6963225, 49.4039003 ], [ 8.6962613, 49.4041621 ], [ 8.6961727, 49.404389 ], [ 8.6962437, 49.4044879 ], [ 8.6963789, 49.4047376 ], [ 8.6964759, 49.4049948 ], [ 8.6965338, 49.4052569 ], [ 8.6965391, 49.4053332 ], [ 8.6967399, 49.4053958 ], [ 8.6970871, 49.4055329 ], [ 8.6974121, 49.4056915 ], [ 8.6977117, 49.4058701 ], [ 8.697983, 49.406067 ], [ 8.6982234, 49.4062803 ], [ 8.6984307, 49.406508 ], [ 8.6984748, 49.4065695 ], [ 8.6985039, 49.4065668 ], [ 8.6989093, 49.4065548 ], [ 8.6993146, 49.4065689 ], [ 8.6997157, 49.4066088 ], [ 8.700109, 49.4066742 ], [ 8.7001433, 49.4066823 ], [ 8.7003345, 49.4067013 ], [ 8.7007278, 49.4067667 ], [ 8.7008739, 49.4068012 ], [ 8.7012485, 49.4068634 ], [ 8.70163, 49.4069536 ], [ 8.7016824, 49.40697 ], [ 8.7018548, 49.4069302 ], [ 8.7022488, 49.4068669 ], [ 8.7023423, 49.4068581 ], [ 8.7024813, 49.4067588 ], [ 8.7027831, 49.4065818 ], [ 8.70311, 49.4064248 ], [ 8.7034589, 49.4062896 ], [ 8.7038264, 49.4061773 ], [ 8.7042091, 49.4060891 ], [ 8.7046031, 49.4060257 ], [ 8.7050047, 49.4059879 ], [ 8.7054101, 49.4059759 ], [ 8.7058154, 49.40599 ], [ 8.7062166, 49.4060298 ], [ 8.7066099, 49.4060952 ], [ 8.7069914, 49.4061854 ], [ 8.7073576, 49.4062995 ], [ 8.7077049, 49.4064365 ], [ 8.7080299, 49.4065951 ], [ 8.7083295, 49.4067737 ], [ 8.7086009, 49.4069706 ], [ 8.7088414, 49.4071839 ], [ 8.7090487, 49.4074116 ], [ 8.7092208, 49.4076514 ], [ 8.709356, 49.4079011 ], [ 8.7094531, 49.4081582 ], [ 8.7095111, 49.4084203 ], [ 8.7095155, 49.408483 ], [ 8.7096914, 49.4084424 ], [ 8.7100855, 49.4083791 ], [ 8.7104871, 49.4083412 ], [ 8.7108925, 49.4083292 ], [ 8.7112978, 49.4083432 ], [ 8.7115079, 49.4083641 ], [ 8.7116144, 49.4082185 ], [ 8.7118244, 49.4079919 ], [ 8.7120674, 49.4077798 ], [ 8.7123411, 49.4075843 ], [ 8.7126428, 49.4074072 ], [ 8.7129697, 49.4072502 ], [ 8.7133186, 49.407115 ], [ 8.7136861, 49.4070026 ], [ 8.7140687, 49.4069144 ], [ 8.7144627, 49.406851 ], [ 8.7148644, 49.4068131 ], [ 8.7152698, 49.4068011 ], [ 8.7156751, 49.4068151 ], [ 8.7160763, 49.406855 ], [ 8.7164696, 49.4069203 ], [ 8.7168511, 49.4070104 ], [ 8.7172173, 49.4071246 ], [ 8.7175647, 49.4072615 ], [ 8.7178897, 49.4074201 ], [ 8.7181894, 49.4075987 ], [ 8.7184608, 49.4077955 ], [ 8.7187013, 49.4080088 ], [ 8.7189087, 49.4082365 ], [ 8.7190808, 49.4084763 ], [ 8.7192161, 49.408726 ], [ 8.7192843, 49.4089063 ], [ 8.7193106, 49.4089296 ], [ 8.7195179, 49.4091573 ], [ 8.7196901, 49.4093971 ], [ 8.7198254, 49.4096467 ], [ 8.7199225, 49.4099039 ], [ 8.7199806, 49.4101659 ], [ 8.719999, 49.4104305 ], [ 8.7199776, 49.4106949 ], [ 8.7199166, 49.4109567 ], [ 8.7198165, 49.4112134 ], [ 8.7196783, 49.4114624 ], [ 8.7195034, 49.4117013 ], [ 8.7192935, 49.411928 ], [ 8.7190505, 49.4121401 ], [ 8.7187768, 49.4123356 ], [ 8.7184751, 49.4125128 ], [ 8.7181482, 49.4126697 ], [ 8.7180901, 49.4126922 ], [ 8.7181005, 49.4128425 ], [ 8.7180791, 49.4131069 ], [ 8.7180605, 49.4131867 ], [ 8.7180741, 49.4132481 ], [ 8.7180925, 49.4135127 ], [ 8.718071, 49.4137771 ], [ 8.71801, 49.4140389 ], [ 8.7179099, 49.4142955 ], [ 8.7177717, 49.4145445 ], [ 8.7175968, 49.4147835 ], [ 8.7173868, 49.4150101 ], [ 8.7171438, 49.4152222 ], [ 8.7168701, 49.4154178 ], [ 8.7165684, 49.4155949 ], [ 8.7162414, 49.4157518 ], [ 8.7158925, 49.4158871 ], [ 8.7155249, 49.4159995 ], [ 8.7151422, 49.4160877 ], [ 8.7147481, 49.4161511 ], [ 8.7143464, 49.416189 ], [ 8.7139409, 49.416201 ], [ 8.7135356, 49.416187 ], [ 8.7131343, 49.4161471 ], [ 8.7127409, 49.4160818 ], [ 8.7123593, 49.4159916 ], [ 8.711993, 49.4158775 ], [ 8.7117924, 49.4157984 ], [ 8.7117166, 49.4158159 ], [ 8.7113224, 49.4158792 ], [ 8.7109207, 49.4159171 ], [ 8.7105152, 49.4159291 ], [ 8.7101099, 49.415915 ], [ 8.7097086, 49.4158752 ], [ 8.7096728, 49.4158692 ], [ 8.7092731, 49.4159069 ], [ 8.7088676, 49.4159189 ], [ 8.7084623, 49.4159048 ], [ 8.708061, 49.415865 ], [ 8.7076677, 49.4157996 ], [ 8.7072861, 49.4157095 ], [ 8.7069198, 49.4155953 ], [ 8.7065725, 49.4154583 ], [ 8.7062474, 49.4152997 ], [ 8.7059477, 49.4151211 ], [ 8.705801, 49.4150147 ], [ 8.7056284, 49.4150198 ], [ 8.705223, 49.4150057 ], [ 8.7048218, 49.4149658 ], [ 8.7044284, 49.4149005 ], [ 8.7040468, 49.4148103 ], [ 8.7036806, 49.4146961 ], [ 8.7033333, 49.4145591 ], [ 8.7030082, 49.4144005 ], [ 8.7027085, 49.4142219 ], [ 8.7024372, 49.414025 ], [ 8.7022734, 49.4138798 ], [ 8.7018831, 49.4138913 ], [ 8.7014777, 49.4138772 ], [ 8.7012372, 49.4138533 ], [ 8.7010564, 49.4139593 ], [ 8.7007294, 49.4141163 ], [ 8.7003805, 49.4142515 ], [ 8.7000129, 49.4143638 ], [ 8.6996302, 49.414452 ], [ 8.6992361, 49.4145153 ], [ 8.6988343, 49.4145531 ], [ 8.6984289, 49.4145651 ], [ 8.6980236, 49.414551 ], [ 8.6977465, 49.4145234 ], [ 8.6976583, 49.4147492 ], [ 8.69752, 49.4149982 ], [ 8.697345, 49.4152371 ], [ 8.697135, 49.4154637 ], [ 8.6968919, 49.4156758 ], [ 8.6966181, 49.4158713 ], [ 8.6963267, 49.4160422 ], [ 8.6963414, 49.4161089 ], [ 8.6963597, 49.4163734 ], [ 8.6963382, 49.4166379 ], [ 8.696277, 49.4168997 ], [ 8.6961768, 49.4171563 ], [ 8.6960385, 49.4174053 ], [ 8.6958635, 49.4176442 ], [ 8.6956534, 49.4178708 ], [ 8.6954103, 49.4180828 ], [ 8.6951365, 49.4182783 ], [ 8.6948346, 49.4184554 ], [ 8.6945076, 49.4186123 ], [ 8.6941586, 49.4187475 ], [ 8.6937909, 49.4188597 ], [ 8.6934082, 49.4189479 ], [ 8.693014, 49.4190112 ], [ 8.6926122, 49.419049 ], [ 8.6922067, 49.4190609 ], [ 8.6918014, 49.4190469 ], [ 8.6914001, 49.4190069 ], [ 8.6910067, 49.4189416 ], [ 8.6906251, 49.4188513 ], [ 8.6902589, 49.4187371 ], [ 8.6899116, 49.4186 ], [ 8.6895865, 49.4184414 ], [ 8.6894922, 49.4183852 ], [ 8.6891888, 49.4183347 ], [ 8.6888071, 49.4182445 ], [ 8.6884409, 49.4181303 ], [ 8.6880936, 49.4179932 ], [ 8.6877686, 49.4178346 ], [ 8.687469, 49.4176559 ], [ 8.6871976, 49.417459 ], [ 8.6869572, 49.4172456 ], [ 8.6867499, 49.4170179 ], [ 8.6865779, 49.4167781 ], [ 8.6864428, 49.4165284 ], [ 8.6863458, 49.4162712 ], [ 8.6862879, 49.4160091 ], [ 8.6862696, 49.4157446 ], [ 8.6862758, 49.4156692 ], [ 8.6862196, 49.4155908 ], [ 8.6860844, 49.4153411 ], [ 8.6859875, 49.415084 ], [ 8.6859296, 49.4148219 ], [ 8.6859113, 49.4145573 ], [ 8.6859329, 49.4142929 ], [ 8.6859942, 49.4140311 ], [ 8.6860944, 49.4137745 ], [ 8.6862328, 49.4135255 ], [ 8.6864078, 49.4132866 ], [ 8.6866179, 49.4130601 ], [ 8.6868611, 49.412848 ], [ 8.6871349, 49.4126525 ], [ 8.6874367, 49.4124755 ], [ 8.6877637, 49.4123186 ], [ 8.6881127, 49.4121834 ], [ 8.6884803, 49.4120712 ], [ 8.688863, 49.411983 ], [ 8.6888794, 49.4119804 ], [ 8.6889052, 49.4119725 ], [ 8.6892879, 49.4118843 ], [ 8.6896608, 49.4118244 ], [ 8.6894751, 49.4117137 ], [ 8.6892038, 49.4115167 ], [ 8.6889633, 49.4113034 ], [ 8.6887561, 49.4110757 ], [ 8.6887111, 49.4110129 ], [ 8.6885947, 49.4110164 ], [ 8.6881894, 49.4110023 ], [ 8.6877882, 49.4109623 ], [ 8.687395, 49.4108969 ], [ 8.6873448, 49.410885 ], [ 8.6872551, 49.4108761 ], [ 8.6868618, 49.4108107 ], [ 8.6864972, 49.4107245 ], [ 8.6864653, 49.4107397 ], [ 8.6861164, 49.4108749 ], [ 8.6857488, 49.4109872 ], [ 8.6853661, 49.4110753 ], [ 8.6849719, 49.4111386 ], [ 8.6845702, 49.4111764 ], [ 8.6841949, 49.4111874 ], [ 8.6841585, 49.4112191 ], [ 8.6838847, 49.4114145 ], [ 8.6835828, 49.4115915 ], [ 8.6832558, 49.4117484 ], [ 8.6829068, 49.4118836 ], [ 8.6825392, 49.4119958 ], [ 8.6823353, 49.4120428 ], [ 8.6824317, 49.4122987 ], [ 8.6824896, 49.4125608 ], [ 8.6825078, 49.4128253 ], [ 8.6824862, 49.4130898 ], [ 8.6824249, 49.4133516 ], [ 8.6823247, 49.4136082 ], [ 8.6821863, 49.4138571 ], [ 8.6820112, 49.414096 ], [ 8.6818011, 49.4143226 ], [ 8.6815579, 49.4145346 ], [ 8.6812841, 49.4147301 ], [ 8.6809822, 49.4149071 ], [ 8.6806552, 49.4150639 ], [ 8.6803061, 49.4151991 ], [ 8.6799385, 49.4153113 ], [ 8.6795558, 49.4153995 ], [ 8.6791616, 49.4154627 ], [ 8.6787599, 49.4155005 ], [ 8.6783544, 49.4155123 ], [ 8.6779491, 49.4154982 ], [ 8.6775478, 49.4154583 ], [ 8.6771545, 49.4153928 ], [ 8.6767729, 49.4153025 ], [ 8.6764068, 49.4151883 ], [ 8.6760595, 49.4150512 ], [ 8.6757345, 49.4148925 ], [ 8.675435, 49.4147138 ], [ 8.6751637, 49.4145168 ], [ 8.6750751, 49.4144382 ], [ 8.6750067, 49.414613 ], [ 8.6748683, 49.414862 ], [ 8.6747236, 49.4150594 ], [ 8.6747795, 49.4151627 ], [ 8.6748765, 49.4154198 ], [ 8.6748829, 49.4154491 ], [ 8.674962, 49.4154364 ], [ 8.6753638, 49.4153987 ], [ 8.6757693, 49.4153869 ], [ 8.6761746, 49.415401 ], [ 8.6765758, 49.415441 ], [ 8.6769691, 49.4155064 ], [ 8.6773507, 49.4155967 ], [ 8.6777169, 49.4157109 ], [ 8.6780642, 49.415848 ], [ 8.6783891, 49.4160067 ], [ 8.6786887, 49.4161854 ], [ 8.67896, 49.4163823 ], [ 8.6792004, 49.4165957 ], [ 8.6794076, 49.4168234 ], [ 8.6795796, 49.4170633 ], [ 8.6797147, 49.417313 ], [ 8.6798117, 49.4175702 ], [ 8.6798696, 49.4178323 ], [ 8.6798877, 49.4180968 ], [ 8.6798661, 49.4183613 ], [ 8.6798159, 49.4185758 ], [ 8.6798919, 49.4185686 ], [ 8.6802974, 49.4185568 ], [ 8.6807028, 49.4185709 ], [ 8.681104, 49.4186108 ], [ 8.6814974, 49.4186763 ], [ 8.681879, 49.4187665 ], [ 8.6822452, 49.4188808 ], [ 8.6825925, 49.4190179 ], [ 8.6829175, 49.4191765 ], [ 8.6832171, 49.4193552 ], [ 8.6834885, 49.4195521 ], [ 8.6837289, 49.4197655 ], [ 8.6839362, 49.4199932 ], [ 8.6841082, 49.4202331 ], [ 8.6842433, 49.4204828 ], [ 8.6843403, 49.4207399 ], [ 8.6843982, 49.421002 ], [ 8.6844164, 49.4212666 ], [ 8.6843948, 49.421531 ], [ 8.6843336, 49.4217928 ], [ 8.6842511, 49.4220037 ], [ 8.6713215, 49.4220024 ], [ 8.6713066, 49.4217861 ], [ 8.6713283, 49.4215217 ], [ 8.6713896, 49.4212599 ], [ 8.67149, 49.4210033 ], [ 8.6716284, 49.4207544 ], [ 8.6716874, 49.4206739 ], [ 8.6713753, 49.420724 ], [ 8.6709735, 49.4207617 ], [ 8.6705679, 49.4207735 ], [ 8.6701626, 49.4207594 ], [ 8.6697613, 49.4207194 ], [ 8.669368, 49.4206539 ], [ 8.6689864, 49.4205636 ], [ 8.6686202, 49.4204493 ], [ 8.6682729, 49.4203122 ], [ 8.6679479, 49.4201535 ], [ 8.6676483, 49.4199748 ], [ 8.6673771, 49.4197778 ], [ 8.6671367, 49.4195644 ], [ 8.6669296, 49.4193367 ], [ 8.6667576, 49.4190968 ], [ 8.6666226, 49.4188471 ], [ 8.6665257, 49.4185899 ], [ 8.6664688, 49.4183319 ], [ 8.6661787, 49.4183403 ], [ 8.6657734, 49.4183262 ], [ 8.6653721, 49.4182862 ], [ 8.6649788, 49.4182207 ], [ 8.6645972, 49.4181304 ], [ 8.6642311, 49.4180161 ], [ 8.6638838, 49.4178789 ], [ 8.6635589, 49.4177202 ], [ 8.6632593, 49.4175415 ], [ 8.6629881, 49.4173445 ], [ 8.6629522, 49.4173126 ], [ 8.6628677, 49.4173097 ], [ 8.6624665, 49.4172696 ], [ 8.6620732, 49.4172041 ], [ 8.6616916, 49.4171138 ], [ 8.6613255, 49.4169995 ], [ 8.6609782, 49.4168624 ], [ 8.6606864, 49.4167198 ], [ 8.6606674, 49.4167192 ], [ 8.6602662, 49.4166791 ], [ 8.66, 49.4166348 ], [ 8.66, 49.4114345 ], [ 8.6603027, 49.4113859 ], [ 8.6607044, 49.4113483 ], [ 8.6611099, 49.4113365 ], [ 8.6615152, 49.4113506 ], [ 8.6619164, 49.4113907 ], [ 8.6623096, 49.4114562 ], [ 8.6626911, 49.4115465 ], [ 8.6630572, 49.4116608 ], [ 8.6634044, 49.4117979 ], [ 8.6636962, 49.4119405 ], [ 8.6637152, 49.4119411 ], [ 8.6641164, 49.4119812 ], [ 8.6645097, 49.4120466 ], [ 8.6648912, 49.412137 ], [ 8.6652574, 49.4122512 ], [ 8.6656046, 49.4123884 ], [ 8.6659295, 49.4125471 ], [ 8.666229, 49.4127258 ], [ 8.6665002, 49.4129228 ], [ 8.6665361, 49.4129547 ], [ 8.6666206, 49.4129576 ], [ 8.6670218, 49.4129976 ], [ 8.6671082, 49.413012 ], [ 8.66724, 49.4127749 ], [ 8.6674152, 49.412536 ], [ 8.6676254, 49.4123095 ], [ 8.6678686, 49.4120975 ], [ 8.6681425, 49.4119021 ], [ 8.6684444, 49.4117251 ], [ 8.6687714, 49.4115683 ], [ 8.6691205, 49.4114331 ], [ 8.6694881, 49.4113209 ], [ 8.6698708, 49.4112328 ], [ 8.670265, 49.4111696 ], [ 8.6706667, 49.4111319 ], [ 8.6710721, 49.4111201 ], [ 8.6714774, 49.4111342 ], [ 8.6718786, 49.4111742 ], [ 8.6722719, 49.4112397 ], [ 8.6726534, 49.41133 ], [ 8.6728698, 49.4113975 ], [ 8.6728715, 49.4113774 ], [ 8.6729328, 49.4111157 ], [ 8.6730331, 49.4108591 ], [ 8.6730769, 49.4107802 ], [ 8.6728543, 49.410758 ], [ 8.6724611, 49.4106926 ], [ 8.6720795, 49.4106023 ], [ 8.6717134, 49.410488 ], [ 8.6713662, 49.4103509 ], [ 8.6710413, 49.4101922 ], [ 8.6707418, 49.4100135 ], [ 8.6704705, 49.4098165 ], [ 8.6702302, 49.4096031 ], [ 8.6700231, 49.4093754 ], [ 8.6698512, 49.4091355 ], [ 8.6697161, 49.4088858 ], [ 8.6696192, 49.4086286 ], [ 8.6695614, 49.4083665 ], [ 8.6695433, 49.408102 ], [ 8.669565, 49.4078375 ], [ 8.6696263, 49.4075757 ], [ 8.6697266, 49.4073191 ], [ 8.6697626, 49.4072544 ], [ 8.6697352, 49.407257 ], [ 8.6693298, 49.4072688 ], [ 8.6689245, 49.4072547 ], [ 8.6685234, 49.4072147 ], [ 8.6681301, 49.4071492 ], [ 8.6677486, 49.4070589 ], [ 8.6675719, 49.4070037 ], [ 8.6674661, 49.4069932 ], [ 8.6670729, 49.4069277 ], [ 8.6666914, 49.4068374 ], [ 8.6663253, 49.4067231 ], [ 8.6661114, 49.4066386 ], [ 8.6660218, 49.4066355 ], [ 8.6656206, 49.4065955 ], [ 8.6652274, 49.40653 ], [ 8.6648459, 49.4064397 ], [ 8.6644798, 49.4063254 ], [ 8.6641327, 49.4061882 ], [ 8.6638078, 49.4060295 ], [ 8.6635083, 49.4058508 ], [ 8.6632372, 49.4056538 ], [ 8.6630069, 49.4054493 ], [ 8.6627747, 49.4054866 ], [ 8.662373, 49.4055242 ], [ 8.6619676, 49.405536 ], [ 8.6615623, 49.4055219 ], [ 8.6611612, 49.4054818 ], [ 8.660768, 49.4054163 ], [ 8.6603865, 49.405326 ], [ 8.6600205, 49.4052117 ], [ 8.66, 49.4052036 ], [ 8.66, 49.4004727 ], [ 8.6600533, 49.4004521 ], [ 8.6604209, 49.4003399 ], [ 8.6608036, 49.4002518 ], [ 8.6611976, 49.4001886 ], [ 8.6615993, 49.400151 ], [ 8.6619591, 49.4001405 ], [ 8.6619592, 49.4001404 ], [ 8.6622611, 49.3999634 ], [ 8.662588, 49.3998066 ], [ 8.662937, 49.3996715 ], [ 8.6633046, 49.3995594 ], [ 8.6636872, 49.3994713 ], [ 8.6640813, 49.3994081 ], [ 8.6644829, 49.3993704 ], [ 8.6648883, 49.3993585 ], [ 8.6652934, 49.3993727 ], [ 8.6656945, 49.3994127 ], [ 8.665769, 49.3994251 ], [ 8.6658237, 49.3993661 ], [ 8.6660669, 49.3991541 ], [ 8.6663407, 49.3989587 ], [ 8.6666425, 49.3987817 ], [ 8.6669695, 49.3986249 ], [ 8.6669936, 49.3986156 ], [ 8.6670762, 49.3985672 ], [ 8.6670775, 49.3985639 ], [ 8.6672158, 49.3983149 ] ] ] } },
{ "type": "Feature", "properties": { "index": "1", "label": "Beyond 300 m", "color": "#d9d9d9" }, "geometry": { "type": "MultiPolygon", "coordinates": [ [ [ [ 8.72, 49.398 ], [ 8.72, 49.422 ], [ 8.6842511, 49.4220037 ], [ 8.6843336, 49.4217928 ], [ 8.6843948, 49.421531 ], [ 8.6844164, 49.4212666 ], [ 8.6843982, 49.421002 ], [ 8.6843403, 49.4207399 ], [ 8.6842433, 49.4204828 ], [ 8.6841082, 49.4202331 ], [ 8.6839362, 49.4199932 ], [ 8.6837289, 49.4197655 ], [ 8.6834885, 49.4195521 ], [ 8.6832171, 49.4193552 ], [ 8.6829175, 49.4191765 ], [ 8.6825925, 49.4190179 ], [ 8.6822452, 49.4188808 ], [ 8.681879, 49.4187665 ], [ 8.6814974, 49.4186763 ], [ 8.681104, 49.4186108 ], [ 8.6807028, 49.4185709 ], [ 8.6802974, 49.4185568 ], [ 8.6798919, 49.4185686 ], [ 8.6798159, 49.4185758 ], [ 8.6798661, 49.4183613 ], [ 8.6798877, 49.4180968 ], [ 8.6798696, 49.4178323 ], [ 8.6798117, 49.4175702 ], [ 8.6797147, 49.417313 ], [ 8.6795796, 49.4170633 ], [ 8.6794076, 49.4168234 ], [ 8.6792004, 49.4165957 ], [ 8.67896, 49.4163823 ], [ 8.6786887, 49.4161854 ], [ 8.6783891, 49.4160067 ], [ 8.6780642, 49.415848 ], [ 8.6777169, 49.4157109 ], [ 8.6773507, 49.4155967 ], [ 8.6769691, 49.4155064 ], [ 8.6765758, 49.415441 ], [ 8.6761746, 49.415401 ], [ 8.6757693, 49.4153869 ], [ 8.6753638, 49.4153987 ], [ 8.674962, 49.4154364 ], [ 8.6748829, 49.4154491 ], [ 8.6748765, 49.4154198 ], [ 8.6747795, 49.4151627 ], [ 8.6747236, 49.4150594 ], [ 8.6748683, 49.414862 ], [ 8.6750067, 49.414613 ], [ 8.6750751, 49.4144382 ], [ 8.6751637, 49.4145168 ], [ 8.675435, 49.4147138 ], [ 8.6757345, 49.4148925 ], [ 8.6760595, 49.4150512 ], [ 8.6764068, 49.4151883 ], [ 8.6767729, 49.4153025 ], [ 8.6771545, 49.4153928 ], [ 8.6775478, 49.4154583 ], [ 8.6779491, 49.4154982 ], [ 8.6783544, 49.4155123 ], [ 8.6787599, 49.4155005 ], [ 8.6791616, 49.4154627 ], [ 8.6795558, 49.4153995 ], [ 8.6799385, 49.4153113 ], [ 8.6803061, 49.4151991 ], [ 8.6806552, 49.4150639 ], [ 8.6809822, 49.4149071 ], [ 8.6812841, 49.4147301 ], [ 8.6815579, 49.4145346 ], [ 8.6818011, 49.4143226 ], [ 8.6820112, 49.414096 ], [ 8.6821863, 49.4138571 ], [ 8.6823247, 49.4136082 ], [ 8.6824249, 49.4133516 ], [ 8.6824862, 49.4130898 ], [ 8.6825078, 49.4128253 ], [ 8.6824896, 49.4125608 ], [ 8.6824317, 49.4122987 ], [ 8.6823353, 49.4120428 ], [ 8.6825392, 49.4119958 ], [ 8.6829068, 49.4118836 ], [ 8.6832558, 49.4117484 ], [ 8.6835828, 49.4115915 ], [ 8.6838847, 49.4114145 ], [ 8.6841585, 49.4112191 ], [ 8.6841949, 49.4111874 ], [ 8.6845702, 49.4111764 ], [ 8.6849719, 49.4111386 ], [ 8.6853661, 49.4110753 ], [ 8.6857488, 49.4109872 ], [ 8.6861164, 49.4108749 ], [ 8.6864653, 49.4107397 ], [ 8.6864972, 49.4107245 ], [ 8.6868618, 49.4108107 ], [ 8.6872551, 49.4108761 ], [ 8.6873448, 49.410885 ], [ 8.687395, 49.4108969 ], [ 8.6877882, 49.4109623 ], [ 8.6881894, 49.4110023 ], [ 8.6885947, 49.4110164 ], [ 8.6887111, 49.4110129 ], [ 8.6887561, 49.4110757 ], [ 8.6889633, 49.4113034 ], [ 8.6892038, 49.4115167 ], [ 8.6894751, 49.4117137 ], [ 8.6896608, 49.4118244 ], [ 8.6892879, 49.4118843 ], [ 8.6889052, 49.4119725 ], [ 8.6888794, 49.4119804 ], [ 8.688863, 49.411983 ], [ 8.6884803, 49.4120712 ], [ 8.6881127, 49.4121834 ], [ 8.6877637, 49.4123186 ], [ 8.6874367, 49.4124755 ], [ 8.6871349, 49.4126525 ], [ 8.6868611, 49.412848 ], [ 8.6866179, 49.4130601 ], [ 8.6864078, 49.4132866 ], [ 8.6862328, 49.4135255 ], [ 8.6860944, 49.4137745 ], [ 8.6859942, 49.4140311 ], [ 8.6859329, 49.4142929 ], [ 8.6859113, 49.4145573 ], [ 8.6859296, 49.4148219 ], [ 8.6859875, 49.415084 ], [ 8.6860844, 49.4153411 ], [ 8.6862196, 49.4155908 ], [ 8.6862758, 49.4156692 ], [ 8.6862696, 49.4157446 ], [ 8.6862879, 49.4160091 ], [ 8.6863458, 49.4162712 ], [ 8.6864428, 49.4165284 ], [ 8.6865779, 49.4167781 ], [ 8.6867499, 49.4170179 ], [ 8.6869572, 49.4172456 ], [ 8.6871976, 49.417459 ], [ 8.687469, 49.4176559 ], [ 8.6877686, 49.4178346 ], [ 8.6880936, 49.4179932 ], [ 8.6884409, 49.4181303 ], [ 8.6888071, 49.4182445 ], [ 8.6891888, 49.4183347 ], [ 8.6894922, 49.4183852 ], [ 8.6895865, 49.4184414 ], [ 8.6899116, 49.4186 ], [ 8.6902589, 49.4187371 ], [ 8.6906251, 49.4188513 ], [ 8.6910067, 49.4189416 ], [ 8.6914001, 49.4190069 ], [ 8.6918014, 49.4190469 ], [ 8.6922067, 49.4190609 ], [ 8.6926122, 49.419049 ], [ 8.693014, 49.4190112 ], [ 8.6934082, 49.4189479 ], [ 8.6937909, 49.4188597 ], [ 8.6941586, 49.4187475 ], [ 8.6945076, 49.4186123 ], [ 8.6948346, 49.4184554 ], [ 8.6951365, 49.4182783 ], [ 8.6954103, 49.4180828 ], [ 8.6956534, 49.4178708 ], [ 8.6958635, 49.4176442 ], [ 8.6960385, 49.4174053 ], [ 8.6961768, 49.4171563 ], [ 8.696277, 49.4168997 ], [ 8.6963382, 49.4166379 ], [ 8.6963597, 49.4163734 ], [ 8.6963414, 49.4161089 ], [ 8.6963267, 49.4160422 ], [ 8.6966181, 49.4158713 ], [ 8.6968919, 49.4156758 ], [ 8.697135, 49.4154637 ], [ 8.697345, 49.4152371 ], [ 8.69752, 49.4149982 ], [ 8.6976583, 49.4147492 ], [ 8.6977465, 49.4145234 ], [ 8.6980236, 49.414551 ], [ 8.6984289, 49.4145651 ], [ 8.6988343, 49.4145531 ], [ 8.6992361, 49.4145153 ], [ 8.6996302, 49.414452 ], [ 8.7000129, 49.4143638 ], [ 8.7003805, 49.4142515 ], [ 8.7007294, 49.4141163 ], [ 8.7010564, 49.4139593 ], [ 8.7012372, 49.4138533 ], [ 8.7014777, 49.4138772 ], [ 8.7018831, 49.4138913 ], [ 8.7022734, 49.4138798 ], [ 8.7024372, 49.414025 ], [ 8.7027085, 49.4142219 ], [ 8.7030082, 49.4144005 ], [ 8.7033333, 49.4145591 ], [ 8.7036806, 49.4146961 ], [ 8.7040468, 49.4148103 ], [ 8.7044284, 49.4149005 ], [ 8.7048218, 49.4149658 ], [ 8.705223, 49.4150057 ], [ 8.7056284, 49.4150198 ], [ 8.705801, 49.4150147 ], [ 8.7059477, 49.4151211 ], [ 8.7062474, 49.4152997 ], [ 8.7065725, 49.4154583 ], [ 8.7069198, 49.4155953 ], [ 8.7072861, 49.4157095 ], [ 8.7076677, 49.4157996 ], [ 8.708061, 49.415865 ], [ 8.7084623, 49.4159048 ], [ 8.7088676, 49.4159189 ], [ 8.7092731, 49.4159069 ], [ 8.7096728, 49.4158692 ], [ 8.7097086, 49.4158752 ], [ 8.7101099, 49.415915 ], [ 8.7105152, 49.4159291 ], [ 8.7109207, 49.4159171 ], [ 8.7113224, 49.4158792 ], [ 8.7117166, 49.4158159 ], [ 8.7117924, 49.4157984 ], [ 8.711993, 49.4158775 ], [ 8.7123593, 49.4159916 ], [ 8.7127409, 49.4160818 ], [ 8.7131343, 49.4161471 ], [ 8.7135356, 49.416187 ], [ 8.7139409, 49.416201 ], [ 8.7143464, 49.416189 ], [ 8.7147481, 49.4161511 ], [ 8.7151422, 49.4160877 ], [ 8.7155249, 49.4159995 ], [ 8.7158925, 49.4158871 ], [ 8.7162414, 49.4157518 ], [ 8.7165684, 49.4155949 ], [ 8.7168701, 49.4154178 ], [ 8.7171438, 49.4152222 ], [ 8.7173868, 49.4150101 ], [ 8.7175968, 49.4147835 ], [ 8.7177717, 49.4145445 ], [ 8.7179099, 49.4142955 ], [ 8.71801, 49.4140389 ], [ 8.718071, 49.4137771 ], [ 8.7180925, 49.4135127 ], [ 8.7180741, 49.4132481 ], [ 8.7180605, 49.4131867 ], [ 8.7180791, 49.4131069 ], [ 8.7181005, 49.4128425 ], [ 8.7180901, 49.4126922 ], [ 8.7181482, 49.4126697 ], [ 8.7184751, 49.4125128 ], [ 8.7187768, 49.4123356 ], [ 8.7190505, 49.4121401 ], [ 8.7192935, 49.411928 ], [ 8.7195034, 49.4117013 ], [ 8.7196783, 49.4114624 ], [ 8.7198165, 49.4112134 ], [ 8.7199166, 49.4109567 ], [ 8.7199776, 49.4106949 ], [ 8.719999, 49.4104305 ], [ 8.7199806, 49.4101659 ], [ 8.7199225, 49.4099039 ], [ 8.7198254, 49.4096467 ], [ 8.7196901, 49.4093971 ], [ 8.7195179, 49.4091573 ], [ 8.7193106, 49.4089296 ], [ 8.7192843, 49.4089063 ], [ 8.7192161, 49.408726 ], [ 8.7190808, 49.4084763 ], [ 8.7189087, 49.4082365 ], [ 8.7187013, 49.4080088 ], [ 8.7184608, 49.4077955 ], [ 8.7181894, 49.4075987 ], [ 8.7178897, 49.4074201 ], [ 8.7175647, 49.4072615 ], [ 8.7172173, 49.4071246 ], [ 8.7168511, 49.4070104 ], [ 8.7164696, 49.4069203 ], [ 8.7160763, 49.406855 ], [ 8.7156751, 49.4068151 ], [ 8.7152698, 49.4068011 ], [ 8.7148644, 49.4068131 ], [ 8.7144627, 49.406851 ], [ 8.7140687, 49.4069144 ], [ 8.7136861, 49.4070026 ], [ 8.7133186, 49.407115 ], [ 8.7129697, 49.4072502 ], [ 8.7126428, 49.4074072 ], [ 8.7123411, 49.4075843 ], [ 8.7120674, 49.4077798 ], [ 8.7118244, 49.4079919 ], [ 8.7116144, 49.4082185 ], [ 8.7115079, 49.4083641 ], [ 8.7112978, 49.4083432 ], [ 8.7108925, 49.4083292 ], [ 8.7104871, 49.4083412 ], [ 8.7100855, 49.4083791 ], [ 8.7096914, 49.4084424 ], [ 8.7095155, 49.408483 ], [ 8.7095111, 49.4084203 ], [ 8.7094531, 49.4081582 ], [ 8.709356, 49.4079011 ], [ 8.7092208, 49.4076514 ], [ 8.7090487, 49.4074116 ], [ 8.7088414, 49.4071839 ], [ 8.7086009, 49.4069706 ], [ 8.7083295, 49.4067737 ], [ 8.7080299, 49.4065951 ], [ 8.7077049, 49.4064365 ], [ 8.7073576, 49.4062995 ], [ 8.7069914, 49.4061854 ], [ 8.7066099, 49.4060952 ], [ 8.7062166, 49.4060298 ], [ 8.7058154, 49.40599 ], [ 8.7054101, 49.4059759 ], [ 8.7050047, 49.4059879 ], [ 8.7046031, 49.4060257 ], [ 8.7042091, 49.4060891 ], [ 8.7038264, 49.4061773 ], [ 8.7034589, 49.4062896 ], [ 8.70311, 49.4064248 ], [ 8.7027831, 49.4065818 ], [ 8.7024813, 49.4067588 ], [ 8.7023423, 49.4068581 ], [ 8.7022488, 49.4068669 ], [ 8.7018548, 49.4069302 ], [ 8.7016824, 49.40697 ], [ 8.70163, 49.4069536 ], [ 8.7012485, 49.4068634 ], [ 8.7008739, 49.4068012 ], [ 8.7007278, 49.4067667 ], [ 8.7003345, 49.4067013 ], [ 8.7001433, 49.4066823 ], [ 8.700109, 49.4066742 ], [ 8.6997157, 49.4066088 ], [ 8.6993146, 49.4065689 ], [ 8.6989093, 49.4065548 ], [ 8.6985039, 49.4065668 ], [ 8.6984748, 49.4065695 ], [ 8.6984307, 49.406508 ], [ 8.6982234, 49.4062803 ], [ 8.697983, 49.406067 ], [ 8.6977117, 49.4058701 ], [ 8.6974121, 49.4056915 ], [ 8.6970871, 49.4055329 ], [ 8.6967399, 49.4053958 ], [ 8.6965391, 49.4053332 ], [ 8.6965338, 49.4052569 ], [ 8.6964759, 49.4049948 ], [ 8.6963789, 49.4047376 ], [ 8.6962437, 49.4044879 ], [ 8.6961727, 49.404389 ], [ 8.6962613, 49.4041621 ], [ 8.6963225, 49.4039003 ], [ 8.696344, 49.4036358 ], [ 8.6963258, 49.4033713 ], [ 8.6962678, 49.4031092 ], [ 8.6961708, 49.402852 ], [ 8.6960815, 49.402687 ], [ 8.6960744, 49.4025845 ], [ 8.6960165, 49.4023224 ], [ 8.6959195, 49.4020653 ], [ 8.6958775, 49.4019878 ], [ 8.6958391, 49.401814 ], [ 8.6957598, 49.4016037 ], [ 8.6958823, 49.4014365 ], [ 8.6960205, 49.4011875 ], [ 8.6961207, 49.4009309 ], [ 8.6961818, 49.4006691 ], [ 8.6962034, 49.4004046 ], [ 8.6961851, 49.4001401 ], [ 8.6961272, 49.399878 ], [ 8.6960302, 49.3996208 ], [ 8.695895, 49.3993712 ], [ 8.695723, 49.3991313 ], [ 8.6955158, 49.3989036 ], [ 8.6952754, 49.3986903 ], [ 8.6950041, 49.3984934 ], [ 8.6947046, 49.3983147 ], [ 8.6943797, 49.3981561 ], [ 8.6940325, 49.398019 ], [ 8.6939837, 49.3980038 ], [ 8.72, 49.398 ] ] ], [ [ [ 8.6713215, 49.4220024 ], [ 8.66, 49.422 ], [ 8.66, 49.4166348 ], [ 8.6602662, 49.4166791 ], [ 8.6606674, 49.4167192 ], [ 8.6606864, 49.4167198 ], [ 8.6609782, 49.4168624 ], [ 8.6613255, 49.4169995 ], [ 8.6616916, 49.4171138 ], [ 8.6620732, 49.4172041 ], [ 8.6624665, 49.4172696 ], [ 8.6628677, 49.4173097 ], [ 8.6629522, 49.4173126 ], [ 8.6629881, 49.4173445 ], [ 8.6632593, 49.4175415 ], [ 8.6635589, 49.4177202 ], [ 8.6638838, 49.4178789 ], [ 8.6642311, 49.4180161 ], [ 8.6645972, 49.4181304 ], [ 8.6649788, 49.4182207 ], [ 8.6653721, 49.4182862 ], [ 8.6657734, 49.4183262 ], [ 8.6661787, 49.4183403 ], [ 8.6664688, 49.4183319 ], [ 8.6665257, 49.4185899 ], [ 8.6666226, 49.4188471 ], [ 8.6667576, 49.4190968 ], [ 8.6669296, 49.4193367 ], [ 8.6671367, 49.4195644 ], [ 8.6673771, 49.4197778 ], [ 8.6676483, 49.4199748 ], [ 8.6679479, 49.4201535 ], [ 8.6682729, 49.4203122 ], [ 8.6686202, 49.4204493 ], [ 8.6689864, 49.4205636 ], [ 8.669368, 49.4206539 ], [ 8.6697613, 49.4207194 ], [ 8.6701626, 49.4207594 ], [ 8.6705679, 49.4207735 ], [ 8.6709735, 49.4207617 ], [ 8.6713753, 49.420724 ], [ 8.6716874, 49.4206739 ], [ 8.6716284, 49.4207544 ], [ 8.67149, 49.4210033 ], [ 8.6713896, 49.4212599 ], [ 8.6713283, 49.4215217 ], [ 8.6713066, 49.4217861 ], [ 8.6713215, 49.4220024 ] ] ], [ [ [ 8.6603027, 49.4113859 ], [ 8.66, 49.4114345 ], [ 8.66, 49.4052036 ], [ 8.6600205, 49.4052117 ], [ 8.6603865, 49.405326 ], [ 8.660768, 49.4054163 ], [ 8.6611612, 49.4054818 ], [ 8.6615623, 49.4055219 ], [ 8.6619676, 49.405536 ], [ 8.662373, 49.4055242 ], [ 8.6627747, 49.4054866 ], [ 8.6630069, 49.4054493 ], [ 8.6632372, 49.4056538 ], [ 8.6635083, 49.4058508 ], [ 8.6638078, 49.4060295 ], [ 8.6641327, 49.4061882 ], [ 8.6644798, 49.4063254 ], [ 8.6648459, 49.4064397 ], [ 8.6652274, 49.40653 ], [ 8.6656206, 49.4065955 ], [ 8.6660218, 49.4066355 ], [ 8.6661114, 49.4066386 ], [ 8.6663253, 49.4067231 ], [ 8.6666914, 49.4068374 ], [ 8.6670729, 49.4069277 ], [ 8.6674661, 49.4069932 ], [ 8.6675719, 49.4070037 ], [ 8.6677486, 49.4070589 ], [ 8.6681301, 49.4071492 ], [ 8.6685234, 49.4072147 ], [ 8.6689245, 49.4072547 ], [ 8.6693298, 49.4072688 ], [ 8.6697352, 49.407257 ], [ 8.6697626, 49.4072544 ], [ 8.6697266, 49.4073191 ], [ 8.6696263, 49.4075757 ], [ 8.669565, 49.4078375 ], [ 8.6695433, 49.408102 ], [ 8.6695614, 49.4083665 ], [ 8.6696192, 49.4086286 ], [ 8.6697161, 49.4088858 ], [ 8.6698512, 49.4091355 ], [ 8.6700231, 49.4093754 ], [ 8.6702302, 49.4096031 ], [ 8.6704705, 49.4098165 ], [ 8.6707418, 49.4100135 ], [ 8.6710413, 49.4101922 ], [ 8.6713662, 49.4103509 ], [ 8.6717134, 49.410488 ], [ 8.6720795, 49.4106023 ], [ 8.6724611, 49.4106926 ], [ 8.6728543, 49.410758 ], [ 8.6730769, 49.4107802 ], [ 8.6730331, 49.4108591 ], [ 8.6729328, 49.4111157 ], [ 8.6728715, 49.4113774 ], [ 8.6728698, 49.4113975 ], [ 8.6726534, 49.41133 ], [ 8.6722719, 49.4112397 ], [ 8.6718786, 49.4111742 ], [ 8.6714774, 49.4111342 ], [ 8.6710721, 49.4111201 ], [ 8.6706667, 49.4111319 ], [ 8.670265, 49.4111696 ], [ 8.6698708, 49.4112328 ], [ 8.6694881, 49.4113209 ], [ 8.6691205, 49.4114331 ], [ 8.6687714, 49.4115683 ], [ 8.6684444, 49.4117251 ], [ 8.6681425, 49.4119021 ], [ 8.6678686, 49.4120975 ], [ 8.6676254, 49.4123095 ], [ 8.6674152, 49.412536 ], [ 8.66724, 49.4127749 ], [ 8.6671082, 49.413012 ], [ 8.6670218, 49.4129976 ], [ 8.6666206, 49.4129576 ], [ 8.6665361, 49.4129547 ], [ 8.6665002, 49.4129228 ], [ 8.666229, 49.4127258 ], [ 8.6659295, 49.4125471 ], [ 8.6656046, 49.4123884 ], [ 8.6652574, 49.4122512 ], [ 8.6648912, 49.412137 ], [ 8.6645097, 49.4120466 ], [ 8.6641164, 49.4119812 ], [ 8.6637152, 49.4119411 ], [ 8.6636962, 49.4119405 ], [ 8.6634044, 49.4117979 ], [ 8.6630572, 49.4116608 ], [ 8.6626911, 49.4115465 ], [ 8.6623096, 49.4114562 ], [ 8.6619164, 49.4113907 ], [ 8.6615152, 49.4113506 ], [ 8.6611099, 49.4113365 ], [ 8.6607044, 49.4113483 ], [ 8.6603027, 49.4113859 ] ] ], [ [ [ 8.66, 49.4004727 ], [ 8.66, 49.398 ], [ 8.6674599, 49.3980017 ], [ 8.6673909, 49.398076 ], [ 8.6672158, 49.3983149 ], [ 8.6670775, 49.3985639 ], [ 8.6670762, 49.3985672 ], [ 8.6669936, 49.3986156 ], [ 8.6669695, 49.3986249 ], [ 8.6666425, 49.3987817 ], [ 8.6663407, 49.3989587 ], [ 8.6660669, 49.3991541 ], [ 8.6658237, 49.3993661 ], [ 8.665769, 49.3994251 ], [ 8.6656945, 49.3994127 ], [ 8.6652934, 49.3993727 ], [ 8.6648883, 49.3993585 ], [ 8.6644829, 49.3993704 ], [ 8.6640813, 49.3994081 ], [ 8.6636872, 49.3994713 ], [ 8.6633046, 49.3995594 ], [ 8.662937, 49.3996715 ], [ 8.662588, 49.3998066 ], [ 8.6622611, 49.3999634 ], [ 8.6619592, 49.4001404 ], [ 8.6619591, 49.4001405 ], [ 8.6615993, 49.400151 ], [ 8.6611976, 49.4001886 ], [ 8.6608036, 49.4002518 ], [ 8.6604209, 49.4003399 ], [ 8.6600533, 49.4004521 ], [ 8.66, 49.4004727 ] ] ], [ [ [ 8.6746837, 49.3980968 ], [ 8.6745983, 49.3980029 ], [ 8.674984, 49.3980029 ], [ 8.6748858, 49.398073 ], [ 8.6747509, 49.3981906 ], [ 8.6746837, 49.3980968 ] ] ], [ [ [ 8.6814517, 49.3980044 ], [ 8.6814504, 49.3980036 ], [ 8.6815497, 49.3980036 ], [ 8.6815098, 49.3980466 ], [ 8.6814517, 49.3980044 ] ] ] ] } }
]
}
