{
"type": "FeatureCollection",
"features": [
{ "type": "Feature", "properties": { "index": "0", "last_edit_year": 2025, "years_since_edit": 1, "label": "1.0–2.0 yr", "color": "#78c679" }, "geometry": { "type": "Point", "coordinates": [ 8.6924114, 49.4098134 ] } },
{ "type": "Feature", "properties": { "index": "1", "last_edit_year": 2026, "years_since_edit": 0, "label": "0.0–1.0 yr", "color": "#ffc" }, "geometry": { "type": "Point", "coordinates": [ 8.6780707, 49.3997938 ] } },
{ "type": "Feature", "properties": { "index": "2", "last_edit_year": 2024, "years_since_edit": 2, "label": "2.0–5.0 yr", "color": "#006837" }, "geometry": { "type": "Point", "coordinates": [ 8.6754432, 49.4217978 ] } },
{ "type": "Feature", "properties": { "index": "3", "last_edit_year": 2025, "years_since_edit": 1, "label": "1.0–2.0 yr", "color": "#78c679" }, "geometry": { "type": "Point", "coordinates": [ 8.6756894, 49.4080646 ] } },
{ "type": "Feature", "properties": { "index": "4", "last_edit_year": 2025, "years_since_edit": 1, "label": "1.0–2.0 yr", "color": "#78c679" }, "geometry": { "type": "Point", "coordinates": [ 8.6710541, 49.4138185 ] } },
{ "type": "Feature", "properties": { "index": "5", "last_edit_year": 2025, "years_since_edit": 1, "label": "1.0–2.0 yr", "color": "#78c679" }, "geometry": { "type": "Point", "coordinates": [ 8.6610913, 49.4140349 ] } },
{ "type": "Feature", "properties": { "index": "6", "last_edit_year": 2026, "years_since_edit": 0, "label": "0.0–1.0 yr", "color": "#ffc" }, "geometry": { "type": "Point", "coordinates": [ 8.67598, 49.4044808 ] } },
{ "type": "Feature", "properties": { "index": "7", "last_edit_year": 2026, "years_since_edit": 0, "label": "0.0–1.0 yr", "color": "#ffc" }, "geometry": { "type": "Point", "coordinates": [ 8.6760026, 49.4044147 ] } },
{ "type": "Feature", "properties": { "index": "8", "last_edit_year": 2026, "years_since_edit": 0, "label": "0.0–1.0 yr", "color": "#ffc" }, "geometry": { "type": "Point", "coordinates": [ 8.6755796, 49.4066074 ] } },
{ "type": "Feature", "properties": { "index": "9", "last_edit_year": 2025, "years_since_edit": 1, "label": "1.0–2.0 yr", "color": "#78c679" }, "geometry": { "type": "Point", "coordinates": [ 8.6632915, 49.4146254 ] } },
{ "type": "Feature", "properties": { "index": "10", "last_edit_year": 2025, "years_since_edit": 1, "label": "1.0–2.0 yr", "color": "#78c679" }, "geometry": { "type": "Point", "coordinates": [ 8.6703861, 49.4152611 ] } },
{ "type": "Feature", "properties": { "index": "11", "last_edit_year": 2025, "years_since_edit": 1, "label": "1.0–2.0 yr", "color": "#78c679" }, "geometry": { "type": "Point", "coordinates": [ 8.678372, 49.4128139 ] } },
{ "type": "Feature", "properties": { "index": "12", "last_edit_year": 2025, "years_since_edit": 1, "label": "1.0–2.0 yr", "color": "#78c679" }, "geometry": { "type": "Point", "coordinates": [ 8.6770388, 49.407709 ] } },
{ "type": "Feature", "properties": { "index": "13", "last_edit_year": 2025, "years_since_edit": 1, "label": "1.0–2.0 yr", "color": "#78c679" }, "geometry": { "type": "Point", "coordinates": [ 8.6736787, 49.4081137 ] } },
{ "type": "Feature", "properties": { "index": "14", "last_edit_year": 2025, "years_since_edit": 1, "label": "1.0–2.0 yr", "color": "#78c679" }, "geometry": { "type": "Point", "coordinates": [ 8.6828376, 49.4076815 ] } },
{ "type": "Feature", "properties": { "index": "15", "last_edit_year": 2025, "years_since_edit": 1, "label": "1.0–2.0 yr", "color": "#78c679" }, "geometry": { "type": "Point", "coordinates": [ 8.6869857, 49.4045197 ] } },
{ "type": "Feature", "properties": { "index": "16", "last_edit_year": 2024, "years_since_edit": 2, "label": "2.0–5.0 yr", "color": "#006837" }, "geometry": { "type": "Point", "coordinates": [ 8.6845637, 49.4032452 ] } },
{ "type": "Feature", "properties": { "index": "17", "last_edit_year": 2025, "years_since_edit": 1, "label": "1.0–2.0 yr", "color": "#78c679" }, "geometry": { "type": "Point", "coordinates": [ 8.6879365, 49.4074699 ] } },
{ "type": "Feature", "properties": { "index": "18", "last_edit_year": 2026, "years_since_edit": 0, "label": "0.0–1.0 yr", "color": "#ffc" }, "geometry": { "type": "Point", "coordinates": [ 8.7032173, 49.4095279 ] } },
{ "type": "Feature", "properties": { "index": "19", "last_edit_year": 2024, "years_since_edit": 2, "label": "2.0–5.0 yr", "color": "#006837" }, "geometry": { "type": "Point", "coordinates": [ 8.6893638, 49.4056764 ] } },
{ "type": "Feature", "properties": { "index": "20", "last_edit_year": 2024, "years_since_edit": 2, "label": "2.0–5.0 yr", "color": "#006837" }, "geometry": { "type": "Point", "coordinates": [ 8.6904722, 49.4144698 ] } },
{ "type": "Feature", "properties": { "index": "21", "last_edit_year": 2026, "years_since_edit": 0, "label": "0.0–1.0 yr", "color": "#ffc" }, "geometry": { "type": "Point", "coordinates": [ 8.7078168, 49.4113938 ] } },
{ "type": "Feature", "properties": { "index": "22", "last_edit_year": 2024, "years_since_edit": 2, "label": "2.0–5.0 yr", "color": "#006837" }, "geometry": { "type": "Point", "coordinates": [ 8.710455, 49.4123947 ] } },
{ "type": "Feature", "properties": { "index": "23", "last_edit_year": 2024, "years_since_edit": 2, "label": "2.0–5.0 yr", "color": "#006837" }, "geometry": { "type": "Point", "coordinates": [ 8.7130359, 49.4126517 ] } },
{ "type": "Feature", "properties": { "index": "24", "last_edit_year": 2025, "years_since_edit": 1, "label": "1.0–2.0 yr", "color": "#78c679" }, "geometry": { "type": "Point", "coordinates": [ 8.7139566, 49.4135025 ] } },
{ "type": "Feature", "properties": { "index": "25", "last_edit_year": 2024, "years_since_edit": 2, "label": "2.0–5.0 yr", "color": "#006837" }, "geometry": { "type": "Point", "coordinates": [ 8.7106845, 49.4114293 ] } },
{ "type": "Feature", "properties": { "index": "26", "last_edit_year": 2025, "years_since_edit": 1, "label": "1.0–2.0 yr", "color": "#78c679" }, "geometry": { "type": "Point", "coordinates": [ 8.6985019, 49.4106881 ] } },
{ "type": "Feature", "properties": { "index": "27", "last_edit_year": 2024, "years_since_edit": 2, "label": "2.0–5.0 yr", "color": "#006837" }, "geometry": { "type": "Point", "coordinates": [ 8.6904057, 49.4157557 ] } },
{ "type": "Feature", "properties": { "index": "28", "last_edit_year": 2025, "years_since_edit": 1, "label": "1.0–2.0 yr", "color": "#78c679" }, "geometry": { "type": "Point", "coordinates": [ 8.690787, 49.4147443 ] } },
{ "type": "Feature", "properties": { "index": "29", "last_edit_year": 2025, "years_since_edit": 1, "label": "1.0–2.0 yr", "color": "#78c679" }, "geometry": { "type": "Point", "coordinates": [ 8.6948378, 49.4101549 ] } },
{ "type": "Feature", "properties": { "index": "30", "last_edit_year": 2025, "years_since_edit": 1, "label": "1.0–2.0 yr", "color": "#78c679" }, "geometry": { "type": "Point", "coordinates": [ 8.6878667, 49.3995283 ] } },
{ "type": "Feature", "properties": { "index": "31", "last_edit_year": 2021, "years_since_edit": 5, "label": "2.0–5.0 yr", "color": "#006837" }, "geometry": { "type": "Point", "coordinates": [ 8.6922236, 49.4163625 ] } },
{ "type": "Feature", "properties": { "index": "32", "last_edit_year": 2024, "years_since_edit": 2, "label": "2.0–5.0 yr", "color": "#006837" }, "geometry": { "type": "Point", "coordinates": [ 8.7158634, 49.4104204 ] } },
{ "type": "Feature", "properties": { "index": "33", "last_edit_year": 2024, "years_since_edit": 2, "label": "2.0–5.0 yr", "color": "#006837" }, "geometry": { "type": "Point", "coordinates": [ 8.6848567, 49.4049159 ] } },
{ "type": "Feature", "properties": { "index": "34", "last_edit_year": 2026, "years_since_edit": 0, "label": "0.0–1.0 yr", "color": "#ffc" }, "geometry": { "type": "Point", "coordinates": [ 8.6865851, 49.4068758 ] } },
{ "type": "Feature", "properties": { "index": "35", "last_edit_year": 2024, "years_since_edit": 2, "label": "2.0–5.0 yr", "color": "#006837" }, "geometry": { "type": "Point", "coordinates": [ 8.7088991, 49.4131044 ] } },
{ "type": "Feature", "properties": { "index": "36", "last_edit_year": 2025, "years_since_edit": 1, "label": "1.0–2.0 yr", "color": "#78c679" }, "geometry": { "type": "Point", "coordinates": [ 8.7091739, 49.4125802 ] } },
{ "type": "Feature", "properties": { "index": "37", "last_edit_year": 2025, "years_since_edit": 1, "label": "1.0–2.0 yr", "color": "#78c679" }, "geometry": { "type": "Point", "coordinates": [ 8.708027, 49.4121386 ] } },
{ "type": "Feature", "properties": { "index": "38", "last_edit_year": 2025, "years_since_edit": 1, "label": "1.0–2.0 yr", "color": "#78c679" }, "geometry": { "type": "Point", "coordinates": [ 8.6947015, 49.4077621 ] } },
{ "type": "Feature", "properties": { "index": "39", "last_edit_year": 2025, "years_since_edit": 1, "label": "1.0–2.0 yr", "color": "#78c679" }, "geometry": { "type": "Point", "coordinates": [ 8.6935335, 49.4101395 ] } },
{ "type": "Feature", "properties": { "index": "40", "last_edit_year": 2025, "years_since_edit": 1, "label": "1.0–2.0 yr", "color": "#78c679" }, "geometry": { "type": "Point", "coordinates": [ 8.6988928, 49.4092533 ] } },
{ "type": "Feature", "properties": { "index": "41", "last_edit_year": 2026, "years_since_edit": 0, "label": "0.0–1.0 yr", "color": "#ffc" }, "geometry": { "type": "Point", "coordinates": [ 8.7030396, 49.4095156 ] } },
{ "type": "Feature", "properties": { "index": "42", "last_edit_year": 2025, "years_since_edit": 1, "label": "1.0–2.0 yr", "color": "#78c679" }, "geometry": { "type": "Point", "coordinates": [ 8.7088836, 49.4132204 ] } },
{ "type": "Feature", "properties": { "index": "43", "last_edit_year": 2025, "years_since_edit": 1, "label": "1.0–2.0 yr", "color": "#78c679" }, "geometry": { "type": "Point", "coordinates": [ 8.6911143, 49.4008854 ] } },
{ "type": "Feature", "properties": { "index": "44", "last_edit_year": 2025, "years_since_edit": 1, "label": "1.0–2.0 yr", "color": "#78c679" }, "geometry": { "type": "Point", "coordinates": [ 8.6917804, 49.4023297 ] } },
{ "type": "Feature", "properties": { "index": "45", "last_edit_year": 2025, "years_since_edit": 1, "label": "1.0–2.0 yr", "color": "#78c679" }, "geometry": { "type": "Point", "coordinates": [ 8.692209, 49.4036249 ] } },
{ "type": "Feature", "properties": { "index": "46", "last_edit_year": 2026, "years_since_edit": 0, "label": "0.0–1.0 yr", "color": "#ffc" }, "geometry": { "type": "Point", "coordinates": [ 8.692787, 49.408317 ] } },
{ "type": "Feature", "properties": { "index": "47", "last_edit_year": 2025, "years_since_edit": 1, "label": "1.0–2.0 yr", "color": "#78c679" }, "geometry": { "type": "Point", "coordinates": [ 8.6919577, 49.4028381 ] } },
{ "type": "Feature", "properties": { "index": "48", "last_edit_year": 2025, "years_since_edit": 1, "label": "1.0–2.0 yr", "color": "#78c679" }, "geometry": { "type": "Point", "coordinates": [ 8.6924169, 49.4055105 ] } },
{ "type": "Feature", "properties": { "index": "49", "last_edit_year": 2025, "years_since_edit": 1, "label": "1.0–2.0 yr", "color": "#78c679" }, "geometry": { "type": "Point", "coordinates": [ 8.7089926, 49.4118861 ] } },
{ "type": "Feature", "properties": { "index": "50", "last_edit_year": 2025, "years_since_edit": 1, "label": "1.0–2.0 yr", "color": "#78c679" }, "geometry": { "type": "Point", "coordinates": [ 8.704093, 49.4095568 ] } },
{ "type": "Feature", "properties": { "index": "51", "last_edit_year": 2025, "years_since_edit": 1, "label": "1.0–2.0 yr", "color": "#78c679" }, "geometry": { "type": "Point", "coordinates": [ 8.6903428, 49.3998603 ] } },
{ "type": "Feature", "properties": { "index": "52", "last_edit_year": 2025, "years_since_edit": 1, "label": "1.0–2.0 yr", "color": "#78c679" }, "geometry": { "type": "Point", "coordinates": [ 8.6847996, 49.4077219 ] } },
{ "type": "Feature", "properties": { "index": "53", "last_edit_year": 2026, "years_since_edit": 0, "label": "0.0–1.0 yr", "color": "#ffc" }, "geometry": { "type": "Point", "coordinates": [ 8.6802799, 49.4212552 ] } },
{ "type": "Feature", "properties": { "index": "54", "last_edit_year": 2025, "years_since_edit": 1, "label": "1.0–2.0 yr", "color": "#78c679" }, "geometry": { "type": "Point", "coordinates": [ 8.6996434, 49.4105485 ] } },
{ "type": "Feature", "properties": { "index": "55", "last_edit_year": 2025, "years_since_edit": 1, "label": "1.0–2.0 yr", "color": "#78c679" }, "geometry": { "type": "Point", "coordinates": [ 8.6952928, 49.4098204 ] } },
{ "type": "Feature", "properties": { "index": "56", "last_edit_year": 2025, "years_since_edit": 1, "label": "1.0–2.0 yr", "color": "#78c679" }, "geometry": { "type": "Point", "coordinates": [ 8.6958198, 49.4100887 ] } },
{ "type": "Feature", "properties": { "index": "57", "last_edit_year": 2026, "years_since_edit": 0, "label": "0.0–1.0 yr", "color": "#ffc" }, "geometry": { "type": "Point", "coordinates": [ 8.6954419, 49.4100552 ] } },
{ "type": "Feature", "properties": { "index": "58", "last_edit_year": 2026, "years_since_edit": 0, "label": "0.0–1.0 yr", "color": "#ffc" }, "geometry": { "type": "Point", "coordinates": [ 8.6986373, 49.4107114 ] } },
{ "type": "Feature", "properties": { "index": "59", "last_edit_year": 2026, "years_since_edit": 0, "label": "0.0–1.0 yr", "color": "#ffc" }, "geometry": { "type": "Point", "coordinates": [ 8.7014859, 49.4109999 ] } },
{ "type": "Feature", "properties": { "index": "60", "last_edit_year": 2026, "years_since_edit": 0, "label": "0.0–1.0 yr", "color": "#ffc" }, "geometry": { "type": "Point", "coordinates": [ 8.7018994, 49.4111928 ] } },
{ "type": "Feature", "properties": { "index": "61", "last_edit_year": 2026, "years_since_edit": 0, "label": "0.0–1.0 yr", "color": "#ffc" }, "geometry": { "type": "Point", "coordinates": [ 8.7037061, 49.4110383 ] } },
{ "type": "Feature", "properties": { "index": "62", "last_edit_year": 2025, "years_since_edit": 1, "label": "1.0–2.0 yr", "color": "#78c679" }, "geometry": { "type": "Point", "coordinates": [ 8.7043458, 49.4115061 ] } },
{ "type": "Feature", "properties": { "index": "63", "last_edit_year": 2025, "years_since_edit": 1, "label": "1.0–2.0 yr", "color": "#78c679" }, "geometry": { "type": "Point", "coordinates": [ 8.7062625, 49.4117537 ] } },
{ "type": "Feature", "properties": { "index": "64", "last_edit_year": 2026, "years_since_edit": 0, "label": "0.0–1.0 yr", "color": "#ffc" }, "geometry": { "type": "Point", "coordinates": [ 8.7066124, 49.4116479 ] } },
{ "type": "Feature", "properties": { "index": "65", "last_edit_year": 2026, "years_since_edit": 0, "label": "0.0–1.0 yr", "color": "#ffc" }, "geometry": { "type": "Point", "coordinates": [ 8.7079159, 49.4118235 ] } },
{ "type": "Feature", "properties": { "index": "66", "last_edit_year": 2025, "years_since_edit": 1, "label": "1.0–2.0 yr", "color": "#78c679" }, "geometry": { "type": "Point", "coordinates": [ 8.7087365, 49.411759 ] } },
{ "type": "Feature", "properties": { "index": "67", "last_edit_year": 2026, "years_since_edit": 0, "label": "0.0–1.0 yr", "color": "#ffc" }, "geometry": { "type": "Point", "coordinates": [ 8.7108767, 49.4110277 ] } },
{ "type": "Feature", "properties": { "index": "68", "last_edit_year": 2026, "years_since_edit": 0, "label": "0.0–1.0 yr", "color": "#ffc" }, "geometry": { "type": "Point", "coordinates": [ 8.684556, 49.4042085 ] } },
{ "type": "Feature", "properties": { "index": "69", "last_edit_year": 2025, "years_since_edit": 1, "label": "1.0–2.0 yr", "color": "#78c679" }, "geometry": { "type": "Point", "coordinates": [ 8.6785157, 49.3999044 ] } },
{ "type": "Feature", "properties": { "index": "70", "last_edit_year": 2026, "years_since_edit": 0, "label": "0.0–1.0 yr", "color": "#ffc" }, "geometry": { "type": "Point", "coordinates": [ 8.6841821, 49.4084898 ] } },
{ "type": "Feature", "properties": { "index": "71", "last_edit_year": 2025, "years_since_edit": 1, "label": "1.0–2.0 yr", "color": "#78c679" }, "geometry": { "type": "Point", "coordinates": [ 8.6708164, 49.4159348 ] } },
{ "type": "Feature", "properties": { "index": "72", "last_edit_year": 2026, "years_since_edit": 0, "label": "0.0–1.0 yr", "color": "#ffc" }, "geometry": { "type": "Point", "coordinates": [ 8.6920686, 49.4003937 ] } },
{ "type": "Feature", "properties": { "index": "73", "last_edit_year": 2026, "years_since_edit": 0, "label": "0.0–1.0 yr", "color": "#ffc" }, "geometry": { "type": "Point", "coordinates": [ 8.6848105, 49.4042713 ] } },
{ "type": "Feature", "properties": { "index": "74", "last_edit_year": 2023, "years_since_edit": 3, "label": "2.0–5.0 yr", "color": "#006837" }, "geometry": { "type": "Point", "coordinates": [ 8.705394, 49.4086744 ] } },
{ "type": "Feature", "properties": { "index": "75", "last_edit_year": 2025, "years_since_edit": 1, "label": "1.0–2.0 yr", "color": "#78c679" }, "geometry": { "type": "Point", "coordinates": [ 8.6789459, 49.4061584 ] } },
{ "type": "Feature", "properties": { "index": "76", "last_edit_year": 2024, "years_since_edit": 2, "label": "2.0–5.0 yr", "color": "#006837" }, "geometry": { "type": "Point", "coordinates": [ 8.6920022, 49.4150633 ] } },
{ "type": "Feature", "properties": { "index": "77", "last_edit_year": 2026, "years_since_edit": 0, "label": "0.0–1.0 yr", "color": "#ffc" }, "geometry": { "type": "Point", "coordinates": [ 8.70967, 49.4129138 ] } },
{ "type": "Feature", "properties": { "index": "78", "last_edit_year": 2024, "years_since_edit": 2, "label": "2.0–5.0 yr", "color": "#006837" }, "geometry": { "type": "Point", "coordinates": [ 8.7047591, 49.4114358 ] } },
{ "type": "Feature", "properties": { "index": "79", "last_edit_year": 2026, "years_since_edit": 0, "label": "0.0–1.0 yr", "color": "#ffc" }, "geometry": { "type": "Point", "coordinates": [ 8.7157086, 49.4104061 ] } },
{ "type": "Feature", "properties": { "index": "80", "last_edit_year": 2026, "years_since_edit": 0, "label": "0.0–1.0 yr", "color": "#ffc" }, "geometry": { "type": "Point", "coordinates": [ 8.7149969, 49.4108155 ] } },
{ "type": "Feature", "properties": { "index": "81", "last_edit_year": 2024, "years_since_edit": 2, "label": "2.0–5.0 yr", "color": "#006837" }, "geometry": { "type": "Point", "coordinates": [ 8.711607, 49.4113551 ] } },
{ "type": "Feature", "properties": { "index": "82", "last_edit_year": 2025, "years_since_edit": 1, "label": "1.0–2.0 yr", "color": "#78c679" }, "geometry": { "type": "Point", "coordinates": [ 8.666197, 49.4156419 ] } },
{ "type": "Feature", "properties": { "index": "83", "last_edit_year": 2024, "years_since_edit": 2, "label": "2.0–5.0 yr", "color": "#006837" }, "geometry": { "type": "Point", "coordinates": [ 8.6947758, 49.4077705 ] } },
{ "type": "Feature", "properties": { "index": "84", "last_edit_year": 2025, "years_since_edit": 1, "label": "1.0–2.0 yr", "color": "#78c679" }, "geometry": { "type": "Point", "coordinates": [ 8.7075321, 49.4116936 ] } },
{ "type": "Feature", "properties": { "index": "85", "last_edit_year": 2024, "years_since_edit": 2, "label": "2.0–5.0 yr", "color": "#006837" }, "geometry": { "type": "Point", "coordinates": [ 8.7100989, 49.412028 ] } },
{ "type": "Feature", "properties": { "index": "86", "last_edit_year": 2024, "years_since_edit": 2, "label": "2.0–5.0 yr", "color": "#006837" }, "geometry": { "type": "Point", "coordinates": [ 8.7069117, 49.4117769 ] } },
{ "type": "Feature", "properties": { "index": "87", "last_edit_year": 2026, "years_since_edit": 0, "label": "0.0–1.0 yr", "color": "#ffc" }, "geometry": { "type": "Point", "coordinates": [ 8.6997807, 49.4107305 ] } },
{ "type": "Feature", "properties": { "index": "88", "last_edit_year": 2024, "years_since_edit": 2, "label": "2.0–5.0 yr", "color": "#006837" }, "geometry": { "type": "Point", "coordinates": [ 8.6710288, 49.3993585 ] } },
{ "type": "Feature", "properties": { "index": "89", "last_edit_year": 2024, "years_since_edit": 2, "label": "2.0–5.0 yr", "color": "#006837" }, "geometry": { "type": "Point", "coordinates": [ 8.6919617, 49.4073895 ] } },
{ "type": "Feature", "properties": { "index": "90", "last_edit_year": 2026, "years_since_edit": 0, "label": "0.0–1.0 yr", "color": "#ffc" }, "geometry": { "type": "Point", "coordinates": [ 8.6880787, 49.4082317 ] } },
{ "type": "Feature", "properties": { "index": "91", "last_edit_year": 2026, "years_since_edit": 0, "label": "0.0–1.0 yr", "color": "#ffc" }, "geometry": { "type": "Point", "coordinates": [ 8.6884718, 49.407756 ] } },
{ "type": "Feature", "properties": { "index": "92", "last_edit_year": 2023, "years_since_edit": 3, "label": "2.0–5.0 yr", "color": "#006837" }, "geometry": { "type": "Point", "coordinates": [ 8.6984454, 49.4118666 ] } },
{ "type": "Feature", "properties": { "index": "93", "last_edit_year": 2025, "years_since_edit": 1, "label": "1.0–2.0 yr", "color": "#78c679" }, "geometry": { "type": "Point", "coordinates": [ 8.6954178, 49.4095111 ] } },
{ "type": "Feature", "properties": { "index": "94", "last_edit_year": 2024, "years_since_edit": 2, "label": "2.0–5.0 yr", "color": "#006837" }, "geometry": { "type": "Point", "coordinates": [ 8.6882735, 49.4082548 ] } },
{ "type": "Feature", "properties": { "index": "95", "last_edit_year": 2024, "years_since_edit": 2, "label": "2.0–5.0 yr", "color": "#006837" }, "geometry": { "type": "Point", "coordinates": [ 8.6837493, 49.4076697 ] } },
{ "type": "Feature", "properties": { "index": "96", "last_edit_year": 2025, "years_since_edit": 1, "label": "1.0–2.0 yr", "color": "#78c679" }, "geometry": { "type": "Point", "coordinates": [ 8.6854637, 49.4078109 ] } },
{ "type": "Feature", "properties": { "index": "97", "last_edit_year": 2024, "years_since_edit": 2, "label": "2.0–5.0 yr", "color": "#006837" }, "geometry": { "type": "Point", "coordinates": [ 8.7119011, 49.4119448 ] } },
{ "type": "Feature", "properties": { "index": "98", "last_edit_year": 2025, "years_since_edit": 1, "label": "1.0–2.0 yr", "color": "#78c679" }, "geometry": { "type": "Point", "coordinates": [ 8.7138084, 49.4129263 ] } },
{ "type": "Feature", "properties": { "index": "99", "last_edit_year": 2025, "years_since_edit": 1, "label": "1.0–2.0 yr", "color": "#78c679" }, "geometry": { "type": "Point", "coordinates": [ 8.7091095, 49.4118928 ] } },
{ "type": "Feature", "properties": { "index": "100", "last_edit_year": 2024, "years_since_edit": 2, "label": "2.0–5.0 yr", "color": "#006837" }, "geometry": { "type": "Point", "coordinates": [ 8.7139647, 49.4128323 ] } },
{ "type": "Feature", "properties": { "index": "101", "last_edit_year": 2026, "years_since_edit": 0, "label": "0.0–1.0 yr", "color": "#ffc" }, "geometry": { "type": "Point", "coordinates": [ 8.6648699, 49.402057 ] } },
{ "type": "Feature", "properties": { "index": "102", "last_edit_year": 2026, "years_since_edit": 0, "label": "0.0–1.0 yr", "color": "#ffc" }, "geometry": { "type": "Point", "coordinates": [ 8.6757515, 49.4180853 ] } },
{ "type": "Feature", "properties": { "index": "103", "last_edit_year": 2026, "years_since_edit": 0, "label": "0.0–1.0 yr", "color": "#ffc" }, "geometry": { "type": "Point", "coordinates": [ 8.6775067, 49.4077447 ] } },
{ "type": "Feature", "properties": { "index": "104", "last_edit_year": 2026, "years_since_edit": 0, "label": "0.0–1.0 yr", "color": "#ffc" }, "geometry": { "type": "Point", "coordinates": [ 8.6788398, 49.4029829 ] } },
{ "type": "Feature", "properties": { "index": "105", "last_edit_year": 2024, "years_since_edit": 2, "label": "2.0–5.0 yr", "color": "#006837" }, "geometry": { "type": "Point", "coordinates": [ 8.6809727, 49.4094984 ] } },
{ "type": "Feature", "properties": { "index": "106", "last_edit_year": 2024, "years_since_edit": 2, "label": "2.0–5.0 yr", "color": "#006837" }, "geometry": { "type": "Point", "coordinates": [ 8.6871149, 49.408013 ] } },
{ "type": "Feature", "properties": { "index": "107", "last_edit_year": 2025, "years_since_edit": 1, "label": "1.0–2.0 yr", "color": "#78c679" }, "geometry": { "type": "Point", "coordinates": [ 8.7068119, 49.4117717 ] } },
{ "type": "Feature", "properties": { "index": "108", "last_edit_year": 2025, "years_since_edit": 1, "label": "1.0–2.0 yr", "color": "#78c679" }, "geometry": { "type": "Point", "coordinates": [ 8.6941239, 49.4085683 ] } },
{ "type": "Feature", "properties": { "index": "109", "last_edit_year": 2024, "years_since_edit": 2, "label": "2.0–5.0 yr", "color": "#006837" }, "geometry": { "type": "Point", "coordinates": [ 8.6998436, 49.41048 ] } },
{ "type": "Feature", "properties": { "index": "110", "last_edit_year": 2026, "years_since_edit": 0, "label": "0.0–1.0 yr", "color": "#ffc" }, "geometry": { "type": "Point", "coordinates": [ 8.7152542, 49.4094996 ] } },
{ "type": "Feature", "properties": { "index": "111", "last_edit_year": 2026, "years_since_edit": 0, "label": "0.0–1.0 yr", "color": "#ffc" }, "geometry": { "type": "Point", "coordinates": [ 8.6879798, 49.4054771 ] } },
{ "type": "Feature", "properties": { "index": "112", "last_edit_year": 2024, "years_since_edit": 2, "label": "2.0–5.0 yr", "color": "#006837" }, "geometry": { "type": "Point", "coordinates": [ 8.6997045, 49.4103941 ] } },
{ "type": "Feature", "properties": { "index": "113", "last_edit_year": 2023, "years_since_edit": 3, "label": "2.0–5.0 yr", "color": "#006837" }, "geometry": { "type": "Point", "coordinates": [ 8.6937053, 49.4139555 ] } },
{ "type": "Feature", "properties": { "index": "114", "last_edit_year": 2025, "years_since_edit": 1, "label": "1.0–2.0 yr", "color": "#78c679" }, "geometry": { "type": "Point", "coordinates": [ 8.7117688, 49.4114389 ] } },
{ "type": "Feature", "properties": { "index": "115", "last_edit_year": 2024, "years_since_edit": 2, "label": "2.0–5.0 yr", "color": "#006837" }, "geometry": { "type": "Point", "coordinates": [ 8.6995116, 49.4093458 ] } },
{ "type": "Feature", "properties": { "index": "116", "last_edit_year": 2026, "years_since_edit": 0, "label": "0.0–1.0 yr", "color": "#ffc" }, "geometry": { "type": "Point", "coordinates": [ 8.6940066, 49.4098813 ] } },
{ "type": "Feature", "properties": { "index": "117", "last_edit_year": 2024, "years_since_edit": 2, "label": "2.0–5.0 yr", "color": "#006837" }, "geometry": { "type": "Point", "coordinates": [ 8.6910451, 49.4081615 ] } },
{ "type": "Feature", "properties": { "index": "118", "last_edit_year": 2024, "years_since_edit": 2, "label": "2.0–5.0 yr", "color": "#006837" }, "geometry": { "type": "Point", "coordinates": [ 8.6886118, 49.4083179 ] } },
{ "type": "Feature", "properties": { "index": "119", "last_edit_year": 2025, "years_since_edit": 1, "label": "1.0–2.0 yr", "color": "#78c679" }, "geometry": { "type": "Point", "coordinates": [ 8.6849819, 49.3995078 ] } },
{ "type": "Feature", "properties": { "index": "120", "last_edit_year": 2025, "years_since_edit": 1, "label": "1.0–2.0 yr", "color": "#78c679" }, "geometry": { "type": "Point", "coordinates": [ 8.6698237, 49.4005794 ] } },
{ "type": "Feature", "properties": { "index": "121", "last_edit_year": 2026, "years_since_edit": 0, "label": "0.0–1.0 yr", "color": "#ffc" }, "geometry": { "type": "Point", "coordinates": [ 8.6659421, 49.4031106 ] } },
{ "type": "Feature", "properties": { "index": "122", "last_edit_year": 2024, "years_since_edit": 2, "label": "2.0–5.0 yr", "color": "#006837" }, "geometry": { "type": "Point", "coordinates": [ 8.6650284, 49.4023293 ] } },
{ "type": "Feature", "properties": { "index": "123", "last_edit_year": 2025, "years_since_edit": 1, "label": "1.0–2.0 yr", "color": "#78c679" }, "geometry": { "type": "Point", "coordinates": [ 8.7077883, 49.4122362 ] } },
{ "type": "Feature", "properties": { "index": "124", "last_edit_year": 2023, "years_since_edit": 3, "label": "2.0–5.0 yr", "color": "#006837" }, "geometry": { "type": "Point", "coordinates": [ 8.6692515, 49.4008752 ] } },
{ "type": "Feature", "properties": { "index": "125", "last_edit_year": 2026, "years_since_edit": 0, "label": "0.0–1.0 yr", "color": "#ffc" }, "geometry": { "type": "Point", "coordinates": [ 8.7006015, 49.4108564 ] } },
{ "type": "Feature", "properties": { "index": "126", "last_edit_year": 2025, "years_since_edit": 1, "label": "1.0–2.0 yr", "color": "#78c679" }, "geometry": { "type": "Point", "coordinates": [ 8.6945022, 49.4077256 ] } },
{ "type": "Feature", "properties": { "index": "127", "last_edit_year": 2025, "years_since_edit": 1, "label": "1.0–2.0 yr", "color": "#78c679" }, "geometry": { "type": "Point", "coordinates": [ 8.6853731, 49.4077903 ] } },
{ "type": "Feature", "properties": { "index": "128", "last_edit_year": 2026, "years_since_edit": 0, "label": "0.0–1.0 yr", "color": "#ffc" }, "geometry": { "type": "Point", "coordinates": [ 8.6823037, 49.4048317 ] } },
{ "type": "Feature", "properties": { "index": "129", "last_edit_year": 2025, "years_since_edit": 1, "label": "1.0–2.0 yr", "color": "#78c679" }, "geometry": { "type": "Point", "coordinates": [ 8.7056445, 49.4123213 ] } },
{ "type": "Feature", "properties": { "index": "130", "last_edit_year": 2024, "years_since_edit": 2, "label": "2.0–5.0 yr", "color": "#006837" }, "geometry": { "type": "Point", "coordinates": [ 8.6900473, 49.4145685 ] } },
{ "type": "Feature", "properties": { "index": "131", "last_edit_year": 2024, "years_since_edit": 2, "label": "2.0–5.0 yr", "color": "#006837" }, "geometry": { "type": "Point", "coordinates": [ 8.7105311, 49.4132306 ] } },
{ "type": "Feature", "properties": { "index": "132", "last_edit_year": 2026, "years_since_edit": 0, "label": "0.0–1.0 yr", "color": "#ffc" }, "geometry": { "type": "Point", "coordinates": [ 8.6858698, 49.4078513 ] } },
{ "type": "Feature", "properties": { "index": "133", "last_edit_year": 2024, "years_since_edit": 2, "label": "2.0–5.0 yr", "color": "#006837" }, "geometry": { "type": "Point", "coordinates": [ 8.7100843, 49.4121952 ] } },
{ "type": "Feature", "properties": { "index": "134", "last_edit_year": 2024, "years_since_edit": 2, "label": "2.0–5.0 yr", "color": "#006837" }, "geometry": { "type": "Point", "coordinates": [ 8.7095225, 49.4121999 ] } },
{ "type": "Feature", "properties": { "index": "135", "last_edit_year": 2025, "years_since_edit": 1, "label": "1.0–2.0 yr", "color": "#78c679" }, "geometry": { "type": "Point", "coordinates": [ 8.6936989, 49.4097965 ] } },
{ "type": "Feature", "properties": { "index": "136", "last_edit_year": 2024, "years_since_edit": 2, "label": "2.0–5.0 yr", "color": "#006837" }, "geometry": { "type": "Point", "coordinates": [ 8.6996632, 49.4104849 ] } },
{ "type": "Feature", "properties": { "index": "137", "last_edit_year": 2025, "years_since_edit": 1, "label": "1.0–2.0 yr", "color": "#78c679" }, "geometry": { "type": "Point", "coordinates": [ 8.7085171, 49.4115789 ] } },
{ "type": "Feature", "properties": { "index": "138", "last_edit_year": 2024, "years_since_edit": 2, "label": "2.0–5.0 yr", "color": "#006837" }, "geometry": { "type": "Point", "coordinates": [ 8.7086955, 49.4113728 ] } },
{ "type": "Feature", "properties": { "index": "139", "last_edit_year": 2025, "years_since_edit": 1, "label": "1.0–2.0 yr", "color": "#78c679" }, "geometry": { "type": "Point", "coordinates": [ 8.6676711, 49.4039434 ] } },
{ "type": "Feature", "properties": { "index": "140", "last_edit_year": 2025, "years_since_edit": 1, "label": "1.0–2.0 yr", "color": "#78c679" }, "geometry": { "type": "Point", "coordinates": [ 8.6664453, 49.4039512 ] } },
{ "type": "Feature", "properties": { "index": "141", "last_edit_year": 2025, "years_since_edit": 1, "label": "1.0–2.0 yr", "color": "#78c679" }, "geometry": { "type": "Point", "coordinates": [ 8.6619861, 49.4028376 ] } },
{ "type": "Feature", "properties": { "index": "142", "last_edit_year": 2023, "years_since_edit": 3, "label": "2.0–5.0 yr", "color": "#006837" }, "geometry": { "type": "Point", "coordinates": [ 8.6922266, 49.4088741 ] } },
{ "type": "Feature", "properties": { "index": "143", "last_edit_year": 2025, "years_since_edit": 1, "label": "1.0–2.0 yr", "color": "#78c679" }, "geometry": { "type": "Point", "coordinates": [ 8.6675366, 49.403717 ] } },
{ "type": "Feature", "properties": { "index": "144", "last_edit_year": 2024, "years_since_edit": 2, "label": "2.0–5.0 yr", "color": "#006837" }, "geometry": { "type": "Point", "coordinates": [ 8.707783, 49.4122453 ] } },
{ "type": "Feature", "properties": { "index": "145", "last_edit_year": 2025, "years_since_edit": 1, "label": "1.0–2.0 yr", "color": "#78c679" }, "geometry": { "type": "Point", "coordinates": [ 8.6849765, 49.3999053 ] } },
{ "type": "Feature", "properties": { "index": "146", "last_edit_year": 2026, "years_since_edit": 0, "label": "0.0–1.0 yr", "color": "#ffc" }, "geometry": { "type": "Point", "coordinates": [ 8.6916196, 49.4030208 ] } },
{ "type": "Feature", "properties": { "index": "147", "last_edit_year": 2026, "years_since_edit": 0, "label": "0.0–1.0 yr", "color": "#ffc" }, "geometry": { "type": "Point", "coordinates": [ 8.6923077, 49.4074465 ] } },
{ "type": "Feature", "properties": { "index": "148", "last_edit_year": 2026, "years_since_edit": 0, "label": "0.0–1.0 yr", "color": "#ffc" }, "geometry": { "type": "Point", "coordinates": [ 8.670586, 49.4180751 ] } },
{ "type": "Feature", "properties": { "index": "149", "last_edit_year": 2024, "years_since_edit": 2, "label": "2.0–5.0 yr", "color": "#006837" }, "geometry": { "type": "Point", "coordinates": [ 8.7000323, 49.4094426 ] } },
{ "type": "Feature", "properties": { "index": "150", "last_edit_year": 2024, "years_since_edit": 2, "label": "2.0–5.0 yr", "color": "#006837" }, "geometry": { "type": "Point", "coordinates": [ 8.6769855, 49.4116535 ] } },
{ "type": "Feature", "properties": { "index": "151", "last_edit_year": 2026, "years_since_edit": 0, "label": "0.0–1.0 yr", "color": "#ffc" }, "geometry": { "type": "Point", "coordinates": [ 8.6783706, 49.406318 ] } },
{ "type": "Feature", "properties": { "index": "152", "last_edit_year": 2026, "years_since_edit": 0, "label": "0.0–1.0 yr", "color": "#ffc" }, "geometry": { "type": "Point", "coordinates": [ 8.6693479, 49.4045704 ] } },
{ "type": "Feature", "properties": { "index": "153", "last_edit_year": 2025, "years_since_edit": 1, "label": "1.0–2.0 yr", "color": "#78c679" }, "geometry": { "type": "Point", "coordinates": [ 8.6916709, 49.4061152 ] } },
{ "type": "Feature", "properties": { "index": "154", "last_edit_year": 2026, "years_since_edit": 0, "label": "0.0–1.0 yr", "color": "#ffc" }, "geometry": { "type": "Point", "coordinates": [ 8.6682907, 49.4043489 ] } },
{ "type": "Feature", "properties": { "index": "155", "last_edit_year": 2026, "years_since_edit": 0, "label": "0.0–1.0 yr", "color": "#ffc" }, "geometry": { "type": "Point", "coordinates": [ 8.6730463, 49.4016066 ] } }
]
}
