{
"type": "FeatureCollection",
"features": [
{ "type": "Feature", "properties": { "index": "0", "@osmId": "way/192514102", "name": "Heidelberger Ruderklub 1872 e.V.", "opening_hours": null, "label": "Sports clubs", "color": "#e34a33" }, "geometry": { "type": "Point", "coordinates": [ 8.6942961, 49.4135747 ] } },
{ "type": "Feature", "properties": { "index": "1", "@osmId": "way/24975498", "name": "Heidelberger Tennisclub 1890 e.V.", "opening_hours": null, "label": "Sports clubs", "color": "#e34a33" }, "geometry": { "type": "Point", "coordinates": [ 8.670537, 49.4219644 ] } },
{ "type": "Feature", "properties": { "index": "2", "@osmId": "node/471307115", "name": "Wassersportclub 1931 Heidelberg-Neuenheim e.V.", "opening_hours": null, "label": "Sports clubs", "color": "#e34a33" }, "geometry": { "type": "Point", "coordinates": [ 8.6949132, 49.4135388 ] } },
{ "type": "Feature", "properties": { "index": "3", "@osmId": "node/471317559", "name": "Wassersportverein Heidelberg West", "opening_hours": null, "label": "Sports clubs", "color": "#e34a33" }, "geometry": { "type": "Point", "coordinates": [ 8.6813649, 49.409755 ] } },
{ "type": "Feature", "properties": { "index": "4", "@osmId": "node/9594277554", "name": "Zentrum für Daoyin-Qigong und Taijiquan Rhein-Neckar e.V.", "opening_hours": null, "label": "Sports clubs", "color": "#e34a33" }, "geometry": { "type": "Point", "coordinates": [ 8.6758397, 49.4076593 ] } },
{ "type": "Feature", "properties": { "index": "5", "@osmId": "node/11879640349", "name": "Schützengesellschaft „Tell“ 1906 Heidelberg e.V.", "opening_hours": null, "label": "Sports clubs", "color": "#e34a33" }, "geometry": { "type": "Point", "coordinates": [ 8.7067468, 49.4082717 ] } },
{ "type": "Feature", "properties": { "index": "6", "@osmId": "way/92839754", "name": "Sporthalle Landhausschule", "opening_hours": null, "label": "Sports centres", "color": "#fc8d59" }, "geometry": { "type": "Point", "coordinates": [ 8.6880793, 49.4039271 ] } },
{ "type": "Feature", "properties": { "index": "7", "@osmId": "way/167212928", "name": "Sporthalle Hölderlin-Gymnasium", "opening_hours": null, "label": "Sports centres", "color": "#fc8d59" }, "geometry": { "type": "Point", "coordinates": [ 8.7006366, 49.4088542 ] } },
{ "type": "Feature", "properties": { "index": "8", "@osmId": "way/168195665", "name": "Sporthalle des Kurfürst-Friedrich-Gymnasiums", "opening_hours": null, "label": "Sports centres", "color": "#fc8d59" }, "geometry": { "type": "Point", "coordinates": [ 8.6942135, 49.4110268 ] } },
{ "type": "Feature", "properties": { "index": "9", "@osmId": "way/307365198", "name": "TSG 78 Heidelberg", "opening_hours": null, "label": "Sports centres", "color": "#fc8d59" }, "geometry": { "type": "Point", "coordinates": [ 8.6604526, 49.4174899 ] } },
{ "type": "Feature", "properties": { "index": "10", "@osmId": "way/96599351", "name": "Sporthalle Klingenteich", "opening_hours": null, "label": "Sports centres", "color": "#fc8d59" }, "geometry": { "type": "Point", "coordinates": [ 8.7068064, 49.4081031 ] } },
{ "type": "Feature", "properties": { "index": "11", "@osmId": "way/143973354", "name": "Sporthalle Theodor-Heuss-Realschule", "opening_hours": null, "label": "Sports centres", "color": "#fc8d59" }, "geometry": { "type": "Point", "coordinates": [ 8.7045922, 49.4097813 ] } },
{ "type": "Feature", "properties": { "index": "12", "@osmId": "way/175444375", "name": "Kleinkaliber-Sportverein Alt-Heidelberg e.V.", "opening_hours": null, "label": "Sports centres", "color": "#fc8d59" }, "geometry": { "type": "Point", "coordinates": [ 8.7184599, 49.404748 ] } },
{ "type": "Feature", "properties": { "index": "13", "@osmId": "way/87498383", "name": "Thermalbad", "opening_hours": null, "label": "Sports centres", "color": "#fc8d59" }, "geometry": { "type": "Point", "coordinates": [ 8.6799096, 49.4093005 ] } },
{ "type": "Feature", "properties": { "index": "14", "@osmId": "way/167450278", "name": "Sporthalle Bunsen-Gymnasium", "opening_hours": null, "label": "Sports centres", "color": "#fc8d59" }, "geometry": { "type": "Point", "coordinates": [ 8.6769329, 49.4165623 ] } },
{ "type": "Feature", "properties": { "index": "15", "@osmId": "way/171969216", "name": null, "opening_hours": null, "label": "Sports centres", "color": "#fc8d59" }, "geometry": { "type": "Point", "coordinates": [ 8.6861086, 49.4175676 ] } },
{ "type": "Feature", "properties": { "index": "16", "@osmId": "way/1345103575", "name": "Sportgelände der Universität", "opening_hours": null, "label": "Sports centres", "color": "#fc8d59" }, "geometry": { "type": "Point", "coordinates": [ 8.6616659, 49.4210807 ] } },
{ "type": "Feature", "properties": { "index": "17", "@osmId": "node/267889561", "name": "City-Bad im DHC", "opening_hours": "Tu-Fr 07:00-14:00; Sa 11:30-17:30", "label": "Sports centres", "color": "#fc8d59" }, "geometry": { "type": "Point", "coordinates": [ 8.6943017, 49.4107642 ] } },
{ "type": "Feature", "properties": { "index": "18", "@osmId": "node/4044044529", "name": "Sporthalle Wilckensschule", "opening_hours": null, "label": "Sports centres", "color": "#fc8d59" }, "geometry": { "type": "Point", "coordinates": [ 8.6800565, 49.4086212 ] } },
{ "type": "Feature", "properties": { "index": "19", "@osmId": "node/277979892", "name": "Kieser Training", "opening_hours": "Mo-Fr 07:00-21:30, Sa-Su 09:00-19:00, PH 09:00-19:00", "label": "Fitness & gym centres", "color": "#fdbb84" }, "geometry": { "type": "Point", "coordinates": [ 8.6706659, 49.4094718 ] } },
{ "type": "Feature", "properties": { "index": "20", "@osmId": "node/1760812489", "name": "adhikara Yoga Studio", "opening_hours": null, "label": "Fitness & gym centres", "color": "#fdbb84" }, "geometry": { "type": "Point", "coordinates": [ 8.6908998, 49.405442 ] } },
{ "type": "Feature", "properties": { "index": "21", "@osmId": "node/2155015455", "name": "Villa Sportiva", "opening_hours": null, "label": "Fitness & gym centres", "color": "#fdbb84" }, "geometry": { "type": "Point", "coordinates": [ 8.6846825, 49.413269 ] } },
{ "type": "Feature", "properties": { "index": "22", "@osmId": "node/2432397910", "name": "VeniceBeach Supreme", "opening_hours": "Mo-Fr 06:00-23:00; Sa,Su,PH 08:00-22:30", "label": "Fitness & gym centres", "color": "#fdbb84" }, "geometry": { "type": "Point", "coordinates": [ 8.6918418, 49.408021 ] } },
{ "type": "Feature", "properties": { "index": "23", "@osmId": "node/2664299577", "name": "VeniceBeach", "opening_hours": "Mo,We,Fr 07:00-23:00; Tu,Th 06:30-23:00; Sa,Su 09:00-21:00", "label": "Fitness & gym centres", "color": "#fdbb84" }, "geometry": { "type": "Point", "coordinates": [ 8.6603336, 49.4056329 ] } },
{ "type": "Feature", "properties": { "index": "24", "@osmId": "node/3886810803", "name": "VeniceBeach Heidelberg Bahnstadt", "opening_hours": "24/7", "label": "Fitness & gym centres", "color": "#fdbb84" }, "geometry": { "type": "Point", "coordinates": [ 8.6760182, 49.3995516 ] } },
{ "type": "Feature", "properties": { "index": "25", "@osmId": "node/4043187301", "name": "Matcha Moves", "opening_hours": null, "label": "Fitness & gym centres", "color": "#fdbb84" }, "geometry": { "type": "Point", "coordinates": [ 8.6812676, 49.4077065 ] } },
{ "type": "Feature", "properties": { "index": "26", "@osmId": "node/4043868290", "name": "Yoga Vidya Heidelberg", "opening_hours": null, "label": "Fitness & gym centres", "color": "#fdbb84" }, "geometry": { "type": "Point", "coordinates": [ 8.6778391, 49.4065354 ] } },
{ "type": "Feature", "properties": { "index": "27", "@osmId": "node/4728941629", "name": "Unique Fitness Heidelberg", "opening_hours": null, "label": "Fitness & gym centres", "color": "#fdbb84" }, "geometry": { "type": "Point", "coordinates": [ 8.672957, 49.409467 ] } },
{ "type": "Feature", "properties": { "index": "28", "@osmId": "node/5119799022", "name": "in Touch Yoga", "opening_hours": null, "label": "Fitness & gym centres", "color": "#fdbb84" }, "geometry": { "type": "Point", "coordinates": [ 8.6884609, 49.4082865 ] } },
{ "type": "Feature", "properties": { "index": "29", "@osmId": "node/5159110623", "name": "Pilates Infused", "opening_hours": null, "label": "Fitness & gym centres", "color": "#fdbb84" }, "geometry": { "type": "Point", "coordinates": [ 8.6939587, 49.4101301 ] } },
{ "type": "Feature", "properties": { "index": "30", "@osmId": "node/7433455936", "name": "Yoga bliss & Pilates", "opening_hours": null, "label": "Fitness & gym centres", "color": "#fdbb84" }, "geometry": { "type": "Point", "coordinates": [ 8.7042457, 49.4094405 ] } },
{ "type": "Feature", "properties": { "index": "31", "@osmId": "node/10718025992", "name": "karafit & physio", "opening_hours": "Mo-Fr 08:00-20:00", "label": "Fitness & gym centres", "color": "#fdbb84" }, "geometry": { "type": "Point", "coordinates": [ 8.6654241, 49.4058043 ] } },
{ "type": "Feature", "properties": { "index": "32", "@osmId": "node/12070261675", "name": "kwikfit", "opening_hours": "Mo-Fr 08:00-21:00; Sa 09:00-14:00", "label": "Fitness & gym centres", "color": "#fdbb84" }, "geometry": { "type": "Point", "coordinates": [ 8.6848676, 49.4034637 ] } },
{ "type": "Feature", "properties": { "index": "33", "@osmId": "node/12084537007", "name": "Yoga-Zentrum-Heidelberg", "opening_hours": null, "label": "Fitness & gym centres", "color": "#fdbb84" }, "geometry": { "type": "Point", "coordinates": [ 8.6782585, 49.4070279 ] } },
{ "type": "Feature", "properties": { "index": "34", "@osmId": "node/12320268545", "name": "Yoga Susan Holze", "opening_hours": null, "label": "Fitness & gym centres", "color": "#fdbb84" }, "geometry": { "type": "Point", "coordinates": [ 8.6889699, 49.4039449 ] } },
{ "type": "Feature", "properties": { "index": "35", "@osmId": "node/12621398970", "name": "Yoga Praxis", "opening_hours": null, "label": "Fitness & gym centres", "color": "#fdbb84" }, "geometry": { "type": "Point", "coordinates": [ 8.6850645, 49.404257 ] } },
{ "type": "Feature", "properties": { "index": "36", "@osmId": "node/12621399824", "name": "True Yoga", "opening_hours": null, "label": "Fitness & gym centres", "color": "#fdbb84" }, "geometry": { "type": "Point", "coordinates": [ 8.6919505, 49.4156522 ] } },
{ "type": "Feature", "properties": { "index": "37", "@osmId": "node/12628383240", "name": "Basic-Fit", "opening_hours": "Mo-Fr 06:00-22:00; Sa, Su 06:00-19:00", "label": "Fitness & gym centres", "color": "#fdbb84" }, "geometry": { "type": "Point", "coordinates": [ 8.6946206, 49.4102952 ] } },
{ "type": "Feature", "properties": { "index": "38", "@osmId": "node/12784543116", "name": "Vita Fietz", "opening_hours": null, "label": "Fitness & gym centres", "color": "#fdbb84" }, "geometry": { "type": "Point", "coordinates": [ 8.6918372, 49.416414 ] } },
{ "type": "Feature", "properties": { "index": "39", "@osmId": "node/13289893128", "name": "soul studio", "opening_hours": null, "label": "Fitness & gym centres", "color": "#fdbb84" }, "geometry": { "type": "Point", "coordinates": [ 8.6699816, 49.4031746 ] } },
{ "type": "Feature", "properties": { "index": "40", "@osmId": "node/13628569199", "name": "SouldBody", "opening_hours": null, "label": "Fitness & gym centres", "color": "#fdbb84" }, "geometry": { "type": "Point", "coordinates": [ 8.7171567, 49.4137029 ] } },
{ "type": "Feature", "properties": { "index": "41", "@osmId": "node/13703155629", "name": "Core Heidelberg", "opening_hours": null, "label": "Fitness & gym centres", "color": "#fdbb84" }, "geometry": { "type": "Point", "coordinates": [ 8.6687387, 49.4034677 ] } }
]
}
