{
"type": "FeatureCollection",
"features": [
{ "type": "Feature", "properties": { "index": "0", "label": "Within 300 m on foot", "color": "#2b8cbe" }, "geometry": { "type": "MultiPolygon", "coordinates": [ [ [ [ 8.6793998, 49.3980034 ], [ 8.6794658, 49.398062 ], [ 8.6796729, 49.3982897 ], [ 8.6798449, 49.3985296 ], [ 8.6799799, 49.3987793 ], [ 8.6800769, 49.3990364 ], [ 8.6801347, 49.3992986 ], [ 8.6801529, 49.3995631 ], [ 8.6801313, 49.3998276 ], [ 8.68007, 49.4000893 ], [ 8.6799698, 49.4003459 ], [ 8.6798314, 49.4005949 ], [ 8.6796564, 49.4008338 ], [ 8.6794463, 49.4010604 ], [ 8.6792032, 49.4012724 ], [ 8.6789294, 49.4014679 ], [ 8.6786276, 49.4016449 ], [ 8.6783007, 49.4018017 ], [ 8.6779517, 49.4019369 ], [ 8.6775842, 49.4020491 ], [ 8.6772015, 49.4021372 ], [ 8.6768075, 49.4022005 ], [ 8.6764058, 49.4022382 ], [ 8.6760004, 49.4022501 ], [ 8.6755952, 49.4022359 ], [ 8.6751941, 49.4021959 ], [ 8.6748009, 49.4021305 ], [ 8.6744194, 49.4020402 ], [ 8.6740534, 49.4019259 ], [ 8.6737062, 49.4017888 ], [ 8.6733813, 49.4016302 ], [ 8.6733397, 49.4016053 ], [ 8.6734297, 49.4016852 ], [ 8.6736368, 49.4019129 ], [ 8.6738087, 49.4021528 ], [ 8.6739437, 49.4024025 ], [ 8.6740406, 49.4026597 ], [ 8.6740984, 49.4029218 ], [ 8.6741166, 49.4031863 ], [ 8.6740949, 49.4034508 ], [ 8.6740337, 49.4037125 ], [ 8.6739334, 49.4039691 ], [ 8.673795, 49.4042181 ], [ 8.6736199, 49.404457 ], [ 8.6734098, 49.4046835 ], [ 8.6731666, 49.4048956 ], [ 8.6728928, 49.405091 ], [ 8.6725909, 49.405268 ], [ 8.6722639, 49.4054248 ], [ 8.671915, 49.40556 ], [ 8.6715474, 49.4056721 ], [ 8.6711647, 49.4057603 ], [ 8.6707706, 49.4058235 ], [ 8.6707413, 49.4058262 ], [ 8.670672, 49.4058531 ], [ 8.6703044, 49.4059653 ], [ 8.6699217, 49.4060534 ], [ 8.6695293, 49.4061163 ], [ 8.6694763, 49.4063424 ], [ 8.669376, 49.406599 ], [ 8.6692376, 49.4068479 ], [ 8.6691541, 49.4069618 ], [ 8.6694828, 49.4068861 ], [ 8.6698768, 49.4068229 ], [ 8.6702785, 49.4067852 ], [ 8.6706839, 49.4067734 ], [ 8.6710892, 49.4067875 ], [ 8.6714904, 49.4068275 ], [ 8.6717941, 49.4068781 ], [ 8.6718887, 49.4068629 ], [ 8.672026, 49.4066159 ], [ 8.6722011, 49.406377 ], [ 8.6724112, 49.4061504 ], [ 8.6726544, 49.4059384 ], [ 8.6729282, 49.405743 ], [ 8.6732301, 49.405566 ], [ 8.6735571, 49.4054092 ], [ 8.6739061, 49.405274 ], [ 8.6742737, 49.4051618 ], [ 8.6742884, 49.4051584 ], [ 8.6744107, 49.4050266 ], [ 8.6746538, 49.4048146 ], [ 8.6749276, 49.4046191 ], [ 8.6752295, 49.4044421 ], [ 8.6755564, 49.4042853 ], [ 8.6759054, 49.4041501 ], [ 8.676273, 49.4040379 ], [ 8.6766557, 49.4039498 ], [ 8.6770497, 49.4038865 ], [ 8.6774514, 49.4038488 ], [ 8.6778568, 49.4038369 ], [ 8.678262, 49.4038511 ], [ 8.6786631, 49.403891 ], [ 8.6790563, 49.4039565 ], [ 8.6794378, 49.4040468 ], [ 8.6798039, 49.404161 ], [ 8.6801511, 49.4042981 ], [ 8.680476, 49.4044567 ], [ 8.6807756, 49.4046354 ], [ 8.681021, 49.4048137 ], [ 8.6810055, 49.4047723 ], [ 8.6809476, 49.4045102 ], [ 8.6809321, 49.4042853 ], [ 8.6809056, 49.4042362 ], [ 8.6808086, 49.403979 ], [ 8.6807508, 49.4037169 ], [ 8.6807326, 49.4034524 ], [ 8.6807542, 49.4031879 ], [ 8.6808154, 49.4029261 ], [ 8.6809157, 49.4026695 ], [ 8.681054, 49.4024206 ], [ 8.6812291, 49.4021817 ], [ 8.6814392, 49.4019551 ], [ 8.6816823, 49.4017431 ], [ 8.681956, 49.4015476 ], [ 8.6822578, 49.4013706 ], [ 8.6825848, 49.4012137 ], [ 8.6829337, 49.4010785 ], [ 8.6833012, 49.4009663 ], [ 8.6836839, 49.4008782 ], [ 8.6840779, 49.4008149 ], [ 8.6844795, 49.4007771 ], [ 8.6848849, 49.4007652 ], [ 8.6852901, 49.4007793 ], [ 8.6856912, 49.4008193 ], [ 8.6860844, 49.4008847 ], [ 8.6864659, 49.400975 ], [ 8.686832, 49.4010892 ], [ 8.6871791, 49.4012263 ], [ 8.6872867, 49.4012788 ], [ 8.6872894, 49.4012783 ], [ 8.687691, 49.4012405 ], [ 8.6880964, 49.4012286 ], [ 8.6885016, 49.4012427 ], [ 8.6886409, 49.4012566 ], [ 8.6889869, 49.4012464 ], [ 8.6893921, 49.4012605 ], [ 8.6897933, 49.4013005 ], [ 8.6901865, 49.4013659 ], [ 8.690568, 49.4014561 ], [ 8.6909341, 49.4015703 ], [ 8.6912813, 49.4017074 ], [ 8.6916062, 49.401866 ], [ 8.6919058, 49.4020446 ], [ 8.692177, 49.4022416 ], [ 8.6924174, 49.4024549 ], [ 8.6926246, 49.4026826 ], [ 8.6927966, 49.4029225 ], [ 8.6928781, 49.403073 ], [ 8.6932112, 49.4032044 ], [ 8.6935361, 49.403363 ], [ 8.6938357, 49.4035417 ], [ 8.694107, 49.4037386 ], [ 8.6943474, 49.403952 ], [ 8.6945546, 49.4041796 ], [ 8.6947266, 49.4044195 ], [ 8.6948618, 49.4046692 ], [ 8.6949588, 49.4049263 ], [ 8.6950167, 49.4051884 ], [ 8.695035, 49.405453 ], [ 8.6950134, 49.4057174 ], [ 8.6949523, 49.4059792 ], [ 8.6948707, 49.4061881 ], [ 8.6950491, 49.4063176 ], [ 8.6952895, 49.4065309 ], [ 8.6954968, 49.4067586 ], [ 8.6956688, 49.4069985 ], [ 8.695804, 49.4072482 ], [ 8.695901, 49.4075053 ], [ 8.6959537, 49.4077437 ], [ 8.6962186, 49.4078063 ], [ 8.6965848, 49.4079205 ], [ 8.69673, 49.4079778 ], [ 8.6968223, 49.4078116 ], [ 8.6969973, 49.4075727 ], [ 8.6972073, 49.4073461 ], [ 8.6974504, 49.407134 ], [ 8.6977241, 49.4069385 ], [ 8.6980259, 49.4067614 ], [ 8.6983528, 49.4066045 ], [ 8.6987017, 49.4064693 ], [ 8.6990693, 49.406357 ], [ 8.6994519, 49.4062688 ], [ 8.6998459, 49.4062055 ], [ 8.7002476, 49.4061677 ], [ 8.700653, 49.4061557 ], [ 8.7010583, 49.4061698 ], [ 8.7014594, 49.4062097 ], [ 8.7018527, 49.406275 ], [ 8.7022343, 49.4063652 ], [ 8.7026004, 49.4064794 ], [ 8.7029477, 49.4066164 ], [ 8.7032297, 49.406754 ], [ 8.703377, 49.4065951 ], [ 8.70362, 49.4063831 ], [ 8.7038937, 49.4061876 ], [ 8.7041955, 49.4060105 ], [ 8.7045223, 49.4058536 ], [ 8.7048712, 49.4057183 ], [ 8.7052388, 49.405606 ], [ 8.7056214, 49.4055178 ], [ 8.7060154, 49.4054544 ], [ 8.7064171, 49.4054166 ], [ 8.7068225, 49.4054046 ], [ 8.7072277, 49.4054187 ], [ 8.7076289, 49.4054585 ], [ 8.7080222, 49.4055239 ], [ 8.7084037, 49.4056141 ], [ 8.7087699, 49.4057282 ], [ 8.7091172, 49.4058652 ], [ 8.7094422, 49.4060238 ], [ 8.7097418, 49.4062024 ], [ 8.7100132, 49.4063993 ], [ 8.7102537, 49.4066126 ], [ 8.710461, 49.4068402 ], [ 8.7106331, 49.4070801 ], [ 8.7107684, 49.4073297 ], [ 8.7108655, 49.4075869 ], [ 8.7109235, 49.407849 ], [ 8.7109418, 49.4081135 ], [ 8.7109204, 49.408378 ], [ 8.7108593, 49.4086398 ], [ 8.7108089, 49.4087689 ], [ 8.7107997, 49.4088084 ], [ 8.7106996, 49.409065 ], [ 8.7105614, 49.409314 ], [ 8.7103864, 49.4095529 ], [ 8.7101765, 49.4097796 ], [ 8.7099334, 49.4099916 ], [ 8.7096597, 49.4101872 ], [ 8.709358, 49.4103643 ], [ 8.7090311, 49.4105212 ], [ 8.7086821, 49.4106565 ], [ 8.7084624, 49.4107236 ], [ 8.7084068, 49.4108237 ], [ 8.7082319, 49.4110626 ], [ 8.7080219, 49.4112892 ], [ 8.7077789, 49.4115013 ], [ 8.7075051, 49.4116968 ], [ 8.7072034, 49.4118739 ], [ 8.7068764, 49.4120308 ], [ 8.7065275, 49.4121661 ], [ 8.7061599, 49.4122784 ], [ 8.7057773, 49.4123666 ], [ 8.7053832, 49.41243 ], [ 8.7049815, 49.4124678 ], [ 8.704576, 49.4124798 ], [ 8.7041707, 49.4124657 ], [ 8.7037695, 49.4124258 ], [ 8.7033762, 49.4123605 ], [ 8.7029945, 49.4122703 ], [ 8.7026283, 49.4121561 ], [ 8.702281, 49.4120191 ], [ 8.701956, 49.4118605 ], [ 8.7016564, 49.4116819 ], [ 8.7014117, 49.4115044 ], [ 8.7010256, 49.4115407 ], [ 8.7006202, 49.4115527 ], [ 8.7002149, 49.4115386 ], [ 8.6998137, 49.4114987 ], [ 8.6994204, 49.4114333 ], [ 8.6990388, 49.4113431 ], [ 8.6986726, 49.411229 ], [ 8.6985274, 49.4111717 ], [ 8.6984351, 49.4113379 ], [ 8.698263, 49.4115729 ], [ 8.6981663, 49.4118205 ], [ 8.6981458, 49.4118575 ], [ 8.6983612, 49.4120486 ], [ 8.6985685, 49.4122763 ], [ 8.6987406, 49.4125162 ], [ 8.6988758, 49.4127659 ], [ 8.6989728, 49.413023 ], [ 8.6990308, 49.4132851 ], [ 8.6990491, 49.4135496 ], [ 8.6990275, 49.4138141 ], [ 8.6989664, 49.4140759 ], [ 8.6988662, 49.4143325 ], [ 8.6987279, 49.4145815 ], [ 8.6985529, 49.4148204 ], [ 8.6983429, 49.415047 ], [ 8.6980998, 49.4152591 ], [ 8.697826, 49.4154546 ], [ 8.6975242, 49.4156316 ], [ 8.6971972, 49.4157885 ], [ 8.6968482, 49.4159237 ], [ 8.6964806, 49.416036 ], [ 8.6960978, 49.4161242 ], [ 8.696016, 49.4161374 ], [ 8.6960038, 49.4161894 ], [ 8.6959641, 49.4162912 ], [ 8.6959733, 49.4164249 ], [ 8.6959518, 49.4166894 ], [ 8.6958906, 49.4169512 ], [ 8.6957904, 49.4172078 ], [ 8.6956521, 49.4174568 ], [ 8.6954771, 49.4176957 ], [ 8.695267, 49.4179223 ], [ 8.6950239, 49.4181344 ], [ 8.69475, 49.4183298 ], [ 8.6944482, 49.4185069 ], [ 8.6941212, 49.4186638 ], [ 8.6937721, 49.418799 ], [ 8.6934045, 49.4189113 ], [ 8.6930217, 49.4189994 ], [ 8.6926276, 49.4190627 ], [ 8.6922258, 49.4191005 ], [ 8.6918203, 49.4191124 ], [ 8.691415, 49.4190984 ], [ 8.6910137, 49.4190584 ], [ 8.6906203, 49.418993 ], [ 8.6902387, 49.4189028 ], [ 8.6898725, 49.4187886 ], [ 8.6898108, 49.4187643 ], [ 8.6897484, 49.4188495 ], [ 8.6895383, 49.4190761 ], [ 8.6892951, 49.4192881 ], [ 8.6890213, 49.4194836 ], [ 8.6887194, 49.4196606 ], [ 8.6883923, 49.4198175 ], [ 8.6880433, 49.4199527 ], [ 8.6876756, 49.4200649 ], [ 8.6872929, 49.4201531 ], [ 8.6868987, 49.4202164 ], [ 8.6864969, 49.4202542 ], [ 8.6860914, 49.420266 ], [ 8.685686, 49.420252 ], [ 8.6852847, 49.420212 ], [ 8.6848914, 49.4201466 ], [ 8.6845098, 49.4200563 ], [ 8.6841435, 49.4199421 ], [ 8.6837962, 49.419805 ], [ 8.6834712, 49.4196464 ], [ 8.6831716, 49.4194677 ], [ 8.6829002, 49.4192708 ], [ 8.6826598, 49.4190574 ], [ 8.6824526, 49.4188297 ], [ 8.6822806, 49.4185898 ], [ 8.6821454, 49.4183401 ], [ 8.6820485, 49.418083 ], [ 8.6819906, 49.4178208 ], [ 8.6819724, 49.4175563 ], [ 8.681994, 49.4172919 ], [ 8.6820553, 49.4170301 ], [ 8.6821556, 49.4167735 ], [ 8.6822939, 49.4165245 ], [ 8.682469, 49.4162856 ], [ 8.6826791, 49.416059 ], [ 8.6829223, 49.415847 ], [ 8.6830584, 49.4157498 ], [ 8.6827175, 49.4156435 ], [ 8.6823703, 49.4155064 ], [ 8.6820453, 49.4153477 ], [ 8.6817457, 49.4151691 ], [ 8.6814744, 49.4149721 ], [ 8.681234, 49.4147587 ], [ 8.6810268, 49.414531 ], [ 8.6808548, 49.4142912 ], [ 8.6807197, 49.4140415 ], [ 8.6806227, 49.4137843 ], [ 8.6805649, 49.4135222 ], [ 8.6805467, 49.4132576 ], [ 8.6805683, 49.4129932 ], [ 8.6806295, 49.4127314 ], [ 8.6807298, 49.4124748 ], [ 8.6807596, 49.4124212 ], [ 8.6805409, 49.4123994 ], [ 8.6801476, 49.4123339 ], [ 8.6797661, 49.4122437 ], [ 8.6793999, 49.4121294 ], [ 8.6790527, 49.4119923 ], [ 8.6788882, 49.411912 ], [ 8.6786923, 49.4118794 ], [ 8.6783107, 49.4117892 ], [ 8.6779446, 49.4116749 ], [ 8.6775973, 49.4115378 ], [ 8.6772724, 49.4113791 ], [ 8.6769728, 49.4112005 ], [ 8.6767016, 49.4110035 ], [ 8.6765143, 49.4108372 ], [ 8.6763857, 49.4109759 ], [ 8.6761425, 49.4111879 ], [ 8.6758687, 49.4113833 ], [ 8.6755668, 49.4115603 ], [ 8.6752398, 49.4117172 ], [ 8.6748908, 49.4118523 ], [ 8.6745231, 49.4119645 ], [ 8.6741404, 49.4120526 ], [ 8.6737463, 49.4121159 ], [ 8.6733445, 49.4121536 ], [ 8.6729391, 49.4121654 ], [ 8.6725338, 49.4121513 ], [ 8.6721326, 49.4121113 ], [ 8.6718288, 49.4120607 ], [ 8.671455, 49.4121207 ], [ 8.6710533, 49.4121584 ], [ 8.6706478, 49.4121702 ], [ 8.6702426, 49.4121561 ], [ 8.6698414, 49.4121161 ], [ 8.6694481, 49.4120506 ], [ 8.6690665, 49.4119603 ], [ 8.6687004, 49.411846 ], [ 8.6683532, 49.4117089 ], [ 8.6680283, 49.4115502 ], [ 8.6677288, 49.4113715 ], [ 8.6674575, 49.4111745 ], [ 8.6672172, 49.4109611 ], [ 8.6670101, 49.4107334 ], [ 8.6668382, 49.4104935 ], [ 8.6667032, 49.4102438 ], [ 8.6666063, 49.4099866 ], [ 8.6665485, 49.4097245 ], [ 8.6665304, 49.4094599 ], [ 8.6665521, 49.4091955 ], [ 8.6666134, 49.4089337 ], [ 8.6667138, 49.4086771 ], [ 8.6668522, 49.4084282 ], [ 8.6669356, 49.4083144 ], [ 8.666607, 49.40839 ], [ 8.6662129, 49.4084532 ], [ 8.6658112, 49.4084909 ], [ 8.6654058, 49.4085027 ], [ 8.6650005, 49.4084886 ], [ 8.6645993, 49.4084486 ], [ 8.6642061, 49.4083831 ], [ 8.6638246, 49.4082928 ], [ 8.6634585, 49.4081785 ], [ 8.6631113, 49.4080413 ], [ 8.6627865, 49.4078826 ], [ 8.662711, 49.4078376 ], [ 8.6626156, 49.4078833 ], [ 8.6622666, 49.4080184 ], [ 8.661899, 49.4081306 ], [ 8.6615162, 49.4082187 ], [ 8.6611221, 49.4082819 ], [ 8.6607204, 49.4083195 ], [ 8.660315, 49.4083313 ], [ 8.66, 49.4083203 ], [ 8.66, 49.4029447 ], [ 8.6603522, 49.4029345 ], [ 8.6607574, 49.4029486 ], [ 8.6611585, 49.4029887 ], [ 8.6615517, 49.4030542 ], [ 8.6619332, 49.4031445 ], [ 8.6622992, 49.4032588 ], [ 8.6626464, 49.4033959 ], [ 8.6629712, 49.4035546 ], [ 8.6630467, 49.4035997 ], [ 8.6631421, 49.403554 ], [ 8.663491, 49.4034188 ], [ 8.6638586, 49.4033067 ], [ 8.6642413, 49.4032186 ], [ 8.6646338, 49.4031556 ], [ 8.6646867, 49.4029296 ], [ 8.6647871, 49.402673 ], [ 8.6649255, 49.402424 ], [ 8.6651006, 49.4021852 ], [ 8.6653108, 49.4019586 ], [ 8.6655539, 49.4017466 ], [ 8.6658278, 49.4015512 ], [ 8.6661296, 49.4013742 ], [ 8.6664566, 49.4012174 ], [ 8.6668056, 49.4010823 ], [ 8.6671731, 49.4009701 ], [ 8.6675558, 49.400882 ], [ 8.6679498, 49.4008188 ], [ 8.6679791, 49.400816 ], [ 8.6680484, 49.4007892 ], [ 8.668416, 49.400677 ], [ 8.6687986, 49.4005889 ], [ 8.6691927, 49.4005257 ], [ 8.6695943, 49.400488 ], [ 8.6699997, 49.4004761 ], [ 8.6704049, 49.4004903 ], [ 8.670806, 49.4005303 ], [ 8.6711992, 49.4005958 ], [ 8.6715806, 49.4006861 ], [ 8.6719467, 49.4008003 ], [ 8.6722938, 49.4009375 ], [ 8.6726187, 49.4010961 ], [ 8.6726603, 49.401121 ], [ 8.6725704, 49.4010411 ], [ 8.6723633, 49.4008134 ], [ 8.6721914, 49.4005735 ], [ 8.6720563, 49.4003238 ], [ 8.6719595, 49.4000666 ], [ 8.6719017, 49.3998045 ], [ 8.6718835, 49.3995399 ], [ 8.6719052, 49.3992755 ], [ 8.6719665, 49.3990137 ], [ 8.6720668, 49.3987571 ], [ 8.6722051, 49.3985082 ], [ 8.6723802, 49.3982693 ], [ 8.6725903, 49.3980427 ], [ 8.6726363, 49.3980026 ], [ 8.6793998, 49.3980034 ] ], [ [ 8.6878973, 49.4151149 ], [ 8.6879863, 49.414887 ], [ 8.6878687, 49.4149896 ], [ 8.6877326, 49.4150867 ], [ 8.6878922, 49.4151365 ], [ 8.6878973, 49.4151149 ] ], [ [ 8.6888001, 49.4130157 ], [ 8.6888183, 49.4132802 ], [ 8.6887968, 49.4135446 ], [ 8.6887355, 49.4138064 ], [ 8.6886465, 49.4140343 ], [ 8.6887641, 49.4139318 ], [ 8.6890379, 49.4137363 ], [ 8.6893398, 49.4135592 ], [ 8.6896668, 49.4134024 ], [ 8.6900158, 49.4132672 ], [ 8.6902026, 49.4132101 ], [ 8.690243, 49.4130375 ], [ 8.6903432, 49.4127808 ], [ 8.6904815, 49.4125319 ], [ 8.6906142, 49.4123507 ], [ 8.6905582, 49.4122891 ], [ 8.6903862, 49.4120493 ], [ 8.690251, 49.4117996 ], [ 8.690154, 49.4115424 ], [ 8.6900961, 49.4112803 ], [ 8.6900808, 49.4110591 ], [ 8.6899963, 49.4109029 ], [ 8.6899575, 49.4108 ], [ 8.6896451, 49.410872 ], [ 8.689251, 49.4109353 ], [ 8.6888493, 49.4109731 ], [ 8.6884438, 49.410985 ], [ 8.6880385, 49.4109709 ], [ 8.6876373, 49.4109309 ], [ 8.687244, 49.4108655 ], [ 8.6868625, 49.4107753 ], [ 8.6864963, 49.4106611 ], [ 8.6861491, 49.410524 ], [ 8.6858241, 49.4103653 ], [ 8.6855245, 49.4101867 ], [ 8.6854543, 49.4101357 ], [ 8.6854176, 49.4102925 ], [ 8.6853174, 49.4105492 ], [ 8.6852876, 49.4106028 ], [ 8.6855063, 49.4106246 ], [ 8.6858995, 49.41069 ], [ 8.6862811, 49.4107803 ], [ 8.6866473, 49.4108945 ], [ 8.6869945, 49.4110316 ], [ 8.6873195, 49.4111902 ], [ 8.6876191, 49.4113688 ], [ 8.6878904, 49.4115658 ], [ 8.6881308, 49.4117791 ], [ 8.688338, 49.4120068 ], [ 8.6885101, 49.4122467 ], [ 8.6886452, 49.4124964 ], [ 8.6887422, 49.4127535 ], [ 8.6888001, 49.4130157 ] ] ], [ [ [ 8.6801413, 49.4148593 ], [ 8.6803817, 49.4150727 ], [ 8.6805889, 49.4153004 ], [ 8.6807609, 49.4155403 ], [ 8.680896, 49.41579 ], [ 8.680993, 49.4160471 ], [ 8.6810508, 49.4163092 ], [ 8.681069, 49.4165738 ], [ 8.6810474, 49.4168382 ], [ 8.6809861, 49.4171 ], [ 8.6808858, 49.4173566 ], [ 8.6807475, 49.4176056 ], [ 8.6805724, 49.4178445 ], [ 8.6803622, 49.418071 ], [ 8.680119, 49.4182831 ], [ 8.6798452, 49.4184785 ], [ 8.6795432, 49.4186555 ], [ 8.6792162, 49.4188124 ], [ 8.6788671, 49.4189475 ], [ 8.6784994, 49.4190598 ], [ 8.6781167, 49.4191479 ], [ 8.6777225, 49.4192111 ], [ 8.6773207, 49.4192489 ], [ 8.6769152, 49.4192607 ], [ 8.6765098, 49.4192466 ], [ 8.6761086, 49.4192066 ], [ 8.6757152, 49.4191412 ], [ 8.6753336, 49.4190509 ], [ 8.6749674, 49.4189367 ], [ 8.6746202, 49.4187995 ], [ 8.6742952, 49.4186409 ], [ 8.6739956, 49.4184622 ], [ 8.6737243, 49.4182652 ], [ 8.6734839, 49.4180518 ], [ 8.6732767, 49.4178241 ], [ 8.6731048, 49.4175842 ], [ 8.6729697, 49.4173345 ], [ 8.6728728, 49.4170773 ], [ 8.6728149, 49.4168152 ], [ 8.6727968, 49.4165507 ], [ 8.6728185, 49.4162862 ], [ 8.6728798, 49.4160245 ], [ 8.6729801, 49.4157679 ], [ 8.6731185, 49.4155189 ], [ 8.6732936, 49.41528 ], [ 8.6735038, 49.4150535 ], [ 8.673747, 49.4148414 ], [ 8.6740209, 49.414646 ], [ 8.6743228, 49.414469 ], [ 8.6746498, 49.4143122 ], [ 8.6749989, 49.414177 ], [ 8.6753665, 49.4140648 ], [ 8.6757493, 49.4139767 ], [ 8.6761434, 49.4139134 ], [ 8.6765451, 49.4138757 ], [ 8.6769506, 49.4138639 ], [ 8.6773559, 49.413878 ], [ 8.6777571, 49.413918 ], [ 8.6781504, 49.4139834 ], [ 8.678532, 49.4140737 ], [ 8.6788982, 49.4141879 ], [ 8.6792454, 49.414325 ], [ 8.6795704, 49.4144837 ], [ 8.67987, 49.4146623 ], [ 8.6801413, 49.4148593 ] ] ], [ [ [ 8.6636616, 49.4157874 ], [ 8.663902, 49.4160008 ], [ 8.6641091, 49.4162285 ], [ 8.664281, 49.4164684 ], [ 8.664416, 49.4167181 ], [ 8.6645129, 49.4169753 ], [ 8.6645707, 49.4172374 ], [ 8.6645888, 49.417502 ], [ 8.6645671, 49.4177664 ], [ 8.6645057, 49.4180282 ], [ 8.6644053, 49.4182848 ], [ 8.6642669, 49.4185337 ], [ 8.6640917, 49.4187726 ], [ 8.6640112, 49.4188593 ], [ 8.6643043, 49.4190024 ], [ 8.6646038, 49.4191811 ], [ 8.6648751, 49.4193781 ], [ 8.6651155, 49.4195915 ], [ 8.6653226, 49.4198193 ], [ 8.6654945, 49.4200592 ], [ 8.6656296, 49.4203089 ], [ 8.6657265, 49.4205661 ], [ 8.6657843, 49.4208282 ], [ 8.6658024, 49.4210927 ], [ 8.6657807, 49.4213572 ], [ 8.6657193, 49.4216189 ], [ 8.665619, 49.4218755 ], [ 8.665549, 49.4220013 ], [ 8.66, 49.422 ], [ 8.66, 49.4148094 ], [ 8.6600657, 49.4148033 ], [ 8.6604712, 49.4147915 ], [ 8.6608765, 49.4148056 ], [ 8.6612777, 49.4148457 ], [ 8.661671, 49.4149112 ], [ 8.6620526, 49.4150015 ], [ 8.6624187, 49.4151158 ], [ 8.6627659, 49.415253 ], [ 8.6630909, 49.4154117 ], [ 8.6633904, 49.4155904 ], [ 8.6636616, 49.4157874 ] ] ], [ [ [ 8.6734747, 49.4200646 ], [ 8.673746, 49.4202616 ], [ 8.6739864, 49.420475 ], [ 8.6741936, 49.4207027 ], [ 8.6743655, 49.4209426 ], [ 8.6745006, 49.4211923 ], [ 8.6745976, 49.4214494 ], [ 8.6746554, 49.4217116 ], [ 8.6746736, 49.4219761 ], [ 8.6746714, 49.4220029 ], [ 8.6664038, 49.4220015 ], [ 8.6664004, 49.4219525 ], [ 8.6664221, 49.4216881 ], [ 8.6664835, 49.4214263 ], [ 8.6665839, 49.4211697 ], [ 8.6667223, 49.4209208 ], [ 8.6668975, 49.4206819 ], [ 8.6671077, 49.4204554 ], [ 8.667351, 49.4202434 ], [ 8.6676249, 49.4200479 ], [ 8.6679269, 49.419871 ], [ 8.668254, 49.4197142 ], [ 8.6686031, 49.419579 ], [ 8.6689708, 49.4194668 ], [ 8.6693536, 49.4193787 ], [ 8.6697478, 49.4193155 ], [ 8.6701495, 49.4192778 ], [ 8.6705551, 49.419266 ], [ 8.6709604, 49.4192801 ], [ 8.6713617, 49.4193201 ], [ 8.671755, 49.4193856 ], [ 8.6721366, 49.4194759 ], [ 8.6725028, 49.4195901 ], [ 8.6728501, 49.4197273 ], [ 8.6731751, 49.4198859 ], [ 8.6734747, 49.4200646 ] ] ], [ [ [ 8.7192817, 49.4021033 ], [ 8.719675, 49.4021686 ], [ 8.72, 49.4022454 ], [ 8.72, 49.4072514 ], [ 8.7196456, 49.4073332 ], [ 8.7192515, 49.4073966 ], [ 8.7188499, 49.4074345 ], [ 8.7184445, 49.4074465 ], [ 8.7180392, 49.4074325 ], [ 8.717638, 49.4073926 ], [ 8.7172447, 49.4073273 ], [ 8.7168631, 49.4072372 ], [ 8.7164969, 49.4071231 ], [ 8.7161496, 49.4069861 ], [ 8.7158246, 49.4068275 ], [ 8.7155249, 49.4066489 ], [ 8.7152535, 49.4064521 ], [ 8.715013, 49.4062388 ], [ 8.7148057, 49.4060111 ], [ 8.7146335, 49.4057713 ], [ 8.7144983, 49.4055216 ], [ 8.7144012, 49.4052645 ], [ 8.7143431, 49.4050024 ], [ 8.7143248, 49.4047379 ], [ 8.7143462, 49.4044734 ], [ 8.7144073, 49.4042116 ], [ 8.7145074, 49.403955 ], [ 8.7146455, 49.403706 ], [ 8.7148204, 49.403467 ], [ 8.7150303, 49.4032404 ], [ 8.7152733, 49.4030283 ], [ 8.7155469, 49.4028327 ], [ 8.7158486, 49.4026556 ], [ 8.7161755, 49.4024987 ], [ 8.7165243, 49.4023634 ], [ 8.7168918, 49.4022511 ], [ 8.7172744, 49.4021628 ], [ 8.7176683, 49.4020994 ], [ 8.71807, 49.4020615 ], [ 8.7184753, 49.4020495 ], [ 8.7188805, 49.4020635 ], [ 8.7192817, 49.4021033 ] ] ], [ [ [ 8.7194673, 49.4114648 ], [ 8.7197924, 49.4116234 ], [ 8.72, 49.4117471 ], [ 8.72, 49.4156594 ], [ 8.7197686, 49.4157952 ], [ 8.7194417, 49.4159522 ], [ 8.7190928, 49.4160875 ], [ 8.7187252, 49.4161998 ], [ 8.7183425, 49.4162881 ], [ 8.7179484, 49.4163515 ], [ 8.7175467, 49.4163894 ], [ 8.7171412, 49.4164014 ], [ 8.7167359, 49.4163874 ], [ 8.7163346, 49.4163475 ], [ 8.7159412, 49.4162822 ], [ 8.7155596, 49.4161921 ], [ 8.7151933, 49.4160779 ], [ 8.7148459, 49.4159409 ], [ 8.7145208, 49.4157824 ], [ 8.7142211, 49.4156038 ], [ 8.7139497, 49.4154069 ], [ 8.7137091, 49.4151936 ], [ 8.7135018, 49.414966 ], [ 8.7133296, 49.4147261 ], [ 8.7131943, 49.4144765 ], [ 8.7130972, 49.4142193 ], [ 8.7130392, 49.4139573 ], [ 8.7130208, 49.4136927 ], [ 8.7130423, 49.4134283 ], [ 8.7131033, 49.4131665 ], [ 8.7132035, 49.4129098 ], [ 8.7133416, 49.4126608 ], [ 8.7135166, 49.4124219 ], [ 8.7137265, 49.4121953 ], [ 8.7139696, 49.4119832 ], [ 8.7142433, 49.4117876 ], [ 8.714545, 49.4116105 ], [ 8.7148719, 49.4114536 ], [ 8.7152208, 49.4113183 ], [ 8.7155884, 49.411206 ], [ 8.715971, 49.4111177 ], [ 8.7163651, 49.4110543 ], [ 8.7167668, 49.4110164 ], [ 8.7171722, 49.4110044 ], [ 8.7175775, 49.4110184 ], [ 8.7179787, 49.4110583 ], [ 8.7183721, 49.4111236 ], [ 8.7187537, 49.4112137 ], [ 8.7191199, 49.4113278 ], [ 8.7194673, 49.4114648 ] ] ] ] } },
{ "type": "Feature", "properties": { "index": "1", "label": "Beyond 300 m", "color": "#d9d9d9" }, "geometry": { "type": "MultiPolygon", "coordinates": [ [ [ [ 8.6793998, 49.3980034 ], [ 8.72, 49.398 ], [ 8.72, 49.4022454 ], [ 8.719675, 49.4021686 ], [ 8.7192817, 49.4021033 ], [ 8.7188805, 49.4020635 ], [ 8.7184753, 49.4020495 ], [ 8.71807, 49.4020615 ], [ 8.7176683, 49.4020994 ], [ 8.7172744, 49.4021628 ], [ 8.7168918, 49.4022511 ], [ 8.7165243, 49.4023634 ], [ 8.7161755, 49.4024987 ], [ 8.7158486, 49.4026556 ], [ 8.7155469, 49.4028327 ], [ 8.7152733, 49.4030283 ], [ 8.7150303, 49.4032404 ], [ 8.7148204, 49.403467 ], [ 8.7146455, 49.403706 ], [ 8.7145074, 49.403955 ], [ 8.7144073, 49.4042116 ], [ 8.7143462, 49.4044734 ], [ 8.7143248, 49.4047379 ], [ 8.7143431, 49.4050024 ], [ 8.7144012, 49.4052645 ], [ 8.7144983, 49.4055216 ], [ 8.7146335, 49.4057713 ], [ 8.7148057, 49.4060111 ], [ 8.715013, 49.4062388 ], [ 8.7152535, 49.4064521 ], [ 8.7155249, 49.4066489 ], [ 8.7158246, 49.4068275 ], [ 8.7161496, 49.4069861 ], [ 8.7164969, 49.4071231 ], [ 8.7168631, 49.4072372 ], [ 8.7172447, 49.4073273 ], [ 8.717638, 49.4073926 ], [ 8.7180392, 49.4074325 ], [ 8.7184445, 49.4074465 ], [ 8.7188499, 49.4074345 ], [ 8.7192515, 49.4073966 ], [ 8.7196456, 49.4073332 ], [ 8.72, 49.4072514 ], [ 8.72, 49.4117471 ], [ 8.7197924, 49.4116234 ], [ 8.7194673, 49.4114648 ], [ 8.7191199, 49.4113278 ], [ 8.7187537, 49.4112137 ], [ 8.7183721, 49.4111236 ], [ 8.7179787, 49.4110583 ], [ 8.7175775, 49.4110184 ], [ 8.7171722, 49.4110044 ], [ 8.7167668, 49.4110164 ], [ 8.7163651, 49.4110543 ], [ 8.715971, 49.4111177 ], [ 8.7155884, 49.411206 ], [ 8.7152208, 49.4113183 ], [ 8.7148719, 49.4114536 ], [ 8.714545, 49.4116105 ], [ 8.7142433, 49.4117876 ], [ 8.7139696, 49.4119832 ], [ 8.7137265, 49.4121953 ], [ 8.7135166, 49.4124219 ], [ 8.7133416, 49.4126608 ], [ 8.7132035, 49.4129098 ], [ 8.7131033, 49.4131665 ], [ 8.7130423, 49.4134283 ], [ 8.7130208, 49.4136927 ], [ 8.7130392, 49.4139573 ], [ 8.7130972, 49.4142193 ], [ 8.7131943, 49.4144765 ], [ 8.7133296, 49.4147261 ], [ 8.7135018, 49.414966 ], [ 8.7137091, 49.4151936 ], [ 8.7139497, 49.4154069 ], [ 8.7142211, 49.4156038 ], [ 8.7145208, 49.4157824 ], [ 8.7148459, 49.4159409 ], [ 8.7151933, 49.4160779 ], [ 8.7155596, 49.4161921 ], [ 8.7159412, 49.4162822 ], [ 8.7163346, 49.4163475 ], [ 8.7167359, 49.4163874 ], [ 8.7171412, 49.4164014 ], [ 8.7175467, 49.4163894 ], [ 8.7179484, 49.4163515 ], [ 8.7183425, 49.4162881 ], [ 8.7187252, 49.4161998 ], [ 8.7190928, 49.4160875 ], [ 8.7194417, 49.4159522 ], [ 8.7197686, 49.4157952 ], [ 8.72, 49.4156594 ], [ 8.72, 49.422 ], [ 8.6746714, 49.4220029 ], [ 8.6746736, 49.4219761 ], [ 8.6746554, 49.4217116 ], [ 8.6745976, 49.4214494 ], [ 8.6745006, 49.4211923 ], [ 8.6743655, 49.4209426 ], [ 8.6741936, 49.4207027 ], [ 8.6739864, 49.420475 ], [ 8.673746, 49.4202616 ], [ 8.6734747, 49.4200646 ], [ 8.6731751, 49.4198859 ], [ 8.6728501, 49.4197273 ], [ 8.6725028, 49.4195901 ], [ 8.6721366, 49.4194759 ], [ 8.671755, 49.4193856 ], [ 8.6713617, 49.4193201 ], [ 8.6709604, 49.4192801 ], [ 8.6705551, 49.419266 ], [ 8.6701495, 49.4192778 ], [ 8.6697478, 49.4193155 ], [ 8.6693536, 49.4193787 ], [ 8.6689708, 49.4194668 ], [ 8.6686031, 49.419579 ], [ 8.668254, 49.4197142 ], [ 8.6679269, 49.419871 ], [ 8.6676249, 49.4200479 ], [ 8.667351, 49.4202434 ], [ 8.6671077, 49.4204554 ], [ 8.6668975, 49.4206819 ], [ 8.6667223, 49.4209208 ], [ 8.6665839, 49.4211697 ], [ 8.6664835, 49.4214263 ], [ 8.6664221, 49.4216881 ], [ 8.6664004, 49.4219525 ], [ 8.6664038, 49.4220015 ], [ 8.665549, 49.4220013 ], [ 8.665619, 49.4218755 ], [ 8.6657193, 49.4216189 ], [ 8.6657807, 49.4213572 ], [ 8.6658024, 49.4210927 ], [ 8.6657843, 49.4208282 ], [ 8.6657265, 49.4205661 ], [ 8.6656296, 49.4203089 ], [ 8.6654945, 49.4200592 ], [ 8.6653226, 49.4198193 ], [ 8.6651155, 49.4195915 ], [ 8.6648751, 49.4193781 ], [ 8.6646038, 49.4191811 ], [ 8.6643043, 49.4190024 ], [ 8.6640112, 49.4188593 ], [ 8.6640917, 49.4187726 ], [ 8.6642669, 49.4185337 ], [ 8.6644053, 49.4182848 ], [ 8.6645057, 49.4180282 ], [ 8.6645671, 49.4177664 ], [ 8.6645888, 49.417502 ], [ 8.6645707, 49.4172374 ], [ 8.6645129, 49.4169753 ], [ 8.664416, 49.4167181 ], [ 8.664281, 49.4164684 ], [ 8.6641091, 49.4162285 ], [ 8.663902, 49.4160008 ], [ 8.6636616, 49.4157874 ], [ 8.6633904, 49.4155904 ], [ 8.6630909, 49.4154117 ], [ 8.6627659, 49.415253 ], [ 8.6624187, 49.4151158 ], [ 8.6620526, 49.4150015 ], [ 8.661671, 49.4149112 ], [ 8.6612777, 49.4148457 ], [ 8.6608765, 49.4148056 ], [ 8.6604712, 49.4147915 ], [ 8.6600657, 49.4148033 ], [ 8.66, 49.4148094 ], [ 8.66, 49.4083203 ], [ 8.660315, 49.4083313 ], [ 8.6607204, 49.4083195 ], [ 8.6611221, 49.4082819 ], [ 8.6615162, 49.4082187 ], [ 8.661899, 49.4081306 ], [ 8.6622666, 49.4080184 ], [ 8.6626156, 49.4078833 ], [ 8.662711, 49.4078376 ], [ 8.6627865, 49.4078826 ], [ 8.6631113, 49.4080413 ], [ 8.6634585, 49.4081785 ], [ 8.6638246, 49.4082928 ], [ 8.6642061, 49.4083831 ], [ 8.6645993, 49.4084486 ], [ 8.6650005, 49.4084886 ], [ 8.6654058, 49.4085027 ], [ 8.6658112, 49.4084909 ], [ 8.6662129, 49.4084532 ], [ 8.666607, 49.40839 ], [ 8.6669356, 49.4083144 ], [ 8.6668522, 49.4084282 ], [ 8.6667138, 49.4086771 ], [ 8.6666134, 49.4089337 ], [ 8.6665521, 49.4091955 ], [ 8.6665304, 49.4094599 ], [ 8.6665485, 49.4097245 ], [ 8.6666063, 49.4099866 ], [ 8.6667032, 49.4102438 ], [ 8.6668382, 49.4104935 ], [ 8.6670101, 49.4107334 ], [ 8.6672172, 49.4109611 ], [ 8.6674575, 49.4111745 ], [ 8.6677288, 49.4113715 ], [ 8.6680283, 49.4115502 ], [ 8.6683532, 49.4117089 ], [ 8.6687004, 49.411846 ], [ 8.6690665, 49.4119603 ], [ 8.6694481, 49.4120506 ], [ 8.6698414, 49.4121161 ], [ 8.6702426, 49.4121561 ], [ 8.6706478, 49.4121702 ], [ 8.6710533, 49.4121584 ], [ 8.671455, 49.4121207 ], [ 8.6718288, 49.4120607 ], [ 8.6721326, 49.4121113 ], [ 8.6725338, 49.4121513 ], [ 8.6729391, 49.4121654 ], [ 8.6733445, 49.4121536 ], [ 8.6737463, 49.4121159 ], [ 8.6741404, 49.4120526 ], [ 8.6745231, 49.4119645 ], [ 8.6748908, 49.4118523 ], [ 8.6752398, 49.4117172 ], [ 8.6755668, 49.4115603 ], [ 8.6758687, 49.4113833 ], [ 8.6761425, 49.4111879 ], [ 8.6763857, 49.4109759 ], [ 8.6765143, 49.4108372 ], [ 8.6767016, 49.4110035 ], [ 8.6769728, 49.4112005 ], [ 8.6772724, 49.4113791 ], [ 8.6775973, 49.4115378 ], [ 8.6779446, 49.4116749 ], [ 8.6783107, 49.4117892 ], [ 8.6786923, 49.4118794 ], [ 8.6788882, 49.411912 ], [ 8.6790527, 49.4119923 ], [ 8.6793999, 49.4121294 ], [ 8.6797661, 49.4122437 ], [ 8.6801476, 49.4123339 ], [ 8.6805409, 49.4123994 ], [ 8.6807596, 49.4124212 ], [ 8.6807298, 49.4124748 ], [ 8.6806295, 49.4127314 ], [ 8.6805683, 49.4129932 ], [ 8.6805467, 49.4132576 ], [ 8.6805649, 49.4135222 ], [ 8.6806227, 49.4137843 ], [ 8.6807197, 49.4140415 ], [ 8.6808548, 49.4142912 ], [ 8.6810268, 49.414531 ], [ 8.681234, 49.4147587 ], [ 8.6814744, 49.4149721 ], [ 8.6817457, 49.4151691 ], [ 8.6820453, 49.4153477 ], [ 8.6823703, 49.4155064 ], [ 8.6827175, 49.4156435 ], [ 8.6830584, 49.4157498 ], [ 8.6829223, 49.415847 ], [ 8.6826791, 49.416059 ], [ 8.682469, 49.4162856 ], [ 8.6822939, 49.4165245 ], [ 8.6821556, 49.4167735 ], [ 8.6820553, 49.4170301 ], [ 8.681994, 49.4172919 ], [ 8.6819724, 49.4175563 ], [ 8.6819906, 49.4178208 ], [ 8.6820485, 49.418083 ], [ 8.6821454, 49.4183401 ], [ 8.6822806, 49.4185898 ], [ 8.6824526, 49.4188297 ], [ 8.6826598, 49.4190574 ], [ 8.6829002, 49.4192708 ], [ 8.6831716, 49.4194677 ], [ 8.6834712, 49.4196464 ], [ 8.6837962, 49.419805 ], [ 8.6841435, 49.4199421 ], [ 8.6845098, 49.4200563 ], [ 8.6848914, 49.4201466 ], [ 8.6852847, 49.420212 ], [ 8.685686, 49.420252 ], [ 8.6860914, 49.420266 ], [ 8.6864969, 49.4202542 ], [ 8.6868987, 49.4202164 ], [ 8.6872929, 49.4201531 ], [ 8.6876756, 49.4200649 ], [ 8.6880433, 49.4199527 ], [ 8.6883923, 49.4198175 ], [ 8.6887194, 49.4196606 ], [ 8.6890213, 49.4194836 ], [ 8.6892951, 49.4192881 ], [ 8.6895383, 49.4190761 ], [ 8.6897484, 49.4188495 ], [ 8.6898108, 49.4187643 ], [ 8.6898725, 49.4187886 ], [ 8.6902387, 49.4189028 ], [ 8.6906203, 49.418993 ], [ 8.6910137, 49.4190584 ], [ 8.691415, 49.4190984 ], [ 8.6918203, 49.4191124 ], [ 8.6922258, 49.4191005 ], [ 8.6926276, 49.4190627 ], [ 8.6930217, 49.4189994 ], [ 8.6934045, 49.4189113 ], [ 8.6937721, 49.418799 ], [ 8.6941212, 49.4186638 ], [ 8.6944482, 49.4185069 ], [ 8.69475, 49.4183298 ], [ 8.6950239, 49.4181344 ], [ 8.695267, 49.4179223 ], [ 8.6954771, 49.4176957 ], [ 8.6956521, 49.4174568 ], [ 8.6957904, 49.4172078 ], [ 8.6958906, 49.4169512 ], [ 8.6959518, 49.4166894 ], [ 8.6959733, 49.4164249 ], [ 8.6959641, 49.4162912 ], [ 8.6960038, 49.4161894 ], [ 8.696016, 49.4161374 ], [ 8.6960978, 49.4161242 ], [ 8.6964806, 49.416036 ], [ 8.6968482, 49.4159237 ], [ 8.6971972, 49.4157885 ], [ 8.6975242, 49.4156316 ], [ 8.697826, 49.4154546 ], [ 8.6980998, 49.4152591 ], [ 8.6983429, 49.415047 ], [ 8.6985529, 49.4148204 ], [ 8.6987279, 49.4145815 ], [ 8.6988662, 49.4143325 ], [ 8.6989664, 49.4140759 ], [ 8.6990275, 49.4138141 ], [ 8.6990491, 49.4135496 ], [ 8.6990308, 49.4132851 ], [ 8.6989728, 49.413023 ], [ 8.6988758, 49.4127659 ], [ 8.6987406, 49.4125162 ], [ 8.6985685, 49.4122763 ], [ 8.6983612, 49.4120486 ], [ 8.6981458, 49.4118575 ], [ 8.6981663, 49.4118205 ], [ 8.698263, 49.4115729 ], [ 8.6984351, 49.4113379 ], [ 8.6985274, 49.4111717 ], [ 8.6986726, 49.411229 ], [ 8.6990388, 49.4113431 ], [ 8.6994204, 49.4114333 ], [ 8.6998137, 49.4114987 ], [ 8.7002149, 49.4115386 ], [ 8.7006202, 49.4115527 ], [ 8.7010256, 49.4115407 ], [ 8.7014117, 49.4115044 ], [ 8.7016564, 49.4116819 ], [ 8.701956, 49.4118605 ], [ 8.702281, 49.4120191 ], [ 8.7026283, 49.4121561 ], [ 8.7029945, 49.4122703 ], [ 8.7033762, 49.4123605 ], [ 8.7037695, 49.4124258 ], [ 8.7041707, 49.4124657 ], [ 8.704576, 49.4124798 ], [ 8.7049815, 49.4124678 ], [ 8.7053832, 49.41243 ], [ 8.7057773, 49.4123666 ], [ 8.7061599, 49.4122784 ], [ 8.7065275, 49.4121661 ], [ 8.7068764, 49.4120308 ], [ 8.7072034, 49.4118739 ], [ 8.7075051, 49.4116968 ], [ 8.7077789, 49.4115013 ], [ 8.7080219, 49.4112892 ], [ 8.7082319, 49.4110626 ], [ 8.7084068, 49.4108237 ], [ 8.7084624, 49.4107236 ], [ 8.7086821, 49.4106565 ], [ 8.7090311, 49.4105212 ], [ 8.709358, 49.4103643 ], [ 8.7096597, 49.4101872 ], [ 8.7099334, 49.4099916 ], [ 8.7101765, 49.4097796 ], [ 8.7103864, 49.4095529 ], [ 8.7105614, 49.409314 ], [ 8.7106996, 49.409065 ], [ 8.7107997, 49.4088084 ], [ 8.7108089, 49.4087689 ], [ 8.7108593, 49.4086398 ], [ 8.7109204, 49.408378 ], [ 8.7109418, 49.4081135 ], [ 8.7109235, 49.407849 ], [ 8.7108655, 49.4075869 ], [ 8.7107684, 49.4073297 ], [ 8.7106331, 49.4070801 ], [ 8.710461, 49.4068402 ], [ 8.7102537, 49.4066126 ], [ 8.7100132, 49.4063993 ], [ 8.7097418, 49.4062024 ], [ 8.7094422, 49.4060238 ], [ 8.7091172, 49.4058652 ], [ 8.7087699, 49.4057282 ], [ 8.7084037, 49.4056141 ], [ 8.7080222, 49.4055239 ], [ 8.7076289, 49.4054585 ], [ 8.7072277, 49.4054187 ], [ 8.7068225, 49.4054046 ], [ 8.7064171, 49.4054166 ], [ 8.7060154, 49.4054544 ], [ 8.7056214, 49.4055178 ], [ 8.7052388, 49.405606 ], [ 8.7048712, 49.4057183 ], [ 8.7045223, 49.4058536 ], [ 8.7041955, 49.4060105 ], [ 8.7038937, 49.4061876 ], [ 8.70362, 49.4063831 ], [ 8.703377, 49.4065951 ], [ 8.7032297, 49.406754 ], [ 8.7029477, 49.4066164 ], [ 8.7026004, 49.4064794 ], [ 8.7022343, 49.4063652 ], [ 8.7018527, 49.406275 ], [ 8.7014594, 49.4062097 ], [ 8.7010583, 49.4061698 ], [ 8.700653, 49.4061557 ], [ 8.7002476, 49.4061677 ], [ 8.6998459, 49.4062055 ], [ 8.6994519, 49.4062688 ], [ 8.6990693, 49.406357 ], [ 8.6987017, 49.4064693 ], [ 8.6983528, 49.4066045 ], [ 8.6980259, 49.4067614 ], [ 8.6977241, 49.4069385 ], [ 8.6974504, 49.407134 ], [ 8.6972073, 49.4073461 ], [ 8.6969973, 49.4075727 ], [ 8.6968223, 49.4078116 ], [ 8.69673, 49.4079778 ], [ 8.6965848, 49.4079205 ], [ 8.6962186, 49.4078063 ], [ 8.6959537, 49.4077437 ], [ 8.695901, 49.4075053 ], [ 8.695804, 49.4072482 ], [ 8.6956688, 49.4069985 ], [ 8.6954968, 49.4067586 ], [ 8.6952895, 49.4065309 ], [ 8.6950491, 49.4063176 ], [ 8.6948707, 49.4061881 ], [ 8.6949523, 49.4059792 ], [ 8.6950134, 49.4057174 ], [ 8.695035, 49.405453 ], [ 8.6950167, 49.4051884 ], [ 8.6949588, 49.4049263 ], [ 8.6948618, 49.4046692 ], [ 8.6947266, 49.4044195 ], [ 8.6945546, 49.4041796 ], [ 8.6943474, 49.403952 ], [ 8.694107, 49.4037386 ], [ 8.6938357, 49.4035417 ], [ 8.6935361, 49.403363 ], [ 8.6932112, 49.4032044 ], [ 8.6928781, 49.403073 ], [ 8.6927966, 49.4029225 ], [ 8.6926246, 49.4026826 ], [ 8.6924174, 49.4024549 ], [ 8.692177, 49.4022416 ], [ 8.6919058, 49.4020446 ], [ 8.6916062, 49.401866 ], [ 8.6912813, 49.4017074 ], [ 8.6909341, 49.4015703 ], [ 8.690568, 49.4014561 ], [ 8.6901865, 49.4013659 ], [ 8.6897933, 49.4013005 ], [ 8.6893921, 49.4012605 ], [ 8.6889869, 49.4012464 ], [ 8.6886409, 49.4012566 ], [ 8.6885016, 49.4012427 ], [ 8.6880964, 49.4012286 ], [ 8.687691, 49.4012405 ], [ 8.6872894, 49.4012783 ], [ 8.6872867, 49.4012788 ], [ 8.6871791, 49.4012263 ], [ 8.686832, 49.4010892 ], [ 8.6864659, 49.400975 ], [ 8.6860844, 49.4008847 ], [ 8.6856912, 49.4008193 ], [ 8.6852901, 49.4007793 ], [ 8.6848849, 49.4007652 ], [ 8.6844795, 49.4007771 ], [ 8.6840779, 49.4008149 ], [ 8.6836839, 49.4008782 ], [ 8.6833012, 49.4009663 ], [ 8.6829337, 49.4010785 ], [ 8.6825848, 49.4012137 ], [ 8.6822578, 49.4013706 ], [ 8.681956, 49.4015476 ], [ 8.6816823, 49.4017431 ], [ 8.6814392, 49.4019551 ], [ 8.6812291, 49.4021817 ], [ 8.681054, 49.4024206 ], [ 8.6809157, 49.4026695 ], [ 8.6808154, 49.4029261 ], [ 8.6807542, 49.4031879 ], [ 8.6807326, 49.4034524 ], [ 8.6807508, 49.4037169 ], [ 8.6808086, 49.403979 ], [ 8.6809056, 49.4042362 ], [ 8.6809321, 49.4042853 ], [ 8.6809476, 49.4045102 ], [ 8.6810055, 49.4047723 ], [ 8.681021, 49.4048137 ], [ 8.6807756, 49.4046354 ], [ 8.680476, 49.4044567 ], [ 8.6801511, 49.4042981 ], [ 8.6798039, 49.404161 ], [ 8.6794378, 49.4040468 ], [ 8.6790563, 49.4039565 ], [ 8.6786631, 49.403891 ], [ 8.678262, 49.4038511 ], [ 8.6778568, 49.4038369 ], [ 8.6774514, 49.4038488 ], [ 8.6770497, 49.4038865 ], [ 8.6766557, 49.4039498 ], [ 8.676273, 49.4040379 ], [ 8.6759054, 49.4041501 ], [ 8.6755564, 49.4042853 ], [ 8.6752295, 49.4044421 ], [ 8.6749276, 49.4046191 ], [ 8.6746538, 49.4048146 ], [ 8.6744107, 49.4050266 ], [ 8.6742884, 49.4051584 ], [ 8.6742737, 49.4051618 ], [ 8.6739061, 49.405274 ], [ 8.6735571, 49.4054092 ], [ 8.6732301, 49.405566 ], [ 8.6729282, 49.405743 ], [ 8.6726544, 49.4059384 ], [ 8.6724112, 49.4061504 ], [ 8.6722011, 49.406377 ], [ 8.672026, 49.4066159 ], [ 8.6718887, 49.4068629 ], [ 8.6717941, 49.4068781 ], [ 8.6714904, 49.4068275 ], [ 8.6710892, 49.4067875 ], [ 8.6706839, 49.4067734 ], [ 8.6702785, 49.4067852 ], [ 8.6698768, 49.4068229 ], [ 8.6694828, 49.4068861 ], [ 8.6691541, 49.4069618 ], [ 8.6692376, 49.4068479 ], [ 8.669376, 49.406599 ], [ 8.6694763, 49.4063424 ], [ 8.6695293, 49.4061163 ], [ 8.6699217, 49.4060534 ], [ 8.6703044, 49.4059653 ], [ 8.670672, 49.4058531 ], [ 8.6707413, 49.4058262 ], [ 8.6707706, 49.4058235 ], [ 8.6711647, 49.4057603 ], [ 8.6715474, 49.4056721 ], [ 8.671915, 49.40556 ], [ 8.6722639, 49.4054248 ], [ 8.6725909, 49.405268 ], [ 8.6728928, 49.405091 ], [ 8.6731666, 49.4048956 ], [ 8.6734098, 49.4046835 ], [ 8.6736199, 49.404457 ], [ 8.673795, 49.4042181 ], [ 8.6739334, 49.4039691 ], [ 8.6740337, 49.4037125 ], [ 8.6740949, 49.4034508 ], [ 8.6741166, 49.4031863 ], [ 8.6740984, 49.4029218 ], [ 8.6740406, 49.4026597 ], [ 8.6739437, 49.4024025 ], [ 8.6738087, 49.4021528 ], [ 8.6736368, 49.4019129 ], [ 8.6734297, 49.4016852 ], [ 8.6733397, 49.4016053 ], [ 8.6733813, 49.4016302 ], [ 8.6737062, 49.4017888 ], [ 8.6740534, 49.4019259 ], [ 8.6744194, 49.4020402 ], [ 8.6748009, 49.4021305 ], [ 8.6751941, 49.4021959 ], [ 8.6755952, 49.4022359 ], [ 8.6760004, 49.4022501 ], [ 8.6764058, 49.4022382 ], [ 8.6768075, 49.4022005 ], [ 8.6772015, 49.4021372 ], [ 8.6775842, 49.4020491 ], [ 8.6779517, 49.4019369 ], [ 8.6783007, 49.4018017 ], [ 8.6786276, 49.4016449 ], [ 8.6789294, 49.4014679 ], [ 8.6792032, 49.4012724 ], [ 8.6794463, 49.4010604 ], [ 8.6796564, 49.4008338 ], [ 8.6798314, 49.4005949 ], [ 8.6799698, 49.4003459 ], [ 8.68007, 49.4000893 ], [ 8.6801313, 49.3998276 ], [ 8.6801529, 49.3995631 ], [ 8.6801347, 49.3992986 ], [ 8.6800769, 49.3990364 ], [ 8.6799799, 49.3987793 ], [ 8.6798449, 49.3985296 ], [ 8.6796729, 49.3982897 ], [ 8.6794658, 49.398062 ], [ 8.6793998, 49.3980034 ] ], [ [ 8.6807609, 49.4155403 ], [ 8.6805889, 49.4153004 ], [ 8.6803817, 49.4150727 ], [ 8.6801413, 49.4148593 ], [ 8.67987, 49.4146623 ], [ 8.6795704, 49.4144837 ], [ 8.6792454, 49.414325 ], [ 8.6788982, 49.4141879 ], [ 8.678532, 49.4140737 ], [ 8.6781504, 49.4139834 ], [ 8.6777571, 49.413918 ], [ 8.6773559, 49.413878 ], [ 8.6769506, 49.4138639 ], [ 8.6765451, 49.4138757 ], [ 8.6761434, 49.4139134 ], [ 8.6757493, 49.4139767 ], [ 8.6753665, 49.4140648 ], [ 8.6749989, 49.414177 ], [ 8.6746498, 49.4143122 ], [ 8.6743228, 49.414469 ], [ 8.6740209, 49.414646 ], [ 8.673747, 49.4148414 ], [ 8.6735038, 49.4150535 ], [ 8.6732936, 49.41528 ], [ 8.6731185, 49.4155189 ], [ 8.6729801, 49.4157679 ], [ 8.6728798, 49.4160245 ], [ 8.6728185, 49.4162862 ], [ 8.6727968, 49.4165507 ], [ 8.6728149, 49.4168152 ], [ 8.6728728, 49.4170773 ], [ 8.6729697, 49.4173345 ], [ 8.6731048, 49.4175842 ], [ 8.6732767, 49.4178241 ], [ 8.6734839, 49.4180518 ], [ 8.6737243, 49.4182652 ], [ 8.6739956, 49.4184622 ], [ 8.6742952, 49.4186409 ], [ 8.6746202, 49.4187995 ], [ 8.6749674, 49.4189367 ], [ 8.6753336, 49.4190509 ], [ 8.6757152, 49.4191412 ], [ 8.6761086, 49.4192066 ], [ 8.6765098, 49.4192466 ], [ 8.6769152, 49.4192607 ], [ 8.6773207, 49.4192489 ], [ 8.6777225, 49.4192111 ], [ 8.6781167, 49.4191479 ], [ 8.6784994, 49.4190598 ], [ 8.6788671, 49.4189475 ], [ 8.6792162, 49.4188124 ], [ 8.6795432, 49.4186555 ], [ 8.6798452, 49.4184785 ], [ 8.680119, 49.4182831 ], [ 8.6803622, 49.418071 ], [ 8.6805724, 49.4178445 ], [ 8.6807475, 49.4176056 ], [ 8.6808858, 49.4173566 ], [ 8.6809861, 49.4171 ], [ 8.6810474, 49.4168382 ], [ 8.681069, 49.4165738 ], [ 8.6810508, 49.4163092 ], [ 8.680993, 49.4160471 ], [ 8.680896, 49.41579 ], [ 8.6807609, 49.4155403 ] ] ], [ [ [ 8.66, 49.4029447 ], [ 8.66, 49.398 ], [ 8.6726363, 49.3980026 ], [ 8.6725903, 49.3980427 ], [ 8.6723802, 49.3982693 ], [ 8.6722051, 49.3985082 ], [ 8.6720668, 49.3987571 ], [ 8.6719665, 49.3990137 ], [ 8.6719052, 49.3992755 ], [ 8.6718835, 49.3995399 ], [ 8.6719017, 49.3998045 ], [ 8.6719595, 49.4000666 ], [ 8.6720563, 49.4003238 ], [ 8.6721914, 49.4005735 ], [ 8.6723633, 49.4008134 ], [ 8.6725704, 49.4010411 ], [ 8.6726603, 49.401121 ], [ 8.6726187, 49.4010961 ], [ 8.6722938, 49.4009375 ], [ 8.6719467, 49.4008003 ], [ 8.6715806, 49.4006861 ], [ 8.6711992, 49.4005958 ], [ 8.670806, 49.4005303 ], [ 8.6704049, 49.4004903 ], [ 8.6699997, 49.4004761 ], [ 8.6695943, 49.400488 ], [ 8.6691927, 49.4005257 ], [ 8.6687986, 49.4005889 ], [ 8.668416, 49.400677 ], [ 8.6680484, 49.4007892 ], [ 8.6679791, 49.400816 ], [ 8.6679498, 49.4008188 ], [ 8.6675558, 49.400882 ], [ 8.6671731, 49.4009701 ], [ 8.6668056, 49.4010823 ], [ 8.6664566, 49.4012174 ], [ 8.6661296, 49.4013742 ], [ 8.6658278, 49.4015512 ], [ 8.6655539, 49.4017466 ], [ 8.6653108, 49.4019586 ], [ 8.6651006, 49.4021852 ], [ 8.6649255, 49.402424 ], [ 8.6647871, 49.402673 ], [ 8.6646867, 49.4029296 ], [ 8.6646338, 49.4031556 ], [ 8.6642413, 49.4032186 ], [ 8.6638586, 49.4033067 ], [ 8.663491, 49.4034188 ], [ 8.6631421, 49.403554 ], [ 8.6630467, 49.4035997 ], [ 8.6629712, 49.4035546 ], [ 8.6626464, 49.4033959 ], [ 8.6622992, 49.4032588 ], [ 8.6619332, 49.4031445 ], [ 8.6615517, 49.4030542 ], [ 8.6611585, 49.4029887 ], [ 8.6607574, 49.4029486 ], [ 8.6603522, 49.4029345 ], [ 8.66, 49.4029447 ] ] ], [ [ [ 8.6877326, 49.4150867 ], [ 8.6878687, 49.4149896 ], [ 8.6879863, 49.414887 ], [ 8.6878973, 49.4151149 ], [ 8.6878922, 49.4151365 ], [ 8.6877326, 49.4150867 ] ] ], [ [ [ 8.6887355, 49.4138064 ], [ 8.6887968, 49.4135446 ], [ 8.6888183, 49.4132802 ], [ 8.6888001, 49.4130157 ], [ 8.6887422, 49.4127535 ], [ 8.6886452, 49.4124964 ], [ 8.6885101, 49.4122467 ], [ 8.688338, 49.4120068 ], [ 8.6881308, 49.4117791 ], [ 8.6878904, 49.4115658 ], [ 8.6876191, 49.4113688 ], [ 8.6873195, 49.4111902 ], [ 8.6869945, 49.4110316 ], [ 8.6866473, 49.4108945 ], [ 8.6862811, 49.4107803 ], [ 8.6858995, 49.41069 ], [ 8.6855063, 49.4106246 ], [ 8.6852876, 49.4106028 ], [ 8.6853174, 49.4105492 ], [ 8.6854176, 49.4102925 ], [ 8.6854543, 49.4101357 ], [ 8.6855245, 49.4101867 ], [ 8.6858241, 49.4103653 ], [ 8.6861491, 49.410524 ], [ 8.6864963, 49.4106611 ], [ 8.6868625, 49.4107753 ], [ 8.687244, 49.4108655 ], [ 8.6876373, 49.4109309 ], [ 8.6880385, 49.4109709 ], [ 8.6884438, 49.410985 ], [ 8.6888493, 49.4109731 ], [ 8.689251, 49.4109353 ], [ 8.6896451, 49.410872 ], [ 8.6899575, 49.4108 ], [ 8.6899963, 49.4109029 ], [ 8.6900808, 49.4110591 ], [ 8.6900961, 49.4112803 ], [ 8.690154, 49.4115424 ], [ 8.690251, 49.4117996 ], [ 8.6903862, 49.4120493 ], [ 8.6905582, 49.4122891 ], [ 8.6906142, 49.4123507 ], [ 8.6904815, 49.4125319 ], [ 8.6903432, 49.4127808 ], [ 8.690243, 49.4130375 ], [ 8.6902026, 49.4132101 ], [ 8.6900158, 49.4132672 ], [ 8.6896668, 49.4134024 ], [ 8.6893398, 49.4135592 ], [ 8.6890379, 49.4137363 ], [ 8.6887641, 49.4139318 ], [ 8.6886465, 49.4140343 ], [ 8.6887355, 49.4138064 ] ] ] ] } }
]
}
