{
"type": "FeatureCollection",
"features": [
{ "type": "Feature", "properties": { "index": "0", "last_edit_year": 2024, "years_since_edit": 2, "label": "2.0–9.0 yr", "color": "#006837" }, "geometry": { "type": "Point", "coordinates": [ 8.6604526, 49.4174899 ] } },
{ "type": "Feature", "properties": { "index": "1", "last_edit_year": 2026, "years_since_edit": 0, "label": "0.0–1.0 yr", "color": "#ffc" }, "geometry": { "type": "Point", "coordinates": [ 8.6880793, 49.4039271 ] } },
{ "type": "Feature", "properties": { "index": "2", "last_edit_year": 2026, "years_since_edit": 0, "label": "0.0–1.0 yr", "color": "#ffc" }, "geometry": { "type": "Point", "coordinates": [ 8.7006366, 49.4088542 ] } },
{ "type": "Feature", "properties": { "index": "3", "last_edit_year": 2024, "years_since_edit": 2, "label": "2.0–9.0 yr", "color": "#006837" }, "geometry": { "type": "Point", "coordinates": [ 8.6942135, 49.4110268 ] } },
{ "type": "Feature", "properties": { "index": "4", "last_edit_year": 2025, "years_since_edit": 1, "label": "1.0–2.0 yr", "color": "#78c679" }, "geometry": { "type": "Point", "coordinates": [ 8.6942961, 49.4135747 ] } },
{ "type": "Feature", "properties": { "index": "5", "last_edit_year": 2024, "years_since_edit": 2, "label": "2.0–9.0 yr", "color": "#006837" }, "geometry": { "type": "Point", "coordinates": [ 8.7068064, 49.4081031 ] } },
{ "type": "Feature", "properties": { "index": "6", "last_edit_year": 2026, "years_since_edit": 0, "label": "0.0–1.0 yr", "color": "#ffc" }, "geometry": { "type": "Point", "coordinates": [ 8.7045922, 49.4097813 ] } },
{ "type": "Feature", "properties": { "index": "7", "last_edit_year": 2025, "years_since_edit": 1, "label": "1.0–2.0 yr", "color": "#78c679" }, "geometry": { "type": "Point", "coordinates": [ 8.7184599, 49.404748 ] } },
{ "type": "Feature", "properties": { "index": "8", "last_edit_year": 2025, "years_since_edit": 1, "label": "1.0–2.0 yr", "color": "#78c679" }, "geometry": { "type": "Point", "coordinates": [ 8.670537, 49.4219644 ] } },
{ "type": "Feature", "properties": { "index": "9", "last_edit_year": 2024, "years_since_edit": 2, "label": "2.0–9.0 yr", "color": "#006837" }, "geometry": { "type": "Point", "coordinates": [ 8.6799096, 49.4093005 ] } },
{ "type": "Feature", "properties": { "index": "10", "last_edit_year": 2025, "years_since_edit": 1, "label": "1.0–2.0 yr", "color": "#78c679" }, "geometry": { "type": "Point", "coordinates": [ 8.6769329, 49.4165623 ] } },
{ "type": "Feature", "properties": { "index": "11", "last_edit_year": 2021, "years_since_edit": 5, "label": "2.0–9.0 yr", "color": "#006837" }, "geometry": { "type": "Point", "coordinates": [ 8.6861086, 49.4175676 ] } },
{ "type": "Feature", "properties": { "index": "12", "last_edit_year": 2025, "years_since_edit": 1, "label": "1.0–2.0 yr", "color": "#78c679" }, "geometry": { "type": "Point", "coordinates": [ 8.6616659, 49.4210807 ] } },
{ "type": "Feature", "properties": { "index": "13", "last_edit_year": 2026, "years_since_edit": 0, "label": "0.0–1.0 yr", "color": "#ffc" }, "geometry": { "type": "Point", "coordinates": [ 8.6943017, 49.4107642 ] } },
{ "type": "Feature", "properties": { "index": "14", "last_edit_year": 2024, "years_since_edit": 2, "label": "2.0–9.0 yr", "color": "#006837" }, "geometry": { "type": "Point", "coordinates": [ 8.6706659, 49.4094718 ] } },
{ "type": "Feature", "properties": { "index": "15", "last_edit_year": 2026, "years_since_edit": 0, "label": "0.0–1.0 yr", "color": "#ffc" }, "geometry": { "type": "Point", "coordinates": [ 8.6949132, 49.4135388 ] } },
{ "type": "Feature", "properties": { "index": "16", "last_edit_year": 2023, "years_since_edit": 3, "label": "2.0–9.0 yr", "color": "#006837" }, "geometry": { "type": "Point", "coordinates": [ 8.6813649, 49.409755 ] } },
{ "type": "Feature", "properties": { "index": "17", "last_edit_year": 2020, "years_since_edit": 6, "label": "2.0–9.0 yr", "color": "#006837" }, "geometry": { "type": "Point", "coordinates": [ 8.6908998, 49.405442 ] } },
{ "type": "Feature", "properties": { "index": "18", "last_edit_year": 2023, "years_since_edit": 3, "label": "2.0–9.0 yr", "color": "#006837" }, "geometry": { "type": "Point", "coordinates": [ 8.6846825, 49.413269 ] } },
{ "type": "Feature", "properties": { "index": "19", "last_edit_year": 2025, "years_since_edit": 1, "label": "1.0–2.0 yr", "color": "#78c679" }, "geometry": { "type": "Point", "coordinates": [ 8.6918418, 49.408021 ] } },
{ "type": "Feature", "properties": { "index": "20", "last_edit_year": 2024, "years_since_edit": 2, "label": "2.0–9.0 yr", "color": "#006837" }, "geometry": { "type": "Point", "coordinates": [ 8.6603336, 49.4056329 ] } },
{ "type": "Feature", "properties": { "index": "21", "last_edit_year": 2025, "years_since_edit": 1, "label": "1.0–2.0 yr", "color": "#78c679" }, "geometry": { "type": "Point", "coordinates": [ 8.6760182, 49.3995516 ] } },
{ "type": "Feature", "properties": { "index": "22", "last_edit_year": 2025, "years_since_edit": 1, "label": "1.0–2.0 yr", "color": "#78c679" }, "geometry": { "type": "Point", "coordinates": [ 8.6812676, 49.4077065 ] } },
{ "type": "Feature", "properties": { "index": "23", "last_edit_year": 2025, "years_since_edit": 1, "label": "1.0–2.0 yr", "color": "#78c679" }, "geometry": { "type": "Point", "coordinates": [ 8.6778391, 49.4065354 ] } },
{ "type": "Feature", "properties": { "index": "24", "last_edit_year": 2017, "years_since_edit": 9, "label": "2.0–9.0 yr", "color": "#006837" }, "geometry": { "type": "Point", "coordinates": [ 8.6800565, 49.4086212 ] } },
{ "type": "Feature", "properties": { "index": "25", "last_edit_year": 2024, "years_since_edit": 2, "label": "2.0–9.0 yr", "color": "#006837" }, "geometry": { "type": "Point", "coordinates": [ 8.672957, 49.409467 ] } },
{ "type": "Feature", "properties": { "index": "26", "last_edit_year": 2025, "years_since_edit": 1, "label": "1.0–2.0 yr", "color": "#78c679" }, "geometry": { "type": "Point", "coordinates": [ 8.6884609, 49.4082865 ] } },
{ "type": "Feature", "properties": { "index": "27", "last_edit_year": 2025, "years_since_edit": 1, "label": "1.0–2.0 yr", "color": "#78c679" }, "geometry": { "type": "Point", "coordinates": [ 8.6939587, 49.4101301 ] } },
{ "type": "Feature", "properties": { "index": "28", "last_edit_year": 2024, "years_since_edit": 2, "label": "2.0–9.0 yr", "color": "#006837" }, "geometry": { "type": "Point", "coordinates": [ 8.7042457, 49.4094405 ] } },
{ "type": "Feature", "properties": { "index": "29", "last_edit_year": 2022, "years_since_edit": 4, "label": "2.0–9.0 yr", "color": "#006837" }, "geometry": { "type": "Point", "coordinates": [ 8.6758397, 49.4076593 ] } },
{ "type": "Feature", "properties": { "index": "30", "last_edit_year": 2026, "years_since_edit": 0, "label": "0.0–1.0 yr", "color": "#ffc" }, "geometry": { "type": "Point", "coordinates": [ 8.6654241, 49.4058043 ] } },
{ "type": "Feature", "properties": { "index": "31", "last_edit_year": 2025, "years_since_edit": 1, "label": "1.0–2.0 yr", "color": "#78c679" }, "geometry": { "type": "Point", "coordinates": [ 8.7067468, 49.4082717 ] } },
{ "type": "Feature", "properties": { "index": "32", "last_edit_year": 2026, "years_since_edit": 0, "label": "0.0–1.0 yr", "color": "#ffc" }, "geometry": { "type": "Point", "coordinates": [ 8.6848676, 49.4034637 ] } },
{ "type": "Feature", "properties": { "index": "33", "last_edit_year": 2025, "years_since_edit": 1, "label": "1.0–2.0 yr", "color": "#78c679" }, "geometry": { "type": "Point", "coordinates": [ 8.6782585, 49.4070279 ] } },
{ "type": "Feature", "properties": { "index": "34", "last_edit_year": 2025, "years_since_edit": 1, "label": "1.0–2.0 yr", "color": "#78c679" }, "geometry": { "type": "Point", "coordinates": [ 8.6889699, 49.4039449 ] } },
{ "type": "Feature", "properties": { "index": "35", "last_edit_year": 2026, "years_since_edit": 0, "label": "0.0–1.0 yr", "color": "#ffc" }, "geometry": { "type": "Point", "coordinates": [ 8.6850645, 49.404257 ] } },
{ "type": "Feature", "properties": { "index": "36", "last_edit_year": 2025, "years_since_edit": 1, "label": "1.0–2.0 yr", "color": "#78c679" }, "geometry": { "type": "Point", "coordinates": [ 8.6919505, 49.4156522 ] } },
{ "type": "Feature", "properties": { "index": "37", "last_edit_year": 2026, "years_since_edit": 0, "label": "0.0–1.0 yr", "color": "#ffc" }, "geometry": { "type": "Point", "coordinates": [ 8.6946206, 49.4102952 ] } },
{ "type": "Feature", "properties": { "index": "38", "last_edit_year": 2025, "years_since_edit": 1, "label": "1.0–2.0 yr", "color": "#78c679" }, "geometry": { "type": "Point", "coordinates": [ 8.6918372, 49.416414 ] } },
{ "type": "Feature", "properties": { "index": "39", "last_edit_year": 2025, "years_since_edit": 1, "label": "1.0–2.0 yr", "color": "#78c679" }, "geometry": { "type": "Point", "coordinates": [ 8.6699816, 49.4031746 ] } },
{ "type": "Feature", "properties": { "index": "40", "last_edit_year": 2026, "years_since_edit": 0, "label": "0.0–1.0 yr", "color": "#ffc" }, "geometry": { "type": "Point", "coordinates": [ 8.7171567, 49.4137029 ] } },
{ "type": "Feature", "properties": { "index": "41", "last_edit_year": 2026, "years_since_edit": 0, "label": "0.0–1.0 yr", "color": "#ffc" }, "geometry": { "type": "Point", "coordinates": [ 8.6687387, 49.4034677 ] } }
]
}
