{
"type": "FeatureCollection",
"features": [
{ "type": "Feature", "properties": { "index": "0", "@osmId": "way/192514102", "name": "Heidelberger Ruderklub 1872 e.V.", "opening_hours": null, "label": "Sports clubs", "color": "#e34a33" }, "geometry": { "type": "Polygon", "coordinates": [ [ [ 8.6945814, 49.4136246 ], [ 8.6940433, 49.4137 ], [ 8.6940756, 49.4135888 ], [ 8.6940884, 49.4134687 ], [ 8.694553, 49.4134929 ], [ 8.6945565, 49.4135394 ], [ 8.6945814, 49.4136246 ] ] ] } },
{ "type": "Feature", "properties": { "index": "1", "@osmId": "way/24975498", "name": "Heidelberger Tennisclub 1890 e.V.", "opening_hours": null, "label": "Sports clubs", "color": "#e34a33" }, "geometry": { "type": "Polygon", "coordinates": [ [ [ 8.6704557, 49.421897 ], [ 8.670905, 49.422 ], [ 8.6702906, 49.422 ], [ 8.6703281, 49.4219477 ], [ 8.6704557, 49.421897 ] ] ] } },
{ "type": "Feature", "properties": { "index": "2", "@osmId": "node/471307115", "name": "Wassersportclub 1931 Heidelberg-Neuenheim e.V.", "opening_hours": null, "label": "Sports clubs", "color": "#e34a33" }, "geometry": { "type": "Point", "coordinates": [ 8.6949132, 49.4135388 ] } },
{ "type": "Feature", "properties": { "index": "3", "@osmId": "node/471317559", "name": "Wassersportverein Heidelberg West", "opening_hours": null, "label": "Sports clubs", "color": "#e34a33" }, "geometry": { "type": "Point", "coordinates": [ 8.6813649, 49.409755 ] } },
{ "type": "Feature", "properties": { "index": "4", "@osmId": "node/9594277554", "name": "Zentrum für Daoyin-Qigong und Taijiquan Rhein-Neckar e.V.", "opening_hours": null, "label": "Sports clubs", "color": "#e34a33" }, "geometry": { "type": "Point", "coordinates": [ 8.6758397, 49.4076593 ] } },
{ "type": "Feature", "properties": { "index": "5", "@osmId": "node/11879640349", "name": "Schützengesellschaft „Tell“ 1906 Heidelberg e.V.", "opening_hours": null, "label": "Sports clubs", "color": "#e34a33" }, "geometry": { "type": "Point", "coordinates": [ 8.7067468, 49.4082717 ] } },
{ "type": "Feature", "properties": { "index": "6", "@osmId": "way/307365198", "name": "TSG 78 Heidelberg", "opening_hours": null, "label": "Sports centres", "color": "#fc8d59" }, "geometry": { "type": "Polygon", "coordinates": [ [ [ 8.6605734, 49.4181039 ], [ 8.66, 49.4191824 ], [ 8.66, 49.4165335 ], [ 8.6606626, 49.4167016 ], [ 8.6607755, 49.4167312 ], [ 8.660951, 49.4167177 ], [ 8.6611346, 49.4166584 ], [ 8.6613802, 49.4167212 ], [ 8.6605734, 49.4181039 ] ] ] } },
{ "type": "Feature", "properties": { "index": "7", "@osmId": "way/92839754", "name": "Sporthalle Landhausschule", "opening_hours": null, "label": "Sports centres", "color": "#fc8d59" }, "geometry": { "type": "Polygon", "coordinates": [ [ [ 8.6881742, 49.4040192 ], [ 8.6880193, 49.4040309 ], [ 8.6879844, 49.403835 ], [ 8.6881393, 49.4038233 ], [ 8.6881742, 49.4040192 ] ] ] } },
{ "type": "Feature", "properties": { "index": "8", "@osmId": "way/167212928", "name": "Sporthalle Hölderlin-Gymnasium", "opening_hours": null, "label": "Sports centres", "color": "#fc8d59" }, "geometry": { "type": "Polygon", "coordinates": [ [ [ 8.7005995, 49.4089429 ], [ 8.700553, 49.4089352 ], [ 8.7004163, 49.4089125 ], [ 8.7004859, 49.4087345 ], [ 8.7007894, 49.4087847 ], [ 8.700857, 49.4087959 ], [ 8.7008099, 49.4089163 ], [ 8.7007874, 49.408974 ], [ 8.700717, 49.4089623 ], [ 8.7005995, 49.4089429 ] ] ] } },
{ "type": "Feature", "properties": { "index": "9", "@osmId": "way/168195665", "name": "Sporthalle des Kurfürst-Friedrich-Gymnasiums", "opening_hours": null, "label": "Sports centres", "color": "#fc8d59" }, "geometry": { "type": "Polygon", "coordinates": [ [ [ 8.6938766, 49.4109783 ], [ 8.6939394, 49.410989 ], [ 8.6939741, 49.410849 ], [ 8.6945425, 49.410907 ], [ 8.6945856, 49.410912 ], [ 8.6945595, 49.4110126 ], [ 8.69449, 49.4110051 ], [ 8.6944766, 49.4110581 ], [ 8.6945233, 49.4110637 ], [ 8.6944858, 49.4112056 ], [ 8.69384, 49.4111337 ], [ 8.693867, 49.4110184 ], [ 8.6938525, 49.411017 ], [ 8.6938602, 49.4109845 ], [ 8.6938752, 49.4109859 ], [ 8.6938766, 49.4109783 ] ] ] } },
{ "type": "Feature", "properties": { "index": "10", "@osmId": "way/87498383", "name": "Thermalbad", "opening_hours": null, "label": "Sports centres", "color": "#fc8d59" }, "geometry": { "type": "Polygon", "coordinates": [ [ [ 8.6801311, 49.4089303 ], [ 8.6801309, 49.4089231 ], [ 8.6801795, 49.4089224 ], [ 8.6801798, 49.4089296 ], [ 8.6801801, 49.4089386 ], [ 8.6801941, 49.4089384 ], [ 8.6802082, 49.4089382 ], [ 8.6802363, 49.4089378 ], [ 8.680236, 49.4089288 ], [ 8.6802358, 49.4089217 ], [ 8.6810094, 49.4089109 ], [ 8.6810125, 49.4090048 ], [ 8.6810648, 49.4090055 ], [ 8.6810711, 49.409183 ], [ 8.6810781, 49.4094093 ], [ 8.6809896, 49.4094101 ], [ 8.6809248, 49.4094106 ], [ 8.6807911, 49.4096966 ], [ 8.6806855, 49.4096911 ], [ 8.6805699, 49.4097736 ], [ 8.6793478, 49.4096964 ], [ 8.6792287, 49.4096643 ], [ 8.6788188, 49.4094603 ], [ 8.6787486, 49.4093886 ], [ 8.6786, 49.4089615 ], [ 8.6792824, 49.4089427 ], [ 8.6793224, 49.4089354 ], [ 8.6793561, 49.4089339 ], [ 8.6800741, 49.4089239 ], [ 8.6800743, 49.4089311 ], [ 8.6800746, 49.4089401 ], [ 8.680103, 49.4089397 ], [ 8.6801172, 49.4089395 ], [ 8.6801314, 49.4089393 ], [ 8.6801311, 49.4089303 ] ] ] } },
{ "type": "Feature", "properties": { "index": "11", "@osmId": "way/167450278", "name": "Sporthalle Bunsen-Gymnasium", "opening_hours": null, "label": "Sports centres", "color": "#fc8d59" }, "geometry": { "type": "Polygon", "coordinates": [ [ [ 8.6768495, 49.4164563 ], [ 8.6768595, 49.416364 ], [ 8.6770483, 49.4163727 ], [ 8.6770268, 49.4165712 ], [ 8.6770062, 49.4167605 ], [ 8.6768174, 49.4167518 ], [ 8.6768495, 49.4164563 ] ] ] } },
{ "type": "Feature", "properties": { "index": "12", "@osmId": "way/171969216", "name": null, "opening_hours": null, "label": "Sports centres", "color": "#fc8d59" }, "geometry": { "type": "Polygon", "coordinates": [ [ [ 8.6859547, 49.4176562 ], [ 8.6859532, 49.4174801 ], [ 8.6862624, 49.417479 ], [ 8.6862639, 49.4176551 ], [ 8.6859547, 49.4176562 ] ] ] } },
{ "type": "Feature", "properties": { "index": "13", "@osmId": "way/1345103575", "name": "Sportgelände der Universität", "opening_hours": null, "label": "Sports centres", "color": "#fc8d59" }, "geometry": { "type": "Polygon", "coordinates": [ [ [ 8.6640481, 49.4208308 ], [ 8.6632334, 49.422 ], [ 8.66, 49.422 ], [ 8.66, 49.419768 ], [ 8.6601693, 49.4197955 ], [ 8.6640481, 49.4208308 ] ] ] } },
{ "type": "Feature", "properties": { "index": "14", "@osmId": "way/96599351", "name": "Sporthalle Klingenteich", "opening_hours": null, "label": "Sports centres", "color": "#fc8d59" }, "geometry": { "type": "Polygon", "coordinates": [ [ [ 8.706814, 49.4082555 ], [ 8.7068109, 49.4082542 ], [ 8.7067561, 49.4083129 ], [ 8.7066765, 49.4082499 ], [ 8.7066205, 49.4082091 ], [ 8.7065569, 49.4081577 ], [ 8.7066585, 49.4080622 ], [ 8.7067137, 49.408084 ], [ 8.70674, 49.4080558 ], [ 8.7067124, 49.4080449 ], [ 8.7067691, 49.4079842 ], [ 8.7067968, 49.4079952 ], [ 8.7068217, 49.4079686 ], [ 8.7068108, 49.4079643 ], [ 8.7068583, 49.4079136 ], [ 8.7068692, 49.407918 ], [ 8.7069341, 49.4079437 ], [ 8.7069411, 49.4079362 ], [ 8.7069687, 49.4079471 ], [ 8.7069964, 49.407958 ], [ 8.7069893, 49.4079656 ], [ 8.7070517, 49.4079904 ], [ 8.7070556, 49.4079862 ], [ 8.7070619, 49.4079887 ], [ 8.7070581, 49.4079929 ], [ 8.707067, 49.4079964 ], [ 8.7070618, 49.4080019 ], [ 8.7070588, 49.4080007 ], [ 8.7070226, 49.4080393 ], [ 8.7070259, 49.4080407 ], [ 8.7070198, 49.4080472 ], [ 8.7070085, 49.4080427 ], [ 8.7069862, 49.4080665 ], [ 8.7069894, 49.4080678 ], [ 8.706984, 49.4080736 ], [ 8.7069809, 49.4080724 ], [ 8.7069579, 49.4080969 ], [ 8.7069605, 49.4080979 ], [ 8.706955, 49.4081037 ], [ 8.7069525, 49.4081027 ], [ 8.7069296, 49.4081272 ], [ 8.7069327, 49.4081284 ], [ 8.7069278, 49.4081336 ], [ 8.7069273, 49.4081342 ], [ 8.7069242, 49.408133 ], [ 8.7069013, 49.4081575 ], [ 8.7069044, 49.4081587 ], [ 8.706899, 49.4081645 ], [ 8.7068959, 49.4081633 ], [ 8.7068728, 49.408188 ], [ 8.7068759, 49.4081892 ], [ 8.7068707, 49.4081948 ], [ 8.7068676, 49.4081936 ], [ 8.7068447, 49.408218 ], [ 8.7068478, 49.4082193 ], [ 8.7068423, 49.4082251 ], [ 8.7068393, 49.4082239 ], [ 8.7068278, 49.4082362 ], [ 8.7068163, 49.4082484 ], [ 8.7068194, 49.4082497 ], [ 8.706814, 49.4082555 ] ] ] } },
{ "type": "Feature", "properties": { "index": "15", "@osmId": "way/143973354", "name": "Sporthalle Theodor-Heuss-Realschule", "opening_hours": null, "label": "Sports centres", "color": "#fc8d59" }, "geometry": { "type": "Polygon", "coordinates": [ [ [ 8.7045858, 49.4098978 ], [ 8.7044525, 49.4098914 ], [ 8.704474, 49.4097176 ], [ 8.7044814, 49.4096458 ], [ 8.7045825, 49.4096498 ], [ 8.7045801, 49.4096768 ], [ 8.7047413, 49.4096841 ], [ 8.7047207, 49.4098754 ], [ 8.7046507, 49.4098722 ], [ 8.7046489, 49.4098913 ], [ 8.7046462, 49.4099124 ], [ 8.7046321, 49.40992 ], [ 8.7045996, 49.4099183 ], [ 8.7045855, 49.4099079 ], [ 8.7045858, 49.4098978 ] ] ] } },
{ "type": "Feature", "properties": { "index": "16", "@osmId": "way/175444375", "name": "Kleinkaliber-Sportverein Alt-Heidelberg e.V.", "opening_hours": null, "label": "Sports centres", "color": "#fc8d59" }, "geometry": { "type": "Polygon", "coordinates": [ [ [ 8.7186625, 49.4049595 ], [ 8.718406, 49.4051359 ], [ 8.7183272, 49.4051206 ], [ 8.718034, 49.4049077 ], [ 8.7179759, 49.4047543 ], [ 8.7179802, 49.4046722 ], [ 8.7180567, 49.4045656 ], [ 8.7182901, 49.4043626 ], [ 8.7189532, 49.4045992 ], [ 8.7189852, 49.404812 ], [ 8.718819, 49.4050141 ], [ 8.7186625, 49.4049595 ] ] ] } },
{ "type": "Feature", "properties": { "index": "17", "@osmId": "node/267889561", "name": "City-Bad im DHC", "opening_hours": "Tu-Fr 07:00-14:00; Sa 11:30-17:30", "label": "Sports centres", "color": "#fc8d59" }, "geometry": { "type": "Point", "coordinates": [ 8.6943017, 49.4107642 ] } },
{ "type": "Feature", "properties": { "index": "18", "@osmId": "node/4044044529", "name": "Sporthalle Wilckensschule", "opening_hours": null, "label": "Sports centres", "color": "#fc8d59" }, "geometry": { "type": "Point", "coordinates": [ 8.6800565, 49.4086212 ] } },
{ "type": "Feature", "properties": { "index": "19", "@osmId": "node/277979892", "name": "Kieser Training", "opening_hours": "Mo-Fr 07:00-21:30, Sa-Su 09:00-19:00, PH 09:00-19:00", "label": "Fitness & gym centres", "color": "#fdbb84" }, "geometry": { "type": "Point", "coordinates": [ 8.6706659, 49.4094718 ] } },
{ "type": "Feature", "properties": { "index": "20", "@osmId": "node/1760812489", "name": "adhikara Yoga Studio", "opening_hours": null, "label": "Fitness & gym centres", "color": "#fdbb84" }, "geometry": { "type": "Point", "coordinates": [ 8.6908998, 49.405442 ] } },
{ "type": "Feature", "properties": { "index": "21", "@osmId": "node/2155015455", "name": "Villa Sportiva", "opening_hours": null, "label": "Fitness & gym centres", "color": "#fdbb84" }, "geometry": { "type": "Point", "coordinates": [ 8.6846825, 49.413269 ] } },
{ "type": "Feature", "properties": { "index": "22", "@osmId": "node/2432397910", "name": "VeniceBeach Supreme", "opening_hours": "Mo-Fr 06:00-23:00; Sa,Su,PH 08:00-22:30", "label": "Fitness & gym centres", "color": "#fdbb84" }, "geometry": { "type": "Point", "coordinates": [ 8.6918418, 49.408021 ] } },
{ "type": "Feature", "properties": { "index": "23", "@osmId": "node/2664299577", "name": "VeniceBeach", "opening_hours": "Mo,We,Fr 07:00-23:00; Tu,Th 06:30-23:00; Sa,Su 09:00-21:00", "label": "Fitness & gym centres", "color": "#fdbb84" }, "geometry": { "type": "Point", "coordinates": [ 8.6603336, 49.4056329 ] } },
{ "type": "Feature", "properties": { "index": "24", "@osmId": "node/3886810803", "name": "VeniceBeach Heidelberg Bahnstadt", "opening_hours": "24/7", "label": "Fitness & gym centres", "color": "#fdbb84" }, "geometry": { "type": "Point", "coordinates": [ 8.6760182, 49.3995516 ] } },
{ "type": "Feature", "properties": { "index": "25", "@osmId": "node/4043187301", "name": "Matcha Moves", "opening_hours": null, "label": "Fitness & gym centres", "color": "#fdbb84" }, "geometry": { "type": "Point", "coordinates": [ 8.6812676, 49.4077065 ] } },
{ "type": "Feature", "properties": { "index": "26", "@osmId": "node/4043868290", "name": "Yoga Vidya Heidelberg", "opening_hours": null, "label": "Fitness & gym centres", "color": "#fdbb84" }, "geometry": { "type": "Point", "coordinates": [ 8.6778391, 49.4065354 ] } },
{ "type": "Feature", "properties": { "index": "27", "@osmId": "node/4728941629", "name": "Unique Fitness Heidelberg", "opening_hours": null, "label": "Fitness & gym centres", "color": "#fdbb84" }, "geometry": { "type": "Point", "coordinates": [ 8.672957, 49.409467 ] } },
{ "type": "Feature", "properties": { "index": "28", "@osmId": "node/5119799022", "name": "in Touch Yoga", "opening_hours": null, "label": "Fitness & gym centres", "color": "#fdbb84" }, "geometry": { "type": "Point", "coordinates": [ 8.6884609, 49.4082865 ] } },
{ "type": "Feature", "properties": { "index": "29", "@osmId": "node/5159110623", "name": "Pilates Infused", "opening_hours": null, "label": "Fitness & gym centres", "color": "#fdbb84" }, "geometry": { "type": "Point", "coordinates": [ 8.6939587, 49.4101301 ] } },
{ "type": "Feature", "properties": { "index": "30", "@osmId": "node/7433455936", "name": "Yoga bliss & Pilates", "opening_hours": null, "label": "Fitness & gym centres", "color": "#fdbb84" }, "geometry": { "type": "Point", "coordinates": [ 8.7042457, 49.4094405 ] } },
{ "type": "Feature", "properties": { "index": "31", "@osmId": "node/10718025992", "name": "karafit & physio", "opening_hours": "Mo-Fr 08:00-20:00", "label": "Fitness & gym centres", "color": "#fdbb84" }, "geometry": { "type": "Point", "coordinates": [ 8.6654241, 49.4058043 ] } },
{ "type": "Feature", "properties": { "index": "32", "@osmId": "node/12070261675", "name": "kwikfit", "opening_hours": "Mo-Fr 08:00-21:00; Sa 09:00-14:00", "label": "Fitness & gym centres", "color": "#fdbb84" }, "geometry": { "type": "Point", "coordinates": [ 8.6848676, 49.4034637 ] } },
{ "type": "Feature", "properties": { "index": "33", "@osmId": "node/12084537007", "name": "Yoga-Zentrum-Heidelberg", "opening_hours": null, "label": "Fitness & gym centres", "color": "#fdbb84" }, "geometry": { "type": "Point", "coordinates": [ 8.6782585, 49.4070279 ] } },
{ "type": "Feature", "properties": { "index": "34", "@osmId": "node/12320268545", "name": "Yoga Susan Holze", "opening_hours": null, "label": "Fitness & gym centres", "color": "#fdbb84" }, "geometry": { "type": "Point", "coordinates": [ 8.6889699, 49.4039449 ] } },
{ "type": "Feature", "properties": { "index": "35", "@osmId": "node/12621398970", "name": "Yoga Praxis", "opening_hours": null, "label": "Fitness & gym centres", "color": "#fdbb84" }, "geometry": { "type": "Point", "coordinates": [ 8.6850645, 49.404257 ] } },
{ "type": "Feature", "properties": { "index": "36", "@osmId": "node/12621399824", "name": "True Yoga", "opening_hours": null, "label": "Fitness & gym centres", "color": "#fdbb84" }, "geometry": { "type": "Point", "coordinates": [ 8.6919505, 49.4156522 ] } },
{ "type": "Feature", "properties": { "index": "37", "@osmId": "node/12628383240", "name": "Basic-Fit", "opening_hours": "Mo-Fr 06:00-22:00; Sa, Su 06:00-19:00", "label": "Fitness & gym centres", "color": "#fdbb84" }, "geometry": { "type": "Point", "coordinates": [ 8.6946206, 49.4102952 ] } },
{ "type": "Feature", "properties": { "index": "38", "@osmId": "node/12784543116", "name": "Vita Fietz", "opening_hours": null, "label": "Fitness & gym centres", "color": "#fdbb84" }, "geometry": { "type": "Point", "coordinates": [ 8.6918372, 49.416414 ] } },
{ "type": "Feature", "properties": { "index": "39", "@osmId": "node/13289893128", "name": "soul studio", "opening_hours": null, "label": "Fitness & gym centres", "color": "#fdbb84" }, "geometry": { "type": "Point", "coordinates": [ 8.6699816, 49.4031746 ] } },
{ "type": "Feature", "properties": { "index": "40", "@osmId": "node/13628569199", "name": "SouldBody", "opening_hours": null, "label": "Fitness & gym centres", "color": "#fdbb84" }, "geometry": { "type": "Point", "coordinates": [ 8.7171567, 49.4137029 ] } },
{ "type": "Feature", "properties": { "index": "41", "@osmId": "node/13703155629", "name": "Core Heidelberg", "opening_hours": null, "label": "Fitness & gym centres", "color": "#fdbb84" }, "geometry": { "type": "Point", "coordinates": [ 8.6687387, 49.4034677 ] } }
]
}
