{
"type": "FeatureCollection",
"features": [
{ "type": "Feature", "properties": { "index": "0", "@osmId": "way/343107467", "name": "Mabwawa Saba", "opening_hours": null, "label": "Wastewater treatment plants", "color": "#8c6d31" }, "geometry": { "type": "Point", "coordinates": [ 39.2271194, -6.8111737 ] } },
{ "type": "Feature", "properties": { "index": "1", "@osmId": "way/878637341", "name": null, "opening_hours": null, "label": "Wastewater treatment plants", "color": "#8c6d31" }, "geometry": { "type": "Point", "coordinates": [ 39.2250138, -6.809848 ] } },
{ "type": "Feature", "properties": { "index": "2", "@osmId": "way/32708196", "name": "WSP", "opening_hours": null, "label": "Wastewater treatment plants", "color": "#8c6d31" }, "geometry": { "type": "Point", "coordinates": [ 39.2362586, -6.8368295 ] } },
{ "type": "Feature", "properties": { "index": "3", "@osmId": "way/32708199", "name": "WSP", "opening_hours": null, "label": "Wastewater treatment plants", "color": "#8c6d31" }, "geometry": { "type": "Point", "coordinates": [ 39.2358878, -6.8375458 ] } },
{ "type": "Feature", "properties": { "index": "4", "@osmId": "way/32708202", "name": "WSP", "opening_hours": null, "label": "Wastewater treatment plants", "color": "#8c6d31" }, "geometry": { "type": "Point", "coordinates": [ 39.2354715, -6.838279 ] } },
{ "type": "Feature", "properties": { "index": "5", "@osmId": "way/32708209", "name": "WSP", "opening_hours": null, "label": "Wastewater treatment plants", "color": "#8c6d31" }, "geometry": { "type": "Point", "coordinates": [ 39.235062, -6.8390255 ] } },
{ "type": "Feature", "properties": { "index": "6", "@osmId": "way/371923966", "name": null, "opening_hours": null, "label": "Wastewater treatment plants", "color": "#8c6d31" }, "geometry": { "type": "Point", "coordinates": [ 39.2364533, -6.8392563 ] } },
{ "type": "Feature", "properties": { "index": "7", "@osmId": "way/371923967", "name": null, "opening_hours": null, "label": "Wastewater treatment plants", "color": "#8c6d31" }, "geometry": { "type": "Point", "coordinates": [ 39.2359291, -6.8397132 ] } },
{ "type": "Feature", "properties": { "index": "8", "@osmId": "way/371923968", "name": null, "opening_hours": null, "label": "Wastewater treatment plants", "color": "#8c6d31" }, "geometry": { "type": "Point", "coordinates": [ 39.2366786, -6.8381078 ] } },
{ "type": "Feature", "properties": { "index": "9", "@osmId": "way/371923969", "name": null, "opening_hours": null, "label": "Wastewater treatment plants", "color": "#8c6d31" }, "geometry": { "type": "Point", "coordinates": [ 39.2362302, -6.8391384 ] } },
{ "type": "Feature", "properties": { "index": "10", "@osmId": "way/371923970", "name": null, "opening_hours": null, "label": "Wastewater treatment plants", "color": "#8c6d31" }, "geometry": { "type": "Point", "coordinates": [ 39.237, -6.8383855 ] } },
{ "type": "Feature", "properties": { "index": "11", "@osmId": "way/371923971", "name": null, "opening_hours": null, "label": "Wastewater treatment plants", "color": "#8c6d31" }, "geometry": { "type": "Point", "coordinates": [ 39.2367426, -6.8389245 ] } },
{ "type": "Feature", "properties": { "index": "12", "@osmId": "way/371923972", "name": null, "opening_hours": null, "label": "Wastewater treatment plants", "color": "#8c6d31" }, "geometry": { "type": "Point", "coordinates": [ 39.236342, -6.8386215 ] } },
{ "type": "Feature", "properties": { "index": "13", "@osmId": "way/371923973", "name": null, "opening_hours": null, "label": "Wastewater treatment plants", "color": "#8c6d31" }, "geometry": { "type": "Point", "coordinates": [ 39.2361855, -6.8399709 ] } },
{ "type": "Feature", "properties": { "index": "14", "@osmId": "way/349589210", "name": "WSP", "opening_hours": null, "label": "Wastewater treatment plants", "color": "#8c6d31" }, "geometry": { "type": "Point", "coordinates": [ 39.2443674, -6.8276477 ] } },
{ "type": "Feature", "properties": { "index": "15", "@osmId": "way/349589212", "name": "WSP", "opening_hours": null, "label": "Wastewater treatment plants", "color": "#8c6d31" }, "geometry": { "type": "Point", "coordinates": [ 39.2451769, -6.8267718 ] } },
{ "type": "Feature", "properties": { "index": "16", "@osmId": "way/349589944", "name": "WSP", "opening_hours": null, "label": "Wastewater treatment plants", "color": "#8c6d31" }, "geometry": { "type": "Point", "coordinates": [ 39.2457383, -6.8261706 ] } },
{ "type": "Feature", "properties": { "index": "17", "@osmId": "way/667388048", "name": "Mtambo wa kuchakata maji taka", "opening_hours": null, "label": "Wastewater treatment plants", "color": "#8c6d31" }, "geometry": { "type": "Point", "coordinates": [ 39.2437012, -6.8128313 ] } },
{ "type": "Feature", "properties": { "index": "18", "@osmId": "way/32756361", "name": "Mabwawa Saba", "opening_hours": null, "label": "Wastewater treatment plants", "color": "#8c6d31" }, "geometry": { "type": "Point", "coordinates": [ 39.22276, -6.8085768 ] } },
{ "type": "Feature", "properties": { "index": "19", "@osmId": "way/32756396", "name": "Mabwawa Saba", "opening_hours": null, "label": "Wastewater treatment plants", "color": "#8c6d31" }, "geometry": { "type": "Point", "coordinates": [ 39.2234519, -6.8090501 ] } },
{ "type": "Feature", "properties": { "index": "20", "@osmId": "way/343107464", "name": "Mabwawa Saba", "opening_hours": null, "label": "Wastewater treatment plants", "color": "#8c6d31" }, "geometry": { "type": "Point", "coordinates": [ 39.2242938, -6.8094704 ] } },
{ "type": "Feature", "properties": { "index": "21", "@osmId": "way/343107465", "name": "Mabwawa Saba", "opening_hours": null, "label": "Wastewater treatment plants", "color": "#8c6d31" }, "geometry": { "type": "Point", "coordinates": [ 39.225253, -6.8099321 ] } },
{ "type": "Feature", "properties": { "index": "22", "@osmId": "way/343107466", "name": "Mabwawa Saba", "opening_hours": null, "label": "Wastewater treatment plants", "color": "#8c6d31" }, "geometry": { "type": "Point", "coordinates": [ 39.2263622, -6.810514 ] } }
]
}
