{
"type": "FeatureCollection",
"features": [
{ "type": "Feature", "properties": { "index": "0", "label": "Within 300 m on foot", "color": "#2b8cbe" }, "geometry": { "type": "MultiPolygon", "coordinates": [ [ [ [ 39.2384439, -6.8414775 ], [ 39.2385807, -6.841249 ], [ 39.2386945, -6.8410082 ], [ 39.2387842, -6.8407574 ], [ 39.2388008, -6.8406909 ], [ 39.2388423, -6.8406451 ], [ 39.2390009, -6.8404311 ], [ 39.2391378, -6.8402026 ], [ 39.2392516, -6.8399618 ], [ 39.2393035, -6.8398168 ], [ 39.2393952, -6.8396636 ], [ 39.239509, -6.8394228 ], [ 39.2395987, -6.839172 ], [ 39.2396633, -6.8389136 ], [ 39.2397022, -6.8386502 ], [ 39.2397152, -6.8383842 ], [ 39.239702, -6.8381182 ], [ 39.2396628, -6.8378547 ], [ 39.2395979, -6.8375964 ], [ 39.239508, -6.8373457 ], [ 39.2393939, -6.837105 ], [ 39.2392568, -6.8368767 ], [ 39.239098, -6.8366629 ], [ 39.2389515, -6.8365015 ], [ 39.2389213, -6.8362988 ], [ 39.2388565, -6.8360404 ], [ 39.2387666, -6.8357897 ], [ 39.2386525, -6.8355491 ], [ 39.2385154, -6.8353207 ], [ 39.2383566, -6.8351069 ], [ 39.2381776, -6.8349096 ], [ 39.2379801, -6.8347309 ], [ 39.237766, -6.8345723 ], [ 39.2375373, -6.8344355 ], [ 39.2372964, -6.8343218 ], [ 39.2370455, -6.8342322 ], [ 39.236787, -6.8341676 ], [ 39.2365234, -6.8341287 ], [ 39.2362573, -6.8341157 ], [ 39.2359911, -6.8341289 ], [ 39.2357276, -6.8341681 ], [ 39.2354692, -6.834233 ], [ 39.2352183, -6.8343228 ], [ 39.2349775, -6.8344368 ], [ 39.234749, -6.8345738 ], [ 39.2345351, -6.8347326 ], [ 39.2343377, -6.8349115 ], [ 39.2341589, -6.8351089 ], [ 39.2340003, -6.8353229 ], [ 39.2338634, -6.8355514 ], [ 39.2337496, -6.8357922 ], [ 39.233691, -6.8359563 ], [ 39.2336295, -6.8360392 ], [ 39.2334926, -6.8362677 ], [ 39.2333788, -6.8365085 ], [ 39.2333509, -6.8365867 ], [ 39.2332132, -6.8367724 ], [ 39.2330763, -6.8370009 ], [ 39.2329625, -6.8372417 ], [ 39.232919, -6.8373633 ], [ 39.2328037, -6.8375189 ], [ 39.2326668, -6.8377474 ], [ 39.232553, -6.8379882 ], [ 39.2324633, -6.838239 ], [ 39.2323987, -6.8384974 ], [ 39.2323598, -6.8387608 ], [ 39.2323468, -6.8390268 ], [ 39.23236, -6.8392928 ], [ 39.2323992, -6.8395562 ], [ 39.2324641, -6.8398145 ], [ 39.232554, -6.8400652 ], [ 39.232668, -6.8403059 ], [ 39.2328051, -6.8405343 ], [ 39.232964, -6.8407481 ], [ 39.233143, -6.8409454 ], [ 39.2333405, -6.8411241 ], [ 39.2335546, -6.8412827 ], [ 39.2337832, -6.8414195 ], [ 39.2338409, -6.8414467 ], [ 39.2340101, -6.8416331 ], [ 39.234136, -6.841747 ], [ 39.2342665, -6.8418908 ], [ 39.234464, -6.8420695 ], [ 39.2346781, -6.8422281 ], [ 39.2349067, -6.8423649 ], [ 39.2351477, -6.8424786 ], [ 39.2353986, -6.8425682 ], [ 39.2356571, -6.8426328 ], [ 39.2359207, -6.8426717 ], [ 39.2361868, -6.8426847 ], [ 39.236453, -6.8426715 ], [ 39.2367165, -6.8426323 ], [ 39.236975, -6.8425674 ], [ 39.2372258, -6.8424776 ], [ 39.2374666, -6.8423636 ], [ 39.2376951, -6.8422266 ], [ 39.237909, -6.8420678 ], [ 39.2381064, -6.8418889 ], [ 39.2382852, -6.8416915 ], [ 39.2384439, -6.8414775 ] ] ], [ [ [ 39.2293776, -6.8126803 ], [ 39.2295145, -6.8124518 ], [ 39.2296283, -6.812211 ], [ 39.2297179, -6.8119602 ], [ 39.2297825, -6.8117019 ], [ 39.2298215, -6.8114384 ], [ 39.2298344, -6.8111724 ], [ 39.2298212, -6.8109064 ], [ 39.229782, -6.810643 ], [ 39.2297172, -6.8103847 ], [ 39.2296273, -6.810134 ], [ 39.2295132, -6.8098933 ], [ 39.2293762, -6.8096649 ], [ 39.2292173, -6.8094511 ], [ 39.2290383, -6.8092539 ], [ 39.2288408, -6.8090751 ], [ 39.2286267, -6.8089166 ], [ 39.2284942, -6.8088372 ], [ 39.2284601, -6.8087914 ], [ 39.2282811, -6.8085942 ], [ 39.2280836, -6.8084154 ], [ 39.2278695, -6.8082569 ], [ 39.2276409, -6.8081201 ], [ 39.2274, -6.8080063 ], [ 39.2271491, -6.8079167 ], [ 39.2270348, -6.8078881 ], [ 39.2269744, -6.8078335 ], [ 39.2267603, -6.807675 ], [ 39.2265317, -6.8075382 ], [ 39.2262908, -6.8074244 ], [ 39.2260399, -6.8073348 ], [ 39.2260276, -6.8073317 ], [ 39.2258991, -6.8072858 ], [ 39.2258011, -6.8072133 ], [ 39.2255725, -6.8070765 ], [ 39.2253316, -6.8069627 ], [ 39.2250807, -6.8068731 ], [ 39.2250607, -6.8068681 ], [ 39.2249592, -6.806793 ], [ 39.2247306, -6.8066562 ], [ 39.2246206, -6.8066042 ], [ 39.2244814, -6.8064782 ], [ 39.2242673, -6.8063197 ], [ 39.2240387, -6.8061829 ], [ 39.2237978, -6.8060691 ], [ 39.2235469, -6.8059795 ], [ 39.2232884, -6.8059149 ], [ 39.2230249, -6.805876 ], [ 39.2227587, -6.805863 ], [ 39.2224926, -6.8058762 ], [ 39.2222291, -6.8059154 ], [ 39.2219707, -6.8059802 ], [ 39.2217199, -6.8060701 ], [ 39.221479, -6.806184 ], [ 39.2212506, -6.8063211 ], [ 39.2210366, -6.8064798 ], [ 39.2208393, -6.8066587 ], [ 39.2206605, -6.8068562 ], [ 39.2205019, -6.8070701 ], [ 39.220365, -6.8072986 ], [ 39.2202512, -6.8075394 ], [ 39.2201615, -6.8077902 ], [ 39.2200969, -6.8080486 ], [ 39.2200579, -6.808312 ], [ 39.220045, -6.808578 ], [ 39.2200582, -6.808844 ], [ 39.2200974, -6.8091075 ], [ 39.2201622, -6.8093658 ], [ 39.2202521, -6.8096165 ], [ 39.2203661, -6.8098572 ], [ 39.2205032, -6.8100855 ], [ 39.220662, -6.8102994 ], [ 39.2208411, -6.8104966 ], [ 39.2210386, -6.8106754 ], [ 39.2212526, -6.8108339 ], [ 39.2214812, -6.8109707 ], [ 39.2215913, -6.8110227 ], [ 39.2217305, -6.8111487 ], [ 39.2219445, -6.8113072 ], [ 39.2221731, -6.811444 ], [ 39.2224141, -6.8115578 ], [ 39.222665, -6.8116474 ], [ 39.222685, -6.8116524 ], [ 39.2227865, -6.8117275 ], [ 39.223015, -6.8118643 ], [ 39.223256, -6.8119781 ], [ 39.2234084, -6.8120326 ], [ 39.2235065, -6.8121051 ], [ 39.2237351, -6.8122419 ], [ 39.223976, -6.8123557 ], [ 39.2242269, -6.8124453 ], [ 39.2242392, -6.8124484 ], [ 39.2244661, -6.8125294 ], [ 39.2245804, -6.812558 ], [ 39.2246408, -6.8126126 ], [ 39.2248549, -6.8127711 ], [ 39.2249874, -6.8128505 ], [ 39.2250214, -6.8128963 ], [ 39.2252005, -6.8130935 ], [ 39.225398, -6.8132723 ], [ 39.2256121, -6.8134308 ], [ 39.2258407, -6.8135676 ], [ 39.2260816, -6.8136814 ], [ 39.2263325, -6.813771 ], [ 39.226591, -6.8138356 ], [ 39.2268545, -6.8138745 ], [ 39.2271207, -6.8138875 ], [ 39.2273868, -6.8138743 ], [ 39.2276503, -6.8138351 ], [ 39.2279088, -6.8137703 ], [ 39.2281596, -6.8136804 ], [ 39.2284004, -6.8135664 ], [ 39.2286289, -6.8134294 ], [ 39.2288428, -6.8132707 ], [ 39.2290401, -6.8130917 ], [ 39.229219, -6.8128943 ], [ 39.2293776, -6.8126803 ] ] ], [ [ [ 39.245877, -6.8299034 ], [ 39.2460909, -6.8297446 ], [ 39.2462883, -6.8295657 ], [ 39.2464671, -6.8293682 ], [ 39.2466257, -6.8291542 ], [ 39.2467138, -6.8290072 ], [ 39.2469004, -6.8288687 ], [ 39.2470978, -6.8286898 ], [ 39.2472766, -6.8284923 ], [ 39.2474205, -6.8282981 ], [ 39.2474618, -6.8282675 ], [ 39.2476592, -6.8280886 ], [ 39.247838, -6.8278911 ], [ 39.2479966, -6.8276771 ], [ 39.2481335, -6.8274486 ], [ 39.2482473, -6.8272078 ], [ 39.2483369, -6.826957 ], [ 39.2484015, -6.8266987 ], [ 39.2484405, -6.8264352 ], [ 39.2484534, -6.8261692 ], [ 39.2484402, -6.8259032 ], [ 39.248401, -6.8256398 ], [ 39.2483361, -6.8253815 ], [ 39.2482462, -6.8251308 ], [ 39.2481322, -6.8248901 ], [ 39.2479951, -6.8246617 ], [ 39.2478362, -6.8244479 ], [ 39.2476572, -6.8242507 ], [ 39.2474597, -6.8240719 ], [ 39.2472456, -6.8239134 ], [ 39.247017, -6.8237766 ], [ 39.246776, -6.8236629 ], [ 39.2465251, -6.8235733 ], [ 39.2462666, -6.8235087 ], [ 39.246003, -6.8234697 ], [ 39.2457369, -6.8234568 ], [ 39.2454708, -6.82347 ], [ 39.2452073, -6.8235092 ], [ 39.2449488, -6.8235741 ], [ 39.244698, -6.8236639 ], [ 39.2444572, -6.8237779 ], [ 39.2442287, -6.8239149 ], [ 39.2440148, -6.8240737 ], [ 39.2438175, -6.8242526 ], [ 39.2436386, -6.8244501 ], [ 39.2434947, -6.8246442 ], [ 39.2434534, -6.8246749 ], [ 39.243256, -6.8248538 ], [ 39.2430772, -6.8250513 ], [ 39.2429186, -6.8252652 ], [ 39.2428305, -6.8254123 ], [ 39.2426439, -6.8255508 ], [ 39.2424465, -6.8257297 ], [ 39.2422677, -6.8259272 ], [ 39.2421091, -6.8261411 ], [ 39.2419722, -6.8263696 ], [ 39.2418584, -6.8266104 ], [ 39.2417688, -6.8268612 ], [ 39.2417042, -6.8271196 ], [ 39.2416652, -6.8273831 ], [ 39.2416523, -6.8276491 ], [ 39.2416655, -6.8279151 ], [ 39.2417047, -6.8281785 ], [ 39.2417696, -6.8284368 ], [ 39.2418595, -6.8286875 ], [ 39.2419735, -6.8289282 ], [ 39.2421106, -6.8291565 ], [ 39.2422694, -6.8293704 ], [ 39.2424485, -6.8295676 ], [ 39.242646, -6.8297464 ], [ 39.2428601, -6.8299049 ], [ 39.2430887, -6.8300417 ], [ 39.2433296, -6.8301554 ], [ 39.2435806, -6.830245 ], [ 39.2438391, -6.8303096 ], [ 39.2441026, -6.8303486 ], [ 39.2443688, -6.8303615 ], [ 39.2446349, -6.8303483 ], [ 39.2448984, -6.8303091 ], [ 39.2451569, -6.8302442 ], [ 39.2454077, -6.8301544 ], [ 39.2456485, -6.8300404 ], [ 39.245877, -6.8299034 ] ] ], [ [ [ 39.2458008, -6.8145518 ], [ 39.2459594, -6.8143379 ], [ 39.2460963, -6.8141094 ], [ 39.2462101, -6.8138685 ], [ 39.2462997, -6.8136178 ], [ 39.2463643, -6.8133594 ], [ 39.2464033, -6.8130959 ], [ 39.2464162, -6.8128299 ], [ 39.246403, -6.8125639 ], [ 39.2463638, -6.8123005 ], [ 39.2462989, -6.8120422 ], [ 39.246209, -6.8117915 ], [ 39.246095, -6.8115508 ], [ 39.2459579, -6.8113225 ], [ 39.2457991, -6.8111086 ], [ 39.24562, -6.8109114 ], [ 39.2454225, -6.8107326 ], [ 39.2452085, -6.8105741 ], [ 39.2449798, -6.8104373 ], [ 39.2447389, -6.8103236 ], [ 39.244488, -6.810234 ], [ 39.2442295, -6.8101694 ], [ 39.243966, -6.8101304 ], [ 39.2436998, -6.8101175 ], [ 39.2434337, -6.8101307 ], [ 39.2431702, -6.8101699 ], [ 39.2429118, -6.8102348 ], [ 39.2426609, -6.8103246 ], [ 39.2424201, -6.8104386 ], [ 39.2421917, -6.8105756 ], [ 39.2419777, -6.8107344 ], [ 39.2417804, -6.8109133 ], [ 39.2416016, -6.8111107 ], [ 39.241443, -6.8113247 ], [ 39.2413061, -6.8115532 ], [ 39.2411923, -6.811794 ], [ 39.2411027, -6.8120448 ], [ 39.2410381, -6.8123032 ], [ 39.2409991, -6.8125667 ], [ 39.2409862, -6.8128327 ], [ 39.2409994, -6.8130987 ], [ 39.2410386, -6.8133621 ], [ 39.2411035, -6.8136204 ], [ 39.2411933, -6.8138711 ], [ 39.2413074, -6.8141118 ], [ 39.2414445, -6.8143401 ], [ 39.2416033, -6.814554 ], [ 39.2417823, -6.8147512 ], [ 39.2419798, -6.81493 ], [ 39.2421939, -6.8150885 ], [ 39.2424225, -6.8152253 ], [ 39.2426635, -6.815339 ], [ 39.2429144, -6.8154286 ], [ 39.2431729, -6.8154932 ], [ 39.2434364, -6.8155322 ], [ 39.2437026, -6.8155451 ], [ 39.2439687, -6.8155319 ], [ 39.2442322, -6.8154927 ], [ 39.2444907, -6.8154278 ], [ 39.2447415, -6.815338 ], [ 39.2449823, -6.815224 ], [ 39.2452107, -6.815087 ], [ 39.2454247, -6.8149282 ], [ 39.245622, -6.8147493 ], [ 39.2458008, -6.8145518 ] ] ] ] } },
{ "type": "Feature", "properties": { "index": "1", "label": "Beyond 300 m", "color": "#d9d9d9" }, "geometry": { "type": "Polygon", "coordinates": [ [ [ 39.22, -6.78 ], [ 39.22, -6.85 ], [ 39.3, -6.85 ], [ 39.3, -6.78 ], [ 39.22, -6.78 ] ], [ [ 39.2387842, -6.8407574 ], [ 39.2386945, -6.8410082 ], [ 39.2385807, -6.841249 ], [ 39.2384439, -6.8414775 ], [ 39.2382852, -6.8416915 ], [ 39.2381064, -6.8418889 ], [ 39.237909, -6.8420678 ], [ 39.2376951, -6.8422266 ], [ 39.2374666, -6.8423636 ], [ 39.2372258, -6.8424776 ], [ 39.236975, -6.8425674 ], [ 39.2367165, -6.8426323 ], [ 39.236453, -6.8426715 ], [ 39.2361868, -6.8426847 ], [ 39.2359207, -6.8426717 ], [ 39.2356571, -6.8426328 ], [ 39.2353986, -6.8425682 ], [ 39.2351477, -6.8424786 ], [ 39.2349067, -6.8423649 ], [ 39.2346781, -6.8422281 ], [ 39.234464, -6.8420695 ], [ 39.2342665, -6.8418908 ], [ 39.234136, -6.841747 ], [ 39.2340101, -6.8416331 ], [ 39.2338409, -6.8414467 ], [ 39.2337832, -6.8414195 ], [ 39.2335546, -6.8412827 ], [ 39.2333405, -6.8411241 ], [ 39.233143, -6.8409454 ], [ 39.232964, -6.8407481 ], [ 39.2328051, -6.8405343 ], [ 39.232668, -6.8403059 ], [ 39.232554, -6.8400652 ], [ 39.2324641, -6.8398145 ], [ 39.2323992, -6.8395562 ], [ 39.23236, -6.8392928 ], [ 39.2323468, -6.8390268 ], [ 39.2323598, -6.8387608 ], [ 39.2323987, -6.8384974 ], [ 39.2324633, -6.838239 ], [ 39.232553, -6.8379882 ], [ 39.2326668, -6.8377474 ], [ 39.2328037, -6.8375189 ], [ 39.232919, -6.8373633 ], [ 39.2329625, -6.8372417 ], [ 39.2330763, -6.8370009 ], [ 39.2332132, -6.8367724 ], [ 39.2333509, -6.8365867 ], [ 39.2333788, -6.8365085 ], [ 39.2334926, -6.8362677 ], [ 39.2336295, -6.8360392 ], [ 39.233691, -6.8359563 ], [ 39.2337496, -6.8357922 ], [ 39.2338634, -6.8355514 ], [ 39.2340003, -6.8353229 ], [ 39.2341589, -6.8351089 ], [ 39.2343377, -6.8349115 ], [ 39.2345351, -6.8347326 ], [ 39.234749, -6.8345738 ], [ 39.2349775, -6.8344368 ], [ 39.2352183, -6.8343228 ], [ 39.2354692, -6.834233 ], [ 39.2357276, -6.8341681 ], [ 39.2359911, -6.8341289 ], [ 39.2362573, -6.8341157 ], [ 39.2365234, -6.8341287 ], [ 39.236787, -6.8341676 ], [ 39.2370455, -6.8342322 ], [ 39.2372964, -6.8343218 ], [ 39.2375373, -6.8344355 ], [ 39.237766, -6.8345723 ], [ 39.2379801, -6.8347309 ], [ 39.2381776, -6.8349096 ], [ 39.2383566, -6.8351069 ], [ 39.2385154, -6.8353207 ], [ 39.2386525, -6.8355491 ], [ 39.2387666, -6.8357897 ], [ 39.2388565, -6.8360404 ], [ 39.2389213, -6.8362988 ], [ 39.2389515, -6.8365015 ], [ 39.239098, -6.8366629 ], [ 39.2392568, -6.8368767 ], [ 39.2393939, -6.837105 ], [ 39.239508, -6.8373457 ], [ 39.2395979, -6.8375964 ], [ 39.2396628, -6.8378547 ], [ 39.239702, -6.8381182 ], [ 39.2397152, -6.8383842 ], [ 39.2397022, -6.8386502 ], [ 39.2396633, -6.8389136 ], [ 39.2395987, -6.839172 ], [ 39.239509, -6.8394228 ], [ 39.2393952, -6.8396636 ], [ 39.2393035, -6.8398168 ], [ 39.2392516, -6.8399618 ], [ 39.2391378, -6.8402026 ], [ 39.2390009, -6.8404311 ], [ 39.2388423, -6.8406451 ], [ 39.2388008, -6.8406909 ], [ 39.2387842, -6.8407574 ] ], [ [ 39.2297179, -6.8119602 ], [ 39.2296283, -6.812211 ], [ 39.2295145, -6.8124518 ], [ 39.2293776, -6.8126803 ], [ 39.229219, -6.8128943 ], [ 39.2290401, -6.8130917 ], [ 39.2288428, -6.8132707 ], [ 39.2286289, -6.8134294 ], [ 39.2284004, -6.8135664 ], [ 39.2281596, -6.8136804 ], [ 39.2279088, -6.8137703 ], [ 39.2276503, -6.8138351 ], [ 39.2273868, -6.8138743 ], [ 39.2271207, -6.8138875 ], [ 39.2268545, -6.8138745 ], [ 39.226591, -6.8138356 ], [ 39.2263325, -6.813771 ], [ 39.2260816, -6.8136814 ], [ 39.2258407, -6.8135676 ], [ 39.2256121, -6.8134308 ], [ 39.225398, -6.8132723 ], [ 39.2252005, -6.8130935 ], [ 39.2250214, -6.8128963 ], [ 39.2249874, -6.8128505 ], [ 39.2248549, -6.8127711 ], [ 39.2246408, -6.8126126 ], [ 39.2245804, -6.812558 ], [ 39.2244661, -6.8125294 ], [ 39.2242392, -6.8124484 ], [ 39.2242269, -6.8124453 ], [ 39.223976, -6.8123557 ], [ 39.2237351, -6.8122419 ], [ 39.2235065, -6.8121051 ], [ 39.2234084, -6.8120326 ], [ 39.223256, -6.8119781 ], [ 39.223015, -6.8118643 ], [ 39.2227865, -6.8117275 ], [ 39.222685, -6.8116524 ], [ 39.222665, -6.8116474 ], [ 39.2224141, -6.8115578 ], [ 39.2221731, -6.811444 ], [ 39.2219445, -6.8113072 ], [ 39.2217305, -6.8111487 ], [ 39.2215913, -6.8110227 ], [ 39.2214812, -6.8109707 ], [ 39.2212526, -6.8108339 ], [ 39.2210386, -6.8106754 ], [ 39.2208411, -6.8104966 ], [ 39.220662, -6.8102994 ], [ 39.2205032, -6.8100855 ], [ 39.2203661, -6.8098572 ], [ 39.2202521, -6.8096165 ], [ 39.2201622, -6.8093658 ], [ 39.2200974, -6.8091075 ], [ 39.2200582, -6.808844 ], [ 39.220045, -6.808578 ], [ 39.2200579, -6.808312 ], [ 39.2200969, -6.8080486 ], [ 39.2201615, -6.8077902 ], [ 39.2202512, -6.8075394 ], [ 39.220365, -6.8072986 ], [ 39.2205019, -6.8070701 ], [ 39.2206605, -6.8068562 ], [ 39.2208393, -6.8066587 ], [ 39.2210366, -6.8064798 ], [ 39.2212506, -6.8063211 ], [ 39.221479, -6.806184 ], [ 39.2217199, -6.8060701 ], [ 39.2219707, -6.8059802 ], [ 39.2222291, -6.8059154 ], [ 39.2224926, -6.8058762 ], [ 39.2227587, -6.805863 ], [ 39.2230249, -6.805876 ], [ 39.2232884, -6.8059149 ], [ 39.2235469, -6.8059795 ], [ 39.2237978, -6.8060691 ], [ 39.2240387, -6.8061829 ], [ 39.2242673, -6.8063197 ], [ 39.2244814, -6.8064782 ], [ 39.2246206, -6.8066042 ], [ 39.2247306, -6.8066562 ], [ 39.2249592, -6.806793 ], [ 39.2250607, -6.8068681 ], [ 39.2250807, -6.8068731 ], [ 39.2253316, -6.8069627 ], [ 39.2255725, -6.8070765 ], [ 39.2258011, -6.8072133 ], [ 39.2258991, -6.8072858 ], [ 39.2260276, -6.8073317 ], [ 39.2260399, -6.8073348 ], [ 39.2262908, -6.8074244 ], [ 39.2265317, -6.8075382 ], [ 39.2267603, -6.807675 ], [ 39.2269744, -6.8078335 ], [ 39.2270348, -6.8078881 ], [ 39.2271491, -6.8079167 ], [ 39.2274, -6.8080063 ], [ 39.2276409, -6.8081201 ], [ 39.2278695, -6.8082569 ], [ 39.2280836, -6.8084154 ], [ 39.2282811, -6.8085942 ], [ 39.2284601, -6.8087914 ], [ 39.2284942, -6.8088372 ], [ 39.2286267, -6.8089166 ], [ 39.2288408, -6.8090751 ], [ 39.2290383, -6.8092539 ], [ 39.2292173, -6.8094511 ], [ 39.2293762, -6.8096649 ], [ 39.2295132, -6.8098933 ], [ 39.2296273, -6.810134 ], [ 39.2297172, -6.8103847 ], [ 39.229782, -6.810643 ], [ 39.2298212, -6.8109064 ], [ 39.2298344, -6.8111724 ], [ 39.2298215, -6.8114384 ], [ 39.2297825, -6.8117019 ], [ 39.2297179, -6.8119602 ] ], [ [ 39.2464671, -6.8293682 ], [ 39.2462883, -6.8295657 ], [ 39.2460909, -6.8297446 ], [ 39.245877, -6.8299034 ], [ 39.2456485, -6.8300404 ], [ 39.2454077, -6.8301544 ], [ 39.2451569, -6.8302442 ], [ 39.2448984, -6.8303091 ], [ 39.2446349, -6.8303483 ], [ 39.2443688, -6.8303615 ], [ 39.2441026, -6.8303486 ], [ 39.2438391, -6.8303096 ], [ 39.2435806, -6.830245 ], [ 39.2433296, -6.8301554 ], [ 39.2430887, -6.8300417 ], [ 39.2428601, -6.8299049 ], [ 39.242646, -6.8297464 ], [ 39.2424485, -6.8295676 ], [ 39.2422694, -6.8293704 ], [ 39.2421106, -6.8291565 ], [ 39.2419735, -6.8289282 ], [ 39.2418595, -6.8286875 ], [ 39.2417696, -6.8284368 ], [ 39.2417047, -6.8281785 ], [ 39.2416655, -6.8279151 ], [ 39.2416523, -6.8276491 ], [ 39.2416652, -6.8273831 ], [ 39.2417042, -6.8271196 ], [ 39.2417688, -6.8268612 ], [ 39.2418584, -6.8266104 ], [ 39.2419722, -6.8263696 ], [ 39.2421091, -6.8261411 ], [ 39.2422677, -6.8259272 ], [ 39.2424465, -6.8257297 ], [ 39.2426439, -6.8255508 ], [ 39.2428305, -6.8254123 ], [ 39.2429186, -6.8252652 ], [ 39.2430772, -6.8250513 ], [ 39.243256, -6.8248538 ], [ 39.2434534, -6.8246749 ], [ 39.2434947, -6.8246442 ], [ 39.2436386, -6.8244501 ], [ 39.2438175, -6.8242526 ], [ 39.2440148, -6.8240737 ], [ 39.2442287, -6.8239149 ], [ 39.2444572, -6.8237779 ], [ 39.244698, -6.8236639 ], [ 39.2449488, -6.8235741 ], [ 39.2452073, -6.8235092 ], [ 39.2454708, -6.82347 ], [ 39.2457369, -6.8234568 ], [ 39.246003, -6.8234697 ], [ 39.2462666, -6.8235087 ], [ 39.2465251, -6.8235733 ], [ 39.246776, -6.8236629 ], [ 39.247017, -6.8237766 ], [ 39.2472456, -6.8239134 ], [ 39.2474597, -6.8240719 ], [ 39.2476572, -6.8242507 ], [ 39.2478362, -6.8244479 ], [ 39.2479951, -6.8246617 ], [ 39.2481322, -6.8248901 ], [ 39.2482462, -6.8251308 ], [ 39.2483361, -6.8253815 ], [ 39.248401, -6.8256398 ], [ 39.2484402, -6.8259032 ], [ 39.2484534, -6.8261692 ], [ 39.2484405, -6.8264352 ], [ 39.2484015, -6.8266987 ], [ 39.2483369, -6.826957 ], [ 39.2482473, -6.8272078 ], [ 39.2481335, -6.8274486 ], [ 39.2479966, -6.8276771 ], [ 39.247838, -6.8278911 ], [ 39.2476592, -6.8280886 ], [ 39.2474618, -6.8282675 ], [ 39.2474205, -6.8282981 ], [ 39.2472766, -6.8284923 ], [ 39.2470978, -6.8286898 ], [ 39.2469004, -6.8288687 ], [ 39.2467138, -6.8290072 ], [ 39.2466257, -6.8291542 ], [ 39.2464671, -6.8293682 ] ], [ [ 39.2462101, -6.8138685 ], [ 39.2460963, -6.8141094 ], [ 39.2459594, -6.8143379 ], [ 39.2458008, -6.8145518 ], [ 39.245622, -6.8147493 ], [ 39.2454247, -6.8149282 ], [ 39.2452107, -6.815087 ], [ 39.2449823, -6.815224 ], [ 39.2447415, -6.815338 ], [ 39.2444907, -6.8154278 ], [ 39.2442322, -6.8154927 ], [ 39.2439687, -6.8155319 ], [ 39.2437026, -6.8155451 ], [ 39.2434364, -6.8155322 ], [ 39.2431729, -6.8154932 ], [ 39.2429144, -6.8154286 ], [ 39.2426635, -6.815339 ], [ 39.2424225, -6.8152253 ], [ 39.2421939, -6.8150885 ], [ 39.2419798, -6.81493 ], [ 39.2417823, -6.8147512 ], [ 39.2416033, -6.814554 ], [ 39.2414445, -6.8143401 ], [ 39.2413074, -6.8141118 ], [ 39.2411933, -6.8138711 ], [ 39.2411035, -6.8136204 ], [ 39.2410386, -6.8133621 ], [ 39.2409994, -6.8130987 ], [ 39.2409862, -6.8128327 ], [ 39.2409991, -6.8125667 ], [ 39.2410381, -6.8123032 ], [ 39.2411027, -6.8120448 ], [ 39.2411923, -6.811794 ], [ 39.2413061, -6.8115532 ], [ 39.241443, -6.8113247 ], [ 39.2416016, -6.8111107 ], [ 39.2417804, -6.8109133 ], [ 39.2419777, -6.8107344 ], [ 39.2421917, -6.8105756 ], [ 39.2424201, -6.8104386 ], [ 39.2426609, -6.8103246 ], [ 39.2429118, -6.8102348 ], [ 39.2431702, -6.8101699 ], [ 39.2434337, -6.8101307 ], [ 39.2436998, -6.8101175 ], [ 39.243966, -6.8101304 ], [ 39.2442295, -6.8101694 ], [ 39.244488, -6.810234 ], [ 39.2447389, -6.8103236 ], [ 39.2449798, -6.8104373 ], [ 39.2452085, -6.8105741 ], [ 39.2454225, -6.8107326 ], [ 39.24562, -6.8109114 ], [ 39.2457991, -6.8111086 ], [ 39.2459579, -6.8113225 ], [ 39.246095, -6.8115508 ], [ 39.246209, -6.8117915 ], [ 39.2462989, -6.8120422 ], [ 39.2463638, -6.8123005 ], [ 39.246403, -6.8125639 ], [ 39.2464162, -6.8128299 ], [ 39.2464033, -6.8130959 ], [ 39.2463643, -6.8133594 ], [ 39.2462997, -6.8136178 ], [ 39.2462101, -6.8138685 ] ] ] } }
]
}
