{
"type": "FeatureCollection",
"features": [
{ "type": "Feature", "properties": { "index": "0", "last_edit_year": 2020, "years_since_edit": 6, "label": "6.0–8.0 yr", "color": "#67a9cf" }, "geometry": { "type": "Point", "coordinates": [ 39.2271194, -6.8111737 ] } },
{ "type": "Feature", "properties": { "index": "1", "last_edit_year": 2020, "years_since_edit": 6, "label": "6.0–8.0 yr", "color": "#67a9cf" }, "geometry": { "type": "Point", "coordinates": [ 39.2250138, -6.809848 ] } },
{ "type": "Feature", "properties": { "index": "2", "last_edit_year": 2018, "years_since_edit": 8, "label": "8.0–11.0 yr", "color": "#016c59" }, "geometry": { "type": "Point", "coordinates": [ 39.2443674, -6.8276477 ] } },
{ "type": "Feature", "properties": { "index": "3", "last_edit_year": 2018, "years_since_edit": 8, "label": "8.0–11.0 yr", "color": "#016c59" }, "geometry": { "type": "Point", "coordinates": [ 39.2451769, -6.8267718 ] } },
{ "type": "Feature", "properties": { "index": "4", "last_edit_year": 2018, "years_since_edit": 8, "label": "8.0–11.0 yr", "color": "#016c59" }, "geometry": { "type": "Point", "coordinates": [ 39.2457383, -6.8261706 ] } },
{ "type": "Feature", "properties": { "index": "5", "last_edit_year": 2020, "years_since_edit": 6, "label": "6.0–8.0 yr", "color": "#67a9cf" }, "geometry": { "type": "Point", "coordinates": [ 39.2437012, -6.8128313 ] } },
{ "type": "Feature", "properties": { "index": "6", "last_edit_year": 2025, "years_since_edit": 1, "label": "1.0–6.0 yr", "color": "#f6eff7" }, "geometry": { "type": "Point", "coordinates": [ 39.2362586, -6.8368295 ] } },
{ "type": "Feature", "properties": { "index": "7", "last_edit_year": 2015, "years_since_edit": 11, "label": "8.0–11.0 yr", "color": "#016c59" }, "geometry": { "type": "Point", "coordinates": [ 39.2358878, -6.8375458 ] } },
{ "type": "Feature", "properties": { "index": "8", "last_edit_year": 2015, "years_since_edit": 11, "label": "8.0–11.0 yr", "color": "#016c59" }, "geometry": { "type": "Point", "coordinates": [ 39.2354715, -6.838279 ] } },
{ "type": "Feature", "properties": { "index": "9", "last_edit_year": 2015, "years_since_edit": 11, "label": "8.0–11.0 yr", "color": "#016c59" }, "geometry": { "type": "Point", "coordinates": [ 39.235062, -6.8390255 ] } },
{ "type": "Feature", "properties": { "index": "10", "last_edit_year": 2015, "years_since_edit": 11, "label": "8.0–11.0 yr", "color": "#016c59" }, "geometry": { "type": "Point", "coordinates": [ 39.2364533, -6.8392563 ] } },
{ "type": "Feature", "properties": { "index": "11", "last_edit_year": 2015, "years_since_edit": 11, "label": "8.0–11.0 yr", "color": "#016c59" }, "geometry": { "type": "Point", "coordinates": [ 39.2359291, -6.8397132 ] } },
{ "type": "Feature", "properties": { "index": "12", "last_edit_year": 2015, "years_since_edit": 11, "label": "8.0–11.0 yr", "color": "#016c59" }, "geometry": { "type": "Point", "coordinates": [ 39.2366786, -6.8381078 ] } },
{ "type": "Feature", "properties": { "index": "13", "last_edit_year": 2015, "years_since_edit": 11, "label": "8.0–11.0 yr", "color": "#016c59" }, "geometry": { "type": "Point", "coordinates": [ 39.2362302, -6.8391384 ] } },
{ "type": "Feature", "properties": { "index": "14", "last_edit_year": 2015, "years_since_edit": 11, "label": "8.0–11.0 yr", "color": "#016c59" }, "geometry": { "type": "Point", "coordinates": [ 39.237, -6.8383855 ] } },
{ "type": "Feature", "properties": { "index": "15", "last_edit_year": 2025, "years_since_edit": 1, "label": "1.0–6.0 yr", "color": "#f6eff7" }, "geometry": { "type": "Point", "coordinates": [ 39.2367426, -6.8389245 ] } },
{ "type": "Feature", "properties": { "index": "16", "last_edit_year": 2017, "years_since_edit": 9, "label": "8.0–11.0 yr", "color": "#016c59" }, "geometry": { "type": "Point", "coordinates": [ 39.236342, -6.8386215 ] } },
{ "type": "Feature", "properties": { "index": "17", "last_edit_year": 2015, "years_since_edit": 11, "label": "8.0–11.0 yr", "color": "#016c59" }, "geometry": { "type": "Point", "coordinates": [ 39.2361855, -6.8399709 ] } },
{ "type": "Feature", "properties": { "index": "18", "last_edit_year": 2024, "years_since_edit": 2, "label": "1.0–6.0 yr", "color": "#f6eff7" }, "geometry": { "type": "Point", "coordinates": [ 39.22276, -6.8085768 ] } },
{ "type": "Feature", "properties": { "index": "19", "last_edit_year": 2024, "years_since_edit": 2, "label": "1.0–6.0 yr", "color": "#f6eff7" }, "geometry": { "type": "Point", "coordinates": [ 39.2234519, -6.8090501 ] } },
{ "type": "Feature", "properties": { "index": "20", "last_edit_year": 2015, "years_since_edit": 11, "label": "8.0–11.0 yr", "color": "#016c59" }, "geometry": { "type": "Point", "coordinates": [ 39.2242938, -6.8094704 ] } },
{ "type": "Feature", "properties": { "index": "21", "last_edit_year": 2015, "years_since_edit": 11, "label": "8.0–11.0 yr", "color": "#016c59" }, "geometry": { "type": "Point", "coordinates": [ 39.225253, -6.8099321 ] } },
{ "type": "Feature", "properties": { "index": "22", "last_edit_year": 2020, "years_since_edit": 6, "label": "6.0–8.0 yr", "color": "#67a9cf" }, "geometry": { "type": "Point", "coordinates": [ 39.2263622, -6.810514 ] } }
]
}
