{
"type": "FeatureCollection",
"features": [
{ "type": "Feature", "properties": { "index": "0", "@osmId": "way/343107467", "name": "Mabwawa Saba", "opening_hours": null, "label": "Wastewater treatment plants", "color": "#8c6d31" }, "geometry": { "type": "Polygon", "coordinates": [ [ [ 39.2270397, -6.8107304 ], [ 39.2267806, -6.8111871 ], [ 39.2271338, -6.8115004 ], [ 39.2272654, -6.8115222 ], [ 39.227345, -6.8114599 ], [ 39.2274483, -6.8112408 ], [ 39.2270397, -6.8107304 ] ] ] } },
{ "type": "Feature", "properties": { "index": "1", "@osmId": "way/878637341", "name": null, "opening_hours": null, "label": "Wastewater treatment plants", "color": "#8c6d31" }, "geometry": { "type": "Polygon", "coordinates": [ [ [ 39.2265075, -6.8110169 ], [ 39.2266765, -6.8112699 ], [ 39.2271915, -6.8116348 ], [ 39.2274088, -6.8116135 ], [ 39.2275053, -6.8114297 ], [ 39.2275375, -6.8112673 ], [ 39.2270467, -6.810439 ], [ 39.2248097, -6.8094216 ], [ 39.2235008, -6.8086546 ], [ 39.2231977, -6.808612 ], [ 39.2228758, -6.8082737 ], [ 39.2226022, -6.8081672 ], [ 39.2223608, -6.8081805 ], [ 39.2221919, -6.8085481 ], [ 39.2230716, -6.8092299 ], [ 39.2246166, -6.8098983 ], [ 39.2248285, -6.8099596 ], [ 39.2265075, -6.8110169 ] ] ] } },
{ "type": "Feature", "properties": { "index": "2", "@osmId": "way/32708196", "name": "WSP", "opening_hours": null, "label": "Wastewater treatment plants", "color": "#8c6d31" }, "geometry": { "type": "Polygon", "coordinates": [ [ [ 39.2362749, -6.8362268 ], [ 39.2360144, -6.8357432 ], [ 39.2356728, -6.8364616 ], [ 39.2365015, -6.8378577 ], [ 39.2368687, -6.8373294 ], [ 39.2362749, -6.8362268 ] ] ] } },
{ "type": "Feature", "properties": { "index": "3", "@osmId": "way/32708199", "name": "WSP", "opening_hours": null, "label": "Wastewater treatment plants", "color": "#8c6d31" }, "geometry": { "type": "Polygon", "coordinates": [ [ [ 39.2364901, -6.8379146 ], [ 39.2356606, -6.8365327 ], [ 39.23532, -6.8372731 ], [ 39.2360733, -6.8384974 ], [ 39.2364901, -6.8379146 ] ] ] } },
{ "type": "Feature", "properties": { "index": "4", "@osmId": "way/32708202", "name": "WSP", "opening_hours": null, "label": "Wastewater treatment plants", "color": "#8c6d31" }, "geometry": { "type": "Polygon", "coordinates": [ [ [ 39.2360452, -6.8385319 ], [ 39.2352924, -6.8373353 ], [ 39.23493, -6.8381637 ], [ 39.2356232, -6.8391503 ], [ 39.2360452, -6.8385319 ] ] ] } },
{ "type": "Feature", "properties": { "index": "5", "@osmId": "way/32708209", "name": "WSP", "opening_hours": null, "label": "Wastewater treatment plants", "color": "#8c6d31" }, "geometry": { "type": "Polygon", "coordinates": [ [ [ 39.235607, -6.8392012 ], [ 39.2349075, -6.8382111 ], [ 39.2345368, -6.8390004 ], [ 39.2351586, -6.839698 ], [ 39.2352152, -6.8397491 ], [ 39.235282, -6.8396853 ], [ 39.235607, -6.8392012 ] ] ] } },
{ "type": "Feature", "properties": { "index": "6", "@osmId": "way/371923966", "name": null, "opening_hours": null, "label": "Wastewater treatment plants", "color": "#8c6d31" }, "geometry": { "type": "Polygon", "coordinates": [ [ [ 39.2366372, -6.8391695 ], [ 39.236473, -6.8390597 ], [ 39.236273, -6.8393581 ], [ 39.2364227, -6.8394502 ], [ 39.2366372, -6.8391695 ] ] ] } },
{ "type": "Feature", "properties": { "index": "7", "@osmId": "way/371923967", "name": null, "opening_hours": null, "label": "Wastewater treatment plants", "color": "#8c6d31" }, "geometry": { "type": "Polygon", "coordinates": [ [ [ 39.2362966, -6.839576 ], [ 39.2360857, -6.839338 ], [ 39.2355562, -6.8398676 ], [ 39.2357718, -6.840081 ], [ 39.2362966, -6.839576 ] ] ] } },
{ "type": "Feature", "properties": { "index": "8", "@osmId": "way/371923968", "name": null, "opening_hours": null, "label": "Wastewater treatment plants", "color": "#8c6d31" }, "geometry": { "type": "Polygon", "coordinates": [ [ [ 39.2370397, -6.8379199 ], [ 39.2367748, -6.8376292 ], [ 39.2362994, -6.8383394 ], [ 39.2366087, -6.8385548 ], [ 39.2370397, -6.8379199 ] ] ] } },
{ "type": "Feature", "properties": { "index": "9", "@osmId": "way/371923969", "name": null, "opening_hours": null, "label": "Wastewater treatment plants", "color": "#8c6d31" }, "geometry": { "type": "Polygon", "coordinates": [ [ [ 39.2364221, -6.8390466 ], [ 39.2362433, -6.8389345 ], [ 39.236041, -6.8392363 ], [ 39.2362109, -6.8393417 ], [ 39.2364221, -6.8390466 ] ] ] } },
{ "type": "Feature", "properties": { "index": "10", "@osmId": "way/371923970", "name": null, "opening_hours": null, "label": "Wastewater treatment plants", "color": "#8c6d31" }, "geometry": { "type": "Polygon", "coordinates": [ [ [ 39.2373511, -6.8381633 ], [ 39.23708, -6.8379606 ], [ 39.2366425, -6.8386047 ], [ 39.2369346, -6.8388047 ], [ 39.2373511, -6.8381633 ] ] ] } },
{ "type": "Feature", "properties": { "index": "11", "@osmId": "way/371923971", "name": null, "opening_hours": null, "label": "Wastewater treatment plants", "color": "#8c6d31" }, "geometry": { "type": "Polygon", "coordinates": [ [ [ 39.2370359, -6.8389371 ], [ 39.2366194, -6.8386599 ], [ 39.2364493, -6.8389119 ], [ 39.2368658, -6.839189 ], [ 39.2370359, -6.8389371 ] ] ] } },
{ "type": "Feature", "properties": { "index": "12", "@osmId": "way/371923972", "name": null, "opening_hours": null, "label": "Wastewater treatment plants", "color": "#8c6d31" }, "geometry": { "type": "Polygon", "coordinates": [ [ [ 39.2365963, -6.8386172 ], [ 39.2362636, -6.8383813 ], [ 39.2360877, -6.8386259 ], [ 39.2364204, -6.8388618 ], [ 39.2365963, -6.8386172 ] ] ] } },
{ "type": "Feature", "properties": { "index": "13", "@osmId": "way/371923973", "name": null, "opening_hours": null, "label": "Wastewater treatment plants", "color": "#8c6d31" }, "geometry": { "type": "Polygon", "coordinates": [ [ [ 39.2365507, -6.8397767 ], [ 39.2363801, -6.8395877 ], [ 39.2358574, -6.840056 ], [ 39.2358167, -6.8401023 ], [ 39.2359657, -6.8403094 ], [ 39.2360283, -6.8403515 ], [ 39.2365043, -6.8398678 ], [ 39.2365507, -6.8397767 ] ] ] } },
{ "type": "Feature", "properties": { "index": "14", "@osmId": "way/349589210", "name": "WSP", "opening_hours": null, "label": "Wastewater treatment plants", "color": "#8c6d31" }, "geometry": { "type": "Polygon", "coordinates": [ [ [ 39.2439373, -6.8284865 ], [ 39.2440427, -6.8285066 ], [ 39.2450579, -6.8274988 ], [ 39.2446927, -6.8266909 ], [ 39.2436677, -6.8279209 ], [ 39.2439373, -6.8284865 ] ] ] } },
{ "type": "Feature", "properties": { "index": "15", "@osmId": "way/349589212", "name": "WSP", "opening_hours": null, "label": "Wastewater treatment plants", "color": "#8c6d31" }, "geometry": { "type": "Polygon", "coordinates": [ [ [ 39.2447287, -6.8266505 ], [ 39.2450976, -6.8274633 ], [ 39.2456328, -6.826933 ], [ 39.2452355, -6.8260551 ], [ 39.2447287, -6.8266505 ] ] ] } },
{ "type": "Feature", "properties": { "index": "16", "@osmId": "way/349589944", "name": "WSP", "opening_hours": null, "label": "Wastewater treatment plants", "color": "#8c6d31" }, "geometry": { "type": "Polygon", "coordinates": [ [ [ 39.2452773, -6.8260149 ], [ 39.2456761, -6.8268925 ], [ 39.2462054, -6.8263704 ], [ 39.2457837, -6.8254214 ], [ 39.2452773, -6.8260149 ] ] ] } },
{ "type": "Feature", "properties": { "index": "17", "@osmId": "way/667388048", "name": "Mtambo wa kuchakata maji taka", "opening_hours": null, "label": "Wastewater treatment plants", "color": "#8c6d31" }, "geometry": { "type": "Polygon", "coordinates": [ [ [ 39.2437638, -6.8127951 ], [ 39.2436288, -6.8128271 ], [ 39.2436385, -6.8128674 ], [ 39.2437735, -6.8128355 ], [ 39.2437638, -6.8127951 ] ] ] } },
{ "type": "Feature", "properties": { "index": "18", "@osmId": "way/32756361", "name": "Mabwawa Saba", "opening_hours": null, "label": "Wastewater treatment plants", "color": "#8c6d31" }, "geometry": { "type": "Polygon", "coordinates": [ [ [ 39.2230781, -6.808671 ], [ 39.2226788, -6.8082643 ], [ 39.2224388, -6.8084815 ], [ 39.2228476, -6.8088912 ], [ 39.2230781, -6.808671 ] ] ] } },
{ "type": "Feature", "properties": { "index": "19", "@osmId": "way/32756396", "name": "Mabwawa Saba", "opening_hours": null, "label": "Wastewater treatment plants", "color": "#8c6d31" }, "geometry": { "type": "Polygon", "coordinates": [ [ [ 39.2232003, -6.809202 ], [ 39.2236895, -6.8094163 ], [ 39.2239085, -6.8090454 ], [ 39.2234847, -6.8087558 ], [ 39.2231729, -6.8087691 ], [ 39.222963, -6.8089715 ], [ 39.2232003, -6.809202 ] ] ] } },
{ "type": "Feature", "properties": { "index": "20", "@osmId": "way/343107464", "name": "Mabwawa Saba", "opening_hours": null, "label": "Wastewater treatment plants", "color": "#8c6d31" }, "geometry": { "type": "Polygon", "coordinates": [ [ [ 39.2239512, -6.8091365 ], [ 39.2238491, -6.8094284 ], [ 39.2246697, -6.8098135 ], [ 39.2247106, -6.8094973 ], [ 39.2239512, -6.8091365 ] ] ] } },
{ "type": "Feature", "properties": { "index": "21", "@osmId": "way/343107465", "name": "Mabwawa Saba", "opening_hours": null, "label": "Wastewater treatment plants", "color": "#8c6d31" }, "geometry": { "type": "Polygon", "coordinates": [ [ [ 39.2251362, -6.8096881 ], [ 39.2248805, -6.809623 ], [ 39.2248274, -6.8098541 ], [ 39.2254725, -6.8102919 ], [ 39.2256905, -6.8099375 ], [ 39.2251362, -6.8096881 ] ] ] } },
{ "type": "Feature", "properties": { "index": "22", "@osmId": "way/343107466", "name": "Mabwawa Saba", "opening_hours": null, "label": "Wastewater treatment plants", "color": "#8c6d31" }, "geometry": { "type": "Polygon", "coordinates": [ [ [ 39.2270252, -6.8105575 ], [ 39.2257829, -6.810019 ], [ 39.2256472, -6.8103404 ], [ 39.2262863, -6.8107379 ], [ 39.226523, -6.8108778 ], [ 39.2266738, -6.810979 ], [ 39.2267489, -6.8110129 ], [ 39.2267898, -6.8109823 ], [ 39.2269099, -6.8108611 ], [ 39.2270333, -6.8106174 ], [ 39.2270252, -6.8105575 ] ] ] } }
]
}
