{
"type": "FeatureCollection",
"features": [
{ "type": "Feature", "properties": { "index": "0", "@osmId": "way/24825409", "name": null, "opening_hours": null, "label": "Tram tracks", "color": "#cb181d" }, "geometry": { "type": "Point", "coordinates": [ 8.6846372, 49.4053865 ] } },
{ "type": "Feature", "properties": { "index": "1", "@osmId": "way/24632704", "name": null, "opening_hours": null, "label": "Tram tracks", "color": "#cb181d" }, "geometry": { "type": "Point", "coordinates": [ 8.6848034, 49.4032073 ] } },
{ "type": "Feature", "properties": { "index": "2", "@osmId": "way/132613370", "name": null, "opening_hours": null, "label": "Tram tracks", "color": "#cb181d" }, "geometry": { "type": "Point", "coordinates": [ 8.6927498, 49.4113048 ] } },
{ "type": "Feature", "properties": { "index": "3", "@osmId": "way/24825411", "name": null, "opening_hours": null, "label": "Tram tracks", "color": "#cb181d" }, "geometry": { "type": "Point", "coordinates": [ 8.6842856, 49.4053239 ] } },
{ "type": "Feature", "properties": { "index": "4", "@osmId": "way/34249684", "name": null, "opening_hours": null, "label": "Tram tracks", "color": "#cb181d" }, "geometry": { "type": "Point", "coordinates": [ 8.6894075, 49.3981688 ] } },
{ "type": "Feature", "properties": { "index": "5", "@osmId": "way/189084188", "name": null, "opening_hours": null, "label": "Tram tracks", "color": "#cb181d" }, "geometry": { "type": "Point", "coordinates": [ 8.6924441, 49.4091347 ] } },
{ "type": "Feature", "properties": { "index": "6", "@osmId": "way/190291146", "name": null, "opening_hours": null, "label": "Tram tracks", "color": "#cb181d" }, "geometry": { "type": "Point", "coordinates": [ 8.6893568, 49.3981653 ] } },
{ "type": "Feature", "properties": { "index": "7", "@osmId": "way/190282861", "name": null, "opening_hours": null, "label": "Tram tracks", "color": "#cb181d" }, "geometry": { "type": "Point", "coordinates": [ 8.6748372, 49.4078971 ] } },
{ "type": "Feature", "properties": { "index": "8", "@osmId": "way/24825413", "name": null, "opening_hours": null, "label": "Tram tracks", "color": "#cb181d" }, "geometry": { "type": "Point", "coordinates": [ 8.6925764, 49.4090452 ] } },
{ "type": "Feature", "properties": { "index": "9", "@osmId": "way/24839659", "name": null, "opening_hours": null, "label": "Tram tracks", "color": "#cb181d" }, "geometry": { "type": "Point", "coordinates": [ 8.6928123, 49.4114455 ] } },
{ "type": "Feature", "properties": { "index": "10", "@osmId": "way/24871185", "name": null, "opening_hours": null, "label": "Tram tracks", "color": "#cb181d" }, "geometry": { "type": "Point", "coordinates": [ 8.6931729, 49.4102147 ] } },
{ "type": "Feature", "properties": { "index": "11", "@osmId": "way/28910827", "name": null, "opening_hours": null, "label": "Tram tracks", "color": "#cb181d" }, "geometry": { "type": "Point", "coordinates": [ 8.688227, 49.4083856 ] } },
{ "type": "Feature", "properties": { "index": "12", "@osmId": "way/30810042", "name": null, "opening_hours": null, "label": "Tram tracks", "color": "#cb181d" }, "geometry": { "type": "Point", "coordinates": [ 8.6805934, 49.4023593 ] } },
{ "type": "Feature", "properties": { "index": "13", "@osmId": "way/33058423", "name": null, "opening_hours": null, "label": "Tram tracks", "color": "#cb181d" }, "geometry": { "type": "Point", "coordinates": [ 8.6924405, 49.407224 ] } },
{ "type": "Feature", "properties": { "index": "14", "@osmId": "way/37962657", "name": null, "opening_hours": null, "label": "Tram tracks", "color": "#cb181d" }, "geometry": { "type": "Point", "coordinates": [ 8.6912133, 49.4175368 ] } },
{ "type": "Feature", "properties": { "index": "15", "@osmId": "way/39035880", "name": null, "opening_hours": null, "label": "Tram tracks", "color": "#cb181d" }, "geometry": { "type": "Point", "coordinates": [ 8.6925511, 49.4125055 ] } },
{ "type": "Feature", "properties": { "index": "16", "@osmId": "way/154942452", "name": null, "opening_hours": null, "label": "Tram tracks", "color": "#cb181d" }, "geometry": { "type": "Point", "coordinates": [ 8.6929982, 49.409515 ] } },
{ "type": "Feature", "properties": { "index": "17", "@osmId": "way/155204819", "name": null, "opening_hours": null, "label": "Tram tracks", "color": "#cb181d" }, "geometry": { "type": "Point", "coordinates": [ 8.6850117, 49.4058067 ] } },
{ "type": "Feature", "properties": { "index": "18", "@osmId": "way/188796067", "name": null, "opening_hours": null, "label": "Tram tracks", "color": "#cb181d" }, "geometry": { "type": "Point", "coordinates": [ 8.6923526, 49.4089898 ] } },
{ "type": "Feature", "properties": { "index": "19", "@osmId": "way/188796068", "name": null, "opening_hours": null, "label": "Tram tracks", "color": "#cb181d" }, "geometry": { "type": "Point", "coordinates": [ 8.6845976, 49.4053936 ] } },
{ "type": "Feature", "properties": { "index": "20", "@osmId": "way/188796069", "name": null, "opening_hours": null, "label": "Tram tracks", "color": "#cb181d" }, "geometry": { "type": "Point", "coordinates": [ 8.6837371, 49.4051243 ] } },
{ "type": "Feature", "properties": { "index": "21", "@osmId": "way/188796070", "name": null, "opening_hours": null, "label": "Tram tracks", "color": "#cb181d" }, "geometry": { "type": "Point", "coordinates": [ 8.683763, 49.4051374 ] } },
{ "type": "Feature", "properties": { "index": "22", "@osmId": "way/188796071", "name": null, "opening_hours": null, "label": "Tram tracks", "color": "#cb181d" }, "geometry": { "type": "Point", "coordinates": [ 8.6848749, 49.4057858 ] } },
{ "type": "Feature", "properties": { "index": "23", "@osmId": "way/188796072", "name": null, "opening_hours": null, "label": "Tram tracks", "color": "#cb181d" }, "geometry": { "type": "Point", "coordinates": [ 8.6906995, 49.4069124 ] } },
{ "type": "Feature", "properties": { "index": "24", "@osmId": "way/188796073", "name": null, "opening_hours": null, "label": "Tram tracks", "color": "#cb181d" }, "geometry": { "type": "Point", "coordinates": [ 8.683204, 49.4052157 ] } },
{ "type": "Feature", "properties": { "index": "25", "@osmId": "way/188796075", "name": null, "opening_hours": null, "label": "Tram tracks", "color": "#cb181d" }, "geometry": { "type": "Point", "coordinates": [ 8.6843902, 49.4055623 ] } },
{ "type": "Feature", "properties": { "index": "26", "@osmId": "way/188890285", "name": null, "opening_hours": null, "label": "Tram tracks", "color": "#cb181d" }, "geometry": { "type": "Point", "coordinates": [ 8.6925048, 49.4125017 ] } },
{ "type": "Feature", "properties": { "index": "27", "@osmId": "way/188890286", "name": null, "opening_hours": null, "label": "Tram tracks", "color": "#cb181d" }, "geometry": { "type": "Point", "coordinates": [ 8.6931544, 49.4102141 ] } },
{ "type": "Feature", "properties": { "index": "28", "@osmId": "way/188890287", "name": null, "opening_hours": null, "label": "Tram tracks", "color": "#cb181d" }, "geometry": { "type": "Point", "coordinates": [ 8.6930865, 49.4103829 ] } },
{ "type": "Feature", "properties": { "index": "29", "@osmId": "way/188957003", "name": null, "opening_hours": null, "label": "Tram tracks", "color": "#cb181d" }, "geometry": { "type": "Point", "coordinates": [ 8.6893141, 49.3985018 ] } },
{ "type": "Feature", "properties": { "index": "30", "@osmId": "way/188957008", "name": null, "opening_hours": null, "label": "Tram tracks", "color": "#cb181d" }, "geometry": { "type": "Point", "coordinates": [ 8.6893654, 49.3985057 ] } },
{ "type": "Feature", "properties": { "index": "31", "@osmId": "way/189023767", "name": null, "opening_hours": null, "label": "Tram tracks", "color": "#cb181d" }, "geometry": { "type": "Point", "coordinates": [ 8.6929021, 49.4107848 ] } },
{ "type": "Feature", "properties": { "index": "32", "@osmId": "way/189081870", "name": null, "opening_hours": null, "label": "Tram tracks", "color": "#cb181d" }, "geometry": { "type": "Point", "coordinates": [ 8.6856901, 49.4060019 ] } },
{ "type": "Feature", "properties": { "index": "33", "@osmId": "way/189081892", "name": null, "opening_hours": null, "label": "Tram tracks", "color": "#cb181d" }, "geometry": { "type": "Point", "coordinates": [ 8.6842544, 49.4053012 ] } },
{ "type": "Feature", "properties": { "index": "34", "@osmId": "way/190282860", "name": null, "opening_hours": null, "label": "Tram tracks", "color": "#cb181d" }, "geometry": { "type": "Point", "coordinates": [ 8.6930391, 49.410549 ] } },
{ "type": "Feature", "properties": { "index": "35", "@osmId": "way/190282862", "name": null, "opening_hours": null, "label": "Tram tracks", "color": "#cb181d" }, "geometry": { "type": "Point", "coordinates": [ 8.6931292, 49.4102143 ] } },
{ "type": "Feature", "properties": { "index": "36", "@osmId": "way/190282865", "name": null, "opening_hours": null, "label": "Tram tracks", "color": "#cb181d" }, "geometry": { "type": "Point", "coordinates": [ 8.6930639, 49.4103762 ] } },
{ "type": "Feature", "properties": { "index": "37", "@osmId": "way/190289808", "name": null, "opening_hours": null, "label": "Tram tracks", "color": "#cb181d" }, "geometry": { "type": "Point", "coordinates": [ 8.6842461, 49.4052597 ] } },
{ "type": "Feature", "properties": { "index": "38", "@osmId": "way/190289810", "name": null, "opening_hours": null, "label": "Tram tracks", "color": "#cb181d" }, "geometry": { "type": "Point", "coordinates": [ 8.6847486, 49.4032015 ] } },
{ "type": "Feature", "properties": { "index": "39", "@osmId": "way/190289812", "name": null, "opening_hours": null, "label": "Tram tracks", "color": "#cb181d" }, "geometry": { "type": "Point", "coordinates": [ 8.6843779, 49.40559 ] } },
{ "type": "Feature", "properties": { "index": "40", "@osmId": "way/190291147", "name": null, "opening_hours": null, "label": "Tram tracks", "color": "#cb181d" }, "geometry": { "type": "Point", "coordinates": [ 8.6836064, 49.4052876 ] } },
{ "type": "Feature", "properties": { "index": "41", "@osmId": "way/204334495", "name": null, "opening_hours": null, "label": "Tram tracks", "color": "#cb181d" }, "geometry": { "type": "Point", "coordinates": [ 8.6801534, 49.4019521 ] } },
{ "type": "Feature", "properties": { "index": "42", "@osmId": "way/229365537", "name": null, "opening_hours": null, "label": "Tram tracks", "color": "#cb181d" }, "geometry": { "type": "Point", "coordinates": [ 8.6931132, 49.4098268 ] } },
{ "type": "Feature", "properties": { "index": "43", "@osmId": "way/229365538", "name": null, "opening_hours": null, "label": "Tram tracks", "color": "#cb181d" }, "geometry": { "type": "Point", "coordinates": [ 8.6928071, 49.4112423 ] } },
{ "type": "Feature", "properties": { "index": "44", "@osmId": "way/229365539", "name": null, "opening_hours": null, "label": "Tram tracks", "color": "#cb181d" }, "geometry": { "type": "Point", "coordinates": [ 8.6928967, 49.4106864 ] } },
{ "type": "Feature", "properties": { "index": "45", "@osmId": "way/242679540", "name": null, "opening_hours": null, "label": "Tram tracks", "color": "#cb181d" }, "geometry": { "type": "Point", "coordinates": [ 8.6891062, 49.406617 ] } },
{ "type": "Feature", "properties": { "index": "46", "@osmId": "way/242679543", "name": null, "opening_hours": null, "label": "Tram tracks", "color": "#cb181d" }, "geometry": { "type": "Point", "coordinates": [ 8.6842749, 49.4052364 ] } },
{ "type": "Feature", "properties": { "index": "47", "@osmId": "way/242679544", "name": null, "opening_hours": null, "label": "Tram tracks", "color": "#cb181d" }, "geometry": { "type": "Point", "coordinates": [ 8.6831843, 49.4052438 ] } },
{ "type": "Feature", "properties": { "index": "48", "@osmId": "way/242679545", "name": null, "opening_hours": null, "label": "Tram tracks", "color": "#cb181d" }, "geometry": { "type": "Point", "coordinates": [ 8.6822954, 49.4038486 ] } },
{ "type": "Feature", "properties": { "index": "49", "@osmId": "way/242679546", "name": null, "opening_hours": null, "label": "Tram tracks", "color": "#cb181d" }, "geometry": { "type": "Point", "coordinates": [ 8.6823355, 49.4038344 ] } },
{ "type": "Feature", "properties": { "index": "50", "@osmId": "way/242679547", "name": null, "opening_hours": null, "label": "Tram tracks", "color": "#cb181d" }, "geometry": { "type": "Point", "coordinates": [ 8.6805492, 49.4023707 ] } },
{ "type": "Feature", "properties": { "index": "51", "@osmId": "way/242679548", "name": null, "opening_hours": null, "label": "Tram tracks", "color": "#cb181d" }, "geometry": { "type": "Point", "coordinates": [ 8.685917, 49.4060828 ] } },
{ "type": "Feature", "properties": { "index": "52", "@osmId": "way/242813087", "name": null, "opening_hours": null, "label": "Tram tracks", "color": "#cb181d" }, "geometry": { "type": "Point", "coordinates": [ 8.6926281, 49.4090518 ] } },
{ "type": "Feature", "properties": { "index": "53", "@osmId": "way/242813089", "name": null, "opening_hours": null, "label": "Tram tracks", "color": "#cb181d" }, "geometry": { "type": "Point", "coordinates": [ 8.6924249, 49.4090994 ] } },
{ "type": "Feature", "properties": { "index": "54", "@osmId": "way/242813091", "name": null, "opening_hours": null, "label": "Tram tracks", "color": "#cb181d" }, "geometry": { "type": "Point", "coordinates": [ 8.693139, 49.4102999 ] } },
{ "type": "Feature", "properties": { "index": "55", "@osmId": "way/242813092", "name": null, "opening_hours": null, "label": "Tram tracks", "color": "#cb181d" }, "geometry": { "type": "Point", "coordinates": [ 8.6883536, 49.4065176 ] } },
{ "type": "Feature", "properties": { "index": "56", "@osmId": "way/242813094", "name": null, "opening_hours": null, "label": "Tram tracks", "color": "#cb181d" }, "geometry": { "type": "Point", "coordinates": [ 8.6922925, 49.4089499 ] } },
{ "type": "Feature", "properties": { "index": "57", "@osmId": "way/242813098", "name": null, "opening_hours": null, "label": "Tram tracks", "color": "#cb181d" }, "geometry": { "type": "Point", "coordinates": [ 8.692478, 49.4077373 ] } },
{ "type": "Feature", "properties": { "index": "58", "@osmId": "way/243245694", "name": null, "opening_hours": null, "label": "Tram tracks", "color": "#cb181d" }, "geometry": { "type": "Point", "coordinates": [ 8.6907197, 49.4069331 ] } },
{ "type": "Feature", "properties": { "index": "59", "@osmId": "way/277455050", "name": null, "opening_hours": null, "label": "Tram tracks", "color": "#cb181d" }, "geometry": { "type": "Point", "coordinates": [ 8.6925886, 49.4084155 ] } },
{ "type": "Feature", "properties": { "index": "60", "@osmId": "way/309858460", "name": null, "opening_hours": null, "label": "Tram tracks", "color": "#cb181d" }, "geometry": { "type": "Point", "coordinates": [ 8.6911668, 49.4175288 ] } },
{ "type": "Feature", "properties": { "index": "61", "@osmId": "way/440255300", "name": null, "opening_hours": null, "label": "Tram tracks", "color": "#cb181d" }, "geometry": { "type": "Point", "coordinates": [ 8.685097, 49.4017714 ] } },
{ "type": "Feature", "properties": { "index": "62", "@osmId": "way/440255301", "name": null, "opening_hours": null, "label": "Tram tracks", "color": "#cb181d" }, "geometry": { "type": "Point", "coordinates": [ 8.6851347, 49.4017879 ] } },
{ "type": "Feature", "properties": { "index": "63", "@osmId": "way/440255302", "name": null, "opening_hours": null, "label": "Tram tracks", "color": "#cb181d" }, "geometry": { "type": "Point", "coordinates": [ 8.6888907, 49.3990222 ] } },
{ "type": "Feature", "properties": { "index": "64", "@osmId": "way/440255303", "name": null, "opening_hours": null, "label": "Tram tracks", "color": "#cb181d" }, "geometry": { "type": "Point", "coordinates": [ 8.6889366, 49.3990363 ] } },
{ "type": "Feature", "properties": { "index": "65", "@osmId": "way/440255304", "name": null, "opening_hours": null, "label": "Tram tracks", "color": "#cb181d" }, "geometry": { "type": "Point", "coordinates": [ 8.6860961, 49.4010557 ] } },
{ "type": "Feature", "properties": { "index": "66", "@osmId": "way/440255305", "name": null, "opening_hours": null, "label": "Tram tracks", "color": "#cb181d" }, "geometry": { "type": "Point", "coordinates": [ 8.6860695, 49.401029 ] } },
{ "type": "Feature", "properties": { "index": "67", "@osmId": "way/440255306", "name": null, "opening_hours": null, "label": "Tram tracks", "color": "#cb181d" }, "geometry": { "type": "Point", "coordinates": [ 8.6878834, 49.3997235 ] } },
{ "type": "Feature", "properties": { "index": "68", "@osmId": "way/440255307", "name": null, "opening_hours": null, "label": "Tram tracks", "color": "#cb181d" }, "geometry": { "type": "Point", "coordinates": [ 8.6878545, 49.3997056 ] } },
{ "type": "Feature", "properties": { "index": "69", "@osmId": "way/440255308", "name": null, "opening_hours": null, "label": "Tram tracks", "color": "#cb181d" }, "geometry": { "type": "Point", "coordinates": [ 8.6870332, 49.4003181 ] } },
{ "type": "Feature", "properties": { "index": "70", "@osmId": "way/440255309", "name": null, "opening_hours": null, "label": "Tram tracks", "color": "#cb181d" }, "geometry": { "type": "Point", "coordinates": [ 8.6870554, 49.4003427 ] } },
{ "type": "Feature", "properties": { "index": "71", "@osmId": "way/440255310", "name": null, "opening_hours": null, "label": "Tram tracks", "color": "#cb181d" }, "geometry": { "type": "Point", "coordinates": [ 8.6846056, 49.4047051 ] } },
{ "type": "Feature", "properties": { "index": "72", "@osmId": "way/440255311", "name": null, "opening_hours": null, "label": "Tram tracks", "color": "#cb181d" }, "geometry": { "type": "Point", "coordinates": [ 8.6928789, 49.4109531 ] } },
{ "type": "Feature", "properties": { "index": "73", "@osmId": "way/440255312", "name": null, "opening_hours": null, "label": "Tram tracks", "color": "#cb181d" }, "geometry": { "type": "Point", "coordinates": [ 8.6846537, 49.4047096 ] } },
{ "type": "Feature", "properties": { "index": "74", "@osmId": "way/197011977", "name": null, "opening_hours": null, "label": "Tram tracks", "color": "#cb181d" }, "geometry": { "type": "Point", "coordinates": [ 8.6736351, 49.4052479 ] } },
{ "type": "Feature", "properties": { "index": "75", "@osmId": "way/486945281", "name": null, "opening_hours": null, "label": "Tram tracks", "color": "#cb181d" }, "geometry": { "type": "Point", "coordinates": [ 8.6605422, 49.4050403 ] } },
{ "type": "Feature", "properties": { "index": "76", "@osmId": "way/522802478", "name": null, "opening_hours": null, "label": "Tram tracks", "color": "#cb181d" }, "geometry": { "type": "Point", "coordinates": [ 8.6853875, 49.4059575 ] } },
{ "type": "Feature", "properties": { "index": "77", "@osmId": "way/816222986", "name": null, "opening_hours": null, "label": "Tram tracks", "color": "#cb181d" }, "geometry": { "type": "Point", "coordinates": [ 8.6853857, 49.4059578 ] } },
{ "type": "Feature", "properties": { "index": "78", "@osmId": "way/816222987", "name": null, "opening_hours": null, "label": "Tram tracks", "color": "#cb181d" }, "geometry": { "type": "Point", "coordinates": [ 8.6865979, 49.4062104 ] } },
{ "type": "Feature", "properties": { "index": "79", "@osmId": "way/816224033", "name": null, "opening_hours": null, "label": "Tram tracks", "color": "#cb181d" }, "geometry": { "type": "Point", "coordinates": [ 8.6849762, 49.4058507 ] } },
{ "type": "Feature", "properties": { "index": "80", "@osmId": "way/816899429", "name": null, "opening_hours": null, "label": "Tram tracks", "color": "#cb181d" }, "geometry": { "type": "Point", "coordinates": [ 8.6827406, 49.4051331 ] } },
{ "type": "Feature", "properties": { "index": "81", "@osmId": "way/895160011", "name": null, "opening_hours": null, "label": "Tram tracks", "color": "#cb181d" }, "geometry": { "type": "Point", "coordinates": [ 8.6927278, 49.4077019 ] } },
{ "type": "Feature", "properties": { "index": "82", "@osmId": "way/949040201", "name": null, "opening_hours": null, "label": "Tram tracks", "color": "#cb181d" }, "geometry": { "type": "Point", "coordinates": [ 8.6928836, 49.4094017 ] } },
{ "type": "Feature", "properties": { "index": "83", "@osmId": "way/949040202", "name": null, "opening_hours": null, "label": "Tram tracks", "color": "#cb181d" }, "geometry": { "type": "Point", "coordinates": [ 8.6932108, 49.409962 ] } },
{ "type": "Feature", "properties": { "index": "84", "@osmId": "way/1492940295", "name": null, "opening_hours": null, "label": "Tram tracks", "color": "#cb181d" }, "geometry": { "type": "Point", "coordinates": [ 8.6851251, 49.4058598 ] } },
{ "type": "Feature", "properties": { "index": "85", "@osmId": "way/24220547", "name": null, "opening_hours": null, "label": "Tram tracks", "color": "#cb181d" }, "geometry": { "type": "Point", "coordinates": [ 8.6793666, 49.4012848 ] } },
{ "type": "Feature", "properties": { "index": "86", "@osmId": "way/24808950", "name": null, "opening_hours": null, "label": "Tram tracks", "color": "#cb181d" }, "geometry": { "type": "Point", "coordinates": [ 8.6767412, 49.410665 ] } },
{ "type": "Feature", "properties": { "index": "87", "@osmId": "way/24808956", "name": null, "opening_hours": null, "label": "Tram tracks", "color": "#cb181d" }, "geometry": { "type": "Point", "coordinates": [ 8.670009, 49.4056683 ] } },
{ "type": "Feature", "properties": { "index": "88", "@osmId": "way/24825314", "name": null, "opening_hours": null, "label": "Tram tracks", "color": "#cb181d" }, "geometry": { "type": "Point", "coordinates": [ 8.6749941, 49.4076913 ] } },
{ "type": "Feature", "properties": { "index": "89", "@osmId": "way/24825412", "name": null, "opening_hours": null, "label": "Tram tracks", "color": "#cb181d" }, "geometry": { "type": "Point", "coordinates": [ 8.6836029, 49.4053171 ] } },
{ "type": "Feature", "properties": { "index": "90", "@osmId": "way/24825478", "name": null, "opening_hours": null, "label": "Tram tracks", "color": "#cb181d" }, "geometry": { "type": "Point", "coordinates": [ 8.6766018, 49.4078799 ] } },
{ "type": "Feature", "properties": { "index": "91", "@osmId": "way/24825482", "name": null, "opening_hours": null, "label": "Tram tracks", "color": "#cb181d" }, "geometry": { "type": "Point", "coordinates": [ 8.680853, 49.4078284 ] } },
{ "type": "Feature", "properties": { "index": "92", "@osmId": "way/24834164", "name": null, "opening_hours": null, "label": "Tram tracks", "color": "#cb181d" }, "geometry": { "type": "Point", "coordinates": [ 8.6748464, 49.4078689 ] } },
{ "type": "Feature", "properties": { "index": "93", "@osmId": "way/24871967", "name": null, "opening_hours": null, "label": "Tram tracks", "color": "#cb181d" }, "geometry": { "type": "Point", "coordinates": [ 8.6741317, 49.4061585 ] } },
{ "type": "Feature", "properties": { "index": "94", "@osmId": "way/24871969", "name": null, "opening_hours": null, "label": "Tram tracks", "color": "#cb181d" }, "geometry": { "type": "Point", "coordinates": [ 8.6747686, 49.4068853 ] } },
{ "type": "Feature", "properties": { "index": "95", "@osmId": "way/24902682", "name": null, "opening_hours": null, "label": "Tram tracks", "color": "#cb181d" }, "geometry": { "type": "Point", "coordinates": [ 8.6746155, 49.4077332 ] } },
{ "type": "Feature", "properties": { "index": "96", "@osmId": "way/27276001", "name": null, "opening_hours": null, "label": "Tram tracks", "color": "#cb181d" }, "geometry": { "type": "Point", "coordinates": [ 8.6730241, 49.4075036 ] } },
{ "type": "Feature", "properties": { "index": "97", "@osmId": "way/27276002", "name": null, "opening_hours": null, "label": "Tram tracks", "color": "#cb181d" }, "geometry": { "type": "Point", "coordinates": [ 8.6731296, 49.4075017 ] } },
{ "type": "Feature", "properties": { "index": "98", "@osmId": "way/27276003", "name": null, "opening_hours": null, "label": "Tram tracks", "color": "#cb181d" }, "geometry": { "type": "Point", "coordinates": [ 8.6732594, 49.407508 ] } },
{ "type": "Feature", "properties": { "index": "99", "@osmId": "way/27276004", "name": null, "opening_hours": null, "label": "Tram tracks", "color": "#cb181d" }, "geometry": { "type": "Point", "coordinates": [ 8.6734224, 49.4075038 ] } },
{ "type": "Feature", "properties": { "index": "100", "@osmId": "way/27276005", "name": null, "opening_hours": null, "label": "Tram tracks", "color": "#cb181d" }, "geometry": { "type": "Point", "coordinates": [ 8.6735631, 49.4075105 ] } },
{ "type": "Feature", "properties": { "index": "101", "@osmId": "way/27276006", "name": null, "opening_hours": null, "label": "Tram tracks", "color": "#cb181d" }, "geometry": { "type": "Point", "coordinates": [ 8.67374, 49.4075115 ] } },
{ "type": "Feature", "properties": { "index": "102", "@osmId": "way/27276007", "name": null, "opening_hours": null, "label": "Tram tracks", "color": "#cb181d" }, "geometry": { "type": "Point", "coordinates": [ 8.6746209, 49.4063934 ] } },
{ "type": "Feature", "properties": { "index": "103", "@osmId": "way/27276011", "name": null, "opening_hours": null, "label": "Tram tracks", "color": "#cb181d" }, "geometry": { "type": "Point", "coordinates": [ 8.6746484, 49.4060321 ] } },
{ "type": "Feature", "properties": { "index": "104", "@osmId": "way/30120179", "name": null, "opening_hours": null, "label": "Tram tracks", "color": "#cb181d" }, "geometry": { "type": "Point", "coordinates": [ 8.6715861, 49.4070598 ] } },
{ "type": "Feature", "properties": { "index": "105", "@osmId": "way/49771548", "name": null, "opening_hours": null, "label": "Tram tracks", "color": "#cb181d" }, "geometry": { "type": "Point", "coordinates": [ 8.6766469, 49.4128608 ] } },
{ "type": "Feature", "properties": { "index": "106", "@osmId": "way/49771550", "name": null, "opening_hours": null, "label": "Tram tracks", "color": "#cb181d" }, "geometry": { "type": "Point", "coordinates": [ 8.6763053, 49.4181577 ] } },
{ "type": "Feature", "properties": { "index": "107", "@osmId": "way/96963128", "name": null, "opening_hours": null, "label": "Tram tracks", "color": "#cb181d" }, "geometry": { "type": "Point", "coordinates": [ 8.6743522, 49.4061859 ] } },
{ "type": "Feature", "properties": { "index": "108", "@osmId": "way/108357810", "name": null, "opening_hours": null, "label": "Tram tracks", "color": "#cb181d" }, "geometry": { "type": "Point", "coordinates": [ 8.6777888, 49.3999869 ] } },
{ "type": "Feature", "properties": { "index": "109", "@osmId": "way/108357811", "name": null, "opening_hours": null, "label": "Tram tracks", "color": "#cb181d" }, "geometry": { "type": "Point", "coordinates": [ 8.6786332, 49.3989468 ] } },
{ "type": "Feature", "properties": { "index": "110", "@osmId": "way/133431498", "name": null, "opening_hours": null, "label": "Tram tracks", "color": "#cb181d" }, "geometry": { "type": "Point", "coordinates": [ 8.6769122, 49.40788 ] } },
{ "type": "Feature", "properties": { "index": "111", "@osmId": "way/154935261", "name": null, "opening_hours": null, "label": "Tram tracks", "color": "#cb181d" }, "geometry": { "type": "Point", "coordinates": [ 8.6764485, 49.4208027 ] } },
{ "type": "Feature", "properties": { "index": "112", "@osmId": "way/155061697", "name": null, "opening_hours": null, "label": "Tram tracks", "color": "#cb181d" }, "geometry": { "type": "Point", "coordinates": [ 8.6767065, 49.4079407 ] } },
{ "type": "Feature", "properties": { "index": "113", "@osmId": "way/168617883", "name": null, "opening_hours": null, "label": "Tram tracks", "color": "#cb181d" }, "geometry": { "type": "Point", "coordinates": [ 8.6780991, 49.4003205 ] } },
{ "type": "Feature", "properties": { "index": "114", "@osmId": "way/188863360", "name": null, "opening_hours": null, "label": "Tram tracks", "color": "#cb181d" }, "geometry": { "type": "Point", "coordinates": [ 8.6769727, 49.4079544 ] } },
{ "type": "Feature", "properties": { "index": "115", "@osmId": "way/188863361", "name": null, "opening_hours": null, "label": "Tram tracks", "color": "#cb181d" }, "geometry": { "type": "Point", "coordinates": [ 8.6767754, 49.4088936 ] } },
{ "type": "Feature", "properties": { "index": "116", "@osmId": "way/188863363", "name": null, "opening_hours": null, "label": "Tram tracks", "color": "#cb181d" }, "geometry": { "type": "Point", "coordinates": [ 8.6766999, 49.4106646 ] } },
{ "type": "Feature", "properties": { "index": "117", "@osmId": "way/188863364", "name": null, "opening_hours": null, "label": "Tram tracks", "color": "#cb181d" }, "geometry": { "type": "Point", "coordinates": [ 8.6770086, 49.4079741 ] } },
{ "type": "Feature", "properties": { "index": "118", "@osmId": "way/188867239", "name": null, "opening_hours": null, "label": "Tram tracks", "color": "#cb181d" }, "geometry": { "type": "Point", "coordinates": [ 8.674611, 49.4074825 ] } },
{ "type": "Feature", "properties": { "index": "119", "@osmId": "way/188867240", "name": null, "opening_hours": null, "label": "Tram tracks", "color": "#cb181d" }, "geometry": { "type": "Point", "coordinates": [ 8.6746564, 49.406275 ] } },
{ "type": "Feature", "properties": { "index": "120", "@osmId": "way/188867241", "name": null, "opening_hours": null, "label": "Tram tracks", "color": "#cb181d" }, "geometry": { "type": "Point", "coordinates": [ 8.6746373, 49.4077504 ] } },
{ "type": "Feature", "properties": { "index": "121", "@osmId": "way/188867243", "name": null, "opening_hours": null, "label": "Tram tracks", "color": "#cb181d" }, "geometry": { "type": "Point", "coordinates": [ 8.6750258, 49.4077432 ] } },
{ "type": "Feature", "properties": { "index": "122", "@osmId": "way/188867244", "name": null, "opening_hours": null, "label": "Tram tracks", "color": "#cb181d" }, "geometry": { "type": "Point", "coordinates": [ 8.6748043, 49.4065224 ] } },
{ "type": "Feature", "properties": { "index": "123", "@osmId": "way/188867245", "name": null, "opening_hours": null, "label": "Tram tracks", "color": "#cb181d" }, "geometry": { "type": "Point", "coordinates": [ 8.6747741, 49.4072643 ] } },
{ "type": "Feature", "properties": { "index": "124", "@osmId": "way/188867246", "name": null, "opening_hours": null, "label": "Tram tracks", "color": "#cb181d" }, "geometry": { "type": "Point", "coordinates": [ 8.6748263, 49.4070098 ] } },
{ "type": "Feature", "properties": { "index": "125", "@osmId": "way/188867247", "name": null, "opening_hours": null, "label": "Tram tracks", "color": "#cb181d" }, "geometry": { "type": "Point", "coordinates": [ 8.6759629, 49.4078742 ] } },
{ "type": "Feature", "properties": { "index": "126", "@osmId": "way/188867248", "name": null, "opening_hours": null, "label": "Tram tracks", "color": "#cb181d" }, "geometry": { "type": "Point", "coordinates": [ 8.6731962, 49.4075058 ] } },
{ "type": "Feature", "properties": { "index": "127", "@osmId": "way/188867249", "name": null, "opening_hours": null, "label": "Tram tracks", "color": "#cb181d" }, "geometry": { "type": "Point", "coordinates": [ 8.6737966, 49.407511 ] } },
{ "type": "Feature", "properties": { "index": "128", "@osmId": "way/188867250", "name": null, "opening_hours": null, "label": "Tram tracks", "color": "#cb181d" }, "geometry": { "type": "Point", "coordinates": [ 8.6730837, 49.4075057 ] } },
{ "type": "Feature", "properties": { "index": "129", "@osmId": "way/188867251", "name": null, "opening_hours": null, "label": "Tram tracks", "color": "#cb181d" }, "geometry": { "type": "Point", "coordinates": [ 8.6734843, 49.4075066 ] } },
{ "type": "Feature", "properties": { "index": "130", "@osmId": "way/188867252", "name": null, "opening_hours": null, "label": "Tram tracks", "color": "#cb181d" }, "geometry": { "type": "Point", "coordinates": [ 8.6736209, 49.4075092 ] } },
{ "type": "Feature", "properties": { "index": "131", "@osmId": "way/188867253", "name": null, "opening_hours": null, "label": "Tram tracks", "color": "#cb181d" }, "geometry": { "type": "Point", "coordinates": [ 8.6733137, 49.4075068 ] } },
{ "type": "Feature", "properties": { "index": "132", "@osmId": "way/188867254", "name": null, "opening_hours": null, "label": "Tram tracks", "color": "#cb181d" }, "geometry": { "type": "Point", "coordinates": [ 8.6733711, 49.4075072 ] } },
{ "type": "Feature", "properties": { "index": "133", "@osmId": "way/188867255", "name": null, "opening_hours": null, "label": "Tram tracks", "color": "#cb181d" }, "geometry": { "type": "Point", "coordinates": [ 8.6738301, 49.4075024 ] } },
{ "type": "Feature", "properties": { "index": "134", "@osmId": "way/188867256", "name": null, "opening_hours": null, "label": "Tram tracks", "color": "#cb181d" }, "geometry": { "type": "Point", "coordinates": [ 8.6736795, 49.4075097 ] } },
{ "type": "Feature", "properties": { "index": "135", "@osmId": "way/188867257", "name": null, "opening_hours": null, "label": "Tram tracks", "color": "#cb181d" }, "geometry": { "type": "Point", "coordinates": [ 8.6741576, 49.4075878 ] } },
{ "type": "Feature", "properties": { "index": "136", "@osmId": "way/188904057", "name": null, "opening_hours": null, "label": "Tram tracks", "color": "#cb181d" }, "geometry": { "type": "Point", "coordinates": [ 8.6763895, 49.4208021 ] } },
{ "type": "Feature", "properties": { "index": "137", "@osmId": "way/188945213", "name": null, "opening_hours": null, "label": "Tram tracks", "color": "#cb181d" }, "geometry": { "type": "Point", "coordinates": [ 8.6780571, 49.4003324 ] } },
{ "type": "Feature", "properties": { "index": "138", "@osmId": "way/188945214", "name": null, "opening_hours": null, "label": "Tram tracks", "color": "#cb181d" }, "geometry": { "type": "Point", "coordinates": [ 8.680119, 49.4019745 ] } },
{ "type": "Feature", "properties": { "index": "139", "@osmId": "way/190282864", "name": null, "opening_hours": null, "label": "Tram tracks", "color": "#cb181d" }, "geometry": { "type": "Point", "coordinates": [ 8.6765533, 49.4078792 ] } },
{ "type": "Feature", "properties": { "index": "140", "@osmId": "way/190282866", "name": null, "opening_hours": null, "label": "Tram tracks", "color": "#cb181d" }, "geometry": { "type": "Point", "coordinates": [ 8.6747935, 49.4072986 ] } },
{ "type": "Feature", "properties": { "index": "141", "@osmId": "way/190282867", "name": null, "opening_hours": null, "label": "Tram tracks", "color": "#cb181d" }, "geometry": { "type": "Point", "coordinates": [ 8.6759492, 49.4079037 ] } },
{ "type": "Feature", "properties": { "index": "142", "@osmId": "way/197011974", "name": null, "opening_hours": null, "label": "Tram tracks", "color": "#cb181d" }, "geometry": { "type": "Point", "coordinates": [ 8.6741075, 49.4051342 ] } },
{ "type": "Feature", "properties": { "index": "143", "@osmId": "way/198380412", "name": null, "opening_hours": null, "label": "Tram tracks", "color": "#cb181d" }, "geometry": { "type": "Point", "coordinates": [ 8.6699501, 49.4056853 ] } },
{ "type": "Feature", "properties": { "index": "144", "@osmId": "way/204334496", "name": null, "opening_hours": null, "label": "Tram tracks", "color": "#cb181d" }, "geometry": { "type": "Point", "coordinates": [ 8.6783682, 49.4004991 ] } },
{ "type": "Feature", "properties": { "index": "145", "@osmId": "way/204334497", "name": null, "opening_hours": null, "label": "Tram tracks", "color": "#cb181d" }, "geometry": { "type": "Point", "coordinates": [ 8.6790983, 49.401119 ] } },
{ "type": "Feature", "properties": { "index": "146", "@osmId": "way/218842138", "name": null, "opening_hours": null, "label": "Tram tracks", "color": "#cb181d" }, "geometry": { "type": "Point", "coordinates": [ 8.6785848, 49.3989429 ] } },
{ "type": "Feature", "properties": { "index": "147", "@osmId": "way/223725331", "name": null, "opening_hours": null, "label": "Tram tracks", "color": "#cb181d" }, "geometry": { "type": "Point", "coordinates": [ 8.6778544, 49.4001437 ] } },
{ "type": "Feature", "properties": { "index": "148", "@osmId": "way/229359308", "name": null, "opening_hours": null, "label": "Tram tracks", "color": "#cb181d" }, "geometry": { "type": "Point", "coordinates": [ 8.6736367, 49.4052136 ] } },
{ "type": "Feature", "properties": { "index": "149", "@osmId": "way/229361265", "name": null, "opening_hours": null, "label": "Tram tracks", "color": "#cb181d" }, "geometry": { "type": "Point", "coordinates": [ 8.6753449, 49.4078644 ] } },
{ "type": "Feature", "properties": { "index": "150", "@osmId": "way/242307090", "name": null, "opening_hours": null, "label": "Tram tracks", "color": "#cb181d" }, "geometry": { "type": "Point", "coordinates": [ 8.6779248, 49.4044635 ] } },
{ "type": "Feature", "properties": { "index": "151", "@osmId": "way/242307092", "name": null, "opening_hours": null, "label": "Tram tracks", "color": "#cb181d" }, "geometry": { "type": "Point", "coordinates": [ 8.6741099, 49.4051634 ] } },
{ "type": "Feature", "properties": { "index": "152", "@osmId": "way/242515871", "name": null, "opening_hours": null, "label": "Tram tracks", "color": "#cb181d" }, "geometry": { "type": "Point", "coordinates": [ 8.6736149, 49.4075881 ] } },
{ "type": "Feature", "properties": { "index": "153", "@osmId": "way/242515872", "name": null, "opening_hours": null, "label": "Tram tracks", "color": "#cb181d" }, "geometry": { "type": "Point", "coordinates": [ 8.6746242, 49.4062685 ] } },
{ "type": "Feature", "properties": { "index": "154", "@osmId": "way/242515875", "name": null, "opening_hours": null, "label": "Tram tracks", "color": "#cb181d" }, "geometry": { "type": "Point", "coordinates": [ 8.6715564, 49.407078 ] } },
{ "type": "Feature", "properties": { "index": "155", "@osmId": "way/242515878", "name": null, "opening_hours": null, "label": "Tram tracks", "color": "#cb181d" }, "geometry": { "type": "Point", "coordinates": [ 8.6745285, 49.4063798 ] } },
{ "type": "Feature", "properties": { "index": "156", "@osmId": "way/242515880", "name": null, "opening_hours": null, "label": "Tram tracks", "color": "#cb181d" }, "geometry": { "type": "Point", "coordinates": [ 8.6740518, 49.4075917 ] } },
{ "type": "Feature", "properties": { "index": "157", "@osmId": "way/242515881", "name": null, "opening_hours": null, "label": "Tram tracks", "color": "#cb181d" }, "geometry": { "type": "Point", "coordinates": [ 8.6748408, 49.4071599 ] } },
{ "type": "Feature", "properties": { "index": "158", "@osmId": "way/242515882", "name": null, "opening_hours": null, "label": "Tram tracks", "color": "#cb181d" }, "geometry": { "type": "Point", "coordinates": [ 8.6740899, 49.4075918 ] } },
{ "type": "Feature", "properties": { "index": "159", "@osmId": "way/242515883", "name": null, "opening_hours": null, "label": "Tram tracks", "color": "#cb181d" }, "geometry": { "type": "Point", "coordinates": [ 8.6744086, 49.4075067 ] } },
{ "type": "Feature", "properties": { "index": "160", "@osmId": "way/242515884", "name": null, "opening_hours": null, "label": "Tram tracks", "color": "#cb181d" }, "geometry": { "type": "Point", "coordinates": [ 8.6745193, 49.4075246 ] } },
{ "type": "Feature", "properties": { "index": "161", "@osmId": "way/242515885", "name": null, "opening_hours": null, "label": "Tram tracks", "color": "#cb181d" }, "geometry": { "type": "Point", "coordinates": [ 8.6735657, 49.4078858 ] } },
{ "type": "Feature", "properties": { "index": "162", "@osmId": "way/242515886", "name": null, "opening_hours": null, "label": "Tram tracks", "color": "#cb181d" }, "geometry": { "type": "Point", "coordinates": [ 8.6748337, 49.4073045 ] } },
{ "type": "Feature", "properties": { "index": "163", "@osmId": "way/242515887", "name": null, "opening_hours": null, "label": "Tram tracks", "color": "#cb181d" }, "geometry": { "type": "Point", "coordinates": [ 8.6748145, 49.4067636 ] } },
{ "type": "Feature", "properties": { "index": "164", "@osmId": "way/242515888", "name": null, "opening_hours": null, "label": "Tram tracks", "color": "#cb181d" }, "geometry": { "type": "Point", "coordinates": [ 8.6735566, 49.4079142 ] } },
{ "type": "Feature", "properties": { "index": "165", "@osmId": "way/242515889", "name": null, "opening_hours": null, "label": "Tram tracks", "color": "#cb181d" }, "geometry": { "type": "Point", "coordinates": [ 8.674805, 49.4070277 ] } },
{ "type": "Feature", "properties": { "index": "166", "@osmId": "way/242515890", "name": null, "opening_hours": null, "label": "Tram tracks", "color": "#cb181d" }, "geometry": { "type": "Point", "coordinates": [ 8.6741735, 49.4075922 ] } },
{ "type": "Feature", "properties": { "index": "167", "@osmId": "way/242515891", "name": null, "opening_hours": null, "label": "Tram tracks", "color": "#cb181d" }, "geometry": { "type": "Point", "coordinates": [ 8.6742265, 49.4061605 ] } },
{ "type": "Feature", "properties": { "index": "168", "@osmId": "way/242515892", "name": null, "opening_hours": null, "label": "Tram tracks", "color": "#cb181d" }, "geometry": { "type": "Point", "coordinates": [ 8.6742182, 49.4061644 ] } },
{ "type": "Feature", "properties": { "index": "169", "@osmId": "way/242515893", "name": null, "opening_hours": null, "label": "Tram tracks", "color": "#cb181d" }, "geometry": { "type": "Point", "coordinates": [ 8.6748525, 49.4068458 ] } },
{ "type": "Feature", "properties": { "index": "170", "@osmId": "way/242515894", "name": null, "opening_hours": null, "label": "Tram tracks", "color": "#cb181d" }, "geometry": { "type": "Point", "coordinates": [ 8.6748391, 49.4061891 ] } },
{ "type": "Feature", "properties": { "index": "171", "@osmId": "way/242679542", "name": null, "opening_hours": null, "label": "Tram tracks", "color": "#cb181d" }, "geometry": { "type": "Point", "coordinates": [ 8.6782283, 49.4044664 ] } },
{ "type": "Feature", "properties": { "index": "172", "@osmId": "way/242813096", "name": null, "opening_hours": null, "label": "Tram tracks", "color": "#cb181d" }, "geometry": { "type": "Point", "coordinates": [ 8.6846849, 49.40815 ] } },
{ "type": "Feature", "properties": { "index": "173", "@osmId": "way/277455046", "name": null, "opening_hours": null, "label": "Tram tracks", "color": "#cb181d" }, "geometry": { "type": "Point", "coordinates": [ 8.6764796, 49.4152289 ] } },
{ "type": "Feature", "properties": { "index": "174", "@osmId": "way/277455048", "name": null, "opening_hours": null, "label": "Tram tracks", "color": "#cb181d" }, "geometry": { "type": "Point", "coordinates": [ 8.6764346, 49.4152297 ] } },
{ "type": "Feature", "properties": { "index": "175", "@osmId": "way/277455052", "name": null, "opening_hours": null, "label": "Tram tracks", "color": "#cb181d" }, "geometry": { "type": "Point", "coordinates": [ 8.6762375, 49.4181583 ] } },
{ "type": "Feature", "properties": { "index": "176", "@osmId": "way/277455053", "name": null, "opening_hours": null, "label": "Tram tracks", "color": "#cb181d" }, "geometry": { "type": "Point", "coordinates": [ 8.6768307, 49.4085833 ] } },
{ "type": "Feature", "properties": { "index": "177", "@osmId": "way/277455054", "name": null, "opening_hours": null, "label": "Tram tracks", "color": "#cb181d" }, "geometry": { "type": "Point", "coordinates": [ 8.6766051, 49.4128616 ] } },
{ "type": "Feature", "properties": { "index": "178", "@osmId": "way/277455057", "name": null, "opening_hours": null, "label": "Tram tracks", "color": "#cb181d" }, "geometry": { "type": "Point", "coordinates": [ 8.6766833, 49.4079791 ] } },
{ "type": "Feature", "properties": { "index": "179", "@osmId": "way/309858331", "name": null, "opening_hours": null, "label": "Tram tracks", "color": "#cb181d" }, "geometry": { "type": "Point", "coordinates": [ 8.6725007, 49.4054327 ] } },
{ "type": "Feature", "properties": { "index": "180", "@osmId": "way/309858338", "name": null, "opening_hours": null, "label": "Tram tracks", "color": "#cb181d" }, "geometry": { "type": "Point", "coordinates": [ 8.6725057, 49.4054029 ] } },
{ "type": "Feature", "properties": { "index": "181", "@osmId": "way/408855645", "name": null, "opening_hours": null, "label": "Tram tracks", "color": "#cb181d" }, "geometry": { "type": "Point", "coordinates": [ 8.6681683, 49.4040349 ] } },
{ "type": "Feature", "properties": { "index": "182", "@osmId": "way/408855647", "name": null, "opening_hours": null, "label": "Tram tracks", "color": "#cb181d" }, "geometry": { "type": "Point", "coordinates": [ 8.6722552, 49.4025229 ] } },
{ "type": "Feature", "properties": { "index": "183", "@osmId": "way/431889621", "name": null, "opening_hours": null, "label": "Tram tracks", "color": "#cb181d" }, "geometry": { "type": "Point", "coordinates": [ 8.6891229, 49.4216578 ] } },
{ "type": "Feature", "properties": { "index": "184", "@osmId": "way/431889676", "name": null, "opening_hours": null, "label": "Tram tracks", "color": "#cb181d" }, "geometry": { "type": "Point", "coordinates": [ 8.6890737, 49.4216489 ] } },
{ "type": "Feature", "properties": { "index": "185", "@osmId": "way/436874020", "name": null, "opening_hours": null, "label": "Tram tracks", "color": "#cb181d" }, "geometry": { "type": "Point", "coordinates": [ 8.6641677, 49.4042722 ] } },
{ "type": "Feature", "properties": { "index": "186", "@osmId": "way/514693169", "name": null, "opening_hours": null, "label": "Tram tracks", "color": "#cb181d" }, "geometry": { "type": "Point", "coordinates": [ 8.6679194, 49.4035529 ] } },
{ "type": "Feature", "properties": { "index": "187", "@osmId": "way/515520137", "name": null, "opening_hours": null, "label": "Tram tracks", "color": "#cb181d" }, "geometry": { "type": "Point", "coordinates": [ 8.677569, 49.4001874 ] } },
{ "type": "Feature", "properties": { "index": "188", "@osmId": "way/547535751", "name": null, "opening_hours": null, "label": "Tram tracks", "color": "#cb181d" }, "geometry": { "type": "Point", "coordinates": [ 8.6677432, 49.4035181 ] } },
{ "type": "Feature", "properties": { "index": "189", "@osmId": "way/547535752", "name": null, "opening_hours": null, "label": "Tram tracks", "color": "#cb181d" }, "geometry": { "type": "Point", "coordinates": [ 8.6679567, 49.4035942 ] } },
{ "type": "Feature", "properties": { "index": "190", "@osmId": "way/547535753", "name": null, "opening_hours": null, "label": "Tram tracks", "color": "#cb181d" }, "geometry": { "type": "Point", "coordinates": [ 8.6677543, 49.4034865 ] } },
{ "type": "Feature", "properties": { "index": "191", "@osmId": "way/560320893", "name": null, "opening_hours": null, "label": "Tram tracks", "color": "#cb181d" }, "geometry": { "type": "Point", "coordinates": [ 8.6762541, 49.4189324 ] } },
{ "type": "Feature", "properties": { "index": "192", "@osmId": "way/560320894", "name": null, "opening_hours": null, "label": "Tram tracks", "color": "#cb181d" }, "geometry": { "type": "Point", "coordinates": [ 8.6762524, 49.4189329 ] } },
{ "type": "Feature", "properties": { "index": "193", "@osmId": "way/598412386", "name": null, "opening_hours": null, "label": "Tram tracks", "color": "#cb181d" }, "geometry": { "type": "Point", "coordinates": [ 8.6775142, 49.4000597 ] } },
{ "type": "Feature", "properties": { "index": "194", "@osmId": "way/598412387", "name": null, "opening_hours": null, "label": "Tram tracks", "color": "#cb181d" }, "geometry": { "type": "Point", "coordinates": [ 8.6738933, 49.4019445 ] } },
{ "type": "Feature", "properties": { "index": "195", "@osmId": "way/609275473", "name": null, "opening_hours": null, "label": "Tram tracks", "color": "#cb181d" }, "geometry": { "type": "Point", "coordinates": [ 8.6746773, 49.4051733 ] } },
{ "type": "Feature", "properties": { "index": "196", "@osmId": "way/609275474", "name": null, "opening_hours": null, "label": "Tram tracks", "color": "#cb181d" }, "geometry": { "type": "Point", "coordinates": [ 8.674638, 49.4051906 ] } },
{ "type": "Feature", "properties": { "index": "197", "@osmId": "way/609275475", "name": null, "opening_hours": null, "label": "Tram tracks", "color": "#cb181d" }, "geometry": { "type": "Point", "coordinates": [ 8.6735476, 49.4068145 ] } },
{ "type": "Feature", "properties": { "index": "198", "@osmId": "way/609275476", "name": null, "opening_hours": null, "label": "Tram tracks", "color": "#cb181d" }, "geometry": { "type": "Point", "coordinates": [ 8.6732449, 49.4068086 ] } },
{ "type": "Feature", "properties": { "index": "199", "@osmId": "way/609275477", "name": null, "opening_hours": null, "label": "Tram tracks", "color": "#cb181d" }, "geometry": { "type": "Point", "coordinates": [ 8.6736967, 49.4068162 ] } },
{ "type": "Feature", "properties": { "index": "200", "@osmId": "way/609275478", "name": null, "opening_hours": null, "label": "Tram tracks", "color": "#cb181d" }, "geometry": { "type": "Point", "coordinates": [ 8.6730802, 49.407179 ] } },
{ "type": "Feature", "properties": { "index": "201", "@osmId": "way/609275479", "name": null, "opening_hours": null, "label": "Tram tracks", "color": "#cb181d" }, "geometry": { "type": "Point", "coordinates": [ 8.6734942, 49.4068135 ] } },
{ "type": "Feature", "properties": { "index": "202", "@osmId": "way/609275480", "name": null, "opening_hours": null, "label": "Tram tracks", "color": "#cb181d" }, "geometry": { "type": "Point", "coordinates": [ 8.6736484, 49.4068156 ] } },
{ "type": "Feature", "properties": { "index": "203", "@osmId": "way/609275481", "name": null, "opening_hours": null, "label": "Tram tracks", "color": "#cb181d" }, "geometry": { "type": "Point", "coordinates": [ 8.6731823, 49.4071802 ] } },
{ "type": "Feature", "properties": { "index": "204", "@osmId": "way/609275482", "name": null, "opening_hours": null, "label": "Tram tracks", "color": "#cb181d" }, "geometry": { "type": "Point", "coordinates": [ 8.6729464, 49.4068058 ] } },
{ "type": "Feature", "properties": { "index": "205", "@osmId": "way/609275483", "name": null, "opening_hours": null, "label": "Tram tracks", "color": "#cb181d" }, "geometry": { "type": "Point", "coordinates": [ 8.6734422, 49.4068138 ] } },
{ "type": "Feature", "properties": { "index": "206", "@osmId": "way/609275484", "name": null, "opening_hours": null, "label": "Tram tracks", "color": "#cb181d" }, "geometry": { "type": "Point", "coordinates": [ 8.6731327, 49.4071798 ] } },
{ "type": "Feature", "properties": { "index": "207", "@osmId": "way/609275485", "name": null, "opening_hours": null, "label": "Tram tracks", "color": "#cb181d" }, "geometry": { "type": "Point", "coordinates": [ 8.6736, 49.406815 ] } },
{ "type": "Feature", "properties": { "index": "208", "@osmId": "way/609275486", "name": null, "opening_hours": null, "label": "Tram tracks", "color": "#cb181d" }, "geometry": { "type": "Point", "coordinates": [ 8.6732937, 49.4068073 ] } },
{ "type": "Feature", "properties": { "index": "209", "@osmId": "way/609275487", "name": null, "opening_hours": null, "label": "Tram tracks", "color": "#cb181d" }, "geometry": { "type": "Point", "coordinates": [ 8.6733312, 49.4071622 ] } },
{ "type": "Feature", "properties": { "index": "210", "@osmId": "way/609275488", "name": null, "opening_hours": null, "label": "Tram tracks", "color": "#cb181d" }, "geometry": { "type": "Point", "coordinates": [ 8.6729838, 49.4071569 ] } },
{ "type": "Feature", "properties": { "index": "211", "@osmId": "way/609275489", "name": null, "opening_hours": null, "label": "Tram tracks", "color": "#cb181d" }, "geometry": { "type": "Point", "coordinates": [ 8.6730295, 49.4068067 ] } },
{ "type": "Feature", "properties": { "index": "212", "@osmId": "way/609275490", "name": null, "opening_hours": null, "label": "Tram tracks", "color": "#cb181d" }, "geometry": { "type": "Point", "coordinates": [ 8.6732127, 49.405302 ] } },
{ "type": "Feature", "properties": { "index": "213", "@osmId": "way/609284047", "name": null, "opening_hours": null, "label": "Tram tracks", "color": "#cb181d" }, "geometry": { "type": "Point", "coordinates": [ 8.6746588, 49.4070297 ] } },
{ "type": "Feature", "properties": { "index": "214", "@osmId": "way/609284052", "name": null, "opening_hours": null, "label": "Tram tracks", "color": "#cb181d" }, "geometry": { "type": "Point", "coordinates": [ 8.6744573, 49.4075149 ] } },
{ "type": "Feature", "properties": { "index": "215", "@osmId": "way/609284058", "name": null, "opening_hours": null, "label": "Tram tracks", "color": "#cb181d" }, "geometry": { "type": "Point", "coordinates": [ 8.6745834, 49.4070286 ] } },
{ "type": "Feature", "properties": { "index": "216", "@osmId": "way/612152601", "name": null, "opening_hours": null, "label": "Tram tracks", "color": "#cb181d" }, "geometry": { "type": "Point", "coordinates": [ 8.6748683, 49.4055799 ] } },
{ "type": "Feature", "properties": { "index": "217", "@osmId": "way/612152603", "name": null, "opening_hours": null, "label": "Tram tracks", "color": "#cb181d" }, "geometry": { "type": "Point", "coordinates": [ 8.6749112, 49.4055887 ] } },
{ "type": "Feature", "properties": { "index": "218", "@osmId": "way/612152608", "name": null, "opening_hours": null, "label": "Tram tracks", "color": "#cb181d" }, "geometry": { "type": "Point", "coordinates": [ 8.6748825, 49.4061528 ] } },
{ "type": "Feature", "properties": { "index": "219", "@osmId": "way/620369567", "name": null, "opening_hours": null, "label": "Tram tracks", "color": "#cb181d" }, "geometry": { "type": "Point", "coordinates": [ 8.6749685, 49.4053096 ] } },
{ "type": "Feature", "properties": { "index": "220", "@osmId": "way/620369568", "name": null, "opening_hours": null, "label": "Tram tracks", "color": "#cb181d" }, "geometry": { "type": "Point", "coordinates": [ 8.6748942, 49.405317 ] } },
{ "type": "Feature", "properties": { "index": "221", "@osmId": "way/620375173", "name": null, "opening_hours": null, "label": "Tram tracks", "color": "#cb181d" }, "geometry": { "type": "Point", "coordinates": [ 8.6775743, 49.4001584 ] } },
{ "type": "Feature", "properties": { "index": "222", "@osmId": "way/620375174", "name": null, "opening_hours": null, "label": "Tram tracks", "color": "#cb181d" }, "geometry": { "type": "Point", "coordinates": [ 8.6775496, 49.4000755 ] } },
{ "type": "Feature", "properties": { "index": "223", "@osmId": "way/620376370", "name": null, "opening_hours": null, "label": "Tram tracks", "color": "#cb181d" }, "geometry": { "type": "Point", "coordinates": [ 8.6722432, 49.4025528 ] } },
{ "type": "Feature", "properties": { "index": "224", "@osmId": "way/620376371", "name": null, "opening_hours": null, "label": "Tram tracks", "color": "#cb181d" }, "geometry": { "type": "Point", "coordinates": [ 8.6738728, 49.4019856 ] } },
{ "type": "Feature", "properties": { "index": "225", "@osmId": "way/621159746", "name": null, "opening_hours": null, "label": "Tram tracks", "color": "#cb181d" }, "geometry": { "type": "Point", "coordinates": [ 8.6746553, 49.405034 ] } },
{ "type": "Feature", "properties": { "index": "226", "@osmId": "way/654355419", "name": null, "opening_hours": null, "label": "Tram tracks", "color": "#cb181d" }, "geometry": { "type": "Point", "coordinates": [ 8.6779936, 49.4002512 ] } },
{ "type": "Feature", "properties": { "index": "227", "@osmId": "way/654355420", "name": null, "opening_hours": null, "label": "Tram tracks", "color": "#cb181d" }, "geometry": { "type": "Point", "coordinates": [ 8.6771596, 49.4002538 ] } },
{ "type": "Feature", "properties": { "index": "228", "@osmId": "way/654355421", "name": null, "opening_hours": null, "label": "Tram tracks", "color": "#cb181d" }, "geometry": { "type": "Point", "coordinates": [ 8.6779551, 49.4002701 ] } },
{ "type": "Feature", "properties": { "index": "229", "@osmId": "way/654355422", "name": null, "opening_hours": null, "label": "Tram tracks", "color": "#cb181d" }, "geometry": { "type": "Point", "coordinates": [ 8.6676349, 49.403639 ] } },
{ "type": "Feature", "properties": { "index": "230", "@osmId": "way/654355423", "name": null, "opening_hours": null, "label": "Tram tracks", "color": "#cb181d" }, "geometry": { "type": "Point", "coordinates": [ 8.6685642, 49.4033137 ] } },
{ "type": "Feature", "properties": { "index": "231", "@osmId": "way/654355424", "name": null, "opening_hours": null, "label": "Tram tracks", "color": "#cb181d" }, "geometry": { "type": "Point", "coordinates": [ 8.676862, 49.4079084 ] } },
{ "type": "Feature", "properties": { "index": "232", "@osmId": "way/654355425", "name": null, "opening_hours": null, "label": "Tram tracks", "color": "#cb181d" }, "geometry": { "type": "Point", "coordinates": [ 8.6777703, 49.4000672 ] } },
{ "type": "Feature", "properties": { "index": "233", "@osmId": "way/654355426", "name": null, "opening_hours": null, "label": "Tram tracks", "color": "#cb181d" }, "geometry": { "type": "Point", "coordinates": [ 8.6771846, 49.4002751 ] } },
{ "type": "Feature", "properties": { "index": "234", "@osmId": "way/654355427", "name": null, "opening_hours": null, "label": "Tram tracks", "color": "#cb181d" }, "geometry": { "type": "Point", "coordinates": [ 8.6682357, 49.4040409 ] } },
{ "type": "Feature", "properties": { "index": "235", "@osmId": "way/654355428", "name": null, "opening_hours": null, "label": "Tram tracks", "color": "#cb181d" }, "geometry": { "type": "Point", "coordinates": [ 8.6677023, 49.4036333 ] } },
{ "type": "Feature", "properties": { "index": "236", "@osmId": "way/685178497", "name": null, "opening_hours": null, "label": "Tram tracks", "color": "#cb181d" }, "geometry": { "type": "Point", "coordinates": [ 8.6636064, 49.4043643 ] } },
{ "type": "Feature", "properties": { "index": "237", "@osmId": "way/685178498", "name": null, "opening_hours": null, "label": "Tram tracks", "color": "#cb181d" }, "geometry": { "type": "Point", "coordinates": [ 8.6673095, 49.4035804 ] } },
{ "type": "Feature", "properties": { "index": "238", "@osmId": "way/685178499", "name": null, "opening_hours": null, "label": "Tram tracks", "color": "#cb181d" }, "geometry": { "type": "Point", "coordinates": [ 8.6673087, 49.403611 ] } },
{ "type": "Feature", "properties": { "index": "239", "@osmId": "way/685178500", "name": null, "opening_hours": null, "label": "Tram tracks", "color": "#cb181d" }, "geometry": { "type": "Point", "coordinates": [ 8.6758906, 49.4009244 ] } },
{ "type": "Feature", "properties": { "index": "240", "@osmId": "way/685178501", "name": null, "opening_hours": null, "label": "Tram tracks", "color": "#cb181d" }, "geometry": { "type": "Point", "coordinates": [ 8.6759173, 49.4009458 ] } },
{ "type": "Feature", "properties": { "index": "241", "@osmId": "way/685178502", "name": null, "opening_hours": null, "label": "Tram tracks", "color": "#cb181d" }, "geometry": { "type": "Point", "coordinates": [ 8.6702244, 49.4029588 ] } },
{ "type": "Feature", "properties": { "index": "242", "@osmId": "way/685178503", "name": null, "opening_hours": null, "label": "Tram tracks", "color": "#cb181d" }, "geometry": { "type": "Point", "coordinates": [ 8.6702742, 49.4029743 ] } },
{ "type": "Feature", "properties": { "index": "243", "@osmId": "way/685178504", "name": null, "opening_hours": null, "label": "Tram tracks", "color": "#cb181d" }, "geometry": { "type": "Point", "coordinates": [ 8.6685976, 49.403336 ] } },
{ "type": "Feature", "properties": { "index": "244", "@osmId": "way/685178505", "name": null, "opening_hours": null, "label": "Tram tracks", "color": "#cb181d" }, "geometry": { "type": "Point", "coordinates": [ 8.6687197, 49.4044817 ] } },
{ "type": "Feature", "properties": { "index": "245", "@osmId": "way/685178506", "name": null, "opening_hours": null, "label": "Tram tracks", "color": "#cb181d" }, "geometry": { "type": "Point", "coordinates": [ 8.6686825, 49.4044988 ] } },
{ "type": "Feature", "properties": { "index": "246", "@osmId": "way/685178507", "name": null, "opening_hours": null, "label": "Tram tracks", "color": "#cb181d" }, "geometry": { "type": "Point", "coordinates": [ 8.6693457, 49.4051122 ] } },
{ "type": "Feature", "properties": { "index": "247", "@osmId": "way/685178508", "name": null, "opening_hours": null, "label": "Tram tracks", "color": "#cb181d" }, "geometry": { "type": "Point", "coordinates": [ 8.6692954, 49.4050103 ] } },
{ "type": "Feature", "properties": { "index": "248", "@osmId": "way/721164935", "name": null, "opening_hours": null, "label": "Tram tracks", "color": "#cb181d" }, "geometry": { "type": "Point", "coordinates": [ 8.6782408, 49.4044636 ] } },
{ "type": "Feature", "properties": { "index": "249", "@osmId": "way/721164936", "name": null, "opening_hours": null, "label": "Tram tracks", "color": "#cb181d" }, "geometry": { "type": "Point", "coordinates": [ 8.6773201, 49.4045286 ] } },
{ "type": "Feature", "properties": { "index": "250", "@osmId": "way/721164937", "name": null, "opening_hours": null, "label": "Tram tracks", "color": "#cb181d" }, "geometry": { "type": "Point", "coordinates": [ 8.6759648, 49.4048193 ] } },
{ "type": "Feature", "properties": { "index": "251", "@osmId": "way/721164938", "name": null, "opening_hours": null, "label": "Tram tracks", "color": "#cb181d" }, "geometry": { "type": "Point", "coordinates": [ 8.6750653, 49.4050692 ] } },
{ "type": "Feature", "properties": { "index": "252", "@osmId": "way/721164939", "name": null, "opening_hours": null, "label": "Tram tracks", "color": "#cb181d" }, "geometry": { "type": "Point", "coordinates": [ 8.6749341, 49.4050414 ] } },
{ "type": "Feature", "properties": { "index": "253", "@osmId": "way/721164940", "name": null, "opening_hours": null, "label": "Tram tracks", "color": "#cb181d" }, "geometry": { "type": "Point", "coordinates": [ 8.6761698, 49.4048106 ] } },
{ "type": "Feature", "properties": { "index": "254", "@osmId": "way/721164941", "name": null, "opening_hours": null, "label": "Tram tracks", "color": "#cb181d" }, "geometry": { "type": "Point", "coordinates": [ 8.675869, 49.4049524 ] } },
{ "type": "Feature", "properties": { "index": "255", "@osmId": "way/723890576", "name": null, "opening_hours": null, "label": "Tram tracks", "color": "#cb181d" }, "geometry": { "type": "Point", "coordinates": [ 8.6810493, 49.4048672 ] } },
{ "type": "Feature", "properties": { "index": "256", "@osmId": "way/723890577", "name": null, "opening_hours": null, "label": "Tram tracks", "color": "#cb181d" }, "geometry": { "type": "Point", "coordinates": [ 8.6770327, 49.4046487 ] } },
{ "type": "Feature", "properties": { "index": "257", "@osmId": "way/723890578", "name": null, "opening_hours": null, "label": "Tram tracks", "color": "#cb181d" }, "geometry": { "type": "Point", "coordinates": [ 8.6770629, 49.4045806 ] } },
{ "type": "Feature", "properties": { "index": "258", "@osmId": "way/724244896", "name": null, "opening_hours": null, "label": "Tram tracks", "color": "#cb181d" }, "geometry": { "type": "Point", "coordinates": [ 8.6753592, 49.4050218 ] } },
{ "type": "Feature", "properties": { "index": "259", "@osmId": "way/724244897", "name": null, "opening_hours": null, "label": "Tram tracks", "color": "#cb181d" }, "geometry": { "type": "Point", "coordinates": [ 8.6808026, 49.404789 ] } },
{ "type": "Feature", "properties": { "index": "260", "@osmId": "way/724244898", "name": null, "opening_hours": null, "label": "Tram tracks", "color": "#cb181d" }, "geometry": { "type": "Point", "coordinates": [ 8.6752686, 49.404896 ] } },
{ "type": "Feature", "properties": { "index": "261", "@osmId": "way/724244899", "name": null, "opening_hours": null, "label": "Tram tracks", "color": "#cb181d" }, "geometry": { "type": "Point", "coordinates": [ 8.6753556, 49.4049098 ] } },
{ "type": "Feature", "properties": { "index": "262", "@osmId": "way/727015849", "name": null, "opening_hours": null, "label": "Tram tracks", "color": "#cb181d" }, "geometry": { "type": "Point", "coordinates": [ 8.673918, 49.4061584 ] } },
{ "type": "Feature", "properties": { "index": "263", "@osmId": "way/731786553", "name": null, "opening_hours": null, "label": "Tram tracks", "color": "#cb181d" }, "geometry": { "type": "Point", "coordinates": [ 8.6735644, 49.4061875 ] } },
{ "type": "Feature", "properties": { "index": "264", "@osmId": "way/731786554", "name": null, "opening_hours": null, "label": "Tram tracks", "color": "#cb181d" }, "geometry": { "type": "Point", "coordinates": [ 8.6735479, 49.406211 ] } },
{ "type": "Feature", "properties": { "index": "265", "@osmId": "way/731786555", "name": null, "opening_hours": null, "label": "Tram tracks", "color": "#cb181d" }, "geometry": { "type": "Point", "coordinates": [ 8.673633, 49.4061999 ] } },
{ "type": "Feature", "properties": { "index": "266", "@osmId": "way/816478074", "name": null, "opening_hours": null, "label": "Tram tracks", "color": "#cb181d" }, "geometry": { "type": "Point", "coordinates": [ 8.6749397, 49.4051925 ] } },
{ "type": "Feature", "properties": { "index": "267", "@osmId": "way/817531211", "name": null, "opening_hours": null, "label": "Tram tracks", "color": "#cb181d" }, "geometry": { "type": "Point", "coordinates": [ 8.676798, 49.4093295 ] } },
{ "type": "Feature", "properties": { "index": "268", "@osmId": "way/895035931", "name": null, "opening_hours": null, "label": "Tram tracks", "color": "#cb181d" }, "geometry": { "type": "Point", "coordinates": [ 8.677241, 49.4078771 ] } },
{ "type": "Feature", "properties": { "index": "269", "@osmId": "way/1192049177", "name": null, "opening_hours": null, "label": "Tram tracks", "color": "#cb181d" }, "geometry": { "type": "Point", "coordinates": [ 8.6695155, 49.405208 ] } },
{ "type": "Feature", "properties": { "index": "270", "@osmId": "way/1221862801", "name": null, "opening_hours": null, "label": "Tram tracks", "color": "#cb181d" }, "geometry": { "type": "Point", "coordinates": [ 8.6766886, 49.4118859 ] } },
{ "type": "Feature", "properties": { "index": "271", "@osmId": "way/1221862803", "name": null, "opening_hours": null, "label": "Tram tracks", "color": "#cb181d" }, "geometry": { "type": "Point", "coordinates": [ 8.6766476, 49.4118863 ] } },
{ "type": "Feature", "properties": { "index": "272", "@osmId": "way/1222244910", "name": null, "opening_hours": null, "label": "Tram tracks", "color": "#cb181d" }, "geometry": { "type": "Point", "coordinates": [ 8.6690886, 49.4048268 ] } },
{ "type": "Feature", "properties": { "index": "273", "@osmId": "way/1222244911", "name": null, "opening_hours": null, "label": "Tram tracks", "color": "#cb181d" }, "geometry": { "type": "Point", "coordinates": [ 8.6690572, 49.4048427 ] } },
{ "type": "Feature", "properties": { "index": "274", "@osmId": "way/1222244912", "name": null, "opening_hours": null, "label": "Tram tracks", "color": "#cb181d" }, "geometry": { "type": "Point", "coordinates": [ 8.6689732, 49.4047187 ] } },
{ "type": "Feature", "properties": { "index": "275", "@osmId": "way/1222244913", "name": null, "opening_hours": null, "label": "Tram tracks", "color": "#cb181d" }, "geometry": { "type": "Point", "coordinates": [ 8.668939, 49.4047338 ] } },
{ "type": "Feature", "properties": { "index": "276", "@osmId": "way/1396167548", "name": null, "opening_hours": null, "label": "Tram tracks", "color": "#cb181d" }, "geometry": { "type": "Point", "coordinates": [ 8.6740567, 49.4075912 ] } },
{ "type": "Feature", "properties": { "index": "277", "@osmId": "way/1456240527", "name": null, "opening_hours": null, "label": "Tram tracks", "color": "#cb181d" }, "geometry": { "type": "Point", "coordinates": [ 8.6768434, 49.4081206 ] } }
]
}
