{
"type": "FeatureCollection",
"features": [
{ "type": "Feature", "properties": { "index": "0", "label": "Within 300 m on foot", "color": "#2b8cbe" }, "geometry": { "type": "Polygon", "coordinates": [ [ [ 8.6698371, 49.4002722 ], [ 8.6699855, 49.4002679 ], [ 8.6703219, 49.4001375 ], [ 8.6706895, 49.4000254 ], [ 8.6710721, 49.3999372 ], [ 8.6711618, 49.3999229 ], [ 8.6712841, 49.3998511 ], [ 8.671611, 49.3996943 ], [ 8.67196, 49.3995592 ], [ 8.6723275, 49.399447 ], [ 8.6724622, 49.399416 ], [ 8.6724626, 49.3994155 ], [ 8.6727057, 49.3992035 ], [ 8.6729795, 49.3990081 ], [ 8.6732813, 49.3988311 ], [ 8.6736083, 49.3986743 ], [ 8.6739572, 49.3985391 ], [ 8.6739733, 49.3985342 ], [ 8.6739747, 49.398533 ], [ 8.6742485, 49.3983375 ], [ 8.6745503, 49.3981605 ], [ 8.6746545, 49.3981106 ], [ 8.6747143, 49.3980029 ], [ 8.6825025, 49.3980036 ], [ 8.6825949, 49.3981744 ], [ 8.6826918, 49.3984316 ], [ 8.6827496, 49.3986937 ], [ 8.6827678, 49.3989582 ], [ 8.6827462, 49.3992227 ], [ 8.6826857, 49.3994816 ], [ 8.6828843, 49.3993084 ], [ 8.683158, 49.3991129 ], [ 8.6834598, 49.3989359 ], [ 8.6835102, 49.3989118 ], [ 8.6836049, 49.3988096 ], [ 8.683848, 49.3985975 ], [ 8.6841217, 49.3984021 ], [ 8.6843727, 49.3982549 ], [ 8.6844262, 49.3981971 ], [ 8.6846478, 49.3980038 ], [ 8.6935299, 49.3980038 ], [ 8.6935421, 49.3981798 ], [ 8.6935205, 49.3984443 ], [ 8.6934981, 49.3985403 ], [ 8.6934785, 49.3987812 ], [ 8.6934173, 49.399043 ], [ 8.6933171, 49.3992996 ], [ 8.6931788, 49.3995486 ], [ 8.6930039, 49.3997875 ], [ 8.6927938, 49.4000141 ], [ 8.6927791, 49.400027 ], [ 8.6927501, 49.4000792 ], [ 8.6925751, 49.4003181 ], [ 8.6923651, 49.4005447 ], [ 8.692122, 49.4007567 ], [ 8.6918483, 49.4009522 ], [ 8.6915465, 49.4011293 ], [ 8.6912865, 49.401254 ], [ 8.6910688, 49.401444 ], [ 8.6907951, 49.4016395 ], [ 8.6905431, 49.4017873 ], [ 8.6904839, 49.4018511 ], [ 8.6902408, 49.4020632 ], [ 8.6899671, 49.4022587 ], [ 8.6896653, 49.4024357 ], [ 8.6896264, 49.4024544 ], [ 8.6895246, 49.4025642 ], [ 8.6892816, 49.4027762 ], [ 8.6890078, 49.4029717 ], [ 8.6889247, 49.4030204 ], [ 8.6889384, 49.4032185 ], [ 8.6889168, 49.4034829 ], [ 8.6888556, 49.4037447 ], [ 8.6888194, 49.4038376 ], [ 8.6891771, 49.4038732 ], [ 8.6895437, 49.4039341 ], [ 8.6899296, 49.4039726 ], [ 8.6903229, 49.404038 ], [ 8.6907044, 49.4041282 ], [ 8.6910122, 49.4042242 ], [ 8.6911217, 49.404228 ], [ 8.6915228, 49.4042679 ], [ 8.6919161, 49.4043333 ], [ 8.6922976, 49.4044236 ], [ 8.6926455, 49.4045321 ], [ 8.6928626, 49.4045396 ], [ 8.6932638, 49.4045795 ], [ 8.693657, 49.4046449 ], [ 8.6940385, 49.4047352 ], [ 8.6944047, 49.4048493 ], [ 8.6947519, 49.4049864 ], [ 8.6950769, 49.405145 ], [ 8.6953764, 49.4053236 ], [ 8.6956477, 49.4055206 ], [ 8.6958882, 49.4057339 ], [ 8.6960954, 49.4059616 ], [ 8.6962674, 49.4062014 ], [ 8.6964026, 49.4064511 ], [ 8.6964154, 49.406485 ], [ 8.6965548, 49.4066793 ], [ 8.6966899, 49.406929 ], [ 8.696787, 49.4071862 ], [ 8.6968449, 49.4074483 ], [ 8.6968632, 49.4077128 ], [ 8.6968416, 49.4079773 ], [ 8.6967805, 49.408239 ], [ 8.6967322, 49.4083627 ], [ 8.6968253, 49.4084924 ], [ 8.6969605, 49.4087421 ], [ 8.6970316, 49.4089306 ], [ 8.6970379, 49.4089394 ], [ 8.6971731, 49.4091891 ], [ 8.6972701, 49.4094462 ], [ 8.6973281, 49.4097084 ], [ 8.6973464, 49.4099729 ], [ 8.6973248, 49.4102373 ], [ 8.6972983, 49.410351 ], [ 8.697287, 49.41049 ], [ 8.6972258, 49.4107518 ], [ 8.6971256, 49.4110085 ], [ 8.6971235, 49.4110123 ], [ 8.6970917, 49.4110937 ], [ 8.6970829, 49.4111095 ], [ 8.6969918, 49.4113428 ], [ 8.6969478, 49.4114221 ], [ 8.6969461, 49.4114292 ], [ 8.696948, 49.4114564 ], [ 8.6969265, 49.4117209 ], [ 8.6968653, 49.4119826 ], [ 8.6967651, 49.4122393 ], [ 8.6966785, 49.4123952 ], [ 8.6966869, 49.4125164 ], [ 8.6966653, 49.4127809 ], [ 8.6966042, 49.4130427 ], [ 8.696504, 49.4132993 ], [ 8.6963657, 49.4135482 ], [ 8.6961907, 49.4137872 ], [ 8.6959806, 49.4140138 ], [ 8.6957375, 49.4142258 ], [ 8.6954637, 49.4144213 ], [ 8.6951619, 49.4145984 ], [ 8.6948349, 49.4147553 ], [ 8.6944859, 49.4148905 ], [ 8.6941183, 49.4150027 ], [ 8.6937356, 49.4150909 ], [ 8.6933415, 49.4151542 ], [ 8.6931932, 49.4151682 ], [ 8.6935252, 49.4152992 ], [ 8.6938503, 49.4154578 ], [ 8.6941499, 49.4156365 ], [ 8.6944213, 49.4158334 ], [ 8.6946617, 49.4160468 ], [ 8.694869, 49.4162744 ], [ 8.6950411, 49.4165143 ], [ 8.6951763, 49.416764 ], [ 8.6952733, 49.4170211 ], [ 8.6953312, 49.4172832 ], [ 8.6953495, 49.4175478 ], [ 8.695328, 49.4178122 ], [ 8.6952668, 49.418074 ], [ 8.6951666, 49.4183306 ], [ 8.6950283, 49.4185796 ], [ 8.6948532, 49.4188185 ], [ 8.6946431, 49.4190451 ], [ 8.6944, 49.4192572 ], [ 8.6941262, 49.4194527 ], [ 8.6938243, 49.4196297 ], [ 8.6934973, 49.4197866 ], [ 8.6931483, 49.4199218 ], [ 8.6927806, 49.4200341 ], [ 8.6924951, 49.4200999 ], [ 8.6925717, 49.4201678 ], [ 8.692779, 49.4203955 ], [ 8.692951, 49.4206354 ], [ 8.6930862, 49.4208851 ], [ 8.6931833, 49.4211422 ], [ 8.6932412, 49.4214043 ], [ 8.6932595, 49.4216688 ], [ 8.6932379, 49.4219333 ], [ 8.6932214, 49.4220038 ], [ 8.6849778, 49.4220038 ], [ 8.6849554, 49.4219023 ], [ 8.6849372, 49.4216377 ], [ 8.6849588, 49.4213733 ], [ 8.68502, 49.4211115 ], [ 8.6851203, 49.4208549 ], [ 8.6852586, 49.4206059 ], [ 8.6854337, 49.420367 ], [ 8.6856439, 49.4201404 ], [ 8.685887, 49.4199284 ], [ 8.6861609, 49.4197329 ], [ 8.6864628, 49.4195559 ], [ 8.6867898, 49.419399 ], [ 8.6871389, 49.4192638 ], [ 8.6875065, 49.4191516 ], [ 8.6877934, 49.4190855 ], [ 8.6877182, 49.4190187 ], [ 8.6875109, 49.418791 ], [ 8.6873389, 49.4185512 ], [ 8.6872037, 49.4183015 ], [ 8.6871067, 49.4180443 ], [ 8.6870488, 49.4177822 ], [ 8.6870306, 49.4175177 ], [ 8.6870522, 49.4172532 ], [ 8.6871134, 49.4169915 ], [ 8.6872137, 49.4167348 ], [ 8.687352, 49.4164859 ], [ 8.6875271, 49.416247 ], [ 8.6877372, 49.4160204 ], [ 8.6879803, 49.4158083 ], [ 8.6882541, 49.4156129 ], [ 8.688556, 49.4154358 ], [ 8.688883, 49.415279 ], [ 8.689232, 49.4151438 ], [ 8.6895997, 49.4150315 ], [ 8.6899824, 49.4149433 ], [ 8.6903765, 49.41488 ], [ 8.6905164, 49.4148669 ], [ 8.690193, 49.4147392 ], [ 8.6898679, 49.4145806 ], [ 8.6895683, 49.414402 ], [ 8.689297, 49.414205 ], [ 8.6890566, 49.4139917 ], [ 8.6888493, 49.413764 ], [ 8.6886773, 49.4135241 ], [ 8.6885421, 49.4132744 ], [ 8.6884452, 49.4130173 ], [ 8.6883873, 49.4127552 ], [ 8.688369, 49.4124906 ], [ 8.6883906, 49.4122262 ], [ 8.6884518, 49.4119644 ], [ 8.6885521, 49.4117078 ], [ 8.6886331, 49.4115618 ], [ 8.6886324, 49.4115583 ], [ 8.6886141, 49.4112937 ], [ 8.6886323, 49.4110706 ], [ 8.6886154, 49.4110722 ], [ 8.6882099, 49.4110841 ], [ 8.6878046, 49.41107 ], [ 8.6874034, 49.41103 ], [ 8.6870101, 49.4109646 ], [ 8.6866286, 49.4108744 ], [ 8.6862624, 49.4107601 ], [ 8.686078, 49.4106873 ], [ 8.6858689, 49.4107355 ], [ 8.6854748, 49.4107988 ], [ 8.6850731, 49.4108366 ], [ 8.6846676, 49.4108485 ], [ 8.6842623, 49.4108344 ], [ 8.6838611, 49.4107944 ], [ 8.6834679, 49.410729 ], [ 8.6830863, 49.4106387 ], [ 8.6827201, 49.4105245 ], [ 8.6823729, 49.4103874 ], [ 8.6823021, 49.4103528 ], [ 8.6820368, 49.410414 ], [ 8.6816427, 49.4104772 ], [ 8.681241, 49.410515 ], [ 8.6808665, 49.4105259 ], [ 8.6808768, 49.4106765 ], [ 8.6808552, 49.4109409 ], [ 8.6807939, 49.4112027 ], [ 8.6807385, 49.4113447 ], [ 8.6807483, 49.4113707 ], [ 8.6808061, 49.4116328 ], [ 8.6808243, 49.4118974 ], [ 8.6808027, 49.4121618 ], [ 8.6807414, 49.4124236 ], [ 8.6807302, 49.4124524 ], [ 8.6807645, 49.4126077 ], [ 8.6807827, 49.4128723 ], [ 8.6807611, 49.4131367 ], [ 8.6806998, 49.4133985 ], [ 8.6805995, 49.4136551 ], [ 8.6804612, 49.4139041 ], [ 8.6802861, 49.414143 ], [ 8.6802723, 49.4141578 ], [ 8.6803075, 49.4142069 ], [ 8.6804426, 49.4144566 ], [ 8.6805396, 49.4147137 ], [ 8.6805974, 49.4149758 ], [ 8.6806156, 49.4152404 ], [ 8.680594, 49.4155048 ], [ 8.6805327, 49.4157666 ], [ 8.6804324, 49.4160232 ], [ 8.6802941, 49.4162722 ], [ 8.680119, 49.4165111 ], [ 8.6799088, 49.4167376 ], [ 8.6798579, 49.416782 ], [ 8.6799614, 49.4168958 ], [ 8.6801334, 49.4171357 ], [ 8.6802685, 49.4173854 ], [ 8.6803655, 49.4176425 ], [ 8.6804234, 49.4179047 ], [ 8.6804416, 49.4181692 ], [ 8.6804199, 49.4184336 ], [ 8.6803675, 49.4186578 ], [ 8.6803722, 49.4186794 ], [ 8.6803904, 49.4189439 ], [ 8.6803688, 49.4192083 ], [ 8.6803075, 49.4194701 ], [ 8.6802181, 49.4196988 ], [ 8.6802768, 49.4197807 ], [ 8.6804119, 49.4200304 ], [ 8.6805089, 49.4202875 ], [ 8.6805668, 49.4205497 ], [ 8.680585, 49.4208142 ], [ 8.6805633, 49.4210786 ], [ 8.6805021, 49.4213404 ], [ 8.6804018, 49.421597 ], [ 8.6802634, 49.421846 ], [ 8.680148, 49.4220035 ], [ 8.6726891, 49.4220026 ], [ 8.672561, 49.421824 ], [ 8.6724259, 49.4215743 ], [ 8.672329, 49.4213171 ], [ 8.6722712, 49.421055 ], [ 8.672253, 49.4207905 ], [ 8.6722747, 49.420526 ], [ 8.672336, 49.4202642 ], [ 8.6724364, 49.4200076 ], [ 8.6724475, 49.4199875 ], [ 8.6724241, 49.4199548 ], [ 8.672289, 49.4197051 ], [ 8.6721921, 49.4194479 ], [ 8.6721342, 49.4191858 ], [ 8.6721161, 49.4189212 ], [ 8.6721378, 49.4186568 ], [ 8.6721562, 49.4185781 ], [ 8.6721194, 49.4184112 ], [ 8.6721012, 49.4181466 ], [ 8.6721229, 49.4178822 ], [ 8.6721842, 49.4176204 ], [ 8.6722846, 49.4173638 ], [ 8.672423, 49.4171149 ], [ 8.6725981, 49.416876 ], [ 8.6728083, 49.4166494 ], [ 8.6728718, 49.4165941 ], [ 8.6727785, 49.4164915 ], [ 8.6726066, 49.4162516 ], [ 8.6724715, 49.4160019 ], [ 8.6723746, 49.4157447 ], [ 8.6723168, 49.4154826 ], [ 8.6722986, 49.4152181 ], [ 8.6723203, 49.4149536 ], [ 8.6723816, 49.4146918 ], [ 8.6724819, 49.4144352 ], [ 8.6726203, 49.4141863 ], [ 8.6727954, 49.4139474 ], [ 8.672811, 49.4139306 ], [ 8.6727772, 49.4138835 ], [ 8.6726422, 49.4136338 ], [ 8.6725453, 49.4133766 ], [ 8.6724874, 49.4131145 ], [ 8.6724693, 49.41285 ], [ 8.672491, 49.4125855 ], [ 8.6725523, 49.4123237 ], [ 8.6725641, 49.4122935 ], [ 8.67253, 49.4121392 ], [ 8.6725119, 49.4118747 ], [ 8.6725335, 49.4116102 ], [ 8.6725948, 49.4113484 ], [ 8.6726504, 49.4112065 ], [ 8.6726402, 49.4111796 ], [ 8.6725824, 49.4109175 ], [ 8.6725643, 49.410653 ], [ 8.6725742, 49.4105322 ], [ 8.672339, 49.4104931 ], [ 8.6719574, 49.4104028 ], [ 8.6715913, 49.4102885 ], [ 8.6712441, 49.4101514 ], [ 8.6709192, 49.4099927 ], [ 8.6706197, 49.409814 ], [ 8.6704225, 49.4096708 ], [ 8.6703387, 49.4096568 ], [ 8.6699572, 49.4095665 ], [ 8.6695911, 49.4094523 ], [ 8.6692439, 49.4093151 ], [ 8.668919, 49.4091564 ], [ 8.6686194, 49.4089777 ], [ 8.6683482, 49.4087808 ], [ 8.6681079, 49.4085674 ], [ 8.6679008, 49.4083396 ], [ 8.6677289, 49.4080997 ], [ 8.6676314, 49.4079194 ], [ 8.6673127, 49.4077637 ], [ 8.6670132, 49.407585 ], [ 8.666742, 49.407388 ], [ 8.6665017, 49.4071746 ], [ 8.6662946, 49.4069469 ], [ 8.6662677, 49.4069094 ], [ 8.6661376, 49.4068149 ], [ 8.6659964, 49.4066895 ], [ 8.6657332, 49.4067698 ], [ 8.6653505, 49.4068579 ], [ 8.6649564, 49.4069211 ], [ 8.664886, 49.4069277 ], [ 8.6647892, 49.40695 ], [ 8.6643951, 49.4070132 ], [ 8.6639934, 49.4070509 ], [ 8.663588, 49.4070627 ], [ 8.6632904, 49.4070523 ], [ 8.6631512, 49.4071339 ], [ 8.6628242, 49.4072907 ], [ 8.6624752, 49.4074258 ], [ 8.6621075, 49.407538 ], [ 8.6617248, 49.4076261 ], [ 8.6613307, 49.4076893 ], [ 8.660929, 49.4077269 ], [ 8.6605236, 49.4077387 ], [ 8.6601183, 49.4077246 ], [ 8.66, 49.4077128 ], [ 8.66, 49.4023682 ], [ 8.6601554, 49.4023537 ], [ 8.6605608, 49.4023419 ], [ 8.6608584, 49.4023523 ], [ 8.6609975, 49.4022707 ], [ 8.6613245, 49.4021139 ], [ 8.6616735, 49.4019788 ], [ 8.6620411, 49.4018666 ], [ 8.6624238, 49.4017785 ], [ 8.6628178, 49.4017154 ], [ 8.6628882, 49.4017087 ], [ 8.662985, 49.4016865 ], [ 8.6633791, 49.4016233 ], [ 8.6637807, 49.4015856 ], [ 8.6641861, 49.4015738 ], [ 8.6645317, 49.4015858 ], [ 8.6647005, 49.4014869 ], [ 8.6650275, 49.4013301 ], [ 8.6653764, 49.401195 ], [ 8.665744, 49.4010828 ], [ 8.6661267, 49.4009947 ], [ 8.6662486, 49.4009751 ], [ 8.6665715, 49.4009008 ], [ 8.6668871, 49.4008502 ], [ 8.6669987, 49.4008161 ], [ 8.6673813, 49.400728 ], [ 8.6677754, 49.4006648 ], [ 8.6681448, 49.4006301 ], [ 8.6682912, 49.4005734 ], [ 8.6686588, 49.4004612 ], [ 8.6690414, 49.4003731 ], [ 8.6694355, 49.4003099 ], [ 8.6698371, 49.4002722 ] ] ] } },
{ "type": "Feature", "properties": { "index": "1", "label": "Beyond 300 m", "color": "#d9d9d9" }, "geometry": { "type": "MultiPolygon", "coordinates": [ [ [ [ 8.72, 49.398 ], [ 8.72, 49.422 ], [ 8.6932214, 49.4220038 ], [ 8.6932379, 49.4219333 ], [ 8.6932595, 49.4216688 ], [ 8.6932412, 49.4214043 ], [ 8.6931833, 49.4211422 ], [ 8.6930862, 49.4208851 ], [ 8.692951, 49.4206354 ], [ 8.692779, 49.4203955 ], [ 8.6925717, 49.4201678 ], [ 8.6924951, 49.4200999 ], [ 8.6927806, 49.4200341 ], [ 8.6931483, 49.4199218 ], [ 8.6934973, 49.4197866 ], [ 8.6938243, 49.4196297 ], [ 8.6941262, 49.4194527 ], [ 8.6944, 49.4192572 ], [ 8.6946431, 49.4190451 ], [ 8.6948532, 49.4188185 ], [ 8.6950283, 49.4185796 ], [ 8.6951666, 49.4183306 ], [ 8.6952668, 49.418074 ], [ 8.695328, 49.4178122 ], [ 8.6953495, 49.4175478 ], [ 8.6953312, 49.4172832 ], [ 8.6952733, 49.4170211 ], [ 8.6951763, 49.416764 ], [ 8.6950411, 49.4165143 ], [ 8.694869, 49.4162744 ], [ 8.6946617, 49.4160468 ], [ 8.6944213, 49.4158334 ], [ 8.6941499, 49.4156365 ], [ 8.6938503, 49.4154578 ], [ 8.6935252, 49.4152992 ], [ 8.6931932, 49.4151682 ], [ 8.6933415, 49.4151542 ], [ 8.6937356, 49.4150909 ], [ 8.6941183, 49.4150027 ], [ 8.6944859, 49.4148905 ], [ 8.6948349, 49.4147553 ], [ 8.6951619, 49.4145984 ], [ 8.6954637, 49.4144213 ], [ 8.6957375, 49.4142258 ], [ 8.6959806, 49.4140138 ], [ 8.6961907, 49.4137872 ], [ 8.6963657, 49.4135482 ], [ 8.696504, 49.4132993 ], [ 8.6966042, 49.4130427 ], [ 8.6966653, 49.4127809 ], [ 8.6966869, 49.4125164 ], [ 8.6966785, 49.4123952 ], [ 8.6967651, 49.4122393 ], [ 8.6968653, 49.4119826 ], [ 8.6969265, 49.4117209 ], [ 8.696948, 49.4114564 ], [ 8.6969461, 49.4114292 ], [ 8.6969478, 49.4114221 ], [ 8.6969918, 49.4113428 ], [ 8.6970829, 49.4111095 ], [ 8.6970917, 49.4110937 ], [ 8.6971235, 49.4110123 ], [ 8.6971256, 49.4110085 ], [ 8.6972258, 49.4107518 ], [ 8.697287, 49.41049 ], [ 8.6972983, 49.410351 ], [ 8.6973248, 49.4102373 ], [ 8.6973464, 49.4099729 ], [ 8.6973281, 49.4097084 ], [ 8.6972701, 49.4094462 ], [ 8.6971731, 49.4091891 ], [ 8.6970379, 49.4089394 ], [ 8.6970316, 49.4089306 ], [ 8.6969605, 49.4087421 ], [ 8.6968253, 49.4084924 ], [ 8.6967322, 49.4083627 ], [ 8.6967805, 49.408239 ], [ 8.6968416, 49.4079773 ], [ 8.6968632, 49.4077128 ], [ 8.6968449, 49.4074483 ], [ 8.696787, 49.4071862 ], [ 8.6966899, 49.406929 ], [ 8.6965548, 49.4066793 ], [ 8.6964154, 49.406485 ], [ 8.6964026, 49.4064511 ], [ 8.6962674, 49.4062014 ], [ 8.6960954, 49.4059616 ], [ 8.6958882, 49.4057339 ], [ 8.6956477, 49.4055206 ], [ 8.6953764, 49.4053236 ], [ 8.6950769, 49.405145 ], [ 8.6947519, 49.4049864 ], [ 8.6944047, 49.4048493 ], [ 8.6940385, 49.4047352 ], [ 8.693657, 49.4046449 ], [ 8.6932638, 49.4045795 ], [ 8.6928626, 49.4045396 ], [ 8.6926455, 49.4045321 ], [ 8.6922976, 49.4044236 ], [ 8.6919161, 49.4043333 ], [ 8.6915228, 49.4042679 ], [ 8.6911217, 49.404228 ], [ 8.6910122, 49.4042242 ], [ 8.6907044, 49.4041282 ], [ 8.6903229, 49.404038 ], [ 8.6899296, 49.4039726 ], [ 8.6895437, 49.4039341 ], [ 8.6891771, 49.4038732 ], [ 8.6888194, 49.4038376 ], [ 8.6888556, 49.4037447 ], [ 8.6889168, 49.4034829 ], [ 8.6889384, 49.4032185 ], [ 8.6889247, 49.4030204 ], [ 8.6890078, 49.4029717 ], [ 8.6892816, 49.4027762 ], [ 8.6895246, 49.4025642 ], [ 8.6896264, 49.4024544 ], [ 8.6896653, 49.4024357 ], [ 8.6899671, 49.4022587 ], [ 8.6902408, 49.4020632 ], [ 8.6904839, 49.4018511 ], [ 8.6905431, 49.4017873 ], [ 8.6907951, 49.4016395 ], [ 8.6910688, 49.401444 ], [ 8.6912865, 49.401254 ], [ 8.6915465, 49.4011293 ], [ 8.6918483, 49.4009522 ], [ 8.692122, 49.4007567 ], [ 8.6923651, 49.4005447 ], [ 8.6925751, 49.4003181 ], [ 8.6927501, 49.4000792 ], [ 8.6927791, 49.400027 ], [ 8.6927938, 49.4000141 ], [ 8.6930039, 49.3997875 ], [ 8.6931788, 49.3995486 ], [ 8.6933171, 49.3992996 ], [ 8.6934173, 49.399043 ], [ 8.6934785, 49.3987812 ], [ 8.6934981, 49.3985403 ], [ 8.6935205, 49.3984443 ], [ 8.6935421, 49.3981798 ], [ 8.6935299, 49.3980038 ], [ 8.72, 49.398 ] ] ], [ [ [ 8.6849554, 49.4219023 ], [ 8.6849778, 49.4220038 ], [ 8.680148, 49.4220035 ], [ 8.6802634, 49.421846 ], [ 8.6804018, 49.421597 ], [ 8.6805021, 49.4213404 ], [ 8.6805633, 49.4210786 ], [ 8.680585, 49.4208142 ], [ 8.6805668, 49.4205497 ], [ 8.6805089, 49.4202875 ], [ 8.6804119, 49.4200304 ], [ 8.6802768, 49.4197807 ], [ 8.6802181, 49.4196988 ], [ 8.6803075, 49.4194701 ], [ 8.6803688, 49.4192083 ], [ 8.6803904, 49.4189439 ], [ 8.6803722, 49.4186794 ], [ 8.6803675, 49.4186578 ], [ 8.6804199, 49.4184336 ], [ 8.6804416, 49.4181692 ], [ 8.6804234, 49.4179047 ], [ 8.6803655, 49.4176425 ], [ 8.6802685, 49.4173854 ], [ 8.6801334, 49.4171357 ], [ 8.6799614, 49.4168958 ], [ 8.6798579, 49.416782 ], [ 8.6799088, 49.4167376 ], [ 8.680119, 49.4165111 ], [ 8.6802941, 49.4162722 ], [ 8.6804324, 49.4160232 ], [ 8.6805327, 49.4157666 ], [ 8.680594, 49.4155048 ], [ 8.6806156, 49.4152404 ], [ 8.6805974, 49.4149758 ], [ 8.6805396, 49.4147137 ], [ 8.6804426, 49.4144566 ], [ 8.6803075, 49.4142069 ], [ 8.6802723, 49.4141578 ], [ 8.6802861, 49.414143 ], [ 8.6804612, 49.4139041 ], [ 8.6805995, 49.4136551 ], [ 8.6806998, 49.4133985 ], [ 8.6807611, 49.4131367 ], [ 8.6807827, 49.4128723 ], [ 8.6807645, 49.4126077 ], [ 8.6807302, 49.4124524 ], [ 8.6807414, 49.4124236 ], [ 8.6808027, 49.4121618 ], [ 8.6808243, 49.4118974 ], [ 8.6808061, 49.4116328 ], [ 8.6807483, 49.4113707 ], [ 8.6807385, 49.4113447 ], [ 8.6807939, 49.4112027 ], [ 8.6808552, 49.4109409 ], [ 8.6808768, 49.4106765 ], [ 8.6808665, 49.4105259 ], [ 8.681241, 49.410515 ], [ 8.6816427, 49.4104772 ], [ 8.6820368, 49.410414 ], [ 8.6823021, 49.4103528 ], [ 8.6823729, 49.4103874 ], [ 8.6827201, 49.4105245 ], [ 8.6830863, 49.4106387 ], [ 8.6834679, 49.410729 ], [ 8.6838611, 49.4107944 ], [ 8.6842623, 49.4108344 ], [ 8.6846676, 49.4108485 ], [ 8.6850731, 49.4108366 ], [ 8.6854748, 49.4107988 ], [ 8.6858689, 49.4107355 ], [ 8.686078, 49.4106873 ], [ 8.6862624, 49.4107601 ], [ 8.6866286, 49.4108744 ], [ 8.6870101, 49.4109646 ], [ 8.6874034, 49.41103 ], [ 8.6878046, 49.41107 ], [ 8.6882099, 49.4110841 ], [ 8.6886154, 49.4110722 ], [ 8.6886323, 49.4110706 ], [ 8.6886141, 49.4112937 ], [ 8.6886324, 49.4115583 ], [ 8.6886331, 49.4115618 ], [ 8.6885521, 49.4117078 ], [ 8.6884518, 49.4119644 ], [ 8.6883906, 49.4122262 ], [ 8.688369, 49.4124906 ], [ 8.6883873, 49.4127552 ], [ 8.6884452, 49.4130173 ], [ 8.6885421, 49.4132744 ], [ 8.6886773, 49.4135241 ], [ 8.6888493, 49.413764 ], [ 8.6890566, 49.4139917 ], [ 8.689297, 49.414205 ], [ 8.6895683, 49.414402 ], [ 8.6898679, 49.4145806 ], [ 8.690193, 49.4147392 ], [ 8.6905164, 49.4148669 ], [ 8.6903765, 49.41488 ], [ 8.6899824, 49.4149433 ], [ 8.6895997, 49.4150315 ], [ 8.689232, 49.4151438 ], [ 8.688883, 49.415279 ], [ 8.688556, 49.4154358 ], [ 8.6882541, 49.4156129 ], [ 8.6879803, 49.4158083 ], [ 8.6877372, 49.4160204 ], [ 8.6875271, 49.416247 ], [ 8.687352, 49.4164859 ], [ 8.6872137, 49.4167348 ], [ 8.6871134, 49.4169915 ], [ 8.6870522, 49.4172532 ], [ 8.6870306, 49.4175177 ], [ 8.6870488, 49.4177822 ], [ 8.6871067, 49.4180443 ], [ 8.6872037, 49.4183015 ], [ 8.6873389, 49.4185512 ], [ 8.6875109, 49.418791 ], [ 8.6877182, 49.4190187 ], [ 8.6877934, 49.4190855 ], [ 8.6875065, 49.4191516 ], [ 8.6871389, 49.4192638 ], [ 8.6867898, 49.419399 ], [ 8.6864628, 49.4195559 ], [ 8.6861609, 49.4197329 ], [ 8.685887, 49.4199284 ], [ 8.6856439, 49.4201404 ], [ 8.6854337, 49.420367 ], [ 8.6852586, 49.4206059 ], [ 8.6851203, 49.4208549 ], [ 8.68502, 49.4211115 ], [ 8.6849588, 49.4213733 ], [ 8.6849372, 49.4216377 ], [ 8.6849554, 49.4219023 ] ] ], [ [ [ 8.6726891, 49.4220026 ], [ 8.66, 49.422 ], [ 8.66, 49.4077128 ], [ 8.6601183, 49.4077246 ], [ 8.6605236, 49.4077387 ], [ 8.660929, 49.4077269 ], [ 8.6613307, 49.4076893 ], [ 8.6617248, 49.4076261 ], [ 8.6621075, 49.407538 ], [ 8.6624752, 49.4074258 ], [ 8.6628242, 49.4072907 ], [ 8.6631512, 49.4071339 ], [ 8.6632904, 49.4070523 ], [ 8.663588, 49.4070627 ], [ 8.6639934, 49.4070509 ], [ 8.6643951, 49.4070132 ], [ 8.6647892, 49.40695 ], [ 8.664886, 49.4069277 ], [ 8.6649564, 49.4069211 ], [ 8.6653505, 49.4068579 ], [ 8.6657332, 49.4067698 ], [ 8.6659964, 49.4066895 ], [ 8.6661376, 49.4068149 ], [ 8.6662677, 49.4069094 ], [ 8.6662946, 49.4069469 ], [ 8.6665017, 49.4071746 ], [ 8.666742, 49.407388 ], [ 8.6670132, 49.407585 ], [ 8.6673127, 49.4077637 ], [ 8.6676314, 49.4079194 ], [ 8.6677289, 49.4080997 ], [ 8.6679008, 49.4083396 ], [ 8.6681079, 49.4085674 ], [ 8.6683482, 49.4087808 ], [ 8.6686194, 49.4089777 ], [ 8.668919, 49.4091564 ], [ 8.6692439, 49.4093151 ], [ 8.6695911, 49.4094523 ], [ 8.6699572, 49.4095665 ], [ 8.6703387, 49.4096568 ], [ 8.6704225, 49.4096708 ], [ 8.6706197, 49.409814 ], [ 8.6709192, 49.4099927 ], [ 8.6712441, 49.4101514 ], [ 8.6715913, 49.4102885 ], [ 8.6719574, 49.4104028 ], [ 8.672339, 49.4104931 ], [ 8.6725742, 49.4105322 ], [ 8.6725643, 49.410653 ], [ 8.6725824, 49.4109175 ], [ 8.6726402, 49.4111796 ], [ 8.6726504, 49.4112065 ], [ 8.6725948, 49.4113484 ], [ 8.6725335, 49.4116102 ], [ 8.6725119, 49.4118747 ], [ 8.67253, 49.4121392 ], [ 8.6725641, 49.4122935 ], [ 8.6725523, 49.4123237 ], [ 8.672491, 49.4125855 ], [ 8.6724693, 49.41285 ], [ 8.6724874, 49.4131145 ], [ 8.6725453, 49.4133766 ], [ 8.6726422, 49.4136338 ], [ 8.6727772, 49.4138835 ], [ 8.672811, 49.4139306 ], [ 8.6727954, 49.4139474 ], [ 8.6726203, 49.4141863 ], [ 8.6724819, 49.4144352 ], [ 8.6723816, 49.4146918 ], [ 8.6723203, 49.4149536 ], [ 8.6722986, 49.4152181 ], [ 8.6723168, 49.4154826 ], [ 8.6723746, 49.4157447 ], [ 8.6724715, 49.4160019 ], [ 8.6726066, 49.4162516 ], [ 8.6727785, 49.4164915 ], [ 8.6728718, 49.4165941 ], [ 8.6728083, 49.4166494 ], [ 8.6725981, 49.416876 ], [ 8.672423, 49.4171149 ], [ 8.6722846, 49.4173638 ], [ 8.6721842, 49.4176204 ], [ 8.6721229, 49.4178822 ], [ 8.6721012, 49.4181466 ], [ 8.6721194, 49.4184112 ], [ 8.6721562, 49.4185781 ], [ 8.6721378, 49.4186568 ], [ 8.6721161, 49.4189212 ], [ 8.6721342, 49.4191858 ], [ 8.6721921, 49.4194479 ], [ 8.672289, 49.4197051 ], [ 8.6724241, 49.4199548 ], [ 8.6724475, 49.4199875 ], [ 8.6724364, 49.4200076 ], [ 8.672336, 49.4202642 ], [ 8.6722747, 49.420526 ], [ 8.672253, 49.4207905 ], [ 8.6722712, 49.421055 ], [ 8.672329, 49.4213171 ], [ 8.6724259, 49.4215743 ], [ 8.672561, 49.421824 ], [ 8.6726891, 49.4220026 ] ] ], [ [ [ 8.66, 49.4023682 ], [ 8.66, 49.398 ], [ 8.6747143, 49.3980029 ], [ 8.6746545, 49.3981106 ], [ 8.6745503, 49.3981605 ], [ 8.6742485, 49.3983375 ], [ 8.6739747, 49.398533 ], [ 8.6739733, 49.3985342 ], [ 8.6739572, 49.3985391 ], [ 8.6736083, 49.3986743 ], [ 8.6732813, 49.3988311 ], [ 8.6729795, 49.3990081 ], [ 8.6727057, 49.3992035 ], [ 8.6724626, 49.3994155 ], [ 8.6724622, 49.399416 ], [ 8.6723275, 49.399447 ], [ 8.67196, 49.3995592 ], [ 8.671611, 49.3996943 ], [ 8.6712841, 49.3998511 ], [ 8.6711618, 49.3999229 ], [ 8.6710721, 49.3999372 ], [ 8.6706895, 49.4000254 ], [ 8.6703219, 49.4001375 ], [ 8.6699855, 49.4002679 ], [ 8.6698371, 49.4002722 ], [ 8.6694355, 49.4003099 ], [ 8.6690414, 49.4003731 ], [ 8.6686588, 49.4004612 ], [ 8.6682912, 49.4005734 ], [ 8.6681448, 49.4006301 ], [ 8.6677754, 49.4006648 ], [ 8.6673813, 49.400728 ], [ 8.6669987, 49.4008161 ], [ 8.6668871, 49.4008502 ], [ 8.6665715, 49.4009008 ], [ 8.6662486, 49.4009751 ], [ 8.6661267, 49.4009947 ], [ 8.665744, 49.4010828 ], [ 8.6653764, 49.401195 ], [ 8.6650275, 49.4013301 ], [ 8.6647005, 49.4014869 ], [ 8.6645317, 49.4015858 ], [ 8.6641861, 49.4015738 ], [ 8.6637807, 49.4015856 ], [ 8.6633791, 49.4016233 ], [ 8.662985, 49.4016865 ], [ 8.6628882, 49.4017087 ], [ 8.6628178, 49.4017154 ], [ 8.6624238, 49.4017785 ], [ 8.6620411, 49.4018666 ], [ 8.6616735, 49.4019788 ], [ 8.6613245, 49.4021139 ], [ 8.6609975, 49.4022707 ], [ 8.6608584, 49.4023523 ], [ 8.6605608, 49.4023419 ], [ 8.6601554, 49.4023537 ], [ 8.66, 49.4023682 ] ] ], [ [ [ 8.6825949, 49.3981744 ], [ 8.6825025, 49.3980036 ], [ 8.6846478, 49.3980038 ], [ 8.6844262, 49.3981971 ], [ 8.6843727, 49.3982549 ], [ 8.6841217, 49.3984021 ], [ 8.683848, 49.3985975 ], [ 8.6836049, 49.3988096 ], [ 8.6835102, 49.3989118 ], [ 8.6834598, 49.3989359 ], [ 8.683158, 49.3991129 ], [ 8.6828843, 49.3993084 ], [ 8.6826857, 49.3994816 ], [ 8.6827462, 49.3992227 ], [ 8.6827678, 49.3989582 ], [ 8.6827496, 49.3986937 ], [ 8.6826918, 49.3984316 ], [ 8.6825949, 49.3981744 ] ] ] ] } }
]
}
