{
"type": "FeatureCollection",
"features": [
{ "type": "Feature", "properties": { "index": "0", "last_edit_year": 2025, "years_since_edit": 1, "label": "1.0–3.0 yr", "color": "#006837" }, "geometry": { "type": "Point", "coordinates": [ 8.6927498, 49.4113048 ] } },
{ "type": "Feature", "properties": { "index": "1", "last_edit_year": 2025, "years_since_edit": 1, "label": "1.0–3.0 yr", "color": "#006837" }, "geometry": { "type": "Point", "coordinates": [ 8.6924441, 49.4091347 ] } },
{ "type": "Feature", "properties": { "index": "2", "last_edit_year": 2025, "years_since_edit": 1, "label": "1.0–3.0 yr", "color": "#006837" }, "geometry": { "type": "Point", "coordinates": [ 8.6748372, 49.4078971 ] } },
{ "type": "Feature", "properties": { "index": "3", "last_edit_year": 2026, "years_since_edit": 0, "label": "0.0–1.0 yr", "color": "#ffc" }, "geometry": { "type": "Point", "coordinates": [ 8.6736351, 49.4052479 ] } },
{ "type": "Feature", "properties": { "index": "4", "last_edit_year": 2025, "years_since_edit": 1, "label": "1.0–3.0 yr", "color": "#006837" }, "geometry": { "type": "Point", "coordinates": [ 8.6605422, 49.4050403 ] } },
{ "type": "Feature", "properties": { "index": "5", "last_edit_year": 2025, "years_since_edit": 1, "label": "1.0–3.0 yr", "color": "#006837" }, "geometry": { "type": "Point", "coordinates": [ 8.6848034, 49.4032073 ] } },
{ "type": "Feature", "properties": { "index": "6", "last_edit_year": 2026, "years_since_edit": 0, "label": "0.0–1.0 yr", "color": "#ffc" }, "geometry": { "type": "Point", "coordinates": [ 8.6894075, 49.3981688 ] } },
{ "type": "Feature", "properties": { "index": "7", "last_edit_year": 2026, "years_since_edit": 0, "label": "0.0–1.0 yr", "color": "#ffc" }, "geometry": { "type": "Point", "coordinates": [ 8.6893568, 49.3981653 ] } },
{ "type": "Feature", "properties": { "index": "8", "last_edit_year": 2025, "years_since_edit": 1, "label": "1.0–3.0 yr", "color": "#006837" }, "geometry": { "type": "Point", "coordinates": [ 8.6846372, 49.4053865 ] } },
{ "type": "Feature", "properties": { "index": "9", "last_edit_year": 2025, "years_since_edit": 1, "label": "1.0–3.0 yr", "color": "#006837" }, "geometry": { "type": "Point", "coordinates": [ 8.6842856, 49.4053239 ] } },
{ "type": "Feature", "properties": { "index": "10", "last_edit_year": 2025, "years_since_edit": 1, "label": "1.0–3.0 yr", "color": "#006837" }, "geometry": { "type": "Point", "coordinates": [ 8.6925764, 49.4090452 ] } },
{ "type": "Feature", "properties": { "index": "11", "last_edit_year": 2025, "years_since_edit": 1, "label": "1.0–3.0 yr", "color": "#006837" }, "geometry": { "type": "Point", "coordinates": [ 8.6928123, 49.4114455 ] } },
{ "type": "Feature", "properties": { "index": "12", "last_edit_year": 2025, "years_since_edit": 1, "label": "1.0–3.0 yr", "color": "#006837" }, "geometry": { "type": "Point", "coordinates": [ 8.6931729, 49.4102147 ] } },
{ "type": "Feature", "properties": { "index": "13", "last_edit_year": 2026, "years_since_edit": 0, "label": "0.0–1.0 yr", "color": "#ffc" }, "geometry": { "type": "Point", "coordinates": [ 8.688227, 49.4083856 ] } },
{ "type": "Feature", "properties": { "index": "14", "last_edit_year": 2025, "years_since_edit": 1, "label": "1.0–3.0 yr", "color": "#006837" }, "geometry": { "type": "Point", "coordinates": [ 8.6805934, 49.4023593 ] } },
{ "type": "Feature", "properties": { "index": "15", "last_edit_year": 2026, "years_since_edit": 0, "label": "0.0–1.0 yr", "color": "#ffc" }, "geometry": { "type": "Point", "coordinates": [ 8.6924405, 49.407224 ] } },
{ "type": "Feature", "properties": { "index": "16", "last_edit_year": 2025, "years_since_edit": 1, "label": "1.0–3.0 yr", "color": "#006837" }, "geometry": { "type": "Point", "coordinates": [ 8.6912133, 49.4175368 ] } },
{ "type": "Feature", "properties": { "index": "17", "last_edit_year": 2025, "years_since_edit": 1, "label": "1.0–3.0 yr", "color": "#006837" }, "geometry": { "type": "Point", "coordinates": [ 8.6925511, 49.4125055 ] } },
{ "type": "Feature", "properties": { "index": "18", "last_edit_year": 2025, "years_since_edit": 1, "label": "1.0–3.0 yr", "color": "#006837" }, "geometry": { "type": "Point", "coordinates": [ 8.6929982, 49.409515 ] } },
{ "type": "Feature", "properties": { "index": "19", "last_edit_year": 2026, "years_since_edit": 0, "label": "0.0–1.0 yr", "color": "#ffc" }, "geometry": { "type": "Point", "coordinates": [ 8.6850117, 49.4058067 ] } },
{ "type": "Feature", "properties": { "index": "20", "last_edit_year": 2025, "years_since_edit": 1, "label": "1.0–3.0 yr", "color": "#006837" }, "geometry": { "type": "Point", "coordinates": [ 8.6923526, 49.4089898 ] } },
{ "type": "Feature", "properties": { "index": "21", "last_edit_year": 2025, "years_since_edit": 1, "label": "1.0–3.0 yr", "color": "#006837" }, "geometry": { "type": "Point", "coordinates": [ 8.6845976, 49.4053936 ] } },
{ "type": "Feature", "properties": { "index": "22", "last_edit_year": 2025, "years_since_edit": 1, "label": "1.0–3.0 yr", "color": "#006837" }, "geometry": { "type": "Point", "coordinates": [ 8.6837371, 49.4051243 ] } },
{ "type": "Feature", "properties": { "index": "23", "last_edit_year": 2025, "years_since_edit": 1, "label": "1.0–3.0 yr", "color": "#006837" }, "geometry": { "type": "Point", "coordinates": [ 8.683763, 49.4051374 ] } },
{ "type": "Feature", "properties": { "index": "24", "last_edit_year": 2026, "years_since_edit": 0, "label": "0.0–1.0 yr", "color": "#ffc" }, "geometry": { "type": "Point", "coordinates": [ 8.6848749, 49.4057858 ] } },
{ "type": "Feature", "properties": { "index": "25", "last_edit_year": 2026, "years_since_edit": 0, "label": "0.0–1.0 yr", "color": "#ffc" }, "geometry": { "type": "Point", "coordinates": [ 8.6906995, 49.4069124 ] } },
{ "type": "Feature", "properties": { "index": "26", "last_edit_year": 2025, "years_since_edit": 1, "label": "1.0–3.0 yr", "color": "#006837" }, "geometry": { "type": "Point", "coordinates": [ 8.683204, 49.4052157 ] } },
{ "type": "Feature", "properties": { "index": "27", "last_edit_year": 2026, "years_since_edit": 0, "label": "0.0–1.0 yr", "color": "#ffc" }, "geometry": { "type": "Point", "coordinates": [ 8.6843902, 49.4055623 ] } },
{ "type": "Feature", "properties": { "index": "28", "last_edit_year": 2025, "years_since_edit": 1, "label": "1.0–3.0 yr", "color": "#006837" }, "geometry": { "type": "Point", "coordinates": [ 8.6925048, 49.4125017 ] } },
{ "type": "Feature", "properties": { "index": "29", "last_edit_year": 2025, "years_since_edit": 1, "label": "1.0–3.0 yr", "color": "#006837" }, "geometry": { "type": "Point", "coordinates": [ 8.6931544, 49.4102141 ] } },
{ "type": "Feature", "properties": { "index": "30", "last_edit_year": 2025, "years_since_edit": 1, "label": "1.0–3.0 yr", "color": "#006837" }, "geometry": { "type": "Point", "coordinates": [ 8.6930865, 49.4103829 ] } },
{ "type": "Feature", "properties": { "index": "31", "last_edit_year": 2025, "years_since_edit": 1, "label": "1.0–3.0 yr", "color": "#006837" }, "geometry": { "type": "Point", "coordinates": [ 8.6893141, 49.3985018 ] } },
{ "type": "Feature", "properties": { "index": "32", "last_edit_year": 2026, "years_since_edit": 0, "label": "0.0–1.0 yr", "color": "#ffc" }, "geometry": { "type": "Point", "coordinates": [ 8.6893654, 49.3985057 ] } },
{ "type": "Feature", "properties": { "index": "33", "last_edit_year": 2025, "years_since_edit": 1, "label": "1.0–3.0 yr", "color": "#006837" }, "geometry": { "type": "Point", "coordinates": [ 8.6929021, 49.4107848 ] } },
{ "type": "Feature", "properties": { "index": "34", "last_edit_year": 2026, "years_since_edit": 0, "label": "0.0–1.0 yr", "color": "#ffc" }, "geometry": { "type": "Point", "coordinates": [ 8.6856901, 49.4060019 ] } },
{ "type": "Feature", "properties": { "index": "35", "last_edit_year": 2025, "years_since_edit": 1, "label": "1.0–3.0 yr", "color": "#006837" }, "geometry": { "type": "Point", "coordinates": [ 8.6842544, 49.4053012 ] } },
{ "type": "Feature", "properties": { "index": "36", "last_edit_year": 2025, "years_since_edit": 1, "label": "1.0–3.0 yr", "color": "#006837" }, "geometry": { "type": "Point", "coordinates": [ 8.6930391, 49.410549 ] } },
{ "type": "Feature", "properties": { "index": "37", "last_edit_year": 2025, "years_since_edit": 1, "label": "1.0–3.0 yr", "color": "#006837" }, "geometry": { "type": "Point", "coordinates": [ 8.6931292, 49.4102143 ] } },
{ "type": "Feature", "properties": { "index": "38", "last_edit_year": 2025, "years_since_edit": 1, "label": "1.0–3.0 yr", "color": "#006837" }, "geometry": { "type": "Point", "coordinates": [ 8.6930639, 49.4103762 ] } },
{ "type": "Feature", "properties": { "index": "39", "last_edit_year": 2025, "years_since_edit": 1, "label": "1.0–3.0 yr", "color": "#006837" }, "geometry": { "type": "Point", "coordinates": [ 8.6842461, 49.4052597 ] } },
{ "type": "Feature", "properties": { "index": "40", "last_edit_year": 2025, "years_since_edit": 1, "label": "1.0–3.0 yr", "color": "#006837" }, "geometry": { "type": "Point", "coordinates": [ 8.6847486, 49.4032015 ] } },
{ "type": "Feature", "properties": { "index": "41", "last_edit_year": 2026, "years_since_edit": 0, "label": "0.0–1.0 yr", "color": "#ffc" }, "geometry": { "type": "Point", "coordinates": [ 8.6843779, 49.40559 ] } },
{ "type": "Feature", "properties": { "index": "42", "last_edit_year": 2025, "years_since_edit": 1, "label": "1.0–3.0 yr", "color": "#006837" }, "geometry": { "type": "Point", "coordinates": [ 8.6836064, 49.4052876 ] } },
{ "type": "Feature", "properties": { "index": "43", "last_edit_year": 2025, "years_since_edit": 1, "label": "1.0–3.0 yr", "color": "#006837" }, "geometry": { "type": "Point", "coordinates": [ 8.6801534, 49.4019521 ] } },
{ "type": "Feature", "properties": { "index": "44", "last_edit_year": 2025, "years_since_edit": 1, "label": "1.0–3.0 yr", "color": "#006837" }, "geometry": { "type": "Point", "coordinates": [ 8.6931132, 49.4098268 ] } },
{ "type": "Feature", "properties": { "index": "45", "last_edit_year": 2025, "years_since_edit": 1, "label": "1.0–3.0 yr", "color": "#006837" }, "geometry": { "type": "Point", "coordinates": [ 8.6928071, 49.4112423 ] } },
{ "type": "Feature", "properties": { "index": "46", "last_edit_year": 2025, "years_since_edit": 1, "label": "1.0–3.0 yr", "color": "#006837" }, "geometry": { "type": "Point", "coordinates": [ 8.6928967, 49.4106864 ] } },
{ "type": "Feature", "properties": { "index": "47", "last_edit_year": 2026, "years_since_edit": 0, "label": "0.0–1.0 yr", "color": "#ffc" }, "geometry": { "type": "Point", "coordinates": [ 8.6891062, 49.406617 ] } },
{ "type": "Feature", "properties": { "index": "48", "last_edit_year": 2025, "years_since_edit": 1, "label": "1.0–3.0 yr", "color": "#006837" }, "geometry": { "type": "Point", "coordinates": [ 8.6842749, 49.4052364 ] } },
{ "type": "Feature", "properties": { "index": "49", "last_edit_year": 2025, "years_since_edit": 1, "label": "1.0–3.0 yr", "color": "#006837" }, "geometry": { "type": "Point", "coordinates": [ 8.6831843, 49.4052438 ] } },
{ "type": "Feature", "properties": { "index": "50", "last_edit_year": 2025, "years_since_edit": 1, "label": "1.0–3.0 yr", "color": "#006837" }, "geometry": { "type": "Point", "coordinates": [ 8.6822954, 49.4038486 ] } },
{ "type": "Feature", "properties": { "index": "51", "last_edit_year": 2025, "years_since_edit": 1, "label": "1.0–3.0 yr", "color": "#006837" }, "geometry": { "type": "Point", "coordinates": [ 8.6823355, 49.4038344 ] } },
{ "type": "Feature", "properties": { "index": "52", "last_edit_year": 2025, "years_since_edit": 1, "label": "1.0–3.0 yr", "color": "#006837" }, "geometry": { "type": "Point", "coordinates": [ 8.6805492, 49.4023707 ] } },
{ "type": "Feature", "properties": { "index": "53", "last_edit_year": 2026, "years_since_edit": 0, "label": "0.0–1.0 yr", "color": "#ffc" }, "geometry": { "type": "Point", "coordinates": [ 8.685917, 49.4060828 ] } },
{ "type": "Feature", "properties": { "index": "54", "last_edit_year": 2025, "years_since_edit": 1, "label": "1.0–3.0 yr", "color": "#006837" }, "geometry": { "type": "Point", "coordinates": [ 8.6926281, 49.4090518 ] } },
{ "type": "Feature", "properties": { "index": "55", "last_edit_year": 2025, "years_since_edit": 1, "label": "1.0–3.0 yr", "color": "#006837" }, "geometry": { "type": "Point", "coordinates": [ 8.6924249, 49.4090994 ] } },
{ "type": "Feature", "properties": { "index": "56", "last_edit_year": 2025, "years_since_edit": 1, "label": "1.0–3.0 yr", "color": "#006837" }, "geometry": { "type": "Point", "coordinates": [ 8.693139, 49.4102999 ] } },
{ "type": "Feature", "properties": { "index": "57", "last_edit_year": 2026, "years_since_edit": 0, "label": "0.0–1.0 yr", "color": "#ffc" }, "geometry": { "type": "Point", "coordinates": [ 8.6883536, 49.4065176 ] } },
{ "type": "Feature", "properties": { "index": "58", "last_edit_year": 2025, "years_since_edit": 1, "label": "1.0–3.0 yr", "color": "#006837" }, "geometry": { "type": "Point", "coordinates": [ 8.6922925, 49.4089499 ] } },
{ "type": "Feature", "properties": { "index": "59", "last_edit_year": 2026, "years_since_edit": 0, "label": "0.0–1.0 yr", "color": "#ffc" }, "geometry": { "type": "Point", "coordinates": [ 8.692478, 49.4077373 ] } },
{ "type": "Feature", "properties": { "index": "60", "last_edit_year": 2026, "years_since_edit": 0, "label": "0.0–1.0 yr", "color": "#ffc" }, "geometry": { "type": "Point", "coordinates": [ 8.6907197, 49.4069331 ] } },
{ "type": "Feature", "properties": { "index": "61", "last_edit_year": 2025, "years_since_edit": 1, "label": "1.0–3.0 yr", "color": "#006837" }, "geometry": { "type": "Point", "coordinates": [ 8.6925886, 49.4084155 ] } },
{ "type": "Feature", "properties": { "index": "62", "last_edit_year": 2026, "years_since_edit": 0, "label": "0.0–1.0 yr", "color": "#ffc" }, "geometry": { "type": "Point", "coordinates": [ 8.6911668, 49.4175288 ] } },
{ "type": "Feature", "properties": { "index": "63", "last_edit_year": 2025, "years_since_edit": 1, "label": "1.0–3.0 yr", "color": "#006837" }, "geometry": { "type": "Point", "coordinates": [ 8.685097, 49.4017714 ] } },
{ "type": "Feature", "properties": { "index": "64", "last_edit_year": 2025, "years_since_edit": 1, "label": "1.0–3.0 yr", "color": "#006837" }, "geometry": { "type": "Point", "coordinates": [ 8.6851347, 49.4017879 ] } },
{ "type": "Feature", "properties": { "index": "65", "last_edit_year": 2026, "years_since_edit": 0, "label": "0.0–1.0 yr", "color": "#ffc" }, "geometry": { "type": "Point", "coordinates": [ 8.6888907, 49.3990222 ] } },
{ "type": "Feature", "properties": { "index": "66", "last_edit_year": 2026, "years_since_edit": 0, "label": "0.0–1.0 yr", "color": "#ffc" }, "geometry": { "type": "Point", "coordinates": [ 8.6889366, 49.3990363 ] } },
{ "type": "Feature", "properties": { "index": "67", "last_edit_year": 2025, "years_since_edit": 1, "label": "1.0–3.0 yr", "color": "#006837" }, "geometry": { "type": "Point", "coordinates": [ 8.6860961, 49.4010557 ] } },
{ "type": "Feature", "properties": { "index": "68", "last_edit_year": 2025, "years_since_edit": 1, "label": "1.0–3.0 yr", "color": "#006837" }, "geometry": { "type": "Point", "coordinates": [ 8.6860695, 49.401029 ] } },
{ "type": "Feature", "properties": { "index": "69", "last_edit_year": 2025, "years_since_edit": 1, "label": "1.0–3.0 yr", "color": "#006837" }, "geometry": { "type": "Point", "coordinates": [ 8.6878834, 49.3997235 ] } },
{ "type": "Feature", "properties": { "index": "70", "last_edit_year": 2025, "years_since_edit": 1, "label": "1.0–3.0 yr", "color": "#006837" }, "geometry": { "type": "Point", "coordinates": [ 8.6878545, 49.3997056 ] } },
{ "type": "Feature", "properties": { "index": "71", "last_edit_year": 2025, "years_since_edit": 1, "label": "1.0–3.0 yr", "color": "#006837" }, "geometry": { "type": "Point", "coordinates": [ 8.6870332, 49.4003181 ] } },
{ "type": "Feature", "properties": { "index": "72", "last_edit_year": 2025, "years_since_edit": 1, "label": "1.0–3.0 yr", "color": "#006837" }, "geometry": { "type": "Point", "coordinates": [ 8.6870554, 49.4003427 ] } },
{ "type": "Feature", "properties": { "index": "73", "last_edit_year": 2025, "years_since_edit": 1, "label": "1.0–3.0 yr", "color": "#006837" }, "geometry": { "type": "Point", "coordinates": [ 8.6846056, 49.4047051 ] } },
{ "type": "Feature", "properties": { "index": "74", "last_edit_year": 2025, "years_since_edit": 1, "label": "1.0–3.0 yr", "color": "#006837" }, "geometry": { "type": "Point", "coordinates": [ 8.6928789, 49.4109531 ] } },
{ "type": "Feature", "properties": { "index": "75", "last_edit_year": 2025, "years_since_edit": 1, "label": "1.0–3.0 yr", "color": "#006837" }, "geometry": { "type": "Point", "coordinates": [ 8.6846537, 49.4047096 ] } },
{ "type": "Feature", "properties": { "index": "76", "last_edit_year": 2026, "years_since_edit": 0, "label": "0.0–1.0 yr", "color": "#ffc" }, "geometry": { "type": "Point", "coordinates": [ 8.6853875, 49.4059575 ] } },
{ "type": "Feature", "properties": { "index": "77", "last_edit_year": 2026, "years_since_edit": 0, "label": "0.0–1.0 yr", "color": "#ffc" }, "geometry": { "type": "Point", "coordinates": [ 8.6853857, 49.4059578 ] } },
{ "type": "Feature", "properties": { "index": "78", "last_edit_year": 2026, "years_since_edit": 0, "label": "0.0–1.0 yr", "color": "#ffc" }, "geometry": { "type": "Point", "coordinates": [ 8.6865979, 49.4062104 ] } },
{ "type": "Feature", "properties": { "index": "79", "last_edit_year": 2026, "years_since_edit": 0, "label": "0.0–1.0 yr", "color": "#ffc" }, "geometry": { "type": "Point", "coordinates": [ 8.6849762, 49.4058507 ] } },
{ "type": "Feature", "properties": { "index": "80", "last_edit_year": 2025, "years_since_edit": 1, "label": "1.0–3.0 yr", "color": "#006837" }, "geometry": { "type": "Point", "coordinates": [ 8.6827406, 49.4051331 ] } },
{ "type": "Feature", "properties": { "index": "81", "last_edit_year": 2026, "years_since_edit": 0, "label": "0.0–1.0 yr", "color": "#ffc" }, "geometry": { "type": "Point", "coordinates": [ 8.6927278, 49.4077019 ] } },
{ "type": "Feature", "properties": { "index": "82", "last_edit_year": 2025, "years_since_edit": 1, "label": "1.0–3.0 yr", "color": "#006837" }, "geometry": { "type": "Point", "coordinates": [ 8.6928836, 49.4094017 ] } },
{ "type": "Feature", "properties": { "index": "83", "last_edit_year": 2025, "years_since_edit": 1, "label": "1.0–3.0 yr", "color": "#006837" }, "geometry": { "type": "Point", "coordinates": [ 8.6932108, 49.409962 ] } },
{ "type": "Feature", "properties": { "index": "84", "last_edit_year": 2026, "years_since_edit": 0, "label": "0.0–1.0 yr", "color": "#ffc" }, "geometry": { "type": "Point", "coordinates": [ 8.6851251, 49.4058598 ] } },
{ "type": "Feature", "properties": { "index": "85", "last_edit_year": 2025, "years_since_edit": 1, "label": "1.0–3.0 yr", "color": "#006837" }, "geometry": { "type": "Point", "coordinates": [ 8.6793666, 49.4012848 ] } },
{ "type": "Feature", "properties": { "index": "86", "last_edit_year": 2025, "years_since_edit": 1, "label": "1.0–3.0 yr", "color": "#006837" }, "geometry": { "type": "Point", "coordinates": [ 8.6767412, 49.410665 ] } },
{ "type": "Feature", "properties": { "index": "87", "last_edit_year": 2025, "years_since_edit": 1, "label": "1.0–3.0 yr", "color": "#006837" }, "geometry": { "type": "Point", "coordinates": [ 8.670009, 49.4056683 ] } },
{ "type": "Feature", "properties": { "index": "88", "last_edit_year": 2025, "years_since_edit": 1, "label": "1.0–3.0 yr", "color": "#006837" }, "geometry": { "type": "Point", "coordinates": [ 8.6749941, 49.4076913 ] } },
{ "type": "Feature", "properties": { "index": "89", "last_edit_year": 2025, "years_since_edit": 1, "label": "1.0–3.0 yr", "color": "#006837" }, "geometry": { "type": "Point", "coordinates": [ 8.6836029, 49.4053171 ] } },
{ "type": "Feature", "properties": { "index": "90", "last_edit_year": 2025, "years_since_edit": 1, "label": "1.0–3.0 yr", "color": "#006837" }, "geometry": { "type": "Point", "coordinates": [ 8.6766018, 49.4078799 ] } },
{ "type": "Feature", "properties": { "index": "91", "last_edit_year": 2026, "years_since_edit": 0, "label": "0.0–1.0 yr", "color": "#ffc" }, "geometry": { "type": "Point", "coordinates": [ 8.680853, 49.4078284 ] } },
{ "type": "Feature", "properties": { "index": "92", "last_edit_year": 2025, "years_since_edit": 1, "label": "1.0–3.0 yr", "color": "#006837" }, "geometry": { "type": "Point", "coordinates": [ 8.6748464, 49.4078689 ] } },
{ "type": "Feature", "properties": { "index": "93", "last_edit_year": 2025, "years_since_edit": 1, "label": "1.0–3.0 yr", "color": "#006837" }, "geometry": { "type": "Point", "coordinates": [ 8.6741317, 49.4061585 ] } },
{ "type": "Feature", "properties": { "index": "94", "last_edit_year": 2025, "years_since_edit": 1, "label": "1.0–3.0 yr", "color": "#006837" }, "geometry": { "type": "Point", "coordinates": [ 8.6747686, 49.4068853 ] } },
{ "type": "Feature", "properties": { "index": "95", "last_edit_year": 2025, "years_since_edit": 1, "label": "1.0–3.0 yr", "color": "#006837" }, "geometry": { "type": "Point", "coordinates": [ 8.6746155, 49.4077332 ] } },
{ "type": "Feature", "properties": { "index": "96", "last_edit_year": 2025, "years_since_edit": 1, "label": "1.0–3.0 yr", "color": "#006837" }, "geometry": { "type": "Point", "coordinates": [ 8.6730241, 49.4075036 ] } },
{ "type": "Feature", "properties": { "index": "97", "last_edit_year": 2025, "years_since_edit": 1, "label": "1.0–3.0 yr", "color": "#006837" }, "geometry": { "type": "Point", "coordinates": [ 8.6731296, 49.4075017 ] } },
{ "type": "Feature", "properties": { "index": "98", "last_edit_year": 2025, "years_since_edit": 1, "label": "1.0–3.0 yr", "color": "#006837" }, "geometry": { "type": "Point", "coordinates": [ 8.6732594, 49.407508 ] } },
{ "type": "Feature", "properties": { "index": "99", "last_edit_year": 2025, "years_since_edit": 1, "label": "1.0–3.0 yr", "color": "#006837" }, "geometry": { "type": "Point", "coordinates": [ 8.6734224, 49.4075038 ] } },
{ "type": "Feature", "properties": { "index": "100", "last_edit_year": 2025, "years_since_edit": 1, "label": "1.0–3.0 yr", "color": "#006837" }, "geometry": { "type": "Point", "coordinates": [ 8.6735631, 49.4075105 ] } },
{ "type": "Feature", "properties": { "index": "101", "last_edit_year": 2025, "years_since_edit": 1, "label": "1.0–3.0 yr", "color": "#006837" }, "geometry": { "type": "Point", "coordinates": [ 8.67374, 49.4075115 ] } },
{ "type": "Feature", "properties": { "index": "102", "last_edit_year": 2025, "years_since_edit": 1, "label": "1.0–3.0 yr", "color": "#006837" }, "geometry": { "type": "Point", "coordinates": [ 8.6746209, 49.4063934 ] } },
{ "type": "Feature", "properties": { "index": "103", "last_edit_year": 2025, "years_since_edit": 1, "label": "1.0–3.0 yr", "color": "#006837" }, "geometry": { "type": "Point", "coordinates": [ 8.6746484, 49.4060321 ] } },
{ "type": "Feature", "properties": { "index": "104", "last_edit_year": 2025, "years_since_edit": 1, "label": "1.0–3.0 yr", "color": "#006837" }, "geometry": { "type": "Point", "coordinates": [ 8.6715861, 49.4070598 ] } },
{ "type": "Feature", "properties": { "index": "105", "last_edit_year": 2025, "years_since_edit": 1, "label": "1.0–3.0 yr", "color": "#006837" }, "geometry": { "type": "Point", "coordinates": [ 8.6766469, 49.4128608 ] } },
{ "type": "Feature", "properties": { "index": "106", "last_edit_year": 2025, "years_since_edit": 1, "label": "1.0–3.0 yr", "color": "#006837" }, "geometry": { "type": "Point", "coordinates": [ 8.6763053, 49.4181577 ] } },
{ "type": "Feature", "properties": { "index": "107", "last_edit_year": 2025, "years_since_edit": 1, "label": "1.0–3.0 yr", "color": "#006837" }, "geometry": { "type": "Point", "coordinates": [ 8.6743522, 49.4061859 ] } },
{ "type": "Feature", "properties": { "index": "108", "last_edit_year": 2025, "years_since_edit": 1, "label": "1.0–3.0 yr", "color": "#006837" }, "geometry": { "type": "Point", "coordinates": [ 8.6777888, 49.3999869 ] } },
{ "type": "Feature", "properties": { "index": "109", "last_edit_year": 2025, "years_since_edit": 1, "label": "1.0–3.0 yr", "color": "#006837" }, "geometry": { "type": "Point", "coordinates": [ 8.6786332, 49.3989468 ] } },
{ "type": "Feature", "properties": { "index": "110", "last_edit_year": 2025, "years_since_edit": 1, "label": "1.0–3.0 yr", "color": "#006837" }, "geometry": { "type": "Point", "coordinates": [ 8.6769122, 49.40788 ] } },
{ "type": "Feature", "properties": { "index": "111", "last_edit_year": 2025, "years_since_edit": 1, "label": "1.0–3.0 yr", "color": "#006837" }, "geometry": { "type": "Point", "coordinates": [ 8.6764485, 49.4208027 ] } },
{ "type": "Feature", "properties": { "index": "112", "last_edit_year": 2025, "years_since_edit": 1, "label": "1.0–3.0 yr", "color": "#006837" }, "geometry": { "type": "Point", "coordinates": [ 8.6767065, 49.4079407 ] } },
{ "type": "Feature", "properties": { "index": "113", "last_edit_year": 2025, "years_since_edit": 1, "label": "1.0–3.0 yr", "color": "#006837" }, "geometry": { "type": "Point", "coordinates": [ 8.6780991, 49.4003205 ] } },
{ "type": "Feature", "properties": { "index": "114", "last_edit_year": 2025, "years_since_edit": 1, "label": "1.0–3.0 yr", "color": "#006837" }, "geometry": { "type": "Point", "coordinates": [ 8.6769727, 49.4079544 ] } },
{ "type": "Feature", "properties": { "index": "115", "last_edit_year": 2025, "years_since_edit": 1, "label": "1.0–3.0 yr", "color": "#006837" }, "geometry": { "type": "Point", "coordinates": [ 8.6767754, 49.4088936 ] } },
{ "type": "Feature", "properties": { "index": "116", "last_edit_year": 2025, "years_since_edit": 1, "label": "1.0–3.0 yr", "color": "#006837" }, "geometry": { "type": "Point", "coordinates": [ 8.6766999, 49.4106646 ] } },
{ "type": "Feature", "properties": { "index": "117", "last_edit_year": 2025, "years_since_edit": 1, "label": "1.0–3.0 yr", "color": "#006837" }, "geometry": { "type": "Point", "coordinates": [ 8.6770086, 49.4079741 ] } },
{ "type": "Feature", "properties": { "index": "118", "last_edit_year": 2025, "years_since_edit": 1, "label": "1.0–3.0 yr", "color": "#006837" }, "geometry": { "type": "Point", "coordinates": [ 8.674611, 49.4074825 ] } },
{ "type": "Feature", "properties": { "index": "119", "last_edit_year": 2025, "years_since_edit": 1, "label": "1.0–3.0 yr", "color": "#006837" }, "geometry": { "type": "Point", "coordinates": [ 8.6746564, 49.406275 ] } },
{ "type": "Feature", "properties": { "index": "120", "last_edit_year": 2025, "years_since_edit": 1, "label": "1.0–3.0 yr", "color": "#006837" }, "geometry": { "type": "Point", "coordinates": [ 8.6746373, 49.4077504 ] } },
{ "type": "Feature", "properties": { "index": "121", "last_edit_year": 2025, "years_since_edit": 1, "label": "1.0–3.0 yr", "color": "#006837" }, "geometry": { "type": "Point", "coordinates": [ 8.6750258, 49.4077432 ] } },
{ "type": "Feature", "properties": { "index": "122", "last_edit_year": 2025, "years_since_edit": 1, "label": "1.0–3.0 yr", "color": "#006837" }, "geometry": { "type": "Point", "coordinates": [ 8.6748043, 49.4065224 ] } },
{ "type": "Feature", "properties": { "index": "123", "last_edit_year": 2025, "years_since_edit": 1, "label": "1.0–3.0 yr", "color": "#006837" }, "geometry": { "type": "Point", "coordinates": [ 8.6747741, 49.4072643 ] } },
{ "type": "Feature", "properties": { "index": "124", "last_edit_year": 2025, "years_since_edit": 1, "label": "1.0–3.0 yr", "color": "#006837" }, "geometry": { "type": "Point", "coordinates": [ 8.6748263, 49.4070098 ] } },
{ "type": "Feature", "properties": { "index": "125", "last_edit_year": 2025, "years_since_edit": 1, "label": "1.0–3.0 yr", "color": "#006837" }, "geometry": { "type": "Point", "coordinates": [ 8.6759629, 49.4078742 ] } },
{ "type": "Feature", "properties": { "index": "126", "last_edit_year": 2025, "years_since_edit": 1, "label": "1.0–3.0 yr", "color": "#006837" }, "geometry": { "type": "Point", "coordinates": [ 8.6731962, 49.4075058 ] } },
{ "type": "Feature", "properties": { "index": "127", "last_edit_year": 2025, "years_since_edit": 1, "label": "1.0–3.0 yr", "color": "#006837" }, "geometry": { "type": "Point", "coordinates": [ 8.6737966, 49.407511 ] } },
{ "type": "Feature", "properties": { "index": "128", "last_edit_year": 2025, "years_since_edit": 1, "label": "1.0–3.0 yr", "color": "#006837" }, "geometry": { "type": "Point", "coordinates": [ 8.6730837, 49.4075057 ] } },
{ "type": "Feature", "properties": { "index": "129", "last_edit_year": 2025, "years_since_edit": 1, "label": "1.0–3.0 yr", "color": "#006837" }, "geometry": { "type": "Point", "coordinates": [ 8.6734843, 49.4075066 ] } },
{ "type": "Feature", "properties": { "index": "130", "last_edit_year": 2025, "years_since_edit": 1, "label": "1.0–3.0 yr", "color": "#006837" }, "geometry": { "type": "Point", "coordinates": [ 8.6736209, 49.4075092 ] } },
{ "type": "Feature", "properties": { "index": "131", "last_edit_year": 2025, "years_since_edit": 1, "label": "1.0–3.0 yr", "color": "#006837" }, "geometry": { "type": "Point", "coordinates": [ 8.6733137, 49.4075068 ] } },
{ "type": "Feature", "properties": { "index": "132", "last_edit_year": 2025, "years_since_edit": 1, "label": "1.0–3.0 yr", "color": "#006837" }, "geometry": { "type": "Point", "coordinates": [ 8.6733711, 49.4075072 ] } },
{ "type": "Feature", "properties": { "index": "133", "last_edit_year": 2025, "years_since_edit": 1, "label": "1.0–3.0 yr", "color": "#006837" }, "geometry": { "type": "Point", "coordinates": [ 8.6738301, 49.4075024 ] } },
{ "type": "Feature", "properties": { "index": "134", "last_edit_year": 2025, "years_since_edit": 1, "label": "1.0–3.0 yr", "color": "#006837" }, "geometry": { "type": "Point", "coordinates": [ 8.6736795, 49.4075097 ] } },
{ "type": "Feature", "properties": { "index": "135", "last_edit_year": 2025, "years_since_edit": 1, "label": "1.0–3.0 yr", "color": "#006837" }, "geometry": { "type": "Point", "coordinates": [ 8.6741576, 49.4075878 ] } },
{ "type": "Feature", "properties": { "index": "136", "last_edit_year": 2025, "years_since_edit": 1, "label": "1.0–3.0 yr", "color": "#006837" }, "geometry": { "type": "Point", "coordinates": [ 8.6763895, 49.4208021 ] } },
{ "type": "Feature", "properties": { "index": "137", "last_edit_year": 2025, "years_since_edit": 1, "label": "1.0–3.0 yr", "color": "#006837" }, "geometry": { "type": "Point", "coordinates": [ 8.6780571, 49.4003324 ] } },
{ "type": "Feature", "properties": { "index": "138", "last_edit_year": 2025, "years_since_edit": 1, "label": "1.0–3.0 yr", "color": "#006837" }, "geometry": { "type": "Point", "coordinates": [ 8.680119, 49.4019745 ] } },
{ "type": "Feature", "properties": { "index": "139", "last_edit_year": 2025, "years_since_edit": 1, "label": "1.0–3.0 yr", "color": "#006837" }, "geometry": { "type": "Point", "coordinates": [ 8.6765533, 49.4078792 ] } },
{ "type": "Feature", "properties": { "index": "140", "last_edit_year": 2025, "years_since_edit": 1, "label": "1.0–3.0 yr", "color": "#006837" }, "geometry": { "type": "Point", "coordinates": [ 8.6747935, 49.4072986 ] } },
{ "type": "Feature", "properties": { "index": "141", "last_edit_year": 2025, "years_since_edit": 1, "label": "1.0–3.0 yr", "color": "#006837" }, "geometry": { "type": "Point", "coordinates": [ 8.6759492, 49.4079037 ] } },
{ "type": "Feature", "properties": { "index": "142", "last_edit_year": 2026, "years_since_edit": 0, "label": "0.0–1.0 yr", "color": "#ffc" }, "geometry": { "type": "Point", "coordinates": [ 8.6741075, 49.4051342 ] } },
{ "type": "Feature", "properties": { "index": "143", "last_edit_year": 2025, "years_since_edit": 1, "label": "1.0–3.0 yr", "color": "#006837" }, "geometry": { "type": "Point", "coordinates": [ 8.6699501, 49.4056853 ] } },
{ "type": "Feature", "properties": { "index": "144", "last_edit_year": 2025, "years_since_edit": 1, "label": "1.0–3.0 yr", "color": "#006837" }, "geometry": { "type": "Point", "coordinates": [ 8.6783682, 49.4004991 ] } },
{ "type": "Feature", "properties": { "index": "145", "last_edit_year": 2025, "years_since_edit": 1, "label": "1.0–3.0 yr", "color": "#006837" }, "geometry": { "type": "Point", "coordinates": [ 8.6790983, 49.401119 ] } },
{ "type": "Feature", "properties": { "index": "146", "last_edit_year": 2025, "years_since_edit": 1, "label": "1.0–3.0 yr", "color": "#006837" }, "geometry": { "type": "Point", "coordinates": [ 8.6785848, 49.3989429 ] } },
{ "type": "Feature", "properties": { "index": "147", "last_edit_year": 2025, "years_since_edit": 1, "label": "1.0–3.0 yr", "color": "#006837" }, "geometry": { "type": "Point", "coordinates": [ 8.6778544, 49.4001437 ] } },
{ "type": "Feature", "properties": { "index": "148", "last_edit_year": 2026, "years_since_edit": 0, "label": "0.0–1.0 yr", "color": "#ffc" }, "geometry": { "type": "Point", "coordinates": [ 8.6736367, 49.4052136 ] } },
{ "type": "Feature", "properties": { "index": "149", "last_edit_year": 2025, "years_since_edit": 1, "label": "1.0–3.0 yr", "color": "#006837" }, "geometry": { "type": "Point", "coordinates": [ 8.6753449, 49.4078644 ] } },
{ "type": "Feature", "properties": { "index": "150", "last_edit_year": 2026, "years_since_edit": 0, "label": "0.0–1.0 yr", "color": "#ffc" }, "geometry": { "type": "Point", "coordinates": [ 8.6779248, 49.4044635 ] } },
{ "type": "Feature", "properties": { "index": "151", "last_edit_year": 2026, "years_since_edit": 0, "label": "0.0–1.0 yr", "color": "#ffc" }, "geometry": { "type": "Point", "coordinates": [ 8.6741099, 49.4051634 ] } },
{ "type": "Feature", "properties": { "index": "152", "last_edit_year": 2025, "years_since_edit": 1, "label": "1.0–3.0 yr", "color": "#006837" }, "geometry": { "type": "Point", "coordinates": [ 8.6736149, 49.4075881 ] } },
{ "type": "Feature", "properties": { "index": "153", "last_edit_year": 2025, "years_since_edit": 1, "label": "1.0–3.0 yr", "color": "#006837" }, "geometry": { "type": "Point", "coordinates": [ 8.6746242, 49.4062685 ] } },
{ "type": "Feature", "properties": { "index": "154", "last_edit_year": 2025, "years_since_edit": 1, "label": "1.0–3.0 yr", "color": "#006837" }, "geometry": { "type": "Point", "coordinates": [ 8.6715564, 49.407078 ] } },
{ "type": "Feature", "properties": { "index": "155", "last_edit_year": 2025, "years_since_edit": 1, "label": "1.0–3.0 yr", "color": "#006837" }, "geometry": { "type": "Point", "coordinates": [ 8.6745285, 49.4063798 ] } },
{ "type": "Feature", "properties": { "index": "156", "last_edit_year": 2025, "years_since_edit": 1, "label": "1.0–3.0 yr", "color": "#006837" }, "geometry": { "type": "Point", "coordinates": [ 8.6740518, 49.4075917 ] } },
{ "type": "Feature", "properties": { "index": "157", "last_edit_year": 2025, "years_since_edit": 1, "label": "1.0–3.0 yr", "color": "#006837" }, "geometry": { "type": "Point", "coordinates": [ 8.6748408, 49.4071599 ] } },
{ "type": "Feature", "properties": { "index": "158", "last_edit_year": 2025, "years_since_edit": 1, "label": "1.0–3.0 yr", "color": "#006837" }, "geometry": { "type": "Point", "coordinates": [ 8.6740899, 49.4075918 ] } },
{ "type": "Feature", "properties": { "index": "159", "last_edit_year": 2025, "years_since_edit": 1, "label": "1.0–3.0 yr", "color": "#006837" }, "geometry": { "type": "Point", "coordinates": [ 8.6744086, 49.4075067 ] } },
{ "type": "Feature", "properties": { "index": "160", "last_edit_year": 2025, "years_since_edit": 1, "label": "1.0–3.0 yr", "color": "#006837" }, "geometry": { "type": "Point", "coordinates": [ 8.6745193, 49.4075246 ] } },
{ "type": "Feature", "properties": { "index": "161", "last_edit_year": 2025, "years_since_edit": 1, "label": "1.0–3.0 yr", "color": "#006837" }, "geometry": { "type": "Point", "coordinates": [ 8.6735657, 49.4078858 ] } },
{ "type": "Feature", "properties": { "index": "162", "last_edit_year": 2025, "years_since_edit": 1, "label": "1.0–3.0 yr", "color": "#006837" }, "geometry": { "type": "Point", "coordinates": [ 8.6748337, 49.4073045 ] } },
{ "type": "Feature", "properties": { "index": "163", "last_edit_year": 2025, "years_since_edit": 1, "label": "1.0–3.0 yr", "color": "#006837" }, "geometry": { "type": "Point", "coordinates": [ 8.6748145, 49.4067636 ] } },
{ "type": "Feature", "properties": { "index": "164", "last_edit_year": 2025, "years_since_edit": 1, "label": "1.0–3.0 yr", "color": "#006837" }, "geometry": { "type": "Point", "coordinates": [ 8.6735566, 49.4079142 ] } },
{ "type": "Feature", "properties": { "index": "165", "last_edit_year": 2025, "years_since_edit": 1, "label": "1.0–3.0 yr", "color": "#006837" }, "geometry": { "type": "Point", "coordinates": [ 8.674805, 49.4070277 ] } },
{ "type": "Feature", "properties": { "index": "166", "last_edit_year": 2025, "years_since_edit": 1, "label": "1.0–3.0 yr", "color": "#006837" }, "geometry": { "type": "Point", "coordinates": [ 8.6741735, 49.4075922 ] } },
{ "type": "Feature", "properties": { "index": "167", "last_edit_year": 2025, "years_since_edit": 1, "label": "1.0–3.0 yr", "color": "#006837" }, "geometry": { "type": "Point", "coordinates": [ 8.6742265, 49.4061605 ] } },
{ "type": "Feature", "properties": { "index": "168", "last_edit_year": 2025, "years_since_edit": 1, "label": "1.0–3.0 yr", "color": "#006837" }, "geometry": { "type": "Point", "coordinates": [ 8.6742182, 49.4061644 ] } },
{ "type": "Feature", "properties": { "index": "169", "last_edit_year": 2025, "years_since_edit": 1, "label": "1.0–3.0 yr", "color": "#006837" }, "geometry": { "type": "Point", "coordinates": [ 8.6748525, 49.4068458 ] } },
{ "type": "Feature", "properties": { "index": "170", "last_edit_year": 2025, "years_since_edit": 1, "label": "1.0–3.0 yr", "color": "#006837" }, "geometry": { "type": "Point", "coordinates": [ 8.6748391, 49.4061891 ] } },
{ "type": "Feature", "properties": { "index": "171", "last_edit_year": 2026, "years_since_edit": 0, "label": "0.0–1.0 yr", "color": "#ffc" }, "geometry": { "type": "Point", "coordinates": [ 8.6782283, 49.4044664 ] } },
{ "type": "Feature", "properties": { "index": "172", "last_edit_year": 2026, "years_since_edit": 0, "label": "0.0–1.0 yr", "color": "#ffc" }, "geometry": { "type": "Point", "coordinates": [ 8.6846849, 49.40815 ] } },
{ "type": "Feature", "properties": { "index": "173", "last_edit_year": 2025, "years_since_edit": 1, "label": "1.0–3.0 yr", "color": "#006837" }, "geometry": { "type": "Point", "coordinates": [ 8.6764796, 49.4152289 ] } },
{ "type": "Feature", "properties": { "index": "174", "last_edit_year": 2025, "years_since_edit": 1, "label": "1.0–3.0 yr", "color": "#006837" }, "geometry": { "type": "Point", "coordinates": [ 8.6764346, 49.4152297 ] } },
{ "type": "Feature", "properties": { "index": "175", "last_edit_year": 2025, "years_since_edit": 1, "label": "1.0–3.0 yr", "color": "#006837" }, "geometry": { "type": "Point", "coordinates": [ 8.6762375, 49.4181583 ] } },
{ "type": "Feature", "properties": { "index": "176", "last_edit_year": 2025, "years_since_edit": 1, "label": "1.0–3.0 yr", "color": "#006837" }, "geometry": { "type": "Point", "coordinates": [ 8.6768307, 49.4085833 ] } },
{ "type": "Feature", "properties": { "index": "177", "last_edit_year": 2025, "years_since_edit": 1, "label": "1.0–3.0 yr", "color": "#006837" }, "geometry": { "type": "Point", "coordinates": [ 8.6766051, 49.4128616 ] } },
{ "type": "Feature", "properties": { "index": "178", "last_edit_year": 2025, "years_since_edit": 1, "label": "1.0–3.0 yr", "color": "#006837" }, "geometry": { "type": "Point", "coordinates": [ 8.6766833, 49.4079791 ] } },
{ "type": "Feature", "properties": { "index": "179", "last_edit_year": 2026, "years_since_edit": 0, "label": "0.0–1.0 yr", "color": "#ffc" }, "geometry": { "type": "Point", "coordinates": [ 8.6725007, 49.4054327 ] } },
{ "type": "Feature", "properties": { "index": "180", "last_edit_year": 2026, "years_since_edit": 0, "label": "0.0–1.0 yr", "color": "#ffc" }, "geometry": { "type": "Point", "coordinates": [ 8.6725057, 49.4054029 ] } },
{ "type": "Feature", "properties": { "index": "181", "last_edit_year": 2025, "years_since_edit": 1, "label": "1.0–3.0 yr", "color": "#006837" }, "geometry": { "type": "Point", "coordinates": [ 8.6681683, 49.4040349 ] } },
{ "type": "Feature", "properties": { "index": "182", "last_edit_year": 2025, "years_since_edit": 1, "label": "1.0–3.0 yr", "color": "#006837" }, "geometry": { "type": "Point", "coordinates": [ 8.6722552, 49.4025229 ] } },
{ "type": "Feature", "properties": { "index": "183", "last_edit_year": 2025, "years_since_edit": 1, "label": "1.0–3.0 yr", "color": "#006837" }, "geometry": { "type": "Point", "coordinates": [ 8.6891229, 49.4216578 ] } },
{ "type": "Feature", "properties": { "index": "184", "last_edit_year": 2025, "years_since_edit": 1, "label": "1.0–3.0 yr", "color": "#006837" }, "geometry": { "type": "Point", "coordinates": [ 8.6890737, 49.4216489 ] } },
{ "type": "Feature", "properties": { "index": "185", "last_edit_year": 2025, "years_since_edit": 1, "label": "1.0–3.0 yr", "color": "#006837" }, "geometry": { "type": "Point", "coordinates": [ 8.6641677, 49.4042722 ] } },
{ "type": "Feature", "properties": { "index": "186", "last_edit_year": 2025, "years_since_edit": 1, "label": "1.0–3.0 yr", "color": "#006837" }, "geometry": { "type": "Point", "coordinates": [ 8.6679194, 49.4035529 ] } },
{ "type": "Feature", "properties": { "index": "187", "last_edit_year": 2025, "years_since_edit": 1, "label": "1.0–3.0 yr", "color": "#006837" }, "geometry": { "type": "Point", "coordinates": [ 8.677569, 49.4001874 ] } },
{ "type": "Feature", "properties": { "index": "188", "last_edit_year": 2025, "years_since_edit": 1, "label": "1.0–3.0 yr", "color": "#006837" }, "geometry": { "type": "Point", "coordinates": [ 8.6677432, 49.4035181 ] } },
{ "type": "Feature", "properties": { "index": "189", "last_edit_year": 2025, "years_since_edit": 1, "label": "1.0–3.0 yr", "color": "#006837" }, "geometry": { "type": "Point", "coordinates": [ 8.6679567, 49.4035942 ] } },
{ "type": "Feature", "properties": { "index": "190", "last_edit_year": 2025, "years_since_edit": 1, "label": "1.0–3.0 yr", "color": "#006837" }, "geometry": { "type": "Point", "coordinates": [ 8.6677543, 49.4034865 ] } },
{ "type": "Feature", "properties": { "index": "191", "last_edit_year": 2025, "years_since_edit": 1, "label": "1.0–3.0 yr", "color": "#006837" }, "geometry": { "type": "Point", "coordinates": [ 8.6762541, 49.4189324 ] } },
{ "type": "Feature", "properties": { "index": "192", "last_edit_year": 2025, "years_since_edit": 1, "label": "1.0–3.0 yr", "color": "#006837" }, "geometry": { "type": "Point", "coordinates": [ 8.6762524, 49.4189329 ] } },
{ "type": "Feature", "properties": { "index": "193", "last_edit_year": 2025, "years_since_edit": 1, "label": "1.0–3.0 yr", "color": "#006837" }, "geometry": { "type": "Point", "coordinates": [ 8.6775142, 49.4000597 ] } },
{ "type": "Feature", "properties": { "index": "194", "last_edit_year": 2025, "years_since_edit": 1, "label": "1.0–3.0 yr", "color": "#006837" }, "geometry": { "type": "Point", "coordinates": [ 8.6738933, 49.4019445 ] } },
{ "type": "Feature", "properties": { "index": "195", "last_edit_year": 2026, "years_since_edit": 0, "label": "0.0–1.0 yr", "color": "#ffc" }, "geometry": { "type": "Point", "coordinates": [ 8.6746773, 49.4051733 ] } },
{ "type": "Feature", "properties": { "index": "196", "last_edit_year": 2026, "years_since_edit": 0, "label": "0.0–1.0 yr", "color": "#ffc" }, "geometry": { "type": "Point", "coordinates": [ 8.674638, 49.4051906 ] } },
{ "type": "Feature", "properties": { "index": "197", "last_edit_year": 2025, "years_since_edit": 1, "label": "1.0–3.0 yr", "color": "#006837" }, "geometry": { "type": "Point", "coordinates": [ 8.6735476, 49.4068145 ] } },
{ "type": "Feature", "properties": { "index": "198", "last_edit_year": 2025, "years_since_edit": 1, "label": "1.0–3.0 yr", "color": "#006837" }, "geometry": { "type": "Point", "coordinates": [ 8.6732449, 49.4068086 ] } },
{ "type": "Feature", "properties": { "index": "199", "last_edit_year": 2025, "years_since_edit": 1, "label": "1.0–3.0 yr", "color": "#006837" }, "geometry": { "type": "Point", "coordinates": [ 8.6736967, 49.4068162 ] } },
{ "type": "Feature", "properties": { "index": "200", "last_edit_year": 2025, "years_since_edit": 1, "label": "1.0–3.0 yr", "color": "#006837" }, "geometry": { "type": "Point", "coordinates": [ 8.6730802, 49.407179 ] } },
{ "type": "Feature", "properties": { "index": "201", "last_edit_year": 2025, "years_since_edit": 1, "label": "1.0–3.0 yr", "color": "#006837" }, "geometry": { "type": "Point", "coordinates": [ 8.6734942, 49.4068135 ] } },
{ "type": "Feature", "properties": { "index": "202", "last_edit_year": 2025, "years_since_edit": 1, "label": "1.0–3.0 yr", "color": "#006837" }, "geometry": { "type": "Point", "coordinates": [ 8.6736484, 49.4068156 ] } },
{ "type": "Feature", "properties": { "index": "203", "last_edit_year": 2025, "years_since_edit": 1, "label": "1.0–3.0 yr", "color": "#006837" }, "geometry": { "type": "Point", "coordinates": [ 8.6731823, 49.4071802 ] } },
{ "type": "Feature", "properties": { "index": "204", "last_edit_year": 2025, "years_since_edit": 1, "label": "1.0–3.0 yr", "color": "#006837" }, "geometry": { "type": "Point", "coordinates": [ 8.6729464, 49.4068058 ] } },
{ "type": "Feature", "properties": { "index": "205", "last_edit_year": 2025, "years_since_edit": 1, "label": "1.0–3.0 yr", "color": "#006837" }, "geometry": { "type": "Point", "coordinates": [ 8.6734422, 49.4068138 ] } },
{ "type": "Feature", "properties": { "index": "206", "last_edit_year": 2025, "years_since_edit": 1, "label": "1.0–3.0 yr", "color": "#006837" }, "geometry": { "type": "Point", "coordinates": [ 8.6731327, 49.4071798 ] } },
{ "type": "Feature", "properties": { "index": "207", "last_edit_year": 2025, "years_since_edit": 1, "label": "1.0–3.0 yr", "color": "#006837" }, "geometry": { "type": "Point", "coordinates": [ 8.6736, 49.406815 ] } },
{ "type": "Feature", "properties": { "index": "208", "last_edit_year": 2025, "years_since_edit": 1, "label": "1.0–3.0 yr", "color": "#006837" }, "geometry": { "type": "Point", "coordinates": [ 8.6732937, 49.4068073 ] } },
{ "type": "Feature", "properties": { "index": "209", "last_edit_year": 2025, "years_since_edit": 1, "label": "1.0–3.0 yr", "color": "#006837" }, "geometry": { "type": "Point", "coordinates": [ 8.6733312, 49.4071622 ] } },
{ "type": "Feature", "properties": { "index": "210", "last_edit_year": 2025, "years_since_edit": 1, "label": "1.0–3.0 yr", "color": "#006837" }, "geometry": { "type": "Point", "coordinates": [ 8.6729838, 49.4071569 ] } },
{ "type": "Feature", "properties": { "index": "211", "last_edit_year": 2025, "years_since_edit": 1, "label": "1.0–3.0 yr", "color": "#006837" }, "geometry": { "type": "Point", "coordinates": [ 8.6730295, 49.4068067 ] } },
{ "type": "Feature", "properties": { "index": "212", "last_edit_year": 2026, "years_since_edit": 0, "label": "0.0–1.0 yr", "color": "#ffc" }, "geometry": { "type": "Point", "coordinates": [ 8.6732127, 49.405302 ] } },
{ "type": "Feature", "properties": { "index": "213", "last_edit_year": 2025, "years_since_edit": 1, "label": "1.0–3.0 yr", "color": "#006837" }, "geometry": { "type": "Point", "coordinates": [ 8.6746588, 49.4070297 ] } },
{ "type": "Feature", "properties": { "index": "214", "last_edit_year": 2025, "years_since_edit": 1, "label": "1.0–3.0 yr", "color": "#006837" }, "geometry": { "type": "Point", "coordinates": [ 8.6744573, 49.4075149 ] } },
{ "type": "Feature", "properties": { "index": "215", "last_edit_year": 2025, "years_since_edit": 1, "label": "1.0–3.0 yr", "color": "#006837" }, "geometry": { "type": "Point", "coordinates": [ 8.6745834, 49.4070286 ] } },
{ "type": "Feature", "properties": { "index": "216", "last_edit_year": 2026, "years_since_edit": 0, "label": "0.0–1.0 yr", "color": "#ffc" }, "geometry": { "type": "Point", "coordinates": [ 8.6748683, 49.4055799 ] } },
{ "type": "Feature", "properties": { "index": "217", "last_edit_year": 2026, "years_since_edit": 0, "label": "0.0–1.0 yr", "color": "#ffc" }, "geometry": { "type": "Point", "coordinates": [ 8.6749112, 49.4055887 ] } },
{ "type": "Feature", "properties": { "index": "218", "last_edit_year": 2026, "years_since_edit": 0, "label": "0.0–1.0 yr", "color": "#ffc" }, "geometry": { "type": "Point", "coordinates": [ 8.6748825, 49.4061528 ] } },
{ "type": "Feature", "properties": { "index": "219", "last_edit_year": 2026, "years_since_edit": 0, "label": "0.0–1.0 yr", "color": "#ffc" }, "geometry": { "type": "Point", "coordinates": [ 8.6749685, 49.4053096 ] } },
{ "type": "Feature", "properties": { "index": "220", "last_edit_year": 2026, "years_since_edit": 0, "label": "0.0–1.0 yr", "color": "#ffc" }, "geometry": { "type": "Point", "coordinates": [ 8.6748942, 49.405317 ] } },
{ "type": "Feature", "properties": { "index": "221", "last_edit_year": 2025, "years_since_edit": 1, "label": "1.0–3.0 yr", "color": "#006837" }, "geometry": { "type": "Point", "coordinates": [ 8.6775743, 49.4001584 ] } },
{ "type": "Feature", "properties": { "index": "222", "last_edit_year": 2025, "years_since_edit": 1, "label": "1.0–3.0 yr", "color": "#006837" }, "geometry": { "type": "Point", "coordinates": [ 8.6775496, 49.4000755 ] } },
{ "type": "Feature", "properties": { "index": "223", "last_edit_year": 2025, "years_since_edit": 1, "label": "1.0–3.0 yr", "color": "#006837" }, "geometry": { "type": "Point", "coordinates": [ 8.6722432, 49.4025528 ] } },
{ "type": "Feature", "properties": { "index": "224", "last_edit_year": 2025, "years_since_edit": 1, "label": "1.0–3.0 yr", "color": "#006837" }, "geometry": { "type": "Point", "coordinates": [ 8.6738728, 49.4019856 ] } },
{ "type": "Feature", "properties": { "index": "225", "last_edit_year": 2026, "years_since_edit": 0, "label": "0.0–1.0 yr", "color": "#ffc" }, "geometry": { "type": "Point", "coordinates": [ 8.6746553, 49.405034 ] } },
{ "type": "Feature", "properties": { "index": "226", "last_edit_year": 2025, "years_since_edit": 1, "label": "1.0–3.0 yr", "color": "#006837" }, "geometry": { "type": "Point", "coordinates": [ 8.6779936, 49.4002512 ] } },
{ "type": "Feature", "properties": { "index": "227", "last_edit_year": 2025, "years_since_edit": 1, "label": "1.0–3.0 yr", "color": "#006837" }, "geometry": { "type": "Point", "coordinates": [ 8.6771596, 49.4002538 ] } },
{ "type": "Feature", "properties": { "index": "228", "last_edit_year": 2025, "years_since_edit": 1, "label": "1.0–3.0 yr", "color": "#006837" }, "geometry": { "type": "Point", "coordinates": [ 8.6779551, 49.4002701 ] } },
{ "type": "Feature", "properties": { "index": "229", "last_edit_year": 2025, "years_since_edit": 1, "label": "1.0–3.0 yr", "color": "#006837" }, "geometry": { "type": "Point", "coordinates": [ 8.6676349, 49.403639 ] } },
{ "type": "Feature", "properties": { "index": "230", "last_edit_year": 2025, "years_since_edit": 1, "label": "1.0–3.0 yr", "color": "#006837" }, "geometry": { "type": "Point", "coordinates": [ 8.6685642, 49.4033137 ] } },
{ "type": "Feature", "properties": { "index": "231", "last_edit_year": 2025, "years_since_edit": 1, "label": "1.0–3.0 yr", "color": "#006837" }, "geometry": { "type": "Point", "coordinates": [ 8.676862, 49.4079084 ] } },
{ "type": "Feature", "properties": { "index": "232", "last_edit_year": 2025, "years_since_edit": 1, "label": "1.0–3.0 yr", "color": "#006837" }, "geometry": { "type": "Point", "coordinates": [ 8.6777703, 49.4000672 ] } },
{ "type": "Feature", "properties": { "index": "233", "last_edit_year": 2025, "years_since_edit": 1, "label": "1.0–3.0 yr", "color": "#006837" }, "geometry": { "type": "Point", "coordinates": [ 8.6771846, 49.4002751 ] } },
{ "type": "Feature", "properties": { "index": "234", "last_edit_year": 2025, "years_since_edit": 1, "label": "1.0–3.0 yr", "color": "#006837" }, "geometry": { "type": "Point", "coordinates": [ 8.6682357, 49.4040409 ] } },
{ "type": "Feature", "properties": { "index": "235", "last_edit_year": 2025, "years_since_edit": 1, "label": "1.0–3.0 yr", "color": "#006837" }, "geometry": { "type": "Point", "coordinates": [ 8.6677023, 49.4036333 ] } },
{ "type": "Feature", "properties": { "index": "236", "last_edit_year": 2025, "years_since_edit": 1, "label": "1.0–3.0 yr", "color": "#006837" }, "geometry": { "type": "Point", "coordinates": [ 8.6636064, 49.4043643 ] } },
{ "type": "Feature", "properties": { "index": "237", "last_edit_year": 2025, "years_since_edit": 1, "label": "1.0–3.0 yr", "color": "#006837" }, "geometry": { "type": "Point", "coordinates": [ 8.6673095, 49.4035804 ] } },
{ "type": "Feature", "properties": { "index": "238", "last_edit_year": 2025, "years_since_edit": 1, "label": "1.0–3.0 yr", "color": "#006837" }, "geometry": { "type": "Point", "coordinates": [ 8.6673087, 49.403611 ] } },
{ "type": "Feature", "properties": { "index": "239", "last_edit_year": 2025, "years_since_edit": 1, "label": "1.0–3.0 yr", "color": "#006837" }, "geometry": { "type": "Point", "coordinates": [ 8.6758906, 49.4009244 ] } },
{ "type": "Feature", "properties": { "index": "240", "last_edit_year": 2025, "years_since_edit": 1, "label": "1.0–3.0 yr", "color": "#006837" }, "geometry": { "type": "Point", "coordinates": [ 8.6759173, 49.4009458 ] } },
{ "type": "Feature", "properties": { "index": "241", "last_edit_year": 2025, "years_since_edit": 1, "label": "1.0–3.0 yr", "color": "#006837" }, "geometry": { "type": "Point", "coordinates": [ 8.6702244, 49.4029588 ] } },
{ "type": "Feature", "properties": { "index": "242", "last_edit_year": 2025, "years_since_edit": 1, "label": "1.0–3.0 yr", "color": "#006837" }, "geometry": { "type": "Point", "coordinates": [ 8.6702742, 49.4029743 ] } },
{ "type": "Feature", "properties": { "index": "243", "last_edit_year": 2025, "years_since_edit": 1, "label": "1.0–3.0 yr", "color": "#006837" }, "geometry": { "type": "Point", "coordinates": [ 8.6685976, 49.403336 ] } },
{ "type": "Feature", "properties": { "index": "244", "last_edit_year": 2025, "years_since_edit": 1, "label": "1.0–3.0 yr", "color": "#006837" }, "geometry": { "type": "Point", "coordinates": [ 8.6687197, 49.4044817 ] } },
{ "type": "Feature", "properties": { "index": "245", "last_edit_year": 2025, "years_since_edit": 1, "label": "1.0–3.0 yr", "color": "#006837" }, "geometry": { "type": "Point", "coordinates": [ 8.6686825, 49.4044988 ] } },
{ "type": "Feature", "properties": { "index": "246", "last_edit_year": 2025, "years_since_edit": 1, "label": "1.0–3.0 yr", "color": "#006837" }, "geometry": { "type": "Point", "coordinates": [ 8.6693457, 49.4051122 ] } },
{ "type": "Feature", "properties": { "index": "247", "last_edit_year": 2025, "years_since_edit": 1, "label": "1.0–3.0 yr", "color": "#006837" }, "geometry": { "type": "Point", "coordinates": [ 8.6692954, 49.4050103 ] } },
{ "type": "Feature", "properties": { "index": "248", "last_edit_year": 2026, "years_since_edit": 0, "label": "0.0–1.0 yr", "color": "#ffc" }, "geometry": { "type": "Point", "coordinates": [ 8.6782408, 49.4044636 ] } },
{ "type": "Feature", "properties": { "index": "249", "last_edit_year": 2026, "years_since_edit": 0, "label": "0.0–1.0 yr", "color": "#ffc" }, "geometry": { "type": "Point", "coordinates": [ 8.6773201, 49.4045286 ] } },
{ "type": "Feature", "properties": { "index": "250", "last_edit_year": 2025, "years_since_edit": 1, "label": "1.0–3.0 yr", "color": "#006837" }, "geometry": { "type": "Point", "coordinates": [ 8.6759648, 49.4048193 ] } },
{ "type": "Feature", "properties": { "index": "251", "last_edit_year": 2025, "years_since_edit": 1, "label": "1.0–3.0 yr", "color": "#006837" }, "geometry": { "type": "Point", "coordinates": [ 8.6750653, 49.4050692 ] } },
{ "type": "Feature", "properties": { "index": "252", "last_edit_year": 2026, "years_since_edit": 0, "label": "0.0–1.0 yr", "color": "#ffc" }, "geometry": { "type": "Point", "coordinates": [ 8.6749341, 49.4050414 ] } },
{ "type": "Feature", "properties": { "index": "253", "last_edit_year": 2025, "years_since_edit": 1, "label": "1.0–3.0 yr", "color": "#006837" }, "geometry": { "type": "Point", "coordinates": [ 8.6761698, 49.4048106 ] } },
{ "type": "Feature", "properties": { "index": "254", "last_edit_year": 2026, "years_since_edit": 0, "label": "0.0–1.0 yr", "color": "#ffc" }, "geometry": { "type": "Point", "coordinates": [ 8.675869, 49.4049524 ] } },
{ "type": "Feature", "properties": { "index": "255", "last_edit_year": 2025, "years_since_edit": 1, "label": "1.0–3.0 yr", "color": "#006837" }, "geometry": { "type": "Point", "coordinates": [ 8.6810493, 49.4048672 ] } },
{ "type": "Feature", "properties": { "index": "256", "last_edit_year": 2026, "years_since_edit": 0, "label": "0.0–1.0 yr", "color": "#ffc" }, "geometry": { "type": "Point", "coordinates": [ 8.6770327, 49.4046487 ] } },
{ "type": "Feature", "properties": { "index": "257", "last_edit_year": 2026, "years_since_edit": 0, "label": "0.0–1.0 yr", "color": "#ffc" }, "geometry": { "type": "Point", "coordinates": [ 8.6770629, 49.4045806 ] } },
{ "type": "Feature", "properties": { "index": "258", "last_edit_year": 2026, "years_since_edit": 0, "label": "0.0–1.0 yr", "color": "#ffc" }, "geometry": { "type": "Point", "coordinates": [ 8.6753592, 49.4050218 ] } },
{ "type": "Feature", "properties": { "index": "259", "last_edit_year": 2025, "years_since_edit": 1, "label": "1.0–3.0 yr", "color": "#006837" }, "geometry": { "type": "Point", "coordinates": [ 8.6808026, 49.404789 ] } },
{ "type": "Feature", "properties": { "index": "260", "last_edit_year": 2026, "years_since_edit": 0, "label": "0.0–1.0 yr", "color": "#ffc" }, "geometry": { "type": "Point", "coordinates": [ 8.6752686, 49.404896 ] } },
{ "type": "Feature", "properties": { "index": "261", "last_edit_year": 2026, "years_since_edit": 0, "label": "0.0–1.0 yr", "color": "#ffc" }, "geometry": { "type": "Point", "coordinates": [ 8.6753556, 49.4049098 ] } },
{ "type": "Feature", "properties": { "index": "262", "last_edit_year": 2025, "years_since_edit": 1, "label": "1.0–3.0 yr", "color": "#006837" }, "geometry": { "type": "Point", "coordinates": [ 8.673918, 49.4061584 ] } },
{ "type": "Feature", "properties": { "index": "263", "last_edit_year": 2023, "years_since_edit": 3, "label": "1.0–3.0 yr", "color": "#006837" }, "geometry": { "type": "Point", "coordinates": [ 8.6735644, 49.4061875 ] } },
{ "type": "Feature", "properties": { "index": "264", "last_edit_year": 2023, "years_since_edit": 3, "label": "1.0–3.0 yr", "color": "#006837" }, "geometry": { "type": "Point", "coordinates": [ 8.6735479, 49.406211 ] } },
{ "type": "Feature", "properties": { "index": "265", "last_edit_year": 2023, "years_since_edit": 3, "label": "1.0–3.0 yr", "color": "#006837" }, "geometry": { "type": "Point", "coordinates": [ 8.673633, 49.4061999 ] } },
{ "type": "Feature", "properties": { "index": "266", "last_edit_year": 2025, "years_since_edit": 1, "label": "1.0–3.0 yr", "color": "#006837" }, "geometry": { "type": "Point", "coordinates": [ 8.6749397, 49.4051925 ] } },
{ "type": "Feature", "properties": { "index": "267", "last_edit_year": 2025, "years_since_edit": 1, "label": "1.0–3.0 yr", "color": "#006837" }, "geometry": { "type": "Point", "coordinates": [ 8.676798, 49.4093295 ] } },
{ "type": "Feature", "properties": { "index": "268", "last_edit_year": 2025, "years_since_edit": 1, "label": "1.0–3.0 yr", "color": "#006837" }, "geometry": { "type": "Point", "coordinates": [ 8.677241, 49.4078771 ] } },
{ "type": "Feature", "properties": { "index": "269", "last_edit_year": 2025, "years_since_edit": 1, "label": "1.0–3.0 yr", "color": "#006837" }, "geometry": { "type": "Point", "coordinates": [ 8.6695155, 49.405208 ] } },
{ "type": "Feature", "properties": { "index": "270", "last_edit_year": 2025, "years_since_edit": 1, "label": "1.0–3.0 yr", "color": "#006837" }, "geometry": { "type": "Point", "coordinates": [ 8.6766886, 49.4118859 ] } },
{ "type": "Feature", "properties": { "index": "271", "last_edit_year": 2025, "years_since_edit": 1, "label": "1.0–3.0 yr", "color": "#006837" }, "geometry": { "type": "Point", "coordinates": [ 8.6766476, 49.4118863 ] } },
{ "type": "Feature", "properties": { "index": "272", "last_edit_year": 2025, "years_since_edit": 1, "label": "1.0–3.0 yr", "color": "#006837" }, "geometry": { "type": "Point", "coordinates": [ 8.6690886, 49.4048268 ] } },
{ "type": "Feature", "properties": { "index": "273", "last_edit_year": 2025, "years_since_edit": 1, "label": "1.0–3.0 yr", "color": "#006837" }, "geometry": { "type": "Point", "coordinates": [ 8.6690572, 49.4048427 ] } },
{ "type": "Feature", "properties": { "index": "274", "last_edit_year": 2025, "years_since_edit": 1, "label": "1.0–3.0 yr", "color": "#006837" }, "geometry": { "type": "Point", "coordinates": [ 8.6689732, 49.4047187 ] } },
{ "type": "Feature", "properties": { "index": "275", "last_edit_year": 2025, "years_since_edit": 1, "label": "1.0–3.0 yr", "color": "#006837" }, "geometry": { "type": "Point", "coordinates": [ 8.668939, 49.4047338 ] } },
{ "type": "Feature", "properties": { "index": "276", "last_edit_year": 2025, "years_since_edit": 1, "label": "1.0–3.0 yr", "color": "#006837" }, "geometry": { "type": "Point", "coordinates": [ 8.6740567, 49.4075912 ] } },
{ "type": "Feature", "properties": { "index": "277", "last_edit_year": 2025, "years_since_edit": 1, "label": "1.0–3.0 yr", "color": "#006837" }, "geometry": { "type": "Point", "coordinates": [ 8.6768434, 49.4081206 ] } }
]
}
