{
"type": "FeatureCollection",
"features": [
{ "type": "Feature", "properties": { "index": "0", "subarea": "R1C1", "count": 0, "area_km2": 0.988, "density_per_km2": 0.0, "label": "0.0–9.5/km²", "color": "#ffc" }, "geometry": { "type": "Polygon", "coordinates": [ [ [ 8.66, 49.413005 ], [ 8.6736824, 49.4130444 ], [ 8.673623, 49.4220027 ], [ 8.66, 49.422 ], [ 8.66, 49.413005 ] ] ] } },
{ "type": "Feature", "properties": { "index": "1", "subarea": "R1C2", "count": 8, "area_km2": 0.994, "density_per_km2": 8.05, "label": "0.0–9.5/km²", "color": "#ffc" }, "geometry": { "type": "Polygon", "coordinates": [ [ [ 8.6736824, 49.4130444 ], [ 8.6874685, 49.4130825 ], [ 8.6874119, 49.4220039 ], [ 8.673623, 49.4220027 ], [ 8.6736824, 49.4130444 ] ] ] } },
{ "type": "Feature", "properties": { "index": "2", "subarea": "R1C3", "count": 4, "area_km2": 0.99, "density_per_km2": 4.04, "label": "0.0–9.5/km²", "color": "#ffc" }, "geometry": { "type": "Polygon", "coordinates": [ [ [ 8.6874685, 49.4130825 ], [ 8.7012546, 49.413119 ], [ 8.7012007, 49.4220033 ], [ 8.6874119, 49.4220039 ], [ 8.6874685, 49.4130825 ] ] ] } },
{ "type": "Feature", "properties": { "index": "3", "subarea": "R1C4", "count": 0, "area_km2": 0.986, "density_per_km2": 0.0, "label": "0.0–9.5/km²", "color": "#ffc" }, "geometry": { "type": "Polygon", "coordinates": [ [ [ 8.7012546, 49.413119 ], [ 8.7150408, 49.4131538 ], [ 8.7149895, 49.4220012 ], [ 8.7012007, 49.4220033 ], [ 8.7012546, 49.413119 ] ] ] } },
{ "type": "Feature", "properties": { "index": "4", "subarea": "R1C5", "count": 0, "area_km2": 0.355, "density_per_km2": 0.0, "label": "0.0–9.5/km²", "color": "#ffc" }, "geometry": { "type": "Polygon", "coordinates": [ [ [ 8.7149895, 49.4220012 ], [ 8.7150408, 49.4131538 ], [ 8.72, 49.4131659 ], [ 8.72, 49.422 ], [ 8.7149895, 49.4220012 ] ] ] } },
{ "type": "Feature", "properties": { "index": "5", "subarea": "R2C1", "count": 56, "area_km2": 0.995, "density_per_km2": 56.3, "label": "37.9–118.0/km²", "color": "#006837" }, "geometry": { "type": "Polygon", "coordinates": [ [ [ 8.673742, 49.4040496 ], [ 8.6736824, 49.4130444 ], [ 8.66, 49.413005 ], [ 8.66, 49.40401 ], [ 8.673742, 49.4040496 ] ] ] } },
{ "type": "Feature", "properties": { "index": "6", "subarea": "R2C2", "count": 118, "area_km2": 1.0, "density_per_km2": 118.0, "label": "37.9–118.0/km²", "color": "#006837" }, "geometry": { "type": "Polygon", "coordinates": [ [ [ 8.6736824, 49.4130444 ], [ 8.673742, 49.4040496 ], [ 8.6875256, 49.4040877 ], [ 8.6874685, 49.4130825 ], [ 8.6736824, 49.4130444 ] ] ] } },
{ "type": "Feature", "properties": { "index": "7", "subarea": "R2C3", "count": 34, "area_km2": 1.0, "density_per_km2": 34.0, "label": "9.5–37.9/km²", "color": "#78c679" }, "geometry": { "type": "Polygon", "coordinates": [ [ [ 8.6874685, 49.4130825 ], [ 8.6875256, 49.4040877 ], [ 8.7013092, 49.4041241 ], [ 8.7012546, 49.413119 ], [ 8.6874685, 49.4130825 ] ] ] } },
{ "type": "Feature", "properties": { "index": "8", "subarea": "R2C4", "count": 0, "area_km2": 1.0, "density_per_km2": 0.0, "label": "0.0–9.5/km²", "color": "#ffc" }, "geometry": { "type": "Polygon", "coordinates": [ [ [ 8.7012546, 49.413119 ], [ 8.7013092, 49.4041241 ], [ 8.7150928, 49.4041589 ], [ 8.7150408, 49.4131538 ], [ 8.7012546, 49.413119 ] ] ] } },
{ "type": "Feature", "properties": { "index": "9", "subarea": "R2C5", "count": 0, "area_km2": 0.358, "density_per_km2": 0.0, "label": "0.0–9.5/km²", "color": "#ffc" }, "geometry": { "type": "Polygon", "coordinates": [ [ [ 8.7150408, 49.4131538 ], [ 8.7150928, 49.4041589 ], [ 8.72, 49.4041709 ], [ 8.72, 49.4131659 ], [ 8.7150408, 49.4131538 ] ] ] } },
{ "type": "Feature", "properties": { "index": "10", "subarea": "R3C1", "count": 14, "area_km2": 0.669, "density_per_km2": 20.92, "label": "9.5–37.9/km²", "color": "#78c679" }, "geometry": { "type": "Polygon", "coordinates": [ [ [ 8.6737821, 49.3980028 ], [ 8.673742, 49.4040496 ], [ 8.66, 49.40401 ], [ 8.66, 49.398 ], [ 8.6737821, 49.3980028 ] ] ] } },
{ "type": "Feature", "properties": { "index": "11", "subarea": "R3C2", "count": 36, "area_km2": 0.674, "density_per_km2": 53.39, "label": "37.9–118.0/km²", "color": "#006837" }, "geometry": { "type": "Polygon", "coordinates": [ [ [ 8.6875256, 49.4040877 ], [ 8.673742, 49.4040496 ], [ 8.6737821, 49.3980028 ], [ 8.6875642, 49.3980039 ], [ 8.6875256, 49.4040877 ] ] ] } },
{ "type": "Feature", "properties": { "index": "12", "subarea": "R3C3", "count": 8, "area_km2": 0.678, "density_per_km2": 11.79, "label": "9.5–37.9/km²", "color": "#78c679" }, "geometry": { "type": "Polygon", "coordinates": [ [ [ 8.7013092, 49.4041241 ], [ 8.6875256, 49.4040877 ], [ 8.6875642, 49.3980039 ], [ 8.7013463, 49.3980033 ], [ 8.7013092, 49.4041241 ] ] ] } },
{ "type": "Feature", "properties": { "index": "13", "subarea": "R3C4", "count": 0, "area_km2": 0.683, "density_per_km2": 0.0, "label": "0.0–9.5/km²", "color": "#ffc" }, "geometry": { "type": "Polygon", "coordinates": [ [ [ 8.7150928, 49.4041589 ], [ 8.7013092, 49.4041241 ], [ 8.7013463, 49.3980033 ], [ 8.7151285, 49.3980012 ], [ 8.7150928, 49.4041589 ] ] ] } },
{ "type": "Feature", "properties": { "index": "14", "subarea": "R3C5", "count": 0, "area_km2": 0.243, "density_per_km2": 0.0, "label": "0.0–9.5/km²", "color": "#ffc" }, "geometry": { "type": "Polygon", "coordinates": [ [ [ 8.72, 49.4041709 ], [ 8.7150928, 49.4041589 ], [ 8.7151285, 49.3980012 ], [ 8.72, 49.398 ], [ 8.72, 49.4041709 ] ] ] } }
]
}
