{
"type": "FeatureCollection",
"features": [
{ "type": "Feature", "properties": { "index": "0", "subarea": "R1C1", "underserved_pct": 90.7, "underserved_population": 3204.0, "label": "80–100%", "color": "#a50f15" }, "geometry": { "type": "Polygon", "coordinates": [ [ [ 8.66, 49.413005 ], [ 8.6736824, 49.4130444 ], [ 8.673623, 49.4220027 ], [ 8.66, 49.422 ], [ 8.66, 49.413005 ] ] ] } },
{ "type": "Feature", "properties": { "index": "1", "subarea": "R1C2", "underserved_pct": 46.1, "underserved_population": 4356.0, "label": "40–60%", "color": "#fb6a4a" }, "geometry": { "type": "Polygon", "coordinates": [ [ [ 8.6736824, 49.4130444 ], [ 8.6874685, 49.4130825 ], [ 8.6874119, 49.4220039 ], [ 8.673623, 49.4220027 ], [ 8.6736824, 49.4130444 ] ] ] } },
{ "type": "Feature", "properties": { "index": "2", "subarea": "R1C3", "underserved_pct": 52.3, "underserved_population": 1187.0, "label": "40–60%", "color": "#fb6a4a" }, "geometry": { "type": "Polygon", "coordinates": [ [ [ 8.6874685, 49.4130825 ], [ 8.7012546, 49.413119 ], [ 8.7012007, 49.4220033 ], [ 8.6874119, 49.4220039 ], [ 8.6874685, 49.4130825 ] ] ] } },
{ "type": "Feature", "properties": { "index": "3", "subarea": "R1C4", "underserved_pct": 100.0, "underserved_population": 395.0, "label": "80–100%", "color": "#a50f15" }, "geometry": { "type": "Polygon", "coordinates": [ [ [ 8.7012546, 49.413119 ], [ 8.7150408, 49.4131538 ], [ 8.7149895, 49.4220012 ], [ 8.7012007, 49.4220033 ], [ 8.7012546, 49.413119 ] ] ] } },
{ "type": "Feature", "properties": { "index": "4", "subarea": "R1C5", "underserved_pct": 100.0, "underserved_population": 130.0, "label": "80–100%", "color": "#a50f15" }, "geometry": { "type": "Polygon", "coordinates": [ [ [ 8.7149895, 49.4220012 ], [ 8.7150408, 49.4131538 ], [ 8.72, 49.4131659 ], [ 8.72, 49.422 ], [ 8.7149895, 49.4220012 ] ] ] } },
{ "type": "Feature", "properties": { "index": "5", "subarea": "R2C1", "underserved_pct": 49.2, "underserved_population": 755.0, "label": "40–60%", "color": "#fb6a4a" }, "geometry": { "type": "Polygon", "coordinates": [ [ [ 8.673742, 49.4040496 ], [ 8.6736824, 49.4130444 ], [ 8.66, 49.413005 ], [ 8.66, 49.40401 ], [ 8.673742, 49.4040496 ] ] ] } },
{ "type": "Feature", "properties": { "index": "6", "subarea": "R2C2", "underserved_pct": 12.8, "underserved_population": 355.0, "label": "0–20%", "color": "#fee5d9" }, "geometry": { "type": "Polygon", "coordinates": [ [ [ 8.6736824, 49.4130444 ], [ 8.673742, 49.4040496 ], [ 8.6875256, 49.4040877 ], [ 8.6874685, 49.4130825 ], [ 8.6736824, 49.4130444 ] ] ] } },
{ "type": "Feature", "properties": { "index": "7", "subarea": "R2C3", "underserved_pct": 37.4, "underserved_population": 1386.0, "label": "20–40%", "color": "#fcae91" }, "geometry": { "type": "Polygon", "coordinates": [ [ [ 8.6874685, 49.4130825 ], [ 8.6875256, 49.4040877 ], [ 8.7013092, 49.4041241 ], [ 8.7012546, 49.413119 ], [ 8.6874685, 49.4130825 ] ] ] } },
{ "type": "Feature", "properties": { "index": "8", "subarea": "R2C4", "underserved_pct": 100.0, "underserved_population": 4417.0, "label": "80–100%", "color": "#a50f15" }, "geometry": { "type": "Polygon", "coordinates": [ [ [ 8.7012546, 49.413119 ], [ 8.7013092, 49.4041241 ], [ 8.7150928, 49.4041589 ], [ 8.7150408, 49.4131538 ], [ 8.7012546, 49.413119 ] ] ] } },
{ "type": "Feature", "properties": { "index": "9", "subarea": "R2C5", "underserved_pct": 100.0, "underserved_population": 248.0, "label": "80–100%", "color": "#a50f15" }, "geometry": { "type": "Polygon", "coordinates": [ [ [ 8.7150408, 49.4131538 ], [ 8.7150928, 49.4041589 ], [ 8.72, 49.4041709 ], [ 8.72, 49.4131659 ], [ 8.7150408, 49.4131538 ] ] ] } },
{ "type": "Feature", "properties": { "index": "10", "subarea": "R3C1", "underserved_pct": 46.7, "underserved_population": 879.0, "label": "40–60%", "color": "#fb6a4a" }, "geometry": { "type": "Polygon", "coordinates": [ [ [ 8.6737821, 49.3980028 ], [ 8.673742, 49.4040496 ], [ 8.66, 49.40401 ], [ 8.66, 49.398 ], [ 8.6737821, 49.3980028 ] ] ] } },
{ "type": "Feature", "properties": { "index": "11", "subarea": "R3C2", "underserved_pct": 2.1, "underserved_population": 13.0, "label": "0–20%", "color": "#fee5d9" }, "geometry": { "type": "Polygon", "coordinates": [ [ [ 8.6875256, 49.4040877 ], [ 8.673742, 49.4040496 ], [ 8.6737821, 49.3980028 ], [ 8.6875642, 49.3980039 ], [ 8.6875256, 49.4040877 ] ] ] } },
{ "type": "Feature", "properties": { "index": "12", "subarea": "R3C3", "underserved_pct": 71.9, "underserved_population": 1569.0, "label": "60–80%", "color": "#de2d26" }, "geometry": { "type": "Polygon", "coordinates": [ [ [ 8.7013092, 49.4041241 ], [ 8.6875256, 49.4040877 ], [ 8.6875642, 49.3980039 ], [ 8.7013463, 49.3980033 ], [ 8.7013092, 49.4041241 ] ] ] } },
{ "type": "Feature", "properties": { "index": "13", "subarea": "R3C4", "underserved_pct": 100.0, "underserved_population": 1.0, "label": "80–100%", "color": "#a50f15" }, "geometry": { "type": "Polygon", "coordinates": [ [ [ 8.7150928, 49.4041589 ], [ 8.7013092, 49.4041241 ], [ 8.7013463, 49.3980033 ], [ 8.7151285, 49.3980012 ], [ 8.7150928, 49.4041589 ] ] ] } },
{ "type": "Feature", "properties": { "index": "14", "subarea": "R3C5", "underserved_pct": 100.0, "underserved_population": 0.0, "label": "80–100%", "color": "#a50f15" }, "geometry": { "type": "Polygon", "coordinates": [ [ [ 8.72, 49.4041709 ], [ 8.7150928, 49.4041589 ], [ 8.7151285, 49.3980012 ], [ 8.72, 49.398 ], [ 8.72, 49.4041709 ] ] ] } }
]
}
