{
"type": "FeatureCollection",
"features": [
{ "type": "Feature", "properties": { "index": "0", "@osmId": "way/1308345217", "name": null, "opening_hours": null, "label": "Public swimming & bathing", "color": "#2b8cbe" }, "geometry": { "type": "Point", "coordinates": [ 8.7101218, 49.4151428 ] } },
{ "type": "Feature", "properties": { "index": "1", "@osmId": "way/1308345218", "name": null, "opening_hours": null, "label": "Public swimming & bathing", "color": "#2b8cbe" }, "geometry": { "type": "Point", "coordinates": [ 8.7113395, 49.4152243 ] } },
{ "type": "Feature", "properties": { "index": "2", "@osmId": "way/1308345219", "name": null, "opening_hours": null, "label": "Public swimming & bathing", "color": "#2b8cbe" }, "geometry": { "type": "Point", "coordinates": [ 8.7116049, 49.4152372 ] } },
{ "type": "Feature", "properties": { "index": "3", "@osmId": "way/87498383", "name": "Thermalbad", "opening_hours": null, "label": "Public swimming & bathing", "color": "#2b8cbe" }, "geometry": { "type": "Point", "coordinates": [ 8.6799096, 49.4093005 ] } },
{ "type": "Feature", "properties": { "index": "4", "@osmId": "way/1271382019", "name": null, "opening_hours": null, "label": "Public swimming & bathing", "color": "#2b8cbe" }, "geometry": { "type": "Point", "coordinates": [ 8.6771566, 49.4114041 ] } },
{ "type": "Feature", "properties": { "index": "5", "@osmId": "node/267889561", "name": "City-Bad im DHC", "opening_hours": "Tu-Fr 07:00-14:00; Sa 11:30-17:30", "label": "Public swimming & bathing", "color": "#2b8cbe" }, "geometry": { "type": "Point", "coordinates": [ 8.6943017, 49.4107642 ] } },
{ "type": "Feature", "properties": { "index": "6", "@osmId": "way/293836248", "name": "Erlöserkirche", "opening_hours": null, "label": "Places of worship", "color": "#8856a7" }, "geometry": { "type": "Point", "coordinates": [ 8.7016286, 49.4092629 ] } },
{ "type": "Feature", "properties": { "index": "7", "@osmId": "way/49501404", "name": "Neue Synagoge Heidelberg", "opening_hours": null, "label": "Places of worship", "color": "#8856a7" }, "geometry": { "type": "Point", "coordinates": [ 8.6900594, 49.4044611 ] } },
{ "type": "Feature", "properties": { "index": "8", "@osmId": "way/90867330", "name": "Neuapostolische Kirche", "opening_hours": null, "label": "Places of worship", "color": "#8856a7" }, "geometry": { "type": "Point", "coordinates": [ 8.6875271, 49.4137661 ] } },
{ "type": "Feature", "properties": { "index": "9", "@osmId": "way/91083997", "name": "Jakobuskirche", "opening_hours": null, "label": "Places of worship", "color": "#8856a7" }, "geometry": { "type": "Point", "coordinates": [ 8.6793936, 49.415385 ] } },
{ "type": "Feature", "properties": { "index": "10", "@osmId": "way/432542429", "name": "Providenzkirche", "opening_hours": null, "label": "Places of worship", "color": "#8856a7" }, "geometry": { "type": "Point", "coordinates": [ 8.702, 49.4109022 ] } },
{ "type": "Feature", "properties": { "index": "11", "@osmId": "way/92838836", "name": "St. Bonifatius", "opening_hours": null, "label": "Places of worship", "color": "#8856a7" }, "geometry": { "type": "Point", "coordinates": [ 8.687519, 49.4039284 ] } },
{ "type": "Feature", "properties": { "index": "12", "@osmId": "way/1186032662", "name": "Peterskirche", "opening_hours": "easter-Oct 31: Mo-Fr 14:00-17:00", "label": "Places of worship", "color": "#8856a7" }, "geometry": { "type": "Point", "coordinates": [ 8.7060537, 49.4093253 ] } },
{ "type": "Feature", "properties": { "index": "13", "@osmId": "way/96690335", "name": "Lutherkirche", "opening_hours": null, "label": "Places of worship", "color": "#8856a7" }, "geometry": { "type": "Point", "coordinates": [ 8.6820587, 49.4084807 ] } },
{ "type": "Feature", "properties": { "index": "14", "@osmId": "way/108668052", "name": "Christuskirche", "opening_hours": null, "label": "Places of worship", "color": "#8856a7" }, "geometry": { "type": "Point", "coordinates": [ 8.6853562, 49.4021829 ] } },
{ "type": "Feature", "properties": { "index": "15", "@osmId": "way/1186298822", "name": "Heiliggeistkirche", "opening_hours": "Mo-Sa 11:00-17:00; PH,Su 12:30-17:00", "label": "Places of worship", "color": "#8856a7" }, "geometry": { "type": "Point", "coordinates": [ 8.7096605, 49.4121036 ] } },
{ "type": "Feature", "properties": { "index": "16", "@osmId": "way/140317953", "name": "Sankt Anna", "opening_hours": null, "label": "Places of worship", "color": "#8856a7" }, "geometry": { "type": "Point", "coordinates": [ 8.6956616, 49.4087265 ] } },
{ "type": "Feature", "properties": { "index": "17", "@osmId": "way/445177089", "name": null, "opening_hours": null, "label": "Places of worship", "color": "#8856a7" }, "geometry": { "type": "Point", "coordinates": [ 8.6974298, 49.4094237 ] } },
{ "type": "Feature", "properties": { "index": "18", "@osmId": "way/1187911604", "name": "Jesuitenkirche", "opening_hours": "May-Sep: 09:30-18:00; Oct-Apr: 09:30-17:00", "label": "Places of worship", "color": "#8856a7" }, "geometry": { "type": "Point", "coordinates": [ 8.7077054, 49.4108182 ] } },
{ "type": "Feature", "properties": { "index": "19", "@osmId": "way/89332498", "name": "St. Albert", "opening_hours": null, "label": "Places of worship", "color": "#8856a7" }, "geometry": { "type": "Point", "coordinates": [ 8.6762361, 49.4085546 ] } },
{ "type": "Feature", "properties": { "index": "20", "@osmId": "way/90234435", "name": "St. Raphael", "opening_hours": null, "label": "Places of worship", "color": "#8856a7" }, "geometry": { "type": "Point", "coordinates": [ 8.6866625, 49.4184516 ] } },
{ "type": "Feature", "properties": { "index": "21", "@osmId": "way/91237845", "name": "Johanneskirche", "opening_hours": null, "label": "Places of worship", "color": "#8856a7" }, "geometry": { "type": "Point", "coordinates": [ 8.6907199, 49.4179387 ] } },
{ "type": "Feature", "properties": { "index": "22", "@osmId": "way/92154827", "name": "Calvary Chapel Heidelberg", "opening_hours": null, "label": "Places of worship", "color": "#8856a7" }, "geometry": { "type": "Point", "coordinates": [ 8.6733865, 49.4085146 ] } },
{ "type": "Feature", "properties": { "index": "23", "@osmId": "way/172091898", "name": "Kapelle", "opening_hours": null, "label": "Places of worship", "color": "#8856a7" }, "geometry": { "type": "Point", "coordinates": [ 8.6828712, 49.4190631 ] } },
{ "type": "Feature", "properties": { "index": "24", "@osmId": "way/268515366", "name": "Kirche Jesu Christi der Heiligen der Letzten Tage", "opening_hours": null, "label": "Places of worship", "color": "#8856a7" }, "geometry": { "type": "Point", "coordinates": [ 8.6607762, 49.4088981 ] } },
{ "type": "Feature", "properties": { "index": "25", "@osmId": "node/360855606", "name": null, "opening_hours": null, "label": "Places of worship", "color": "#8856a7" }, "geometry": { "type": "Point", "coordinates": [ 8.6901583, 49.4093101 ] } },
{ "type": "Feature", "properties": { "index": "26", "@osmId": "node/415441489", "name": "Kirche am Markt", "opening_hours": null, "label": "Places of worship", "color": "#8856a7" }, "geometry": { "type": "Point", "coordinates": [ 8.6899329, 49.4143991 ] } },
{ "type": "Feature", "properties": { "index": "27", "@osmId": "node/482802959", "name": "Angehörigen Kapelle", "opening_hours": null, "label": "Places of worship", "color": "#8856a7" }, "geometry": { "type": "Point", "coordinates": [ 8.6749258, 49.4139013 ] } },
{ "type": "Feature", "properties": { "index": "28", "@osmId": "node/1818817917", "name": "Buddhistisches Zentrum Heidelberg", "opening_hours": null, "label": "Places of worship", "color": "#8856a7" }, "geometry": { "type": "Point", "coordinates": [ 8.6842485, 49.4042418 ] } },
{ "type": "Feature", "properties": { "index": "29", "@osmId": "node/4241246284", "name": "+punkt Kirche INF 130", "opening_hours": null, "label": "Places of worship", "color": "#8856a7" }, "geometry": { "type": "Point", "coordinates": [ 8.671097, 49.4126826 ] } },
{ "type": "Feature", "properties": { "index": "30", "@osmId": "node/4515124089", "name": "Herz-Jesu-Kapelle", "opening_hours": null, "label": "Places of worship", "color": "#8856a7" }, "geometry": { "type": "Point", "coordinates": [ 8.6799684, 49.4141257 ] } },
{ "type": "Feature", "properties": { "index": "31", "@osmId": "node/12299694218", "name": "LIFE Church", "opening_hours": null, "label": "Places of worship", "color": "#8856a7" }, "geometry": { "type": "Point", "coordinates": [ 8.6774382, 49.4077213 ] } },
{ "type": "Feature", "properties": { "index": "32", "@osmId": "node/13870921187", "name": "EC + Liebenzeller Gemeinde Heidelberg", "opening_hours": null, "label": "Places of worship", "color": "#8856a7" }, "geometry": { "type": "Point", "coordinates": [ 8.6898795, 49.4143881 ] } },
{ "type": "Feature", "properties": { "index": "33", "@osmId": "node/13870921188", "name": "Hosanna-Gemeinde", "opening_hours": null, "label": "Places of worship", "color": "#8856a7" }, "geometry": { "type": "Point", "coordinates": [ 8.6818978, 49.408535 ] } },
{ "type": "Feature", "properties": { "index": "34", "@osmId": "relation/162528", "name": "Universitätsbibliothek", "opening_hours": "Mo-Fr 08:30-01:00; Sa,Su 09:00-01:00", "label": "Public libraries", "color": "#756bb1" }, "geometry": { "type": "Point", "coordinates": [ 8.7058285, 49.409921 ] } },
{ "type": "Feature", "properties": { "index": "35", "@osmId": "way/27620764", "name": "Stadtbücherei", "opening_hours": "Tu-Fr 10:00-20:00; Sa 10:00-16:00; Su,Mo off", "label": "Public libraries", "color": "#756bb1" }, "geometry": { "type": "Point", "coordinates": [ 8.6865009, 49.4067159 ] } },
{ "type": "Feature", "properties": { "index": "36", "@osmId": "way/48396293", "name": "Bibliothek Pädagogische Hochschule", "opening_hours": "Mo-Fr 10:00-15:00", "label": "Public libraries", "color": "#756bb1" }, "geometry": { "type": "Point", "coordinates": [ 8.6845408, 49.4198183 ] } },
{ "type": "Feature", "properties": { "index": "37", "@osmId": "node/316328702", "name": "Zentralbibliothek INF 368", "opening_hours": "Mo-Fr 09:00-18:00; Sa 13:00-17:00", "label": "Public libraries", "color": "#756bb1" }, "geometry": { "type": "Point", "coordinates": [ 8.6683775, 49.4176768 ] } },
{ "type": "Feature", "properties": { "index": "38", "@osmId": "node/1657964075", "name": "Studentenbücherei des Studentenwerks Heidelberg", "opening_hours": null, "label": "Public libraries", "color": "#756bb1" }, "geometry": { "type": "Point", "coordinates": [ 8.7052085, 49.4105445 ] } },
{ "type": "Feature", "properties": { "index": "39", "@osmId": "node/4385104373", "name": "Bereichsbibliothek Mathematik und Informatik", "opening_hours": "Mo-Fr 09:00-21:00", "label": "Public libraries", "color": "#756bb1" }, "geometry": { "type": "Point", "coordinates": [ 8.6758306, 49.4172298 ] } },
{ "type": "Feature", "properties": { "index": "40", "@osmId": "node/4423417426", "name": "Campus-Bibliothek Bergheim", "opening_hours": "Mo-Fr 09:00-22:00; Sa 10:00-20:00", "label": "Public libraries", "color": "#756bb1" }, "geometry": { "type": "Point", "coordinates": [ 8.6842526, 49.4086404 ] } },
{ "type": "Feature", "properties": { "index": "41", "@osmId": "node/7003610134", "name": "CATS Bibliothek", "opening_hours": "Mo-Fr 09:00-20:00; Sa 12:00-20:00", "label": "Public libraries", "color": "#756bb1" }, "geometry": { "type": "Point", "coordinates": [ 8.6900756, 49.410055 ] } },
{ "type": "Feature", "properties": { "index": "42", "@osmId": "node/13821639864", "name": "Universitätsbibliothek: Magazin", "opening_hours": null, "label": "Public libraries", "color": "#756bb1" }, "geometry": { "type": "Point", "coordinates": [ 8.6752306, 49.4073832 ] } },
{ "type": "Feature", "properties": { "index": "43", "@osmId": "relation/14976574", "name": "Kurpfäzisches Museum Heidelberg", "opening_hours": "Tu-Su 10:00-18:00", "label": "Museums & galleries", "color": "#dd3497" }, "geometry": { "type": "Point", "coordinates": [ 8.7028127, 49.4118525 ] } },
{ "type": "Feature", "properties": { "index": "44", "@osmId": "way/35464541", "name": "Historischer Studentenkarzer", "opening_hours": "Mo-Su 10:00-13:45,14:15-18:00", "label": "Museums & galleries", "color": "#dd3497" }, "geometry": { "type": "Point", "coordinates": [ 8.7063954, 49.4112809 ] } },
{ "type": "Feature", "properties": { "index": "45", "@osmId": "way/35465057", "name": "Alte Universität, Rektorat", "opening_hours": null, "label": "Museums & galleries", "color": "#dd3497" }, "geometry": { "type": "Point", "coordinates": [ 8.7063427, 49.4112645 ] } },
{ "type": "Feature", "properties": { "index": "46", "@osmId": "way/247530260", "name": "Dokumentations- und Kulturzentrum Deutscher Sinti und Roma", "opening_hours": "Tu 09:30-19:45; We-Fr 09:30-16:30; Sa,Su 11:00-16:30", "label": "Museums & galleries", "color": "#dd3497" }, "geometry": { "type": "Point", "coordinates": [ 8.7108996, 49.4107561 ] } },
{ "type": "Feature", "properties": { "index": "47", "@osmId": "way/254154166", "name": "Deutsches Apotheken-Museum", "opening_hours": "Apr-Oct Mo-Su 10:00-18:00; Nov-Mar Mo-Su 10:00-17:00", "label": "Museums & galleries", "color": "#dd3497" }, "geometry": { "type": "Point", "coordinates": [ 8.7158117, 49.4109036 ] } },
{ "type": "Feature", "properties": { "index": "48", "@osmId": "way/1186801516", "name": "Völkerkundemuseum", "opening_hours": "We-Sa 14:00-18:00; Su,PH 11:00-18:00", "label": "Museums & galleries", "color": "#dd3497" }, "geometry": { "type": "Point", "coordinates": [ 8.7149703, 49.4132916 ] } },
{ "type": "Feature", "properties": { "index": "49", "@osmId": "way/35866606", "name": "Sammlung Prinzhorn", "opening_hours": "Mo off; Tu,Th-Su,PH 11:00-17:00; We 11:00-20:00", "label": "Museums & galleries", "color": "#dd3497" }, "geometry": { "type": "Point", "coordinates": [ 8.688756, 49.409803 ] } },
{ "type": "Feature", "properties": { "index": "50", "@osmId": "way/25813149", "name": "Haus am Wehrsteg", "opening_hours": "Sa,Su 12:00-17:00", "label": "Museums & galleries", "color": "#dd3497" }, "geometry": { "type": "Point", "coordinates": [ 8.6685159, 49.4118996 ] } },
{ "type": "Feature", "properties": { "index": "51", "@osmId": "node/267889562", "name": "Kurpfälzisches Museum", "opening_hours": "Tu-Su 10:00-18:00", "label": "Museums & galleries", "color": "#dd3497" }, "geometry": { "type": "Point", "coordinates": [ 8.7028964, 49.4113671 ] } },
{ "type": "Feature", "properties": { "index": "52", "@osmId": "node/1300163591", "name": "Museum Geowissenschaften", "opening_hours": "Mo-Fr 08:00-17:00 || \"Am Wochenende auf Anfrage\"", "label": "Museums & galleries", "color": "#dd3497" }, "geometry": { "type": "Point", "coordinates": [ 8.674447, 49.4190214 ] } },
{ "type": "Feature", "properties": { "index": "53", "@osmId": "node/1324802486", "name": "Unimuseum", "opening_hours": "Tu-Su 10:00-18:00", "label": "Museums & galleries", "color": "#dd3497" }, "geometry": { "type": "Point", "coordinates": [ 8.7066904, 49.4113863 ] } },
{ "type": "Feature", "properties": { "index": "54", "@osmId": "node/1412648912", "name": "Zoologisches Museum", "opening_hours": "Mo-Fr 08:00-18:00; Sa,Su,PH off", "label": "Museums & galleries", "color": "#dd3497" }, "geometry": { "type": "Point", "coordinates": [ 8.6743102, 49.4178595 ] } },
{ "type": "Feature", "properties": { "index": "55", "@osmId": "node/2421161970", "name": "Körperwelten", "opening_hours": "Mo-Su,PH 10:00-18:00; Dec 24 off", "label": "Museums & galleries", "color": "#dd3497" }, "geometry": { "type": "Point", "coordinates": [ 8.6887219, 49.4079846 ] } },
{ "type": "Feature", "properties": { "index": "56", "@osmId": "node/2501670073", "name": "Haus Cajeth", "opening_hours": "Mo-Sa 11:00-17:00", "label": "Museums & galleries", "color": "#dd3497" }, "geometry": { "type": "Point", "coordinates": [ 8.708951, 49.4127586 ] } },
{ "type": "Feature", "properties": { "index": "57", "@osmId": "node/4038310577", "name": "Heidelberg Images Fotogalerie", "opening_hours": "Tu-Fr 11:00-18:00; Sa 11:00-16:00", "label": "Museums & galleries", "color": "#dd3497" }, "geometry": { "type": "Point", "coordinates": [ 8.6996109, 49.4092446 ] } },
{ "type": "Feature", "properties": { "index": "58", "@osmId": "node/4294013709", "name": "Deutsches Verpackungsmuseum", "opening_hours": "We-Fr 13:00-18:00;Sa,Su 11:00-18:00;Mo,Tu off", "label": "Museums & galleries", "color": "#dd3497" }, "geometry": { "type": "Point", "coordinates": [ 8.6957273, 49.4098894 ] } },
{ "type": "Feature", "properties": { "index": "59", "@osmId": "node/4466018589", "name": "Lepanto", "opening_hours": "\"nach Vereinbarung\"", "label": "Museums & galleries", "color": "#dd3497" }, "geometry": { "type": "Point", "coordinates": [ 8.6967402, 49.408115 ] } },
{ "type": "Feature", "properties": { "index": "60", "@osmId": "node/4631922528", "name": null, "opening_hours": null, "label": "Museums & galleries", "color": "#dd3497" }, "geometry": { "type": "Point", "coordinates": [ 8.6718001, 49.40816 ] } },
{ "type": "Feature", "properties": { "index": "61", "@osmId": "node/4857343885", "name": "Universitätsbibliothek Heidelberg", "opening_hours": "Mo-Fr 08:30-01:00; Sa-Su 09:00-01:00; PH off", "label": "Museums & galleries", "color": "#dd3497" }, "geometry": { "type": "Point", "coordinates": [ 8.7058892, 49.4097516 ] } },
{ "type": "Feature", "properties": { "index": "62", "@osmId": "node/4872984638", "name": "Forum für Kunst", "opening_hours": "Tu-Su 14:00-18:00", "label": "Museums & galleries", "color": "#dd3497" }, "geometry": { "type": "Point", "coordinates": [ 8.7132063, 49.4128998 ] } },
{ "type": "Feature", "properties": { "index": "63", "@osmId": "node/5100400111", "name": "Reichspräsident-Friedrich-Ebert-Gedenkstätte", "opening_hours": "Mo-Fr 09:00-18:00; Sa,Su 10:00-18:00", "label": "Museums & galleries", "color": "#dd3497" }, "geometry": { "type": "Point", "coordinates": [ 8.7083167, 49.4124781 ] } },
{ "type": "Feature", "properties": { "index": "64", "@osmId": "node/5435115531", "name": "Museum für sakrale Kunst und Liturgie SCHATZKAMMER", "opening_hours": "Jun-Oct: Tu-Sa 10:00-17:00; Jun-Oct: Su,PH 13:00-17:00; Nov-May: Sa 10:00-17:00; Nov-May: Su 13:00-17:00", "label": "Museums & galleries", "color": "#dd3497" }, "geometry": { "type": "Point", "coordinates": [ 8.7078944, 49.4110783 ] } },
{ "type": "Feature", "properties": { "index": "65", "@osmId": "node/5588276714", "name": "Heidelberger Stuhlmuseum", "opening_hours": null, "label": "Museums & galleries", "color": "#dd3497" }, "geometry": { "type": "Point", "coordinates": [ 8.6969452, 49.4087285 ] } },
{ "type": "Feature", "properties": { "index": "66", "@osmId": "node/6015193585", "name": "Galerie Marianne Heller", "opening_hours": "Tu-Fr 11:00-13:00,14:30-18:00; Sa 11:00-16:00", "label": "Museums & galleries", "color": "#dd3497" }, "geometry": { "type": "Point", "coordinates": [ 8.6946105, 49.4070313 ] } },
{ "type": "Feature", "properties": { "index": "67", "@osmId": "node/7401653798", "name": "Künstlerhaus Herbert A. Jung", "opening_hours": null, "label": "Museums & galleries", "color": "#dd3497" }, "geometry": { "type": "Point", "coordinates": [ 8.711143, 49.413275 ] } },
{ "type": "Feature", "properties": { "index": "68", "@osmId": "node/8859412942", "name": "Perfect Light", "opening_hours": "\"Öffnungszeiten April und Mai\"", "label": "Museums & galleries", "color": "#dd3497" }, "geometry": { "type": "Point", "coordinates": [ 8.6903679, 49.4144617 ] } },
{ "type": "Feature", "properties": { "index": "69", "@osmId": "node/11682535301", "name": "schiller 20", "opening_hours": null, "label": "Museums & galleries", "color": "#dd3497" }, "geometry": { "type": "Point", "coordinates": [ 8.6870761, 49.4001259 ] } },
{ "type": "Feature", "properties": { "index": "70", "@osmId": "node/11709229956", "name": "Atelier Galerie Hilbert", "opening_hours": "Fr 11:00-18:00; We 11:00-18:00", "label": "Museums & galleries", "color": "#dd3497" }, "geometry": { "type": "Point", "coordinates": [ 8.6943277, 49.4064039 ] } },
{ "type": "Feature", "properties": { "index": "71", "@osmId": "node/12072131804", "name": "3D TrickArt", "opening_hours": "Mo-Su 10:00-18:00", "label": "Museums & galleries", "color": "#dd3497" }, "geometry": { "type": "Point", "coordinates": [ 8.6911774, 49.4068121 ] } },
{ "type": "Feature", "properties": { "index": "72", "@osmId": "node/12084664660", "name": "Kunst Kompetenz", "opening_hours": "We-Fr 14:00-19:00; Sa 11:00-16:00", "label": "Museums & galleries", "color": "#dd3497" }, "geometry": { "type": "Point", "coordinates": [ 8.698025, 49.4083541 ] } },
{ "type": "Feature", "properties": { "index": "73", "@osmId": "node/12339020036", "name": "Galerie Vogel", "opening_hours": "Tu-Sa 11:00-18:00", "label": "Museums & galleries", "color": "#dd3497" }, "geometry": { "type": "Point", "coordinates": [ 8.6956524, 49.4102768 ] } },
{ "type": "Feature", "properties": { "index": "74", "@osmId": "node/12703546162", "name": "Stefanie Boos", "opening_hours": null, "label": "Museums & galleries", "color": "#dd3497" }, "geometry": { "type": "Point", "coordinates": [ 8.6901617, 49.4160192 ] } },
{ "type": "Feature", "properties": { "index": "75", "@osmId": "node/13070896523", "name": "Kunstraum Vincke-Liepmann", "opening_hours": "Th,Fr 15:00-18:00; Sa,Su 12:00-16:00", "label": "Museums & galleries", "color": "#dd3497" }, "geometry": { "type": "Point", "coordinates": [ 8.6901673, 49.4030151 ] } },
{ "type": "Feature", "properties": { "index": "76", "@osmId": "node/13448358823", "name": "Antikensammlung der Universität Heidelberg", "opening_hours": "\"Besuch eingechränkt auf Anfrage möglich wegen Sanierung\"", "label": "Museums & galleries", "color": "#dd3497" }, "geometry": { "type": "Point", "coordinates": [ 8.7045642, 49.4124913 ] } },
{ "type": "Feature", "properties": { "index": "77", "@osmId": "node/13806047146", "name": "Mathematik-Informatik-Station (MAINS)", "opening_hours": null, "label": "Museums & galleries", "color": "#dd3497" }, "geometry": { "type": "Point", "coordinates": [ 8.6754916, 49.4073796 ] } },
{ "type": "Feature", "properties": { "index": "78", "@osmId": "way/43060855", "name": "Das Carré", "opening_hours": null, "label": "Shopping centres", "color": "#636363" }, "geometry": { "type": "Point", "coordinates": [ 8.6918668, 49.40771 ] } },
{ "type": "Feature", "properties": { "index": "79", "@osmId": "way/711985308", "name": "Sofienquartier", "opening_hours": "Mo-Sa 08:00-21:30", "label": "Shopping centres", "color": "#636363" }, "geometry": { "type": "Point", "coordinates": [ 8.6939798, 49.4104163 ] } },
{ "type": "Feature", "properties": { "index": "80", "@osmId": "way/61187551", "name": null, "opening_hours": null, "label": "Fountains & water features", "color": "#41b6c4" }, "geometry": { "type": "Point", "coordinates": [ 8.7171139, 49.4102037 ] } },
{ "type": "Feature", "properties": { "index": "81", "@osmId": "way/171691936", "name": "Hercules Brunnen", "opening_hours": null, "label": "Fountains & water features", "color": "#41b6c4" }, "geometry": { "type": "Point", "coordinates": [ 8.7104804, 49.4121144 ] } },
{ "type": "Feature", "properties": { "index": "82", "@osmId": "way/180397607", "name": "Sume-Brunnen", "opening_hours": null, "label": "Fountains & water features", "color": "#41b6c4" }, "geometry": { "type": "Point", "coordinates": [ 8.7062184, 49.4120234 ] } },
{ "type": "Feature", "properties": { "index": "83", "@osmId": "way/254154204", "name": null, "opening_hours": null, "label": "Fountains & water features", "color": "#41b6c4" }, "geometry": { "type": "Point", "coordinates": [ 8.7156, 49.4106049 ] } },
{ "type": "Feature", "properties": { "index": "84", "@osmId": "way/189759092", "name": null, "opening_hours": null, "label": "Fountains & water features", "color": "#41b6c4" }, "geometry": { "type": "Point", "coordinates": [ 8.692839, 49.4102676 ] } },
{ "type": "Feature", "properties": { "index": "85", "@osmId": "way/214450845", "name": null, "opening_hours": null, "label": "Fountains & water features", "color": "#41b6c4" }, "geometry": { "type": "Point", "coordinates": [ 8.6905719, 49.4146461 ] } },
{ "type": "Feature", "properties": { "index": "86", "@osmId": "way/406755379", "name": null, "opening_hours": null, "label": "Fountains & water features", "color": "#41b6c4" }, "geometry": { "type": "Point", "coordinates": [ 8.6972107, 49.4094617 ] } },
{ "type": "Feature", "properties": { "index": "87", "@osmId": "way/669356067", "name": null, "opening_hours": null, "label": "Fountains & water features", "color": "#41b6c4" }, "geometry": { "type": "Point", "coordinates": [ 8.6813914, 49.4050012 ] } },
{ "type": "Feature", "properties": { "index": "88", "@osmId": "way/669356068", "name": null, "opening_hours": null, "label": "Fountains & water features", "color": "#41b6c4" }, "geometry": { "type": "Point", "coordinates": [ 8.6814802, 49.4050171 ] } },
{ "type": "Feature", "properties": { "index": "89", "@osmId": "way/669356069", "name": null, "opening_hours": null, "label": "Fountains & water features", "color": "#41b6c4" }, "geometry": { "type": "Point", "coordinates": [ 8.681564, 49.4050321 ] } },
{ "type": "Feature", "properties": { "index": "90", "@osmId": "way/669356070", "name": null, "opening_hours": null, "label": "Fountains & water features", "color": "#41b6c4" }, "geometry": { "type": "Point", "coordinates": [ 8.681659, 49.4050491 ] } },
{ "type": "Feature", "properties": { "index": "91", "@osmId": "way/669356071", "name": null, "opening_hours": null, "label": "Fountains & water features", "color": "#41b6c4" }, "geometry": { "type": "Point", "coordinates": [ 8.6817439, 49.4050779 ] } },
{ "type": "Feature", "properties": { "index": "92", "@osmId": "way/1185803778", "name": "Löwenbrunnen", "opening_hours": null, "label": "Fountains & water features", "color": "#41b6c4" }, "geometry": { "type": "Point", "coordinates": [ 8.7059754, 49.4112667 ] } },
{ "type": "Feature", "properties": { "index": "93", "@osmId": "way/1410872355", "name": "Neptun-Brunnen", "opening_hours": null, "label": "Fountains & water features", "color": "#41b6c4" }, "geometry": { "type": "Point", "coordinates": [ 8.6930327, 49.4072026 ] } },
{ "type": "Feature", "properties": { "index": "94", "@osmId": "way/1410872360", "name": "Scheithauer-Brunnen", "opening_hours": null, "label": "Fountains & water features", "color": "#41b6c4" }, "geometry": { "type": "Point", "coordinates": [ 8.693806, 49.4071679 ] } },
{ "type": "Feature", "properties": { "index": "95", "@osmId": "way/1413505669", "name": null, "opening_hours": null, "label": "Fountains & water features", "color": "#41b6c4" }, "geometry": { "type": "Point", "coordinates": [ 8.7004777, 49.4142182 ] } },
{ "type": "Feature", "properties": { "index": "96", "@osmId": "way/721870263", "name": null, "opening_hours": null, "label": "Fountains & water features", "color": "#41b6c4" }, "geometry": { "type": "Point", "coordinates": [ 8.6759383, 49.417942 ] } },
{ "type": "Feature", "properties": { "index": "97", "@osmId": "way/995901635", "name": null, "opening_hours": null, "label": "Fountains & water features", "color": "#41b6c4" }, "geometry": { "type": "Point", "coordinates": [ 8.6658599, 49.4023298 ] } },
{ "type": "Feature", "properties": { "index": "98", "@osmId": "way/1314825617", "name": null, "opening_hours": null, "label": "Fountains & water features", "color": "#41b6c4" }, "geometry": { "type": "Point", "coordinates": [ 8.6771876, 49.4128594 ] } },
{ "type": "Feature", "properties": { "index": "99", "@osmId": "node/453021432", "name": "Flower", "opening_hours": null, "label": "Fountains & water features", "color": "#41b6c4" }, "geometry": { "type": "Point", "coordinates": [ 8.6975401, 49.4104996 ] } },
{ "type": "Feature", "properties": { "index": "100", "@osmId": "node/473187360", "name": null, "opening_hours": null, "label": "Fountains & water features", "color": "#41b6c4" }, "geometry": { "type": "Point", "coordinates": [ 8.7049353, 49.4126977 ] } },
{ "type": "Feature", "properties": { "index": "101", "@osmId": "node/502024005", "name": "Webersbrunnen", "opening_hours": null, "label": "Fountains & water features", "color": "#41b6c4" }, "geometry": { "type": "Point", "coordinates": [ 8.7198036, 49.4210179 ] } },
{ "type": "Feature", "properties": { "index": "102", "@osmId": "node/1115726452", "name": "Louis-Fahrbach-Brunnen", "opening_hours": null, "label": "Fountains & water features", "color": "#41b6c4" }, "geometry": { "type": "Point", "coordinates": [ 8.7070925, 49.4097542 ] } },
{ "type": "Feature", "properties": { "index": "103", "@osmId": "node/1383144886", "name": "Sebastian-Münster-Brunnen", "opening_hours": null, "label": "Fountains & water features", "color": "#41b6c4" }, "geometry": { "type": "Point", "coordinates": [ 8.7127594, 49.4122224 ] } },
{ "type": "Feature", "properties": { "index": "104", "@osmId": "node/1412925014", "name": null, "opening_hours": null, "label": "Fountains & water features", "color": "#41b6c4" }, "geometry": { "type": "Point", "coordinates": [ 8.6886211, 49.4069167 ] } },
{ "type": "Feature", "properties": { "index": "105", "@osmId": "node/1539904160", "name": "Kornmarkt-Madonna", "opening_hours": null, "label": "Fountains & water features", "color": "#41b6c4" }, "geometry": { "type": "Point", "coordinates": [ 8.7116462, 49.4118266 ] } },
{ "type": "Feature", "properties": { "index": "106", "@osmId": "node/1880859467", "name": null, "opening_hours": null, "label": "Fountains & water features", "color": "#41b6c4" }, "geometry": { "type": "Point", "coordinates": [ 8.7128936, 49.4093534 ] } },
{ "type": "Feature", "properties": { "index": "107", "@osmId": "node/1899286943", "name": "Liselotte-Brunnen", "opening_hours": null, "label": "Fountains & water features", "color": "#41b6c4" }, "geometry": { "type": "Point", "coordinates": [ 8.7114074, 49.4093935 ] } },
{ "type": "Feature", "properties": { "index": "108", "@osmId": "node/1899287777", "name": "Vater Rhein", "opening_hours": null, "label": "Fountains & water features", "color": "#41b6c4" }, "geometry": { "type": "Point", "coordinates": [ 8.7191369, 49.4102478 ] } },
{ "type": "Feature", "properties": { "index": "109", "@osmId": "node/1904319945", "name": null, "opening_hours": null, "label": "Fountains & water features", "color": "#41b6c4" }, "geometry": { "type": "Point", "coordinates": [ 8.7127841, 49.4092653 ] } },
{ "type": "Feature", "properties": { "index": "110", "@osmId": "node/1920973413", "name": null, "opening_hours": null, "label": "Fountains & water features", "color": "#41b6c4" }, "geometry": { "type": "Point", "coordinates": [ 8.71421, 49.4156663 ] } },
{ "type": "Feature", "properties": { "index": "111", "@osmId": "node/2184899865", "name": null, "opening_hours": null, "label": "Fountains & water features", "color": "#41b6c4" }, "geometry": { "type": "Point", "coordinates": [ 8.6990129, 49.41213 ] } },
{ "type": "Feature", "properties": { "index": "112", "@osmId": "node/2415127895", "name": null, "opening_hours": null, "label": "Fountains & water features", "color": "#41b6c4" }, "geometry": { "type": "Point", "coordinates": [ 8.7028078, 49.4116784 ] } },
{ "type": "Feature", "properties": { "index": "113", "@osmId": "node/2600745711", "name": null, "opening_hours": null, "label": "Fountains & water features", "color": "#41b6c4" }, "geometry": { "type": "Point", "coordinates": [ 8.7151938, 49.4105299 ] } },
{ "type": "Feature", "properties": { "index": "114", "@osmId": "node/3071635714", "name": null, "opening_hours": null, "label": "Fountains & water features", "color": "#41b6c4" }, "geometry": { "type": "Point", "coordinates": [ 8.7190962, 49.4105161 ] } },
{ "type": "Feature", "properties": { "index": "115", "@osmId": "node/3175876163", "name": null, "opening_hours": null, "label": "Fountains & water features", "color": "#41b6c4" }, "geometry": { "type": "Point", "coordinates": [ 8.7069722, 49.410349 ] } },
{ "type": "Feature", "properties": { "index": "116", "@osmId": "node/3215740295", "name": null, "opening_hours": null, "label": "Fountains & water features", "color": "#41b6c4" }, "geometry": { "type": "Point", "coordinates": [ 8.7081623, 49.4106945 ] } },
{ "type": "Feature", "properties": { "index": "117", "@osmId": "node/3391359121", "name": null, "opening_hours": null, "label": "Fountains & water features", "color": "#41b6c4" }, "geometry": { "type": "Point", "coordinates": [ 8.6843544, 49.4082021 ] } },
{ "type": "Feature", "properties": { "index": "118", "@osmId": "node/3764985544", "name": null, "opening_hours": null, "label": "Fountains & water features", "color": "#41b6c4" }, "geometry": { "type": "Point", "coordinates": [ 8.6709425, 49.3986516 ] } },
{ "type": "Feature", "properties": { "index": "119", "@osmId": "node/4242166146", "name": "Mittelbadbrunnen", "opening_hours": null, "label": "Fountains & water features", "color": "#41b6c4" }, "geometry": { "type": "Point", "coordinates": [ 8.7108724, 49.4109335 ] } },
{ "type": "Feature", "properties": { "index": "120", "@osmId": "node/5020173652", "name": null, "opening_hours": null, "label": "Fountains & water features", "color": "#41b6c4" }, "geometry": { "type": "Point", "coordinates": [ 8.706947, 49.4084981 ] } },
{ "type": "Feature", "properties": { "index": "121", "@osmId": "node/5048777342", "name": null, "opening_hours": null, "label": "Fountains & water features", "color": "#41b6c4" }, "geometry": { "type": "Point", "coordinates": [ 8.6939852, 49.4114228 ] } },
{ "type": "Feature", "properties": { "index": "122", "@osmId": "node/5179002997", "name": null, "opening_hours": null, "label": "Fountains & water features", "color": "#41b6c4" }, "geometry": { "type": "Point", "coordinates": [ 8.6952671, 49.407526 ] } },
{ "type": "Feature", "properties": { "index": "123", "@osmId": "node/6494905215", "name": null, "opening_hours": null, "label": "Fountains & water features", "color": "#41b6c4" }, "geometry": { "type": "Point", "coordinates": [ 8.6629719, 49.4146448 ] } },
{ "type": "Feature", "properties": { "index": "124", "@osmId": "node/6811542920", "name": null, "opening_hours": null, "label": "Fountains & water features", "color": "#41b6c4" }, "geometry": { "type": "Point", "coordinates": [ 8.6621808, 49.4147415 ] } },
{ "type": "Feature", "properties": { "index": "125", "@osmId": "node/7601063079", "name": null, "opening_hours": null, "label": "Fountains & water features", "color": "#41b6c4" }, "geometry": { "type": "Point", "coordinates": [ 8.7068152, 49.4085823 ] } },
{ "type": "Feature", "properties": { "index": "126", "@osmId": "node/8893161313", "name": null, "opening_hours": null, "label": "Fountains & water features", "color": "#41b6c4" }, "geometry": { "type": "Point", "coordinates": [ 8.6719553, 49.4139718 ] } },
{ "type": "Feature", "properties": { "index": "127", "@osmId": "node/8946633635", "name": null, "opening_hours": null, "label": "Fountains & water features", "color": "#41b6c4" }, "geometry": { "type": "Point", "coordinates": [ 8.7040365, 49.4106805 ] } },
{ "type": "Feature", "properties": { "index": "128", "@osmId": "node/11369422151", "name": null, "opening_hours": null, "label": "Fountains & water features", "color": "#41b6c4" }, "geometry": { "type": "Point", "coordinates": [ 8.6844055, 49.4089082 ] } },
{ "type": "Feature", "properties": { "index": "129", "@osmId": "node/11725855431", "name": null, "opening_hours": null, "label": "Fountains & water features", "color": "#41b6c4" }, "geometry": { "type": "Point", "coordinates": [ 8.7050734, 49.4110692 ] } },
{ "type": "Feature", "properties": { "index": "130", "@osmId": "node/11926223741", "name": null, "opening_hours": null, "label": "Fountains & water features", "color": "#41b6c4" }, "geometry": { "type": "Point", "coordinates": [ 8.6728434, 49.4125298 ] } },
{ "type": "Feature", "properties": { "index": "131", "@osmId": "node/11991893300", "name": null, "opening_hours": null, "label": "Fountains & water features", "color": "#41b6c4" }, "geometry": { "type": "Point", "coordinates": [ 8.671396, 49.4092295 ] } },
{ "type": "Feature", "properties": { "index": "132", "@osmId": "node/11991893301", "name": null, "opening_hours": null, "label": "Fountains & water features", "color": "#41b6c4" }, "geometry": { "type": "Point", "coordinates": [ 8.6715844, 49.409281 ] } },
{ "type": "Feature", "properties": { "index": "133", "@osmId": "node/12369571056", "name": null, "opening_hours": null, "label": "Fountains & water features", "color": "#41b6c4" }, "geometry": { "type": "Point", "coordinates": [ 8.673457, 49.4033608 ] } },
{ "type": "Feature", "properties": { "index": "134", "@osmId": "node/12914953011", "name": null, "opening_hours": null, "label": "Fountains & water features", "color": "#41b6c4" }, "geometry": { "type": "Point", "coordinates": [ 8.6801557, 49.4089995 ] } },
{ "type": "Feature", "properties": { "index": "135", "@osmId": "node/13120897766", "name": null, "opening_hours": null, "label": "Fountains & water features", "color": "#41b6c4" }, "geometry": { "type": "Point", "coordinates": [ 8.6663095, 49.417393 ] } },
{ "type": "Feature", "properties": { "index": "136", "@osmId": "relation/18092541", "name": "Bella Park", "opening_hours": null, "label": "Parks & green spaces", "color": "#31a354" }, "geometry": { "type": "Point", "coordinates": [ 8.6809407, 49.4049867 ] } },
{ "type": "Feature", "properties": { "index": "137", "@osmId": "way/14324273", "name": "Krahnenplatz", "opening_hours": null, "label": "Parks & green spaces", "color": "#31a354" }, "geometry": { "type": "Point", "coordinates": [ 8.7033358, 49.4128078 ] } },
{ "type": "Feature", "properties": { "index": "138", "@osmId": "way/75246883", "name": "Schlossgarten", "opening_hours": null, "label": "Parks & green spaces", "color": "#31a354" }, "geometry": { "type": "Point", "coordinates": [ 8.718099, 49.4106484 ] } },
{ "type": "Feature", "properties": { "index": "139", "@osmId": "way/123815173", "name": null, "opening_hours": null, "label": "Parks & green spaces", "color": "#31a354" }, "geometry": { "type": "Point", "coordinates": [ 8.7179255, 49.4141089 ] } },
{ "type": "Feature", "properties": { "index": "140", "@osmId": "way/179552527", "name": null, "opening_hours": null, "label": "Parks & green spaces", "color": "#31a354" }, "geometry": { "type": "Point", "coordinates": [ 8.709108, 49.4060873 ] } },
{ "type": "Feature", "properties": { "index": "141", "@osmId": "way/233164326", "name": "Museumsgarten", "opening_hours": null, "label": "Parks & green spaces", "color": "#31a354" }, "geometry": { "type": "Point", "coordinates": [ 8.7025897, 49.4117744 ] } },
{ "type": "Feature", "properties": { "index": "142", "@osmId": "way/254154173", "name": null, "opening_hours": null, "label": "Parks & green spaces", "color": "#31a354" }, "geometry": { "type": "Point", "coordinates": [ 8.7146252, 49.4096512 ] } },
{ "type": "Feature", "properties": { "index": "143", "@osmId": "way/918164562", "name": "Providenzgarten", "opening_hours": "24/7", "label": "Parks & green spaces", "color": "#31a354" }, "geometry": { "type": "Point", "coordinates": [ 8.7024973, 49.4105279 ] } },
{ "type": "Feature", "properties": { "index": "144", "@osmId": "way/1293738324", "name": "Barockgarten", "opening_hours": null, "label": "Parks & green spaces", "color": "#31a354" }, "geometry": { "type": "Point", "coordinates": [ 8.7082005, 49.4106488 ] } },
{ "type": "Feature", "properties": { "index": "145", "@osmId": "way/1349245433", "name": "Stückgarten", "opening_hours": null, "label": "Parks & green spaces", "color": "#31a354" }, "geometry": { "type": "Point", "coordinates": [ 8.7142847, 49.4100847 ] } },
{ "type": "Feature", "properties": { "index": "146", "@osmId": "way/213504501", "name": "Unterer Neckar: Altneckar Heidelberg-Wieblingen", "opening_hours": null, "label": "Parks & green spaces", "color": "#31a354" }, "geometry": { "type": "Point", "coordinates": [ 8.6643356, 49.4112945 ] } },
{ "type": "Feature", "properties": { "index": "147", "@osmId": "way/787508363", "name": "Spitzes Eck", "opening_hours": null, "label": "Parks & green spaces", "color": "#31a354" }, "geometry": { "type": "Point", "coordinates": [ 8.6612559, 49.404645 ] } },
{ "type": "Feature", "properties": { "index": "148", "@osmId": "way/14195511", "name": "Jubiläumsplatz", "opening_hours": null, "label": "Parks & green spaces", "color": "#31a354" }, "geometry": { "type": "Point", "coordinates": [ 8.698847, 49.4121147 ] } },
{ "type": "Feature", "properties": { "index": "149", "@osmId": "way/33610969", "name": "Stadtgarten", "opening_hours": null, "label": "Parks & green spaces", "color": "#31a354" }, "geometry": { "type": "Point", "coordinates": [ 8.6949416, 49.4073133 ] } },
{ "type": "Feature", "properties": { "index": "150", "@osmId": "way/35982105", "name": "Schwanenteichanlage", "opening_hours": null, "label": "Parks & green spaces", "color": "#31a354" }, "geometry": { "type": "Point", "coordinates": [ 8.6873585, 49.4068013 ] } },
{ "type": "Feature", "properties": { "index": "151", "@osmId": "way/36822132", "name": "Adenauerplatz", "opening_hours": null, "label": "Parks & green spaces", "color": "#31a354" }, "geometry": { "type": "Point", "coordinates": [ 8.6936252, 49.4072311 ] } },
{ "type": "Feature", "properties": { "index": "152", "@osmId": "way/109508570", "name": null, "opening_hours": null, "label": "Parks & green spaces", "color": "#31a354" }, "geometry": { "type": "Point", "coordinates": [ 8.6893521, 49.3990592 ] } },
{ "type": "Feature", "properties": { "index": "153", "@osmId": "way/131478144", "name": null, "opening_hours": null, "label": "Parks & green spaces", "color": "#31a354" }, "geometry": { "type": "Point", "coordinates": [ 8.6925373, 49.4107336 ] } },
{ "type": "Feature", "properties": { "index": "154", "@osmId": "way/314062331", "name": "Garten von Essbares Heidelberg", "opening_hours": null, "label": "Parks & green spaces", "color": "#31a354" }, "geometry": { "type": "Point", "coordinates": [ 8.6848431, 49.4017666 ] } },
{ "type": "Feature", "properties": { "index": "155", "@osmId": "way/367010021", "name": null, "opening_hours": null, "label": "Parks & green spaces", "color": "#31a354" }, "geometry": { "type": "Point", "coordinates": [ 8.685861, 49.3985055 ] } },
{ "type": "Feature", "properties": { "index": "156", "@osmId": "way/488810534", "name": null, "opening_hours": null, "label": "Parks & green spaces", "color": "#31a354" }, "geometry": { "type": "Point", "coordinates": [ 8.6891947, 49.398025 ] } },
{ "type": "Feature", "properties": { "index": "157", "@osmId": "way/531965583", "name": "Philosophengärtchen", "opening_hours": null, "label": "Parks & green spaces", "color": "#31a354" }, "geometry": { "type": "Point", "coordinates": [ 8.7005522, 49.4151043 ] } },
{ "type": "Feature", "properties": { "index": "158", "@osmId": "way/692214547", "name": "Gerhart-Hauptmann-Platz", "opening_hours": null, "label": "Parks & green spaces", "color": "#31a354" }, "geometry": { "type": "Point", "coordinates": [ 8.6810527, 49.4143543 ] } },
{ "type": "Feature", "properties": { "index": "159", "@osmId": "way/704764162", "name": null, "opening_hours": null, "label": "Parks & green spaces", "color": "#31a354" }, "geometry": { "type": "Point", "coordinates": [ 8.6912757, 49.4000776 ] } },
{ "type": "Feature", "properties": { "index": "160", "@osmId": "way/1192036406", "name": null, "opening_hours": null, "label": "Parks & green spaces", "color": "#31a354" }, "geometry": { "type": "Point", "coordinates": [ 8.6851106, 49.4016754 ] } },
{ "type": "Feature", "properties": { "index": "161", "@osmId": "way/1192040746", "name": null, "opening_hours": null, "label": "Parks & green spaces", "color": "#31a354" }, "geometry": { "type": "Point", "coordinates": [ 8.6871909, 49.4003841 ] } },
{ "type": "Feature", "properties": { "index": "162", "@osmId": "way/1195015744", "name": null, "opening_hours": null, "label": "Parks & green spaces", "color": "#31a354" }, "geometry": { "type": "Point", "coordinates": [ 8.6839264, 49.4017253 ] } },
{ "type": "Feature", "properties": { "index": "163", "@osmId": "way/1283294048", "name": null, "opening_hours": null, "label": "Parks & green spaces", "color": "#31a354" }, "geometry": { "type": "Point", "coordinates": [ 8.6845976, 49.4101182 ] } },
{ "type": "Feature", "properties": { "index": "164", "@osmId": "way/1283294049", "name": null, "opening_hours": null, "label": "Parks & green spaces", "color": "#31a354" }, "geometry": { "type": "Point", "coordinates": [ 8.6846553, 49.4101239 ] } },
{ "type": "Feature", "properties": { "index": "165", "@osmId": "way/1413505653", "name": null, "opening_hours": null, "label": "Parks & green spaces", "color": "#31a354" }, "geometry": { "type": "Point", "coordinates": [ 8.6992131, 49.4145113 ] } },
{ "type": "Feature", "properties": { "index": "166", "@osmId": "way/14195520", "name": "Montpellierplatz", "opening_hours": null, "label": "Parks & green spaces", "color": "#31a354" }, "geometry": { "type": "Point", "coordinates": [ 8.7010196, 49.4124165 ] } },
{ "type": "Feature", "properties": { "index": "167", "@osmId": "way/24853955", "name": "Werderplatz", "opening_hours": null, "label": "Parks & green spaces", "color": "#31a354" }, "geometry": { "type": "Point", "coordinates": [ 8.6866569, 49.4202389 ] } },
{ "type": "Feature", "properties": { "index": "168", "@osmId": "way/25963212", "name": "Botanischer Garten", "opening_hours": null, "label": "Parks & green spaces", "color": "#31a354" }, "geometry": { "type": "Point", "coordinates": [ 8.6685089, 49.4148916 ] } },
{ "type": "Feature", "properties": { "index": "169", "@osmId": "way/26937875", "name": null, "opening_hours": null, "label": "Parks & green spaces", "color": "#31a354" }, "geometry": { "type": "Point", "coordinates": [ 8.6777317, 49.4121228 ] } },
{ "type": "Feature", "properties": { "index": "170", "@osmId": "way/101041870", "name": null, "opening_hours": null, "label": "Parks & green spaces", "color": "#31a354" }, "geometry": { "type": "Point", "coordinates": [ 8.7009704, 49.4156844 ] } },
{ "type": "Feature", "properties": { "index": "171", "@osmId": "way/113581136", "name": null, "opening_hours": null, "label": "Parks & green spaces", "color": "#31a354" }, "geometry": { "type": "Point", "coordinates": [ 8.6786669, 49.4038837 ] } },
{ "type": "Feature", "properties": { "index": "172", "@osmId": "way/140104672", "name": "Penta-Park", "opening_hours": null, "label": "Parks & green spaces", "color": "#31a354" }, "geometry": { "type": "Point", "coordinates": [ 8.6714197, 49.4093472 ] } },
{ "type": "Feature", "properties": { "index": "173", "@osmId": "way/242164833", "name": null, "opening_hours": null, "label": "Parks & green spaces", "color": "#31a354" }, "geometry": { "type": "Point", "coordinates": [ 8.6686082, 49.4119205 ] } },
{ "type": "Feature", "properties": { "index": "174", "@osmId": "way/311477426", "name": "Zollhofgarten", "opening_hours": null, "label": "Parks & green spaces", "color": "#31a354" }, "geometry": { "type": "Point", "coordinates": [ 8.6704895, 49.4018473 ] } },
{ "type": "Feature", "properties": { "index": "175", "@osmId": "way/331375200", "name": null, "opening_hours": null, "label": "Parks & green spaces", "color": "#31a354" }, "geometry": { "type": "Point", "coordinates": [ 8.6891073, 49.4200869 ] } },
{ "type": "Feature", "properties": { "index": "176", "@osmId": "way/331375201", "name": null, "opening_hours": null, "label": "Parks & green spaces", "color": "#31a354" }, "geometry": { "type": "Point", "coordinates": [ 8.6890893, 49.4198766 ] } },
{ "type": "Feature", "properties": { "index": "177", "@osmId": "way/448184453", "name": null, "opening_hours": null, "label": "Parks & green spaces", "color": "#31a354" }, "geometry": { "type": "Point", "coordinates": [ 8.6696036, 49.3990341 ] } },
{ "type": "Feature", "properties": { "index": "178", "@osmId": "way/448184455", "name": null, "opening_hours": null, "label": "Parks & green spaces", "color": "#31a354" }, "geometry": { "type": "Point", "coordinates": [ 8.6695904, 49.3990928 ] } },
{ "type": "Feature", "properties": { "index": "179", "@osmId": "way/448184456", "name": null, "opening_hours": null, "label": "Parks & green spaces", "color": "#31a354" }, "geometry": { "type": "Point", "coordinates": [ 8.6695013, 49.399133 ] } },
{ "type": "Feature", "properties": { "index": "180", "@osmId": "way/448184457", "name": null, "opening_hours": null, "label": "Parks & green spaces", "color": "#31a354" }, "geometry": { "type": "Point", "coordinates": [ 8.6693069, 49.3991771 ] } },
{ "type": "Feature", "properties": { "index": "181", "@osmId": "way/448184458", "name": null, "opening_hours": null, "label": "Parks & green spaces", "color": "#31a354" }, "geometry": { "type": "Point", "coordinates": [ 8.6693964, 49.3991328 ] } },
{ "type": "Feature", "properties": { "index": "182", "@osmId": "way/448184460", "name": null, "opening_hours": null, "label": "Parks & green spaces", "color": "#31a354" }, "geometry": { "type": "Point", "coordinates": [ 8.6677646, 49.3999763 ] } },
{ "type": "Feature", "properties": { "index": "183", "@osmId": "way/448184461", "name": null, "opening_hours": null, "label": "Parks & green spaces", "color": "#31a354" }, "geometry": { "type": "Point", "coordinates": [ 8.6693874, 49.3991866 ] } },
{ "type": "Feature", "properties": { "index": "184", "@osmId": "way/448184462", "name": null, "opening_hours": null, "label": "Parks & green spaces", "color": "#31a354" }, "geometry": { "type": "Point", "coordinates": [ 8.6694921, 49.3990904 ] } },
{ "type": "Feature", "properties": { "index": "185", "@osmId": "way/448184463", "name": null, "opening_hours": null, "label": "Parks & green spaces", "color": "#31a354" }, "geometry": { "type": "Point", "coordinates": [ 8.6676362, 49.4000389 ] } },
{ "type": "Feature", "properties": { "index": "186", "@osmId": "way/448184464", "name": null, "opening_hours": null, "label": "Parks & green spaces", "color": "#31a354" }, "geometry": { "type": "Point", "coordinates": [ 8.6677731, 49.3999207 ] } },
{ "type": "Feature", "properties": { "index": "187", "@osmId": "way/448184466", "name": null, "opening_hours": null, "label": "Parks & green spaces", "color": "#31a354" }, "geometry": { "type": "Point", "coordinates": [ 8.6676311, 49.3999907 ] } },
{ "type": "Feature", "properties": { "index": "188", "@osmId": "way/484616560", "name": "Bahnstadt Promenade", "opening_hours": null, "label": "Parks & green spaces", "color": "#31a354" }, "geometry": { "type": "Point", "coordinates": [ 8.6680431, 49.3997465 ] } },
{ "type": "Feature", "properties": { "index": "189", "@osmId": "way/907564724", "name": null, "opening_hours": null, "label": "Parks & green spaces", "color": "#31a354" }, "geometry": { "type": "Point", "coordinates": [ 8.6784478, 49.4219226 ] } },
{ "type": "Feature", "properties": { "index": "190", "@osmId": "way/1155667471", "name": "Gemeinschafts-Garten", "opening_hours": null, "label": "Parks & green spaces", "color": "#31a354" }, "geometry": { "type": "Point", "coordinates": [ 8.6663005, 49.4079665 ] } },
{ "type": "Feature", "properties": { "index": "191", "@osmId": "way/1164236957", "name": null, "opening_hours": null, "label": "Parks & green spaces", "color": "#31a354" }, "geometry": { "type": "Point", "coordinates": [ 8.6702984, 49.4074022 ] } },
{ "type": "Feature", "properties": { "index": "192", "@osmId": "way/1174721805", "name": null, "opening_hours": null, "label": "Parks & green spaces", "color": "#31a354" }, "geometry": { "type": "Point", "coordinates": [ 8.6651316, 49.4014219 ] } },
{ "type": "Feature", "properties": { "index": "193", "@osmId": "way/1289413086", "name": "Tertiärgarten", "opening_hours": "24/7", "label": "Parks & green spaces", "color": "#31a354" }, "geometry": { "type": "Point", "coordinates": [ 8.6735279, 49.4192432 ] } },
{ "type": "Feature", "properties": { "index": "194", "@osmId": "relation/12286306", "name": "Bergfriedhof Heidelberg", "opening_hours": null, "label": "Cemeteries", "color": "#78c679" }, "geometry": { "type": "Point", "coordinates": [ 8.691483, 49.3984258 ] } },
{ "type": "Feature", "properties": { "index": "195", "@osmId": "way/25805783", "name": "Friedhof Neuenheim", "opening_hours": null, "label": "Cemeteries", "color": "#78c679" }, "geometry": { "type": "Point", "coordinates": [ 8.6822066, 49.4189577 ] } },
{ "type": "Feature", "properties": { "index": "196", "@osmId": "relation/2050914", "name": null, "opening_hours": null, "label": "Forests & woodland", "color": "#006837" }, "geometry": { "type": "Point", "coordinates": [ 8.6733912, 49.4193441 ] } },
{ "type": "Feature", "properties": { "index": "197", "@osmId": "way/1295350037", "name": null, "opening_hours": null, "label": "Forests & woodland", "color": "#006837" }, "geometry": { "type": "Point", "coordinates": [ 8.7052701, 49.4092049 ] } },
{ "type": "Feature", "properties": { "index": "198", "@osmId": "way/1298857952", "name": null, "opening_hours": null, "label": "Forests & woodland", "color": "#006837" }, "geometry": { "type": "Point", "coordinates": [ 8.7131519, 49.4109495 ] } },
{ "type": "Feature", "properties": { "index": "199", "@osmId": "way/1387878863", "name": "Arboretum I", "opening_hours": null, "label": "Forests & woodland", "color": "#006837" }, "geometry": { "type": "Point", "coordinates": [ 8.7101856, 49.4006135 ] } },
{ "type": "Feature", "properties": { "index": "200", "@osmId": "way/1389195349", "name": null, "opening_hours": null, "label": "Forests & woodland", "color": "#006837" }, "geometry": { "type": "Point", "coordinates": [ 8.7174368, 49.412494 ] } },
{ "type": "Feature", "properties": { "index": "201", "@osmId": "way/1413473564", "name": null, "opening_hours": null, "label": "Forests & woodland", "color": "#006837" }, "geometry": { "type": "Point", "coordinates": [ 8.7118845, 49.4106296 ] } },
{ "type": "Feature", "properties": { "index": "202", "@osmId": "way/1425533845", "name": null, "opening_hours": null, "label": "Forests & woodland", "color": "#006837" }, "geometry": { "type": "Point", "coordinates": [ 8.7122959, 49.4102045 ] } },
{ "type": "Feature", "properties": { "index": "203", "@osmId": "way/1452320191", "name": null, "opening_hours": null, "label": "Forests & woodland", "color": "#006837" }, "geometry": { "type": "Point", "coordinates": [ 8.7122779, 49.4159695 ] } },
{ "type": "Feature", "properties": { "index": "204", "@osmId": "way/26936051", "name": "Neckarinsel", "opening_hours": null, "label": "Forests & woodland", "color": "#006837" }, "geometry": { "type": "Point", "coordinates": [ 8.6838748, 49.4106935 ] } },
{ "type": "Feature", "properties": { "index": "205", "@osmId": "way/946980267", "name": null, "opening_hours": null, "label": "Forests & woodland", "color": "#006837" }, "geometry": { "type": "Point", "coordinates": [ 8.6868606, 49.4018656 ] } },
{ "type": "Feature", "properties": { "index": "206", "@osmId": "way/1301910156", "name": null, "opening_hours": null, "label": "Forests & woodland", "color": "#006837" }, "geometry": { "type": "Point", "coordinates": [ 8.6858798, 49.4047399 ] } },
{ "type": "Feature", "properties": { "index": "207", "@osmId": "way/1410187799", "name": null, "opening_hours": null, "label": "Forests & woodland", "color": "#006837" }, "geometry": { "type": "Point", "coordinates": [ 8.682214, 49.4098389 ] } },
{ "type": "Feature", "properties": { "index": "208", "@osmId": "way/1413505652", "name": null, "opening_hours": null, "label": "Forests & woodland", "color": "#006837" }, "geometry": { "type": "Point", "coordinates": [ 8.7002013, 49.4146139 ] } },
{ "type": "Feature", "properties": { "index": "209", "@osmId": "way/156191772", "name": null, "opening_hours": null, "label": "Forests & woodland", "color": "#006837" }, "geometry": { "type": "Point", "coordinates": [ 8.6620674, 49.4125546 ] } },
{ "type": "Feature", "properties": { "index": "210", "@osmId": "way/27666160", "name": null, "opening_hours": null, "label": "Forests & woodland", "color": "#006837" }, "geometry": { "type": "Point", "coordinates": [ 8.6620949, 49.411526 ] } },
{ "type": "Feature", "properties": { "index": "211", "@osmId": "way/122136485", "name": null, "opening_hours": null, "label": "Forests & woodland", "color": "#006837" }, "geometry": { "type": "Point", "coordinates": [ 8.6770067, 49.409354 ] } },
{ "type": "Feature", "properties": { "index": "212", "@osmId": "way/122136488", "name": null, "opening_hours": null, "label": "Forests & woodland", "color": "#006837" }, "geometry": { "type": "Point", "coordinates": [ 8.6775571, 49.4096173 ] } },
{ "type": "Feature", "properties": { "index": "213", "@osmId": "way/122136492", "name": null, "opening_hours": null, "label": "Forests & woodland", "color": "#006837" }, "geometry": { "type": "Point", "coordinates": [ 8.6782181, 49.4093586 ] } },
{ "type": "Feature", "properties": { "index": "214", "@osmId": "way/156191221", "name": null, "opening_hours": null, "label": "Forests & woodland", "color": "#006837" }, "geometry": { "type": "Point", "coordinates": [ 8.6647329, 49.4105396 ] } },
{ "type": "Feature", "properties": { "index": "215", "@osmId": "way/726853660", "name": null, "opening_hours": null, "label": "Forests & woodland", "color": "#006837" }, "geometry": { "type": "Point", "coordinates": [ 8.6601628, 49.4152372 ] } },
{ "type": "Feature", "properties": { "index": "216", "@osmId": "way/726853804", "name": null, "opening_hours": null, "label": "Forests & woodland", "color": "#006837" }, "geometry": { "type": "Point", "coordinates": [ 8.6628528, 49.4143956 ] } },
{ "type": "Feature", "properties": { "index": "217", "@osmId": "way/726853806", "name": null, "opening_hours": null, "label": "Forests & woodland", "color": "#006837" }, "geometry": { "type": "Point", "coordinates": [ 8.662379, 49.4137514 ] } },
{ "type": "Feature", "properties": { "index": "218", "@osmId": "way/1052654395", "name": null, "opening_hours": null, "label": "Forests & woodland", "color": "#006837" }, "geometry": { "type": "Point", "coordinates": [ 8.6618356, 49.4135087 ] } },
{ "type": "Feature", "properties": { "index": "219", "@osmId": "way/1164685780", "name": null, "opening_hours": null, "label": "Forests & woodland", "color": "#006837" }, "geometry": { "type": "Point", "coordinates": [ 8.6689443, 49.3980902 ] } },
{ "type": "Feature", "properties": { "index": "220", "@osmId": "way/1303732166", "name": null, "opening_hours": null, "label": "Forests & woodland", "color": "#006837" }, "geometry": { "type": "Point", "coordinates": [ 8.6793918, 49.4094403 ] } },
{ "type": "Feature", "properties": { "index": "221", "@osmId": "way/1454195232", "name": null, "opening_hours": null, "label": "Forests & woodland", "color": "#006837" }, "geometry": { "type": "Point", "coordinates": [ 8.7002973, 49.4083174 ] } },
{ "type": "Feature", "properties": { "index": "222", "@osmId": "relation/38755", "name": null, "opening_hours": null, "label": "Forests & woodland", "color": "#006837" }, "geometry": { "type": "Point", "coordinates": [ 8.7069756, 49.4193931 ] } },
{ "type": "Feature", "properties": { "index": "223", "@osmId": "relation/2093213", "name": null, "opening_hours": null, "label": "Forests & woodland", "color": "#006837" }, "geometry": { "type": "Point", "coordinates": [ 8.7079147, 49.4030836 ] } }
]
}
