{
"type": "FeatureCollection",
"features": [
{ "type": "Feature", "properties": { "index": "0", "label": "Within 300 m on foot", "color": "#2b8cbe" }, "geometry": { "type": "MultiPolygon", "coordinates": [ [ [ [ 8.6647204, 49.3980742 ], [ 8.6648146, 49.3980189 ], [ 8.6648161, 49.3980011 ], [ 8.6749508, 49.3980029 ], [ 8.6750011, 49.3981366 ], [ 8.6750589, 49.3983987 ], [ 8.6750771, 49.3986633 ], [ 8.6750555, 49.3989277 ], [ 8.6749942, 49.3991895 ], [ 8.6748939, 49.3994461 ], [ 8.6747556, 49.3996951 ], [ 8.6745805, 49.399934 ], [ 8.6743704, 49.4001605 ], [ 8.6741273, 49.4003725 ], [ 8.6740203, 49.4004489 ], [ 8.6741446, 49.4005856 ], [ 8.6742351, 49.4007119 ], [ 8.6742812, 49.4007165 ], [ 8.6746744, 49.4007819 ], [ 8.6750559, 49.4008722 ], [ 8.6754219, 49.4009865 ], [ 8.6757691, 49.4011236 ], [ 8.6760939, 49.4012822 ], [ 8.6763934, 49.4014609 ], [ 8.6765453, 49.4015712 ], [ 8.6767333, 49.4014984 ], [ 8.6771008, 49.4013862 ], [ 8.6774835, 49.4012981 ], [ 8.6778775, 49.4012349 ], [ 8.6782791, 49.4011971 ], [ 8.6786845, 49.4011852 ], [ 8.6790897, 49.4011994 ], [ 8.6794908, 49.4012393 ], [ 8.6798484, 49.4012988 ], [ 8.6798744, 49.4011877 ], [ 8.6799747, 49.4009311 ], [ 8.680113, 49.4006821 ], [ 8.680288, 49.4004432 ], [ 8.6804981, 49.4002167 ], [ 8.6807412, 49.4000046 ], [ 8.681015, 49.3998092 ], [ 8.6813168, 49.3996322 ], [ 8.6816437, 49.3994753 ], [ 8.6819433, 49.3993592 ], [ 8.6818994, 49.399278 ], [ 8.6818024, 49.3990209 ], [ 8.6817446, 49.3987587 ], [ 8.6817264, 49.3984942 ], [ 8.681748, 49.3982298 ], [ 8.6818009, 49.3980036 ], [ 8.6955621, 49.3980038 ], [ 8.6955993, 49.3981722 ], [ 8.6956176, 49.3984368 ], [ 8.6955961, 49.3987012 ], [ 8.6955349, 49.398963 ], [ 8.6954347, 49.3992196 ], [ 8.695298, 49.3994658 ], [ 8.6953342, 49.3995619 ], [ 8.6953922, 49.399824 ], [ 8.6954104, 49.4000886 ], [ 8.6953889, 49.400353 ], [ 8.6953277, 49.4006148 ], [ 8.6952276, 49.4008714 ], [ 8.6950893, 49.4011204 ], [ 8.6949143, 49.4013593 ], [ 8.6947043, 49.4015859 ], [ 8.6944613, 49.401798 ], [ 8.6941876, 49.4019935 ], [ 8.694041, 49.4020795 ], [ 8.6941291, 49.4022423 ], [ 8.6942261, 49.4024995 ], [ 8.694284, 49.4027616 ], [ 8.6943023, 49.4030261 ], [ 8.6942807, 49.4032905 ], [ 8.6942196, 49.4035523 ], [ 8.6941576, 49.4037109 ], [ 8.6943445, 49.4037054 ], [ 8.6947497, 49.4037195 ], [ 8.6951508, 49.4037594 ], [ 8.6955441, 49.4038248 ], [ 8.6959256, 49.403915 ], [ 8.6962917, 49.4040292 ], [ 8.696639, 49.4041663 ], [ 8.6969639, 49.4043249 ], [ 8.6972635, 49.4045035 ], [ 8.6975348, 49.4047004 ], [ 8.6977753, 49.4049138 ], [ 8.6979825, 49.4051414 ], [ 8.6981545, 49.4053813 ], [ 8.6982796, 49.4056123 ], [ 8.698338, 49.4056261 ], [ 8.6984924, 49.4056742 ], [ 8.698848, 49.4057096 ], [ 8.6990583, 49.4057446 ], [ 8.6991126, 49.405732 ], [ 8.6995067, 49.4056687 ], [ 8.6999083, 49.4056309 ], [ 8.7003137, 49.4056189 ], [ 8.700719, 49.405633 ], [ 8.7011201, 49.4056729 ], [ 8.7015134, 49.4057382 ], [ 8.701895, 49.4058284 ], [ 8.7022611, 49.4059426 ], [ 8.7026084, 49.4060796 ], [ 8.7029334, 49.4062382 ], [ 8.703233, 49.4064168 ], [ 8.7035043, 49.4066138 ], [ 8.703634, 49.4067287 ], [ 8.7037025, 49.4067078 ], [ 8.7039167, 49.4066584 ], [ 8.7039805, 49.406621 ], [ 8.7040343, 49.4065826 ], [ 8.704336, 49.4064055 ], [ 8.7046629, 49.4062486 ], [ 8.7049762, 49.4061271 ], [ 8.7049728, 49.4060768 ], [ 8.7049942, 49.4058124 ], [ 8.7050554, 49.4055506 ], [ 8.7051555, 49.405294 ], [ 8.7052409, 49.4051402 ], [ 8.7049794, 49.4049843 ], [ 8.704708, 49.4047874 ], [ 8.7044676, 49.404574 ], [ 8.7042603, 49.4043464 ], [ 8.7040883, 49.4041065 ], [ 8.703953, 49.4038569 ], [ 8.703856, 49.4035997 ], [ 8.703798, 49.4033376 ], [ 8.7037797, 49.4030731 ], [ 8.7038012, 49.4028086 ], [ 8.7038623, 49.4025468 ], [ 8.7039625, 49.4022902 ], [ 8.7041007, 49.4020412 ], [ 8.7042756, 49.4018023 ], [ 8.7044856, 49.4015757 ], [ 8.7047286, 49.4013636 ], [ 8.7050022, 49.4011681 ], [ 8.705304, 49.400991 ], [ 8.7056308, 49.4008341 ], [ 8.7059797, 49.4006988 ], [ 8.7060558, 49.4006756 ], [ 8.7060508, 49.4006031 ], [ 8.7060723, 49.4003386 ], [ 8.7061334, 49.4000768 ], [ 8.7062335, 49.3998202 ], [ 8.7063717, 49.3995712 ], [ 8.7065466, 49.3993323 ], [ 8.7067566, 49.3991056 ], [ 8.7069995, 49.3988936 ], [ 8.7072732, 49.398698 ], [ 8.7075749, 49.398521 ], [ 8.7079017, 49.398364 ], [ 8.7082506, 49.3982288 ], [ 8.708618, 49.3981165 ], [ 8.7090006, 49.3980282 ], [ 8.7091617, 49.3980023 ], [ 8.7112067, 49.3980019 ], [ 8.711401, 49.3980342 ], [ 8.7117825, 49.3981244 ], [ 8.7121486, 49.3982385 ], [ 8.7124959, 49.3983755 ], [ 8.7128208, 49.3985341 ], [ 8.7131205, 49.3987127 ], [ 8.7133918, 49.3989096 ], [ 8.7136323, 49.3991229 ], [ 8.7138396, 49.3993505 ], [ 8.7140116, 49.3995904 ], [ 8.7141469, 49.39984 ], [ 8.714244, 49.4000971 ], [ 8.714302, 49.4003592 ], [ 8.7143204, 49.4006238 ], [ 8.7142989, 49.4008882 ], [ 8.7142379, 49.40115 ], [ 8.7141378, 49.4014067 ], [ 8.7139997, 49.4016557 ], [ 8.7138248, 49.4018946 ], [ 8.7136148, 49.4021213 ], [ 8.7133719, 49.4023334 ], [ 8.7130982, 49.4025289 ], [ 8.7127965, 49.402706 ], [ 8.7124697, 49.4028629 ], [ 8.7121208, 49.4029982 ], [ 8.7120447, 49.4030215 ], [ 8.7120497, 49.403094 ], [ 8.7120282, 49.4033584 ], [ 8.7119672, 49.4036202 ], [ 8.7118671, 49.4038768 ], [ 8.7117817, 49.4040307 ], [ 8.7120432, 49.4041865 ], [ 8.7123146, 49.4043834 ], [ 8.7125551, 49.4045967 ], [ 8.7127624, 49.4048244 ], [ 8.7129345, 49.4050642 ], [ 8.7130698, 49.4053139 ], [ 8.7131669, 49.405571 ], [ 8.7132249, 49.4058331 ], [ 8.7132433, 49.4060976 ], [ 8.7132218, 49.4063621 ], [ 8.713171, 49.4065797 ], [ 8.7132051, 49.4065808 ], [ 8.7136063, 49.4066207 ], [ 8.7139996, 49.406686 ], [ 8.7143812, 49.4067762 ], [ 8.7147474, 49.4068903 ], [ 8.7149311, 49.4069628 ], [ 8.7150461, 49.4069667 ], [ 8.7154473, 49.4070066 ], [ 8.7158406, 49.4070719 ], [ 8.7162222, 49.407162 ], [ 8.7165884, 49.4072762 ], [ 8.7169357, 49.4074132 ], [ 8.7171248, 49.4075054 ], [ 8.7171294, 49.4075052 ], [ 8.7175347, 49.4075192 ], [ 8.7179359, 49.4075591 ], [ 8.7182602, 49.4076129 ], [ 8.7183452, 49.4075992 ], [ 8.7187469, 49.4075613 ], [ 8.7191523, 49.4075493 ], [ 8.7195576, 49.4075633 ], [ 8.7199588, 49.4076031 ], [ 8.72, 49.40761 ], [ 8.72, 49.4164398 ], [ 8.7198616, 49.4164935 ], [ 8.719494, 49.4166058 ], [ 8.7191114, 49.4166941 ], [ 8.7187173, 49.4167575 ], [ 8.7183155, 49.4167954 ], [ 8.7179538, 49.4168061 ], [ 8.7178504, 49.4169473 ], [ 8.7176404, 49.4171739 ], [ 8.7173974, 49.417386 ], [ 8.7171237, 49.4175816 ], [ 8.7168219, 49.4177587 ], [ 8.7164949, 49.4179156 ], [ 8.716146, 49.4180509 ], [ 8.7157784, 49.4181632 ], [ 8.7153957, 49.4182515 ], [ 8.7150016, 49.4183149 ], [ 8.7145998, 49.4183528 ], [ 8.7141943, 49.4183648 ], [ 8.7141807, 49.4183643 ], [ 8.7138462, 49.4184665 ], [ 8.7134635, 49.4185547 ], [ 8.7130694, 49.4186181 ], [ 8.7126676, 49.418656 ], [ 8.7122621, 49.418668 ], [ 8.7118568, 49.418654 ], [ 8.7114555, 49.4186141 ], [ 8.7110621, 49.4185488 ], [ 8.7108762, 49.4185048 ], [ 8.7109385, 49.4186197 ], [ 8.7110356, 49.4188769 ], [ 8.7110936, 49.419139 ], [ 8.711112, 49.4194035 ], [ 8.7110905, 49.419668 ], [ 8.7110294, 49.4199298 ], [ 8.7109293, 49.4201864 ], [ 8.710791, 49.4204354 ], [ 8.7106161, 49.4206743 ], [ 8.710406, 49.4209009 ], [ 8.710163, 49.421113 ], [ 8.7098892, 49.4213086 ], [ 8.7095874, 49.4214857 ], [ 8.7092604, 49.4216426 ], [ 8.7089114, 49.4217778 ], [ 8.7085438, 49.4218901 ], [ 8.708161, 49.4219784 ], [ 8.7080111, 49.4220025 ], [ 8.705943, 49.4220028 ], [ 8.7057594, 49.4219723 ], [ 8.7053778, 49.4218821 ], [ 8.7050115, 49.421768 ], [ 8.7046641, 49.4216309 ], [ 8.704339, 49.4214724 ], [ 8.7040393, 49.4212937 ], [ 8.7037678, 49.4210968 ], [ 8.7035273, 49.4208835 ], [ 8.70332, 49.4206558 ], [ 8.7031479, 49.420416 ], [ 8.7030126, 49.4201663 ], [ 8.7029155, 49.4199092 ], [ 8.7028576, 49.4196471 ], [ 8.7028392, 49.4193825 ], [ 8.7028607, 49.4191181 ], [ 8.7029219, 49.4188563 ], [ 8.7030221, 49.4185997 ], [ 8.7031603, 49.4183507 ], [ 8.7033353, 49.4181118 ], [ 8.7035454, 49.4178852 ], [ 8.7037884, 49.4176731 ], [ 8.7040622, 49.4174776 ], [ 8.704364, 49.4173005 ], [ 8.704691, 49.4171436 ], [ 8.70504, 49.4170083 ], [ 8.7054076, 49.416896 ], [ 8.7057903, 49.4168078 ], [ 8.7061844, 49.4167444 ], [ 8.7065862, 49.4167066 ], [ 8.7067511, 49.4167017 ], [ 8.7066739, 49.4166333 ], [ 8.7064666, 49.4164056 ], [ 8.7062945, 49.4161658 ], [ 8.7061592, 49.4159161 ], [ 8.7060621, 49.415659 ], [ 8.7060041, 49.4153969 ], [ 8.7059976, 49.4153028 ], [ 8.7057263, 49.4153464 ], [ 8.7053246, 49.4153842 ], [ 8.7050795, 49.4153914 ], [ 8.7050881, 49.4154305 ], [ 8.7051065, 49.415695 ], [ 8.705085, 49.4159595 ], [ 8.7050238, 49.4162213 ], [ 8.7049237, 49.4164779 ], [ 8.7047854, 49.4167269 ], [ 8.7046104, 49.4169658 ], [ 8.7044004, 49.4171924 ], [ 8.7041573, 49.4174045 ], [ 8.7038836, 49.4176 ], [ 8.7035817, 49.4177771 ], [ 8.7032547, 49.417934 ], [ 8.7029058, 49.4180692 ], [ 8.7025381, 49.4181815 ], [ 8.7021554, 49.4182698 ], [ 8.7017613, 49.4183331 ], [ 8.7013595, 49.4183709 ], [ 8.700954, 49.4183829 ], [ 8.7005487, 49.4183688 ], [ 8.7001474, 49.4183289 ], [ 8.699754, 49.4182635 ], [ 8.6993724, 49.4181733 ], [ 8.6990061, 49.4180592 ], [ 8.6986588, 49.4179221 ], [ 8.6983337, 49.4177635 ], [ 8.6980341, 49.4175849 ], [ 8.6977627, 49.417388 ], [ 8.6975222, 49.4171746 ], [ 8.6973149, 49.416947 ], [ 8.6972777, 49.416895 ], [ 8.6972488, 49.416886 ], [ 8.6969015, 49.416749 ], [ 8.6965764, 49.4165904 ], [ 8.6962768, 49.4164117 ], [ 8.6960054, 49.4162148 ], [ 8.6957649, 49.4160015 ], [ 8.6955576, 49.4157738 ], [ 8.6953856, 49.415534 ], [ 8.6952504, 49.4152843 ], [ 8.6951534, 49.4150271 ], [ 8.6950954, 49.414765 ], [ 8.6950771, 49.4145005 ], [ 8.6950987, 49.414236 ], [ 8.6951512, 49.4140112 ], [ 8.6947756, 49.4140715 ], [ 8.6946151, 49.4140866 ], [ 8.6946317, 49.4141304 ], [ 8.6946896, 49.4143925 ], [ 8.6947079, 49.4146571 ], [ 8.6946863, 49.4149215 ], [ 8.6946251, 49.4151833 ], [ 8.6945249, 49.4154399 ], [ 8.6943866, 49.4156889 ], [ 8.6942839, 49.4158291 ], [ 8.6942978, 49.4160302 ], [ 8.6942762, 49.4162947 ], [ 8.6942255, 49.4165115 ], [ 8.6943756, 49.4166764 ], [ 8.6945477, 49.4169162 ], [ 8.6946829, 49.4171659 ], [ 8.6947799, 49.417423 ], [ 8.6948379, 49.4176851 ], [ 8.6948561, 49.4179497 ], [ 8.6948346, 49.4182141 ], [ 8.6947734, 49.4184759 ], [ 8.6946732, 49.4187325 ], [ 8.6945349, 49.4189815 ], [ 8.6943598, 49.4192204 ], [ 8.6941497, 49.419447 ], [ 8.6939066, 49.4196591 ], [ 8.6936328, 49.4198546 ], [ 8.6933309, 49.4200316 ], [ 8.6932421, 49.4200742 ], [ 8.6932437, 49.4200979 ], [ 8.6932222, 49.4203624 ], [ 8.693161, 49.4206242 ], [ 8.6930607, 49.4208808 ], [ 8.6929224, 49.4211298 ], [ 8.6927474, 49.4213687 ], [ 8.6925372, 49.4215953 ], [ 8.6922941, 49.4218073 ], [ 8.6920202, 49.4220028 ], [ 8.6920184, 49.4220039 ], [ 8.6743175, 49.4220028 ], [ 8.6743154, 49.4219714 ], [ 8.6741806, 49.421993 ], [ 8.674076, 49.4220028 ], [ 8.672709, 49.4220026 ], [ 8.6725666, 49.4219884 ], [ 8.6721733, 49.421923 ], [ 8.6717917, 49.4218327 ], [ 8.6714254, 49.4217184 ], [ 8.6710782, 49.4215813 ], [ 8.6707532, 49.4214226 ], [ 8.6704536, 49.4212439 ], [ 8.6701823, 49.4210469 ], [ 8.6699419, 49.4208335 ], [ 8.6697347, 49.4206058 ], [ 8.6695628, 49.4203659 ], [ 8.6695112, 49.4202705 ], [ 8.6691666, 49.4203257 ], [ 8.6687648, 49.4203634 ], [ 8.6683593, 49.4203752 ], [ 8.667954, 49.4203611 ], [ 8.6675527, 49.4203211 ], [ 8.6671594, 49.4202556 ], [ 8.6667778, 49.4201653 ], [ 8.6665198, 49.4200848 ], [ 8.6662912, 49.4200914 ], [ 8.6658859, 49.4200773 ], [ 8.6654846, 49.4200373 ], [ 8.6650913, 49.4199718 ], [ 8.6647097, 49.4198815 ], [ 8.6643435, 49.4197672 ], [ 8.6639962, 49.41963 ], [ 8.6636713, 49.4194713 ], [ 8.6633717, 49.4192926 ], [ 8.6631005, 49.4190956 ], [ 8.6628601, 49.4188822 ], [ 8.662653, 49.4186545 ], [ 8.6624811, 49.4184146 ], [ 8.662346, 49.4181648 ], [ 8.6622492, 49.4179077 ], [ 8.6621914, 49.4176455 ], [ 8.6621874, 49.4175874 ], [ 8.6620962, 49.4176227 ], [ 8.6617284, 49.4177349 ], [ 8.6613457, 49.417823 ], [ 8.6609515, 49.4178862 ], [ 8.6605497, 49.4179238 ], [ 8.6601442, 49.4179356 ], [ 8.66, 49.4179306 ], [ 8.66, 49.4020761 ], [ 8.6600734, 49.4020592 ], [ 8.6604674, 49.401996 ], [ 8.6608691, 49.4019584 ], [ 8.6610785, 49.4019523 ], [ 8.6610726, 49.4019365 ], [ 8.6610148, 49.4016744 ], [ 8.6609968, 49.4014099 ], [ 8.6610185, 49.4011454 ], [ 8.6610798, 49.4008836 ], [ 8.6611802, 49.4006271 ], [ 8.6613186, 49.4003781 ], [ 8.6614937, 49.4001392 ], [ 8.6617039, 49.3999127 ], [ 8.6619471, 49.3997007 ], [ 8.6622209, 49.3995053 ], [ 8.6625228, 49.3993283 ], [ 8.6628498, 49.3991715 ], [ 8.6631987, 49.3990364 ], [ 8.6635663, 49.3989243 ], [ 8.6638894, 49.3988499 ], [ 8.6639933, 49.3987081 ], [ 8.6642034, 49.3984816 ], [ 8.6644466, 49.3982696 ], [ 8.6647204, 49.3980742 ] ], [ [ 8.6842388, 49.416075 ], [ 8.683965, 49.4162704 ], [ 8.6837084, 49.4164209 ], [ 8.6838931, 49.4164516 ], [ 8.6840519, 49.4163585 ], [ 8.6843789, 49.4162017 ], [ 8.6847279, 49.4160665 ], [ 8.6850956, 49.4159543 ], [ 8.6851081, 49.4159514 ], [ 8.68489, 49.4158449 ], [ 8.684638, 49.4156947 ], [ 8.684482, 49.4158629 ], [ 8.6842388, 49.416075 ] ], [ [ 8.668142, 49.4045801 ], [ 8.667793, 49.4047152 ], [ 8.6674254, 49.4048274 ], [ 8.6670427, 49.4049155 ], [ 8.6666487, 49.4049787 ], [ 8.666247, 49.4050164 ], [ 8.6658416, 49.4050282 ], [ 8.6654364, 49.4050141 ], [ 8.6653496, 49.4050054 ], [ 8.665308, 49.4051833 ], [ 8.6652383, 49.4053614 ], [ 8.6655117, 49.4053176 ], [ 8.6659134, 49.4052799 ], [ 8.6663188, 49.4052681 ], [ 8.666724, 49.4052822 ], [ 8.6671252, 49.4053222 ], [ 8.6675184, 49.4053877 ], [ 8.667544, 49.4053938 ], [ 8.667689, 49.4053088 ], [ 8.6680161, 49.4051519 ], [ 8.668365, 49.4050168 ], [ 8.6687326, 49.4049046 ], [ 8.6691153, 49.4048165 ], [ 8.6695094, 49.4047533 ], [ 8.6698883, 49.4047177 ], [ 8.6698017, 49.4046225 ], [ 8.6697112, 49.4044962 ], [ 8.6696651, 49.4044916 ], [ 8.6692719, 49.4044261 ], [ 8.6688904, 49.4043358 ], [ 8.6687128, 49.4042804 ], [ 8.668469, 49.4044233 ], [ 8.668142, 49.4045801 ] ] ], [ [ [ 8.7194135, 49.4183315 ], [ 8.719819, 49.4183194 ], [ 8.72, 49.4183257 ], [ 8.72, 49.422 ], [ 8.7159542, 49.422001 ], [ 8.7158407, 49.4217916 ], [ 8.7157435, 49.4215344 ], [ 8.7156855, 49.4212723 ], [ 8.7156671, 49.4210078 ], [ 8.7156885, 49.4207434 ], [ 8.7157496, 49.4204816 ], [ 8.7158497, 49.4202249 ], [ 8.7159879, 49.4199759 ], [ 8.7161629, 49.419737 ], [ 8.7163729, 49.4195103 ], [ 8.7166159, 49.4192982 ], [ 8.7168896, 49.4191027 ], [ 8.7171914, 49.4189256 ], [ 8.7175184, 49.4187686 ], [ 8.7178673, 49.4186333 ], [ 8.7182349, 49.418521 ], [ 8.7186176, 49.4184327 ], [ 8.7190117, 49.4183693 ], [ 8.7194135, 49.4183315 ] ] ] ] } },
{ "type": "Feature", "properties": { "index": "1", "label": "Beyond 300 m", "color": "#d9d9d9" }, "geometry": { "type": "MultiPolygon", "coordinates": [ [ [ [ 8.7112067, 49.3980019 ], [ 8.72, 49.398 ], [ 8.72, 49.40761 ], [ 8.7199588, 49.4076031 ], [ 8.7195576, 49.4075633 ], [ 8.7191523, 49.4075493 ], [ 8.7187469, 49.4075613 ], [ 8.7183452, 49.4075992 ], [ 8.7182602, 49.4076129 ], [ 8.7179359, 49.4075591 ], [ 8.7175347, 49.4075192 ], [ 8.7171294, 49.4075052 ], [ 8.7171248, 49.4075054 ], [ 8.7169357, 49.4074132 ], [ 8.7165884, 49.4072762 ], [ 8.7162222, 49.407162 ], [ 8.7158406, 49.4070719 ], [ 8.7154473, 49.4070066 ], [ 8.7150461, 49.4069667 ], [ 8.7149311, 49.4069628 ], [ 8.7147474, 49.4068903 ], [ 8.7143812, 49.4067762 ], [ 8.7139996, 49.406686 ], [ 8.7136063, 49.4066207 ], [ 8.7132051, 49.4065808 ], [ 8.713171, 49.4065797 ], [ 8.7132218, 49.4063621 ], [ 8.7132433, 49.4060976 ], [ 8.7132249, 49.4058331 ], [ 8.7131669, 49.405571 ], [ 8.7130698, 49.4053139 ], [ 8.7129345, 49.4050642 ], [ 8.7127624, 49.4048244 ], [ 8.7125551, 49.4045967 ], [ 8.7123146, 49.4043834 ], [ 8.7120432, 49.4041865 ], [ 8.7117817, 49.4040307 ], [ 8.7118671, 49.4038768 ], [ 8.7119672, 49.4036202 ], [ 8.7120282, 49.4033584 ], [ 8.7120497, 49.403094 ], [ 8.7120447, 49.4030215 ], [ 8.7121208, 49.4029982 ], [ 8.7124697, 49.4028629 ], [ 8.7127965, 49.402706 ], [ 8.7130982, 49.4025289 ], [ 8.7133719, 49.4023334 ], [ 8.7136148, 49.4021213 ], [ 8.7138248, 49.4018946 ], [ 8.7139997, 49.4016557 ], [ 8.7141378, 49.4014067 ], [ 8.7142379, 49.40115 ], [ 8.7142989, 49.4008882 ], [ 8.7143204, 49.4006238 ], [ 8.714302, 49.4003592 ], [ 8.714244, 49.4000971 ], [ 8.7141469, 49.39984 ], [ 8.7140116, 49.3995904 ], [ 8.7138396, 49.3993505 ], [ 8.7136323, 49.3991229 ], [ 8.7133918, 49.3989096 ], [ 8.7131205, 49.3987127 ], [ 8.7128208, 49.3985341 ], [ 8.7124959, 49.3983755 ], [ 8.7121486, 49.3982385 ], [ 8.7117825, 49.3981244 ], [ 8.711401, 49.3980342 ], [ 8.7112067, 49.3980019 ] ] ], [ [ [ 8.7198616, 49.4164935 ], [ 8.72, 49.4164398 ], [ 8.72, 49.4183257 ], [ 8.719819, 49.4183194 ], [ 8.7194135, 49.4183315 ], [ 8.7190117, 49.4183693 ], [ 8.7186176, 49.4184327 ], [ 8.7182349, 49.418521 ], [ 8.7178673, 49.4186333 ], [ 8.7175184, 49.4187686 ], [ 8.7171914, 49.4189256 ], [ 8.7168896, 49.4191027 ], [ 8.7166159, 49.4192982 ], [ 8.7163729, 49.4195103 ], [ 8.7161629, 49.419737 ], [ 8.7159879, 49.4199759 ], [ 8.7158497, 49.4202249 ], [ 8.7157496, 49.4204816 ], [ 8.7156885, 49.4207434 ], [ 8.7156671, 49.4210078 ], [ 8.7156855, 49.4212723 ], [ 8.7157435, 49.4215344 ], [ 8.7158407, 49.4217916 ], [ 8.7159542, 49.422001 ], [ 8.7080111, 49.4220025 ], [ 8.708161, 49.4219784 ], [ 8.7085438, 49.4218901 ], [ 8.7089114, 49.4217778 ], [ 8.7092604, 49.4216426 ], [ 8.7095874, 49.4214857 ], [ 8.7098892, 49.4213086 ], [ 8.710163, 49.421113 ], [ 8.710406, 49.4209009 ], [ 8.7106161, 49.4206743 ], [ 8.710791, 49.4204354 ], [ 8.7109293, 49.4201864 ], [ 8.7110294, 49.4199298 ], [ 8.7110905, 49.419668 ], [ 8.711112, 49.4194035 ], [ 8.7110936, 49.419139 ], [ 8.7110356, 49.4188769 ], [ 8.7109385, 49.4186197 ], [ 8.7108762, 49.4185048 ], [ 8.7110621, 49.4185488 ], [ 8.7114555, 49.4186141 ], [ 8.7118568, 49.418654 ], [ 8.7122621, 49.418668 ], [ 8.7126676, 49.418656 ], [ 8.7130694, 49.4186181 ], [ 8.7134635, 49.4185547 ], [ 8.7138462, 49.4184665 ], [ 8.7141807, 49.4183643 ], [ 8.7141943, 49.4183648 ], [ 8.7145998, 49.4183528 ], [ 8.7150016, 49.4183149 ], [ 8.7153957, 49.4182515 ], [ 8.7157784, 49.4181632 ], [ 8.716146, 49.4180509 ], [ 8.7164949, 49.4179156 ], [ 8.7168219, 49.4177587 ], [ 8.7171237, 49.4175816 ], [ 8.7173974, 49.417386 ], [ 8.7176404, 49.4171739 ], [ 8.7178504, 49.4169473 ], [ 8.7179538, 49.4168061 ], [ 8.7183155, 49.4167954 ], [ 8.7187173, 49.4167575 ], [ 8.7191114, 49.4166941 ], [ 8.719494, 49.4166058 ], [ 8.7198616, 49.4164935 ] ] ], [ [ [ 8.7057594, 49.4219723 ], [ 8.705943, 49.4220028 ], [ 8.6920184, 49.4220039 ], [ 8.6920202, 49.4220028 ], [ 8.6922941, 49.4218073 ], [ 8.6925372, 49.4215953 ], [ 8.6927474, 49.4213687 ], [ 8.6929224, 49.4211298 ], [ 8.6930607, 49.4208808 ], [ 8.693161, 49.4206242 ], [ 8.6932222, 49.4203624 ], [ 8.6932437, 49.4200979 ], [ 8.6932421, 49.4200742 ], [ 8.6933309, 49.4200316 ], [ 8.6936328, 49.4198546 ], [ 8.6939066, 49.4196591 ], [ 8.6941497, 49.419447 ], [ 8.6943598, 49.4192204 ], [ 8.6945349, 49.4189815 ], [ 8.6946732, 49.4187325 ], [ 8.6947734, 49.4184759 ], [ 8.6948346, 49.4182141 ], [ 8.6948561, 49.4179497 ], [ 8.6948379, 49.4176851 ], [ 8.6947799, 49.417423 ], [ 8.6946829, 49.4171659 ], [ 8.6945477, 49.4169162 ], [ 8.6943756, 49.4166764 ], [ 8.6942255, 49.4165115 ], [ 8.6942762, 49.4162947 ], [ 8.6942978, 49.4160302 ], [ 8.6942839, 49.4158291 ], [ 8.6943866, 49.4156889 ], [ 8.6945249, 49.4154399 ], [ 8.6946251, 49.4151833 ], [ 8.6946863, 49.4149215 ], [ 8.6947079, 49.4146571 ], [ 8.6946896, 49.4143925 ], [ 8.6946317, 49.4141304 ], [ 8.6946151, 49.4140866 ], [ 8.6947756, 49.4140715 ], [ 8.6951512, 49.4140112 ], [ 8.6950987, 49.414236 ], [ 8.6950771, 49.4145005 ], [ 8.6950954, 49.414765 ], [ 8.6951534, 49.4150271 ], [ 8.6952504, 49.4152843 ], [ 8.6953856, 49.415534 ], [ 8.6955576, 49.4157738 ], [ 8.6957649, 49.4160015 ], [ 8.6960054, 49.4162148 ], [ 8.6962768, 49.4164117 ], [ 8.6965764, 49.4165904 ], [ 8.6969015, 49.416749 ], [ 8.6972488, 49.416886 ], [ 8.6972777, 49.416895 ], [ 8.6973149, 49.416947 ], [ 8.6975222, 49.4171746 ], [ 8.6977627, 49.417388 ], [ 8.6980341, 49.4175849 ], [ 8.6983337, 49.4177635 ], [ 8.6986588, 49.4179221 ], [ 8.6990061, 49.4180592 ], [ 8.6993724, 49.4181733 ], [ 8.699754, 49.4182635 ], [ 8.7001474, 49.4183289 ], [ 8.7005487, 49.4183688 ], [ 8.700954, 49.4183829 ], [ 8.7013595, 49.4183709 ], [ 8.7017613, 49.4183331 ], [ 8.7021554, 49.4182698 ], [ 8.7025381, 49.4181815 ], [ 8.7029058, 49.4180692 ], [ 8.7032547, 49.417934 ], [ 8.7035817, 49.4177771 ], [ 8.7038836, 49.4176 ], [ 8.7041573, 49.4174045 ], [ 8.7044004, 49.4171924 ], [ 8.7046104, 49.4169658 ], [ 8.7047854, 49.4167269 ], [ 8.7049237, 49.4164779 ], [ 8.7050238, 49.4162213 ], [ 8.705085, 49.4159595 ], [ 8.7051065, 49.415695 ], [ 8.7050881, 49.4154305 ], [ 8.7050795, 49.4153914 ], [ 8.7053246, 49.4153842 ], [ 8.7057263, 49.4153464 ], [ 8.7059976, 49.4153028 ], [ 8.7060041, 49.4153969 ], [ 8.7060621, 49.415659 ], [ 8.7061592, 49.4159161 ], [ 8.7062945, 49.4161658 ], [ 8.7064666, 49.4164056 ], [ 8.7066739, 49.4166333 ], [ 8.7067511, 49.4167017 ], [ 8.7065862, 49.4167066 ], [ 8.7061844, 49.4167444 ], [ 8.7057903, 49.4168078 ], [ 8.7054076, 49.416896 ], [ 8.70504, 49.4170083 ], [ 8.704691, 49.4171436 ], [ 8.704364, 49.4173005 ], [ 8.7040622, 49.4174776 ], [ 8.7037884, 49.4176731 ], [ 8.7035454, 49.4178852 ], [ 8.7033353, 49.4181118 ], [ 8.7031603, 49.4183507 ], [ 8.7030221, 49.4185997 ], [ 8.7029219, 49.4188563 ], [ 8.7028607, 49.4191181 ], [ 8.7028392, 49.4193825 ], [ 8.7028576, 49.4196471 ], [ 8.7029155, 49.4199092 ], [ 8.7030126, 49.4201663 ], [ 8.7031479, 49.420416 ], [ 8.70332, 49.4206558 ], [ 8.7035273, 49.4208835 ], [ 8.7037678, 49.4210968 ], [ 8.7040393, 49.4212937 ], [ 8.704339, 49.4214724 ], [ 8.7046641, 49.4216309 ], [ 8.7050115, 49.421768 ], [ 8.7053778, 49.4218821 ], [ 8.7057594, 49.4219723 ] ] ], [ [ [ 8.6743154, 49.4219714 ], [ 8.6743175, 49.4220028 ], [ 8.674076, 49.4220028 ], [ 8.6741806, 49.421993 ], [ 8.6743154, 49.4219714 ] ] ], [ [ [ 8.672709, 49.4220026 ], [ 8.66, 49.422 ], [ 8.66, 49.4179306 ], [ 8.6601442, 49.4179356 ], [ 8.6605497, 49.4179238 ], [ 8.6609515, 49.4178862 ], [ 8.6613457, 49.417823 ], [ 8.6617284, 49.4177349 ], [ 8.6620962, 49.4176227 ], [ 8.6621874, 49.4175874 ], [ 8.6621914, 49.4176455 ], [ 8.6622492, 49.4179077 ], [ 8.662346, 49.4181648 ], [ 8.6624811, 49.4184146 ], [ 8.662653, 49.4186545 ], [ 8.6628601, 49.4188822 ], [ 8.6631005, 49.4190956 ], [ 8.6633717, 49.4192926 ], [ 8.6636713, 49.4194713 ], [ 8.6639962, 49.41963 ], [ 8.6643435, 49.4197672 ], [ 8.6647097, 49.4198815 ], [ 8.6650913, 49.4199718 ], [ 8.6654846, 49.4200373 ], [ 8.6658859, 49.4200773 ], [ 8.6662912, 49.4200914 ], [ 8.6665198, 49.4200848 ], [ 8.6667778, 49.4201653 ], [ 8.6671594, 49.4202556 ], [ 8.6675527, 49.4203211 ], [ 8.667954, 49.4203611 ], [ 8.6683593, 49.4203752 ], [ 8.6687648, 49.4203634 ], [ 8.6691666, 49.4203257 ], [ 8.6695112, 49.4202705 ], [ 8.6695628, 49.4203659 ], [ 8.6697347, 49.4206058 ], [ 8.6699419, 49.4208335 ], [ 8.6701823, 49.4210469 ], [ 8.6704536, 49.4212439 ], [ 8.6707532, 49.4214226 ], [ 8.6710782, 49.4215813 ], [ 8.6714254, 49.4217184 ], [ 8.6717917, 49.4218327 ], [ 8.6721733, 49.421923 ], [ 8.6725666, 49.4219884 ], [ 8.672709, 49.4220026 ] ] ], [ [ [ 8.66, 49.4020761 ], [ 8.66, 49.398 ], [ 8.6648161, 49.3980011 ], [ 8.6648146, 49.3980189 ], [ 8.6647204, 49.3980742 ], [ 8.6644466, 49.3982696 ], [ 8.6642034, 49.3984816 ], [ 8.6639933, 49.3987081 ], [ 8.6638894, 49.3988499 ], [ 8.6635663, 49.3989243 ], [ 8.6631987, 49.3990364 ], [ 8.6628498, 49.3991715 ], [ 8.6625228, 49.3993283 ], [ 8.6622209, 49.3995053 ], [ 8.6619471, 49.3997007 ], [ 8.6617039, 49.3999127 ], [ 8.6614937, 49.4001392 ], [ 8.6613186, 49.4003781 ], [ 8.6611802, 49.4006271 ], [ 8.6610798, 49.4008836 ], [ 8.6610185, 49.4011454 ], [ 8.6609968, 49.4014099 ], [ 8.6610148, 49.4016744 ], [ 8.6610726, 49.4019365 ], [ 8.6610785, 49.4019523 ], [ 8.6608691, 49.4019584 ], [ 8.6604674, 49.401996 ], [ 8.6600734, 49.4020592 ], [ 8.66, 49.4020761 ] ] ], [ [ [ 8.6750011, 49.3981366 ], [ 8.6749508, 49.3980029 ], [ 8.6818009, 49.3980036 ], [ 8.681748, 49.3982298 ], [ 8.6817264, 49.3984942 ], [ 8.6817446, 49.3987587 ], [ 8.6818024, 49.3990209 ], [ 8.6818994, 49.399278 ], [ 8.6819433, 49.3993592 ], [ 8.6816437, 49.3994753 ], [ 8.6813168, 49.3996322 ], [ 8.681015, 49.3998092 ], [ 8.6807412, 49.4000046 ], [ 8.6804981, 49.4002167 ], [ 8.680288, 49.4004432 ], [ 8.680113, 49.4006821 ], [ 8.6799747, 49.4009311 ], [ 8.6798744, 49.4011877 ], [ 8.6798484, 49.4012988 ], [ 8.6794908, 49.4012393 ], [ 8.6790897, 49.4011994 ], [ 8.6786845, 49.4011852 ], [ 8.6782791, 49.4011971 ], [ 8.6778775, 49.4012349 ], [ 8.6774835, 49.4012981 ], [ 8.6771008, 49.4013862 ], [ 8.6767333, 49.4014984 ], [ 8.6765453, 49.4015712 ], [ 8.6763934, 49.4014609 ], [ 8.6760939, 49.4012822 ], [ 8.6757691, 49.4011236 ], [ 8.6754219, 49.4009865 ], [ 8.6750559, 49.4008722 ], [ 8.6746744, 49.4007819 ], [ 8.6742812, 49.4007165 ], [ 8.6742351, 49.4007119 ], [ 8.6741446, 49.4005856 ], [ 8.6740203, 49.4004489 ], [ 8.6741273, 49.4003725 ], [ 8.6743704, 49.4001605 ], [ 8.6745805, 49.399934 ], [ 8.6747556, 49.3996951 ], [ 8.6748939, 49.3994461 ], [ 8.6749942, 49.3991895 ], [ 8.6750555, 49.3989277 ], [ 8.6750771, 49.3986633 ], [ 8.6750589, 49.3983987 ], [ 8.6750011, 49.3981366 ] ] ], [ [ [ 8.6955993, 49.3981722 ], [ 8.6955621, 49.3980038 ], [ 8.7091617, 49.3980023 ], [ 8.7090006, 49.3980282 ], [ 8.708618, 49.3981165 ], [ 8.7082506, 49.3982288 ], [ 8.7079017, 49.398364 ], [ 8.7075749, 49.398521 ], [ 8.7072732, 49.398698 ], [ 8.7069995, 49.3988936 ], [ 8.7067566, 49.3991056 ], [ 8.7065466, 49.3993323 ], [ 8.7063717, 49.3995712 ], [ 8.7062335, 49.3998202 ], [ 8.7061334, 49.4000768 ], [ 8.7060723, 49.4003386 ], [ 8.7060508, 49.4006031 ], [ 8.7060558, 49.4006756 ], [ 8.7059797, 49.4006988 ], [ 8.7056308, 49.4008341 ], [ 8.705304, 49.400991 ], [ 8.7050022, 49.4011681 ], [ 8.7047286, 49.4013636 ], [ 8.7044856, 49.4015757 ], [ 8.7042756, 49.4018023 ], [ 8.7041007, 49.4020412 ], [ 8.7039625, 49.4022902 ], [ 8.7038623, 49.4025468 ], [ 8.7038012, 49.4028086 ], [ 8.7037797, 49.4030731 ], [ 8.703798, 49.4033376 ], [ 8.703856, 49.4035997 ], [ 8.703953, 49.4038569 ], [ 8.7040883, 49.4041065 ], [ 8.7042603, 49.4043464 ], [ 8.7044676, 49.404574 ], [ 8.704708, 49.4047874 ], [ 8.7049794, 49.4049843 ], [ 8.7052409, 49.4051402 ], [ 8.7051555, 49.405294 ], [ 8.7050554, 49.4055506 ], [ 8.7049942, 49.4058124 ], [ 8.7049728, 49.4060768 ], [ 8.7049762, 49.4061271 ], [ 8.7046629, 49.4062486 ], [ 8.704336, 49.4064055 ], [ 8.7040343, 49.4065826 ], [ 8.7039805, 49.406621 ], [ 8.7039167, 49.4066584 ], [ 8.7037025, 49.4067078 ], [ 8.703634, 49.4067287 ], [ 8.7035043, 49.4066138 ], [ 8.703233, 49.4064168 ], [ 8.7029334, 49.4062382 ], [ 8.7026084, 49.4060796 ], [ 8.7022611, 49.4059426 ], [ 8.701895, 49.4058284 ], [ 8.7015134, 49.4057382 ], [ 8.7011201, 49.4056729 ], [ 8.700719, 49.405633 ], [ 8.7003137, 49.4056189 ], [ 8.6999083, 49.4056309 ], [ 8.6995067, 49.4056687 ], [ 8.6991126, 49.405732 ], [ 8.6990583, 49.4057446 ], [ 8.698848, 49.4057096 ], [ 8.6984924, 49.4056742 ], [ 8.698338, 49.4056261 ], [ 8.6982796, 49.4056123 ], [ 8.6981545, 49.4053813 ], [ 8.6979825, 49.4051414 ], [ 8.6977753, 49.4049138 ], [ 8.6975348, 49.4047004 ], [ 8.6972635, 49.4045035 ], [ 8.6969639, 49.4043249 ], [ 8.696639, 49.4041663 ], [ 8.6962917, 49.4040292 ], [ 8.6959256, 49.403915 ], [ 8.6955441, 49.4038248 ], [ 8.6951508, 49.4037594 ], [ 8.6947497, 49.4037195 ], [ 8.6943445, 49.4037054 ], [ 8.6941576, 49.4037109 ], [ 8.6942196, 49.4035523 ], [ 8.6942807, 49.4032905 ], [ 8.6943023, 49.4030261 ], [ 8.694284, 49.4027616 ], [ 8.6942261, 49.4024995 ], [ 8.6941291, 49.4022423 ], [ 8.694041, 49.4020795 ], [ 8.6941876, 49.4019935 ], [ 8.6944613, 49.401798 ], [ 8.6947043, 49.4015859 ], [ 8.6949143, 49.4013593 ], [ 8.6950893, 49.4011204 ], [ 8.6952276, 49.4008714 ], [ 8.6953277, 49.4006148 ], [ 8.6953889, 49.400353 ], [ 8.6954104, 49.4000886 ], [ 8.6953922, 49.399824 ], [ 8.6953342, 49.3995619 ], [ 8.695298, 49.3994658 ], [ 8.6954347, 49.3992196 ], [ 8.6955349, 49.398963 ], [ 8.6955961, 49.3987012 ], [ 8.6956176, 49.3984368 ], [ 8.6955993, 49.3981722 ] ] ], [ [ [ 8.6838931, 49.4164516 ], [ 8.6837084, 49.4164209 ], [ 8.683965, 49.4162704 ], [ 8.6842388, 49.416075 ], [ 8.684482, 49.4158629 ], [ 8.684638, 49.4156947 ], [ 8.68489, 49.4158449 ], [ 8.6851081, 49.4159514 ], [ 8.6850956, 49.4159543 ], [ 8.6847279, 49.4160665 ], [ 8.6843789, 49.4162017 ], [ 8.6840519, 49.4163585 ], [ 8.6838931, 49.4164516 ] ] ], [ [ [ 8.6670427, 49.4049155 ], [ 8.6674254, 49.4048274 ], [ 8.667793, 49.4047152 ], [ 8.668142, 49.4045801 ], [ 8.668469, 49.4044233 ], [ 8.6687128, 49.4042804 ], [ 8.6688904, 49.4043358 ], [ 8.6692719, 49.4044261 ], [ 8.6696651, 49.4044916 ], [ 8.6697112, 49.4044962 ], [ 8.6698017, 49.4046225 ], [ 8.6698883, 49.4047177 ], [ 8.6695094, 49.4047533 ], [ 8.6691153, 49.4048165 ], [ 8.6687326, 49.4049046 ], [ 8.668365, 49.4050168 ], [ 8.6680161, 49.4051519 ], [ 8.667689, 49.4053088 ], [ 8.667544, 49.4053938 ], [ 8.6675184, 49.4053877 ], [ 8.6671252, 49.4053222 ], [ 8.666724, 49.4052822 ], [ 8.6663188, 49.4052681 ], [ 8.6659134, 49.4052799 ], [ 8.6655117, 49.4053176 ], [ 8.6652383, 49.4053614 ], [ 8.665308, 49.4051833 ], [ 8.6653496, 49.4050054 ], [ 8.6654364, 49.4050141 ], [ 8.6658416, 49.4050282 ], [ 8.666247, 49.4050164 ], [ 8.6666487, 49.4049787 ], [ 8.6670427, 49.4049155 ] ] ] ] } }
]
}
