{
"type": "FeatureCollection",
"features": [
{ "type": "Feature", "properties": { "index": "0", "label": "Within 255 m by wheelchair", "color": "#2b8cbe" }, "geometry": { "type": "MultiPolygon", "coordinates": [ [ [ [ 8.6654381, 49.3981995 ], [ 8.6654299, 49.3980801 ], [ 8.6654364, 49.3980013 ], [ 8.6743128, 49.3980028 ], [ 8.6743924, 49.3982139 ], [ 8.6744415, 49.3984367 ], [ 8.6744569, 49.3986615 ], [ 8.6744385, 49.3988863 ], [ 8.6743864, 49.3991088 ], [ 8.6743012, 49.3993269 ], [ 8.6741836, 49.3995386 ], [ 8.6740348, 49.3997416 ], [ 8.6738562, 49.3999342 ], [ 8.6736495, 49.4001144 ], [ 8.6734168, 49.4002805 ], [ 8.6732148, 49.400399 ], [ 8.673216, 49.4003999 ], [ 8.6734203, 49.4005813 ], [ 8.6735963, 49.4007749 ], [ 8.6737424, 49.4009788 ], [ 8.6737963, 49.4010784 ], [ 8.6738166, 49.4010791 ], [ 8.6741576, 49.4011131 ], [ 8.6744918, 49.4011688 ], [ 8.674816, 49.4012455 ], [ 8.6751272, 49.4013426 ], [ 8.6754223, 49.4014592 ], [ 8.6756984, 49.401594 ], [ 8.675953, 49.4017459 ], [ 8.6761835, 49.4019133 ], [ 8.6763878, 49.4020947 ], [ 8.6764148, 49.4021244 ], [ 8.6764488, 49.4021044 ], [ 8.6767267, 49.4019711 ], [ 8.6770233, 49.4018562 ], [ 8.6773357, 49.4017609 ], [ 8.677661, 49.4016859 ], [ 8.6779959, 49.4016322 ], [ 8.6783373, 49.4016001 ], [ 8.6786819, 49.40159 ], [ 8.6790263, 49.401602 ], [ 8.6793673, 49.401636 ], [ 8.6797015, 49.4016916 ], [ 8.6800257, 49.4017683 ], [ 8.6803369, 49.4018654 ], [ 8.6804244, 49.4019 ], [ 8.6804118, 49.4017156 ], [ 8.6804301, 49.4014909 ], [ 8.6804822, 49.4012683 ], [ 8.6805674, 49.4010502 ], [ 8.680685, 49.4008386 ], [ 8.6808338, 49.4006355 ], [ 8.6810123, 49.400443 ], [ 8.681219, 49.4002627 ], [ 8.6814517, 49.4000966 ], [ 8.6817082, 49.3999461 ], [ 8.6819861, 49.3998128 ], [ 8.6822827, 49.3996979 ], [ 8.6825951, 49.3996025 ], [ 8.6827469, 49.3995675 ], [ 8.6826084, 49.3993744 ], [ 8.6824936, 49.3991621 ], [ 8.6824112, 49.3989436 ], [ 8.6823621, 49.3987208 ], [ 8.6823466, 49.3984959 ], [ 8.682365, 49.3982711 ], [ 8.682417, 49.3980486 ], [ 8.6824346, 49.3980036 ], [ 8.6949363, 49.3980038 ], [ 8.6949819, 49.3982103 ], [ 8.6949974, 49.3984351 ], [ 8.6949791, 49.3986599 ], [ 8.6949271, 49.3988824 ], [ 8.694842, 49.3991005 ], [ 8.6947245, 49.3993122 ], [ 8.6946437, 49.3994225 ], [ 8.6947255, 49.3996393 ], [ 8.6947747, 49.3998621 ], [ 8.6947902, 49.4000869 ], [ 8.6947719, 49.4003117 ], [ 8.6947199, 49.4005342 ], [ 8.6946348, 49.4007524 ], [ 8.6945173, 49.400964 ], [ 8.6943685, 49.4011671 ], [ 8.69419, 49.4013597 ], [ 8.6939834, 49.4015399 ], [ 8.6937508, 49.4017061 ], [ 8.6934943, 49.4018566 ], [ 8.6932846, 49.4019572 ], [ 8.69342, 49.402146 ], [ 8.6935348, 49.4023582 ], [ 8.6936173, 49.4025768 ], [ 8.6936665, 49.4027996 ], [ 8.693682, 49.4030245 ], [ 8.6936637, 49.4032492 ], [ 8.6936117, 49.4034718 ], [ 8.6935266, 49.4036899 ], [ 8.6934416, 49.4038429 ], [ 8.6935095, 49.4040228 ], [ 8.6935422, 49.4041707 ], [ 8.693656, 49.4041525 ], [ 8.6939974, 49.4041203 ], [ 8.6943419, 49.4041102 ], [ 8.6946864, 49.4041222 ], [ 8.6950274, 49.4041561 ], [ 8.6953616, 49.4042117 ], [ 8.6956859, 49.4042884 ], [ 8.6959971, 49.4043854 ], [ 8.6962923, 49.4045019 ], [ 8.6965685, 49.4046367 ], [ 8.6968232, 49.4047886 ], [ 8.6970538, 49.404956 ], [ 8.6972581, 49.4051373 ], [ 8.6974343, 49.4053308 ], [ 8.6975805, 49.4055347 ], [ 8.6976954, 49.4057469 ], [ 8.6977556, 49.4059065 ], [ 8.6977626, 49.4059106 ], [ 8.6977818, 49.4059246 ], [ 8.6980984, 49.4059994 ], [ 8.6983258, 49.4060704 ], [ 8.6983835, 49.4060724 ], [ 8.6987245, 49.4061063 ], [ 8.6990588, 49.4061618 ], [ 8.6990831, 49.4061676 ], [ 8.6992903, 49.4061198 ], [ 8.6996253, 49.406066 ], [ 8.6999667, 49.4060339 ], [ 8.7003113, 49.4060237 ], [ 8.7006557, 49.4060356 ], [ 8.7009967, 49.4060696 ], [ 8.701331, 49.4061251 ], [ 8.7016553, 49.4062018 ], [ 8.7019666, 49.4062988 ], [ 8.7022617, 49.4064153 ], [ 8.702538, 49.4065501 ], [ 8.7027927, 49.4067019 ], [ 8.7030233, 49.4068693 ], [ 8.7032277, 49.4070506 ], [ 8.7034039, 49.4072442 ], [ 8.7034148, 49.4072594 ], [ 8.7036252, 49.4071778 ], [ 8.7039376, 49.4070824 ], [ 8.7042629, 49.4070074 ], [ 8.7042653, 49.407007 ], [ 8.7043394, 49.4069541 ], [ 8.7044174, 49.4069083 ], [ 8.7044712, 49.4068699 ], [ 8.7047277, 49.4067194 ], [ 8.7050055, 49.406586 ], [ 8.7053021, 49.406471 ], [ 8.7056145, 49.4063756 ], [ 8.7056241, 49.4063734 ], [ 8.7056086, 49.4063033 ], [ 8.705593, 49.4060784 ], [ 8.7056113, 49.4058536 ], [ 8.7056633, 49.4056311 ], [ 8.7057484, 49.405413 ], [ 8.7058658, 49.4052013 ], [ 8.7060073, 49.4050081 ], [ 8.7059506, 49.4049858 ], [ 8.7056744, 49.404851 ], [ 8.7054197, 49.4046992 ], [ 8.7051891, 49.4045318 ], [ 8.7049847, 49.4043505 ], [ 8.7048085, 49.404157 ], [ 8.7046622, 49.4039531 ], [ 8.7045473, 49.4037409 ], [ 8.7044648, 49.4035223 ], [ 8.7044155, 49.4032995 ], [ 8.7044, 49.4030747 ], [ 8.7044182, 49.4028499 ], [ 8.7044702, 49.4026274 ], [ 8.7045553, 49.4024092 ], [ 8.7046728, 49.4021976 ], [ 8.7048215, 49.4019945 ], [ 8.7049999, 49.4018019 ], [ 8.7052065, 49.4016216 ], [ 8.7054391, 49.4014554 ], [ 8.7056956, 49.4013049 ], [ 8.7059734, 49.4011715 ], [ 8.7062699, 49.4010565 ], [ 8.7065823, 49.4009611 ], [ 8.7067092, 49.4009318 ], [ 8.7066866, 49.4008295 ], [ 8.706671, 49.4006046 ], [ 8.7066893, 49.4003799 ], [ 8.7067412, 49.4001573 ], [ 8.7068263, 49.3999392 ], [ 8.7069438, 49.3997276 ], [ 8.7070925, 49.3995245 ], [ 8.7072709, 49.3993318 ], [ 8.7074774, 49.3991516 ], [ 8.70771, 49.3989854 ], [ 8.7079665, 49.3988348 ], [ 8.7082443, 49.3987015 ], [ 8.7085408, 49.3985865 ], [ 8.7088532, 49.398491 ], [ 8.7091783, 49.398416 ], [ 8.7095132, 49.3983622 ], [ 8.7098546, 49.39833 ], [ 8.7101991, 49.3983198 ], [ 8.7105435, 49.3983317 ], [ 8.7108845, 49.3983656 ], [ 8.7112187, 49.3984211 ], [ 8.711543, 49.3984978 ], [ 8.7118542, 49.3985948 ], [ 8.7121493, 49.3987112 ], [ 8.7124256, 49.398846 ], [ 8.7126802, 49.3989978 ], [ 8.7129109, 49.3991652 ], [ 8.7131153, 49.3993465 ], [ 8.7132915, 49.39954 ], [ 8.7134378, 49.3997438 ], [ 8.7135527, 49.3999561 ], [ 8.7136352, 49.4001746 ], [ 8.7136846, 49.4003974 ], [ 8.7137002, 49.4006223 ], [ 8.7136819, 49.400847 ], [ 8.71363, 49.4010696 ], [ 8.713545, 49.4012877 ], [ 8.7134275, 49.4014994 ], [ 8.7132789, 49.4017025 ], [ 8.7131004, 49.4018951 ], [ 8.7128939, 49.4020754 ], [ 8.7126613, 49.4022416 ], [ 8.7124049, 49.4023921 ], [ 8.712127, 49.4025255 ], [ 8.7118305, 49.4026405 ], [ 8.7115182, 49.402736 ], [ 8.7113912, 49.4027652 ], [ 8.7114138, 49.4028676 ], [ 8.7114294, 49.4030924 ], [ 8.7114112, 49.4033172 ], [ 8.7113593, 49.4035397 ], [ 8.7112742, 49.4037579 ], [ 8.7111568, 49.4039695 ], [ 8.7110153, 49.4041627 ], [ 8.711072, 49.4041851 ], [ 8.7113483, 49.4043198 ], [ 8.711603, 49.4044716 ], [ 8.7118336, 49.404639 ], [ 8.712038, 49.4048203 ], [ 8.7122142, 49.4050138 ], [ 8.7123605, 49.4052177 ], [ 8.7124755, 49.4054299 ], [ 8.712558, 49.4056484 ], [ 8.7126074, 49.4058712 ], [ 8.712623, 49.4060961 ], [ 8.7126047, 49.4063209 ], [ 8.7125528, 49.4065434 ], [ 8.7124677, 49.4067615 ], [ 8.7123503, 49.4069732 ], [ 8.7123359, 49.4069928 ], [ 8.7124529, 49.4069818 ], [ 8.7127975, 49.4069716 ], [ 8.7131419, 49.4069835 ], [ 8.713483, 49.4070174 ], [ 8.7138173, 49.4070729 ], [ 8.7141416, 49.4071495 ], [ 8.7144529, 49.4072465 ], [ 8.7147433, 49.4073611 ], [ 8.714983, 49.4073694 ], [ 8.715324, 49.4074033 ], [ 8.7156583, 49.4074588 ], [ 8.7159826, 49.4075354 ], [ 8.7162939, 49.4076324 ], [ 8.7165891, 49.4077489 ], [ 8.7168654, 49.4078836 ], [ 8.71692, 49.4079161 ], [ 8.7171271, 49.40791 ], [ 8.7174716, 49.4079219 ], [ 8.7178126, 49.4079558 ], [ 8.7181469, 49.4080113 ], [ 8.7182382, 49.4080328 ], [ 8.718464, 49.4079965 ], [ 8.7188054, 49.4079643 ], [ 8.71915, 49.4079541 ], [ 8.7194945, 49.407966 ], [ 8.7198355, 49.4079998 ], [ 8.72, 49.4080272 ], [ 8.72, 49.4159573 ], [ 8.7198678, 49.4160208 ], [ 8.7195712, 49.4161358 ], [ 8.7192588, 49.4162313 ], [ 8.7189335, 49.4163063 ], [ 8.7185985, 49.4163602 ], [ 8.718257, 49.4163924 ], [ 8.7179124, 49.4164026 ], [ 8.7175678, 49.4163907 ], [ 8.7175438, 49.4163883 ], [ 8.717453, 49.416552 ], [ 8.7173043, 49.4167552 ], [ 8.7171258, 49.4169478 ], [ 8.7169193, 49.4171281 ], [ 8.7166866, 49.4172943 ], [ 8.7164301, 49.4174448 ], [ 8.7161522, 49.4175782 ], [ 8.7158556, 49.4176932 ], [ 8.7155431, 49.4177887 ], [ 8.7152178, 49.4178637 ], [ 8.7148828, 49.4179176 ], [ 8.7145414, 49.4179498 ], [ 8.7141967, 49.41796 ], [ 8.7140322, 49.4179543 ], [ 8.7139234, 49.4179965 ], [ 8.713611, 49.4180919 ], [ 8.7132857, 49.418167 ], [ 8.7129507, 49.4182208 ], [ 8.7126092, 49.418253 ], [ 8.7122645, 49.4182632 ], [ 8.7119199, 49.4182513 ], [ 8.7115788, 49.4182174 ], [ 8.7112445, 49.4181619 ], [ 8.7109201, 49.4180852 ], [ 8.7106087, 49.4179882 ], [ 8.7103135, 49.4178718 ], [ 8.7100371, 49.417737 ], [ 8.7097824, 49.4175852 ], [ 8.7095517, 49.4174178 ], [ 8.7095335, 49.4174017 ], [ 8.7094227, 49.4173907 ], [ 8.7090883, 49.4173352 ], [ 8.7087639, 49.4172585 ], [ 8.7084526, 49.4171615 ], [ 8.7081573, 49.417045 ], [ 8.707881, 49.4169102 ], [ 8.7076263, 49.4167584 ], [ 8.7073955, 49.4165911 ], [ 8.7071911, 49.4164097 ], [ 8.7070149, 49.4162162 ], [ 8.7068686, 49.4160124 ], [ 8.7067536, 49.4158001 ], [ 8.7066711, 49.4155816 ], [ 8.7066218, 49.4153588 ], [ 8.7066062, 49.4151339 ], [ 8.7066245, 49.4149092 ], [ 8.7066762, 49.4146876 ], [ 8.7065804, 49.4147248 ], [ 8.706268, 49.4148202 ], [ 8.7059427, 49.4148952 ], [ 8.7056077, 49.4149491 ], [ 8.7052662, 49.4149812 ], [ 8.7049216, 49.4149914 ], [ 8.704577, 49.4149795 ], [ 8.704492, 49.414971 ], [ 8.7043431, 49.4150053 ], [ 8.7043281, 49.4150077 ], [ 8.7043387, 49.4150272 ], [ 8.7044212, 49.4152458 ], [ 8.7044705, 49.4154686 ], [ 8.704486, 49.4156934 ], [ 8.7044678, 49.4159182 ], [ 8.7044158, 49.4161407 ], [ 8.7043307, 49.4163589 ], [ 8.7042132, 49.4165705 ], [ 8.7040644, 49.4167736 ], [ 8.7038859, 49.4169662 ], [ 8.7036793, 49.4171465 ], [ 8.7034466, 49.4173127 ], [ 8.70319, 49.4174632 ], [ 8.7029121, 49.4175966 ], [ 8.7026154, 49.4177115 ], [ 8.702303, 49.417807 ], [ 8.7019776, 49.417882 ], [ 8.7016426, 49.4179358 ], [ 8.7013011, 49.4179679 ], [ 8.7009565, 49.4179781 ], [ 8.7006119, 49.4179661 ], [ 8.7002708, 49.4179322 ], [ 8.6999365, 49.4178767 ], [ 8.6996121, 49.4178 ], [ 8.6993008, 49.417703 ], [ 8.6990055, 49.4175865 ], [ 8.6987292, 49.4174517 ], [ 8.6984745, 49.4172998 ], [ 8.6982438, 49.4171324 ], [ 8.6980394, 49.4169511 ], [ 8.6978632, 49.4167576 ], [ 8.6977449, 49.4165926 ], [ 8.6975434, 49.4165298 ], [ 8.6972482, 49.4164133 ], [ 8.6969719, 49.4162785 ], [ 8.6967172, 49.4161267 ], [ 8.6964866, 49.4159593 ], [ 8.6962822, 49.415778 ], [ 8.696106, 49.4155844 ], [ 8.6959597, 49.4153806 ], [ 8.6958448, 49.4151683 ], [ 8.6957623, 49.4149498 ], [ 8.6957131, 49.414727 ], [ 8.6956975, 49.4145021 ], [ 8.6957159, 49.4142773 ], [ 8.6957679, 49.4140548 ], [ 8.695853, 49.4138367 ], [ 8.6959706, 49.4136251 ], [ 8.6960573, 49.4135066 ], [ 8.6959162, 49.4133814 ], [ 8.6958877, 49.4133501 ], [ 8.6956298, 49.41345 ], [ 8.6953173, 49.4135454 ], [ 8.694992, 49.4136204 ], [ 8.6946571, 49.4136742 ], [ 8.6943156, 49.4137064 ], [ 8.6939709, 49.4137165 ], [ 8.6937771, 49.4137098 ], [ 8.6938253, 49.413777 ], [ 8.6939402, 49.4139892 ], [ 8.6940227, 49.4142078 ], [ 8.6940719, 49.4144306 ], [ 8.6940875, 49.4146555 ], [ 8.6940691, 49.4148802 ], [ 8.6940171, 49.4151028 ], [ 8.693932, 49.4153209 ], [ 8.6938144, 49.4155325 ], [ 8.6936656, 49.4157356 ], [ 8.6936504, 49.415752 ], [ 8.6936618, 49.4158037 ], [ 8.6936774, 49.4160286 ], [ 8.693659, 49.4162533 ], [ 8.693607, 49.4164759 ], [ 8.6935614, 49.4165926 ], [ 8.6936511, 49.4166722 ], [ 8.6938273, 49.4168657 ], [ 8.6939735, 49.4170696 ], [ 8.6940885, 49.4172818 ], [ 8.6941709, 49.4175004 ], [ 8.6942202, 49.4177232 ], [ 8.6942357, 49.417948 ], [ 8.6942174, 49.4181728 ], [ 8.6941654, 49.4183953 ], [ 8.6940802, 49.4186135 ], [ 8.6939626, 49.4188251 ], [ 8.6938138, 49.4190282 ], [ 8.6936353, 49.4192208 ], [ 8.6934286, 49.419401 ], [ 8.6931958, 49.4195672 ], [ 8.6929392, 49.4197177 ], [ 8.6926613, 49.419851 ], [ 8.6926078, 49.4198718 ], [ 8.6926233, 49.4200963 ], [ 8.6926049, 49.4203211 ], [ 8.6925529, 49.4205436 ], [ 8.6924677, 49.4207617 ], [ 8.6923501, 49.4209733 ], [ 8.6922013, 49.4211764 ], [ 8.6920227, 49.421369 ], [ 8.6918161, 49.4215493 ], [ 8.6915833, 49.4217154 ], [ 8.6913267, 49.4218659 ], [ 8.6910487, 49.4219993 ], [ 8.6910367, 49.4220039 ], [ 8.6834777, 49.4220037 ], [ 8.6831817, 49.4219337 ], [ 8.6828704, 49.4218366 ], [ 8.6825751, 49.4217201 ], [ 8.6822989, 49.4215852 ], [ 8.6820442, 49.4214334 ], [ 8.6818179, 49.4212691 ], [ 8.6818992, 49.4214847 ], [ 8.6819484, 49.4217075 ], [ 8.6819639, 49.4219323 ], [ 8.6819581, 49.4220036 ], [ 8.6749379, 49.4220029 ], [ 8.6749317, 49.4219128 ], [ 8.6749501, 49.421688 ], [ 8.6750022, 49.4214655 ], [ 8.6750396, 49.4213699 ], [ 8.6750352, 49.4213716 ], [ 8.6747227, 49.421467 ], [ 8.6743973, 49.4215419 ], [ 8.6740622, 49.4215956 ], [ 8.6737207, 49.4216277 ], [ 8.673376, 49.4216378 ], [ 8.6730314, 49.4216258 ], [ 8.6726903, 49.4215918 ], [ 8.672356, 49.4215361 ], [ 8.6720316, 49.4214594 ], [ 8.6717203, 49.4213622 ], [ 8.6714251, 49.4212457 ], [ 8.6711489, 49.4211108 ], [ 8.6708942, 49.4209589 ], [ 8.6706636, 49.4207915 ], [ 8.6704593, 49.4206101 ], [ 8.6702832, 49.4204165 ], [ 8.6701371, 49.4202126 ], [ 8.6700222, 49.4200004 ], [ 8.6699399, 49.4197818 ], [ 8.669929, 49.4197325 ], [ 8.6697087, 49.4197997 ], [ 8.6693833, 49.4198746 ], [ 8.6690483, 49.4199284 ], [ 8.6687067, 49.4199604 ], [ 8.668362, 49.4199705 ], [ 8.6680175, 49.4199584 ], [ 8.6676764, 49.4199244 ], [ 8.6673421, 49.4198688 ], [ 8.6670177, 49.419792 ], [ 8.6667065, 49.4196949 ], [ 8.6666561, 49.419675 ], [ 8.6666386, 49.4196766 ], [ 8.6662939, 49.4196867 ], [ 8.6659494, 49.4196746 ], [ 8.6656083, 49.4196406 ], [ 8.665274, 49.419585 ], [ 8.6649497, 49.4195082 ], [ 8.6646384, 49.419411 ], [ 8.6643432, 49.4192945 ], [ 8.664067, 49.4191596 ], [ 8.6638124, 49.4190077 ], [ 8.6635818, 49.4188402 ], [ 8.6633775, 49.4186588 ], [ 8.6632015, 49.4184652 ], [ 8.6630554, 49.4182613 ], [ 8.6629406, 49.4180491 ], [ 8.6628582, 49.4178305 ], [ 8.6628091, 49.4176077 ], [ 8.6627937, 49.4173828 ], [ 8.6628122, 49.417158 ], [ 8.6628509, 49.4169931 ], [ 8.6625097, 49.4170251 ], [ 8.662354, 49.4170297 ], [ 8.6621029, 49.41715 ], [ 8.6618061, 49.4172649 ], [ 8.6614936, 49.4173602 ], [ 8.6611682, 49.4174351 ], [ 8.6608332, 49.4174888 ], [ 8.6604916, 49.4175208 ], [ 8.660147, 49.4175309 ], [ 8.66, 49.4175257 ], [ 8.66, 49.4025048 ], [ 8.6602507, 49.4024471 ], [ 8.6605857, 49.4023934 ], [ 8.6609271, 49.4023614 ], [ 8.6612717, 49.4023513 ], [ 8.6616161, 49.4023634 ], [ 8.6619551, 49.4023972 ], [ 8.6618785, 49.4022902 ], [ 8.6617638, 49.4020779 ], [ 8.6616814, 49.4018593 ], [ 8.6616324, 49.4016365 ], [ 8.661617, 49.4014117 ], [ 8.6616355, 49.4011869 ], [ 8.6616876, 49.4009644 ], [ 8.6617729, 49.4007463 ], [ 8.6618905, 49.4005347 ], [ 8.6620394, 49.4003316 ], [ 8.662218, 49.4001391 ], [ 8.6624247, 49.3999589 ], [ 8.6626575, 49.3997928 ], [ 8.6629141, 49.3996424 ], [ 8.663192, 49.3995091 ], [ 8.6634886, 49.3993942 ], [ 8.6638011, 49.3992989 ], [ 8.6641263, 49.399224 ], [ 8.6643424, 49.3991894 ], [ 8.6643901, 49.3991036 ], [ 8.6645389, 49.3989005 ], [ 8.6647176, 49.398708 ], [ 8.6649242, 49.3985278 ], [ 8.665157, 49.3983617 ], [ 8.6654136, 49.3982112 ], [ 8.6654381, 49.3981995 ] ], [ [ 8.6833647, 49.4167948 ], [ 8.6835716, 49.4168154 ], [ 8.6839059, 49.416871 ], [ 8.6840664, 49.4169089 ], [ 8.6841868, 49.416823 ], [ 8.6844434, 49.4166725 ], [ 8.6847214, 49.4165392 ], [ 8.6850181, 49.4164243 ], [ 8.6853306, 49.4163289 ], [ 8.6856559, 49.4162539 ], [ 8.6859909, 49.4162001 ], [ 8.6863324, 49.416168 ], [ 8.6866563, 49.4161585 ], [ 8.686646, 49.4160097 ], [ 8.6866481, 49.4159841 ], [ 8.6864926, 49.4159583 ], [ 8.6861683, 49.4158815 ], [ 8.685857, 49.4157845 ], [ 8.6855618, 49.4156679 ], [ 8.6852856, 49.4155331 ], [ 8.6850309, 49.4153812 ], [ 8.6848003, 49.4152138 ], [ 8.6845959, 49.4150325 ], [ 8.6844668, 49.4148906 ], [ 8.6844126, 49.4150294 ], [ 8.684295, 49.415241 ], [ 8.6841462, 49.415444 ], [ 8.6839676, 49.4156366 ], [ 8.6837609, 49.4158169 ], [ 8.6835281, 49.415983 ], [ 8.6832715, 49.4161335 ], [ 8.6829935, 49.4162668 ], [ 8.6826969, 49.4163817 ], [ 8.6825146, 49.4164374 ], [ 8.6824871, 49.4164748 ], [ 8.6823088, 49.4166671 ], [ 8.6825659, 49.416676 ], [ 8.682907, 49.41671 ], [ 8.6832413, 49.4167656 ], [ 8.6833647, 49.4167948 ] ], [ [ 8.6842047, 49.4129771 ], [ 8.68387, 49.4129869 ], [ 8.683984, 49.413088 ], [ 8.684113, 49.4132299 ], [ 8.6841672, 49.4130911 ], [ 8.684232, 49.4129745 ], [ 8.6842047, 49.4129771 ] ], [ [ 8.6715955, 49.4162535 ], [ 8.6713596, 49.4162299 ], [ 8.6712314, 49.4163417 ], [ 8.6713093, 49.4164108 ], [ 8.6714316, 49.4165454 ], [ 8.6716022, 49.4163967 ], [ 8.6717933, 49.4162604 ], [ 8.6715955, 49.4162535 ] ], [ [ 8.6729685, 49.4056296 ], [ 8.6727564, 49.4056085 ], [ 8.6724221, 49.4055528 ], [ 8.6723226, 49.4055293 ], [ 8.6725401, 49.4056355 ], [ 8.6727483, 49.4057597 ], [ 8.6727559, 49.4057543 ], [ 8.6729685, 49.4056296 ] ], [ [ 8.6641697, 49.4059278 ], [ 8.663963, 49.406108 ], [ 8.6637302, 49.4062741 ], [ 8.6634736, 49.4064246 ], [ 8.6631956, 49.4065578 ], [ 8.6628989, 49.4066727 ], [ 8.6625865, 49.406768 ], [ 8.6622996, 49.4068341 ], [ 8.6624471, 49.4068801 ], [ 8.6627422, 49.4069967 ], [ 8.6630183, 49.4071316 ], [ 8.663027, 49.4071368 ], [ 8.663059, 49.4070793 ], [ 8.6632079, 49.4068763 ], [ 8.6633865, 49.4066837 ], [ 8.6635932, 49.4065035 ], [ 8.663826, 49.4063374 ], [ 8.6640827, 49.406187 ], [ 8.6643606, 49.4060537 ], [ 8.6646573, 49.4059389 ], [ 8.6649698, 49.4058435 ], [ 8.665295, 49.4057686 ], [ 8.66563, 49.4057149 ], [ 8.6659714, 49.4056829 ], [ 8.666316, 49.4056728 ], [ 8.6666605, 49.4056849 ], [ 8.6670015, 49.4057189 ], [ 8.6673357, 49.4057745 ], [ 8.66766, 49.4058513 ], [ 8.6676978, 49.4058631 ], [ 8.6678238, 49.4057732 ], [ 8.6680804, 49.4056228 ], [ 8.6683584, 49.4054895 ], [ 8.668655, 49.4053746 ], [ 8.6689675, 49.4052793 ], [ 8.6692928, 49.4052044 ], [ 8.6696277, 49.4051506 ], [ 8.6699692, 49.4051186 ], [ 8.6703138, 49.4051085 ], [ 8.6706582, 49.4051205 ], [ 8.6709992, 49.4051545 ], [ 8.6713334, 49.4052102 ], [ 8.6714329, 49.4052337 ], [ 8.6712154, 49.4051275 ], [ 8.6709609, 49.4049756 ], [ 8.6707303, 49.4048082 ], [ 8.6705261, 49.4046268 ], [ 8.67035, 49.4044332 ], [ 8.6702039, 49.4042293 ], [ 8.67015, 49.4041297 ], [ 8.6701297, 49.404129 ], [ 8.6697887, 49.404095 ], [ 8.6694545, 49.4040393 ], [ 8.6691303, 49.4039625 ], [ 8.6688191, 49.4038654 ], [ 8.6685882, 49.4037742 ], [ 8.668567, 49.4037927 ], [ 8.6683342, 49.4039588 ], [ 8.6680776, 49.4041093 ], [ 8.6677997, 49.4042426 ], [ 8.6675031, 49.4043574 ], [ 8.6671906, 49.4044528 ], [ 8.6668653, 49.4045277 ], [ 8.6665303, 49.4045814 ], [ 8.6661889, 49.4046134 ], [ 8.6658443, 49.4046235 ], [ 8.6654999, 49.4046114 ], [ 8.6651589, 49.4045774 ], [ 8.6648247, 49.4045218 ], [ 8.6647606, 49.4045066 ], [ 8.6647707, 49.4046552 ], [ 8.6647523, 49.40488 ], [ 8.6647002, 49.4051025 ], [ 8.6646149, 49.4053206 ], [ 8.6644972, 49.4055322 ], [ 8.6643483, 49.4057353 ], [ 8.6641697, 49.4059278 ] ], [ [ 8.6788378, 49.4196142 ], [ 8.6787554, 49.4193956 ], [ 8.6787395, 49.4193237 ], [ 8.6786465, 49.4194047 ], [ 8.6784137, 49.4195708 ], [ 8.6783068, 49.4196335 ], [ 8.6784628, 49.4196289 ], [ 8.6788073, 49.4196409 ], [ 8.6788548, 49.4196457 ], [ 8.6788378, 49.4196142 ] ] ], [ [ [ 8.7089402, 49.4174909 ], [ 8.7092165, 49.4176257 ], [ 8.7094713, 49.4177775 ], [ 8.709702, 49.4179449 ], [ 8.7099065, 49.4181262 ], [ 8.7100827, 49.4183197 ], [ 8.710229, 49.4185235 ], [ 8.710344, 49.4187358 ], [ 8.7104266, 49.4189543 ], [ 8.7104759, 49.4191771 ], [ 8.7104915, 49.419402 ], [ 8.7104733, 49.4196267 ], [ 8.7104213, 49.4198493 ], [ 8.7103362, 49.4200674 ], [ 8.7102187, 49.420279 ], [ 8.71007, 49.4204822 ], [ 8.7098915, 49.4206748 ], [ 8.7096849, 49.4208551 ], [ 8.7094522, 49.4210213 ], [ 8.7091956, 49.4211718 ], [ 8.7089177, 49.4213052 ], [ 8.708621, 49.4214201 ], [ 8.7083085, 49.4215156 ], [ 8.7079832, 49.4215906 ], [ 8.7076482, 49.4216444 ], [ 8.7073066, 49.4216766 ], [ 8.7069619, 49.4216868 ], [ 8.7066174, 49.4216749 ], [ 8.7062763, 49.421641 ], [ 8.7059419, 49.4215854 ], [ 8.7056174, 49.4215088 ], [ 8.7053061, 49.4214117 ], [ 8.7050108, 49.4212953 ], [ 8.7047345, 49.4211605 ], [ 8.7044797, 49.4210087 ], [ 8.704249, 49.4208413 ], [ 8.7040446, 49.42066 ], [ 8.7038683, 49.4204664 ], [ 8.703722, 49.4202626 ], [ 8.7036071, 49.4200503 ], [ 8.7035245, 49.4198318 ], [ 8.7034753, 49.419609 ], [ 8.7034597, 49.4193841 ], [ 8.703478, 49.4191594 ], [ 8.7035299, 49.4189368 ], [ 8.7036151, 49.4187187 ], [ 8.7037326, 49.4185071 ], [ 8.7038813, 49.418304 ], [ 8.7040599, 49.4181114 ], [ 8.7042665, 49.4179311 ], [ 8.7044992, 49.4177649 ], [ 8.7047558, 49.4176144 ], [ 8.7050337, 49.417481 ], [ 8.7053303, 49.417366 ], [ 8.7056428, 49.4172706 ], [ 8.7059681, 49.4171956 ], [ 8.7063031, 49.4171417 ], [ 8.7066446, 49.4171096 ], [ 8.7069893, 49.4170994 ], [ 8.7073338, 49.4171113 ], [ 8.7076749, 49.4171452 ], [ 8.7080092, 49.4172008 ], [ 8.7083336, 49.4172774 ], [ 8.708645, 49.4173744 ], [ 8.7089402, 49.4174909 ] ] ], [ [ [ 8.719472, 49.4187344 ], [ 8.7198167, 49.4187242 ], [ 8.72, 49.4187305 ], [ 8.72, 49.422 ], [ 8.7166313, 49.4220008 ], [ 8.7165502, 49.4218877 ], [ 8.7164351, 49.4216755 ], [ 8.7163525, 49.421457 ], [ 8.7163032, 49.4212342 ], [ 8.7162876, 49.4210093 ], [ 8.7163058, 49.4207845 ], [ 8.7163577, 49.420562 ], [ 8.7164428, 49.4203439 ], [ 8.7165603, 49.4201322 ], [ 8.716709, 49.4199291 ], [ 8.7168875, 49.4197365 ], [ 8.717094, 49.4195562 ], [ 8.7173267, 49.41939 ], [ 8.7175832, 49.4192394 ], [ 8.7178611, 49.419106 ], [ 8.7181577, 49.418991 ], [ 8.7184702, 49.4188955 ], [ 8.7187955, 49.4188205 ], [ 8.7191305, 49.4187666 ], [ 8.719472, 49.4187344 ] ] ] ] } },
{ "type": "Feature", "properties": { "index": "1", "label": "Beyond 255 m", "color": "#d9d9d9" }, "geometry": { "type": "MultiPolygon", "coordinates": [ [ [ [ 8.6949363, 49.3980038 ], [ 8.72, 49.398 ], [ 8.72, 49.4080272 ], [ 8.7198355, 49.4079998 ], [ 8.7194945, 49.407966 ], [ 8.71915, 49.4079541 ], [ 8.7188054, 49.4079643 ], [ 8.718464, 49.4079965 ], [ 8.7182382, 49.4080328 ], [ 8.7181469, 49.4080113 ], [ 8.7178126, 49.4079558 ], [ 8.7174716, 49.4079219 ], [ 8.7171271, 49.40791 ], [ 8.71692, 49.4079161 ], [ 8.7168654, 49.4078836 ], [ 8.7165891, 49.4077489 ], [ 8.7162939, 49.4076324 ], [ 8.7159826, 49.4075354 ], [ 8.7156583, 49.4074588 ], [ 8.715324, 49.4074033 ], [ 8.714983, 49.4073694 ], [ 8.7147433, 49.4073611 ], [ 8.7144529, 49.4072465 ], [ 8.7141416, 49.4071495 ], [ 8.7138173, 49.4070729 ], [ 8.713483, 49.4070174 ], [ 8.7131419, 49.4069835 ], [ 8.7127975, 49.4069716 ], [ 8.7124529, 49.4069818 ], [ 8.7123359, 49.4069928 ], [ 8.7123503, 49.4069732 ], [ 8.7124677, 49.4067615 ], [ 8.7125528, 49.4065434 ], [ 8.7126047, 49.4063209 ], [ 8.712623, 49.4060961 ], [ 8.7126074, 49.4058712 ], [ 8.712558, 49.4056484 ], [ 8.7124755, 49.4054299 ], [ 8.7123605, 49.4052177 ], [ 8.7122142, 49.4050138 ], [ 8.712038, 49.4048203 ], [ 8.7118336, 49.404639 ], [ 8.711603, 49.4044716 ], [ 8.7113483, 49.4043198 ], [ 8.711072, 49.4041851 ], [ 8.7110153, 49.4041627 ], [ 8.7111568, 49.4039695 ], [ 8.7112742, 49.4037579 ], [ 8.7113593, 49.4035397 ], [ 8.7114112, 49.4033172 ], [ 8.7114294, 49.4030924 ], [ 8.7114138, 49.4028676 ], [ 8.7113912, 49.4027652 ], [ 8.7115182, 49.402736 ], [ 8.7118305, 49.4026405 ], [ 8.712127, 49.4025255 ], [ 8.7124049, 49.4023921 ], [ 8.7126613, 49.4022416 ], [ 8.7128939, 49.4020754 ], [ 8.7131004, 49.4018951 ], [ 8.7132789, 49.4017025 ], [ 8.7134275, 49.4014994 ], [ 8.713545, 49.4012877 ], [ 8.71363, 49.4010696 ], [ 8.7136819, 49.400847 ], [ 8.7137002, 49.4006223 ], [ 8.7136846, 49.4003974 ], [ 8.7136352, 49.4001746 ], [ 8.7135527, 49.3999561 ], [ 8.7134378, 49.3997438 ], [ 8.7132915, 49.39954 ], [ 8.7131153, 49.3993465 ], [ 8.7129109, 49.3991652 ], [ 8.7126802, 49.3989978 ], [ 8.7124256, 49.398846 ], [ 8.7121493, 49.3987112 ], [ 8.7118542, 49.3985948 ], [ 8.711543, 49.3984978 ], [ 8.7112187, 49.3984211 ], [ 8.7108845, 49.3983656 ], [ 8.7105435, 49.3983317 ], [ 8.7101991, 49.3983198 ], [ 8.7098546, 49.39833 ], [ 8.7095132, 49.3983622 ], [ 8.7091783, 49.398416 ], [ 8.7088532, 49.398491 ], [ 8.7085408, 49.3985865 ], [ 8.7082443, 49.3987015 ], [ 8.7079665, 49.3988348 ], [ 8.70771, 49.3989854 ], [ 8.7074774, 49.3991516 ], [ 8.7072709, 49.3993318 ], [ 8.7070925, 49.3995245 ], [ 8.7069438, 49.3997276 ], [ 8.7068263, 49.3999392 ], [ 8.7067412, 49.4001573 ], [ 8.7066893, 49.4003799 ], [ 8.706671, 49.4006046 ], [ 8.7066866, 49.4008295 ], [ 8.7067092, 49.4009318 ], [ 8.7065823, 49.4009611 ], [ 8.7062699, 49.4010565 ], [ 8.7059734, 49.4011715 ], [ 8.7056956, 49.4013049 ], [ 8.7054391, 49.4014554 ], [ 8.7052065, 49.4016216 ], [ 8.7049999, 49.4018019 ], [ 8.7048215, 49.4019945 ], [ 8.7046728, 49.4021976 ], [ 8.7045553, 49.4024092 ], [ 8.7044702, 49.4026274 ], [ 8.7044182, 49.4028499 ], [ 8.7044, 49.4030747 ], [ 8.7044155, 49.4032995 ], [ 8.7044648, 49.4035223 ], [ 8.7045473, 49.4037409 ], [ 8.7046622, 49.4039531 ], [ 8.7048085, 49.404157 ], [ 8.7049847, 49.4043505 ], [ 8.7051891, 49.4045318 ], [ 8.7054197, 49.4046992 ], [ 8.7056744, 49.404851 ], [ 8.7059506, 49.4049858 ], [ 8.7060073, 49.4050081 ], [ 8.7058658, 49.4052013 ], [ 8.7057484, 49.405413 ], [ 8.7056633, 49.4056311 ], [ 8.7056113, 49.4058536 ], [ 8.705593, 49.4060784 ], [ 8.7056086, 49.4063033 ], [ 8.7056241, 49.4063734 ], [ 8.7056145, 49.4063756 ], [ 8.7053021, 49.406471 ], [ 8.7050055, 49.406586 ], [ 8.7047277, 49.4067194 ], [ 8.7044712, 49.4068699 ], [ 8.7044174, 49.4069083 ], [ 8.7043394, 49.4069541 ], [ 8.7042653, 49.407007 ], [ 8.7042629, 49.4070074 ], [ 8.7039376, 49.4070824 ], [ 8.7036252, 49.4071778 ], [ 8.7034148, 49.4072594 ], [ 8.7034039, 49.4072442 ], [ 8.7032277, 49.4070506 ], [ 8.7030233, 49.4068693 ], [ 8.7027927, 49.4067019 ], [ 8.702538, 49.4065501 ], [ 8.7022617, 49.4064153 ], [ 8.7019666, 49.4062988 ], [ 8.7016553, 49.4062018 ], [ 8.701331, 49.4061251 ], [ 8.7009967, 49.4060696 ], [ 8.7006557, 49.4060356 ], [ 8.7003113, 49.4060237 ], [ 8.6999667, 49.4060339 ], [ 8.6996253, 49.406066 ], [ 8.6992903, 49.4061198 ], [ 8.6990831, 49.4061676 ], [ 8.6990588, 49.4061618 ], [ 8.6987245, 49.4061063 ], [ 8.6983835, 49.4060724 ], [ 8.6983258, 49.4060704 ], [ 8.6980984, 49.4059994 ], [ 8.6977818, 49.4059246 ], [ 8.6977626, 49.4059106 ], [ 8.6977556, 49.4059065 ], [ 8.6976954, 49.4057469 ], [ 8.6975805, 49.4055347 ], [ 8.6974343, 49.4053308 ], [ 8.6972581, 49.4051373 ], [ 8.6970538, 49.404956 ], [ 8.6968232, 49.4047886 ], [ 8.6965685, 49.4046367 ], [ 8.6962923, 49.4045019 ], [ 8.6959971, 49.4043854 ], [ 8.6956859, 49.4042884 ], [ 8.6953616, 49.4042117 ], [ 8.6950274, 49.4041561 ], [ 8.6946864, 49.4041222 ], [ 8.6943419, 49.4041102 ], [ 8.6939974, 49.4041203 ], [ 8.693656, 49.4041525 ], [ 8.6935422, 49.4041707 ], [ 8.6935095, 49.4040228 ], [ 8.6934416, 49.4038429 ], [ 8.6935266, 49.4036899 ], [ 8.6936117, 49.4034718 ], [ 8.6936637, 49.4032492 ], [ 8.693682, 49.4030245 ], [ 8.6936665, 49.4027996 ], [ 8.6936173, 49.4025768 ], [ 8.6935348, 49.4023582 ], [ 8.69342, 49.402146 ], [ 8.6932846, 49.4019572 ], [ 8.6934943, 49.4018566 ], [ 8.6937508, 49.4017061 ], [ 8.6939834, 49.4015399 ], [ 8.69419, 49.4013597 ], [ 8.6943685, 49.4011671 ], [ 8.6945173, 49.400964 ], [ 8.6946348, 49.4007524 ], [ 8.6947199, 49.4005342 ], [ 8.6947719, 49.4003117 ], [ 8.6947902, 49.4000869 ], [ 8.6947747, 49.3998621 ], [ 8.6947255, 49.3996393 ], [ 8.6946437, 49.3994225 ], [ 8.6947245, 49.3993122 ], [ 8.694842, 49.3991005 ], [ 8.6949271, 49.3988824 ], [ 8.6949791, 49.3986599 ], [ 8.6949974, 49.3984351 ], [ 8.6949819, 49.3982103 ], [ 8.6949363, 49.3980038 ] ] ], [ [ [ 8.7198678, 49.4160208 ], [ 8.72, 49.4159573 ], [ 8.72, 49.4187305 ], [ 8.7198167, 49.4187242 ], [ 8.719472, 49.4187344 ], [ 8.7191305, 49.4187666 ], [ 8.7187955, 49.4188205 ], [ 8.7184702, 49.4188955 ], [ 8.7181577, 49.418991 ], [ 8.7178611, 49.419106 ], [ 8.7175832, 49.4192394 ], [ 8.7173267, 49.41939 ], [ 8.717094, 49.4195562 ], [ 8.7168875, 49.4197365 ], [ 8.716709, 49.4199291 ], [ 8.7165603, 49.4201322 ], [ 8.7164428, 49.4203439 ], [ 8.7163577, 49.420562 ], [ 8.7163058, 49.4207845 ], [ 8.7162876, 49.4210093 ], [ 8.7163032, 49.4212342 ], [ 8.7163525, 49.421457 ], [ 8.7164351, 49.4216755 ], [ 8.7165502, 49.4218877 ], [ 8.7166313, 49.4220008 ], [ 8.6910367, 49.4220039 ], [ 8.6910487, 49.4219993 ], [ 8.6913267, 49.4218659 ], [ 8.6915833, 49.4217154 ], [ 8.6918161, 49.4215493 ], [ 8.6920227, 49.421369 ], [ 8.6922013, 49.4211764 ], [ 8.6923501, 49.4209733 ], [ 8.6924677, 49.4207617 ], [ 8.6925529, 49.4205436 ], [ 8.6926049, 49.4203211 ], [ 8.6926233, 49.4200963 ], [ 8.6926078, 49.4198718 ], [ 8.6926613, 49.419851 ], [ 8.6929392, 49.4197177 ], [ 8.6931958, 49.4195672 ], [ 8.6934286, 49.419401 ], [ 8.6936353, 49.4192208 ], [ 8.6938138, 49.4190282 ], [ 8.6939626, 49.4188251 ], [ 8.6940802, 49.4186135 ], [ 8.6941654, 49.4183953 ], [ 8.6942174, 49.4181728 ], [ 8.6942357, 49.417948 ], [ 8.6942202, 49.4177232 ], [ 8.6941709, 49.4175004 ], [ 8.6940885, 49.4172818 ], [ 8.6939735, 49.4170696 ], [ 8.6938273, 49.4168657 ], [ 8.6936511, 49.4166722 ], [ 8.6935614, 49.4165926 ], [ 8.693607, 49.4164759 ], [ 8.693659, 49.4162533 ], [ 8.6936774, 49.4160286 ], [ 8.6936618, 49.4158037 ], [ 8.6936504, 49.415752 ], [ 8.6936656, 49.4157356 ], [ 8.6938144, 49.4155325 ], [ 8.693932, 49.4153209 ], [ 8.6940171, 49.4151028 ], [ 8.6940691, 49.4148802 ], [ 8.6940875, 49.4146555 ], [ 8.6940719, 49.4144306 ], [ 8.6940227, 49.4142078 ], [ 8.6939402, 49.4139892 ], [ 8.6938253, 49.413777 ], [ 8.6937771, 49.4137098 ], [ 8.6939709, 49.4137165 ], [ 8.6943156, 49.4137064 ], [ 8.6946571, 49.4136742 ], [ 8.694992, 49.4136204 ], [ 8.6953173, 49.4135454 ], [ 8.6956298, 49.41345 ], [ 8.6958877, 49.4133501 ], [ 8.6959162, 49.4133814 ], [ 8.6960573, 49.4135066 ], [ 8.6959706, 49.4136251 ], [ 8.695853, 49.4138367 ], [ 8.6957679, 49.4140548 ], [ 8.6957159, 49.4142773 ], [ 8.6956975, 49.4145021 ], [ 8.6957131, 49.414727 ], [ 8.6957623, 49.4149498 ], [ 8.6958448, 49.4151683 ], [ 8.6959597, 49.4153806 ], [ 8.696106, 49.4155844 ], [ 8.6962822, 49.415778 ], [ 8.6964866, 49.4159593 ], [ 8.6967172, 49.4161267 ], [ 8.6969719, 49.4162785 ], [ 8.6972482, 49.4164133 ], [ 8.6975434, 49.4165298 ], [ 8.6977449, 49.4165926 ], [ 8.6978632, 49.4167576 ], [ 8.6980394, 49.4169511 ], [ 8.6982438, 49.4171324 ], [ 8.6984745, 49.4172998 ], [ 8.6987292, 49.4174517 ], [ 8.6990055, 49.4175865 ], [ 8.6993008, 49.417703 ], [ 8.6996121, 49.4178 ], [ 8.6999365, 49.4178767 ], [ 8.7002708, 49.4179322 ], [ 8.7006119, 49.4179661 ], [ 8.7009565, 49.4179781 ], [ 8.7013011, 49.4179679 ], [ 8.7016426, 49.4179358 ], [ 8.7019776, 49.417882 ], [ 8.702303, 49.417807 ], [ 8.7026154, 49.4177115 ], [ 8.7029121, 49.4175966 ], [ 8.70319, 49.4174632 ], [ 8.7034466, 49.4173127 ], [ 8.7036793, 49.4171465 ], [ 8.7038859, 49.4169662 ], [ 8.7040644, 49.4167736 ], [ 8.7042132, 49.4165705 ], [ 8.7043307, 49.4163589 ], [ 8.7044158, 49.4161407 ], [ 8.7044678, 49.4159182 ], [ 8.704486, 49.4156934 ], [ 8.7044705, 49.4154686 ], [ 8.7044212, 49.4152458 ], [ 8.7043387, 49.4150272 ], [ 8.7043281, 49.4150077 ], [ 8.7043431, 49.4150053 ], [ 8.704492, 49.414971 ], [ 8.704577, 49.4149795 ], [ 8.7049216, 49.4149914 ], [ 8.7052662, 49.4149812 ], [ 8.7056077, 49.4149491 ], [ 8.7059427, 49.4148952 ], [ 8.706268, 49.4148202 ], [ 8.7065804, 49.4147248 ], [ 8.7066762, 49.4146876 ], [ 8.7066245, 49.4149092 ], [ 8.7066062, 49.4151339 ], [ 8.7066218, 49.4153588 ], [ 8.7066711, 49.4155816 ], [ 8.7067536, 49.4158001 ], [ 8.7068686, 49.4160124 ], [ 8.7070149, 49.4162162 ], [ 8.7071911, 49.4164097 ], [ 8.7073955, 49.4165911 ], [ 8.7076263, 49.4167584 ], [ 8.707881, 49.4169102 ], [ 8.7081573, 49.417045 ], [ 8.7084526, 49.4171615 ], [ 8.7087639, 49.4172585 ], [ 8.7090883, 49.4173352 ], [ 8.7094227, 49.4173907 ], [ 8.7095335, 49.4174017 ], [ 8.7095517, 49.4174178 ], [ 8.7097824, 49.4175852 ], [ 8.7100371, 49.417737 ], [ 8.7103135, 49.4178718 ], [ 8.7106087, 49.4179882 ], [ 8.7109201, 49.4180852 ], [ 8.7112445, 49.4181619 ], [ 8.7115788, 49.4182174 ], [ 8.7119199, 49.4182513 ], [ 8.7122645, 49.4182632 ], [ 8.7126092, 49.418253 ], [ 8.7129507, 49.4182208 ], [ 8.7132857, 49.418167 ], [ 8.713611, 49.4180919 ], [ 8.7139234, 49.4179965 ], [ 8.7140322, 49.4179543 ], [ 8.7141967, 49.41796 ], [ 8.7145414, 49.4179498 ], [ 8.7148828, 49.4179176 ], [ 8.7152178, 49.4178637 ], [ 8.7155431, 49.4177887 ], [ 8.7158556, 49.4176932 ], [ 8.7161522, 49.4175782 ], [ 8.7164301, 49.4174448 ], [ 8.7166866, 49.4172943 ], [ 8.7169193, 49.4171281 ], [ 8.7171258, 49.4169478 ], [ 8.7173043, 49.4167552 ], [ 8.717453, 49.416552 ], [ 8.7175438, 49.4163883 ], [ 8.7175678, 49.4163907 ], [ 8.7179124, 49.4164026 ], [ 8.718257, 49.4163924 ], [ 8.7185985, 49.4163602 ], [ 8.7189335, 49.4163063 ], [ 8.7192588, 49.4162313 ], [ 8.7195712, 49.4161358 ], [ 8.7198678, 49.4160208 ] ], [ [ 8.709702, 49.4179449 ], [ 8.7094713, 49.4177775 ], [ 8.7092165, 49.4176257 ], [ 8.7089402, 49.4174909 ], [ 8.708645, 49.4173744 ], [ 8.7083336, 49.4172774 ], [ 8.7080092, 49.4172008 ], [ 8.7076749, 49.4171452 ], [ 8.7073338, 49.4171113 ], [ 8.7069893, 49.4170994 ], [ 8.7066446, 49.4171096 ], [ 8.7063031, 49.4171417 ], [ 8.7059681, 49.4171956 ], [ 8.7056428, 49.4172706 ], [ 8.7053303, 49.417366 ], [ 8.7050337, 49.417481 ], [ 8.7047558, 49.4176144 ], [ 8.7044992, 49.4177649 ], [ 8.7042665, 49.4179311 ], [ 8.7040599, 49.4181114 ], [ 8.7038813, 49.418304 ], [ 8.7037326, 49.4185071 ], [ 8.7036151, 49.4187187 ], [ 8.7035299, 49.4189368 ], [ 8.703478, 49.4191594 ], [ 8.7034597, 49.4193841 ], [ 8.7034753, 49.419609 ], [ 8.7035245, 49.4198318 ], [ 8.7036071, 49.4200503 ], [ 8.703722, 49.4202626 ], [ 8.7038683, 49.4204664 ], [ 8.7040446, 49.42066 ], [ 8.704249, 49.4208413 ], [ 8.7044797, 49.4210087 ], [ 8.7047345, 49.4211605 ], [ 8.7050108, 49.4212953 ], [ 8.7053061, 49.4214117 ], [ 8.7056174, 49.4215088 ], [ 8.7059419, 49.4215854 ], [ 8.7062763, 49.421641 ], [ 8.7066174, 49.4216749 ], [ 8.7069619, 49.4216868 ], [ 8.7073066, 49.4216766 ], [ 8.7076482, 49.4216444 ], [ 8.7079832, 49.4215906 ], [ 8.7083085, 49.4215156 ], [ 8.708621, 49.4214201 ], [ 8.7089177, 49.4213052 ], [ 8.7091956, 49.4211718 ], [ 8.7094522, 49.4210213 ], [ 8.7096849, 49.4208551 ], [ 8.7098915, 49.4206748 ], [ 8.71007, 49.4204822 ], [ 8.7102187, 49.420279 ], [ 8.7103362, 49.4200674 ], [ 8.7104213, 49.4198493 ], [ 8.7104733, 49.4196267 ], [ 8.7104915, 49.419402 ], [ 8.7104759, 49.4191771 ], [ 8.7104266, 49.4189543 ], [ 8.710344, 49.4187358 ], [ 8.710229, 49.4185235 ], [ 8.7100827, 49.4183197 ], [ 8.7099065, 49.4181262 ], [ 8.709702, 49.4179449 ] ] ], [ [ [ 8.6831817, 49.4219337 ], [ 8.6834777, 49.4220037 ], [ 8.6819581, 49.4220036 ], [ 8.6819639, 49.4219323 ], [ 8.6819484, 49.4217075 ], [ 8.6818992, 49.4214847 ], [ 8.6818179, 49.4212691 ], [ 8.6820442, 49.4214334 ], [ 8.6822989, 49.4215852 ], [ 8.6825751, 49.4217201 ], [ 8.6828704, 49.4218366 ], [ 8.6831817, 49.4219337 ] ] ], [ [ [ 8.6749379, 49.4220029 ], [ 8.66, 49.422 ], [ 8.66, 49.4175257 ], [ 8.660147, 49.4175309 ], [ 8.6604916, 49.4175208 ], [ 8.6608332, 49.4174888 ], [ 8.6611682, 49.4174351 ], [ 8.6614936, 49.4173602 ], [ 8.6618061, 49.4172649 ], [ 8.6621029, 49.41715 ], [ 8.662354, 49.4170297 ], [ 8.6625097, 49.4170251 ], [ 8.6628509, 49.4169931 ], [ 8.6628122, 49.417158 ], [ 8.6627937, 49.4173828 ], [ 8.6628091, 49.4176077 ], [ 8.6628582, 49.4178305 ], [ 8.6629406, 49.4180491 ], [ 8.6630554, 49.4182613 ], [ 8.6632015, 49.4184652 ], [ 8.6633775, 49.4186588 ], [ 8.6635818, 49.4188402 ], [ 8.6638124, 49.4190077 ], [ 8.664067, 49.4191596 ], [ 8.6643432, 49.4192945 ], [ 8.6646384, 49.419411 ], [ 8.6649497, 49.4195082 ], [ 8.665274, 49.419585 ], [ 8.6656083, 49.4196406 ], [ 8.6659494, 49.4196746 ], [ 8.6662939, 49.4196867 ], [ 8.6666386, 49.4196766 ], [ 8.6666561, 49.419675 ], [ 8.6667065, 49.4196949 ], [ 8.6670177, 49.419792 ], [ 8.6673421, 49.4198688 ], [ 8.6676764, 49.4199244 ], [ 8.6680175, 49.4199584 ], [ 8.668362, 49.4199705 ], [ 8.6687067, 49.4199604 ], [ 8.6690483, 49.4199284 ], [ 8.6693833, 49.4198746 ], [ 8.6697087, 49.4197997 ], [ 8.669929, 49.4197325 ], [ 8.6699399, 49.4197818 ], [ 8.6700222, 49.4200004 ], [ 8.6701371, 49.4202126 ], [ 8.6702832, 49.4204165 ], [ 8.6704593, 49.4206101 ], [ 8.6706636, 49.4207915 ], [ 8.6708942, 49.4209589 ], [ 8.6711489, 49.4211108 ], [ 8.6714251, 49.4212457 ], [ 8.6717203, 49.4213622 ], [ 8.6720316, 49.4214594 ], [ 8.672356, 49.4215361 ], [ 8.6726903, 49.4215918 ], [ 8.6730314, 49.4216258 ], [ 8.673376, 49.4216378 ], [ 8.6737207, 49.4216277 ], [ 8.6740622, 49.4215956 ], [ 8.6743973, 49.4215419 ], [ 8.6747227, 49.421467 ], [ 8.6750352, 49.4213716 ], [ 8.6750396, 49.4213699 ], [ 8.6750022, 49.4214655 ], [ 8.6749501, 49.421688 ], [ 8.6749317, 49.4219128 ], [ 8.6749379, 49.4220029 ] ] ], [ [ [ 8.66, 49.4025048 ], [ 8.66, 49.398 ], [ 8.6654364, 49.3980013 ], [ 8.6654299, 49.3980801 ], [ 8.6654381, 49.3981995 ], [ 8.6654136, 49.3982112 ], [ 8.665157, 49.3983617 ], [ 8.6649242, 49.3985278 ], [ 8.6647176, 49.398708 ], [ 8.6645389, 49.3989005 ], [ 8.6643901, 49.3991036 ], [ 8.6643424, 49.3991894 ], [ 8.6641263, 49.399224 ], [ 8.6638011, 49.3992989 ], [ 8.6634886, 49.3993942 ], [ 8.663192, 49.3995091 ], [ 8.6629141, 49.3996424 ], [ 8.6626575, 49.3997928 ], [ 8.6624247, 49.3999589 ], [ 8.662218, 49.4001391 ], [ 8.6620394, 49.4003316 ], [ 8.6618905, 49.4005347 ], [ 8.6617729, 49.4007463 ], [ 8.6616876, 49.4009644 ], [ 8.6616355, 49.4011869 ], [ 8.661617, 49.4014117 ], [ 8.6616324, 49.4016365 ], [ 8.6616814, 49.4018593 ], [ 8.6617638, 49.4020779 ], [ 8.6618785, 49.4022902 ], [ 8.6619551, 49.4023972 ], [ 8.6616161, 49.4023634 ], [ 8.6612717, 49.4023513 ], [ 8.6609271, 49.4023614 ], [ 8.6605857, 49.4023934 ], [ 8.6602507, 49.4024471 ], [ 8.66, 49.4025048 ] ] ], [ [ [ 8.6743924, 49.3982139 ], [ 8.6743128, 49.3980028 ], [ 8.6824346, 49.3980036 ], [ 8.682417, 49.3980486 ], [ 8.682365, 49.3982711 ], [ 8.6823466, 49.3984959 ], [ 8.6823621, 49.3987208 ], [ 8.6824112, 49.3989436 ], [ 8.6824936, 49.3991621 ], [ 8.6826084, 49.3993744 ], [ 8.6827469, 49.3995675 ], [ 8.6825951, 49.3996025 ], [ 8.6822827, 49.3996979 ], [ 8.6819861, 49.3998128 ], [ 8.6817082, 49.3999461 ], [ 8.6814517, 49.4000966 ], [ 8.681219, 49.4002627 ], [ 8.6810123, 49.400443 ], [ 8.6808338, 49.4006355 ], [ 8.680685, 49.4008386 ], [ 8.6805674, 49.4010502 ], [ 8.6804822, 49.4012683 ], [ 8.6804301, 49.4014909 ], [ 8.6804118, 49.4017156 ], [ 8.6804244, 49.4019 ], [ 8.6803369, 49.4018654 ], [ 8.6800257, 49.4017683 ], [ 8.6797015, 49.4016916 ], [ 8.6793673, 49.401636 ], [ 8.6790263, 49.401602 ], [ 8.6786819, 49.40159 ], [ 8.6783373, 49.4016001 ], [ 8.6779959, 49.4016322 ], [ 8.677661, 49.4016859 ], [ 8.6773357, 49.4017609 ], [ 8.6770233, 49.4018562 ], [ 8.6767267, 49.4019711 ], [ 8.6764488, 49.4021044 ], [ 8.6764148, 49.4021244 ], [ 8.6763878, 49.4020947 ], [ 8.6761835, 49.4019133 ], [ 8.675953, 49.4017459 ], [ 8.6756984, 49.401594 ], [ 8.6754223, 49.4014592 ], [ 8.6751272, 49.4013426 ], [ 8.674816, 49.4012455 ], [ 8.6744918, 49.4011688 ], [ 8.6741576, 49.4011131 ], [ 8.6738166, 49.4010791 ], [ 8.6737963, 49.4010784 ], [ 8.6737424, 49.4009788 ], [ 8.6735963, 49.4007749 ], [ 8.6734203, 49.4005813 ], [ 8.673216, 49.4003999 ], [ 8.6732148, 49.400399 ], [ 8.6734168, 49.4002805 ], [ 8.6736495, 49.4001144 ], [ 8.6738562, 49.3999342 ], [ 8.6740348, 49.3997416 ], [ 8.6741836, 49.3995386 ], [ 8.6743012, 49.3993269 ], [ 8.6743864, 49.3991088 ], [ 8.6744385, 49.3988863 ], [ 8.6744569, 49.3986615 ], [ 8.6744415, 49.3984367 ], [ 8.6743924, 49.3982139 ] ] ], [ [ [ 8.6840664, 49.4169089 ], [ 8.6839059, 49.416871 ], [ 8.6835716, 49.4168154 ], [ 8.6833647, 49.4167948 ], [ 8.6832413, 49.4167656 ], [ 8.682907, 49.41671 ], [ 8.6825659, 49.416676 ], [ 8.6823088, 49.4166671 ], [ 8.6824871, 49.4164748 ], [ 8.6825146, 49.4164374 ], [ 8.6826969, 49.4163817 ], [ 8.6829935, 49.4162668 ], [ 8.6832715, 49.4161335 ], [ 8.6835281, 49.415983 ], [ 8.6837609, 49.4158169 ], [ 8.6839676, 49.4156366 ], [ 8.6841462, 49.415444 ], [ 8.684295, 49.415241 ], [ 8.6844126, 49.4150294 ], [ 8.6844668, 49.4148906 ], [ 8.6845959, 49.4150325 ], [ 8.6848003, 49.4152138 ], [ 8.6850309, 49.4153812 ], [ 8.6852856, 49.4155331 ], [ 8.6855618, 49.4156679 ], [ 8.685857, 49.4157845 ], [ 8.6861683, 49.4158815 ], [ 8.6864926, 49.4159583 ], [ 8.6866481, 49.4159841 ], [ 8.686646, 49.4160097 ], [ 8.6866563, 49.4161585 ], [ 8.6863324, 49.416168 ], [ 8.6859909, 49.4162001 ], [ 8.6856559, 49.4162539 ], [ 8.6853306, 49.4163289 ], [ 8.6850181, 49.4164243 ], [ 8.6847214, 49.4165392 ], [ 8.6844434, 49.4166725 ], [ 8.6841868, 49.416823 ], [ 8.6840664, 49.4169089 ] ] ], [ [ [ 8.684113, 49.4132299 ], [ 8.683984, 49.413088 ], [ 8.68387, 49.4129869 ], [ 8.6842047, 49.4129771 ], [ 8.684232, 49.4129745 ], [ 8.6841672, 49.4130911 ], [ 8.684113, 49.4132299 ] ] ], [ [ [ 8.6713093, 49.4164108 ], [ 8.6712314, 49.4163417 ], [ 8.6713596, 49.4162299 ], [ 8.6715955, 49.4162535 ], [ 8.6717933, 49.4162604 ], [ 8.6716022, 49.4163967 ], [ 8.6714316, 49.4165454 ], [ 8.6713093, 49.4164108 ] ] ], [ [ [ 8.6723226, 49.4055293 ], [ 8.6724221, 49.4055528 ], [ 8.6727564, 49.4056085 ], [ 8.6729685, 49.4056296 ], [ 8.6727559, 49.4057543 ], [ 8.6727483, 49.4057597 ], [ 8.6725401, 49.4056355 ], [ 8.6723226, 49.4055293 ] ] ], [ [ [ 8.6634736, 49.4064246 ], [ 8.6637302, 49.4062741 ], [ 8.663963, 49.406108 ], [ 8.6641697, 49.4059278 ], [ 8.6643483, 49.4057353 ], [ 8.6644972, 49.4055322 ], [ 8.6646149, 49.4053206 ], [ 8.6647002, 49.4051025 ], [ 8.6647523, 49.40488 ], [ 8.6647707, 49.4046552 ], [ 8.6647606, 49.4045066 ], [ 8.6648247, 49.4045218 ], [ 8.6651589, 49.4045774 ], [ 8.6654999, 49.4046114 ], [ 8.6658443, 49.4046235 ], [ 8.6661889, 49.4046134 ], [ 8.6665303, 49.4045814 ], [ 8.6668653, 49.4045277 ], [ 8.6671906, 49.4044528 ], [ 8.6675031, 49.4043574 ], [ 8.6677997, 49.4042426 ], [ 8.6680776, 49.4041093 ], [ 8.6683342, 49.4039588 ], [ 8.668567, 49.4037927 ], [ 8.6685882, 49.4037742 ], [ 8.6688191, 49.4038654 ], [ 8.6691303, 49.4039625 ], [ 8.6694545, 49.4040393 ], [ 8.6697887, 49.404095 ], [ 8.6701297, 49.404129 ], [ 8.67015, 49.4041297 ], [ 8.6702039, 49.4042293 ], [ 8.67035, 49.4044332 ], [ 8.6705261, 49.4046268 ], [ 8.6707303, 49.4048082 ], [ 8.6709609, 49.4049756 ], [ 8.6712154, 49.4051275 ], [ 8.6714329, 49.4052337 ], [ 8.6713334, 49.4052102 ], [ 8.6709992, 49.4051545 ], [ 8.6706582, 49.4051205 ], [ 8.6703138, 49.4051085 ], [ 8.6699692, 49.4051186 ], [ 8.6696277, 49.4051506 ], [ 8.6692928, 49.4052044 ], [ 8.6689675, 49.4052793 ], [ 8.668655, 49.4053746 ], [ 8.6683584, 49.4054895 ], [ 8.6680804, 49.4056228 ], [ 8.6678238, 49.4057732 ], [ 8.6676978, 49.4058631 ], [ 8.66766, 49.4058513 ], [ 8.6673357, 49.4057745 ], [ 8.6670015, 49.4057189 ], [ 8.6666605, 49.4056849 ], [ 8.666316, 49.4056728 ], [ 8.6659714, 49.4056829 ], [ 8.66563, 49.4057149 ], [ 8.665295, 49.4057686 ], [ 8.6649698, 49.4058435 ], [ 8.6646573, 49.4059389 ], [ 8.6643606, 49.4060537 ], [ 8.6640827, 49.406187 ], [ 8.663826, 49.4063374 ], [ 8.6635932, 49.4065035 ], [ 8.6633865, 49.4066837 ], [ 8.6632079, 49.4068763 ], [ 8.663059, 49.4070793 ], [ 8.663027, 49.4071368 ], [ 8.6630183, 49.4071316 ], [ 8.6627422, 49.4069967 ], [ 8.6624471, 49.4068801 ], [ 8.6622996, 49.4068341 ], [ 8.6625865, 49.406768 ], [ 8.6628989, 49.4066727 ], [ 8.6631956, 49.4065578 ], [ 8.6634736, 49.4064246 ] ] ], [ [ [ 8.6786465, 49.4194047 ], [ 8.6787395, 49.4193237 ], [ 8.6787554, 49.4193956 ], [ 8.6788378, 49.4196142 ], [ 8.6788548, 49.4196457 ], [ 8.6788073, 49.4196409 ], [ 8.6784628, 49.4196289 ], [ 8.6783068, 49.4196335 ], [ 8.6784137, 49.4195708 ], [ 8.6786465, 49.4194047 ] ] ] ] } }
]
}
