{
"type": "FeatureCollection",
"features": [
{ "type": "Feature", "properties": { "index": "0", "last_edit_year": 2026, "years_since_edit": 0, "label": "0.0–1.5 yr", "color": "#ffc" }, "geometry": { "type": "Point", "coordinates": [ 8.7058285, 49.409921 ] } },
{ "type": "Feature", "properties": { "index": "1", "last_edit_year": 2025, "years_since_edit": 1, "label": "0.0–1.5 yr", "color": "#ffc" }, "geometry": { "type": "Point", "coordinates": [ 8.7028127, 49.4118525 ] } },
{ "type": "Feature", "properties": { "index": "2", "last_edit_year": 2025, "years_since_edit": 1, "label": "0.0–1.5 yr", "color": "#ffc" }, "geometry": { "type": "Point", "coordinates": [ 8.6733912, 49.4193441 ] } },
{ "type": "Feature", "properties": { "index": "3", "last_edit_year": 2024, "years_since_edit": 2, "label": "1.5–5.5 yr", "color": "#a9db8e" }, "geometry": { "type": "Point", "coordinates": [ 8.6809407, 49.4049867 ] } },
{ "type": "Feature", "properties": { "index": "4", "last_edit_year": 2023, "years_since_edit": 3, "label": "1.5–5.5 yr", "color": "#a9db8e" }, "geometry": { "type": "Point", "coordinates": [ 8.691483, 49.3984258 ] } },
{ "type": "Feature", "properties": { "index": "5", "last_edit_year": 2025, "years_since_edit": 1, "label": "0.0–1.5 yr", "color": "#ffc" }, "geometry": { "type": "Point", "coordinates": [ 8.7033358, 49.4128078 ] } },
{ "type": "Feature", "properties": { "index": "6", "last_edit_year": 2026, "years_since_edit": 0, "label": "0.0–1.5 yr", "color": "#ffc" }, "geometry": { "type": "Point", "coordinates": [ 8.7063954, 49.4112809 ] } },
{ "type": "Feature", "properties": { "index": "7", "last_edit_year": 2026, "years_since_edit": 0, "label": "0.0–1.5 yr", "color": "#ffc" }, "geometry": { "type": "Point", "coordinates": [ 8.7063427, 49.4112645 ] } },
{ "type": "Feature", "properties": { "index": "8", "last_edit_year": 2026, "years_since_edit": 0, "label": "0.0–1.5 yr", "color": "#ffc" }, "geometry": { "type": "Point", "coordinates": [ 8.7171139, 49.4102037 ] } },
{ "type": "Feature", "properties": { "index": "9", "last_edit_year": 2026, "years_since_edit": 0, "label": "0.0–1.5 yr", "color": "#ffc" }, "geometry": { "type": "Point", "coordinates": [ 8.718099, 49.4106484 ] } },
{ "type": "Feature", "properties": { "index": "10", "last_edit_year": 2013, "years_since_edit": 13, "label": "10.5–15.0 yr", "color": "#006837" }, "geometry": { "type": "Point", "coordinates": [ 8.7179255, 49.4141089 ] } },
{ "type": "Feature", "properties": { "index": "11", "last_edit_year": 2024, "years_since_edit": 2, "label": "1.5–5.5 yr", "color": "#a9db8e" }, "geometry": { "type": "Point", "coordinates": [ 8.7104804, 49.4121144 ] } },
{ "type": "Feature", "properties": { "index": "12", "last_edit_year": 2012, "years_since_edit": 14, "label": "10.5–15.0 yr", "color": "#006837" }, "geometry": { "type": "Point", "coordinates": [ 8.709108, 49.4060873 ] } },
{ "type": "Feature", "properties": { "index": "13", "last_edit_year": 2013, "years_since_edit": 13, "label": "10.5–15.0 yr", "color": "#006837" }, "geometry": { "type": "Point", "coordinates": [ 8.7062184, 49.4120234 ] } },
{ "type": "Feature", "properties": { "index": "14", "last_edit_year": 2021, "years_since_edit": 5, "label": "1.5–5.5 yr", "color": "#a9db8e" }, "geometry": { "type": "Point", "coordinates": [ 8.7025897, 49.4117744 ] } },
{ "type": "Feature", "properties": { "index": "15", "last_edit_year": 2024, "years_since_edit": 2, "label": "1.5–5.5 yr", "color": "#a9db8e" }, "geometry": { "type": "Point", "coordinates": [ 8.7108996, 49.4107561 ] } },
{ "type": "Feature", "properties": { "index": "16", "last_edit_year": 2026, "years_since_edit": 0, "label": "0.0–1.5 yr", "color": "#ffc" }, "geometry": { "type": "Point", "coordinates": [ 8.7158117, 49.4109036 ] } },
{ "type": "Feature", "properties": { "index": "17", "last_edit_year": 2025, "years_since_edit": 1, "label": "0.0–1.5 yr", "color": "#ffc" }, "geometry": { "type": "Point", "coordinates": [ 8.7146252, 49.4096512 ] } },
{ "type": "Feature", "properties": { "index": "18", "last_edit_year": 2015, "years_since_edit": 11, "label": "10.5–15.0 yr", "color": "#006837" }, "geometry": { "type": "Point", "coordinates": [ 8.7156, 49.4106049 ] } },
{ "type": "Feature", "properties": { "index": "19", "last_edit_year": 2020, "years_since_edit": 6, "label": "5.5–10.5 yr", "color": "#49af60" }, "geometry": { "type": "Point", "coordinates": [ 8.7016286, 49.4092629 ] } },
{ "type": "Feature", "properties": { "index": "20", "last_edit_year": 2025, "years_since_edit": 1, "label": "0.0–1.5 yr", "color": "#ffc" }, "geometry": { "type": "Point", "coordinates": [ 8.702, 49.4109022 ] } },
{ "type": "Feature", "properties": { "index": "21", "last_edit_year": 2023, "years_since_edit": 3, "label": "1.5–5.5 yr", "color": "#a9db8e" }, "geometry": { "type": "Point", "coordinates": [ 8.7024973, 49.4105279 ] } },
{ "type": "Feature", "properties": { "index": "22", "last_edit_year": 2024, "years_since_edit": 2, "label": "1.5–5.5 yr", "color": "#a9db8e" }, "geometry": { "type": "Point", "coordinates": [ 8.7059754, 49.4112667 ] } },
{ "type": "Feature", "properties": { "index": "23", "last_edit_year": 2026, "years_since_edit": 0, "label": "0.0–1.5 yr", "color": "#ffc" }, "geometry": { "type": "Point", "coordinates": [ 8.7060537, 49.4093253 ] } },
{ "type": "Feature", "properties": { "index": "24", "last_edit_year": 2026, "years_since_edit": 0, "label": "0.0–1.5 yr", "color": "#ffc" }, "geometry": { "type": "Point", "coordinates": [ 8.7096605, 49.4121036 ] } },
{ "type": "Feature", "properties": { "index": "25", "last_edit_year": 2025, "years_since_edit": 1, "label": "0.0–1.5 yr", "color": "#ffc" }, "geometry": { "type": "Point", "coordinates": [ 8.7149703, 49.4132916 ] } },
{ "type": "Feature", "properties": { "index": "26", "last_edit_year": 2026, "years_since_edit": 0, "label": "0.0–1.5 yr", "color": "#ffc" }, "geometry": { "type": "Point", "coordinates": [ 8.7077054, 49.4108182 ] } },
{ "type": "Feature", "properties": { "index": "27", "last_edit_year": 2024, "years_since_edit": 2, "label": "1.5–5.5 yr", "color": "#a9db8e" }, "geometry": { "type": "Point", "coordinates": [ 8.7082005, 49.4106488 ] } },
{ "type": "Feature", "properties": { "index": "28", "last_edit_year": 2024, "years_since_edit": 2, "label": "1.5–5.5 yr", "color": "#a9db8e" }, "geometry": { "type": "Point", "coordinates": [ 8.7052701, 49.4092049 ] } },
{ "type": "Feature", "properties": { "index": "29", "last_edit_year": 2025, "years_since_edit": 1, "label": "0.0–1.5 yr", "color": "#ffc" }, "geometry": { "type": "Point", "coordinates": [ 8.7131519, 49.4109495 ] } },
{ "type": "Feature", "properties": { "index": "30", "last_edit_year": 2024, "years_since_edit": 2, "label": "1.5–5.5 yr", "color": "#a9db8e" }, "geometry": { "type": "Point", "coordinates": [ 8.7101218, 49.4151428 ] } },
{ "type": "Feature", "properties": { "index": "31", "last_edit_year": 2024, "years_since_edit": 2, "label": "1.5–5.5 yr", "color": "#a9db8e" }, "geometry": { "type": "Point", "coordinates": [ 8.7113395, 49.4152243 ] } },
{ "type": "Feature", "properties": { "index": "32", "last_edit_year": 2024, "years_since_edit": 2, "label": "1.5–5.5 yr", "color": "#a9db8e" }, "geometry": { "type": "Point", "coordinates": [ 8.7116049, 49.4152372 ] } },
{ "type": "Feature", "properties": { "index": "33", "last_edit_year": 2025, "years_since_edit": 1, "label": "0.0–1.5 yr", "color": "#ffc" }, "geometry": { "type": "Point", "coordinates": [ 8.7142847, 49.4100847 ] } },
{ "type": "Feature", "properties": { "index": "34", "last_edit_year": 2025, "years_since_edit": 1, "label": "0.0–1.5 yr", "color": "#ffc" }, "geometry": { "type": "Point", "coordinates": [ 8.7101856, 49.4006135 ] } },
{ "type": "Feature", "properties": { "index": "35", "last_edit_year": 2026, "years_since_edit": 0, "label": "0.0–1.5 yr", "color": "#ffc" }, "geometry": { "type": "Point", "coordinates": [ 8.7174368, 49.412494 ] } },
{ "type": "Feature", "properties": { "index": "36", "last_edit_year": 2025, "years_since_edit": 1, "label": "0.0–1.5 yr", "color": "#ffc" }, "geometry": { "type": "Point", "coordinates": [ 8.7118845, 49.4106296 ] } },
{ "type": "Feature", "properties": { "index": "37", "last_edit_year": 2025, "years_since_edit": 1, "label": "0.0–1.5 yr", "color": "#ffc" }, "geometry": { "type": "Point", "coordinates": [ 8.7122959, 49.4102045 ] } },
{ "type": "Feature", "properties": { "index": "38", "last_edit_year": 2025, "years_since_edit": 1, "label": "0.0–1.5 yr", "color": "#ffc" }, "geometry": { "type": "Point", "coordinates": [ 8.7122779, 49.4159695 ] } },
{ "type": "Feature", "properties": { "index": "39", "last_edit_year": 2024, "years_since_edit": 2, "label": "1.5–5.5 yr", "color": "#a9db8e" }, "geometry": { "type": "Point", "coordinates": [ 8.6620674, 49.4125546 ] } },
{ "type": "Feature", "properties": { "index": "40", "last_edit_year": 2026, "years_since_edit": 0, "label": "0.0–1.5 yr", "color": "#ffc" }, "geometry": { "type": "Point", "coordinates": [ 8.6643356, 49.4112945 ] } },
{ "type": "Feature", "properties": { "index": "41", "last_edit_year": 2025, "years_since_edit": 1, "label": "0.0–1.5 yr", "color": "#ffc" }, "geometry": { "type": "Point", "coordinates": [ 8.6612559, 49.404645 ] } },
{ "type": "Feature", "properties": { "index": "42", "last_edit_year": 2026, "years_since_edit": 0, "label": "0.0–1.5 yr", "color": "#ffc" }, "geometry": { "type": "Point", "coordinates": [ 8.698847, 49.4121147 ] } },
{ "type": "Feature", "properties": { "index": "43", "last_edit_year": 2025, "years_since_edit": 1, "label": "0.0–1.5 yr", "color": "#ffc" }, "geometry": { "type": "Point", "coordinates": [ 8.6838748, 49.4106935 ] } },
{ "type": "Feature", "properties": { "index": "44", "last_edit_year": 2026, "years_since_edit": 0, "label": "0.0–1.5 yr", "color": "#ffc" }, "geometry": { "type": "Point", "coordinates": [ 8.6865009, 49.4067159 ] } },
{ "type": "Feature", "properties": { "index": "45", "last_edit_year": 2011, "years_since_edit": 15, "label": "10.5–15.0 yr", "color": "#006837" }, "geometry": { "type": "Point", "coordinates": [ 8.6949416, 49.4073133 ] } },
{ "type": "Feature", "properties": { "index": "46", "last_edit_year": 2026, "years_since_edit": 0, "label": "0.0–1.5 yr", "color": "#ffc" }, "geometry": { "type": "Point", "coordinates": [ 8.688756, 49.409803 ] } },
{ "type": "Feature", "properties": { "index": "47", "last_edit_year": 2025, "years_since_edit": 1, "label": "0.0–1.5 yr", "color": "#ffc" }, "geometry": { "type": "Point", "coordinates": [ 8.6873585, 49.4068013 ] } },
{ "type": "Feature", "properties": { "index": "48", "last_edit_year": 2025, "years_since_edit": 1, "label": "0.0–1.5 yr", "color": "#ffc" }, "geometry": { "type": "Point", "coordinates": [ 8.6936252, 49.4072311 ] } },
{ "type": "Feature", "properties": { "index": "49", "last_edit_year": 2025, "years_since_edit": 1, "label": "0.0–1.5 yr", "color": "#ffc" }, "geometry": { "type": "Point", "coordinates": [ 8.6918668, 49.40771 ] } },
{ "type": "Feature", "properties": { "index": "50", "last_edit_year": 2026, "years_since_edit": 0, "label": "0.0–1.5 yr", "color": "#ffc" }, "geometry": { "type": "Point", "coordinates": [ 8.6900594, 49.4044611 ] } },
{ "type": "Feature", "properties": { "index": "51", "last_edit_year": 2025, "years_since_edit": 1, "label": "0.0–1.5 yr", "color": "#ffc" }, "geometry": { "type": "Point", "coordinates": [ 8.6875271, 49.4137661 ] } },
{ "type": "Feature", "properties": { "index": "52", "last_edit_year": 2025, "years_since_edit": 1, "label": "0.0–1.5 yr", "color": "#ffc" }, "geometry": { "type": "Point", "coordinates": [ 8.6793936, 49.415385 ] } },
{ "type": "Feature", "properties": { "index": "53", "last_edit_year": 2025, "years_since_edit": 1, "label": "0.0–1.5 yr", "color": "#ffc" }, "geometry": { "type": "Point", "coordinates": [ 8.687519, 49.4039284 ] } },
{ "type": "Feature", "properties": { "index": "54", "last_edit_year": 2023, "years_since_edit": 3, "label": "1.5–5.5 yr", "color": "#a9db8e" }, "geometry": { "type": "Point", "coordinates": [ 8.6820587, 49.4084807 ] } },
{ "type": "Feature", "properties": { "index": "55", "last_edit_year": 2026, "years_since_edit": 0, "label": "0.0–1.5 yr", "color": "#ffc" }, "geometry": { "type": "Point", "coordinates": [ 8.6853562, 49.4021829 ] } },
{ "type": "Feature", "properties": { "index": "56", "last_edit_year": 2026, "years_since_edit": 0, "label": "0.0–1.5 yr", "color": "#ffc" }, "geometry": { "type": "Point", "coordinates": [ 8.6893521, 49.3990592 ] } },
{ "type": "Feature", "properties": { "index": "57", "last_edit_year": 2025, "years_since_edit": 1, "label": "0.0–1.5 yr", "color": "#ffc" }, "geometry": { "type": "Point", "coordinates": [ 8.6925373, 49.4107336 ] } },
{ "type": "Feature", "properties": { "index": "58", "last_edit_year": 2025, "years_since_edit": 1, "label": "0.0–1.5 yr", "color": "#ffc" }, "geometry": { "type": "Point", "coordinates": [ 8.6956616, 49.4087265 ] } },
{ "type": "Feature", "properties": { "index": "59", "last_edit_year": 2014, "years_since_edit": 12, "label": "10.5–15.0 yr", "color": "#006837" }, "geometry": { "type": "Point", "coordinates": [ 8.692839, 49.4102676 ] } },
{ "type": "Feature", "properties": { "index": "60", "last_edit_year": 2019, "years_since_edit": 7, "label": "5.5–10.5 yr", "color": "#49af60" }, "geometry": { "type": "Point", "coordinates": [ 8.6905719, 49.4146461 ] } },
{ "type": "Feature", "properties": { "index": "61", "last_edit_year": 2023, "years_since_edit": 3, "label": "1.5–5.5 yr", "color": "#a9db8e" }, "geometry": { "type": "Point", "coordinates": [ 8.6848431, 49.4017666 ] } },
{ "type": "Feature", "properties": { "index": "62", "last_edit_year": 2026, "years_since_edit": 0, "label": "0.0–1.5 yr", "color": "#ffc" }, "geometry": { "type": "Point", "coordinates": [ 8.685861, 49.3985055 ] } },
{ "type": "Feature", "properties": { "index": "63", "last_edit_year": 2016, "years_since_edit": 10, "label": "5.5–10.5 yr", "color": "#49af60" }, "geometry": { "type": "Point", "coordinates": [ 8.6972107, 49.4094617 ] } },
{ "type": "Feature", "properties": { "index": "64", "last_edit_year": 2026, "years_since_edit": 0, "label": "0.0–1.5 yr", "color": "#ffc" }, "geometry": { "type": "Point", "coordinates": [ 8.6974298, 49.4094237 ] } },
{ "type": "Feature", "properties": { "index": "65", "last_edit_year": 2017, "years_since_edit": 9, "label": "5.5–10.5 yr", "color": "#49af60" }, "geometry": { "type": "Point", "coordinates": [ 8.6891947, 49.398025 ] } },
{ "type": "Feature", "properties": { "index": "66", "last_edit_year": 2024, "years_since_edit": 2, "label": "1.5–5.5 yr", "color": "#a9db8e" }, "geometry": { "type": "Point", "coordinates": [ 8.7005522, 49.4151043 ] } },
{ "type": "Feature", "properties": { "index": "67", "last_edit_year": 2019, "years_since_edit": 7, "label": "5.5–10.5 yr", "color": "#49af60" }, "geometry": { "type": "Point", "coordinates": [ 8.6813914, 49.4050012 ] } },
{ "type": "Feature", "properties": { "index": "68", "last_edit_year": 2019, "years_since_edit": 7, "label": "5.5–10.5 yr", "color": "#49af60" }, "geometry": { "type": "Point", "coordinates": [ 8.6814802, 49.4050171 ] } },
{ "type": "Feature", "properties": { "index": "69", "last_edit_year": 2019, "years_since_edit": 7, "label": "5.5–10.5 yr", "color": "#49af60" }, "geometry": { "type": "Point", "coordinates": [ 8.681564, 49.4050321 ] } },
{ "type": "Feature", "properties": { "index": "70", "last_edit_year": 2019, "years_since_edit": 7, "label": "5.5–10.5 yr", "color": "#49af60" }, "geometry": { "type": "Point", "coordinates": [ 8.681659, 49.4050491 ] } },
{ "type": "Feature", "properties": { "index": "71", "last_edit_year": 2019, "years_since_edit": 7, "label": "5.5–10.5 yr", "color": "#49af60" }, "geometry": { "type": "Point", "coordinates": [ 8.6817439, 49.4050779 ] } },
{ "type": "Feature", "properties": { "index": "72", "last_edit_year": 2025, "years_since_edit": 1, "label": "0.0–1.5 yr", "color": "#ffc" }, "geometry": { "type": "Point", "coordinates": [ 8.6810527, 49.4143543 ] } },
{ "type": "Feature", "properties": { "index": "73", "last_edit_year": 2019, "years_since_edit": 7, "label": "5.5–10.5 yr", "color": "#49af60" }, "geometry": { "type": "Point", "coordinates": [ 8.6912757, 49.4000776 ] } },
{ "type": "Feature", "properties": { "index": "74", "last_edit_year": 2025, "years_since_edit": 1, "label": "0.0–1.5 yr", "color": "#ffc" }, "geometry": { "type": "Point", "coordinates": [ 8.6939798, 49.4104163 ] } },
{ "type": "Feature", "properties": { "index": "75", "last_edit_year": 2021, "years_since_edit": 5, "label": "1.5–5.5 yr", "color": "#a9db8e" }, "geometry": { "type": "Point", "coordinates": [ 8.6868606, 49.4018656 ] } },
{ "type": "Feature", "properties": { "index": "76", "last_edit_year": 2023, "years_since_edit": 3, "label": "1.5–5.5 yr", "color": "#a9db8e" }, "geometry": { "type": "Point", "coordinates": [ 8.6851106, 49.4016754 ] } },
{ "type": "Feature", "properties": { "index": "77", "last_edit_year": 2024, "years_since_edit": 2, "label": "1.5–5.5 yr", "color": "#a9db8e" }, "geometry": { "type": "Point", "coordinates": [ 8.6871909, 49.4003841 ] } },
{ "type": "Feature", "properties": { "index": "78", "last_edit_year": 2023, "years_since_edit": 3, "label": "1.5–5.5 yr", "color": "#a9db8e" }, "geometry": { "type": "Point", "coordinates": [ 8.6839264, 49.4017253 ] } },
{ "type": "Feature", "properties": { "index": "79", "last_edit_year": 2024, "years_since_edit": 2, "label": "1.5–5.5 yr", "color": "#a9db8e" }, "geometry": { "type": "Point", "coordinates": [ 8.6845976, 49.4101182 ] } },
{ "type": "Feature", "properties": { "index": "80", "last_edit_year": 2024, "years_since_edit": 2, "label": "1.5–5.5 yr", "color": "#a9db8e" }, "geometry": { "type": "Point", "coordinates": [ 8.6846553, 49.4101239 ] } },
{ "type": "Feature", "properties": { "index": "81", "last_edit_year": 2024, "years_since_edit": 2, "label": "1.5–5.5 yr", "color": "#a9db8e" }, "geometry": { "type": "Point", "coordinates": [ 8.6858798, 49.4047399 ] } },
{ "type": "Feature", "properties": { "index": "82", "last_edit_year": 2025, "years_since_edit": 1, "label": "0.0–1.5 yr", "color": "#ffc" }, "geometry": { "type": "Point", "coordinates": [ 8.682214, 49.4098389 ] } },
{ "type": "Feature", "properties": { "index": "83", "last_edit_year": 2025, "years_since_edit": 1, "label": "0.0–1.5 yr", "color": "#ffc" }, "geometry": { "type": "Point", "coordinates": [ 8.6930327, 49.4072026 ] } },
{ "type": "Feature", "properties": { "index": "84", "last_edit_year": 2025, "years_since_edit": 1, "label": "0.0–1.5 yr", "color": "#ffc" }, "geometry": { "type": "Point", "coordinates": [ 8.693806, 49.4071679 ] } },
{ "type": "Feature", "properties": { "index": "85", "last_edit_year": 2025, "years_since_edit": 1, "label": "0.0–1.5 yr", "color": "#ffc" }, "geometry": { "type": "Point", "coordinates": [ 8.7002013, 49.4146139 ] } },
{ "type": "Feature", "properties": { "index": "86", "last_edit_year": 2025, "years_since_edit": 1, "label": "0.0–1.5 yr", "color": "#ffc" }, "geometry": { "type": "Point", "coordinates": [ 8.6992131, 49.4145113 ] } },
{ "type": "Feature", "properties": { "index": "87", "last_edit_year": 2025, "years_since_edit": 1, "label": "0.0–1.5 yr", "color": "#ffc" }, "geometry": { "type": "Point", "coordinates": [ 8.7004777, 49.4142182 ] } },
{ "type": "Feature", "properties": { "index": "88", "last_edit_year": 2025, "years_since_edit": 1, "label": "0.0–1.5 yr", "color": "#ffc" }, "geometry": { "type": "Point", "coordinates": [ 8.7069756, 49.4193931 ] } },
{ "type": "Feature", "properties": { "index": "89", "last_edit_year": 2026, "years_since_edit": 0, "label": "0.0–1.5 yr", "color": "#ffc" }, "geometry": { "type": "Point", "coordinates": [ 8.7010196, 49.4124165 ] } },
{ "type": "Feature", "properties": { "index": "90", "last_edit_year": 2026, "years_since_edit": 0, "label": "0.0–1.5 yr", "color": "#ffc" }, "geometry": { "type": "Point", "coordinates": [ 8.6866569, 49.4202389 ] } },
{ "type": "Feature", "properties": { "index": "91", "last_edit_year": 2021, "years_since_edit": 5, "label": "1.5–5.5 yr", "color": "#a9db8e" }, "geometry": { "type": "Point", "coordinates": [ 8.6822066, 49.4189577 ] } },
{ "type": "Feature", "properties": { "index": "92", "last_edit_year": 2026, "years_since_edit": 0, "label": "0.0–1.5 yr", "color": "#ffc" }, "geometry": { "type": "Point", "coordinates": [ 8.6685159, 49.4118996 ] } },
{ "type": "Feature", "properties": { "index": "93", "last_edit_year": 2026, "years_since_edit": 0, "label": "0.0–1.5 yr", "color": "#ffc" }, "geometry": { "type": "Point", "coordinates": [ 8.6685089, 49.4148916 ] } },
{ "type": "Feature", "properties": { "index": "94", "last_edit_year": 2026, "years_since_edit": 0, "label": "0.0–1.5 yr", "color": "#ffc" }, "geometry": { "type": "Point", "coordinates": [ 8.6777317, 49.4121228 ] } },
{ "type": "Feature", "properties": { "index": "95", "last_edit_year": 2021, "years_since_edit": 5, "label": "1.5–5.5 yr", "color": "#a9db8e" }, "geometry": { "type": "Point", "coordinates": [ 8.6620949, 49.411526 ] } },
{ "type": "Feature", "properties": { "index": "96", "last_edit_year": 2025, "years_since_edit": 1, "label": "0.0–1.5 yr", "color": "#ffc" }, "geometry": { "type": "Point", "coordinates": [ 8.6845408, 49.4198183 ] } },
{ "type": "Feature", "properties": { "index": "97", "last_edit_year": 2024, "years_since_edit": 2, "label": "1.5–5.5 yr", "color": "#a9db8e" }, "geometry": { "type": "Point", "coordinates": [ 8.6799096, 49.4093005 ] } },
{ "type": "Feature", "properties": { "index": "98", "last_edit_year": 2025, "years_since_edit": 1, "label": "0.0–1.5 yr", "color": "#ffc" }, "geometry": { "type": "Point", "coordinates": [ 8.6762361, 49.4085546 ] } },
{ "type": "Feature", "properties": { "index": "99", "last_edit_year": 2025, "years_since_edit": 1, "label": "0.0–1.5 yr", "color": "#ffc" }, "geometry": { "type": "Point", "coordinates": [ 8.6866625, 49.4184516 ] } },
{ "type": "Feature", "properties": { "index": "100", "last_edit_year": 2026, "years_since_edit": 0, "label": "0.0–1.5 yr", "color": "#ffc" }, "geometry": { "type": "Point", "coordinates": [ 8.6907199, 49.4179387 ] } },
{ "type": "Feature", "properties": { "index": "101", "last_edit_year": 2026, "years_since_edit": 0, "label": "0.0–1.5 yr", "color": "#ffc" }, "geometry": { "type": "Point", "coordinates": [ 8.6733865, 49.4085146 ] } },
{ "type": "Feature", "properties": { "index": "102", "last_edit_year": 2025, "years_since_edit": 1, "label": "0.0–1.5 yr", "color": "#ffc" }, "geometry": { "type": "Point", "coordinates": [ 8.7009704, 49.4156844 ] } },
{ "type": "Feature", "properties": { "index": "103", "last_edit_year": 2026, "years_since_edit": 0, "label": "0.0–1.5 yr", "color": "#ffc" }, "geometry": { "type": "Point", "coordinates": [ 8.6786669, 49.4038837 ] } },
{ "type": "Feature", "properties": { "index": "104", "last_edit_year": 2025, "years_since_edit": 1, "label": "0.0–1.5 yr", "color": "#ffc" }, "geometry": { "type": "Point", "coordinates": [ 8.6770067, 49.409354 ] } },
{ "type": "Feature", "properties": { "index": "105", "last_edit_year": 2025, "years_since_edit": 1, "label": "0.0–1.5 yr", "color": "#ffc" }, "geometry": { "type": "Point", "coordinates": [ 8.6775571, 49.4096173 ] } },
{ "type": "Feature", "properties": { "index": "106", "last_edit_year": 2025, "years_since_edit": 1, "label": "0.0–1.5 yr", "color": "#ffc" }, "geometry": { "type": "Point", "coordinates": [ 8.6782181, 49.4093586 ] } },
{ "type": "Feature", "properties": { "index": "107", "last_edit_year": 2026, "years_since_edit": 0, "label": "0.0–1.5 yr", "color": "#ffc" }, "geometry": { "type": "Point", "coordinates": [ 8.6714197, 49.4093472 ] } },
{ "type": "Feature", "properties": { "index": "108", "last_edit_year": 2021, "years_since_edit": 5, "label": "1.5–5.5 yr", "color": "#a9db8e" }, "geometry": { "type": "Point", "coordinates": [ 8.6647329, 49.4105396 ] } },
{ "type": "Feature", "properties": { "index": "109", "last_edit_year": 2025, "years_since_edit": 1, "label": "0.0–1.5 yr", "color": "#ffc" }, "geometry": { "type": "Point", "coordinates": [ 8.6828712, 49.4190631 ] } },
{ "type": "Feature", "properties": { "index": "110", "last_edit_year": 2025, "years_since_edit": 1, "label": "0.0–1.5 yr", "color": "#ffc" }, "geometry": { "type": "Point", "coordinates": [ 8.6686082, 49.4119205 ] } },
{ "type": "Feature", "properties": { "index": "111", "last_edit_year": 2024, "years_since_edit": 2, "label": "1.5–5.5 yr", "color": "#a9db8e" }, "geometry": { "type": "Point", "coordinates": [ 8.6607762, 49.4088981 ] } },
{ "type": "Feature", "properties": { "index": "112", "last_edit_year": 2025, "years_since_edit": 1, "label": "0.0–1.5 yr", "color": "#ffc" }, "geometry": { "type": "Point", "coordinates": [ 8.6704895, 49.4018473 ] } },
{ "type": "Feature", "properties": { "index": "113", "last_edit_year": 2015, "years_since_edit": 11, "label": "10.5–15.0 yr", "color": "#006837" }, "geometry": { "type": "Point", "coordinates": [ 8.6891073, 49.4200869 ] } },
{ "type": "Feature", "properties": { "index": "114", "last_edit_year": 2015, "years_since_edit": 11, "label": "10.5–15.0 yr", "color": "#006837" }, "geometry": { "type": "Point", "coordinates": [ 8.6890893, 49.4198766 ] } },
{ "type": "Feature", "properties": { "index": "115", "last_edit_year": 2016, "years_since_edit": 10, "label": "5.5–10.5 yr", "color": "#49af60" }, "geometry": { "type": "Point", "coordinates": [ 8.6696036, 49.3990341 ] } },
{ "type": "Feature", "properties": { "index": "116", "last_edit_year": 2016, "years_since_edit": 10, "label": "5.5–10.5 yr", "color": "#49af60" }, "geometry": { "type": "Point", "coordinates": [ 8.6695904, 49.3990928 ] } },
{ "type": "Feature", "properties": { "index": "117", "last_edit_year": 2016, "years_since_edit": 10, "label": "5.5–10.5 yr", "color": "#49af60" }, "geometry": { "type": "Point", "coordinates": [ 8.6695013, 49.399133 ] } },
{ "type": "Feature", "properties": { "index": "118", "last_edit_year": 2016, "years_since_edit": 10, "label": "5.5–10.5 yr", "color": "#49af60" }, "geometry": { "type": "Point", "coordinates": [ 8.6693069, 49.3991771 ] } },
{ "type": "Feature", "properties": { "index": "119", "last_edit_year": 2016, "years_since_edit": 10, "label": "5.5–10.5 yr", "color": "#49af60" }, "geometry": { "type": "Point", "coordinates": [ 8.6693964, 49.3991328 ] } },
{ "type": "Feature", "properties": { "index": "120", "last_edit_year": 2016, "years_since_edit": 10, "label": "5.5–10.5 yr", "color": "#49af60" }, "geometry": { "type": "Point", "coordinates": [ 8.6677646, 49.3999763 ] } },
{ "type": "Feature", "properties": { "index": "121", "last_edit_year": 2016, "years_since_edit": 10, "label": "5.5–10.5 yr", "color": "#49af60" }, "geometry": { "type": "Point", "coordinates": [ 8.6693874, 49.3991866 ] } },
{ "type": "Feature", "properties": { "index": "122", "last_edit_year": 2016, "years_since_edit": 10, "label": "5.5–10.5 yr", "color": "#49af60" }, "geometry": { "type": "Point", "coordinates": [ 8.6694921, 49.3990904 ] } },
{ "type": "Feature", "properties": { "index": "123", "last_edit_year": 2016, "years_since_edit": 10, "label": "5.5–10.5 yr", "color": "#49af60" }, "geometry": { "type": "Point", "coordinates": [ 8.6676362, 49.4000389 ] } },
{ "type": "Feature", "properties": { "index": "124", "last_edit_year": 2016, "years_since_edit": 10, "label": "5.5–10.5 yr", "color": "#49af60" }, "geometry": { "type": "Point", "coordinates": [ 8.6677731, 49.3999207 ] } },
{ "type": "Feature", "properties": { "index": "125", "last_edit_year": 2016, "years_since_edit": 10, "label": "5.5–10.5 yr", "color": "#49af60" }, "geometry": { "type": "Point", "coordinates": [ 8.6676311, 49.3999907 ] } },
{ "type": "Feature", "properties": { "index": "126", "last_edit_year": 2023, "years_since_edit": 3, "label": "1.5–5.5 yr", "color": "#a9db8e" }, "geometry": { "type": "Point", "coordinates": [ 8.6680431, 49.3997465 ] } },
{ "type": "Feature", "properties": { "index": "127", "last_edit_year": 2019, "years_since_edit": 7, "label": "5.5–10.5 yr", "color": "#49af60" }, "geometry": { "type": "Point", "coordinates": [ 8.6759383, 49.417942 ] } },
{ "type": "Feature", "properties": { "index": "128", "last_edit_year": 2025, "years_since_edit": 1, "label": "0.0–1.5 yr", "color": "#ffc" }, "geometry": { "type": "Point", "coordinates": [ 8.6601628, 49.4152372 ] } },
{ "type": "Feature", "properties": { "index": "129", "last_edit_year": 2023, "years_since_edit": 3, "label": "1.5–5.5 yr", "color": "#a9db8e" }, "geometry": { "type": "Point", "coordinates": [ 8.6628528, 49.4143956 ] } },
{ "type": "Feature", "properties": { "index": "130", "last_edit_year": 2025, "years_since_edit": 1, "label": "0.0–1.5 yr", "color": "#ffc" }, "geometry": { "type": "Point", "coordinates": [ 8.662379, 49.4137514 ] } },
{ "type": "Feature", "properties": { "index": "131", "last_edit_year": 2021, "years_since_edit": 5, "label": "1.5–5.5 yr", "color": "#a9db8e" }, "geometry": { "type": "Point", "coordinates": [ 8.6784478, 49.4219226 ] } },
{ "type": "Feature", "properties": { "index": "132", "last_edit_year": 2021, "years_since_edit": 5, "label": "1.5–5.5 yr", "color": "#a9db8e" }, "geometry": { "type": "Point", "coordinates": [ 8.6658599, 49.4023298 ] } },
{ "type": "Feature", "properties": { "index": "133", "last_edit_year": 2025, "years_since_edit": 1, "label": "0.0–1.5 yr", "color": "#ffc" }, "geometry": { "type": "Point", "coordinates": [ 8.6618356, 49.4135087 ] } },
{ "type": "Feature", "properties": { "index": "134", "last_edit_year": 2026, "years_since_edit": 0, "label": "0.0–1.5 yr", "color": "#ffc" }, "geometry": { "type": "Point", "coordinates": [ 8.6663005, 49.4079665 ] } },
{ "type": "Feature", "properties": { "index": "135", "last_edit_year": 2023, "years_since_edit": 3, "label": "1.5–5.5 yr", "color": "#a9db8e" }, "geometry": { "type": "Point", "coordinates": [ 8.6702984, 49.4074022 ] } },
{ "type": "Feature", "properties": { "index": "136", "last_edit_year": 2023, "years_since_edit": 3, "label": "1.5–5.5 yr", "color": "#a9db8e" }, "geometry": { "type": "Point", "coordinates": [ 8.6689443, 49.3980902 ] } },
{ "type": "Feature", "properties": { "index": "137", "last_edit_year": 2023, "years_since_edit": 3, "label": "1.5–5.5 yr", "color": "#a9db8e" }, "geometry": { "type": "Point", "coordinates": [ 8.6651316, 49.4014219 ] } },
{ "type": "Feature", "properties": { "index": "138", "last_edit_year": 2026, "years_since_edit": 0, "label": "0.0–1.5 yr", "color": "#ffc" }, "geometry": { "type": "Point", "coordinates": [ 8.6771566, 49.4114041 ] } },
{ "type": "Feature", "properties": { "index": "139", "last_edit_year": 2025, "years_since_edit": 1, "label": "0.0–1.5 yr", "color": "#ffc" }, "geometry": { "type": "Point", "coordinates": [ 8.6735279, 49.4192432 ] } },
{ "type": "Feature", "properties": { "index": "140", "last_edit_year": 2024, "years_since_edit": 2, "label": "1.5–5.5 yr", "color": "#a9db8e" }, "geometry": { "type": "Point", "coordinates": [ 8.6793918, 49.4094403 ] } },
{ "type": "Feature", "properties": { "index": "141", "last_edit_year": 2024, "years_since_edit": 2, "label": "1.5–5.5 yr", "color": "#a9db8e" }, "geometry": { "type": "Point", "coordinates": [ 8.6771876, 49.4128594 ] } },
{ "type": "Feature", "properties": { "index": "142", "last_edit_year": 2025, "years_since_edit": 1, "label": "0.0–1.5 yr", "color": "#ffc" }, "geometry": { "type": "Point", "coordinates": [ 8.7002973, 49.4083174 ] } },
{ "type": "Feature", "properties": { "index": "143", "last_edit_year": 2026, "years_since_edit": 0, "label": "0.0–1.5 yr", "color": "#ffc" }, "geometry": { "type": "Point", "coordinates": [ 8.7079147, 49.4030836 ] } },
{ "type": "Feature", "properties": { "index": "144", "last_edit_year": 2026, "years_since_edit": 0, "label": "0.0–1.5 yr", "color": "#ffc" }, "geometry": { "type": "Point", "coordinates": [ 8.6943017, 49.4107642 ] } },
{ "type": "Feature", "properties": { "index": "145", "last_edit_year": 2026, "years_since_edit": 0, "label": "0.0–1.5 yr", "color": "#ffc" }, "geometry": { "type": "Point", "coordinates": [ 8.7028964, 49.4113671 ] } },
{ "type": "Feature", "properties": { "index": "146", "last_edit_year": 2024, "years_since_edit": 2, "label": "1.5–5.5 yr", "color": "#a9db8e" }, "geometry": { "type": "Point", "coordinates": [ 8.6683775, 49.4176768 ] } },
{ "type": "Feature", "properties": { "index": "147", "last_edit_year": 2024, "years_since_edit": 2, "label": "1.5–5.5 yr", "color": "#a9db8e" }, "geometry": { "type": "Point", "coordinates": [ 8.6901583, 49.4093101 ] } },
{ "type": "Feature", "properties": { "index": "148", "last_edit_year": 2025, "years_since_edit": 1, "label": "0.0–1.5 yr", "color": "#ffc" }, "geometry": { "type": "Point", "coordinates": [ 8.6899329, 49.4143991 ] } },
{ "type": "Feature", "properties": { "index": "149", "last_edit_year": 2014, "years_since_edit": 12, "label": "10.5–15.0 yr", "color": "#006837" }, "geometry": { "type": "Point", "coordinates": [ 8.6975401, 49.4104996 ] } },
{ "type": "Feature", "properties": { "index": "150", "last_edit_year": 2018, "years_since_edit": 8, "label": "5.5–10.5 yr", "color": "#49af60" }, "geometry": { "type": "Point", "coordinates": [ 8.7049353, 49.4126977 ] } },
{ "type": "Feature", "properties": { "index": "151", "last_edit_year": 2023, "years_since_edit": 3, "label": "1.5–5.5 yr", "color": "#a9db8e" }, "geometry": { "type": "Point", "coordinates": [ 8.6749258, 49.4139013 ] } },
{ "type": "Feature", "properties": { "index": "152", "last_edit_year": 2025, "years_since_edit": 1, "label": "0.0–1.5 yr", "color": "#ffc" }, "geometry": { "type": "Point", "coordinates": [ 8.7198036, 49.4210179 ] } },
{ "type": "Feature", "properties": { "index": "153", "last_edit_year": 2019, "years_since_edit": 7, "label": "5.5–10.5 yr", "color": "#49af60" }, "geometry": { "type": "Point", "coordinates": [ 8.7070925, 49.4097542 ] } },
{ "type": "Feature", "properties": { "index": "154", "last_edit_year": 2025, "years_since_edit": 1, "label": "0.0–1.5 yr", "color": "#ffc" }, "geometry": { "type": "Point", "coordinates": [ 8.674447, 49.4190214 ] } },
{ "type": "Feature", "properties": { "index": "155", "last_edit_year": 2024, "years_since_edit": 2, "label": "1.5–5.5 yr", "color": "#a9db8e" }, "geometry": { "type": "Point", "coordinates": [ 8.7066904, 49.4113863 ] } },
{ "type": "Feature", "properties": { "index": "156", "last_edit_year": 2024, "years_since_edit": 2, "label": "1.5–5.5 yr", "color": "#a9db8e" }, "geometry": { "type": "Point", "coordinates": [ 8.7127594, 49.4122224 ] } },
{ "type": "Feature", "properties": { "index": "157", "last_edit_year": 2024, "years_since_edit": 2, "label": "1.5–5.5 yr", "color": "#a9db8e" }, "geometry": { "type": "Point", "coordinates": [ 8.6743102, 49.4178595 ] } },
{ "type": "Feature", "properties": { "index": "158", "last_edit_year": 2011, "years_since_edit": 15, "label": "10.5–15.0 yr", "color": "#006837" }, "geometry": { "type": "Point", "coordinates": [ 8.6886211, 49.4069167 ] } },
{ "type": "Feature", "properties": { "index": "159", "last_edit_year": 2025, "years_since_edit": 1, "label": "0.0–1.5 yr", "color": "#ffc" }, "geometry": { "type": "Point", "coordinates": [ 8.7116462, 49.4118266 ] } },
{ "type": "Feature", "properties": { "index": "160", "last_edit_year": 2024, "years_since_edit": 2, "label": "1.5–5.5 yr", "color": "#a9db8e" }, "geometry": { "type": "Point", "coordinates": [ 8.7052085, 49.4105445 ] } },
{ "type": "Feature", "properties": { "index": "161", "last_edit_year": 2025, "years_since_edit": 1, "label": "0.0–1.5 yr", "color": "#ffc" }, "geometry": { "type": "Point", "coordinates": [ 8.6842485, 49.4042418 ] } },
{ "type": "Feature", "properties": { "index": "162", "last_edit_year": 2015, "years_since_edit": 11, "label": "10.5–15.0 yr", "color": "#006837" }, "geometry": { "type": "Point", "coordinates": [ 8.7128936, 49.4093534 ] } },
{ "type": "Feature", "properties": { "index": "163", "last_edit_year": 2015, "years_since_edit": 11, "label": "10.5–15.0 yr", "color": "#006837" }, "geometry": { "type": "Point", "coordinates": [ 8.7114074, 49.4093935 ] } },
{ "type": "Feature", "properties": { "index": "164", "last_edit_year": 2025, "years_since_edit": 1, "label": "0.0–1.5 yr", "color": "#ffc" }, "geometry": { "type": "Point", "coordinates": [ 8.7191369, 49.4102478 ] } },
{ "type": "Feature", "properties": { "index": "165", "last_edit_year": 2012, "years_since_edit": 14, "label": "10.5–15.0 yr", "color": "#006837" }, "geometry": { "type": "Point", "coordinates": [ 8.7127841, 49.4092653 ] } },
{ "type": "Feature", "properties": { "index": "166", "last_edit_year": 2017, "years_since_edit": 9, "label": "5.5–10.5 yr", "color": "#49af60" }, "geometry": { "type": "Point", "coordinates": [ 8.71421, 49.4156663 ] } },
{ "type": "Feature", "properties": { "index": "167", "last_edit_year": 2013, "years_since_edit": 13, "label": "10.5–15.0 yr", "color": "#006837" }, "geometry": { "type": "Point", "coordinates": [ 8.6990129, 49.41213 ] } },
{ "type": "Feature", "properties": { "index": "168", "last_edit_year": 2015, "years_since_edit": 11, "label": "10.5–15.0 yr", "color": "#006837" }, "geometry": { "type": "Point", "coordinates": [ 8.7028078, 49.4116784 ] } },
{ "type": "Feature", "properties": { "index": "169", "last_edit_year": 2025, "years_since_edit": 1, "label": "0.0–1.5 yr", "color": "#ffc" }, "geometry": { "type": "Point", "coordinates": [ 8.6887219, 49.4079846 ] } },
{ "type": "Feature", "properties": { "index": "170", "last_edit_year": 2025, "years_since_edit": 1, "label": "0.0–1.5 yr", "color": "#ffc" }, "geometry": { "type": "Point", "coordinates": [ 8.708951, 49.4127586 ] } },
{ "type": "Feature", "properties": { "index": "171", "last_edit_year": 2026, "years_since_edit": 0, "label": "0.0–1.5 yr", "color": "#ffc" }, "geometry": { "type": "Point", "coordinates": [ 8.7151938, 49.4105299 ] } },
{ "type": "Feature", "properties": { "index": "172", "last_edit_year": 2015, "years_since_edit": 11, "label": "10.5–15.0 yr", "color": "#006837" }, "geometry": { "type": "Point", "coordinates": [ 8.7190962, 49.4105161 ] } },
{ "type": "Feature", "properties": { "index": "173", "last_edit_year": 2014, "years_since_edit": 12, "label": "10.5–15.0 yr", "color": "#006837" }, "geometry": { "type": "Point", "coordinates": [ 8.7069722, 49.410349 ] } },
{ "type": "Feature", "properties": { "index": "174", "last_edit_year": 2024, "years_since_edit": 2, "label": "1.5–5.5 yr", "color": "#a9db8e" }, "geometry": { "type": "Point", "coordinates": [ 8.7081623, 49.4106945 ] } },
{ "type": "Feature", "properties": { "index": "175", "last_edit_year": 2025, "years_since_edit": 1, "label": "0.0–1.5 yr", "color": "#ffc" }, "geometry": { "type": "Point", "coordinates": [ 8.6843544, 49.4082021 ] } },
{ "type": "Feature", "properties": { "index": "176", "last_edit_year": 2018, "years_since_edit": 8, "label": "5.5–10.5 yr", "color": "#49af60" }, "geometry": { "type": "Point", "coordinates": [ 8.6709425, 49.3986516 ] } },
{ "type": "Feature", "properties": { "index": "177", "last_edit_year": 2024, "years_since_edit": 2, "label": "1.5–5.5 yr", "color": "#a9db8e" }, "geometry": { "type": "Point", "coordinates": [ 8.6996109, 49.4092446 ] } },
{ "type": "Feature", "properties": { "index": "178", "last_edit_year": 2025, "years_since_edit": 1, "label": "0.0–1.5 yr", "color": "#ffc" }, "geometry": { "type": "Point", "coordinates": [ 8.671097, 49.4126826 ] } },
{ "type": "Feature", "properties": { "index": "179", "last_edit_year": 2024, "years_since_edit": 2, "label": "1.5–5.5 yr", "color": "#a9db8e" }, "geometry": { "type": "Point", "coordinates": [ 8.7108724, 49.4109335 ] } },
{ "type": "Feature", "properties": { "index": "180", "last_edit_year": 2024, "years_since_edit": 2, "label": "1.5–5.5 yr", "color": "#a9db8e" }, "geometry": { "type": "Point", "coordinates": [ 8.6957273, 49.4098894 ] } },
{ "type": "Feature", "properties": { "index": "181", "last_edit_year": 2026, "years_since_edit": 0, "label": "0.0–1.5 yr", "color": "#ffc" }, "geometry": { "type": "Point", "coordinates": [ 8.6758306, 49.4172298 ] } },
{ "type": "Feature", "properties": { "index": "182", "last_edit_year": 2026, "years_since_edit": 0, "label": "0.0–1.5 yr", "color": "#ffc" }, "geometry": { "type": "Point", "coordinates": [ 8.6842526, 49.4086404 ] } },
{ "type": "Feature", "properties": { "index": "183", "last_edit_year": 2025, "years_since_edit": 1, "label": "0.0–1.5 yr", "color": "#ffc" }, "geometry": { "type": "Point", "coordinates": [ 8.6967402, 49.408115 ] } },
{ "type": "Feature", "properties": { "index": "184", "last_edit_year": 2024, "years_since_edit": 2, "label": "1.5–5.5 yr", "color": "#a9db8e" }, "geometry": { "type": "Point", "coordinates": [ 8.6799684, 49.4141257 ] } },
{ "type": "Feature", "properties": { "index": "185", "last_edit_year": 2024, "years_since_edit": 2, "label": "1.5–5.5 yr", "color": "#a9db8e" }, "geometry": { "type": "Point", "coordinates": [ 8.6718001, 49.40816 ] } },
{ "type": "Feature", "properties": { "index": "186", "last_edit_year": 2025, "years_since_edit": 1, "label": "0.0–1.5 yr", "color": "#ffc" }, "geometry": { "type": "Point", "coordinates": [ 8.7058892, 49.4097516 ] } },
{ "type": "Feature", "properties": { "index": "187", "last_edit_year": 2024, "years_since_edit": 2, "label": "1.5–5.5 yr", "color": "#a9db8e" }, "geometry": { "type": "Point", "coordinates": [ 8.7132063, 49.4128998 ] } },
{ "type": "Feature", "properties": { "index": "188", "last_edit_year": 2017, "years_since_edit": 9, "label": "5.5–10.5 yr", "color": "#49af60" }, "geometry": { "type": "Point", "coordinates": [ 8.706947, 49.4084981 ] } },
{ "type": "Feature", "properties": { "index": "189", "last_edit_year": 2017, "years_since_edit": 9, "label": "5.5–10.5 yr", "color": "#49af60" }, "geometry": { "type": "Point", "coordinates": [ 8.6939852, 49.4114228 ] } },
{ "type": "Feature", "properties": { "index": "190", "last_edit_year": 2025, "years_since_edit": 1, "label": "0.0–1.5 yr", "color": "#ffc" }, "geometry": { "type": "Point", "coordinates": [ 8.7083167, 49.4124781 ] } },
{ "type": "Feature", "properties": { "index": "191", "last_edit_year": 2017, "years_since_edit": 9, "label": "5.5–10.5 yr", "color": "#49af60" }, "geometry": { "type": "Point", "coordinates": [ 8.6952671, 49.407526 ] } },
{ "type": "Feature", "properties": { "index": "192", "last_edit_year": 2024, "years_since_edit": 2, "label": "1.5–5.5 yr", "color": "#a9db8e" }, "geometry": { "type": "Point", "coordinates": [ 8.7078944, 49.4110783 ] } },
{ "type": "Feature", "properties": { "index": "193", "last_edit_year": 2024, "years_since_edit": 2, "label": "1.5–5.5 yr", "color": "#a9db8e" }, "geometry": { "type": "Point", "coordinates": [ 8.6969452, 49.4087285 ] } },
{ "type": "Feature", "properties": { "index": "194", "last_edit_year": 2024, "years_since_edit": 2, "label": "1.5–5.5 yr", "color": "#a9db8e" }, "geometry": { "type": "Point", "coordinates": [ 8.6946105, 49.4070313 ] } },
{ "type": "Feature", "properties": { "index": "195", "last_edit_year": 2024, "years_since_edit": 2, "label": "1.5–5.5 yr", "color": "#a9db8e" }, "geometry": { "type": "Point", "coordinates": [ 8.6629719, 49.4146448 ] } },
{ "type": "Feature", "properties": { "index": "196", "last_edit_year": 2024, "years_since_edit": 2, "label": "1.5–5.5 yr", "color": "#a9db8e" }, "geometry": { "type": "Point", "coordinates": [ 8.6621808, 49.4147415 ] } },
{ "type": "Feature", "properties": { "index": "197", "last_edit_year": 2025, "years_since_edit": 1, "label": "0.0–1.5 yr", "color": "#ffc" }, "geometry": { "type": "Point", "coordinates": [ 8.6900756, 49.410055 ] } },
{ "type": "Feature", "properties": { "index": "198", "last_edit_year": 2024, "years_since_edit": 2, "label": "1.5–5.5 yr", "color": "#a9db8e" }, "geometry": { "type": "Point", "coordinates": [ 8.711143, 49.413275 ] } },
{ "type": "Feature", "properties": { "index": "199", "last_edit_year": 2020, "years_since_edit": 6, "label": "5.5–10.5 yr", "color": "#49af60" }, "geometry": { "type": "Point", "coordinates": [ 8.7068152, 49.4085823 ] } },
{ "type": "Feature", "properties": { "index": "200", "last_edit_year": 2025, "years_since_edit": 1, "label": "0.0–1.5 yr", "color": "#ffc" }, "geometry": { "type": "Point", "coordinates": [ 8.6903679, 49.4144617 ] } },
{ "type": "Feature", "properties": { "index": "201", "last_edit_year": 2024, "years_since_edit": 2, "label": "1.5–5.5 yr", "color": "#a9db8e" }, "geometry": { "type": "Point", "coordinates": [ 8.6719553, 49.4139718 ] } },
{ "type": "Feature", "properties": { "index": "202", "last_edit_year": 2021, "years_since_edit": 5, "label": "1.5–5.5 yr", "color": "#a9db8e" }, "geometry": { "type": "Point", "coordinates": [ 8.7040365, 49.4106805 ] } },
{ "type": "Feature", "properties": { "index": "203", "last_edit_year": 2024, "years_since_edit": 2, "label": "1.5–5.5 yr", "color": "#a9db8e" }, "geometry": { "type": "Point", "coordinates": [ 8.6844055, 49.4089082 ] } },
{ "type": "Feature", "properties": { "index": "204", "last_edit_year": 2024, "years_since_edit": 2, "label": "1.5–5.5 yr", "color": "#a9db8e" }, "geometry": { "type": "Point", "coordinates": [ 8.6870761, 49.4001259 ] } },
{ "type": "Feature", "properties": { "index": "205", "last_edit_year": 2025, "years_since_edit": 1, "label": "0.0–1.5 yr", "color": "#ffc" }, "geometry": { "type": "Point", "coordinates": [ 8.6943277, 49.4064039 ] } },
{ "type": "Feature", "properties": { "index": "206", "last_edit_year": 2024, "years_since_edit": 2, "label": "1.5–5.5 yr", "color": "#a9db8e" }, "geometry": { "type": "Point", "coordinates": [ 8.7050734, 49.4110692 ] } },
{ "type": "Feature", "properties": { "index": "207", "last_edit_year": 2024, "years_since_edit": 2, "label": "1.5–5.5 yr", "color": "#a9db8e" }, "geometry": { "type": "Point", "coordinates": [ 8.6728434, 49.4125298 ] } },
{ "type": "Feature", "properties": { "index": "208", "last_edit_year": 2026, "years_since_edit": 0, "label": "0.0–1.5 yr", "color": "#ffc" }, "geometry": { "type": "Point", "coordinates": [ 8.671396, 49.4092295 ] } },
{ "type": "Feature", "properties": { "index": "209", "last_edit_year": 2026, "years_since_edit": 0, "label": "0.0–1.5 yr", "color": "#ffc" }, "geometry": { "type": "Point", "coordinates": [ 8.6715844, 49.409281 ] } },
{ "type": "Feature", "properties": { "index": "210", "last_edit_year": 2026, "years_since_edit": 0, "label": "0.0–1.5 yr", "color": "#ffc" }, "geometry": { "type": "Point", "coordinates": [ 8.6911774, 49.4068121 ] } },
{ "type": "Feature", "properties": { "index": "211", "last_edit_year": 2025, "years_since_edit": 1, "label": "0.0–1.5 yr", "color": "#ffc" }, "geometry": { "type": "Point", "coordinates": [ 8.698025, 49.4083541 ] } },
{ "type": "Feature", "properties": { "index": "212", "last_edit_year": 2026, "years_since_edit": 0, "label": "0.0–1.5 yr", "color": "#ffc" }, "geometry": { "type": "Point", "coordinates": [ 8.6774382, 49.4077213 ] } },
{ "type": "Feature", "properties": { "index": "213", "last_edit_year": 2025, "years_since_edit": 1, "label": "0.0–1.5 yr", "color": "#ffc" }, "geometry": { "type": "Point", "coordinates": [ 8.6956524, 49.4102768 ] } },
{ "type": "Feature", "properties": { "index": "214", "last_edit_year": 2025, "years_since_edit": 1, "label": "0.0–1.5 yr", "color": "#ffc" }, "geometry": { "type": "Point", "coordinates": [ 8.673457, 49.4033608 ] } },
{ "type": "Feature", "properties": { "index": "215", "last_edit_year": 2025, "years_since_edit": 1, "label": "0.0–1.5 yr", "color": "#ffc" }, "geometry": { "type": "Point", "coordinates": [ 8.6901617, 49.4160192 ] } },
{ "type": "Feature", "properties": { "index": "216", "last_edit_year": 2025, "years_since_edit": 1, "label": "0.0–1.5 yr", "color": "#ffc" }, "geometry": { "type": "Point", "coordinates": [ 8.6801557, 49.4089995 ] } },
{ "type": "Feature", "properties": { "index": "217", "last_edit_year": 2025, "years_since_edit": 1, "label": "0.0–1.5 yr", "color": "#ffc" }, "geometry": { "type": "Point", "coordinates": [ 8.6901673, 49.4030151 ] } },
{ "type": "Feature", "properties": { "index": "218", "last_edit_year": 2025, "years_since_edit": 1, "label": "0.0–1.5 yr", "color": "#ffc" }, "geometry": { "type": "Point", "coordinates": [ 8.6663095, 49.417393 ] } },
{ "type": "Feature", "properties": { "index": "219", "last_edit_year": 2026, "years_since_edit": 0, "label": "0.0–1.5 yr", "color": "#ffc" }, "geometry": { "type": "Point", "coordinates": [ 8.7045642, 49.4124913 ] } },
{ "type": "Feature", "properties": { "index": "220", "last_edit_year": 2026, "years_since_edit": 0, "label": "0.0–1.5 yr", "color": "#ffc" }, "geometry": { "type": "Point", "coordinates": [ 8.6754916, 49.4073796 ] } },
{ "type": "Feature", "properties": { "index": "221", "last_edit_year": 2026, "years_since_edit": 0, "label": "0.0–1.5 yr", "color": "#ffc" }, "geometry": { "type": "Point", "coordinates": [ 8.6752306, 49.4073832 ] } },
{ "type": "Feature", "properties": { "index": "222", "last_edit_year": 2026, "years_since_edit": 0, "label": "0.0–1.5 yr", "color": "#ffc" }, "geometry": { "type": "Point", "coordinates": [ 8.6898795, 49.4143881 ] } },
{ "type": "Feature", "properties": { "index": "223", "last_edit_year": 2026, "years_since_edit": 0, "label": "0.0–1.5 yr", "color": "#ffc" }, "geometry": { "type": "Point", "coordinates": [ 8.6818978, 49.408535 ] } }
]
}
