{
"type": "FeatureCollection",
"features": [
{ "type": "Feature", "properties": { "index": "0", "subarea": "Bahnstadt", "count": 19, "area_km2": 0.884, "density_per_km2": 21.49, "label": "19.2–29.8/km²", "color": "#5cb86a" }, "geometry": { "type": "Polygon", "coordinates": [ [ [ 8.6762736, 49.4032202 ], [ 8.6702315, 49.4055374 ], [ 8.6694036, 49.405746 ], [ 8.66702, 49.4063408 ], [ 8.6654302, 49.4068041 ], [ 8.6626557, 49.4074932 ], [ 8.6613186, 49.4077805 ], [ 8.66, 49.4078214 ], [ 8.66, 49.4037838 ], [ 8.6600628, 49.4037505 ], [ 8.6610884, 49.4031303 ], [ 8.6629797, 49.4020533 ], [ 8.6654899, 49.4008023 ], [ 8.6665524, 49.398 ], [ 8.6737318, 49.398 ], [ 8.6755034, 49.398956 ], [ 8.6776064, 49.4000289 ], [ 8.679977, 49.4013023 ], [ 8.6762736, 49.4032202 ] ] ] } },
{ "type": "Feature", "properties": { "index": "1", "subarea": "Bergheim", "count": 44, "area_km2": 1.32, "density_per_km2": 33.34, "label": "29.8–53.1/km²", "color": "#27974e" }, "geometry": { "type": "Polygon", "coordinates": [ [ [ 8.6694036, 49.405746 ], [ 8.6702315, 49.4055374 ], [ 8.6706672, 49.4056958 ], [ 8.6771, 49.40437 ], [ 8.6781505, 49.4043169 ], [ 8.6794353, 49.4044425 ], [ 8.6811172, 49.404832 ], [ 8.6825218, 49.4050737 ], [ 8.683802, 49.4052872 ], [ 8.68525, 49.4057291 ], [ 8.6861983, 49.4059543 ], [ 8.6909524, 49.4067881 ], [ 8.6940124, 49.4074216 ], [ 8.6933304, 49.4096429 ], [ 8.6923882, 49.4119124 ], [ 8.6901562, 49.4117607 ], [ 8.6864507, 49.411243 ], [ 8.6824403, 49.4107507 ], [ 8.6790205, 49.4104176 ], [ 8.6763928, 49.410229 ], [ 8.6720434, 49.4103115 ], [ 8.667241, 49.4107242 ], [ 8.6642689, 49.411243 ], [ 8.6618132, 49.4117661 ], [ 8.66, 49.4117098 ], [ 8.66, 49.4097942 ], [ 8.6628645, 49.4087337 ], [ 8.6626557, 49.4074932 ], [ 8.6654302, 49.4068041 ], [ 8.66702, 49.4063408 ], [ 8.6694036, 49.405746 ] ] ] } },
{ "type": "Feature", "properties": { "index": "2", "subarea": "Südstadt", "count": 1, "area_km2": 0.014, "density_per_km2": 72.84, "label": "53.1–72.8/km²", "color": "#006837" }, "geometry": { "type": "Polygon", "coordinates": [ [ [ 8.6888179, 49.398172 ], [ 8.6888165, 49.398 ], [ 8.6917586, 49.398 ], [ 8.6907796, 49.3987863 ], [ 8.6888212, 49.3985573 ], [ 8.6888179, 49.398172 ] ] ] } },
{ "type": "Feature", "properties": { "index": "3", "subarea": "Weststadt", "count": 22, "area_km2": 1.304, "density_per_km2": 16.87, "label": "7.5–19.2/km²", "color": "#96d386" }, "geometry": { "type": "Polygon", "coordinates": [ [ [ 8.6755034, 49.398956 ], [ 8.6737318, 49.398 ], [ 8.6888165, 49.398 ], [ 8.6888179, 49.398172 ], [ 8.6888212, 49.3985573 ], [ 8.6907796, 49.3987863 ], [ 8.6917586, 49.398 ], [ 8.6975422, 49.398 ], [ 8.6974621, 49.3989314 ], [ 8.6980395, 49.3998569 ], [ 8.6977022, 49.4002296 ], [ 8.6979111, 49.4005886 ], [ 8.6972486, 49.4019298 ], [ 8.6972507, 49.4026923 ], [ 8.6988467, 49.4043806 ], [ 8.6982886, 49.404777 ], [ 8.696815, 49.4043283 ], [ 8.6960453, 49.4049983 ], [ 8.6949797, 49.4054052 ], [ 8.694901, 49.4056062 ], [ 8.6955437, 49.4060117 ], [ 8.6954691, 49.4066993 ], [ 8.6941514, 49.4068127 ], [ 8.6940124, 49.4074216 ], [ 8.6909524, 49.4067881 ], [ 8.6861983, 49.4059543 ], [ 8.68525, 49.4057291 ], [ 8.683802, 49.4052872 ], [ 8.6825218, 49.4050737 ], [ 8.6811172, 49.404832 ], [ 8.6794353, 49.4044425 ], [ 8.6781505, 49.4043169 ], [ 8.6771, 49.40437 ], [ 8.6706672, 49.4056958 ], [ 8.6702315, 49.4055374 ], [ 8.6762736, 49.4032202 ], [ 8.679977, 49.4013023 ], [ 8.6776064, 49.4000289 ], [ 8.6755034, 49.398956 ] ] ] } },
{ "type": "Feature", "properties": { "index": "4", "subarea": "Schlierbach", "count": 0, "area_km2": 0.025, "density_per_km2": 0.0, "label": "0.0–0.9/km²", "color": "#ffc" }, "geometry": { "type": "Polygon", "coordinates": [ [ [ 8.7199692, 49.4129087 ], [ 8.72, 49.4129241 ], [ 8.72, 49.4157582 ], [ 8.7199518, 49.4157419 ], [ 8.7188713, 49.4154501 ], [ 8.7196735, 49.4146172 ], [ 8.7177623, 49.4134623 ], [ 8.7186209, 49.4128726 ], [ 8.7193769, 49.4131734 ], [ 8.7199692, 49.4129087 ] ] ] } },
{ "type": "Feature", "properties": { "index": "5", "subarea": "Pfaffengrund", "count": 0, "area_km2": 0.199, "density_per_km2": 0.0, "label": "0.0–0.9/km²", "color": "#ffc" }, "geometry": { "type": "Polygon", "coordinates": [ [ [ 8.6600628, 49.4037505 ], [ 8.66, 49.4037838 ], [ 8.66, 49.398 ], [ 8.6665524, 49.398 ], [ 8.6654899, 49.4008023 ], [ 8.6629797, 49.4020533 ], [ 8.6610884, 49.4031303 ], [ 8.6600628, 49.4037505 ] ] ] } },
{ "type": "Feature", "properties": { "index": "6", "subarea": "Handschuhsheim", "count": 1, "area_km2": 0.545, "density_per_km2": 1.84, "label": "0.9–7.5/km²", "color": "#ceeba3" }, "geometry": { "type": "MultiPolygon", "coordinates": [ [ [ [ 8.6892747, 49.4214909 ], [ 8.6893419, 49.422 ], [ 8.66, 49.422 ], [ 8.66, 49.4177804 ], [ 8.6606292, 49.4179068 ], [ 8.6608011, 49.4181985 ], [ 8.6627004, 49.4186748 ], [ 8.664417, 49.4190168 ], [ 8.6646466, 49.4190247 ], [ 8.667544, 49.4191241 ], [ 8.6706396, 49.4195992 ], [ 8.6710316, 49.4196029 ], [ 8.671896, 49.4196111 ], [ 8.672134, 49.4196133 ], [ 8.6748692, 49.4196392 ], [ 8.6750976, 49.4196414 ], [ 8.6765711, 49.4196299 ], [ 8.6787319, 49.419785 ], [ 8.68064, 49.420068 ], [ 8.6813195, 49.4201891 ], [ 8.6824392, 49.4203887 ], [ 8.6832206, 49.420528 ], [ 8.684279, 49.4207093 ], [ 8.6848266, 49.4207965 ], [ 8.6856991, 49.420935 ], [ 8.6861485, 49.420985 ], [ 8.6867342, 49.4210534 ], [ 8.6874144, 49.4211428 ], [ 8.6878079, 49.4211725 ], [ 8.6888054, 49.4212841 ], [ 8.6892542, 49.4213356 ], [ 8.6892747, 49.4214909 ] ] ], [ [ [ 8.698506, 49.4219691 ], [ 8.702308, 49.422 ], [ 8.698441, 49.422 ], [ 8.698506, 49.4219691 ] ] ], [ [ [ 8.7064854, 49.4219849 ], [ 8.7083243, 49.422 ], [ 8.7051358, 49.422 ], [ 8.7047185, 49.4216371 ], [ 8.7048363, 49.4213247 ], [ 8.7061773, 49.4211538 ], [ 8.7061275, 49.4216872 ], [ 8.7064854, 49.4219849 ] ] ] ] } },
{ "type": "Feature", "properties": { "index": "7", "subarea": "Altstadt", "count": 81, "area_km2": 3.086, "density_per_km2": 26.24, "label": "19.2–29.8/km²", "color": "#5cb86a" }, "geometry": { "type": "Polygon", "coordinates": [ [ [ 8.6974621, 49.3989314 ], [ 8.6975422, 49.398 ], [ 8.72, 49.398 ], [ 8.72, 49.4129241 ], [ 8.7199692, 49.4129087 ], [ 8.7193769, 49.4131734 ], [ 8.7186209, 49.4128726 ], [ 8.7177623, 49.4134623 ], [ 8.7196735, 49.4146172 ], [ 8.7188713, 49.4154501 ], [ 8.7161282, 49.4147558 ], [ 8.7147332, 49.4144933 ], [ 8.7117089, 49.4142139 ], [ 8.7087958, 49.41404 ], [ 8.7069548, 49.4138931 ], [ 8.705039, 49.4136718 ], [ 8.7012992, 49.4131487 ], [ 8.6966098, 49.4124425 ], [ 8.694138, 49.412126 ], [ 8.6923882, 49.4119124 ], [ 8.6933304, 49.4096429 ], [ 8.6940124, 49.4074216 ], [ 8.6941514, 49.4068127 ], [ 8.6954691, 49.4066993 ], [ 8.6955437, 49.4060117 ], [ 8.694901, 49.4056062 ], [ 8.6949797, 49.4054052 ], [ 8.6960453, 49.4049983 ], [ 8.696815, 49.4043283 ], [ 8.6982886, 49.404777 ], [ 8.6988467, 49.4043806 ], [ 8.6972507, 49.4026923 ], [ 8.6972486, 49.4019298 ], [ 8.6979111, 49.4005886 ], [ 8.6977022, 49.4002296 ], [ 8.6980395, 49.3998569 ], [ 8.6974621, 49.3989314 ] ] ] } },
{ "type": "Feature", "properties": { "index": "8", "subarea": "Neuenheim", "count": 55, "area_km2": 4.195, "density_per_km2": 13.11, "label": "7.5–19.2/km²", "color": "#96d386" }, "geometry": { "type": "Polygon", "coordinates": [ [ [ 8.698506, 49.4219691 ], [ 8.698441, 49.422 ], [ 8.6893419, 49.422 ], [ 8.6892747, 49.4214909 ], [ 8.6892542, 49.4213356 ], [ 8.6888054, 49.4212841 ], [ 8.6878079, 49.4211725 ], [ 8.6874144, 49.4211428 ], [ 8.6867342, 49.4210534 ], [ 8.6861485, 49.420985 ], [ 8.6856991, 49.420935 ], [ 8.6848266, 49.4207965 ], [ 8.684279, 49.4207093 ], [ 8.6832206, 49.420528 ], [ 8.6824392, 49.4203887 ], [ 8.6813195, 49.4201891 ], [ 8.68064, 49.420068 ], [ 8.6787319, 49.419785 ], [ 8.6765711, 49.4196299 ], [ 8.6750976, 49.4196414 ], [ 8.6748692, 49.4196392 ], [ 8.672134, 49.4196133 ], [ 8.671896, 49.4196111 ], [ 8.6710316, 49.4196029 ], [ 8.6706396, 49.4195992 ], [ 8.667544, 49.4191241 ], [ 8.6646466, 49.4190247 ], [ 8.664417, 49.4190168 ], [ 8.6627004, 49.4186748 ], [ 8.6608011, 49.4181985 ], [ 8.6606292, 49.4179068 ], [ 8.66, 49.4177804 ], [ 8.66, 49.4125945 ], [ 8.6604534, 49.4123368 ], [ 8.6618132, 49.4117661 ], [ 8.6642689, 49.411243 ], [ 8.667241, 49.4107242 ], [ 8.6720434, 49.4103115 ], [ 8.6763928, 49.410229 ], [ 8.6790205, 49.4104176 ], [ 8.6824403, 49.4107507 ], [ 8.6864507, 49.411243 ], [ 8.6901562, 49.4117607 ], [ 8.6923882, 49.4119124 ], [ 8.694138, 49.412126 ], [ 8.6966098, 49.4124425 ], [ 8.7012992, 49.4131487 ], [ 8.705039, 49.4136718 ], [ 8.7069548, 49.4138931 ], [ 8.7087958, 49.41404 ], [ 8.7117089, 49.4142139 ], [ 8.7147332, 49.4144933 ], [ 8.7161282, 49.4147558 ], [ 8.7188713, 49.4154501 ], [ 8.7199518, 49.4157419 ], [ 8.72, 49.4157582 ], [ 8.72, 49.422 ], [ 8.7083243, 49.422 ], [ 8.7064854, 49.4219849 ], [ 8.7061275, 49.4216872 ], [ 8.7061773, 49.4211538 ], [ 8.7048363, 49.4213247 ], [ 8.7047185, 49.4216371 ], [ 8.7051358, 49.422 ], [ 8.702308, 49.422 ], [ 8.698506, 49.4219691 ] ] ] } },
{ "type": "Feature", "properties": { "index": "9", "subarea": "Wieblingen", "count": 1, "area_km2": 0.041, "density_per_km2": 24.31, "label": "19.2–29.8/km²", "color": "#5cb86a" }, "geometry": { "type": "MultiPolygon", "coordinates": [ [ [ [ 8.6604534, 49.4123368 ], [ 8.66, 49.4125945 ], [ 8.66, 49.4117098 ], [ 8.6618132, 49.4117661 ], [ 8.6604534, 49.4123368 ] ] ], [ [ [ 8.6628645, 49.4087337 ], [ 8.66, 49.4097942 ], [ 8.66, 49.4078214 ], [ 8.6613186, 49.4077805 ], [ 8.6626557, 49.4074932 ], [ 8.6628645, 49.4087337 ] ] ] ] } }
]
}
