{
"type": "FeatureCollection",
"features": [
{ "type": "Feature", "properties": { "index": "0", "label": "Within 300 m on foot", "color": "#2b8cbe" }, "geometry": { "type": "Polygon", "coordinates": [ [ [ 39.2725428, -6.8199309 ], [ 39.2728064, -6.8198916 ], [ 39.2730648, -6.8198268 ], [ 39.2733156, -6.8197369 ], [ 39.2733632, -6.8197144 ], [ 39.273465, -6.8196779 ], [ 39.2737058, -6.8195639 ], [ 39.2739343, -6.8194269 ], [ 39.2741482, -6.8192681 ], [ 39.2743455, -6.8190891 ], [ 39.2745244, -6.8188917 ], [ 39.2746829, -6.8186777 ], [ 39.2747771, -6.8185205 ], [ 39.2748631, -6.8184255 ], [ 39.2750217, -6.8182115 ], [ 39.2751586, -6.817983 ], [ 39.2752724, -6.8177422 ], [ 39.275362, -6.8174914 ], [ 39.2754266, -6.817233 ], [ 39.2754655, -6.8169696 ], [ 39.2754785, -6.8167036 ], [ 39.2754652, -6.8164376 ], [ 39.275426, -6.8161742 ], [ 39.2753611, -6.8159159 ], [ 39.2752712, -6.8156652 ], [ 39.2751571, -6.8154245 ], [ 39.27502, -6.8151961 ], [ 39.2748612, -6.8149823 ], [ 39.2746821, -6.8147851 ], [ 39.2744846, -6.8146063 ], [ 39.2742705, -6.8144478 ], [ 39.2740419, -6.814311 ], [ 39.273801, -6.8141973 ], [ 39.2735501, -6.8141077 ], [ 39.2732916, -6.8140432 ], [ 39.273028, -6.8140042 ], [ 39.2727619, -6.8139913 ], [ 39.2724958, -6.8140045 ], [ 39.2722322, -6.8140438 ], [ 39.2721913, -6.814054 ], [ 39.272134, -6.8140626 ], [ 39.2718756, -6.8141274 ], [ 39.2716248, -6.8142173 ], [ 39.271384, -6.8143313 ], [ 39.2711555, -6.8144683 ], [ 39.2709416, -6.8146271 ], [ 39.2707443, -6.814806 ], [ 39.2705655, -6.8150035 ], [ 39.2704069, -6.8152175 ], [ 39.2703416, -6.8153265 ], [ 39.2701755, -6.8155099 ], [ 39.2700169, -6.8157239 ], [ 39.26988, -6.8159524 ], [ 39.2697662, -6.8161932 ], [ 39.2696766, -6.816444 ], [ 39.269612, -6.8167024 ], [ 39.2695731, -6.8169658 ], [ 39.2695601, -6.8172318 ], [ 39.2695734, -6.8174978 ], [ 39.2696126, -6.8177612 ], [ 39.2696775, -6.8180195 ], [ 39.2697674, -6.8182702 ], [ 39.2698814, -6.8185109 ], [ 39.2700186, -6.8187393 ], [ 39.2701774, -6.8189531 ], [ 39.2703564, -6.8191503 ], [ 39.270554, -6.819329 ], [ 39.2707681, -6.8194876 ], [ 39.2709967, -6.8196244 ], [ 39.2712376, -6.8197381 ], [ 39.2714885, -6.8198277 ], [ 39.271747, -6.8198922 ], [ 39.2720106, -6.8199312 ], [ 39.2722767, -6.8199441 ], [ 39.2725428, -6.8199309 ] ] ] } },
{ "type": "Feature", "properties": { "index": "1", "label": "Beyond 300 m", "color": "#d9d9d9" }, "geometry": { "type": "Polygon", "coordinates": [ [ [ 39.22, -6.78 ], [ 39.22, -6.85 ], [ 39.3, -6.85 ], [ 39.3, -6.78 ], [ 39.22, -6.78 ] ], [ [ 39.2733156, -6.8197369 ], [ 39.2730648, -6.8198268 ], [ 39.2728064, -6.8198916 ], [ 39.2725428, -6.8199309 ], [ 39.2722767, -6.8199441 ], [ 39.2720106, -6.8199312 ], [ 39.271747, -6.8198922 ], [ 39.2714885, -6.8198277 ], [ 39.2712376, -6.8197381 ], [ 39.2709967, -6.8196244 ], [ 39.2707681, -6.8194876 ], [ 39.270554, -6.819329 ], [ 39.2703564, -6.8191503 ], [ 39.2701774, -6.8189531 ], [ 39.2700186, -6.8187393 ], [ 39.2698814, -6.8185109 ], [ 39.2697674, -6.8182702 ], [ 39.2696775, -6.8180195 ], [ 39.2696126, -6.8177612 ], [ 39.2695734, -6.8174978 ], [ 39.2695601, -6.8172318 ], [ 39.2695731, -6.8169658 ], [ 39.269612, -6.8167024 ], [ 39.2696766, -6.816444 ], [ 39.2697662, -6.8161932 ], [ 39.26988, -6.8159524 ], [ 39.2700169, -6.8157239 ], [ 39.2701755, -6.8155099 ], [ 39.2703416, -6.8153265 ], [ 39.2704069, -6.8152175 ], [ 39.2705655, -6.8150035 ], [ 39.2707443, -6.814806 ], [ 39.2709416, -6.8146271 ], [ 39.2711555, -6.8144683 ], [ 39.271384, -6.8143313 ], [ 39.2716248, -6.8142173 ], [ 39.2718756, -6.8141274 ], [ 39.272134, -6.8140626 ], [ 39.2721913, -6.814054 ], [ 39.2722322, -6.8140438 ], [ 39.2724958, -6.8140045 ], [ 39.2727619, -6.8139913 ], [ 39.273028, -6.8140042 ], [ 39.2732916, -6.8140432 ], [ 39.2735501, -6.8141077 ], [ 39.273801, -6.8141973 ], [ 39.2740419, -6.814311 ], [ 39.2742705, -6.8144478 ], [ 39.2744846, -6.8146063 ], [ 39.2746821, -6.8147851 ], [ 39.2748612, -6.8149823 ], [ 39.27502, -6.8151961 ], [ 39.2751571, -6.8154245 ], [ 39.2752712, -6.8156652 ], [ 39.2753611, -6.8159159 ], [ 39.275426, -6.8161742 ], [ 39.2754652, -6.8164376 ], [ 39.2754785, -6.8167036 ], [ 39.2754655, -6.8169696 ], [ 39.2754266, -6.817233 ], [ 39.275362, -6.8174914 ], [ 39.2752724, -6.8177422 ], [ 39.2751586, -6.817983 ], [ 39.2750217, -6.8182115 ], [ 39.2748631, -6.8184255 ], [ 39.2747771, -6.8185205 ], [ 39.2746829, -6.8186777 ], [ 39.2745244, -6.8188917 ], [ 39.2743455, -6.8190891 ], [ 39.2741482, -6.8192681 ], [ 39.2739343, -6.8194269 ], [ 39.2737058, -6.8195639 ], [ 39.273465, -6.8196779 ], [ 39.2733632, -6.8197144 ], [ 39.2733156, -6.8197369 ] ] ] } }
]
}
