{
"type": "FeatureCollection",
"features": [
{ "type": "Feature", "properties": { "index": "0", "label": "Within 1500 m by bike", "color": "#2b8cbe" }, "geometry": { "type": "Polygon", "coordinates": [ [ [ 39.2736135, -6.8307331 ], [ 39.2749312, -6.830537 ], [ 39.2762233, -6.8302127 ], [ 39.2774775, -6.8297634 ], [ 39.277525, -6.8297409 ], [ 39.2776269, -6.8297044 ], [ 39.2788309, -6.8291343 ], [ 39.2799732, -6.8284491 ], [ 39.2810428, -6.8276553 ], [ 39.2820294, -6.8267604 ], [ 39.2829235, -6.8257733 ], [ 39.2837165, -6.8247033 ], [ 39.2837448, -6.8246561 ], [ 39.2840553, -6.8242371 ], [ 39.2847395, -6.8230945 ], [ 39.2853084, -6.8218904 ], [ 39.2857565, -6.8206364 ], [ 39.2860794, -6.8193446 ], [ 39.2862741, -6.8180273 ], [ 39.2863387, -6.8166972 ], [ 39.2862725, -6.8153673 ], [ 39.2860763, -6.8140502 ], [ 39.2857518, -6.8127587 ], [ 39.2853023, -6.8115053 ], [ 39.284732, -6.8103019 ], [ 39.2840464, -6.8091601 ], [ 39.2832522, -6.808091 ], [ 39.282357, -6.8071049 ], [ 39.2813694, -6.8062113 ], [ 39.2802989, -6.8054187 ], [ 39.2791558, -6.8047347 ], [ 39.2779512, -6.8041661 ], [ 39.2766967, -6.8037182 ], [ 39.2754042, -6.8033954 ], [ 39.2740863, -6.8032008 ], [ 39.2727557, -6.8031362 ], [ 39.2714252, -6.8032023 ], [ 39.2701075, -6.8033984 ], [ 39.2700666, -6.8034087 ], [ 39.2700094, -6.8034172 ], [ 39.2687173, -6.8037415 ], [ 39.2674632, -6.8041908 ], [ 39.2662592, -6.8047608 ], [ 39.265117, -6.805446 ], [ 39.2640474, -6.8062398 ], [ 39.2630608, -6.8071346 ], [ 39.2621667, -6.8081217 ], [ 39.2618575, -6.8085388 ], [ 39.2617767, -6.8086281 ], [ 39.2609837, -6.809698 ], [ 39.2602994, -6.8108406 ], [ 39.2597304, -6.8120446 ], [ 39.2592823, -6.8132986 ], [ 39.2589593, -6.8145905 ], [ 39.2587645, -6.8159077 ], [ 39.2586999, -6.8172378 ], [ 39.258766, -6.8185677 ], [ 39.2589621, -6.8198848 ], [ 39.2592865, -6.8211763 ], [ 39.259736, -6.8224298 ], [ 39.2603063, -6.8236332 ], [ 39.2609918, -6.824775 ], [ 39.261786, -6.8258441 ], [ 39.2626812, -6.8268303 ], [ 39.2636688, -6.827724 ], [ 39.2647394, -6.8285166 ], [ 39.2658824, -6.8292006 ], [ 39.2670871, -6.8297692 ], [ 39.2683417, -6.8302171 ], [ 39.2696342, -6.83054 ], [ 39.2709522, -6.8307346 ], [ 39.2722829, -6.8307992 ], [ 39.2736135, -6.8307331 ] ] ] } },
{ "type": "Feature", "properties": { "index": "1", "label": "Beyond 1500 m", "color": "#d9d9d9" }, "geometry": { "type": "Polygon", "coordinates": [ [ [ 39.22, -6.78 ], [ 39.22, -6.85 ], [ 39.3, -6.85 ], [ 39.3, -6.78 ], [ 39.22, -6.78 ] ], [ [ 39.2774775, -6.8297634 ], [ 39.2762233, -6.8302127 ], [ 39.2749312, -6.830537 ], [ 39.2736135, -6.8307331 ], [ 39.2722829, -6.8307992 ], [ 39.2709522, -6.8307346 ], [ 39.2696342, -6.83054 ], [ 39.2683417, -6.8302171 ], [ 39.2670871, -6.8297692 ], [ 39.2658824, -6.8292006 ], [ 39.2647394, -6.8285166 ], [ 39.2636688, -6.827724 ], [ 39.2626812, -6.8268303 ], [ 39.261786, -6.8258441 ], [ 39.2609918, -6.824775 ], [ 39.2603063, -6.8236332 ], [ 39.259736, -6.8224298 ], [ 39.2592865, -6.8211763 ], [ 39.2589621, -6.8198848 ], [ 39.258766, -6.8185677 ], [ 39.2586999, -6.8172378 ], [ 39.2587645, -6.8159077 ], [ 39.2589593, -6.8145905 ], [ 39.2592823, -6.8132986 ], [ 39.2597304, -6.8120446 ], [ 39.2602994, -6.8108406 ], [ 39.2609837, -6.809698 ], [ 39.2617767, -6.8086281 ], [ 39.2618575, -6.8085388 ], [ 39.2621667, -6.8081217 ], [ 39.2630608, -6.8071346 ], [ 39.2640474, -6.8062398 ], [ 39.265117, -6.805446 ], [ 39.2662592, -6.8047608 ], [ 39.2674632, -6.8041908 ], [ 39.2687173, -6.8037415 ], [ 39.2700094, -6.8034172 ], [ 39.2700666, -6.8034087 ], [ 39.2701075, -6.8033984 ], [ 39.2714252, -6.8032023 ], [ 39.2727557, -6.8031362 ], [ 39.2740863, -6.8032008 ], [ 39.2754042, -6.8033954 ], [ 39.2766967, -6.8037182 ], [ 39.2779512, -6.8041661 ], [ 39.2791558, -6.8047347 ], [ 39.2802989, -6.8054187 ], [ 39.2813694, -6.8062113 ], [ 39.282357, -6.8071049 ], [ 39.2832522, -6.808091 ], [ 39.2840464, -6.8091601 ], [ 39.284732, -6.8103019 ], [ 39.2853023, -6.8115053 ], [ 39.2857518, -6.8127587 ], [ 39.2860763, -6.8140502 ], [ 39.2862725, -6.8153673 ], [ 39.2863387, -6.8166972 ], [ 39.2862741, -6.8180273 ], [ 39.2860794, -6.8193446 ], [ 39.2857565, -6.8206364 ], [ 39.2853084, -6.8218904 ], [ 39.2847395, -6.8230945 ], [ 39.2840553, -6.8242371 ], [ 39.2837448, -6.8246561 ], [ 39.2837165, -6.8247033 ], [ 39.2829235, -6.8257733 ], [ 39.2820294, -6.8267604 ], [ 39.2810428, -6.8276553 ], [ 39.2799732, -6.8284491 ], [ 39.2788309, -6.8291343 ], [ 39.2776269, -6.8297044 ], [ 39.277525, -6.8297409 ], [ 39.2774775, -6.8297634 ] ] ] } }
]
}
