{
"type": "FeatureCollection",
"features": [
{ "type": "Feature", "properties": { "index": "0", "subarea": "H0-0", "count": 0, "area_km2": 0.214, "density_per_km2": 0.0, "label": "0.0–4.6/km²", "color": "#54278f" }, "geometry": { "type": "Polygon", "coordinates": [ [ [ 39.2252021, -6.8500004 ], [ 39.2226107, -6.8455191 ], [ 39.22, -6.8455203 ], [ 39.22, -6.85 ], [ 39.2252021, -6.8500004 ] ] ] } },
{ "type": "Feature", "properties": { "index": "1", "subarea": "H0-1", "count": 0, "area_km2": 0.433, "density_per_km2": 0.0, "label": "0.0–4.6/km²", "color": "#54278f" }, "geometry": { "type": "Polygon", "coordinates": [ [ [ 39.2252213, -6.8409949 ], [ 39.2226065, -6.8364731 ], [ 39.22, -6.8364743 ], [ 39.22, -6.8455203 ], [ 39.2226107, -6.8455191 ], [ 39.2252213, -6.8409949 ] ] ] } },
{ "type": "Feature", "properties": { "index": "2", "subarea": "H0-2", "count": 0, "area_km2": 0.432, "density_per_km2": 0.0, "label": "0.0–4.6/km²", "color": "#54278f" }, "geometry": { "type": "Polygon", "coordinates": [ [ [ 39.2252171, -6.8319489 ], [ 39.2226023, -6.8274272 ], [ 39.22, -6.8274284 ], [ 39.22, -6.8364743 ], [ 39.2226065, -6.8364731 ], [ 39.2252171, -6.8319489 ] ] ] } },
{ "type": "Feature", "properties": { "index": "3", "subarea": "H0-3", "count": 0, "area_km2": 0.432, "density_per_km2": 0.0, "label": "0.0–4.6/km²", "color": "#54278f" }, "geometry": { "type": "Polygon", "coordinates": [ [ [ 39.2252128, -6.822903 ], [ 39.2225981, -6.8183812 ], [ 39.22, -6.8183824 ], [ 39.22, -6.8274284 ], [ 39.2226023, -6.8274272 ], [ 39.2252128, -6.822903 ] ] ] } },
{ "type": "Feature", "properties": { "index": "4", "subarea": "H0-4", "count": 0, "area_km2": 0.431, "density_per_km2": 0.0, "label": "0.0–4.6/km²", "color": "#54278f" }, "geometry": { "type": "Polygon", "coordinates": [ [ [ 39.2252086, -6.813857 ], [ 39.222594, -6.8093353 ], [ 39.22, -6.8093364 ], [ 39.22, -6.8183824 ], [ 39.2225981, -6.8183812 ], [ 39.2252086, -6.813857 ] ] ] } },
{ "type": "Feature", "properties": { "index": "5", "subarea": "H0-5", "count": 0, "area_km2": 0.431, "density_per_km2": 0.0, "label": "0.0–4.6/km²", "color": "#54278f" }, "geometry": { "type": "Polygon", "coordinates": [ [ [ 39.2252044, -6.8048111 ], [ 39.2225898, -6.8002893 ], [ 39.22, -6.8002905 ], [ 39.22, -6.8093364 ], [ 39.222594, -6.8093353 ], [ 39.2252044, -6.8048111 ] ] ] } },
{ "type": "Feature", "properties": { "index": "6", "subarea": "H0-6", "count": 0, "area_km2": 0.43, "density_per_km2": 0.0, "label": "0.0–4.6/km²", "color": "#54278f" }, "geometry": { "type": "Polygon", "coordinates": [ [ [ 39.2252002, -6.7957651 ], [ 39.2225856, -6.7912433 ], [ 39.22, -6.7912445 ], [ 39.22, -6.8002905 ], [ 39.2225898, -6.8002893 ], [ 39.2252002, -6.7957651 ] ] ] } },
{ "type": "Feature", "properties": { "index": "7", "subarea": "H0-7", "count": 0, "area_km2": 0.43, "density_per_km2": 0.0, "label": "0.0–4.6/km²", "color": "#54278f" }, "geometry": { "type": "Polygon", "coordinates": [ [ [ 39.225196, -6.7867191 ], [ 39.2225815, -6.7821973 ], [ 39.22, -6.7821985 ], [ 39.22, -6.7912445 ], [ 39.2225856, -6.7912433 ], [ 39.225196, -6.7867191 ] ] ] } },
{ "type": "Feature", "properties": { "index": "8", "subarea": "H0-8", "count": 0, "area_km2": 0.086, "density_per_km2": 0.0, "label": "0.0–4.6/km²", "color": "#54278f" }, "geometry": { "type": "Polygon", "coordinates": [ [ [ 39.22, -6.7821985 ], [ 39.2225815, -6.7821973 ], [ 39.2238491, -6.7800003 ], [ 39.22, -6.78 ], [ 39.22, -6.7821985 ] ] ] } },
{ "type": "Feature", "properties": { "index": "9", "subarea": "H1-0", "count": 0, "area_km2": 0.864, "density_per_km2": 0.0, "label": "0.0–4.6/km²", "color": "#54278f" }, "geometry": { "type": "Polygon", "coordinates": [ [ [ 39.2252213, -6.8409949 ], [ 39.2226107, -6.8455191 ], [ 39.2252021, -6.8500004 ], [ 39.2304728, -6.8500008 ], [ 39.2330616, -6.8455141 ], [ 39.2304467, -6.8409924 ], [ 39.2252213, -6.8409949 ] ] ] } },
{ "type": "Feature", "properties": { "index": "10", "subarea": "H1-1", "count": 0, "area_km2": 0.866, "density_per_km2": 0.0, "label": "0.0–4.6/km²", "color": "#54278f" }, "geometry": { "type": "Polygon", "coordinates": [ [ [ 39.2252213, -6.8409949 ], [ 39.2304467, -6.8409924 ], [ 39.2330572, -6.8364682 ], [ 39.2304424, -6.8319465 ], [ 39.2252171, -6.8319489 ], [ 39.2226065, -6.8364731 ], [ 39.2252213, -6.8409949 ] ] ] } },
{ "type": "Feature", "properties": { "index": "11", "subarea": "H1-2", "count": 0, "area_km2": 0.866, "density_per_km2": 0.0, "label": "0.0–4.6/km²", "color": "#54278f" }, "geometry": { "type": "Polygon", "coordinates": [ [ [ 39.2252171, -6.8319489 ], [ 39.2304424, -6.8319465 ], [ 39.2330528, -6.8274222 ], [ 39.2304381, -6.8229005 ], [ 39.2252128, -6.822903 ], [ 39.2226023, -6.8274272 ], [ 39.2252171, -6.8319489 ] ] ] } },
{ "type": "Feature", "properties": { "index": "12", "subarea": "H1-3", "count": 0, "area_km2": 0.866, "density_per_km2": 0.0, "label": "0.0–4.6/km²", "color": "#54278f" }, "geometry": { "type": "Polygon", "coordinates": [ [ [ 39.2252128, -6.822903 ], [ 39.2304381, -6.8229005 ], [ 39.2330485, -6.8183763 ], [ 39.2304337, -6.8138546 ], [ 39.2252086, -6.813857 ], [ 39.2225981, -6.8183812 ], [ 39.2252128, -6.822903 ] ] ] } },
{ "type": "Feature", "properties": { "index": "13", "subarea": "H1-4", "count": 0, "area_km2": 0.866, "density_per_km2": 0.0, "label": "0.0–4.6/km²", "color": "#54278f" }, "geometry": { "type": "Polygon", "coordinates": [ [ [ 39.2252086, -6.813857 ], [ 39.2304337, -6.8138546 ], [ 39.2330441, -6.8093303 ], [ 39.2304294, -6.8048086 ], [ 39.2252044, -6.8048111 ], [ 39.222594, -6.8093353 ], [ 39.2252086, -6.813857 ] ] ] } },
{ "type": "Feature", "properties": { "index": "14", "subarea": "H1-5", "count": 0, "area_km2": 0.866, "density_per_km2": 0.0, "label": "0.0–4.6/km²", "color": "#54278f" }, "geometry": { "type": "Polygon", "coordinates": [ [ [ 39.2252044, -6.8048111 ], [ 39.2304294, -6.8048086 ], [ 39.2330397, -6.8002844 ], [ 39.2304251, -6.7957626 ], [ 39.2252002, -6.7957651 ], [ 39.2225898, -6.8002893 ], [ 39.2252044, -6.8048111 ] ] ] } },
{ "type": "Feature", "properties": { "index": "15", "subarea": "H1-6", "count": 0, "area_km2": 0.866, "density_per_km2": 0.0, "label": "0.0–4.6/km²", "color": "#54278f" }, "geometry": { "type": "Polygon", "coordinates": [ [ [ 39.2252002, -6.7957651 ], [ 39.2304251, -6.7957626 ], [ 39.2330354, -6.7912384 ], [ 39.2304208, -6.7867167 ], [ 39.225196, -6.7867191 ], [ 39.2225856, -6.7912433 ], [ 39.2252002, -6.7957651 ] ] ] } },
{ "type": "Feature", "properties": { "index": "16", "subarea": "H1-7", "count": 0, "area_km2": 0.679, "density_per_km2": 0.0, "label": "0.0–4.6/km²", "color": "#54278f" }, "geometry": { "type": "Polygon", "coordinates": [ [ [ 39.2304208, -6.7867167 ], [ 39.233031, -6.7821924 ], [ 39.2317638, -6.7800008 ], [ 39.2238491, -6.7800003 ], [ 39.2225815, -6.7821973 ], [ 39.225196, -6.7867191 ], [ 39.2304208, -6.7867167 ] ] ] } },
{ "type": "Feature", "properties": { "index": "17", "subarea": "H2-0", "count": 0, "area_km2": 0.429, "density_per_km2": 0.0, "label": "0.0–4.6/km²", "color": "#54278f" }, "geometry": { "type": "Polygon", "coordinates": [ [ [ 39.2382871, -6.8455116 ], [ 39.2330616, -6.8455141 ], [ 39.2304728, -6.8500008 ], [ 39.2408836, -6.8500013 ], [ 39.2382871, -6.8455116 ] ] ] } },
{ "type": "Feature", "properties": { "index": "18", "subarea": "H2-1", "count": 0, "area_km2": 0.866, "density_per_km2": 0.0, "label": "0.0–4.6/km²", "color": "#54278f" }, "geometry": { "type": "Polygon", "coordinates": [ [ [ 39.2330616, -6.8455141 ], [ 39.2382871, -6.8455116 ], [ 39.2408975, -6.8409873 ], [ 39.2382826, -6.8364656 ], [ 39.2330572, -6.8364682 ], [ 39.2304467, -6.8409924 ], [ 39.2330616, -6.8455141 ] ] ] } },
{ "type": "Feature", "properties": { "index": "19", "subarea": "H2-2", "count": 0, "area_km2": 0.866, "density_per_km2": 0.0, "label": "0.0–4.6/km²", "color": "#54278f" }, "geometry": { "type": "Polygon", "coordinates": [ [ [ 39.2330572, -6.8364682 ], [ 39.2382826, -6.8364656 ], [ 39.240893, -6.8319414 ], [ 39.2382781, -6.8274197 ], [ 39.2330528, -6.8274222 ], [ 39.2304424, -6.8319465 ], [ 39.2330572, -6.8364682 ] ] ] } },
{ "type": "Feature", "properties": { "index": "20", "subarea": "H2-3", "count": 0, "area_km2": 0.866, "density_per_km2": 0.0, "label": "0.0–4.6/km²", "color": "#54278f" }, "geometry": { "type": "Polygon", "coordinates": [ [ [ 39.2330528, -6.8274222 ], [ 39.2382781, -6.8274197 ], [ 39.2408885, -6.8228954 ], [ 39.2382736, -6.8183737 ], [ 39.2330485, -6.8183763 ], [ 39.2304381, -6.8229005 ], [ 39.2330528, -6.8274222 ] ] ] } },
{ "type": "Feature", "properties": { "index": "21", "subarea": "H2-4", "count": 0, "area_km2": 0.866, "density_per_km2": 0.0, "label": "0.0–4.6/km²", "color": "#54278f" }, "geometry": { "type": "Polygon", "coordinates": [ [ [ 39.2330485, -6.8183763 ], [ 39.2382736, -6.8183737 ], [ 39.240884, -6.8138495 ], [ 39.2382692, -6.8093278 ], [ 39.2330441, -6.8093303 ], [ 39.2304337, -6.8138546 ], [ 39.2330485, -6.8183763 ] ] ] } },
{ "type": "Feature", "properties": { "index": "22", "subarea": "H2-5", "count": 0, "area_km2": 0.866, "density_per_km2": 0.0, "label": "0.0–4.6/km²", "color": "#54278f" }, "geometry": { "type": "Polygon", "coordinates": [ [ [ 39.2330441, -6.8093303 ], [ 39.2382692, -6.8093278 ], [ 39.2408795, -6.8048035 ], [ 39.2382647, -6.8002818 ], [ 39.2330397, -6.8002844 ], [ 39.2304294, -6.8048086 ], [ 39.2330441, -6.8093303 ] ] ] } },
{ "type": "Feature", "properties": { "index": "23", "subarea": "H2-6", "count": 0, "area_km2": 0.866, "density_per_km2": 0.0, "label": "0.0–4.6/km²", "color": "#54278f" }, "geometry": { "type": "Polygon", "coordinates": [ [ [ 39.2330397, -6.8002844 ], [ 39.2382647, -6.8002818 ], [ 39.2408749, -6.7957575 ], [ 39.2382603, -6.7912359 ], [ 39.2330354, -6.7912384 ], [ 39.2304251, -6.7957626 ], [ 39.2330397, -6.8002844 ] ] ] } },
{ "type": "Feature", "properties": { "index": "24", "subarea": "H2-7", "count": 0, "area_km2": 0.866, "density_per_km2": 0.0, "label": "0.0–4.6/km²", "color": "#54278f" }, "geometry": { "type": "Polygon", "coordinates": [ [ [ 39.2330354, -6.7912384 ], [ 39.2382603, -6.7912359 ], [ 39.2408705, -6.7867116 ], [ 39.2382558, -6.7821899 ], [ 39.233031, -6.7821924 ], [ 39.2304208, -6.7867167 ], [ 39.2330354, -6.7912384 ] ] ] } },
{ "type": "Feature", "properties": { "index": "25", "subarea": "H2-8", "count": 0, "area_km2": 0.174, "density_per_km2": 0.0, "label": "0.0–4.6/km²", "color": "#54278f" }, "geometry": { "type": "Polygon", "coordinates": [ [ [ 39.233031, -6.7821924 ], [ 39.2382558, -6.7821899 ], [ 39.2395185, -6.7800012 ], [ 39.2317638, -6.7800008 ], [ 39.233031, -6.7821924 ] ] ] } },
{ "type": "Feature", "properties": { "index": "26", "subarea": "H3-0", "count": 0, "area_km2": 0.864, "density_per_km2": 0.0, "label": "0.0–4.6/km²", "color": "#54278f" }, "geometry": { "type": "Polygon", "coordinates": [ [ [ 39.2408975, -6.8409873 ], [ 39.2382871, -6.8455116 ], [ 39.2408836, -6.8500013 ], [ 39.2461444, -6.8500015 ], [ 39.248738, -6.8455063 ], [ 39.2461229, -6.8409847 ], [ 39.2408975, -6.8409873 ] ] ] } },
{ "type": "Feature", "properties": { "index": "27", "subarea": "H3-1", "count": 0, "area_km2": 0.866, "density_per_km2": 0.0, "label": "0.0–4.6/km²", "color": "#54278f" }, "geometry": { "type": "Polygon", "coordinates": [ [ [ 39.2408975, -6.8409873 ], [ 39.2461229, -6.8409847 ], [ 39.2487333, -6.8364604 ], [ 39.2461183, -6.8319387 ], [ 39.240893, -6.8319414 ], [ 39.2382826, -6.8364656 ], [ 39.2408975, -6.8409873 ] ] ] } },
{ "type": "Feature", "properties": { "index": "28", "subarea": "H3-2", "count": 0, "area_km2": 0.866, "density_per_km2": 0.0, "label": "0.0–4.6/km²", "color": "#54278f" }, "geometry": { "type": "Polygon", "coordinates": [ [ [ 39.240893, -6.8319414 ], [ 39.2461183, -6.8319387 ], [ 39.2487286, -6.8274144 ], [ 39.2461137, -6.8228928 ], [ 39.2408885, -6.8228954 ], [ 39.2382781, -6.8274197 ], [ 39.240893, -6.8319414 ] ] ] } },
{ "type": "Feature", "properties": { "index": "29", "subarea": "H3-3", "count": 0, "area_km2": 0.866, "density_per_km2": 0.0, "label": "0.0–4.6/km²", "color": "#54278f" }, "geometry": { "type": "Polygon", "coordinates": [ [ [ 39.2408885, -6.8228954 ], [ 39.2461137, -6.8228928 ], [ 39.248724, -6.8183685 ], [ 39.2461091, -6.8138468 ], [ 39.240884, -6.8138495 ], [ 39.2382736, -6.8183737 ], [ 39.2408885, -6.8228954 ] ] ] } },
{ "type": "Feature", "properties": { "index": "30", "subarea": "H3-4", "count": 0, "area_km2": 0.866, "density_per_km2": 0.0, "label": "0.0–4.6/km²", "color": "#54278f" }, "geometry": { "type": "Polygon", "coordinates": [ [ [ 39.240884, -6.8138495 ], [ 39.2461091, -6.8138468 ], [ 39.2487193, -6.8093225 ], [ 39.2461045, -6.8048009 ], [ 39.2408795, -6.8048035 ], [ 39.2382692, -6.8093278 ], [ 39.240884, -6.8138495 ] ] ] } },
{ "type": "Feature", "properties": { "index": "31", "subarea": "H3-5", "count": 0, "area_km2": 0.866, "density_per_km2": 0.0, "label": "0.0–4.6/km²", "color": "#54278f" }, "geometry": { "type": "Polygon", "coordinates": [ [ [ 39.2408795, -6.8048035 ], [ 39.2461045, -6.8048009 ], [ 39.2487147, -6.8002766 ], [ 39.2460999, -6.7957549 ], [ 39.2408749, -6.7957575 ], [ 39.2382647, -6.8002818 ], [ 39.2408795, -6.8048035 ] ] ] } },
{ "type": "Feature", "properties": { "index": "32", "subarea": "H3-6", "count": 0, "area_km2": 0.866, "density_per_km2": 0.0, "label": "0.0–4.6/km²", "color": "#54278f" }, "geometry": { "type": "Polygon", "coordinates": [ [ [ 39.2408749, -6.7957575 ], [ 39.2460999, -6.7957549 ], [ 39.24871, -6.7912306 ], [ 39.2460953, -6.786709 ], [ 39.2408705, -6.7867116 ], [ 39.2382603, -6.7912359 ], [ 39.2408749, -6.7957575 ] ] ] } },
{ "type": "Feature", "properties": { "index": "33", "subarea": "H3-7", "count": 0, "area_km2": 0.678, "density_per_km2": 0.0, "label": "0.0–4.6/km²", "color": "#54278f" }, "geometry": { "type": "Polygon", "coordinates": [ [ [ 39.2460953, -6.786709 ], [ 39.2487054, -6.7821846 ], [ 39.2474429, -6.7800015 ], [ 39.2395185, -6.7800012 ], [ 39.2382558, -6.7821899 ], [ 39.2408705, -6.7867116 ], [ 39.2460953, -6.786709 ] ] ] } },
{ "type": "Feature", "properties": { "index": "34", "subarea": "H4-0", "count": 0, "area_km2": 0.43, "density_per_km2": 0.0, "label": "0.0–4.6/km²", "color": "#54278f" }, "geometry": { "type": "Polygon", "coordinates": [ [ [ 39.2539634, -6.8455036 ], [ 39.248738, -6.8455063 ], [ 39.2461444, -6.8500015 ], [ 39.256565, -6.8500017 ], [ 39.2539634, -6.8455036 ] ] ] } },
{ "type": "Feature", "properties": { "index": "35", "subarea": "H4-1", "count": 0, "area_km2": 0.866, "density_per_km2": 0.0, "label": "0.0–4.6/km²", "color": "#54278f" }, "geometry": { "type": "Polygon", "coordinates": [ [ [ 39.248738, -6.8455063 ], [ 39.2539634, -6.8455036 ], [ 39.2565738, -6.8409792 ], [ 39.2539587, -6.8364576 ], [ 39.2487333, -6.8364604 ], [ 39.2461229, -6.8409847 ], [ 39.248738, -6.8455063 ] ] ] } },
{ "type": "Feature", "properties": { "index": "36", "subarea": "H4-2", "count": 0, "area_km2": 0.866, "density_per_km2": 0.0, "label": "0.0–4.6/km²", "color": "#54278f" }, "geometry": { "type": "Polygon", "coordinates": [ [ [ 39.2487333, -6.8364604 ], [ 39.2539587, -6.8364576 ], [ 39.2565689, -6.8319333 ], [ 39.2539539, -6.8274117 ], [ 39.2487286, -6.8274144 ], [ 39.2461183, -6.8319387 ], [ 39.2487333, -6.8364604 ] ] ] } },
{ "type": "Feature", "properties": { "index": "37", "subarea": "H4-3", "count": 0, "area_km2": 0.866, "density_per_km2": 0.0, "label": "0.0–4.6/km²", "color": "#54278f" }, "geometry": { "type": "Polygon", "coordinates": [ [ [ 39.2487286, -6.8274144 ], [ 39.2539539, -6.8274117 ], [ 39.2565641, -6.8228873 ], [ 39.2539491, -6.8183657 ], [ 39.248724, -6.8183685 ], [ 39.2461137, -6.8228928 ], [ 39.2487286, -6.8274144 ] ] ] } },
{ "type": "Feature", "properties": { "index": "38", "subarea": "H4-4", "count": 0, "area_km2": 0.866, "density_per_km2": 0.0, "label": "0.0–4.6/km²", "color": "#54278f" }, "geometry": { "type": "Polygon", "coordinates": [ [ [ 39.248724, -6.8183685 ], [ 39.2539491, -6.8183657 ], [ 39.2565593, -6.8138414 ], [ 39.2539444, -6.8093198 ], [ 39.2487193, -6.8093225 ], [ 39.2461091, -6.8138468 ], [ 39.248724, -6.8183685 ] ] ] } },
{ "type": "Feature", "properties": { "index": "39", "subarea": "H4-5", "count": 0, "area_km2": 0.866, "density_per_km2": 0.0, "label": "0.0–4.6/km²", "color": "#54278f" }, "geometry": { "type": "Polygon", "coordinates": [ [ [ 39.2487193, -6.8093225 ], [ 39.2539444, -6.8093198 ], [ 39.2565545, -6.8047954 ], [ 39.2539396, -6.8002739 ], [ 39.2487147, -6.8002766 ], [ 39.2461045, -6.8048009 ], [ 39.2487193, -6.8093225 ] ] ] } },
{ "type": "Feature", "properties": { "index": "40", "subarea": "H4-6", "count": 0, "area_km2": 0.866, "density_per_km2": 0.0, "label": "0.0–4.6/km²", "color": "#54278f" }, "geometry": { "type": "Polygon", "coordinates": [ [ [ 39.2487147, -6.8002766 ], [ 39.2539396, -6.8002739 ], [ 39.2565497, -6.7957495 ], [ 39.2539349, -6.7912279 ], [ 39.24871, -6.7912306 ], [ 39.2460999, -6.7957549 ], [ 39.2487147, -6.8002766 ] ] ] } },
{ "type": "Feature", "properties": { "index": "41", "subarea": "H4-7", "count": 0, "area_km2": 0.866, "density_per_km2": 0.0, "label": "0.0–4.6/km²", "color": "#54278f" }, "geometry": { "type": "Polygon", "coordinates": [ [ [ 39.24871, -6.7912306 ], [ 39.2539349, -6.7912279 ], [ 39.2565449, -6.7867035 ], [ 39.2539301, -6.7821819 ], [ 39.2487054, -6.7821846 ], [ 39.2460953, -6.786709 ], [ 39.24871, -6.7912306 ] ] ] } },
{ "type": "Feature", "properties": { "index": "42", "subarea": "H4-8", "count": 0, "area_km2": 0.173, "density_per_km2": 0.0, "label": "0.0–4.6/km²", "color": "#54278f" }, "geometry": { "type": "Polygon", "coordinates": [ [ [ 39.2487054, -6.7821846 ], [ 39.2539301, -6.7821819 ], [ 39.2551879, -6.7800016 ], [ 39.2474429, -6.7800015 ], [ 39.2487054, -6.7821846 ] ] ] } },
{ "type": "Feature", "properties": { "index": "43", "subarea": "H5-0", "count": 0, "area_km2": 0.865, "density_per_km2": 0.0, "label": "0.0–4.6/km²", "color": "#54278f" }, "geometry": { "type": "Polygon", "coordinates": [ [ [ 39.2565738, -6.8409792 ], [ 39.2539634, -6.8455036 ], [ 39.256565, -6.8500017 ], [ 39.261816, -6.8500017 ], [ 39.2644144, -6.8454979 ], [ 39.2617992, -6.8409764 ], [ 39.2565738, -6.8409792 ] ] ] } },
{ "type": "Feature", "properties": { "index": "44", "subarea": "H5-1", "count": 0, "area_km2": 0.866, "density_per_km2": 0.0, "label": "0.0–4.6/km²", "color": "#54278f" }, "geometry": { "type": "Polygon", "coordinates": [ [ [ 39.2565738, -6.8409792 ], [ 39.2617992, -6.8409764 ], [ 39.2644094, -6.836452 ], [ 39.2617942, -6.8319305 ], [ 39.2565689, -6.8319333 ], [ 39.2539587, -6.8364576 ], [ 39.2565738, -6.8409792 ] ] ] } },
{ "type": "Feature", "properties": { "index": "45", "subarea": "H5-2", "count": 0, "area_km2": 0.866, "density_per_km2": 0.0, "label": "0.0–4.6/km²", "color": "#54278f" }, "geometry": { "type": "Polygon", "coordinates": [ [ [ 39.2565689, -6.8319333 ], [ 39.2617942, -6.8319305 ], [ 39.2644044, -6.8274061 ], [ 39.2617893, -6.8228845 ], [ 39.2565641, -6.8228873 ], [ 39.2539539, -6.8274117 ], [ 39.2565689, -6.8319333 ] ] ] } },
{ "type": "Feature", "properties": { "index": "46", "subarea": "H5-3", "count": 0, "area_km2": 0.866, "density_per_km2": 0.0, "label": "0.0–4.6/km²", "color": "#54278f" }, "geometry": { "type": "Polygon", "coordinates": [ [ [ 39.2565641, -6.8228873 ], [ 39.2617893, -6.8228845 ], [ 39.2643994, -6.8183601 ], [ 39.2617844, -6.8138386 ], [ 39.2565593, -6.8138414 ], [ 39.2539491, -6.8183657 ], [ 39.2565641, -6.8228873 ] ] ] } },
{ "type": "Feature", "properties": { "index": "47", "subarea": "H5-4", "count": 0, "area_km2": 0.866, "density_per_km2": 0.0, "label": "0.0–4.6/km²", "color": "#54278f" }, "geometry": { "type": "Polygon", "coordinates": [ [ [ 39.2565593, -6.8138414 ], [ 39.2617844, -6.8138386 ], [ 39.2643945, -6.8093142 ], [ 39.2617795, -6.8047926 ], [ 39.2565545, -6.8047954 ], [ 39.2539444, -6.8093198 ], [ 39.2565593, -6.8138414 ] ] ] } },
{ "type": "Feature", "properties": { "index": "48", "subarea": "H5-5", "count": 0, "area_km2": 0.866, "density_per_km2": 0.0, "label": "0.0–4.6/km²", "color": "#54278f" }, "geometry": { "type": "Polygon", "coordinates": [ [ [ 39.2565545, -6.8047954 ], [ 39.2617795, -6.8047926 ], [ 39.2643895, -6.8002683 ], [ 39.2617746, -6.7957467 ], [ 39.2565497, -6.7957495 ], [ 39.2539396, -6.8002739 ], [ 39.2565545, -6.8047954 ] ] ] } },
{ "type": "Feature", "properties": { "index": "49", "subarea": "H5-6", "count": 0, "area_km2": 0.866, "density_per_km2": 0.0, "label": "0.0–4.6/km²", "color": "#54278f" }, "geometry": { "type": "Polygon", "coordinates": [ [ [ 39.2565497, -6.7957495 ], [ 39.2617746, -6.7957467 ], [ 39.2643846, -6.7912223 ], [ 39.2617697, -6.7867008 ], [ 39.2565449, -6.7867035 ], [ 39.2539349, -6.7912279 ], [ 39.2565497, -6.7957495 ] ] ] } },
{ "type": "Feature", "properties": { "index": "50", "subarea": "H5-7", "count": 0, "area_km2": 0.678, "density_per_km2": 0.0, "label": "0.0–4.6/km²", "color": "#54278f" }, "geometry": { "type": "Polygon", "coordinates": [ [ [ 39.2617697, -6.7867008 ], [ 39.2643797, -6.7821764 ], [ 39.263122, -6.7800016 ], [ 39.2551879, -6.7800016 ], [ 39.2539301, -6.7821819 ], [ 39.2565449, -6.7867035 ], [ 39.2617697, -6.7867008 ] ] ] } },
{ "type": "Feature", "properties": { "index": "51", "subarea": "H6-0", "count": 0, "area_km2": 0.431, "density_per_km2": 0.0, "label": "0.0–4.6/km²", "color": "#54278f" }, "geometry": { "type": "Polygon", "coordinates": [ [ [ 39.2696398, -6.845495 ], [ 39.2644144, -6.8454979 ], [ 39.261816, -6.8500017 ], [ 39.2722464, -6.8500015 ], [ 39.2696398, -6.845495 ] ] ] } },
{ "type": "Feature", "properties": { "index": "52", "subarea": "H6-1", "count": 0, "area_km2": 0.866, "density_per_km2": 0.0, "label": "0.0–4.6/km²", "color": "#54278f" }, "geometry": { "type": "Polygon", "coordinates": [ [ [ 39.2644144, -6.8454979 ], [ 39.2696398, -6.845495 ], [ 39.27225, -6.8409706 ], [ 39.2696347, -6.8364491 ], [ 39.2644094, -6.836452 ], [ 39.2617992, -6.8409764 ], [ 39.2644144, -6.8454979 ] ] ] } },
{ "type": "Feature", "properties": { "index": "53", "subarea": "H6-2", "count": 0, "area_km2": 0.866, "density_per_km2": 0.0, "label": "0.0–4.6/km²", "color": "#54278f" }, "geometry": { "type": "Polygon", "coordinates": [ [ [ 39.2644094, -6.836452 ], [ 39.2696347, -6.8364491 ], [ 39.2722448, -6.8319247 ], [ 39.2696297, -6.8274032 ], [ 39.2644044, -6.8274061 ], [ 39.2617942, -6.8319305 ], [ 39.2644094, -6.836452 ] ] ] } },
{ "type": "Feature", "properties": { "index": "54", "subarea": "H6-3", "count": 0, "area_km2": 0.866, "density_per_km2": 0.0, "label": "0.0–4.6/km²", "color": "#54278f" }, "geometry": { "type": "Polygon", "coordinates": [ [ [ 39.2644044, -6.8274061 ], [ 39.2696297, -6.8274032 ], [ 39.2722397, -6.8228787 ], [ 39.2696246, -6.8183572 ], [ 39.2643994, -6.8183601 ], [ 39.2617893, -6.8228845 ], [ 39.2644044, -6.8274061 ] ] ] } },
{ "type": "Feature", "properties": { "index": "55", "subarea": "H6-4", "count": 0, "area_km2": 0.866, "density_per_km2": 0.0, "label": "0.0–4.6/km²", "color": "#54278f" }, "geometry": { "type": "Polygon", "coordinates": [ [ [ 39.2643994, -6.8183601 ], [ 39.2696246, -6.8183572 ], [ 39.2722346, -6.8138328 ], [ 39.2696195, -6.8093113 ], [ 39.2643945, -6.8093142 ], [ 39.2617844, -6.8138386 ], [ 39.2643994, -6.8183601 ] ] ] } },
{ "type": "Feature", "properties": { "index": "56", "subarea": "H6-5", "count": 0, "area_km2": 0.866, "density_per_km2": 0.0, "label": "0.0–4.6/km²", "color": "#54278f" }, "geometry": { "type": "Polygon", "coordinates": [ [ [ 39.2643945, -6.8093142 ], [ 39.2696195, -6.8093113 ], [ 39.2722295, -6.8047869 ], [ 39.2696145, -6.8002654 ], [ 39.2643895, -6.8002683 ], [ 39.2617795, -6.8047926 ], [ 39.2643945, -6.8093142 ] ] ] } },
{ "type": "Feature", "properties": { "index": "57", "subarea": "H6-6", "count": 0, "area_km2": 0.866, "density_per_km2": 0.0, "label": "0.0–4.6/km²", "color": "#54278f" }, "geometry": { "type": "Polygon", "coordinates": [ [ [ 39.2643895, -6.8002683 ], [ 39.2696145, -6.8002654 ], [ 39.2722244, -6.7957409 ], [ 39.2696095, -6.7912194 ], [ 39.2643846, -6.7912223 ], [ 39.2617746, -6.7957467 ], [ 39.2643895, -6.8002683 ] ] ] } },
{ "type": "Feature", "properties": { "index": "58", "subarea": "H6-7", "count": 0, "area_km2": 0.866, "density_per_km2": 0.0, "label": "0.0–4.6/km²", "color": "#54278f" }, "geometry": { "type": "Polygon", "coordinates": [ [ [ 39.2643846, -6.7912223 ], [ 39.2696095, -6.7912194 ], [ 39.2722194, -6.786695 ], [ 39.2696044, -6.7821735 ], [ 39.2643797, -6.7821764 ], [ 39.2617697, -6.7867008 ], [ 39.2643846, -6.7912223 ] ] ] } },
{ "type": "Feature", "properties": { "index": "59", "subarea": "H6-8", "count": 0, "area_km2": 0.172, "density_per_km2": 0.0, "label": "0.0–4.6/km²", "color": "#54278f" }, "geometry": { "type": "Polygon", "coordinates": [ [ [ 39.2643797, -6.7821764 ], [ 39.2696044, -6.7821735 ], [ 39.2708573, -6.7800015 ], [ 39.263122, -6.7800016 ], [ 39.2643797, -6.7821764 ] ] ] } },
{ "type": "Feature", "properties": { "index": "60", "subarea": "H7-0", "count": 0, "area_km2": 0.865, "density_per_km2": 0.0, "label": "0.0–4.6/km²", "color": "#54278f" }, "geometry": { "type": "Polygon", "coordinates": [ [ [ 39.27225, -6.8409706 ], [ 39.2696398, -6.845495 ], [ 39.2722464, -6.8500015 ], [ 39.2774876, -6.8500013 ], [ 39.2800907, -6.8454891 ], [ 39.2774754, -6.8409676 ], [ 39.27225, -6.8409706 ] ] ] } },
{ "type": "Feature", "properties": { "index": "61", "subarea": "H7-1", "count": 0, "area_km2": 0.866, "density_per_km2": 0.0, "label": "0.0–4.6/km²", "color": "#54278f" }, "geometry": { "type": "Polygon", "coordinates": [ [ [ 39.27225, -6.8409706 ], [ 39.2774754, -6.8409676 ], [ 39.2800854, -6.8364431 ], [ 39.2774701, -6.8319217 ], [ 39.2722448, -6.8319247 ], [ 39.2696347, -6.8364491 ], [ 39.27225, -6.8409706 ] ] ] } },
{ "type": "Feature", "properties": { "index": "62", "subarea": "H7-2", "count": 0, "area_km2": 0.866, "density_per_km2": 0.0, "label": "0.0–4.6/km²", "color": "#54278f" }, "geometry": { "type": "Polygon", "coordinates": [ [ [ 39.2722448, -6.8319247 ], [ 39.2774701, -6.8319217 ], [ 39.2800802, -6.8273972 ], [ 39.2774649, -6.8228758 ], [ 39.2722397, -6.8228787 ], [ 39.2696297, -6.8274032 ], [ 39.2722448, -6.8319247 ] ] ] } },
{ "type": "Feature", "properties": { "index": "63", "subarea": "H7-3", "count": 4, "area_km2": 0.866, "density_per_km2": 4.62, "label": "0.0–4.6/km²", "color": "#54278f" }, "geometry": { "type": "Polygon", "coordinates": [ [ [ 39.2722397, -6.8228787 ], [ 39.2774649, -6.8228758 ], [ 39.2800749, -6.8183513 ], [ 39.2774597, -6.8138298 ], [ 39.2722346, -6.8138328 ], [ 39.2696246, -6.8183572 ], [ 39.2722397, -6.8228787 ] ] ] } },
{ "type": "Feature", "properties": { "index": "64", "subarea": "H7-4", "count": 0, "area_km2": 0.866, "density_per_km2": 0.0, "label": "0.0–4.6/km²", "color": "#54278f" }, "geometry": { "type": "Polygon", "coordinates": [ [ [ 39.2722346, -6.8138328 ], [ 39.2774597, -6.8138298 ], [ 39.2800697, -6.8093054 ], [ 39.2774545, -6.8047839 ], [ 39.2722295, -6.8047869 ], [ 39.2696195, -6.8093113 ], [ 39.2722346, -6.8138328 ] ] ] } },
{ "type": "Feature", "properties": { "index": "65", "subarea": "H7-5", "count": 0, "area_km2": 0.866, "density_per_km2": 0.0, "label": "0.0–4.6/km²", "color": "#54278f" }, "geometry": { "type": "Polygon", "coordinates": [ [ [ 39.2722295, -6.8047869 ], [ 39.2774545, -6.8047839 ], [ 39.2800644, -6.8002594 ], [ 39.2774493, -6.795738 ], [ 39.2722244, -6.7957409 ], [ 39.2696145, -6.8002654 ], [ 39.2722295, -6.8047869 ] ] ] } },
{ "type": "Feature", "properties": { "index": "66", "subarea": "H7-6", "count": 0, "area_km2": 0.866, "density_per_km2": 0.0, "label": "0.0–4.6/km²", "color": "#54278f" }, "geometry": { "type": "Polygon", "coordinates": [ [ [ 39.2722244, -6.7957409 ], [ 39.2774493, -6.795738 ], [ 39.2800592, -6.7912135 ], [ 39.2774442, -6.786692 ], [ 39.2722194, -6.786695 ], [ 39.2696095, -6.7912194 ], [ 39.2722244, -6.7957409 ] ] ] } },
{ "type": "Feature", "properties": { "index": "67", "subarea": "H7-7", "count": 0, "area_km2": 0.677, "density_per_km2": 0.0, "label": "0.0–4.6/km²", "color": "#54278f" }, "geometry": { "type": "Polygon", "coordinates": [ [ [ 39.2774442, -6.786692 ], [ 39.2800539, -6.7821676 ], [ 39.2788011, -6.7800013 ], [ 39.2708573, -6.7800015 ], [ 39.2696044, -6.7821735 ], [ 39.2722194, -6.786695 ], [ 39.2774442, -6.786692 ] ] ] } },
{ "type": "Feature", "properties": { "index": "68", "subarea": "H8-0", "count": 0, "area_km2": 0.432, "density_per_km2": 0.0, "label": "0.0–4.6/km²", "color": "#54278f" }, "geometry": { "type": "Polygon", "coordinates": [ [ [ 39.2853161, -6.845486 ], [ 39.2800907, -6.8454891 ], [ 39.2774876, -6.8500013 ], [ 39.2879278, -6.8500009 ], [ 39.2853161, -6.845486 ] ] ] } },
{ "type": "Feature", "properties": { "index": "69", "subarea": "H8-1", "count": 0, "area_km2": 0.866, "density_per_km2": 0.0, "label": "0.0–4.6/km²", "color": "#54278f" }, "geometry": { "type": "Polygon", "coordinates": [ [ [ 39.2800907, -6.8454891 ], [ 39.2853161, -6.845486 ], [ 39.2879261, -6.8409615 ], [ 39.2853108, -6.8364401 ], [ 39.2800854, -6.8364431 ], [ 39.2774754, -6.8409676 ], [ 39.2800907, -6.8454891 ] ] ] } },
{ "type": "Feature", "properties": { "index": "70", "subarea": "H8-2", "count": 0, "area_km2": 0.866, "density_per_km2": 0.0, "label": "0.0–4.6/km²", "color": "#54278f" }, "geometry": { "type": "Polygon", "coordinates": [ [ [ 39.2800854, -6.8364431 ], [ 39.2853108, -6.8364401 ], [ 39.2879207, -6.8319156 ], [ 39.2853054, -6.8273942 ], [ 39.2800802, -6.8273972 ], [ 39.2774701, -6.8319217 ], [ 39.2800854, -6.8364431 ] ] ] } },
{ "type": "Feature", "properties": { "index": "71", "subarea": "H8-3", "count": 0, "area_km2": 0.866, "density_per_km2": 0.0, "label": "0.0–4.6/km²", "color": "#54278f" }, "geometry": { "type": "Polygon", "coordinates": [ [ [ 39.2800802, -6.8273972 ], [ 39.2853054, -6.8273942 ], [ 39.2879153, -6.8228696 ], [ 39.2853, -6.8183482 ], [ 39.2800749, -6.8183513 ], [ 39.2774649, -6.8228758 ], [ 39.2800802, -6.8273972 ] ] ] } },
{ "type": "Feature", "properties": { "index": "72", "subarea": "H8-4", "count": 0, "area_km2": 0.866, "density_per_km2": 0.0, "label": "0.0–4.6/km²", "color": "#54278f" }, "geometry": { "type": "Polygon", "coordinates": [ [ [ 39.2800749, -6.8183513 ], [ 39.2853, -6.8183482 ], [ 39.2879099, -6.8138237 ], [ 39.2852947, -6.8093023 ], [ 39.2800697, -6.8093054 ], [ 39.2774597, -6.8138298 ], [ 39.2800749, -6.8183513 ] ] ] } },
{ "type": "Feature", "properties": { "index": "73", "subarea": "H8-5", "count": 0, "area_km2": 0.866, "density_per_km2": 0.0, "label": "0.0–4.6/km²", "color": "#54278f" }, "geometry": { "type": "Polygon", "coordinates": [ [ [ 39.2800697, -6.8093054 ], [ 39.2852947, -6.8093023 ], [ 39.2879045, -6.8047778 ], [ 39.2852894, -6.8002564 ], [ 39.2800644, -6.8002594 ], [ 39.2774545, -6.8047839 ], [ 39.2800697, -6.8093054 ] ] ] } },
{ "type": "Feature", "properties": { "index": "74", "subarea": "H8-6", "count": 0, "area_km2": 0.866, "density_per_km2": 0.0, "label": "0.0–4.6/km²", "color": "#54278f" }, "geometry": { "type": "Polygon", "coordinates": [ [ [ 39.2800644, -6.8002594 ], [ 39.2852894, -6.8002564 ], [ 39.2878991, -6.7957319 ], [ 39.285284, -6.7912105 ], [ 39.2800592, -6.7912135 ], [ 39.2774493, -6.795738 ], [ 39.2800644, -6.8002594 ] ] ] } },
{ "type": "Feature", "properties": { "index": "75", "subarea": "H8-7", "count": 0, "area_km2": 0.866, "density_per_km2": 0.0, "label": "0.0–4.6/km²", "color": "#54278f" }, "geometry": { "type": "Polygon", "coordinates": [ [ [ 39.2800592, -6.7912135 ], [ 39.285284, -6.7912105 ], [ 39.2878938, -6.786686 ], [ 39.2852787, -6.7821645 ], [ 39.2800539, -6.7821676 ], [ 39.2774442, -6.786692 ], [ 39.2800592, -6.7912135 ] ] ] } },
{ "type": "Feature", "properties": { "index": "76", "subarea": "H8-8", "count": 0, "area_km2": 0.171, "density_per_km2": 0.0, "label": "0.0–4.6/km²", "color": "#54278f" }, "geometry": { "type": "Polygon", "coordinates": [ [ [ 39.2800539, -6.7821676 ], [ 39.2852787, -6.7821645 ], [ 39.2865267, -6.7800009 ], [ 39.2788011, -6.7800013 ], [ 39.2800539, -6.7821676 ] ] ] } },
{ "type": "Feature", "properties": { "index": "77", "subarea": "H9-0", "count": 0, "area_km2": 0.866, "density_per_km2": 0.0, "label": "0.0–4.6/km²", "color": "#54278f" }, "geometry": { "type": "Polygon", "coordinates": [ [ [ 39.2879261, -6.8409615 ], [ 39.2853161, -6.845486 ], [ 39.2879278, -6.8500009 ], [ 39.2931592, -6.8500005 ], [ 39.295767, -6.8454797 ], [ 39.2931515, -6.8409583 ], [ 39.2879261, -6.8409615 ] ] ] } },
{ "type": "Feature", "properties": { "index": "78", "subarea": "H9-1", "count": 0, "area_km2": 0.866, "density_per_km2": 0.0, "label": "0.0–4.6/km²", "color": "#54278f" }, "geometry": { "type": "Polygon", "coordinates": [ [ [ 39.2879261, -6.8409615 ], [ 39.2931515, -6.8409583 ], [ 39.2957614, -6.8364338 ], [ 39.293146, -6.8319124 ], [ 39.2879207, -6.8319156 ], [ 39.2853108, -6.8364401 ], [ 39.2879261, -6.8409615 ] ] ] } },
{ "type": "Feature", "properties": { "index": "79", "subarea": "H9-2", "count": 0, "area_km2": 0.866, "density_per_km2": 0.0, "label": "0.0–4.6/km²", "color": "#54278f" }, "geometry": { "type": "Polygon", "coordinates": [ [ [ 39.2879207, -6.8319156 ], [ 39.293146, -6.8319124 ], [ 39.2957559, -6.8273879 ], [ 39.2931405, -6.8228665 ], [ 39.2879153, -6.8228696 ], [ 39.2853054, -6.8273942 ], [ 39.2879207, -6.8319156 ] ] ] } },
{ "type": "Feature", "properties": { "index": "80", "subarea": "H9-3", "count": 0, "area_km2": 0.866, "density_per_km2": 0.0, "label": "0.0–4.6/km²", "color": "#54278f" }, "geometry": { "type": "Polygon", "coordinates": [ [ [ 39.2879153, -6.8228696 ], [ 39.2931405, -6.8228665 ], [ 39.2957503, -6.818342 ], [ 39.293135, -6.8138206 ], [ 39.2879099, -6.8138237 ], [ 39.2853, -6.8183482 ], [ 39.2879153, -6.8228696 ] ] ] } },
{ "type": "Feature", "properties": { "index": "81", "subarea": "H9-4", "count": 0, "area_km2": 0.866, "density_per_km2": 0.0, "label": "0.0–4.6/km²", "color": "#54278f" }, "geometry": { "type": "Polygon", "coordinates": [ [ [ 39.2879099, -6.8138237 ], [ 39.293135, -6.8138206 ], [ 39.2957448, -6.809296 ], [ 39.2931295, -6.8047747 ], [ 39.2879045, -6.8047778 ], [ 39.2852947, -6.8093023 ], [ 39.2879099, -6.8138237 ] ] ] } },
{ "type": "Feature", "properties": { "index": "82", "subarea": "H9-5", "count": 0, "area_km2": 0.866, "density_per_km2": 0.0, "label": "0.0–4.6/km²", "color": "#54278f" }, "geometry": { "type": "Polygon", "coordinates": [ [ [ 39.2879045, -6.8047778 ], [ 39.2931295, -6.8047747 ], [ 39.2957393, -6.8002501 ], [ 39.293124, -6.7957287 ], [ 39.2878991, -6.7957319 ], [ 39.2852894, -6.8002564 ], [ 39.2879045, -6.8047778 ] ] ] } },
{ "type": "Feature", "properties": { "index": "83", "subarea": "H9-6", "count": 0, "area_km2": 0.866, "density_per_km2": 0.0, "label": "0.0–4.6/km²", "color": "#54278f" }, "geometry": { "type": "Polygon", "coordinates": [ [ [ 39.2878991, -6.7957319 ], [ 39.293124, -6.7957287 ], [ 39.2957337, -6.7912042 ], [ 39.2931186, -6.7866828 ], [ 39.2878938, -6.786686 ], [ 39.285284, -6.7912105 ], [ 39.2878991, -6.7957319 ] ] ] } },
{ "type": "Feature", "properties": { "index": "84", "subarea": "H9-7", "count": 0, "area_km2": 0.676, "density_per_km2": 0.0, "label": "0.0–4.6/km²", "color": "#54278f" }, "geometry": { "type": "Polygon", "coordinates": [ [ [ 39.2931186, -6.7866828 ], [ 39.2957282, -6.7821583 ], [ 39.2944801, -6.7800004 ], [ 39.2865267, -6.7800009 ], [ 39.2852787, -6.7821645 ], [ 39.2878938, -6.786686 ], [ 39.2931186, -6.7866828 ] ] ] } },
{ "type": "Feature", "properties": { "index": "85", "subarea": "H10-0", "count": 0, "area_km2": 0.306, "density_per_km2": 0.0, "label": "0.0–4.6/km²", "color": "#54278f" }, "geometry": { "type": "Polygon", "coordinates": [ [ [ 39.3, -6.845477 ], [ 39.295767, -6.8454797 ], [ 39.2931592, -6.8500005 ], [ 39.3, -6.85 ], [ 39.3, -6.845477 ] ] ] } },
{ "type": "Feature", "properties": { "index": "86", "subarea": "H10-1", "count": 0, "area_km2": 0.612, "density_per_km2": 0.0, "label": "0.0–4.6/km²", "color": "#54278f" }, "geometry": { "type": "Polygon", "coordinates": [ [ [ 39.2931515, -6.8409583 ], [ 39.295767, -6.8454797 ], [ 39.3, -6.845477 ], [ 39.3, -6.8364311 ], [ 39.2957614, -6.8364338 ], [ 39.2931515, -6.8409583 ] ] ] } },
{ "type": "Feature", "properties": { "index": "87", "subarea": "H10-2", "count": 0, "area_km2": 0.613, "density_per_km2": 0.0, "label": "0.0–4.6/km²", "color": "#54278f" }, "geometry": { "type": "Polygon", "coordinates": [ [ [ 39.293146, -6.8319124 ], [ 39.2957614, -6.8364338 ], [ 39.3, -6.8364311 ], [ 39.3, -6.8273852 ], [ 39.2957559, -6.8273879 ], [ 39.293146, -6.8319124 ] ] ] } },
{ "type": "Feature", "properties": { "index": "88", "subarea": "H10-3", "count": 0, "area_km2": 0.614, "density_per_km2": 0.0, "label": "0.0–4.6/km²", "color": "#54278f" }, "geometry": { "type": "Polygon", "coordinates": [ [ [ 39.2931405, -6.8228665 ], [ 39.2957559, -6.8273879 ], [ 39.3, -6.8273852 ], [ 39.2999999, -6.8183393 ], [ 39.2957503, -6.818342 ], [ 39.2931405, -6.8228665 ] ] ] } },
{ "type": "Feature", "properties": { "index": "89", "subarea": "H10-4", "count": 0, "area_km2": 0.614, "density_per_km2": 0.0, "label": "0.0–4.6/km²", "color": "#54278f" }, "geometry": { "type": "Polygon", "coordinates": [ [ [ 39.293135, -6.8138206 ], [ 39.2957503, -6.818342 ], [ 39.2999999, -6.8183393 ], [ 39.2999999, -6.8092934 ], [ 39.2957448, -6.809296 ], [ 39.293135, -6.8138206 ] ] ] } },
{ "type": "Feature", "properties": { "index": "90", "subarea": "H10-5", "count": 0, "area_km2": 0.615, "density_per_km2": 0.0, "label": "0.0–4.6/km²", "color": "#54278f" }, "geometry": { "type": "Polygon", "coordinates": [ [ [ 39.2931295, -6.8047747 ], [ 39.2957448, -6.809296 ], [ 39.2999999, -6.8092934 ], [ 39.3, -6.8002475 ], [ 39.2957393, -6.8002501 ], [ 39.2931295, -6.8047747 ] ] ] } },
{ "type": "Feature", "properties": { "index": "91", "subarea": "H10-6", "count": 0, "area_km2": 0.615, "density_per_km2": 0.0, "label": "0.0–4.6/km²", "color": "#54278f" }, "geometry": { "type": "Polygon", "coordinates": [ [ [ 39.293124, -6.7957287 ], [ 39.2957393, -6.8002501 ], [ 39.3, -6.8002475 ], [ 39.3, -6.7912016 ], [ 39.2957337, -6.7912042 ], [ 39.293124, -6.7957287 ] ] ] } },
{ "type": "Feature", "properties": { "index": "92", "subarea": "H10-7", "count": 0, "area_km2": 0.616, "density_per_km2": 0.0, "label": "0.0–4.6/km²", "color": "#54278f" }, "geometry": { "type": "Polygon", "coordinates": [ [ [ 39.2931186, -6.7866828 ], [ 39.2957337, -6.7912042 ], [ 39.3, -6.7912016 ], [ 39.3, -6.7821557 ], [ 39.2957282, -6.7821583 ], [ 39.2931186, -6.7866828 ] ] ] } },
{ "type": "Feature", "properties": { "index": "93", "subarea": "H10-8", "count": 0, "area_km2": 0.129, "density_per_km2": 0.0, "label": "0.0–4.6/km²", "color": "#54278f" }, "geometry": { "type": "Polygon", "coordinates": [ [ [ 39.2944801, -6.7800004 ], [ 39.2957282, -6.7821583 ], [ 39.3, -6.7821557 ], [ 39.3, -6.78 ], [ 39.2944801, -6.7800004 ] ] ] } }
]
}
