{
"type": "FeatureCollection",
"features": [
{ "type": "Feature", "properties": { "index": "1", "@osmId": "node/1504405479", "name": "Astruc", "opening_hours": null, "label": "Tram & light-rail stops", "color": "#ef3b2c" }, "geometry": { "type": "Point", "coordinates": [ 3.855048, 43.6102597 ] } },
{ "type": "Feature", "properties": { "index": "2", "@osmId": "node/1682209623", "name": "Arceaux", "opening_hours": null, "label": "Tram & light-rail stops", "color": "#ef3b2c" }, "geometry": { "type": "Point", "coordinates": [ 3.8624768, 43.609864 ] } },
{ "type": "Feature", "properties": { "index": "3", "@osmId": "node/3123033218", "name": "Arceaux", "opening_hours": null, "label": "Tram & light-rail stops", "color": "#ef3b2c" }, "geometry": { "type": "Point", "coordinates": [ 3.8615025, 43.6100217 ] } },
{ "type": "Feature", "properties": { "index": "4", "@osmId": "node/11885078570", "name": "Cité Créative - Parc Montcalm", "opening_hours": null, "label": "Tram & light-rail stops", "color": "#ef3b2c" }, "geometry": { "type": "Point", "coordinates": [ 3.8619893, 43.6016994 ] } },
{ "type": "Feature", "properties": { "index": "5", "@osmId": "node/11885078571", "name": "Cité Créative - Parc Montcalm", "opening_hours": null, "label": "Tram & light-rail stops", "color": "#ef3b2c" }, "geometry": { "type": "Point", "coordinates": [ 3.8622907, 43.6015548 ] } },
{ "type": "Feature", "properties": { "index": "6", "@osmId": "node/60025037", "name": "Corum", "opening_hours": null, "label": "Tram & light-rail stops", "color": "#ef3b2c" }, "geometry": { "type": "Point", "coordinates": [ 3.881957, 43.6142561 ] } },
{ "type": "Feature", "properties": { "index": "7", "@osmId": "node/60025046", "name": "Louis Blanc - Agora de la Danse", "opening_hours": null, "label": "Tram & light-rail stops", "color": "#ef3b2c" }, "geometry": { "type": "Point", "coordinates": [ 3.8782032, 43.6147274 ] } },
{ "type": "Feature", "properties": { "index": "8", "@osmId": "node/60025062", "name": "Stade Philippidès", "opening_hours": null, "label": "Tram & light-rail stops", "color": "#ef3b2c" }, "geometry": { "type": "Point", "coordinates": [ 3.8694871, 43.6189067 ] } },
{ "type": "Feature", "properties": { "index": "9", "@osmId": "node/60722751", "name": "Rives du Lez", "opening_hours": null, "label": "Tram & light-rail stops", "color": "#ef3b2c" }, "geometry": { "type": "Point", "coordinates": [ 3.8948979, 43.6040961 ] } },
{ "type": "Feature", "properties": { "index": "10", "@osmId": "node/60732076", "name": "Moularès (Hôtel de Ville)", "opening_hours": null, "label": "Tram & light-rail stops", "color": "#ef3b2c" }, "geometry": { "type": "Point", "coordinates": [ 3.8955449, 43.6005714 ] } },
{ "type": "Feature", "properties": { "index": "11", "@osmId": "node/60939764", "name": "Comédie", "opening_hours": null, "label": "Tram & light-rail stops", "color": "#ef3b2c" }, "geometry": { "type": "Point", "coordinates": [ 3.8797702, 43.6084079 ] } },
{ "type": "Feature", "properties": { "index": "12", "@osmId": "node/61094962", "name": "Gare Saint-Roch", "opening_hours": null, "label": "Tram & light-rail stops", "color": "#ef3b2c" }, "geometry": { "type": "Point", "coordinates": [ 3.8801992, 43.6056584 ] } },
{ "type": "Feature", "properties": { "index": "13", "@osmId": "node/61103414", "name": "Albert 1er - Saint-Charles", "opening_hours": null, "label": "Tram & light-rail stops", "color": "#ef3b2c" }, "geometry": { "type": "Point", "coordinates": [ 3.8741502, 43.6164538 ] } },
{ "type": "Feature", "properties": { "index": "14", "@osmId": "node/70972317", "name": "Corum", "opening_hours": null, "label": "Tram & light-rail stops", "color": "#ef3b2c" }, "geometry": { "type": "Point", "coordinates": [ 3.8818054, 43.6144182 ] } },
{ "type": "Feature", "properties": { "index": "15", "@osmId": "node/126601804", "name": "Boutonnet  - Cité des Arts", "opening_hours": null, "label": "Tram & light-rail stops", "color": "#ef3b2c" }, "geometry": { "type": "Point", "coordinates": [ 3.8681444, 43.6224984 ] } },
{ "type": "Feature", "properties": { "index": "16", "@osmId": "node/224660817", "name": "Beaux-Arts", "opening_hours": null, "label": "Tram & light-rail stops", "color": "#ef3b2c" }, "geometry": { "type": "Point", "coordinates": [ 3.8835972, 43.6170502 ] } },
{ "type": "Feature", "properties": { "index": "17", "@osmId": "node/231389166", "name": "Voltaire", "opening_hours": null, "label": "Tram & light-rail stops", "color": "#ef3b2c" }, "geometry": { "type": "Point", "coordinates": [ 3.8892253, 43.6037049 ] } },
{ "type": "Feature", "properties": { "index": "18", "@osmId": "node/231454791", "name": "Rives du Lez - Consuls de Mer", "opening_hours": null, "label": "Tram & light-rail stops", "color": "#ef3b2c" }, "geometry": { "type": "Point", "coordinates": [ 3.8940022, 43.603993 ] } },
{ "type": "Feature", "properties": { "index": "19", "@osmId": "node/231454841", "name": "Les Aubes", "opening_hours": null, "label": "Tram & light-rail stops", "color": "#ef3b2c" }, "geometry": { "type": "Point", "coordinates": [ 3.8883314, 43.6139508 ] } },
{ "type": "Feature", "properties": { "index": "20", "@osmId": "node/250677074", "name": "Pompignane", "opening_hours": null, "label": "Tram & light-rail stops", "color": "#ef3b2c" }, "geometry": { "type": "Point", "coordinates": [ 3.8949065, 43.6125111 ] } },
{ "type": "Feature", "properties": { "index": "21", "@osmId": "node/265410397", "name": "Antigone", "opening_hours": null, "label": "Tram & light-rail stops", "color": "#ef3b2c" }, "geometry": { "type": "Point", "coordinates": [ 3.8866898, 43.6086092 ] } },
{ "type": "Feature", "properties": { "index": "22", "@osmId": "node/267847611", "name": "Léon Blum", "opening_hours": null, "label": "Tram & light-rail stops", "color": "#ef3b2c" }, "geometry": { "type": "Point", "coordinates": [ 3.8902941, 43.6088993 ] } },
{ "type": "Feature", "properties": { "index": "23", "@osmId": "node/267929741", "name": "Place de l'Europe", "opening_hours": null, "label": "Tram & light-rail stops", "color": "#ef3b2c" }, "geometry": { "type": "Point", "coordinates": [ 3.8939097, 43.6072981 ] } },
{ "type": "Feature", "properties": { "index": "24", "@osmId": "node/279556951", "name": "Rondelet", "opening_hours": null, "label": "Tram & light-rail stops", "color": "#ef3b2c" }, "geometry": { "type": "Point", "coordinates": [ 3.8761818, 43.6030665 ] } },
{ "type": "Feature", "properties": { "index": "25", "@osmId": "node/281177110", "name": "Port Marianne", "opening_hours": null, "label": "Tram & light-rail stops", "color": "#ef3b2c" }, "geometry": { "type": "Point", "coordinates": [ 3.8997688, 43.6016281 ] } },
{ "type": "Feature", "properties": { "index": "26", "@osmId": "node/317827455", "name": "Mondial 98", "opening_hours": null, "label": "Tram & light-rail stops", "color": "#ef3b2c" }, "geometry": { "type": "Point", "coordinates": [ 3.9041182, 43.6027649 ] } },
{ "type": "Feature", "properties": { "index": "27", "@osmId": "node/1253673426", "name": "Gare Saint-Roch - République", "opening_hours": null, "label": "Tram & light-rail stops", "color": "#ef3b2c" }, "geometry": { "type": "Point", "coordinates": [ 3.8797962, 43.6051723 ] } },
{ "type": "Feature", "properties": { "index": "28", "@osmId": "node/1506452485", "name": "Observatoire", "opening_hours": null, "label": "Tram & light-rail stops", "color": "#ef3b2c" }, "geometry": { "type": "Point", "coordinates": [ 3.8766896, 43.606427 ] } },
{ "type": "Feature", "properties": { "index": "29", "@osmId": "node/1506452489", "name": "Plan Cabanes", "opening_hours": null, "label": "Tram & light-rail stops", "color": "#ef3b2c" }, "geometry": { "type": "Point", "coordinates": [ 3.8680755, 43.6085497 ] } },
{ "type": "Feature", "properties": { "index": "30", "@osmId": "node/1547396457", "name": "Rondelet", "opening_hours": null, "label": "Tram & light-rail stops", "color": "#ef3b2c" }, "geometry": { "type": "Point", "coordinates": [ 3.8759259, 43.6031345 ] } },
{ "type": "Feature", "properties": { "index": "31", "@osmId": "node/1585675583", "name": "Observatoire", "opening_hours": null, "label": "Tram & light-rail stops", "color": "#ef3b2c" }, "geometry": { "type": "Point", "coordinates": [ 3.8768143, 43.6063438 ] } },
{ "type": "Feature", "properties": { "index": "32", "@osmId": "node/1675121446", "name": "Gambetta", "opening_hours": null, "label": "Tram & light-rail stops", "color": "#ef3b2c" }, "geometry": { "type": "Point", "coordinates": [ 3.8739545, 43.6055891 ] } },
{ "type": "Feature", "properties": { "index": "33", "@osmId": "node/1675121448", "name": "Gambetta - Chaptal", "opening_hours": null, "label": "Tram & light-rail stops", "color": "#ef3b2c" }, "geometry": { "type": "Point", "coordinates": [ 3.8727299, 43.6062372 ] } },
{ "type": "Feature", "properties": { "index": "34", "@osmId": "node/1680783345", "name": "Gare Saint-Roch - République", "opening_hours": null, "label": "Tram & light-rail stops", "color": "#ef3b2c" }, "geometry": { "type": "Point", "coordinates": [ 3.8797132, 43.6052424 ] } },
{ "type": "Feature", "properties": { "index": "35", "@osmId": "node/2305432920", "name": "Comédie", "opening_hours": null, "label": "Tram & light-rail stops", "color": "#ef3b2c" }, "geometry": { "type": "Point", "coordinates": [ 3.8798137, 43.6083781 ] } },
{ "type": "Feature", "properties": { "index": "36", "@osmId": "node/2305432922", "name": "Gare Saint-Roch", "opening_hours": null, "label": "Tram & light-rail stops", "color": "#ef3b2c" }, "geometry": { "type": "Point", "coordinates": [ 3.8802526, 43.6056635 ] } },
{ "type": "Feature", "properties": { "index": "37", "@osmId": "node/2565144095", "name": "Moularès (Hôtel de Ville)", "opening_hours": null, "label": "Tram & light-rail stops", "color": "#ef3b2c" }, "geometry": { "type": "Point", "coordinates": [ 3.8955356, 43.6006479 ] } },
{ "type": "Feature", "properties": { "index": "38", "@osmId": "node/2572111087", "name": "Mondial 98", "opening_hours": null, "label": "Tram & light-rail stops", "color": "#ef3b2c" }, "geometry": { "type": "Point", "coordinates": [ 3.903967, 43.6027593 ] } },
{ "type": "Feature", "properties": { "index": "39", "@osmId": "node/2575586331", "name": "Rives du Lez", "opening_hours": null, "label": "Tram & light-rail stops", "color": "#ef3b2c" }, "geometry": { "type": "Point", "coordinates": [ 3.8948981, 43.6043283 ] } },
{ "type": "Feature", "properties": { "index": "40", "@osmId": "node/2575586432", "name": "Place de l'Europe", "opening_hours": null, "label": "Tram & light-rail stops", "color": "#ef3b2c" }, "geometry": { "type": "Point", "coordinates": [ 3.8939694, 43.6073923 ] } },
{ "type": "Feature", "properties": { "index": "41", "@osmId": "node/3118400913", "name": "Beaux-Arts", "opening_hours": null, "label": "Tram & light-rail stops", "color": "#ef3b2c" }, "geometry": { "type": "Point", "coordinates": [ 3.8834353, 43.6169338 ] } },
{ "type": "Feature", "properties": { "index": "42", "@osmId": "node/3118400914", "name": "Corum", "opening_hours": null, "label": "Tram & light-rail stops", "color": "#ef3b2c" }, "geometry": { "type": "Point", "coordinates": [ 3.881667, 43.6141886 ] } },
{ "type": "Feature", "properties": { "index": "43", "@osmId": "node/3118400915", "name": "Corum", "opening_hours": null, "label": "Tram & light-rail stops", "color": "#ef3b2c" }, "geometry": { "type": "Point", "coordinates": [ 3.8821386, 43.6144479 ] } },
{ "type": "Feature", "properties": { "index": "44", "@osmId": "node/3118400917", "name": "Louis Blanc - Agora de la Danse", "opening_hours": null, "label": "Tram & light-rail stops", "color": "#ef3b2c" }, "geometry": { "type": "Point", "coordinates": [ 3.8780174, 43.6147682 ] } },
{ "type": "Feature", "properties": { "index": "45", "@osmId": "node/3118400918", "name": "Albert 1er - Saint-Charles", "opening_hours": null, "label": "Tram & light-rail stops", "color": "#ef3b2c" }, "geometry": { "type": "Point", "coordinates": [ 3.8739949, 43.6166028 ] } },
{ "type": "Feature", "properties": { "index": "46", "@osmId": "node/3118523797", "name": "Les Aubes", "opening_hours": null, "label": "Tram & light-rail stops", "color": "#ef3b2c" }, "geometry": { "type": "Point", "coordinates": [ 3.8881044, 43.61399 ] } },
{ "type": "Feature", "properties": { "index": "47", "@osmId": "node/3118523798", "name": "Pompignane", "opening_hours": null, "label": "Tram & light-rail stops", "color": "#ef3b2c" }, "geometry": { "type": "Point", "coordinates": [ 3.8949896, 43.6126573 ] } },
{ "type": "Feature", "properties": { "index": "48", "@osmId": "node/3118564775", "name": "Du Guesclin", "opening_hours": null, "label": "Tram & light-rail stops", "color": "#ef3b2c" }, "geometry": { "type": "Point", "coordinates": [ 3.8833017, 43.6071804 ] } },
{ "type": "Feature", "properties": { "index": "49", "@osmId": "node/3119065612", "name": "Antigone", "opening_hours": null, "label": "Tram & light-rail stops", "color": "#ef3b2c" }, "geometry": { "type": "Point", "coordinates": [ 3.8866241, 43.6084999 ] } },
{ "type": "Feature", "properties": { "index": "50", "@osmId": "node/3119065613", "name": "Du Guesclin", "opening_hours": null, "label": "Tram & light-rail stops", "color": "#ef3b2c" }, "geometry": { "type": "Point", "coordinates": [ 3.8831972, 43.6070636 ] } },
{ "type": "Feature", "properties": { "index": "51", "@osmId": "node/3119065614", "name": "Léon Blum", "opening_hours": null, "label": "Tram & light-rail stops", "color": "#ef3b2c" }, "geometry": { "type": "Point", "coordinates": [ 3.8900989, 43.6089494 ] } },
{ "type": "Feature", "properties": { "index": "52", "@osmId": "node/3122456986", "name": "Voltaire", "opening_hours": null, "label": "Tram & light-rail stops", "color": "#ef3b2c" }, "geometry": { "type": "Point", "coordinates": [ 3.8889694, 43.6037185 ] } },
{ "type": "Feature", "properties": { "index": "53", "@osmId": "node/3123033195", "name": "Plan Cabanes", "opening_hours": null, "label": "Tram & light-rail stops", "color": "#ef3b2c" }, "geometry": { "type": "Point", "coordinates": [ 3.8681304, 43.6085626 ] } },
{ "type": "Feature", "properties": { "index": "54", "@osmId": "node/3123093631", "name": "Boutonnet  - Cité des Arts", "opening_hours": null, "label": "Tram & light-rail stops", "color": "#ef3b2c" }, "geometry": { "type": "Point", "coordinates": [ 3.868106, 43.6226771 ] } },
{ "type": "Feature", "properties": { "index": "55", "@osmId": "node/3123093686", "name": "Stade Philippidès", "opening_hours": null, "label": "Tram & light-rail stops", "color": "#ef3b2c" }, "geometry": { "type": "Point", "coordinates": [ 3.8695186, 43.6190802 ] } },
{ "type": "Feature", "properties": { "index": "56", "@osmId": "node/3124627562", "name": "Port Marianne", "opening_hours": null, "label": "Tram & light-rail stops", "color": "#ef3b2c" }, "geometry": { "type": "Point", "coordinates": [ 3.8994636, 43.601566 ] } },
{ "type": "Feature", "properties": { "index": "57", "@osmId": "node/3124636918", "name": "Place Carnot", "opening_hours": null, "label": "Tram & light-rail stops", "color": "#ef3b2c" }, "geometry": { "type": "Point", "coordinates": [ 3.8842576, 43.6037042 ] } },
{ "type": "Feature", "properties": { "index": "58", "@osmId": "node/3124636922", "name": "Rives du Lez - Consuls de Mer", "opening_hours": null, "label": "Tram & light-rail stops", "color": "#ef3b2c" }, "geometry": { "type": "Point", "coordinates": [ 3.8938614, 43.6040207 ] } },
{ "type": "Feature", "properties": { "index": "59", "@osmId": "node/3124671375", "name": "Jeu de Mail des Abbés", "opening_hours": null, "label": "Tram & light-rail stops", "color": "#ef3b2c" }, "geometry": { "type": "Point", "coordinates": [ 3.8840474, 43.6204066 ] } },
{ "type": "Feature", "properties": { "index": "60", "@osmId": "node/3728561514", "name": "Peyrou - Arc de Triomphe", "opening_hours": null, "label": "Tram & light-rail stops", "color": "#ef3b2c" }, "geometry": { "type": "Point", "coordinates": [ 3.8723484, 43.6117993 ] } },
{ "type": "Feature", "properties": { "index": "61", "@osmId": "node/3728561636", "name": "Saint-Guilhem - Courreau", "opening_hours": null, "label": "Tram & light-rail stops", "color": "#ef3b2c" }, "geometry": { "type": "Point", "coordinates": [ 3.8735064, 43.6081132 ] } },
{ "type": "Feature", "properties": { "index": "62", "@osmId": "node/4345616053", "name": "Saint-Guilhem - Courreau", "opening_hours": null, "label": "Tram & light-rail stops", "color": "#ef3b2c" }, "geometry": { "type": "Point", "coordinates": [ 3.8735437, 43.6081284 ] } },
{ "type": "Feature", "properties": { "index": "63", "@osmId": "node/4345616056", "name": "Peyrou - Arc de Triomphe", "opening_hours": null, "label": "Tram & light-rail stops", "color": "#ef3b2c" }, "geometry": { "type": "Point", "coordinates": [ 3.8722575, 43.611415 ] } },
{ "type": "Feature", "properties": { "index": "64", "@osmId": "node/4345616072", "name": "Albert 1er - Jardin des Plantes", "opening_hours": null, "label": "Tram & light-rail stops", "color": "#ef3b2c" }, "geometry": { "type": "Point", "coordinates": [ 3.8737832, 43.6148176 ] } },
{ "type": "Feature", "properties": { "index": "65", "@osmId": "node/4345616073", "name": "Albert 1er - Jardin des Plantes", "opening_hours": null, "label": "Tram & light-rail stops", "color": "#ef3b2c" }, "geometry": { "type": "Point", "coordinates": [ 3.873733, 43.6148246 ] } },
{ "type": "Feature", "properties": { "index": "66", "@osmId": "node/6568557590", "name": "Jeu de Mail des Abbés", "opening_hours": null, "label": "Tram & light-rail stops", "color": "#ef3b2c" }, "geometry": { "type": "Point", "coordinates": [ 3.8840985, 43.6204139 ] } },
{ "type": "Feature", "properties": { "index": "67", "@osmId": "node/11885078572", "name": "Place du 8 Mai 1945", "opening_hours": null, "label": "Tram & light-rail stops", "color": "#ef3b2c" }, "geometry": { "type": "Point", "coordinates": [ 3.8678958, 43.6012206 ] } },
{ "type": "Feature", "properties": { "index": "68", "@osmId": "node/11885078573", "name": "Place du 8 Mai 1945", "opening_hours": null, "label": "Tram & light-rail stops", "color": "#ef3b2c" }, "geometry": { "type": "Point", "coordinates": [ 3.8682609, 43.6014042 ] } },
{ "type": "Feature", "properties": { "index": "69", "@osmId": "node/11885078574", "name": "Parc Clemenceau", "opening_hours": null, "label": "Tram & light-rail stops", "color": "#ef3b2c" }, "geometry": { "type": "Point", "coordinates": [ 3.8718545, 43.6032034 ] } },
{ "type": "Feature", "properties": { "index": "70", "@osmId": "node/11885078575", "name": "Parc Clemenceau", "opening_hours": null, "label": "Tram & light-rail stops", "color": "#ef3b2c" }, "geometry": { "type": "Point", "coordinates": [ 3.8720429, 43.6033357 ] } },
{ "type": "Feature", "properties": { "index": "71", "@osmId": "node/11885078576", "name": "Gambetta - Saint-Denis", "opening_hours": null, "label": "Tram & light-rail stops", "color": "#ef3b2c" }, "geometry": { "type": "Point", "coordinates": [ 3.8745798, 43.6051115 ] } }
]
}
