{
"type": "FeatureCollection",
"features": [
{ "type": "Feature", "properties": { "index": "279", "@osmId": "node/522795856", "name": "Europa", "opening_hours": null, "label": "Car-sharing points", "color": "#f16913" }, "geometry": { "type": "Point", "coordinates": [ 3.8928277, 43.6079283 ] } },
{ "type": "Feature", "properties": { "index": "280", "@osmId": "node/522809858", "name": "Carnot", "opening_hours": null, "label": "Car-sharing points", "color": "#f16913" }, "geometry": { "type": "Point", "coordinates": [ 3.8849886, 43.6032434 ] } },
{ "type": "Feature", "properties": { "index": "281", "@osmId": "node/522810311", "name": "Corum", "opening_hours": null, "label": "Car-sharing points", "color": "#f16913" }, "geometry": { "type": "Point", "coordinates": [ 3.881621, 43.612807 ] } },
{ "type": "Feature", "properties": { "index": "282", "@osmId": "node/522811545", "name": "Jeu de Mail des Abbés", "opening_hours": null, "label": "Car-sharing points", "color": "#f16913" }, "geometry": { "type": "Point", "coordinates": [ 3.8839408, 43.6197908 ] } },
{ "type": "Feature", "properties": { "index": "283", "@osmId": "node/576693413", "name": "Albert 1er", "opening_hours": null, "label": "Car-sharing points", "color": "#f16913" }, "geometry": { "type": "Point", "coordinates": [ 3.8730356, 43.6173138 ] } },
{ "type": "Feature", "properties": { "index": "284", "@osmId": "node/576701432", "name": "Arc de Triomphe", "opening_hours": null, "label": "Car-sharing points", "color": "#f16913" }, "geometry": { "type": "Point", "coordinates": [ 3.8727484, 43.6109823 ] } },
{ "type": "Feature", "properties": { "index": "285", "@osmId": "node/576702917", "name": "Gambetta", "opening_hours": null, "label": "Car-sharing points", "color": "#f16913" }, "geometry": { "type": "Point", "coordinates": [ 3.8690684, 43.6079992 ] } },
{ "type": "Feature", "properties": { "index": "286", "@osmId": "node/5299390853", "name": "Lodève", "opening_hours": null, "label": "Car-sharing points", "color": "#f16913" }, "geometry": { "type": "Point", "coordinates": [ 3.8643755, 43.6096377 ] } },
{ "type": "Feature", "properties": { "index": "287", "@osmId": "node/576712285", "name": "Port Marianne", "opening_hours": null, "label": "Car-sharing points", "color": "#f16913" }, "geometry": { "type": "Point", "coordinates": [ 3.9002343, 43.6019854 ] } },
{ "type": "Feature", "properties": { "index": "288", "@osmId": "node/576713413", "name": "Renouvier", "opening_hours": null, "label": "Car-sharing points", "color": "#f16913" }, "geometry": { "type": "Point", "coordinates": [ 3.8678316, 43.6031881 ] } },
{ "type": "Feature", "properties": { "index": "289", "@osmId": "node/5299431322", "name": "Père Soulas", "opening_hours": null, "label": "Car-sharing points", "color": "#f16913" }, "geometry": { "type": "Point", "coordinates": [ 3.8637124, 43.6184151 ] } },
{ "type": "Feature", "properties": { "index": "290", "@osmId": "node/1300409153", "name": "Comédie", "opening_hours": null, "label": "Car-sharing points", "color": "#f16913" }, "geometry": { "type": "Point", "coordinates": [ 3.8802495, 43.6087212 ] } },
{ "type": "Feature", "properties": { "index": "291", "@osmId": "node/2060773809", "name": "Beaux-Arts", "opening_hours": null, "label": "Car-sharing points", "color": "#f16913" }, "geometry": { "type": "Point", "coordinates": [ 3.8803169, 43.6164388 ] } },
{ "type": "Feature", "properties": { "index": "292", "@osmId": "node/2380676607", "name": "Gare Saint-Roch", "opening_hours": null, "label": "Car-sharing points", "color": "#f16913" }, "geometry": { "type": "Point", "coordinates": [ 3.8803625, 43.6026187 ] } },
{ "type": "Feature", "properties": { "index": "293", "@osmId": "node/5299431323", "name": "Agriculture", "opening_hours": null, "label": "Car-sharing points", "color": "#f16913" }, "geometry": { "type": "Point", "coordinates": [ 3.8562512, 43.615521 ] } },
{ "type": "Feature", "properties": { "index": "294", "@osmId": "node/4009816466", "name": "Vieille Poste", "opening_hours": null, "label": "Car-sharing points", "color": "#f16913" }, "geometry": { "type": "Point", "coordinates": [ 3.9037246, 43.6155121 ] } },
{ "type": "Feature", "properties": { "index": "295", "@osmId": "node/5299340990", "name": "Station d'autopartage Nouvelle mairie", "opening_hours": null, "label": "Car-sharing points", "color": "#f16913" }, "geometry": { "type": "Point", "coordinates": [ 3.894709, 43.6002954 ] } },
{ "type": "Feature", "properties": { "index": "296", "@osmId": "node/5299355962", "name": "Station d'autopartage Antigone", "opening_hours": null, "label": "Car-sharing points", "color": "#f16913" }, "geometry": { "type": "Point", "coordinates": [ 3.8864948, 43.6072959 ] } },
{ "type": "Feature", "properties": { "index": "297", "@osmId": "node/5299355963", "name": "Station d'autopartage parking Gambetta", "opening_hours": null, "label": "Car-sharing points", "color": "#f16913" }, "geometry": { "type": "Point", "coordinates": [ 3.874185, 43.6053726 ] } },
{ "type": "Feature", "properties": { "index": "298", "@osmId": "node/5299355964", "name": "Station d'autopartage Laissac-Durand", "opening_hours": null, "label": "Car-sharing points", "color": "#f16913" }, "geometry": { "type": "Point", "coordinates": [ 3.878041, 43.6051934 ] } },
{ "type": "Feature", "properties": { "index": "299", "@osmId": "node/5299355965", "name": "Station d'autopartage parking Saint-Roch", "opening_hours": null, "label": "Car-sharing points", "color": "#f16913" }, "geometry": { "type": "Point", "coordinates": [ 3.8788828, 43.6035225 ] } },
{ "type": "Feature", "properties": { "index": "300", "@osmId": "node/5299362334", "name": "Station d'autopartage Préfecture", "opening_hours": null, "label": "Car-sharing points", "color": "#f16913" }, "geometry": { "type": "Point", "coordinates": [ 3.8765433, 43.610631 ] } },
{ "type": "Feature", "properties": { "index": "301", "@osmId": "node/5299370888", "name": "Station d'autopartage Pont Juvénal", "opening_hours": null, "label": "Car-sharing points", "color": "#f16913" }, "geometry": { "type": "Point", "coordinates": [ 3.8842854, 43.6062687 ] } },
{ "type": "Feature", "properties": { "index": "302", "@osmId": "node/5299390854", "name": "Faubourg Saint-Jaumes", "opening_hours": null, "label": "Car-sharing points", "color": "#f16913" }, "geometry": { "type": "Point", "coordinates": [ 3.8695985, 43.6156735 ] } },
{ "type": "Feature", "properties": { "index": "303", "@osmId": "node/5299390855", "name": "Parking Corum", "opening_hours": null, "label": "Car-sharing points", "color": "#f16913" }, "geometry": { "type": "Point", "coordinates": [ 3.8814505, 43.6133539 ] } },
{ "type": "Feature", "properties": { "index": "304", "@osmId": "node/5299390856", "name": "Les Aubes", "opening_hours": null, "label": "Car-sharing points", "color": "#f16913" }, "geometry": { "type": "Point", "coordinates": [ 3.8922774, 43.6153853 ] } },
{ "type": "Feature", "properties": { "index": "305", "@osmId": "node/5299431321", "name": "Boutonnet", "opening_hours": null, "label": "Car-sharing points", "color": "#f16913" }, "geometry": { "type": "Point", "coordinates": [ 3.8712305, 43.6222604 ] } },
{ "type": "Feature", "properties": { "index": "306", "@osmId": "node/12192799703", "name": null, "opening_hours": null, "label": "Car-sharing points", "color": "#f16913" }, "geometry": { "type": "Point", "coordinates": [ 3.8886552, 43.6191573 ] } },
{ "type": "Feature", "properties": { "index": "307", "@osmId": "node/12588039696", "name": null, "opening_hours": null, "label": "Car-sharing points", "color": "#f16913" }, "geometry": { "type": "Point", "coordinates": [ 3.8874711, 43.6151121 ] } },
{ "type": "Feature", "properties": { "index": "308", "@osmId": "node/13272652258", "name": "Richter", "opening_hours": "24/7", "label": "Car-sharing points", "color": "#f16913" }, "geometry": { "type": "Point", "coordinates": [ 3.8992828, 43.6048445 ] } }
]
}
