{
"type": "FeatureCollection",
"features": [
{ "type": "Feature", "properties": { "index": "72", "@osmId": "way/361199815", "name": null, "opening_hours": null, "label": "Bus stops", "color": "#4292c6" }, "geometry": { "type": "Point", "coordinates": [ 3.898652, 43.6238481 ] } },
{ "type": "Feature", "properties": { "index": "73", "@osmId": "way/361199816", "name": null, "opening_hours": null, "label": "Bus stops", "color": "#4292c6" }, "geometry": { "type": "Point", "coordinates": [ 3.8988156, 43.6238449 ] } },
{ "type": "Feature", "properties": { "index": "74", "@osmId": "way/362994810", "name": "André Malraux", "opening_hours": null, "label": "Bus stops", "color": "#4292c6" }, "geometry": { "type": "Point", "coordinates": [ 3.900233, 43.6195264 ] } },
{ "type": "Feature", "properties": { "index": "75", "@osmId": "way/362994817", "name": "Semard", "opening_hours": null, "label": "Bus stops", "color": "#4292c6" }, "geometry": { "type": "Point", "coordinates": [ 3.9030587, 43.6192019 ] } },
{ "type": "Feature", "properties": { "index": "76", "@osmId": "way/722380903", "name": "Maison des Sports", "opening_hours": null, "label": "Bus stops", "color": "#4292c6" }, "geometry": { "type": "Point", "coordinates": [ 3.8646542, 43.6184376 ] } },
{ "type": "Feature", "properties": { "index": "77", "@osmId": "way/722380904", "name": "Maison des Sports", "opening_hours": null, "label": "Bus stops", "color": "#4292c6" }, "geometry": { "type": "Point", "coordinates": [ 3.8643156, 43.6183122 ] } },
{ "type": "Feature", "properties": { "index": "78", "@osmId": "way/722621487", "name": "La Source", "opening_hours": null, "label": "Bus stops", "color": "#4292c6" }, "geometry": { "type": "Point", "coordinates": [ 3.8567878, 43.6210562 ] } },
{ "type": "Feature", "properties": { "index": "79", "@osmId": "way/722621488", "name": "La Source", "opening_hours": null, "label": "Bus stops", "color": "#4292c6" }, "geometry": { "type": "Point", "coordinates": [ 3.8560887, 43.6216726 ] } },
{ "type": "Feature", "properties": { "index": "80", "@osmId": "way/722621489", "name": "Cervantès", "opening_hours": null, "label": "Bus stops", "color": "#4292c6" }, "geometry": { "type": "Point", "coordinates": [ 3.8550456, 43.622166 ] } },
{ "type": "Feature", "properties": { "index": "81", "@osmId": "way/123341247", "name": "Boutonnet - Cité des Arts", "opening_hours": null, "label": "Bus stops", "color": "#4292c6" }, "geometry": { "type": "Point", "coordinates": [ 3.8680561, 43.622599 ] } },
{ "type": "Feature", "properties": { "index": "82", "@osmId": "way/123341248", "name": "Boutonnet - Cité des Arts", "opening_hours": null, "label": "Bus stops", "color": "#4292c6" }, "geometry": { "type": "Point", "coordinates": [ 3.8681642, 43.6226274 ] } },
{ "type": "Feature", "properties": { "index": "83", "@osmId": "way/669016496", "name": null, "opening_hours": null, "label": "Bus stops", "color": "#4292c6" }, "geometry": { "type": "Point", "coordinates": [ 3.8550881, 43.610246 ] } },
{ "type": "Feature", "properties": { "index": "84", "@osmId": "way/669016500", "name": null, "opening_hours": null, "label": "Bus stops", "color": "#4292c6" }, "geometry": { "type": "Point", "coordinates": [ 3.8550804, 43.6103022 ] } },
{ "type": "Feature", "properties": { "index": "85", "@osmId": "way/362994812", "name": "Colverts", "opening_hours": null, "label": "Bus stops", "color": "#4292c6" }, "geometry": { "type": "Point", "coordinates": [ 3.8982047, 43.6138129 ] } },
{ "type": "Feature", "properties": { "index": "86", "@osmId": "way/362994821", "name": "Saint-Jean", "opening_hours": null, "label": "Bus stops", "color": "#4292c6" }, "geometry": { "type": "Point", "coordinates": [ 3.8976518, 43.6156079 ] } },
{ "type": "Feature", "properties": { "index": "87", "@osmId": "way/362994824", "name": "Colverts", "opening_hours": null, "label": "Bus stops", "color": "#4292c6" }, "geometry": { "type": "Point", "coordinates": [ 3.8980864, 43.6136923 ] } },
{ "type": "Feature", "properties": { "index": "88", "@osmId": "way/721526151", "name": "Saint-Jean", "opening_hours": null, "label": "Bus stops", "color": "#4292c6" }, "geometry": { "type": "Point", "coordinates": [ 3.8978093, 43.6154896 ] } },
{ "type": "Feature", "properties": { "index": "89", "@osmId": "way/721526152", "name": "Place de l'Europe", "opening_hours": null, "label": "Bus stops", "color": "#4292c6" }, "geometry": { "type": "Point", "coordinates": [ 3.894175, 43.6073138 ] } },
{ "type": "Feature", "properties": { "index": "90", "@osmId": "way/1458134272", "name": null, "opening_hours": null, "label": "Bus stops", "color": "#4292c6" }, "geometry": { "type": "Point", "coordinates": [ 3.8994358, 43.6100498 ] } },
{ "type": "Feature", "properties": { "index": "91", "@osmId": "way/1458134273", "name": null, "opening_hours": null, "label": "Bus stops", "color": "#4292c6" }, "geometry": { "type": "Point", "coordinates": [ 3.8994475, 43.6099805 ] } },
{ "type": "Feature", "properties": { "index": "92", "@osmId": "way/1458134276", "name": null, "opening_hours": null, "label": "Bus stops", "color": "#4292c6" }, "geometry": { "type": "Point", "coordinates": [ 3.8981833, 43.606283 ] } },
{ "type": "Feature", "properties": { "index": "93", "@osmId": "way/1458134278", "name": null, "opening_hours": null, "label": "Bus stops", "color": "#4292c6" }, "geometry": { "type": "Point", "coordinates": [ 3.8980511, 43.6061905 ] } },
{ "type": "Feature", "properties": { "index": "94", "@osmId": "way/75043496", "name": "Du Guesclin", "opening_hours": null, "label": "Bus stops", "color": "#4292c6" }, "geometry": { "type": "Point", "coordinates": [ 3.8832735, 43.6070394 ] } },
{ "type": "Feature", "properties": { "index": "95", "@osmId": "way/75274826", "name": "Antigone", "opening_hours": null, "label": "Bus stops", "color": "#4292c6" }, "geometry": { "type": "Point", "coordinates": [ 3.8865853, 43.6085845 ] } },
{ "type": "Feature", "properties": { "index": "96", "@osmId": "way/363314697", "name": "Soleiado", "opening_hours": null, "label": "Bus stops", "color": "#4292c6" }, "geometry": { "type": "Point", "coordinates": [ 3.8869979, 43.6003012 ] } },
{ "type": "Feature", "properties": { "index": "97", "@osmId": "way/363314698", "name": "Soleiado", "opening_hours": null, "label": "Bus stops", "color": "#4292c6" }, "geometry": { "type": "Point", "coordinates": [ 3.8865687, 43.6006826 ] } },
{ "type": "Feature", "properties": { "index": "98", "@osmId": "way/722380895", "name": "Rondelet", "opening_hours": null, "label": "Bus stops", "color": "#4292c6" }, "geometry": { "type": "Point", "coordinates": [ 3.8748139, 43.6040249 ] } },
{ "type": "Feature", "properties": { "index": "99", "@osmId": "node/571812677", "name": "Fac de Pharmacie", "opening_hours": null, "label": "Bus stops", "color": "#4292c6" }, "geometry": { "type": "Point", "coordinates": [ 3.8616203, 43.62362 ] } },
{ "type": "Feature", "properties": { "index": "100", "@osmId": "node/571812697", "name": "Fac de Pharmacie", "opening_hours": null, "label": "Bus stops", "color": "#4292c6" }, "geometry": { "type": "Point", "coordinates": [ 3.8633118, 43.6245945 ] } },
{ "type": "Feature", "properties": { "index": "101", "@osmId": "node/571812701", "name": "Voie Domitienne", "opening_hours": null, "label": "Bus stops", "color": "#4292c6" }, "geometry": { "type": "Point", "coordinates": [ 3.8596567, 43.6222972 ] } },
{ "type": "Feature", "properties": { "index": "102", "@osmId": "node/571812702", "name": "Voie Domitienne", "opening_hours": null, "label": "Bus stops", "color": "#4292c6" }, "geometry": { "type": "Point", "coordinates": [ 3.8604863, 43.6226379 ] } },
{ "type": "Feature", "properties": { "index": "103", "@osmId": "node/575745579", "name": "Cinsaults", "opening_hours": null, "label": "Bus stops", "color": "#4292c6" }, "geometry": { "type": "Point", "coordinates": [ 3.856902, 43.6206125 ] } },
{ "type": "Feature", "properties": { "index": "104", "@osmId": "node/575745580", "name": "Cinsaults", "opening_hours": null, "label": "Bus stops", "color": "#4292c6" }, "geometry": { "type": "Point", "coordinates": [ 3.8569901, 43.6205134 ] } },
{ "type": "Feature", "properties": { "index": "105", "@osmId": "node/577005678", "name": "Las Sorbes", "opening_hours": null, "label": "Bus stops", "color": "#4292c6" }, "geometry": { "type": "Point", "coordinates": [ 3.8550196, 43.6152826 ] } },
{ "type": "Feature", "properties": { "index": "106", "@osmId": "node/577007072", "name": "Érables", "opening_hours": null, "label": "Bus stops", "color": "#4292c6" }, "geometry": { "type": "Point", "coordinates": [ 3.8568513, 43.614987 ] } },
{ "type": "Feature", "properties": { "index": "107", "@osmId": "node/577007075", "name": "Érables", "opening_hours": null, "label": "Bus stops", "color": "#4292c6" }, "geometry": { "type": "Point", "coordinates": [ 3.8570875, 43.6149266 ] } },
{ "type": "Feature", "properties": { "index": "108", "@osmId": "node/577009664", "name": "Louvain", "opening_hours": null, "label": "Bus stops", "color": "#4292c6" }, "geometry": { "type": "Point", "coordinates": [ 3.8586079, 43.6134726 ] } },
{ "type": "Feature", "properties": { "index": "109", "@osmId": "node/577009665", "name": "Louvain", "opening_hours": null, "label": "Bus stops", "color": "#4292c6" }, "geometry": { "type": "Point", "coordinates": [ 3.8590117, 43.6133158 ] } },
{ "type": "Feature", "properties": { "index": "110", "@osmId": "node/577010733", "name": "Benjamin Milhaud", "opening_hours": null, "label": "Bus stops", "color": "#4292c6" }, "geometry": { "type": "Point", "coordinates": [ 3.8611766, 43.6121671 ] } },
{ "type": "Feature", "properties": { "index": "111", "@osmId": "node/577010735", "name": "Benjamin Milhaud", "opening_hours": null, "label": "Bus stops", "color": "#4292c6" }, "geometry": { "type": "Point", "coordinates": [ 3.8611062, 43.6121104 ] } },
{ "type": "Feature", "properties": { "index": "112", "@osmId": "node/577012013", "name": "Glycines", "opening_hours": null, "label": "Bus stops", "color": "#4292c6" }, "geometry": { "type": "Point", "coordinates": [ 3.8631616, 43.6120045 ] } },
{ "type": "Feature", "properties": { "index": "113", "@osmId": "node/577012017", "name": "Glycines", "opening_hours": null, "label": "Bus stops", "color": "#4292c6" }, "geometry": { "type": "Point", "coordinates": [ 3.8639058, 43.6118714 ] } },
{ "type": "Feature", "properties": { "index": "114", "@osmId": "node/577237601", "name": "Croix du Capitaine", "opening_hours": null, "label": "Bus stops", "color": "#4292c6" }, "geometry": { "type": "Point", "coordinates": [ 3.866554, 43.6020368 ] } },
{ "type": "Feature", "properties": { "index": "115", "@osmId": "node/577237612", "name": "Mas de Merle", "opening_hours": null, "label": "Bus stops", "color": "#4292c6" }, "geometry": { "type": "Point", "coordinates": [ 3.8573143, 43.6044983 ] } },
{ "type": "Feature", "properties": { "index": "116", "@osmId": "node/577237614", "name": "Mas de Merle", "opening_hours": null, "label": "Bus stops", "color": "#4292c6" }, "geometry": { "type": "Point", "coordinates": [ 3.8576143, 43.6043177 ] } },
{ "type": "Feature", "properties": { "index": "117", "@osmId": "node/577237618", "name": "Cité Créative", "opening_hours": null, "label": "Bus stops", "color": "#4292c6" }, "geometry": { "type": "Point", "coordinates": [ 3.8626938, 43.6030266 ] } },
{ "type": "Feature", "properties": { "index": "118", "@osmId": "node/577242370", "name": "Pous de la Sers", "opening_hours": null, "label": "Bus stops", "color": "#4292c6" }, "geometry": { "type": "Point", "coordinates": [ 3.8618812, 43.6191285 ] } },
{ "type": "Feature", "properties": { "index": "119", "@osmId": "node/577242371", "name": "Pous de la Sers", "opening_hours": null, "label": "Bus stops", "color": "#4292c6" }, "geometry": { "type": "Point", "coordinates": [ 3.8612097, 43.6192596 ] } },
{ "type": "Feature", "properties": { "index": "120", "@osmId": "node/577242372", "name": "Cité Roger", "opening_hours": null, "label": "Bus stops", "color": "#4292c6" }, "geometry": { "type": "Point", "coordinates": [ 3.8585747, 43.6203924 ] } },
{ "type": "Feature", "properties": { "index": "121", "@osmId": "node/577242373", "name": "Cité Roger", "opening_hours": null, "label": "Bus stops", "color": "#4292c6" }, "geometry": { "type": "Point", "coordinates": [ 3.8583029, 43.6203738 ] } },
{ "type": "Feature", "properties": { "index": "122", "@osmId": "node/577242377", "name": "Portalière des Masques", "opening_hours": null, "label": "Bus stops", "color": "#4292c6" }, "geometry": { "type": "Point", "coordinates": [ 3.8663961, 43.6172794 ] } },
{ "type": "Feature", "properties": { "index": "123", "@osmId": "node/577368567", "name": "La Gaillarde", "opening_hours": null, "label": "Bus stops", "color": "#4292c6" }, "geometry": { "type": "Point", "coordinates": [ 3.8577303, 43.6162815 ] } },
{ "type": "Feature", "properties": { "index": "124", "@osmId": "node/577368568", "name": "La Gaillarde", "opening_hours": null, "label": "Bus stops", "color": "#4292c6" }, "geometry": { "type": "Point", "coordinates": [ 3.8586715, 43.6162637 ] } },
{ "type": "Feature", "properties": { "index": "125", "@osmId": "node/577368572", "name": "Sainte-Thérèse", "opening_hours": null, "label": "Bus stops", "color": "#4292c6" }, "geometry": { "type": "Point", "coordinates": [ 3.8655822, 43.6141097 ] } },
{ "type": "Feature", "properties": { "index": "126", "@osmId": "node/577368573", "name": "Sainte-Thérèse", "opening_hours": null, "label": "Bus stops", "color": "#4292c6" }, "geometry": { "type": "Point", "coordinates": [ 3.8652214, 43.614218 ] } },
{ "type": "Feature", "properties": { "index": "127", "@osmId": "node/577368574", "name": "Collège Camille Claudel", "opening_hours": null, "label": "Bus stops", "color": "#4292c6" }, "geometry": { "type": "Point", "coordinates": [ 3.8621563, 43.6164316 ] } },
{ "type": "Feature", "properties": { "index": "128", "@osmId": "node/1825180710", "name": "Hippolyte Rech", "opening_hours": null, "label": "Bus stops", "color": "#4292c6" }, "geometry": { "type": "Point", "coordinates": [ 3.8650937, 43.6202625 ] } },
{ "type": "Feature", "properties": { "index": "129", "@osmId": "node/1825181443", "name": "Hippolyte Rech", "opening_hours": null, "label": "Bus stops", "color": "#4292c6" }, "geometry": { "type": "Point", "coordinates": [ 3.8655814, 43.6197142 ] } },
{ "type": "Feature", "properties": { "index": "130", "@osmId": "node/1825181940", "name": "Charles Flahault", "opening_hours": null, "label": "Bus stops", "color": "#4292c6" }, "geometry": { "type": "Point", "coordinates": [ 3.8663896, 43.6184031 ] } },
{ "type": "Feature", "properties": { "index": "131", "@osmId": "node/11878973378", "name": "Cervantès", "opening_hours": null, "label": "Bus stops", "color": "#4292c6" }, "geometry": { "type": "Point", "coordinates": [ 3.8550872, 43.6221458 ] } },
{ "type": "Feature", "properties": { "index": "132", "@osmId": "node/11878973379", "name": "La Source", "opening_hours": null, "label": "Bus stops", "color": "#4292c6" }, "geometry": { "type": "Point", "coordinates": [ 3.8560393, 43.6216925 ] } },
{ "type": "Feature", "properties": { "index": "133", "@osmId": "node/11878973380", "name": "La Source", "opening_hours": null, "label": "Bus stops", "color": "#4292c6" }, "geometry": { "type": "Point", "coordinates": [ 3.8568212, 43.6210352 ] } },
{ "type": "Feature", "properties": { "index": "134", "@osmId": "node/11878997026", "name": "Maison des Sports", "opening_hours": null, "label": "Bus stops", "color": "#4292c6" }, "geometry": { "type": "Point", "coordinates": [ 3.8643529, 43.6183253 ] } },
{ "type": "Feature", "properties": { "index": "135", "@osmId": "node/11878997027", "name": "Maison des Sports", "opening_hours": null, "label": "Bus stops", "color": "#4292c6" }, "geometry": { "type": "Point", "coordinates": [ 3.864601, 43.6184312 ] } },
{ "type": "Feature", "properties": { "index": "136", "@osmId": "node/11878997030", "name": "Max Rouquette - Saint-Louis", "opening_hours": null, "label": "Bus stops", "color": "#4292c6" }, "geometry": { "type": "Point", "coordinates": [ 3.8664696, 43.6123202 ] } },
{ "type": "Feature", "properties": { "index": "137", "@osmId": "node/11879175197", "name": "Collège Camille Claudel", "opening_hours": null, "label": "Bus stops", "color": "#4292c6" }, "geometry": { "type": "Point", "coordinates": [ 3.8620836, 43.6163712 ] } },
{ "type": "Feature", "properties": { "index": "138", "@osmId": "node/12952670679", "name": "Parc Montcalm", "opening_hours": null, "label": "Bus stops", "color": "#4292c6" }, "geometry": { "type": "Point", "coordinates": [ 3.8598396, 43.6000424 ] } },
{ "type": "Feature", "properties": { "index": "139", "@osmId": "node/12952670681", "name": "Chamberte - Les Roses", "opening_hours": null, "label": "Bus stops", "color": "#4292c6" }, "geometry": { "type": "Point", "coordinates": [ 3.8563864, 43.6032369 ] } },
{ "type": "Feature", "properties": { "index": "140", "@osmId": "node/571469636", "name": "Pinville", "opening_hours": null, "label": "Bus stops", "color": "#4292c6" }, "geometry": { "type": "Point", "coordinates": [ 3.9045561, 43.6140318 ] } },
{ "type": "Feature", "properties": { "index": "141", "@osmId": "node/571469638", "name": "Pinville", "opening_hours": null, "label": "Bus stops", "color": "#4292c6" }, "geometry": { "type": "Point", "coordinates": [ 3.9045151, 43.6138859 ] } },
{ "type": "Feature", "properties": { "index": "142", "@osmId": "node/571479989", "name": "Goélands", "opening_hours": null, "label": "Bus stops", "color": "#4292c6" }, "geometry": { "type": "Point", "coordinates": [ 3.9032257, 43.6165298 ] } },
{ "type": "Feature", "properties": { "index": "143", "@osmId": "node/571479990", "name": "Goélands", "opening_hours": null, "label": "Bus stops", "color": "#4292c6" }, "geometry": { "type": "Point", "coordinates": [ 3.9032391, 43.616188 ] } },
{ "type": "Feature", "properties": { "index": "144", "@osmId": "node/571479991", "name": "Semard", "opening_hours": null, "label": "Bus stops", "color": "#4292c6" }, "geometry": { "type": "Point", "coordinates": [ 3.904336, 43.619592 ] } },
{ "type": "Feature", "properties": { "index": "145", "@osmId": "node/571479992", "name": "Semard", "opening_hours": null, "label": "Bus stops", "color": "#4292c6" }, "geometry": { "type": "Point", "coordinates": [ 3.9042341, 43.6196744 ] } },
{ "type": "Feature", "properties": { "index": "146", "@osmId": "node/571812894", "name": "Salaison", "opening_hours": null, "label": "Bus stops", "color": "#4292c6" }, "geometry": { "type": "Point", "coordinates": [ 3.8988155, 43.6238455 ] } },
{ "type": "Feature", "properties": { "index": "147", "@osmId": "node/571812913", "name": "Salaison", "opening_hours": null, "label": "Bus stops", "color": "#4292c6" }, "geometry": { "type": "Point", "coordinates": [ 3.898653, 43.6238516 ] } },
{ "type": "Feature", "properties": { "index": "148", "@osmId": "node/571812931", "name": "La Pompignane - Les Lacs", "opening_hours": null, "label": "Bus stops", "color": "#4292c6" }, "geometry": { "type": "Point", "coordinates": [ 3.8995532, 43.624712 ] } },
{ "type": "Feature", "properties": { "index": "149", "@osmId": "node/571812965", "name": "Pastourelles", "opening_hours": null, "label": "Bus stops", "color": "#4292c6" }, "geometry": { "type": "Point", "coordinates": [ 3.9012346, 43.621858 ] } },
{ "type": "Feature", "properties": { "index": "150", "@osmId": "node/571812973", "name": "Pastourelles", "opening_hours": null, "label": "Bus stops", "color": "#4292c6" }, "geometry": { "type": "Point", "coordinates": [ 3.9005006, 43.6218327 ] } },
{ "type": "Feature", "properties": { "index": "151", "@osmId": "node/576275765", "name": "Pinsons", "opening_hours": null, "label": "Bus stops", "color": "#4292c6" }, "geometry": { "type": "Point", "coordinates": [ 3.8861, 43.6169259 ] } },
{ "type": "Feature", "properties": { "index": "152", "@osmId": "node/576275772", "name": "Ernest Renan", "opening_hours": null, "label": "Bus stops", "color": "#4292c6" }, "geometry": { "type": "Point", "coordinates": [ 3.8853749, 43.6154567 ] } },
{ "type": "Feature", "properties": { "index": "153", "@osmId": "node/576275774", "name": "Ernest Renan", "opening_hours": null, "label": "Bus stops", "color": "#4292c6" }, "geometry": { "type": "Point", "coordinates": [ 3.8852393, 43.6154459 ] } },
{ "type": "Feature", "properties": { "index": "154", "@osmId": "node/576275775", "name": "Les Aubes", "opening_hours": null, "label": "Bus stops", "color": "#4292c6" }, "geometry": { "type": "Point", "coordinates": [ 3.8889163, 43.6136639 ] } },
{ "type": "Feature", "properties": { "index": "155", "@osmId": "node/576275778", "name": "Les Aubes", "opening_hours": null, "label": "Bus stops", "color": "#4292c6" }, "geometry": { "type": "Point", "coordinates": [ 3.8887007, 43.6136006 ] } },
{ "type": "Feature", "properties": { "index": "156", "@osmId": "node/576275792", "name": "Boulevard des Sports", "opening_hours": null, "label": "Bus stops", "color": "#4292c6" }, "geometry": { "type": "Point", "coordinates": [ 3.8892752, 43.6194238 ] } },
{ "type": "Feature", "properties": { "index": "157", "@osmId": "node/576275795", "name": "Boulevard des Sports", "opening_hours": null, "label": "Bus stops", "color": "#4292c6" }, "geometry": { "type": "Point", "coordinates": [ 3.8898569, 43.6195274 ] } },
{ "type": "Feature", "properties": { "index": "158", "@osmId": "node/576275798", "name": "Estragon", "opening_hours": null, "label": "Bus stops", "color": "#4292c6" }, "geometry": { "type": "Point", "coordinates": [ 3.8877601, 43.6185917 ] } },
{ "type": "Feature", "properties": { "index": "159", "@osmId": "node/576275802", "name": "Estragon", "opening_hours": null, "label": "Bus stops", "color": "#4292c6" }, "geometry": { "type": "Point", "coordinates": [ 3.8879482, 43.6186657 ] } },
{ "type": "Feature", "properties": { "index": "160", "@osmId": "node/576275804", "name": "Pinsons", "opening_hours": null, "label": "Bus stops", "color": "#4292c6" }, "geometry": { "type": "Point", "coordinates": [ 3.8862996, 43.6172079 ] } },
{ "type": "Feature", "properties": { "index": "161", "@osmId": "node/576275817", "name": "Palombes", "opening_hours": null, "label": "Bus stops", "color": "#4292c6" }, "geometry": { "type": "Point", "coordinates": [ 3.8938677, 43.6195083 ] } },
{ "type": "Feature", "properties": { "index": "162", "@osmId": "node/576275821", "name": "Saint-Maur", "opening_hours": null, "label": "Bus stops", "color": "#4292c6" }, "geometry": { "type": "Point", "coordinates": [ 3.8938744, 43.621023 ] } },
{ "type": "Feature", "properties": { "index": "163", "@osmId": "node/576275825", "name": "Saint-Maur", "opening_hours": null, "label": "Bus stops", "color": "#4292c6" }, "geometry": { "type": "Point", "coordinates": [ 3.8940516, 43.6210291 ] } },
{ "type": "Feature", "properties": { "index": "164", "@osmId": "node/576275828", "name": "Françoise", "opening_hours": null, "label": "Bus stops", "color": "#4292c6" }, "geometry": { "type": "Point", "coordinates": [ 3.8915324, 43.6200799 ] } },
{ "type": "Feature", "properties": { "index": "165", "@osmId": "node/576275830", "name": "Françoise", "opening_hours": null, "label": "Bus stops", "color": "#4292c6" }, "geometry": { "type": "Point", "coordinates": [ 3.8912001, 43.6199118 ] } },
{ "type": "Feature", "properties": { "index": "166", "@osmId": "node/576275857", "name": "Foyer des Aubes", "opening_hours": null, "label": "Bus stops", "color": "#4292c6" }, "geometry": { "type": "Point", "coordinates": [ 3.8948208, 43.6185285 ] } },
{ "type": "Feature", "properties": { "index": "167", "@osmId": "node/576275859", "name": "Foyer des Aubes", "opening_hours": null, "label": "Bus stops", "color": "#4292c6" }, "geometry": { "type": "Point", "coordinates": [ 3.8946037, 43.6184733 ] } },
{ "type": "Feature", "properties": { "index": "168", "@osmId": "node/576275862", "name": "Palombes", "opening_hours": null, "label": "Bus stops", "color": "#4292c6" }, "geometry": { "type": "Point", "coordinates": [ 3.8941058, 43.6197058 ] } },
{ "type": "Feature", "properties": { "index": "169", "@osmId": "node/576279185", "name": "Jean Mermoz", "opening_hours": null, "label": "Bus stops", "color": "#4292c6" }, "geometry": { "type": "Point", "coordinates": [ 3.8893767, 43.6125386 ] } },
{ "type": "Feature", "properties": { "index": "170", "@osmId": "node/576279190", "name": "Léon Blum", "opening_hours": null, "label": "Bus stops", "color": "#4292c6" }, "geometry": { "type": "Point", "coordinates": [ 3.8904821, 43.6093254 ] } },
{ "type": "Feature", "properties": { "index": "171", "@osmId": "node/576608097", "name": "Marie Caizergues", "opening_hours": null, "label": "Bus stops", "color": "#4292c6" }, "geometry": { "type": "Point", "coordinates": [ 3.8754324, 43.6213147 ] } },
{ "type": "Feature", "properties": { "index": "172", "@osmId": "node/576608103", "name": "Sainte-Odile", "opening_hours": null, "label": "Bus stops", "color": "#4292c6" }, "geometry": { "type": "Point", "coordinates": [ 3.8731606, 43.6225814 ] } },
{ "type": "Feature", "properties": { "index": "173", "@osmId": "node/576608145", "name": "Nazareth", "opening_hours": null, "label": "Bus stops", "color": "#4292c6" }, "geometry": { "type": "Point", "coordinates": [ 3.8803065, 43.6217117 ] } },
{ "type": "Feature", "properties": { "index": "174", "@osmId": "node/576608156", "name": "Marie Caizergues", "opening_hours": null, "label": "Bus stops", "color": "#4292c6" }, "geometry": { "type": "Point", "coordinates": [ 3.8753901, 43.6212064 ] } },
{ "type": "Feature", "properties": { "index": "175", "@osmId": "node/577242376", "name": "La Pile", "opening_hours": null, "label": "Bus stops", "color": "#4292c6" }, "geometry": { "type": "Point", "coordinates": [ 3.8681303, 43.6173142 ] } },
{ "type": "Feature", "properties": { "index": "176", "@osmId": "node/577560833", "name": "Léon Cordès", "opening_hours": null, "label": "Bus stops", "color": "#4292c6" }, "geometry": { "type": "Point", "coordinates": [ 3.8830372, 43.6015492 ] } },
{ "type": "Feature", "properties": { "index": "177", "@osmId": "node/1420023166", "name": "Garigliano", "opening_hours": null, "label": "Bus stops", "color": "#4292c6" }, "geometry": { "type": "Point", "coordinates": [ 3.8974262, 43.6187985 ] } },
{ "type": "Feature", "properties": { "index": "178", "@osmId": "node/1420024241", "name": "Garigliano", "opening_hours": null, "label": "Bus stops", "color": "#4292c6" }, "geometry": { "type": "Point", "coordinates": [ 3.8972383, 43.6186685 ] } },
{ "type": "Feature", "properties": { "index": "179", "@osmId": "node/1420093866", "name": "Pierre Laroque", "opening_hours": null, "label": "Bus stops", "color": "#4292c6" }, "geometry": { "type": "Point", "coordinates": [ 3.9042479, 43.6211824 ] } },
{ "type": "Feature", "properties": { "index": "180", "@osmId": "node/4979843829", "name": "Paul Painlevé", "opening_hours": null, "label": "Bus stops", "color": "#4292c6" }, "geometry": { "type": "Point", "coordinates": [ 3.8985894, 43.6105136 ] } },
{ "type": "Feature", "properties": { "index": "181", "@osmId": "node/6552432871", "name": "Place de l'Europe", "opening_hours": null, "label": "Bus stops", "color": "#4292c6" }, "geometry": { "type": "Point", "coordinates": [ 3.8946552, 43.6087154 ] } },
{ "type": "Feature", "properties": { "index": "182", "@osmId": "node/6552930673", "name": "Place de l'Europe", "opening_hours": null, "label": "Bus stops", "color": "#4292c6" }, "geometry": { "type": "Point", "coordinates": [ 3.8942605, 43.6081712 ] } },
{ "type": "Feature", "properties": { "index": "183", "@osmId": "node/6767551482", "name": "Pont Juvénal", "opening_hours": null, "label": "Bus stops", "color": "#4292c6" }, "geometry": { "type": "Point", "coordinates": [ 3.8980212, 43.6062864 ] } },
{ "type": "Feature", "properties": { "index": "184", "@osmId": "node/6767957875", "name": "Léon Cazal", "opening_hours": null, "label": "Bus stops", "color": "#4292c6" }, "geometry": { "type": "Point", "coordinates": [ 3.9033215, 43.6056299 ] } },
{ "type": "Feature", "properties": { "index": "185", "@osmId": "node/6767957877", "name": "Léon Cazal", "opening_hours": null, "label": "Bus stops", "color": "#4292c6" }, "geometry": { "type": "Point", "coordinates": [ 3.9032039, 43.6056709 ] } },
{ "type": "Feature", "properties": { "index": "186", "@osmId": "node/6768667972", "name": "Semard", "opening_hours": null, "label": "Bus stops", "color": "#4292c6" }, "geometry": { "type": "Point", "coordinates": [ 3.9034919, 43.6191531 ] } },
{ "type": "Feature", "properties": { "index": "187", "@osmId": "node/6768667973", "name": "André Malraux", "opening_hours": null, "label": "Bus stops", "color": "#4292c6" }, "geometry": { "type": "Point", "coordinates": [ 3.9004489, 43.6193922 ] } },
{ "type": "Feature", "properties": { "index": "188", "@osmId": "node/6768667974", "name": "Marie Durand", "opening_hours": null, "label": "Bus stops", "color": "#4292c6" }, "geometry": { "type": "Point", "coordinates": [ 3.8981147, 43.6183124 ] } },
{ "type": "Feature", "properties": { "index": "189", "@osmId": "node/6768667979", "name": "Paul Painlevé", "opening_hours": null, "label": "Bus stops", "color": "#4292c6" }, "geometry": { "type": "Point", "coordinates": [ 3.8988962, 43.6102237 ] } },
{ "type": "Feature", "properties": { "index": "190", "@osmId": "node/6770530431", "name": "Port Marianne", "opening_hours": null, "label": "Bus stops", "color": "#4292c6" }, "geometry": { "type": "Point", "coordinates": [ 3.9005354, 43.6027731 ] } },
{ "type": "Feature", "properties": { "index": "191", "@osmId": "node/6778385813", "name": "Cité Mion - Bordes", "opening_hours": null, "label": "Bus stops", "color": "#4292c6" }, "geometry": { "type": "Point", "coordinates": [ 3.8856173, 43.6009988 ] } },
{ "type": "Feature", "properties": { "index": "192", "@osmId": "node/6778385814", "name": "Frédéric Bazille", "opening_hours": null, "label": "Bus stops", "color": "#4292c6" }, "geometry": { "type": "Point", "coordinates": [ 3.880496, 43.6026986 ] } },
{ "type": "Feature", "properties": { "index": "193", "@osmId": "node/6778385815", "name": "Gare Saint-Roch (Pont de Sète)", "opening_hours": null, "label": "Bus stops", "color": "#4292c6" }, "geometry": { "type": "Point", "coordinates": [ 3.8782017, 43.6040946 ] } },
{ "type": "Feature", "properties": { "index": "194", "@osmId": "node/6778385816", "name": "Gare Saint-Roch (Pont de Sète)", "opening_hours": null, "label": "Bus stops", "color": "#4292c6" }, "geometry": { "type": "Point", "coordinates": [ 3.8792038, 43.6037433 ] } },
{ "type": "Feature", "properties": { "index": "195", "@osmId": "node/6778385817", "name": "Henri René", "opening_hours": null, "label": "Bus stops", "color": "#4292c6" }, "geometry": { "type": "Point", "coordinates": [ 3.8819604, 43.6031494 ] } },
{ "type": "Feature", "properties": { "index": "196", "@osmId": "node/6778385818", "name": "Place Carnot", "opening_hours": null, "label": "Bus stops", "color": "#4292c6" }, "geometry": { "type": "Point", "coordinates": [ 3.8838024, 43.6032735 ] } },
{ "type": "Feature", "properties": { "index": "197", "@osmId": "node/6778385819", "name": "Cité Mion", "opening_hours": null, "label": "Bus stops", "color": "#4292c6" }, "geometry": { "type": "Point", "coordinates": [ 3.8847633, 43.6013494 ] } },
{ "type": "Feature", "properties": { "index": "198", "@osmId": "node/6779350383", "name": "Max Rouquette - Paladilhe", "opening_hours": null, "label": "Bus stops", "color": "#4292c6" }, "geometry": { "type": "Point", "coordinates": [ 3.8671976, 43.6120369 ] } },
{ "type": "Feature", "properties": { "index": "199", "@osmId": "node/6789980576", "name": "Cité Mion", "opening_hours": null, "label": "Bus stops", "color": "#4292c6" }, "geometry": { "type": "Point", "coordinates": [ 3.8846823, 43.6004995 ] } },
{ "type": "Feature", "properties": { "index": "200", "@osmId": "node/6815145454", "name": "Place de l'Europe", "opening_hours": null, "label": "Bus stops", "color": "#4292c6" }, "geometry": { "type": "Point", "coordinates": [ 3.8942771, 43.6082821 ] } },
{ "type": "Feature", "properties": { "index": "201", "@osmId": "node/9733479599", "name": "Marie Durand", "opening_hours": null, "label": "Bus stops", "color": "#4292c6" }, "geometry": { "type": "Point", "coordinates": [ 3.8978435, 43.6183932 ] } },
{ "type": "Feature", "properties": { "index": "202", "@osmId": "node/9846220527", "name": "Place de l'Europe", "opening_hours": null, "label": "Bus stops", "color": "#4292c6" }, "geometry": { "type": "Point", "coordinates": [ 3.8941991, 43.6074941 ] } },
{ "type": "Feature", "properties": { "index": "203", "@osmId": "node/9848372916", "name": "Pont Juvénal - Platon", "opening_hours": null, "label": "Bus stops", "color": "#4292c6" }, "geometry": { "type": "Point", "coordinates": [ 3.8985789, 43.6066088 ] } },
{ "type": "Feature", "properties": { "index": "204", "@osmId": "node/11104518240", "name": "Pierre Laroque", "opening_hours": null, "label": "Bus stops", "color": "#4292c6" }, "geometry": { "type": "Point", "coordinates": [ 3.90437, 43.6214567 ] } },
{ "type": "Feature", "properties": { "index": "205", "@osmId": "node/11559506936", "name": "Rondelet", "opening_hours": null, "label": "Bus stops", "color": "#4292c6" }, "geometry": { "type": "Point", "coordinates": [ 3.8756218, 43.6032233 ] } },
{ "type": "Feature", "properties": { "index": "206", "@osmId": "node/11559969799", "name": "Rondelet", "opening_hours": null, "label": "Bus stops", "color": "#4292c6" }, "geometry": { "type": "Point", "coordinates": [ 3.8749844, 43.6027363 ] } },
{ "type": "Feature", "properties": { "index": "207", "@osmId": "node/11878878502", "name": "André Malraux", "opening_hours": null, "label": "Bus stops", "color": "#4292c6" }, "geometry": { "type": "Point", "coordinates": [ 3.9002845, 43.6195366 ] } },
{ "type": "Feature", "properties": { "index": "208", "@osmId": "node/11878878503", "name": "Semard", "opening_hours": null, "label": "Bus stops", "color": "#4292c6" }, "geometry": { "type": "Point", "coordinates": [ 3.9030097, 43.6192006 ] } },
{ "type": "Feature", "properties": { "index": "209", "@osmId": "node/11878878504", "name": "Saint-Jean", "opening_hours": null, "label": "Bus stops", "color": "#4292c6" }, "geometry": { "type": "Point", "coordinates": [ 3.8976466, 43.6156334 ] } },
{ "type": "Feature", "properties": { "index": "210", "@osmId": "node/11878878505", "name": "Saint-Jean", "opening_hours": null, "label": "Bus stops", "color": "#4292c6" }, "geometry": { "type": "Point", "coordinates": [ 3.8977937, 43.61551 ] } },
{ "type": "Feature", "properties": { "index": "211", "@osmId": "node/11878878506", "name": "Colverts", "opening_hours": null, "label": "Bus stops", "color": "#4292c6" }, "geometry": { "type": "Point", "coordinates": [ 3.898207, 43.6138381 ] } },
{ "type": "Feature", "properties": { "index": "212", "@osmId": "node/11878878507", "name": "Colverts", "opening_hours": null, "label": "Bus stops", "color": "#4292c6" }, "geometry": { "type": "Point", "coordinates": [ 3.8981019, 43.6136471 ] } },
{ "type": "Feature", "properties": { "index": "213", "@osmId": "node/11878878510", "name": "Rondelet", "opening_hours": null, "label": "Bus stops", "color": "#4292c6" }, "geometry": { "type": "Point", "coordinates": [ 3.8748264, 43.6041201 ] } },
{ "type": "Feature", "properties": { "index": "214", "@osmId": "node/11878878511", "name": "Rondelet", "opening_hours": null, "label": "Bus stops", "color": "#4292c6" }, "geometry": { "type": "Point", "coordinates": [ 3.8747656, 43.6038675 ] } },
{ "type": "Feature", "properties": { "index": "215", "@osmId": "node/11878997028", "name": "Saint-Jaumes", "opening_hours": null, "label": "Bus stops", "color": "#4292c6" }, "geometry": { "type": "Point", "coordinates": [ 3.8697215, 43.6152268 ] } },
{ "type": "Feature", "properties": { "index": "216", "@osmId": "node/11878997029", "name": "Max Rouquette - Assas", "opening_hours": null, "label": "Bus stops", "color": "#4292c6" }, "geometry": { "type": "Point", "coordinates": [ 3.867914, 43.61252 ] } },
{ "type": "Feature", "properties": { "index": "217", "@osmId": "node/11878997031", "name": "Soleiado", "opening_hours": null, "label": "Bus stops", "color": "#4292c6" }, "geometry": { "type": "Point", "coordinates": [ 3.8865131, 43.6006925 ] } },
{ "type": "Feature", "properties": { "index": "218", "@osmId": "node/11878997032", "name": "Soleiado", "opening_hours": null, "label": "Bus stops", "color": "#4292c6" }, "geometry": { "type": "Point", "coordinates": [ 3.8870337, 43.6002841 ] } },
{ "type": "Feature", "properties": { "index": "219", "@osmId": "node/11878997034", "name": "Place de l'Europe", "opening_hours": null, "label": "Bus stops", "color": "#4292c6" }, "geometry": { "type": "Point", "coordinates": [ 3.8941786, 43.607349 ] } },
{ "type": "Feature", "properties": { "index": "220", "@osmId": "node/11893362762", "name": "Sainte-Odile", "opening_hours": null, "label": "Bus stops", "color": "#4292c6" }, "geometry": { "type": "Point", "coordinates": [ 3.8730765, 43.622754 ] } },
{ "type": "Feature", "properties": { "index": "221", "@osmId": "node/11893362763", "name": "Nazareth", "opening_hours": null, "label": "Bus stops", "color": "#4292c6" }, "geometry": { "type": "Point", "coordinates": [ 3.8802092, 43.6216283 ] } },
{ "type": "Feature", "properties": { "index": "222", "@osmId": "node/12480052676", "name": "Gare Saint-Roch  (Rue Pagézy)", "opening_hours": null, "label": "Bus stops", "color": "#4292c6" }, "geometry": { "type": "Point", "coordinates": [ 3.8788016, 43.6042424 ] } },
{ "type": "Feature", "properties": { "index": "223", "@osmId": "node/12843828907", "name": "Paul Painlevé", "opening_hours": null, "label": "Bus stops", "color": "#4292c6" }, "geometry": { "type": "Point", "coordinates": [ 3.8992812, 43.6100371 ] } },
{ "type": "Feature", "properties": { "index": "224", "@osmId": "node/12843828908", "name": "Paul Painlevé", "opening_hours": null, "label": "Bus stops", "color": "#4292c6" }, "geometry": { "type": "Point", "coordinates": [ 3.8996027, 43.610008 ] } },
{ "type": "Feature", "properties": { "index": "225", "@osmId": "node/12843828912", "name": "Place de l'Europe", "opening_hours": null, "label": "Bus stops", "color": "#4292c6" }, "geometry": { "type": "Point", "coordinates": [ 3.8930878, 43.6069928 ] } },
{ "type": "Feature", "properties": { "index": "226", "@osmId": "node/12843828914", "name": "Jules Isaac", "opening_hours": null, "label": "Bus stops", "color": "#4292c6" }, "geometry": { "type": "Point", "coordinates": [ 3.8982612, 43.6221492 ] } },
{ "type": "Feature", "properties": { "index": "227", "@osmId": "node/12843828916", "name": "Jules Isaac", "opening_hours": null, "label": "Bus stops", "color": "#4292c6" }, "geometry": { "type": "Point", "coordinates": [ 3.8982552, 43.6220993 ] } },
{ "type": "Feature", "properties": { "index": "228", "@osmId": "node/12855766541", "name": "Place de l'Europe", "opening_hours": null, "label": "Bus stops", "color": "#4292c6" }, "geometry": { "type": "Point", "coordinates": [ 3.8940075, 43.6073432 ] } },
{ "type": "Feature", "properties": { "index": "229", "@osmId": "node/12855768036", "name": "Pont Juvénal", "opening_hours": null, "label": "Bus stops", "color": "#4292c6" }, "geometry": { "type": "Point", "coordinates": [ 3.89819, 43.6061545 ] } },
{ "type": "Feature", "properties": { "index": "230", "@osmId": "node/13242950332", "name": "Auguste Broussonnet", "opening_hours": null, "label": "Bus stops", "color": "#4292c6" }, "geometry": { "type": "Point", "coordinates": [ 3.8697452, 43.6166863 ] } },
{ "type": "Feature", "properties": { "index": "231", "@osmId": "node/13242950333", "name": "Albert 1er - Jardin des Plantes", "opening_hours": null, "label": "Bus stops", "color": "#4292c6" }, "geometry": { "type": "Point", "coordinates": [ 3.8731409, 43.6154863 ] } },
{ "type": "Feature", "properties": { "index": "232", "@osmId": "node/13242950335", "name": "Albert 1er - Jardin des Plantes", "opening_hours": null, "label": "Bus stops", "color": "#4292c6" }, "geometry": { "type": "Point", "coordinates": [ 3.8731596, 43.6155487 ] } },
{ "type": "Feature", "properties": { "index": "233", "@osmId": "node/13242950336", "name": "Peyrou - Arc de Triomphe", "opening_hours": null, "label": "Bus stops", "color": "#4292c6" }, "geometry": { "type": "Point", "coordinates": [ 3.8704556, 43.6120999 ] } },
{ "type": "Feature", "properties": { "index": "234", "@osmId": "node/13242950339", "name": "Montasinos", "opening_hours": null, "label": "Bus stops", "color": "#4292c6" }, "geometry": { "type": "Point", "coordinates": [ 3.8831476, 43.6223605 ] } },
{ "type": "Feature", "properties": { "index": "235", "@osmId": "node/13242950340", "name": "Montasinos", "opening_hours": null, "label": "Bus stops", "color": "#4292c6" }, "geometry": { "type": "Point", "coordinates": [ 3.8832051, 43.622213 ] } },
{ "type": "Feature", "properties": { "index": "236", "@osmId": "node/13242950343", "name": "Boutonnet - Cité des Arts", "opening_hours": null, "label": "Bus stops", "color": "#4292c6" }, "geometry": { "type": "Point", "coordinates": [ 3.8682673, 43.6215601 ] } },
{ "type": "Feature", "properties": { "index": "237", "@osmId": "node/13242950344", "name": "Boutonnet - Cité des Arts", "opening_hours": null, "label": "Bus stops", "color": "#4292c6" }, "geometry": { "type": "Point", "coordinates": [ 3.8689565, 43.6216196 ] } },
{ "type": "Feature", "properties": { "index": "238", "@osmId": "node/13242950361", "name": "Place du 8 Mai 1945", "opening_hours": null, "label": "Bus stops", "color": "#4292c6" }, "geometry": { "type": "Point", "coordinates": [ 3.8684259, 43.601311 ] } },
{ "type": "Feature", "properties": { "index": "239", "@osmId": "node/13242950362", "name": "Place du 8 Mai 1945", "opening_hours": null, "label": "Bus stops", "color": "#4292c6" }, "geometry": { "type": "Point", "coordinates": [ 3.8684814, 43.6012909 ] } },
{ "type": "Feature", "properties": { "index": "240", "@osmId": "node/13300475986", "name": "Peyrou - Arc de Triomphe", "opening_hours": null, "label": "Bus stops", "color": "#4292c6" }, "geometry": { "type": "Point", "coordinates": [ 3.8704555, 43.612009 ] } },
{ "type": "Feature", "properties": { "index": "241", "@osmId": "node/13300475987", "name": "Max Rouquette - Assas", "opening_hours": null, "label": "Bus stops", "color": "#4292c6" }, "geometry": { "type": "Point", "coordinates": [ 3.867857, 43.6124399 ] } },
{ "type": "Feature", "properties": { "index": "242", "@osmId": "node/13372697046", "name": "Pont Juvénal", "opening_hours": null, "label": "Bus stops", "color": "#4292c6" }, "geometry": { "type": "Point", "coordinates": [ 3.8982603, 43.6062074 ] } }
]
}
