{
"type": "FeatureCollection",
"features": [
{ "type": "Feature", "properties": { "index": "243", "@osmId": "node/1970352668", "name": "Charles Flahault", "opening_hours": null, "label": "Bike-sharing points", "color": "#41ab5d" }, "geometry": { "type": "Point", "coordinates": [ 3.8659891, 43.6187686 ] } },
{ "type": "Feature", "properties": { "index": "244", "@osmId": "node/1970352719", "name": "Place Viala", "opening_hours": null, "label": "Bike-sharing points", "color": "#41ab5d" }, "geometry": { "type": "Point", "coordinates": [ 3.8550842, 43.6168167 ] } },
{ "type": "Feature", "properties": { "index": "245", "@osmId": "node/3780936450", "name": "Père Soulas", "opening_hours": null, "label": "Bike-sharing points", "color": "#41ab5d" }, "geometry": { "type": "Point", "coordinates": [ 3.855618, 43.6219699 ] } },
{ "type": "Feature", "properties": { "index": "246", "@osmId": "node/720958465", "name": "Plan Cabanes", "opening_hours": null, "label": "Bike-sharing points", "color": "#41ab5d" }, "geometry": { "type": "Point", "coordinates": [ 3.868638, 43.60835 ] } },
{ "type": "Feature", "properties": { "index": "247", "@osmId": "node/1252120564", "name": "Louis Blanc", "opening_hours": null, "label": "Bike-sharing points", "color": "#41ab5d" }, "geometry": { "type": "Point", "coordinates": [ 3.8776294, 43.614645 ] } },
{ "type": "Feature", "properties": { "index": "248", "@osmId": "node/1263317919", "name": "Renouvier", "opening_hours": null, "label": "Bike-sharing points", "color": "#41ab5d" }, "geometry": { "type": "Point", "coordinates": [ 3.8678865, 43.60358 ] } },
{ "type": "Feature", "properties": { "index": "249", "@osmId": "node/1684536488", "name": "Emile Combes", "opening_hours": null, "label": "Bike-sharing points", "color": "#41ab5d" }, "geometry": { "type": "Point", "coordinates": [ 3.8799722, 43.6167422 ] } },
{ "type": "Feature", "properties": { "index": "250", "@osmId": "node/1732434637", "name": "Albert 1er", "opening_hours": null, "label": "Bike-sharing points", "color": "#41ab5d" }, "geometry": { "type": "Point", "coordinates": [ 3.8743979, 43.6161695 ] } },
{ "type": "Feature", "properties": { "index": "251", "@osmId": "node/1740249079", "name": "Rue Jules Ferry - Gare Saint-Roch", "opening_hours": null, "label": "Bike-sharing points", "color": "#41ab5d" }, "geometry": { "type": "Point", "coordinates": [ 3.8812294, 43.6053253 ] } },
{ "type": "Feature", "properties": { "index": "252", "@osmId": "node/1740249082", "name": "Du Guesclin", "opening_hours": null, "label": "Bike-sharing points", "color": "#41ab5d" }, "geometry": { "type": "Point", "coordinates": [ 3.8824027, 43.6059524 ] } },
{ "type": "Feature", "properties": { "index": "253", "@osmId": "node/1747358165", "name": "Observatoire", "opening_hours": null, "label": "Bike-sharing points", "color": "#41ab5d" }, "geometry": { "type": "Point", "coordinates": [ 3.8769443, 43.6060972 ] } },
{ "type": "Feature", "properties": { "index": "254", "@osmId": "node/1747358166", "name": "Foch", "opening_hours": null, "label": "Bike-sharing points", "color": "#41ab5d" }, "geometry": { "type": "Point", "coordinates": [ 3.8733344, 43.6109947 ] } },
{ "type": "Feature", "properties": { "index": "255", "@osmId": "node/1747358167", "name": "Corum", "opening_hours": null, "label": "Bike-sharing points", "color": "#41ab5d" }, "geometry": { "type": "Point", "coordinates": [ 3.8816248, 43.6140308 ] } },
{ "type": "Feature", "properties": { "index": "256", "@osmId": "node/1939883792", "name": "Boutonnet", "opening_hours": null, "label": "Bike-sharing points", "color": "#41ab5d" }, "geometry": { "type": "Point", "coordinates": [ 3.8683868, 43.6226054 ] } },
{ "type": "Feature", "properties": { "index": "257", "@osmId": "node/1939883803", "name": "Gambetta", "opening_hours": null, "label": "Bike-sharing points", "color": "#41ab5d" }, "geometry": { "type": "Point", "coordinates": [ 3.8707375, 43.6070906 ] } },
{ "type": "Feature", "properties": { "index": "258", "@osmId": "node/1970352669", "name": "Cité Mion", "opening_hours": null, "label": "Bike-sharing points", "color": "#41ab5d" }, "geometry": { "type": "Point", "coordinates": [ 3.8844511, 43.6011431 ] } },
{ "type": "Feature", "properties": { "index": "259", "@osmId": "node/1970352694", "name": "Jeu de Mail des Abbés", "opening_hours": null, "label": "Bike-sharing points", "color": "#41ab5d" }, "geometry": { "type": "Point", "coordinates": [ 3.8840259, 43.6198762 ] } },
{ "type": "Feature", "properties": { "index": "260", "@osmId": "node/1970352695", "name": "Les Aubes", "opening_hours": null, "label": "Bike-sharing points", "color": "#41ab5d" }, "geometry": { "type": "Point", "coordinates": [ 3.8937952, 43.618664 ] } },
{ "type": "Feature", "properties": { "index": "261", "@osmId": "node/1970352725", "name": "Richter", "opening_hours": null, "label": "Bike-sharing points", "color": "#41ab5d" }, "geometry": { "type": "Point", "coordinates": [ 3.8989223, 43.6037969 ] } },
{ "type": "Feature", "properties": { "index": "262", "@osmId": "node/2137050697", "name": "Marie Caizergues", "opening_hours": null, "label": "Bike-sharing points", "color": "#41ab5d" }, "geometry": { "type": "Point", "coordinates": [ 3.8737886, 43.6198729 ] } },
{ "type": "Feature", "properties": { "index": "263", "@osmId": "node/2950814163", "name": "Comédie", "opening_hours": null, "label": "Bike-sharing points", "color": "#41ab5d" }, "geometry": { "type": "Point", "coordinates": [ 3.8787624, 43.6081492 ] } },
{ "type": "Feature", "properties": { "index": "264", "@osmId": "node/3779581612", "name": "Antigone Centre", "opening_hours": null, "label": "Bike-sharing points", "color": "#41ab5d" }, "geometry": { "type": "Point", "coordinates": [ 3.8904657, 43.6079062 ] } },
{ "type": "Feature", "properties": { "index": "265", "@osmId": "node/3779581614", "name": "Esplanade", "opening_hours": null, "label": "Bike-sharing points", "color": "#41ab5d" }, "geometry": { "type": "Point", "coordinates": [ 3.8811981, 43.6095882 ] } },
{ "type": "Feature", "properties": { "index": "266", "@osmId": "node/3779581618", "name": "Médiathèque Émile Zola", "opening_hours": null, "label": "Bike-sharing points", "color": "#41ab5d" }, "geometry": { "type": "Point", "coordinates": [ 3.8930561, 43.6082468 ] } },
{ "type": "Feature", "properties": { "index": "267", "@osmId": "node/3779581619", "name": "Nombre d'Or", "opening_hours": null, "label": "Bike-sharing points", "color": "#41ab5d" }, "geometry": { "type": "Point", "coordinates": [ 3.8866534, 43.6079002 ] } },
{ "type": "Feature", "properties": { "index": "268", "@osmId": "node/3779581622", "name": "Port Marianne", "opening_hours": null, "label": "Bike-sharing points", "color": "#41ab5d" }, "geometry": { "type": "Point", "coordinates": [ 3.8984647, 43.6003794 ] } },
{ "type": "Feature", "properties": { "index": "269", "@osmId": "node/3779581625", "name": "Rondelet", "opening_hours": null, "label": "Bike-sharing points", "color": "#41ab5d" }, "geometry": { "type": "Point", "coordinates": [ 3.8757891, 43.6030505 ] } },
{ "type": "Feature", "properties": { "index": "270", "@osmId": "node/3779581627", "name": "Saint-Denis", "opening_hours": null, "label": "Bike-sharing points", "color": "#41ab5d" }, "geometry": { "type": "Point", "coordinates": [ 3.8750227, 43.6050394 ] } },
{ "type": "Feature", "properties": { "index": "271", "@osmId": "node/3779581629", "name": "Voltaire", "opening_hours": null, "label": "Bike-sharing points", "color": "#41ab5d" }, "geometry": { "type": "Point", "coordinates": [ 3.8885119, 43.603749 ] } },
{ "type": "Feature", "properties": { "index": "272", "@osmId": "node/3780907407", "name": "Beaux-Arts", "opening_hours": null, "label": "Bike-sharing points", "color": "#41ab5d" }, "geometry": { "type": "Point", "coordinates": [ 3.8849862, 43.6167043 ] } },
{ "type": "Feature", "properties": { "index": "273", "@osmId": "node/4039659471", "name": "Deux Ponts Gare Saint-Roch", "opening_hours": null, "label": "Bike-sharing points", "color": "#41ab5d" }, "geometry": { "type": "Point", "coordinates": [ 3.8810025, 43.604359 ] } },
{ "type": "Feature", "properties": { "index": "274", "@osmId": "node/6987299127", "name": null, "opening_hours": null, "label": "Bike-sharing points", "color": "#41ab5d" }, "geometry": { "type": "Point", "coordinates": [ 3.8938905, 43.6186788 ] } },
{ "type": "Feature", "properties": { "index": "275", "@osmId": "node/7552359634", "name": "Saint-Guilhem – Courreau", "opening_hours": null, "label": "Bike-sharing points", "color": "#41ab5d" }, "geometry": { "type": "Point", "coordinates": [ 3.8727765, 43.6089424 ] } },
{ "type": "Feature", "properties": { "index": "276", "@osmId": "node/11145980141", "name": null, "opening_hours": null, "label": "Bike-sharing points", "color": "#41ab5d" }, "geometry": { "type": "Point", "coordinates": [ 3.8793685, 43.6039055 ] } },
{ "type": "Feature", "properties": { "index": "277", "@osmId": "node/12174340326", "name": "Les Vélopolitains", "opening_hours": null, "label": "Bike-sharing points", "color": "#41ab5d" }, "geometry": { "type": "Point", "coordinates": [ 3.885416, 43.6056885 ] } },
{ "type": "Feature", "properties": { "index": "278", "@osmId": "node/12704832925", "name": null, "opening_hours": null, "label": "Bike-sharing points", "color": "#41ab5d" }, "geometry": { "type": "Point", "coordinates": [ 3.8774309, 43.6062543 ] } }
]
}
