{
"type": "FeatureCollection",
"features": [
{ "type": "Feature", "properties": { "index": "0", "label": "Within 255 m by wheelchair", "color": "#2b8cbe" }, "geometry": { "type": "Polygon", "coordinates": [ [ [ 3.8566989, 43.600291 ], [ 3.8566805, 43.6000661 ], [ 3.856684, 43.6000004 ], [ 3.8646123, 43.6000017 ], [ 3.8647119, 43.6000799 ], [ 3.8647745, 43.6001399 ], [ 3.8650358, 43.6000234 ], [ 3.865097, 43.6000018 ], [ 3.8710956, 43.6000024 ], [ 3.8712519, 43.6001875 ], [ 3.8713874, 43.6003901 ], [ 3.8714949, 43.6006015 ], [ 3.8715734, 43.6008194 ], [ 3.8715948, 43.6009174 ], [ 3.8718213, 43.6009076 ], [ 3.8721312, 43.6009163 ], [ 3.8724383, 43.600947 ], [ 3.8727398, 43.6009995 ], [ 3.8728718, 43.6010326 ], [ 3.8729546, 43.600977 ], [ 3.8732016, 43.6008408 ], [ 3.8734659, 43.600723 ], [ 3.8737447, 43.6006245 ], [ 3.8740355, 43.6005464 ], [ 3.8743355, 43.6004893 ], [ 3.8746416, 43.6004539 ], [ 3.8749511, 43.6004405 ], [ 3.8752609, 43.6004492 ], [ 3.8755681, 43.6004799 ], [ 3.8758696, 43.6005323 ], [ 3.8761626, 43.600606 ], [ 3.8764442, 43.6007002 ], [ 3.8766835, 43.6008019 ], [ 3.8767654, 43.6008101 ], [ 3.877067, 43.6008625 ], [ 3.87736, 43.6009362 ], [ 3.8776416, 43.6010304 ], [ 3.8779092, 43.6011442 ], [ 3.8779305, 43.6011554 ], [ 3.878105, 43.6010125 ], [ 3.8783325, 43.6008595 ], [ 3.8785796, 43.6007233 ], [ 3.8788438, 43.6006055 ], [ 3.8791226, 43.600507 ], [ 3.8794134, 43.6004288 ], [ 3.8797134, 43.6003718 ], [ 3.8800195, 43.6003364 ], [ 3.880329, 43.6003229 ], [ 3.8803677, 43.600324 ], [ 3.8803919, 43.600294 ], [ 3.8805739, 43.6001116 ], [ 3.8807068, 43.6000027 ], [ 3.8901671, 43.6000023 ], [ 3.8901742, 43.6000346 ], [ 3.8901928, 43.6002595 ], [ 3.8901809, 43.6004847 ], [ 3.8901387, 43.6007079 ], [ 3.8900666, 43.600927 ], [ 3.8899652, 43.60114 ], [ 3.8898357, 43.6013447 ], [ 3.8897564, 43.6014432 ], [ 3.8898084, 43.6014484 ], [ 3.89011, 43.6015008 ], [ 3.890403, 43.6015745 ], [ 3.8906847, 43.6016686 ], [ 3.8909523, 43.6017824 ], [ 3.8912033, 43.6019146 ], [ 3.8914352, 43.6020641 ], [ 3.8916459, 43.6022295 ], [ 3.891742, 43.6023216 ], [ 3.891831, 43.6022617 ], [ 3.892078, 43.6021255 ], [ 3.8923422, 43.6020076 ], [ 3.8925152, 43.6019465 ], [ 3.8924992, 43.6019362 ], [ 3.8922885, 43.6017709 ], [ 3.8921012, 43.6015914 ], [ 3.8919389, 43.6013994 ], [ 3.8918034, 43.6011968 ], [ 3.8916958, 43.6009854 ], [ 3.8916173, 43.6007675 ], [ 3.8915685, 43.600545 ], [ 3.8915499, 43.6003201 ], [ 3.8915618, 43.6000949 ], [ 3.8915794, 43.6000021 ], [ 3.9019956, 43.6000006 ], [ 3.9021891, 43.6001524 ], [ 3.9022777, 43.6002373 ], [ 3.9024439, 43.6003444 ], [ 3.9026546, 43.6005097 ], [ 3.9027829, 43.6006326 ], [ 3.9030171, 43.6005696 ], [ 3.903317, 43.6005125 ], [ 3.9036231, 43.600477 ], [ 3.9039326, 43.6004635 ], [ 3.9042424, 43.6004721 ], [ 3.9042619, 43.6004741 ], [ 3.9043936, 43.6004777 ], [ 3.9047008, 43.6005084 ], [ 3.905, 43.6005603 ], [ 3.905, 43.6075719 ], [ 3.9048411, 43.6076428 ], [ 3.9045623, 43.6077414 ], [ 3.9045557, 43.6077431 ], [ 3.9044447, 43.6077824 ], [ 3.9041539, 43.6078606 ], [ 3.903854, 43.6079177 ], [ 3.9035478, 43.6079532 ], [ 3.9032383, 43.6079667 ], [ 3.9029284, 43.6079581 ], [ 3.9026212, 43.6079274 ], [ 3.9023196, 43.6078751 ], [ 3.9020266, 43.6078015 ], [ 3.9017448, 43.6077073 ], [ 3.9014772, 43.6075936 ], [ 3.9014411, 43.6075746 ], [ 3.9013814, 43.6076691 ], [ 3.9012249, 43.6078636 ], [ 3.9011007, 43.6079881 ], [ 3.9013296, 43.6080853 ], [ 3.9015806, 43.6082176 ], [ 3.9018126, 43.608367 ], [ 3.9020233, 43.6085323 ], [ 3.9022107, 43.6087118 ], [ 3.902373, 43.6089038 ], [ 3.9025086, 43.6091064 ], [ 3.9026162, 43.6093177 ], [ 3.9026949, 43.6095357 ], [ 3.9027437, 43.6097582 ], [ 3.9027623, 43.6099831 ], [ 3.9027504, 43.6102082 ], [ 3.9027082, 43.6104315 ], [ 3.9026362, 43.6106506 ], [ 3.9025349, 43.6108635 ], [ 3.9024054, 43.6110683 ], [ 3.9022488, 43.6112628 ], [ 3.9020668, 43.6114452 ], [ 3.9018611, 43.6116137 ], [ 3.9016336, 43.6117669 ], [ 3.9013866, 43.611903 ], [ 3.9011223, 43.612021 ], [ 3.9008508, 43.6121169 ], [ 3.9008478, 43.6121194 ], [ 3.9006249, 43.6122694 ], [ 3.9007101, 43.612351 ], [ 3.9008724, 43.612543 ], [ 3.901008, 43.6127456 ], [ 3.901034, 43.6127966 ], [ 3.9011108, 43.6129114 ], [ 3.9012185, 43.6131227 ], [ 3.9012971, 43.6133406 ], [ 3.9013459, 43.6135631 ], [ 3.9013478, 43.6135867 ], [ 3.9013482, 43.6135883 ], [ 3.9013629, 43.6137667 ], [ 3.9013672, 43.6136857 ], [ 3.9014094, 43.6134625 ], [ 3.9014814, 43.6132434 ], [ 3.9015827, 43.6130304 ], [ 3.9017123, 43.6128257 ], [ 3.9018688, 43.6126312 ], [ 3.9020508, 43.6124488 ], [ 3.9022565, 43.6122802 ], [ 3.902484, 43.6121271 ], [ 3.9027311, 43.6119909 ], [ 3.9029953, 43.611873 ], [ 3.9032742, 43.6117745 ], [ 3.903565, 43.6116962 ], [ 3.9038649, 43.6116391 ], [ 3.9041712, 43.6116036 ], [ 3.9044807, 43.6115901 ], [ 3.9047906, 43.6115987 ], [ 3.905, 43.6116196 ], [ 3.905, 43.6237058 ], [ 3.904714, 43.623739 ], [ 3.9044044, 43.6237525 ], [ 3.9040945, 43.6237439 ], [ 3.9037872, 43.6237132 ], [ 3.9034856, 43.6236609 ], [ 3.903278, 43.6236087 ], [ 3.903266, 43.6236168 ], [ 3.9030189, 43.623753 ], [ 3.9027546, 43.6238709 ], [ 3.9025309, 43.62395 ], [ 3.9025675, 43.6240217 ], [ 3.9026461, 43.6242397 ], [ 3.9026949, 43.6244622 ], [ 3.9027135, 43.6246871 ], [ 3.9027017, 43.6249122 ], [ 3.902685, 43.6250005 ], [ 3.8959208, 43.6250016 ], [ 3.8958819, 43.6249557 ], [ 3.8957463, 43.6247531 ], [ 3.8956387, 43.6245418 ], [ 3.8955601, 43.6243238 ], [ 3.8955597, 43.6243219 ], [ 3.8955591, 43.6243203 ], [ 3.8955103, 43.6240978 ], [ 3.8954917, 43.6238729 ], [ 3.8955036, 43.6236478 ], [ 3.8955458, 43.6234245 ], [ 3.8955708, 43.6233486 ], [ 3.8954902, 43.6232533 ], [ 3.8953914, 43.6231057 ], [ 3.8952924, 43.6231406 ], [ 3.8950015, 43.6232188 ], [ 3.8947015, 43.6232759 ], [ 3.8943952, 43.6233114 ], [ 3.8940856, 43.6233249 ], [ 3.8937757, 43.6233162 ], [ 3.8937595, 43.6233146 ], [ 3.8935985, 43.6233101 ], [ 3.8932912, 43.6232795 ], [ 3.8929896, 43.6232271 ], [ 3.8926964, 43.6231535 ], [ 3.8924147, 43.6230593 ], [ 3.8921469, 43.6229456 ], [ 3.8918959, 43.6228133 ], [ 3.8916638, 43.6226638 ], [ 3.8914531, 43.6224985 ], [ 3.8913176, 43.6223687 ], [ 3.8912564, 43.622367 ], [ 3.8909491, 43.6223364 ], [ 3.8906475, 43.622284 ], [ 3.8903544, 43.6222103 ], [ 3.8900726, 43.6221162 ], [ 3.8898049, 43.6220024 ], [ 3.8895538, 43.6218702 ], [ 3.8895478, 43.6218663 ], [ 3.8894726, 43.6218343 ], [ 3.8894009, 43.6217966 ], [ 3.8892736, 43.6217839 ], [ 3.888972, 43.6217315 ], [ 3.8888184, 43.6216929 ], [ 3.8886919, 43.6216803 ], [ 3.8883902, 43.6216278 ], [ 3.8880971, 43.6215542 ], [ 3.8878153, 43.6214601 ], [ 3.8875476, 43.6213463 ], [ 3.8873659, 43.6212505 ], [ 3.8871953, 43.6211936 ], [ 3.8870888, 43.6211483 ], [ 3.887031, 43.6212698 ], [ 3.8869014, 43.6214745 ], [ 3.8867448, 43.621669 ], [ 3.8865627, 43.6218514 ], [ 3.8863569, 43.62202 ], [ 3.8863517, 43.6220234 ], [ 3.8863653, 43.6221885 ], [ 3.8863534, 43.6224137 ], [ 3.8863112, 43.6226369 ], [ 3.886239, 43.622856 ], [ 3.8862101, 43.6229169 ], [ 3.8861815, 43.6230035 ], [ 3.8860802, 43.6232165 ], [ 3.8859506, 43.6234212 ], [ 3.885794, 43.6236156 ], [ 3.8856119, 43.623798 ], [ 3.885406, 43.6239666 ], [ 3.8851785, 43.6241196 ], [ 3.8849313, 43.6242558 ], [ 3.884667, 43.6243737 ], [ 3.8843881, 43.6244722 ], [ 3.8840972, 43.6245503 ], [ 3.8837971, 43.6246074 ], [ 3.8834908, 43.6246428 ], [ 3.8831812, 43.6246563 ], [ 3.8828713, 43.6246476 ], [ 3.882564, 43.6246169 ], [ 3.8822624, 43.6245645 ], [ 3.8819692, 43.6244909 ], [ 3.8816875, 43.6243967 ], [ 3.8814198, 43.6242829 ], [ 3.8811687, 43.6241506 ], [ 3.8809367, 43.6240011 ], [ 3.880892, 43.623966 ], [ 3.8806496, 43.623994 ], [ 3.88034, 43.6240075 ], [ 3.8800301, 43.6239988 ], [ 3.8797228, 43.6239681 ], [ 3.8794212, 43.6239157 ], [ 3.8791281, 43.623842 ], [ 3.8788463, 43.6237479 ], [ 3.8785786, 43.6236341 ], [ 3.8783275, 43.6235018 ], [ 3.8780955, 43.6233522 ], [ 3.8778848, 43.6231869 ], [ 3.8778442, 43.623148 ], [ 3.8777875, 43.6231035 ], [ 3.8776356, 43.6229579 ], [ 3.877463, 43.623074 ], [ 3.8772159, 43.6232101 ], [ 3.8769515, 43.623328 ], [ 3.8766726, 43.6234265 ], [ 3.8763817, 43.6235046 ], [ 3.8760816, 43.6235616 ], [ 3.8760292, 43.6235677 ], [ 3.8760089, 43.6236102 ], [ 3.8758793, 43.6238149 ], [ 3.8757227, 43.6240094 ], [ 3.8755405, 43.6241917 ], [ 3.8753347, 43.6243603 ], [ 3.8751071, 43.6245133 ], [ 3.8748599, 43.6246494 ], [ 3.8745956, 43.6247673 ], [ 3.8743166, 43.6248658 ], [ 3.8740257, 43.6249439 ], [ 3.8737256, 43.625001 ], [ 3.8737118, 43.6250026 ], [ 3.8724472, 43.6250025 ], [ 3.8721909, 43.6249579 ], [ 3.8718978, 43.6248843 ], [ 3.871616, 43.6247901 ], [ 3.8713483, 43.6246763 ], [ 3.8711124, 43.6245519 ], [ 3.8709537, 43.6245475 ], [ 3.8706465, 43.6245168 ], [ 3.8703448, 43.6244643 ], [ 3.8702705, 43.6244456 ], [ 3.8701701, 43.6245009 ], [ 3.8699057, 43.6246188 ], [ 3.8696268, 43.6247172 ], [ 3.8693358, 43.6247954 ], [ 3.8692886, 43.6248043 ], [ 3.869055, 43.6248671 ], [ 3.868755, 43.6249241 ], [ 3.8684487, 43.6249595 ], [ 3.868139, 43.6249729 ], [ 3.8678291, 43.6249642 ], [ 3.8675218, 43.6249335 ], [ 3.8672202, 43.624881 ], [ 3.8669271, 43.6248073 ], [ 3.8666454, 43.6247131 ], [ 3.8664686, 43.6246379 ], [ 3.8664602, 43.6247957 ], [ 3.8664211, 43.6250019 ], [ 3.8591, 43.6250008 ], [ 3.8590108, 43.6249152 ], [ 3.8588486, 43.6247232 ], [ 3.8587295, 43.6245451 ], [ 3.8585322, 43.6244411 ], [ 3.8584775, 43.6244273 ], [ 3.8581958, 43.6243331 ], [ 3.8579281, 43.6242193 ], [ 3.8576771, 43.6240869 ], [ 3.8574451, 43.6239374 ], [ 3.8573708, 43.623879 ], [ 3.8571365, 43.6239834 ], [ 3.8568575, 43.6240819 ], [ 3.8566708, 43.624132 ], [ 3.8565641, 43.6241796 ], [ 3.8562851, 43.624278 ], [ 3.8559941, 43.6243561 ], [ 3.8556941, 43.6244131 ], [ 3.8553878, 43.6244484 ], [ 3.8550781, 43.6244618 ], [ 3.855, 43.6244596 ], [ 3.855, 43.6129872 ], [ 3.8552843, 43.6129952 ], [ 3.8553331, 43.6129734 ], [ 3.8555526, 43.612896 ], [ 3.8555747, 43.6128288 ], [ 3.8556762, 43.6126159 ], [ 3.8557176, 43.6125506 ], [ 3.8554225, 43.6125846 ], [ 3.8551129, 43.612598 ], [ 3.855, 43.6125948 ], [ 3.855, 43.6079526 ], [ 3.8550556, 43.6079502 ], [ 3.8553654, 43.6079589 ], [ 3.8556726, 43.6079897 ], [ 3.8559741, 43.6080422 ], [ 3.8562671, 43.6081159 ], [ 3.8565488, 43.6082101 ], [ 3.8568164, 43.608324 ], [ 3.8570673, 43.6084563 ], [ 3.8572992, 43.6086059 ], [ 3.8575098, 43.6087713 ], [ 3.8576971, 43.6089508 ], [ 3.8578592, 43.6091429 ], [ 3.8579947, 43.6093456 ], [ 3.8581022, 43.6095569 ], [ 3.8581806, 43.6097749 ], [ 3.8582293, 43.6099974 ], [ 3.8582477, 43.6102223 ], [ 3.8582357, 43.6104475 ], [ 3.8582292, 43.6104819 ], [ 3.858228, 43.6105037 ], [ 3.8581857, 43.6107269 ], [ 3.8581134, 43.610946 ], [ 3.8580226, 43.6111367 ], [ 3.8580632, 43.6111258 ], [ 3.858282, 43.6110842 ], [ 3.8583042, 43.6110491 ], [ 3.8584609, 43.6108547 ], [ 3.8585276, 43.6107879 ], [ 3.8584884, 43.6107109 ], [ 3.85841, 43.6104929 ], [ 3.8583613, 43.6102704 ], [ 3.8583429, 43.6100455 ], [ 3.8583549, 43.6098203 ], [ 3.8583972, 43.6095971 ], [ 3.8584695, 43.609378 ], [ 3.8585709, 43.6091651 ], [ 3.8587006, 43.6089604 ], [ 3.8588572, 43.608766 ], [ 3.8590394, 43.6085836 ], [ 3.8592452, 43.6084151 ], [ 3.8594728, 43.6082621 ], [ 3.8597199, 43.608126 ], [ 3.8599842, 43.6080082 ], [ 3.8602631, 43.6079098 ], [ 3.860554, 43.6078317 ], [ 3.860854, 43.6077747 ], [ 3.8611602, 43.6077393 ], [ 3.861309, 43.6077329 ], [ 3.8615283, 43.607674 ], [ 3.8618282, 43.607617 ], [ 3.8621345, 43.6075816 ], [ 3.862444, 43.6075682 ], [ 3.8627538, 43.6075769 ], [ 3.8629388, 43.6075954 ], [ 3.8631361, 43.6075258 ], [ 3.8634269, 43.6074477 ], [ 3.8637269, 43.6073907 ], [ 3.8640331, 43.6073553 ], [ 3.8643426, 43.6073419 ], [ 3.8646525, 43.6073506 ], [ 3.8649596, 43.6073814 ], [ 3.8652612, 43.6074338 ], [ 3.8653081, 43.6074456 ], [ 3.8654302, 43.6072941 ], [ 3.8656123, 43.6071118 ], [ 3.8658181, 43.6069433 ], [ 3.8660457, 43.6067902 ], [ 3.8662928, 43.6066541 ], [ 3.866557, 43.6065363 ], [ 3.8666954, 43.6064875 ], [ 3.866811, 43.6063928 ], [ 3.8670386, 43.6062398 ], [ 3.8672857, 43.6061037 ], [ 3.8675499, 43.6059858 ], [ 3.8678288, 43.6058874 ], [ 3.8678764, 43.6058746 ], [ 3.8676097, 43.6058671 ], [ 3.8673025, 43.6058364 ], [ 3.867001, 43.6057839 ], [ 3.866708, 43.6057102 ], [ 3.8664263, 43.605616 ], [ 3.8661587, 43.6055022 ], [ 3.8659077, 43.6053699 ], [ 3.8656758, 43.6052203 ], [ 3.8654652, 43.6050549 ], [ 3.865278, 43.6048754 ], [ 3.8651158, 43.6046833 ], [ 3.8650358, 43.6045637 ], [ 3.864951, 43.6046331 ], [ 3.8647234, 43.6047861 ], [ 3.8644763, 43.6049222 ], [ 3.864212, 43.6050401 ], [ 3.8639331, 43.6051385 ], [ 3.8636423, 43.6052166 ], [ 3.8633423, 43.6052736 ], [ 3.8630361, 43.605309 ], [ 3.8627266, 43.6053224 ], [ 3.8624168, 43.6053137 ], [ 3.8621096, 43.6052829 ], [ 3.8618081, 43.6052305 ], [ 3.8615151, 43.6051568 ], [ 3.8612334, 43.6050625 ], [ 3.8609659, 43.6049487 ], [ 3.8607149, 43.6048164 ], [ 3.8606984, 43.6048057 ], [ 3.8606471, 43.6049614 ], [ 3.8605456, 43.6051743 ], [ 3.860416, 43.605379 ], [ 3.8602593, 43.6055734 ], [ 3.8600772, 43.6057558 ], [ 3.8598714, 43.6059243 ], [ 3.8596438, 43.6060773 ], [ 3.8594703, 43.6061729 ], [ 3.8593438, 43.6062579 ], [ 3.8590967, 43.606394 ], [ 3.8588324, 43.6065118 ], [ 3.8585535, 43.6066103 ], [ 3.8582626, 43.6066884 ], [ 3.8579627, 43.6067454 ], [ 3.8576564, 43.6067807 ], [ 3.8573469, 43.6067941 ], [ 3.8570371, 43.6067854 ], [ 3.8567299, 43.6067546 ], [ 3.8564284, 43.6067021 ], [ 3.8561354, 43.6066284 ], [ 3.8558537, 43.6065342 ], [ 3.8555861, 43.6064203 ], [ 3.8553352, 43.606288 ], [ 3.8551033, 43.6061384 ], [ 3.855, 43.6060572 ], [ 3.855, 43.6011769 ], [ 3.8551474, 43.6011249 ], [ 3.8554382, 43.6010468 ], [ 3.8557381, 43.6009898 ], [ 3.8560443, 43.6009545 ], [ 3.8563538, 43.6009411 ], [ 3.8566636, 43.6009498 ], [ 3.8569578, 43.6009793 ], [ 3.8569335, 43.6009429 ], [ 3.856826, 43.6007315 ], [ 3.8567476, 43.6005136 ], [ 3.8566989, 43.600291 ] ], [ [ 3.8776011, 43.6195659 ], [ 3.8778118, 43.6197312 ], [ 3.8779991, 43.6199108 ], [ 3.8780417, 43.6199611 ], [ 3.8781786, 43.6198691 ], [ 3.8784257, 43.6197329 ], [ 3.87869, 43.6196151 ], [ 3.8789689, 43.6195166 ], [ 3.8792598, 43.6194384 ], [ 3.8795599, 43.6193814 ], [ 3.8798661, 43.619346 ], [ 3.8801757, 43.6193325 ], [ 3.8804856, 43.6193412 ], [ 3.8807928, 43.6193719 ], [ 3.8808326, 43.6193788 ], [ 3.8808349, 43.6193668 ], [ 3.8809071, 43.6191477 ], [ 3.8810084, 43.6189348 ], [ 3.8810283, 43.6189034 ], [ 3.8809216, 43.6189321 ], [ 3.8806215, 43.6189891 ], [ 3.8803153, 43.6190245 ], [ 3.8800057, 43.619038 ], [ 3.8796958, 43.6190293 ], [ 3.8793885, 43.6189986 ], [ 3.8790869, 43.6189462 ], [ 3.8787938, 43.6188725 ], [ 3.8785121, 43.6187784 ], [ 3.8782444, 43.6186646 ], [ 3.8779934, 43.6185323 ], [ 3.8777614, 43.6183827 ], [ 3.8775507, 43.6182174 ], [ 3.8773634, 43.6180379 ], [ 3.8772011, 43.6178458 ], [ 3.8770656, 43.6176432 ], [ 3.8769846, 43.6174841 ], [ 3.876947, 43.6175218 ], [ 3.8767961, 43.6177091 ], [ 3.876614, 43.6178915 ], [ 3.8765783, 43.6179208 ], [ 3.8764587, 43.6180405 ], [ 3.8762529, 43.6182091 ], [ 3.8761004, 43.6183116 ], [ 3.8762102, 43.6183978 ], [ 3.8763976, 43.6185773 ], [ 3.8765598, 43.6187693 ], [ 3.8766954, 43.618972 ], [ 3.8767852, 43.6191485 ], [ 3.8768504, 43.6191703 ], [ 3.877118, 43.6192841 ], [ 3.8773691, 43.6194164 ], [ 3.8776011, 43.6195659 ] ], [ [ 3.8785048, 43.6124393 ], [ 3.8785072, 43.6124269 ], [ 3.8784894, 43.6124366 ], [ 3.8785048, 43.6124393 ] ], [ [ 3.8840004, 43.6106489 ], [ 3.8838439, 43.6108434 ], [ 3.8836618, 43.6110258 ], [ 3.8836405, 43.6110432 ], [ 3.8838315, 43.6111664 ], [ 3.8840422, 43.6113317 ], [ 3.8842295, 43.6115112 ], [ 3.8843918, 43.6117033 ], [ 3.8845273, 43.6119059 ], [ 3.8846349, 43.6121172 ], [ 3.8847134, 43.6123352 ], [ 3.8847622, 43.6125577 ], [ 3.8847807, 43.6127826 ], [ 3.8847688, 43.6130077 ], [ 3.8847424, 43.6131475 ], [ 3.8847472, 43.6131521 ], [ 3.8847693, 43.6131782 ], [ 3.8848961, 43.6131636 ], [ 3.8851638, 43.6131519 ], [ 3.8851723, 43.6131341 ], [ 3.8853018, 43.6129294 ], [ 3.8854584, 43.6127349 ], [ 3.8856405, 43.6125525 ], [ 3.8858463, 43.612384 ], [ 3.8860738, 43.6122309 ], [ 3.8862696, 43.612123 ], [ 3.8862711, 43.6121148 ], [ 3.8863433, 43.6118957 ], [ 3.8864446, 43.6116827 ], [ 3.8865742, 43.611478 ], [ 3.8867308, 43.6112835 ], [ 3.8869128, 43.6111012 ], [ 3.8871186, 43.6109326 ], [ 3.8872101, 43.610871 ], [ 3.8870331, 43.6108915 ], [ 3.8867235, 43.610905 ], [ 3.8864137, 43.6108963 ], [ 3.8861065, 43.6108656 ], [ 3.8858049, 43.6108132 ], [ 3.8857205, 43.610792 ], [ 3.8857004, 43.6107885 ], [ 3.8854073, 43.6107149 ], [ 3.8851256, 43.6106207 ], [ 3.884858, 43.610507 ], [ 3.8846069, 43.6103747 ], [ 3.884375, 43.6102252 ], [ 3.8842625, 43.6101369 ], [ 3.8842314, 43.6102313 ], [ 3.88413, 43.6104442 ], [ 3.8840004, 43.6106489 ] ], [ [ 3.8648996, 43.6225519 ], [ 3.8648167, 43.6225496 ], [ 3.8647155, 43.6225394 ], [ 3.8647726, 43.6225585 ], [ 3.8648965, 43.6226112 ], [ 3.8648996, 43.6225519 ] ], [ [ 3.8756832, 43.6128393 ], [ 3.875658, 43.612835 ], [ 3.8753649, 43.6127613 ], [ 3.8753565, 43.6127585 ], [ 3.8752836, 43.6127986 ], [ 3.875511, 43.6128953 ], [ 3.8755524, 43.6129171 ], [ 3.8755991, 43.6128857 ], [ 3.8756832, 43.6128393 ] ], [ [ 3.8904568, 43.6172738 ], [ 3.8904996, 43.6172813 ], [ 3.8904214, 43.6172401 ], [ 3.8904565, 43.6172737 ], [ 3.8904568, 43.6172738 ] ], [ [ 3.8896849, 43.616748 ], [ 3.8898043, 43.6168109 ], [ 3.8897164, 43.6167268 ], [ 3.8896849, 43.616748 ] ], [ [ 3.8921317, 43.6114162 ], [ 3.8922604, 43.6112562 ], [ 3.892333, 43.6111835 ], [ 3.8922657, 43.6112206 ], [ 3.8920483, 43.6113175 ], [ 3.8921317, 43.6114162 ] ], [ [ 3.9013572, 43.6139956 ], [ 3.901362, 43.6139916 ], [ 3.9013592, 43.6139573 ], [ 3.9013572, 43.6139956 ] ] ] } },
{ "type": "Feature", "properties": { "index": "1", "label": "Beyond 255 m", "color": "#d9d9d9" }, "geometry": { "type": "MultiPolygon", "coordinates": [ [ [ [ 3.9019956, 43.6000006 ], [ 3.905, 43.6 ], [ 3.905, 43.6005603 ], [ 3.9047008, 43.6005084 ], [ 3.9043936, 43.6004777 ], [ 3.9042619, 43.6004741 ], [ 3.9042424, 43.6004721 ], [ 3.9039326, 43.6004635 ], [ 3.9036231, 43.600477 ], [ 3.903317, 43.6005125 ], [ 3.9030171, 43.6005696 ], [ 3.9027829, 43.6006326 ], [ 3.9026546, 43.6005097 ], [ 3.9024439, 43.6003444 ], [ 3.9022777, 43.6002373 ], [ 3.9021891, 43.6001524 ], [ 3.9019956, 43.6000006 ] ] ], [ [ [ 3.9048411, 43.6076428 ], [ 3.905, 43.6075719 ], [ 3.905, 43.6116196 ], [ 3.9047906, 43.6115987 ], [ 3.9044807, 43.6115901 ], [ 3.9041712, 43.6116036 ], [ 3.9038649, 43.6116391 ], [ 3.903565, 43.6116962 ], [ 3.9032742, 43.6117745 ], [ 3.9029953, 43.611873 ], [ 3.9027311, 43.6119909 ], [ 3.902484, 43.6121271 ], [ 3.9022565, 43.6122802 ], [ 3.9020508, 43.6124488 ], [ 3.9018688, 43.6126312 ], [ 3.9017123, 43.6128257 ], [ 3.9015827, 43.6130304 ], [ 3.9014814, 43.6132434 ], [ 3.9014094, 43.6134625 ], [ 3.9013672, 43.6136857 ], [ 3.9013629, 43.6137667 ], [ 3.9013482, 43.6135883 ], [ 3.9013478, 43.6135867 ], [ 3.9013459, 43.6135631 ], [ 3.9012971, 43.6133406 ], [ 3.9012185, 43.6131227 ], [ 3.9011108, 43.6129114 ], [ 3.901034, 43.6127966 ], [ 3.901008, 43.6127456 ], [ 3.9008724, 43.612543 ], [ 3.9007101, 43.612351 ], [ 3.9006249, 43.6122694 ], [ 3.9008478, 43.6121194 ], [ 3.9008508, 43.6121169 ], [ 3.9011223, 43.612021 ], [ 3.9013866, 43.611903 ], [ 3.9016336, 43.6117669 ], [ 3.9018611, 43.6116137 ], [ 3.9020668, 43.6114452 ], [ 3.9022488, 43.6112628 ], [ 3.9024054, 43.6110683 ], [ 3.9025349, 43.6108635 ], [ 3.9026362, 43.6106506 ], [ 3.9027082, 43.6104315 ], [ 3.9027504, 43.6102082 ], [ 3.9027623, 43.6099831 ], [ 3.9027437, 43.6097582 ], [ 3.9026949, 43.6095357 ], [ 3.9026162, 43.6093177 ], [ 3.9025086, 43.6091064 ], [ 3.902373, 43.6089038 ], [ 3.9022107, 43.6087118 ], [ 3.9020233, 43.6085323 ], [ 3.9018126, 43.608367 ], [ 3.9015806, 43.6082176 ], [ 3.9013296, 43.6080853 ], [ 3.9011007, 43.6079881 ], [ 3.9012249, 43.6078636 ], [ 3.9013814, 43.6076691 ], [ 3.9014411, 43.6075746 ], [ 3.9014772, 43.6075936 ], [ 3.9017448, 43.6077073 ], [ 3.9020266, 43.6078015 ], [ 3.9023196, 43.6078751 ], [ 3.9026212, 43.6079274 ], [ 3.9029284, 43.6079581 ], [ 3.9032383, 43.6079667 ], [ 3.9035478, 43.6079532 ], [ 3.903854, 43.6079177 ], [ 3.9041539, 43.6078606 ], [ 3.9044447, 43.6077824 ], [ 3.9045557, 43.6077431 ], [ 3.9045623, 43.6077414 ], [ 3.9048411, 43.6076428 ] ] ], [ [ [ 3.905, 43.6237058 ], [ 3.905, 43.625 ], [ 3.902685, 43.6250005 ], [ 3.9027017, 43.6249122 ], [ 3.9027135, 43.6246871 ], [ 3.9026949, 43.6244622 ], [ 3.9026461, 43.6242397 ], [ 3.9025675, 43.6240217 ], [ 3.9025309, 43.62395 ], [ 3.9027546, 43.6238709 ], [ 3.9030189, 43.623753 ], [ 3.903266, 43.6236168 ], [ 3.903278, 43.6236087 ], [ 3.9034856, 43.6236609 ], [ 3.9037872, 43.6237132 ], [ 3.9040945, 43.6237439 ], [ 3.9044044, 43.6237525 ], [ 3.904714, 43.623739 ], [ 3.905, 43.6237058 ] ] ], [ [ [ 3.8958819, 43.6249557 ], [ 3.8959208, 43.6250016 ], [ 3.8737118, 43.6250026 ], [ 3.8737256, 43.625001 ], [ 3.8740257, 43.6249439 ], [ 3.8743166, 43.6248658 ], [ 3.8745956, 43.6247673 ], [ 3.8748599, 43.6246494 ], [ 3.8751071, 43.6245133 ], [ 3.8753347, 43.6243603 ], [ 3.8755405, 43.6241917 ], [ 3.8757227, 43.6240094 ], [ 3.8758793, 43.6238149 ], [ 3.8760089, 43.6236102 ], [ 3.8760292, 43.6235677 ], [ 3.8760816, 43.6235616 ], [ 3.8763817, 43.6235046 ], [ 3.8766726, 43.6234265 ], [ 3.8769515, 43.623328 ], [ 3.8772159, 43.6232101 ], [ 3.877463, 43.623074 ], [ 3.8776356, 43.6229579 ], [ 3.8777875, 43.6231035 ], [ 3.8778442, 43.623148 ], [ 3.8778848, 43.6231869 ], [ 3.8780955, 43.6233522 ], [ 3.8783275, 43.6235018 ], [ 3.8785786, 43.6236341 ], [ 3.8788463, 43.6237479 ], [ 3.8791281, 43.623842 ], [ 3.8794212, 43.6239157 ], [ 3.8797228, 43.6239681 ], [ 3.8800301, 43.6239988 ], [ 3.88034, 43.6240075 ], [ 3.8806496, 43.623994 ], [ 3.880892, 43.623966 ], [ 3.8809367, 43.6240011 ], [ 3.8811687, 43.6241506 ], [ 3.8814198, 43.6242829 ], [ 3.8816875, 43.6243967 ], [ 3.8819692, 43.6244909 ], [ 3.8822624, 43.6245645 ], [ 3.882564, 43.6246169 ], [ 3.8828713, 43.6246476 ], [ 3.8831812, 43.6246563 ], [ 3.8834908, 43.6246428 ], [ 3.8837971, 43.6246074 ], [ 3.8840972, 43.6245503 ], [ 3.8843881, 43.6244722 ], [ 3.884667, 43.6243737 ], [ 3.8849313, 43.6242558 ], [ 3.8851785, 43.6241196 ], [ 3.885406, 43.6239666 ], [ 3.8856119, 43.623798 ], [ 3.885794, 43.6236156 ], [ 3.8859506, 43.6234212 ], [ 3.8860802, 43.6232165 ], [ 3.8861815, 43.6230035 ], [ 3.8862101, 43.6229169 ], [ 3.886239, 43.622856 ], [ 3.8863112, 43.6226369 ], [ 3.8863534, 43.6224137 ], [ 3.8863653, 43.6221885 ], [ 3.8863517, 43.6220234 ], [ 3.8863569, 43.62202 ], [ 3.8865627, 43.6218514 ], [ 3.8867448, 43.621669 ], [ 3.8869014, 43.6214745 ], [ 3.887031, 43.6212698 ], [ 3.8870888, 43.6211483 ], [ 3.8871953, 43.6211936 ], [ 3.8873659, 43.6212505 ], [ 3.8875476, 43.6213463 ], [ 3.8878153, 43.6214601 ], [ 3.8880971, 43.6215542 ], [ 3.8883902, 43.6216278 ], [ 3.8886919, 43.6216803 ], [ 3.8888184, 43.6216929 ], [ 3.888972, 43.6217315 ], [ 3.8892736, 43.6217839 ], [ 3.8894009, 43.6217966 ], [ 3.8894726, 43.6218343 ], [ 3.8895478, 43.6218663 ], [ 3.8895538, 43.6218702 ], [ 3.8898049, 43.6220024 ], [ 3.8900726, 43.6221162 ], [ 3.8903544, 43.6222103 ], [ 3.8906475, 43.622284 ], [ 3.8909491, 43.6223364 ], [ 3.8912564, 43.622367 ], [ 3.8913176, 43.6223687 ], [ 3.8914531, 43.6224985 ], [ 3.8916638, 43.6226638 ], [ 3.8918959, 43.6228133 ], [ 3.8921469, 43.6229456 ], [ 3.8924147, 43.6230593 ], [ 3.8926964, 43.6231535 ], [ 3.8929896, 43.6232271 ], [ 3.8932912, 43.6232795 ], [ 3.8935985, 43.6233101 ], [ 3.8937595, 43.6233146 ], [ 3.8937757, 43.6233162 ], [ 3.8940856, 43.6233249 ], [ 3.8943952, 43.6233114 ], [ 3.8947015, 43.6232759 ], [ 3.8950015, 43.6232188 ], [ 3.8952924, 43.6231406 ], [ 3.8953914, 43.6231057 ], [ 3.8954902, 43.6232533 ], [ 3.8955708, 43.6233486 ], [ 3.8955458, 43.6234245 ], [ 3.8955036, 43.6236478 ], [ 3.8954917, 43.6238729 ], [ 3.8955103, 43.6240978 ], [ 3.8955591, 43.6243203 ], [ 3.8955597, 43.6243219 ], [ 3.8955601, 43.6243238 ], [ 3.8956387, 43.6245418 ], [ 3.8957463, 43.6247531 ], [ 3.8958819, 43.6249557 ] ] ], [ [ [ 3.8721909, 43.6249579 ], [ 3.8724472, 43.6250025 ], [ 3.8664211, 43.6250019 ], [ 3.8664602, 43.6247957 ], [ 3.8664686, 43.6246379 ], [ 3.8666454, 43.6247131 ], [ 3.8669271, 43.6248073 ], [ 3.8672202, 43.624881 ], [ 3.8675218, 43.6249335 ], [ 3.8678291, 43.6249642 ], [ 3.868139, 43.6249729 ], [ 3.8684487, 43.6249595 ], [ 3.868755, 43.6249241 ], [ 3.869055, 43.6248671 ], [ 3.8692886, 43.6248043 ], [ 3.8693358, 43.6247954 ], [ 3.8696268, 43.6247172 ], [ 3.8699057, 43.6246188 ], [ 3.8701701, 43.6245009 ], [ 3.8702705, 43.6244456 ], [ 3.8703448, 43.6244643 ], [ 3.8706465, 43.6245168 ], [ 3.8709537, 43.6245475 ], [ 3.8711124, 43.6245519 ], [ 3.8713483, 43.6246763 ], [ 3.871616, 43.6247901 ], [ 3.8718978, 43.6248843 ], [ 3.8721909, 43.6249579 ] ] ], [ [ [ 3.8591, 43.6250008 ], [ 3.855, 43.625 ], [ 3.855, 43.6244596 ], [ 3.8550781, 43.6244618 ], [ 3.8553878, 43.6244484 ], [ 3.8556941, 43.6244131 ], [ 3.8559941, 43.6243561 ], [ 3.8562851, 43.624278 ], [ 3.8565641, 43.6241796 ], [ 3.8566708, 43.624132 ], [ 3.8568575, 43.6240819 ], [ 3.8571365, 43.6239834 ], [ 3.8573708, 43.623879 ], [ 3.8574451, 43.6239374 ], [ 3.8576771, 43.6240869 ], [ 3.8579281, 43.6242193 ], [ 3.8581958, 43.6243331 ], [ 3.8584775, 43.6244273 ], [ 3.8585322, 43.6244411 ], [ 3.8587295, 43.6245451 ], [ 3.8588486, 43.6247232 ], [ 3.8590108, 43.6249152 ], [ 3.8591, 43.6250008 ] ] ], [ [ [ 3.8552843, 43.6129952 ], [ 3.855, 43.6129872 ], [ 3.855, 43.6125948 ], [ 3.8551129, 43.612598 ], [ 3.8554225, 43.6125846 ], [ 3.8557176, 43.6125506 ], [ 3.8556762, 43.6126159 ], [ 3.8555747, 43.6128288 ], [ 3.8555526, 43.612896 ], [ 3.8553331, 43.6129734 ], [ 3.8552843, 43.6129952 ] ] ], [ [ [ 3.8550556, 43.6079502 ], [ 3.855, 43.6079526 ], [ 3.855, 43.6060572 ], [ 3.8551033, 43.6061384 ], [ 3.8553352, 43.606288 ], [ 3.8555861, 43.6064203 ], [ 3.8558537, 43.6065342 ], [ 3.8561354, 43.6066284 ], [ 3.8564284, 43.6067021 ], [ 3.8567299, 43.6067546 ], [ 3.8570371, 43.6067854 ], [ 3.8573469, 43.6067941 ], [ 3.8576564, 43.6067807 ], [ 3.8579627, 43.6067454 ], [ 3.8582626, 43.6066884 ], [ 3.8585535, 43.6066103 ], [ 3.8588324, 43.6065118 ], [ 3.8590967, 43.606394 ], [ 3.8593438, 43.6062579 ], [ 3.8594703, 43.6061729 ], [ 3.8596438, 43.6060773 ], [ 3.8598714, 43.6059243 ], [ 3.8600772, 43.6057558 ], [ 3.8602593, 43.6055734 ], [ 3.860416, 43.605379 ], [ 3.8605456, 43.6051743 ], [ 3.8606471, 43.6049614 ], [ 3.8606984, 43.6048057 ], [ 3.8607149, 43.6048164 ], [ 3.8609659, 43.6049487 ], [ 3.8612334, 43.6050625 ], [ 3.8615151, 43.6051568 ], [ 3.8618081, 43.6052305 ], [ 3.8621096, 43.6052829 ], [ 3.8624168, 43.6053137 ], [ 3.8627266, 43.6053224 ], [ 3.8630361, 43.605309 ], [ 3.8633423, 43.6052736 ], [ 3.8636423, 43.6052166 ], [ 3.8639331, 43.6051385 ], [ 3.864212, 43.6050401 ], [ 3.8644763, 43.6049222 ], [ 3.8647234, 43.6047861 ], [ 3.864951, 43.6046331 ], [ 3.8650358, 43.6045637 ], [ 3.8651158, 43.6046833 ], [ 3.865278, 43.6048754 ], [ 3.8654652, 43.6050549 ], [ 3.8656758, 43.6052203 ], [ 3.8659077, 43.6053699 ], [ 3.8661587, 43.6055022 ], [ 3.8664263, 43.605616 ], [ 3.866708, 43.6057102 ], [ 3.867001, 43.6057839 ], [ 3.8673025, 43.6058364 ], [ 3.8676097, 43.6058671 ], [ 3.8678764, 43.6058746 ], [ 3.8678288, 43.6058874 ], [ 3.8675499, 43.6059858 ], [ 3.8672857, 43.6061037 ], [ 3.8670386, 43.6062398 ], [ 3.866811, 43.6063928 ], [ 3.8666954, 43.6064875 ], [ 3.866557, 43.6065363 ], [ 3.8662928, 43.6066541 ], [ 3.8660457, 43.6067902 ], [ 3.8658181, 43.6069433 ], [ 3.8656123, 43.6071118 ], [ 3.8654302, 43.6072941 ], [ 3.8653081, 43.6074456 ], [ 3.8652612, 43.6074338 ], [ 3.8649596, 43.6073814 ], [ 3.8646525, 43.6073506 ], [ 3.8643426, 43.6073419 ], [ 3.8640331, 43.6073553 ], [ 3.8637269, 43.6073907 ], [ 3.8634269, 43.6074477 ], [ 3.8631361, 43.6075258 ], [ 3.8629388, 43.6075954 ], [ 3.8627538, 43.6075769 ], [ 3.862444, 43.6075682 ], [ 3.8621345, 43.6075816 ], [ 3.8618282, 43.607617 ], [ 3.8615283, 43.607674 ], [ 3.861309, 43.6077329 ], [ 3.8611602, 43.6077393 ], [ 3.860854, 43.6077747 ], [ 3.860554, 43.6078317 ], [ 3.8602631, 43.6079098 ], [ 3.8599842, 43.6080082 ], [ 3.8597199, 43.608126 ], [ 3.8594728, 43.6082621 ], [ 3.8592452, 43.6084151 ], [ 3.8590394, 43.6085836 ], [ 3.8588572, 43.608766 ], [ 3.8587006, 43.6089604 ], [ 3.8585709, 43.6091651 ], [ 3.8584695, 43.609378 ], [ 3.8583972, 43.6095971 ], [ 3.8583549, 43.6098203 ], [ 3.8583429, 43.6100455 ], [ 3.8583613, 43.6102704 ], [ 3.85841, 43.6104929 ], [ 3.8584884, 43.6107109 ], [ 3.8585276, 43.6107879 ], [ 3.8584609, 43.6108547 ], [ 3.8583042, 43.6110491 ], [ 3.858282, 43.6110842 ], [ 3.8580632, 43.6111258 ], [ 3.8580226, 43.6111367 ], [ 3.8581134, 43.610946 ], [ 3.8581857, 43.6107269 ], [ 3.858228, 43.6105037 ], [ 3.8582292, 43.6104819 ], [ 3.8582357, 43.6104475 ], [ 3.8582477, 43.6102223 ], [ 3.8582293, 43.6099974 ], [ 3.8581806, 43.6097749 ], [ 3.8581022, 43.6095569 ], [ 3.8579947, 43.6093456 ], [ 3.8578592, 43.6091429 ], [ 3.8576971, 43.6089508 ], [ 3.8575098, 43.6087713 ], [ 3.8572992, 43.6086059 ], [ 3.8570673, 43.6084563 ], [ 3.8568164, 43.608324 ], [ 3.8565488, 43.6082101 ], [ 3.8562671, 43.6081159 ], [ 3.8559741, 43.6080422 ], [ 3.8556726, 43.6079897 ], [ 3.8553654, 43.6079589 ], [ 3.8550556, 43.6079502 ] ] ], [ [ [ 3.855, 43.6011769 ], [ 3.855, 43.6 ], [ 3.856684, 43.6000004 ], [ 3.8566805, 43.6000661 ], [ 3.8566989, 43.600291 ], [ 3.8567476, 43.6005136 ], [ 3.856826, 43.6007315 ], [ 3.8569335, 43.6009429 ], [ 3.8569578, 43.6009793 ], [ 3.8566636, 43.6009498 ], [ 3.8563538, 43.6009411 ], [ 3.8560443, 43.6009545 ], [ 3.8557381, 43.6009898 ], [ 3.8554382, 43.6010468 ], [ 3.8551474, 43.6011249 ], [ 3.855, 43.6011769 ] ] ], [ [ [ 3.8647119, 43.6000799 ], [ 3.8646123, 43.6000017 ], [ 3.865097, 43.6000018 ], [ 3.8650358, 43.6000234 ], [ 3.8647745, 43.6001399 ], [ 3.8647119, 43.6000799 ] ] ], [ [ [ 3.8712519, 43.6001875 ], [ 3.8710956, 43.6000024 ], [ 3.8807068, 43.6000027 ], [ 3.8805739, 43.6001116 ], [ 3.8803919, 43.600294 ], [ 3.8803677, 43.600324 ], [ 3.880329, 43.6003229 ], [ 3.8800195, 43.6003364 ], [ 3.8797134, 43.6003718 ], [ 3.8794134, 43.6004288 ], [ 3.8791226, 43.600507 ], [ 3.8788438, 43.6006055 ], [ 3.8785796, 43.6007233 ], [ 3.8783325, 43.6008595 ], [ 3.878105, 43.6010125 ], [ 3.8779305, 43.6011554 ], [ 3.8779092, 43.6011442 ], [ 3.8776416, 43.6010304 ], [ 3.87736, 43.6009362 ], [ 3.877067, 43.6008625 ], [ 3.8767654, 43.6008101 ], [ 3.8766835, 43.6008019 ], [ 3.8764442, 43.6007002 ], [ 3.8761626, 43.600606 ], [ 3.8758696, 43.6005323 ], [ 3.8755681, 43.6004799 ], [ 3.8752609, 43.6004492 ], [ 3.8749511, 43.6004405 ], [ 3.8746416, 43.6004539 ], [ 3.8743355, 43.6004893 ], [ 3.8740355, 43.6005464 ], [ 3.8737447, 43.6006245 ], [ 3.8734659, 43.600723 ], [ 3.8732016, 43.6008408 ], [ 3.8729546, 43.600977 ], [ 3.8728718, 43.6010326 ], [ 3.8727398, 43.6009995 ], [ 3.8724383, 43.600947 ], [ 3.8721312, 43.6009163 ], [ 3.8718213, 43.6009076 ], [ 3.8715948, 43.6009174 ], [ 3.8715734, 43.6008194 ], [ 3.8714949, 43.6006015 ], [ 3.8713874, 43.6003901 ], [ 3.8712519, 43.6001875 ] ] ], [ [ [ 3.8901742, 43.6000346 ], [ 3.8901671, 43.6000023 ], [ 3.8915794, 43.6000021 ], [ 3.8915618, 43.6000949 ], [ 3.8915499, 43.6003201 ], [ 3.8915685, 43.600545 ], [ 3.8916173, 43.6007675 ], [ 3.8916958, 43.6009854 ], [ 3.8918034, 43.6011968 ], [ 3.8919389, 43.6013994 ], [ 3.8921012, 43.6015914 ], [ 3.8922885, 43.6017709 ], [ 3.8924992, 43.6019362 ], [ 3.8925152, 43.6019465 ], [ 3.8923422, 43.6020076 ], [ 3.892078, 43.6021255 ], [ 3.891831, 43.6022617 ], [ 3.891742, 43.6023216 ], [ 3.8916459, 43.6022295 ], [ 3.8914352, 43.6020641 ], [ 3.8912033, 43.6019146 ], [ 3.8909523, 43.6017824 ], [ 3.8906847, 43.6016686 ], [ 3.890403, 43.6015745 ], [ 3.89011, 43.6015008 ], [ 3.8898084, 43.6014484 ], [ 3.8897564, 43.6014432 ], [ 3.8898357, 43.6013447 ], [ 3.8899652, 43.60114 ], [ 3.8900666, 43.600927 ], [ 3.8901387, 43.6007079 ], [ 3.8901809, 43.6004847 ], [ 3.8901928, 43.6002595 ], [ 3.8901742, 43.6000346 ] ] ], [ [ [ 3.8780417, 43.6199611 ], [ 3.8779991, 43.6199108 ], [ 3.8778118, 43.6197312 ], [ 3.8776011, 43.6195659 ], [ 3.8773691, 43.6194164 ], [ 3.877118, 43.6192841 ], [ 3.8768504, 43.6191703 ], [ 3.8767852, 43.6191485 ], [ 3.8766954, 43.618972 ], [ 3.8765598, 43.6187693 ], [ 3.8763976, 43.6185773 ], [ 3.8762102, 43.6183978 ], [ 3.8761004, 43.6183116 ], [ 3.8762529, 43.6182091 ], [ 3.8764587, 43.6180405 ], [ 3.8765783, 43.6179208 ], [ 3.876614, 43.6178915 ], [ 3.8767961, 43.6177091 ], [ 3.876947, 43.6175218 ], [ 3.8769846, 43.6174841 ], [ 3.8770656, 43.6176432 ], [ 3.8772011, 43.6178458 ], [ 3.8773634, 43.6180379 ], [ 3.8775507, 43.6182174 ], [ 3.8777614, 43.6183827 ], [ 3.8779934, 43.6185323 ], [ 3.8782444, 43.6186646 ], [ 3.8785121, 43.6187784 ], [ 3.8787938, 43.6188725 ], [ 3.8790869, 43.6189462 ], [ 3.8793885, 43.6189986 ], [ 3.8796958, 43.6190293 ], [ 3.8800057, 43.619038 ], [ 3.8803153, 43.6190245 ], [ 3.8806215, 43.6189891 ], [ 3.8809216, 43.6189321 ], [ 3.8810283, 43.6189034 ], [ 3.8810084, 43.6189348 ], [ 3.8809071, 43.6191477 ], [ 3.8808349, 43.6193668 ], [ 3.8808326, 43.6193788 ], [ 3.8807928, 43.6193719 ], [ 3.8804856, 43.6193412 ], [ 3.8801757, 43.6193325 ], [ 3.8798661, 43.619346 ], [ 3.8795599, 43.6193814 ], [ 3.8792598, 43.6194384 ], [ 3.8789689, 43.6195166 ], [ 3.87869, 43.6196151 ], [ 3.8784257, 43.6197329 ], [ 3.8781786, 43.6198691 ], [ 3.8780417, 43.6199611 ] ] ], [ [ [ 3.8785048, 43.6124393 ], [ 3.8784894, 43.6124366 ], [ 3.8785072, 43.6124269 ], [ 3.8785048, 43.6124393 ] ] ], [ [ [ 3.8836405, 43.6110432 ], [ 3.8836618, 43.6110258 ], [ 3.8838439, 43.6108434 ], [ 3.8840004, 43.6106489 ], [ 3.88413, 43.6104442 ], [ 3.8842314, 43.6102313 ], [ 3.8842625, 43.6101369 ], [ 3.884375, 43.6102252 ], [ 3.8846069, 43.6103747 ], [ 3.884858, 43.610507 ], [ 3.8851256, 43.6106207 ], [ 3.8854073, 43.6107149 ], [ 3.8857004, 43.6107885 ], [ 3.8857205, 43.610792 ], [ 3.8858049, 43.6108132 ], [ 3.8861065, 43.6108656 ], [ 3.8864137, 43.6108963 ], [ 3.8867235, 43.610905 ], [ 3.8870331, 43.6108915 ], [ 3.8872101, 43.610871 ], [ 3.8871186, 43.6109326 ], [ 3.8869128, 43.6111012 ], [ 3.8867308, 43.6112835 ], [ 3.8865742, 43.611478 ], [ 3.8864446, 43.6116827 ], [ 3.8863433, 43.6118957 ], [ 3.8862711, 43.6121148 ], [ 3.8862696, 43.612123 ], [ 3.8860738, 43.6122309 ], [ 3.8858463, 43.612384 ], [ 3.8856405, 43.6125525 ], [ 3.8854584, 43.6127349 ], [ 3.8853018, 43.6129294 ], [ 3.8851723, 43.6131341 ], [ 3.8851638, 43.6131519 ], [ 3.8848961, 43.6131636 ], [ 3.8847693, 43.6131782 ], [ 3.8847472, 43.6131521 ], [ 3.8847424, 43.6131475 ], [ 3.8847688, 43.6130077 ], [ 3.8847807, 43.6127826 ], [ 3.8847622, 43.6125577 ], [ 3.8847134, 43.6123352 ], [ 3.8846349, 43.6121172 ], [ 3.8845273, 43.6119059 ], [ 3.8843918, 43.6117033 ], [ 3.8842295, 43.6115112 ], [ 3.8840422, 43.6113317 ], [ 3.8838315, 43.6111664 ], [ 3.8836405, 43.6110432 ] ] ], [ [ [ 3.8647726, 43.6225585 ], [ 3.8647155, 43.6225394 ], [ 3.8648167, 43.6225496 ], [ 3.8648996, 43.6225519 ], [ 3.8648965, 43.6226112 ], [ 3.8647726, 43.6225585 ] ] ], [ [ [ 3.8753565, 43.6127585 ], [ 3.8753649, 43.6127613 ], [ 3.875658, 43.612835 ], [ 3.8756832, 43.6128393 ], [ 3.8755991, 43.6128857 ], [ 3.8755524, 43.6129171 ], [ 3.875511, 43.6128953 ], [ 3.8752836, 43.6127986 ], [ 3.8753565, 43.6127585 ] ] ], [ [ [ 3.8904565, 43.6172737 ], [ 3.8904214, 43.6172401 ], [ 3.8904996, 43.6172813 ], [ 3.8904568, 43.6172738 ], [ 3.8904565, 43.6172737 ] ] ], [ [ [ 3.8896849, 43.616748 ], [ 3.8897164, 43.6167268 ], [ 3.8898043, 43.6168109 ], [ 3.8896849, 43.616748 ] ] ], [ [ [ 3.8922657, 43.6112206 ], [ 3.892333, 43.6111835 ], [ 3.8922604, 43.6112562 ], [ 3.8921317, 43.6114162 ], [ 3.8920483, 43.6113175 ], [ 3.8922657, 43.6112206 ] ] ], [ [ [ 3.9013572, 43.6139956 ], [ 3.9013592, 43.6139573 ], [ 3.901362, 43.6139916 ], [ 3.9013572, 43.6139956 ] ] ] ] } }
]
}
