{
"type": "FeatureCollection",
"features": [
{ "type": "Feature", "properties": { "index": "0", "label": "Within 300 m on foot", "color": "#2b8cbe" }, "geometry": { "type": "Polygon", "coordinates": [ [ [ 3.8561447, 43.6003349 ], [ 3.856123, 43.6000703 ], [ 3.8561268, 43.6000002 ], [ 3.8717473, 43.6000024 ], [ 3.8719002, 43.6002312 ], [ 3.8720267, 43.6004798 ], [ 3.8720371, 43.6005087 ], [ 3.87218, 43.6005127 ], [ 3.8725413, 43.6005488 ], [ 3.8727455, 43.6005843 ], [ 3.872887, 43.6005063 ], [ 3.8731979, 43.6003677 ], [ 3.873526, 43.6002518 ], [ 3.8738681, 43.6001599 ], [ 3.8742209, 43.6000928 ], [ 3.8745812, 43.6000512 ], [ 3.8749453, 43.6000354 ], [ 3.8753097, 43.6000456 ], [ 3.8756711, 43.6000817 ], [ 3.8760258, 43.6001434 ], [ 3.8763705, 43.6002301 ], [ 3.8767019, 43.6003409 ], [ 3.8768693, 43.6004121 ], [ 3.8772232, 43.6004736 ], [ 3.8775679, 43.6005603 ], [ 3.8778282, 43.6006473 ], [ 3.8779743, 43.600549 ], [ 3.8782649, 43.6003888 ], [ 3.8785758, 43.6002502 ], [ 3.8789039, 43.6001343 ], [ 3.879246, 43.6000424 ], [ 3.8794544, 43.6000027 ], [ 3.8907294, 43.6000022 ], [ 3.8907502, 43.6002552 ], [ 3.8907363, 43.6005201 ], [ 3.8906866, 43.6007827 ], [ 3.8906018, 43.6010405 ], [ 3.8905356, 43.6011796 ], [ 3.8906108, 43.6011985 ], [ 3.8909422, 43.6013093 ], [ 3.8912571, 43.6014431 ], [ 3.8913991, 43.6015179 ], [ 3.8912906, 43.6013558 ], [ 3.8911641, 43.6011072 ], [ 3.8910716, 43.6008508 ], [ 3.8910143, 43.600589 ], [ 3.8909925, 43.6003244 ], [ 3.8910064, 43.6000596 ], [ 3.8910173, 43.6000022 ], [ 3.9027494, 43.6000005 ], [ 3.9028338, 43.6000548 ], [ 3.9029685, 43.6001605 ], [ 3.9032023, 43.600116 ], [ 3.9035625, 43.6000743 ], [ 3.9039266, 43.6000584 ], [ 3.904291, 43.6000685 ], [ 3.9043105, 43.6000705 ], [ 3.9044422, 43.6000741 ], [ 3.9048036, 43.6001102 ], [ 3.905, 43.6001443 ], [ 3.905, 43.6080367 ], [ 3.9047813, 43.608114 ], [ 3.9047746, 43.6081157 ], [ 3.9046637, 43.608155 ], [ 3.9043216, 43.608247 ], [ 3.9039687, 43.6083142 ], [ 3.9036085, 43.6083559 ], [ 3.9032443, 43.6083718 ], [ 3.9028798, 43.6083617 ], [ 3.9025184, 43.6083256 ], [ 3.9025039, 43.6083231 ], [ 3.9026709, 43.6084831 ], [ 3.9028619, 43.608709 ], [ 3.9030214, 43.6089473 ], [ 3.903148, 43.6091959 ], [ 3.9032405, 43.6094523 ], [ 3.903298, 43.6097141 ], [ 3.9033198, 43.6099787 ], [ 3.9033059, 43.6102436 ], [ 3.9032563, 43.6105062 ], [ 3.9031715, 43.610764 ], [ 3.9030523, 43.6110145 ], [ 3.9029, 43.6112554 ], [ 3.9027158, 43.6114842 ], [ 3.9026463, 43.6115538 ], [ 3.9027271, 43.6115178 ], [ 3.9030552, 43.6114018 ], [ 3.9033973, 43.6113098 ], [ 3.9037502, 43.6112426 ], [ 3.9041105, 43.6112009 ], [ 3.9044746, 43.611185 ], [ 3.9048392, 43.6111951 ], [ 3.905, 43.6112112 ], [ 3.905, 43.6241156 ], [ 3.9047747, 43.6241417 ], [ 3.9044105, 43.6241576 ], [ 3.9040459, 43.6241475 ], [ 3.9036844, 43.6241114 ], [ 3.9033846, 43.6240594 ], [ 3.9033338, 43.6240874 ], [ 3.9031902, 43.6241515 ], [ 3.9031919, 43.6241563 ], [ 3.9032494, 43.6244181 ], [ 3.9032712, 43.6246827 ], [ 3.9032573, 43.6249476 ], [ 3.9032473, 43.6250004 ], [ 3.8952933, 43.6250017 ], [ 3.8952334, 43.6249121 ], [ 3.8951067, 43.6246635 ], [ 3.8950143, 43.6244071 ], [ 3.8950139, 43.6244053 ], [ 3.8950133, 43.6244036 ], [ 3.8949558, 43.6241419 ], [ 3.894934, 43.6238773 ], [ 3.8949461, 43.6236477 ], [ 3.8948162, 43.6236724 ], [ 3.8944559, 43.6237141 ], [ 3.8940916, 43.62373 ], [ 3.893727, 43.6237198 ], [ 3.8937108, 43.6237182 ], [ 3.8935498, 43.6237137 ], [ 3.8931883, 43.6236777 ], [ 3.8928334, 43.623616 ], [ 3.8924886, 43.6235294 ], [ 3.8921571, 43.6234187 ], [ 3.8918421, 43.6232849 ], [ 3.8915467, 43.6231292 ], [ 3.8912737, 43.6229534 ], [ 3.8910258, 43.6227589 ], [ 3.8910183, 43.6227517 ], [ 3.8908462, 43.6227346 ], [ 3.8904913, 43.6226729 ], [ 3.8901465, 43.6225863 ], [ 3.889815, 43.6224755 ], [ 3.8895, 43.6223417 ], [ 3.889236, 43.6222026 ], [ 3.8891928, 43.6221843 ], [ 3.8891706, 43.6221821 ], [ 3.8888158, 43.6221204 ], [ 3.8886882, 43.6220884 ], [ 3.8885889, 43.6220785 ], [ 3.8882341, 43.6220168 ], [ 3.8878892, 43.6219302 ], [ 3.8875577, 43.6218194 ], [ 3.8873426, 43.621728 ], [ 3.8872118, 43.6218905 ], [ 3.8869976, 43.6221051 ], [ 3.8869216, 43.6221673 ], [ 3.886923, 43.6221842 ], [ 3.886909, 43.6224491 ], [ 3.8868593, 43.6227117 ], [ 3.8867744, 43.6229695 ], [ 3.8867455, 43.6230303 ], [ 3.8867169, 43.623117 ], [ 3.8865977, 43.6233675 ], [ 3.8864452, 43.6236083 ], [ 3.886261, 43.6238371 ], [ 3.8860467, 43.6240517 ], [ 3.8858046, 43.62425 ], [ 3.8855369, 43.6244301 ], [ 3.8852461, 43.6245902 ], [ 3.8849352, 43.6247289 ], [ 3.884607, 43.6248448 ], [ 3.8842647, 43.6249368 ], [ 3.8839183, 43.6250027 ], [ 3.8823896, 43.6250027 ], [ 3.8821061, 43.6249534 ], [ 3.8817613, 43.6248668 ], [ 3.8814298, 43.624756 ], [ 3.8811148, 43.6246222 ], [ 3.8808195, 43.6244665 ], [ 3.8807111, 43.6243967 ], [ 3.8807102, 43.6243968 ], [ 3.8803459, 43.6244126 ], [ 3.8799813, 43.6244024 ], [ 3.8796198, 43.6243663 ], [ 3.8792649, 43.6243046 ], [ 3.8789201, 43.624218 ], [ 3.8785886, 43.6241072 ], [ 3.8782737, 43.6239733 ], [ 3.8779783, 43.6238177 ], [ 3.8777054, 43.6236417 ], [ 3.8775605, 43.6235281 ], [ 3.8775306, 43.6235446 ], [ 3.8772196, 43.6236833 ], [ 3.8768914, 43.6237991 ], [ 3.8765492, 43.623891 ], [ 3.8764299, 43.6239137 ], [ 3.8763739, 43.6240021 ], [ 3.8761897, 43.6242309 ], [ 3.8759754, 43.6244455 ], [ 3.8757332, 43.6246437 ], [ 3.8754654, 43.6248238 ], [ 3.8751747, 43.6249839 ], [ 3.8751327, 43.6250026 ], [ 3.8710185, 43.6250024 ], [ 3.8709221, 43.6249516 ], [ 3.8709049, 43.6249511 ], [ 3.8705434, 43.6249149 ], [ 3.8703729, 43.6248853 ], [ 3.8701738, 43.6249741 ], [ 3.8700938, 43.6250023 ], [ 3.8584294, 43.6250007 ], [ 3.8583594, 43.6249179 ], [ 3.8582893, 43.6248131 ], [ 3.8582718, 43.6248038 ], [ 3.8582694, 43.6248032 ], [ 3.857938, 43.6246924 ], [ 3.8576231, 43.6245585 ], [ 3.8573277, 43.6244028 ], [ 3.8572907, 43.6243789 ], [ 3.8570762, 43.6244546 ], [ 3.8569154, 43.6244978 ], [ 3.856832, 43.6245349 ], [ 3.8565038, 43.6246507 ], [ 3.8561615, 43.6247426 ], [ 3.8558085, 43.6248096 ], [ 3.8554481, 43.6248512 ], [ 3.8550839, 43.6248669 ], [ 3.855, 43.6248646 ], [ 3.855, 43.6075472 ], [ 3.8550498, 43.6075451 ], [ 3.8554144, 43.6075553 ], [ 3.8557757, 43.6075915 ], [ 3.8561305, 43.6076533 ], [ 3.8564752, 43.60774 ], [ 3.8568066, 43.6078509 ], [ 3.8571214, 43.6079848 ], [ 3.8574166, 43.6081405 ], [ 3.8576894, 43.6083165 ], [ 3.8579372, 43.608511 ], [ 3.8581575, 43.6087223 ], [ 3.8582037, 43.608777 ], [ 3.8582061, 43.6087731 ], [ 3.8583904, 43.6085444 ], [ 3.8586047, 43.6083299 ], [ 3.8588469, 43.6081316 ], [ 3.8591146, 43.6079516 ], [ 3.8594054, 43.6077915 ], [ 3.8597163, 43.6076529 ], [ 3.8600444, 43.6075371 ], [ 3.8603866, 43.6074452 ], [ 3.8607395, 43.6073781 ], [ 3.8610998, 43.6073365 ], [ 3.8611934, 43.6073325 ], [ 3.8613609, 43.6072875 ], [ 3.8617138, 43.6072204 ], [ 3.8620741, 43.6071788 ], [ 3.8624382, 43.6071631 ], [ 3.8628027, 43.6071733 ], [ 3.8628474, 43.6071778 ], [ 3.8629173, 43.6071531 ], [ 3.8632595, 43.6070612 ], [ 3.8636124, 43.6069941 ], [ 3.8639727, 43.6069525 ], [ 3.8643368, 43.6069368 ], [ 3.8647013, 43.606947 ], [ 3.8650535, 43.6069823 ], [ 3.8651776, 43.606858 ], [ 3.8654197, 43.6066598 ], [ 3.8656875, 43.6064797 ], [ 3.8659782, 43.6063196 ], [ 3.8662891, 43.606181 ], [ 3.8663524, 43.6061586 ], [ 3.8664126, 43.6061093 ], [ 3.8664647, 43.6060743 ], [ 3.8661686, 43.6059753 ], [ 3.8658538, 43.6058414 ], [ 3.8655585, 43.6056857 ], [ 3.8652857, 43.6055098 ], [ 3.865038, 43.6053152 ], [ 3.8649091, 43.6051917 ], [ 3.8647909, 43.6052567 ], [ 3.86448, 43.6053954 ], [ 3.8641519, 43.6055112 ], [ 3.8638097, 43.6056031 ], [ 3.8634568, 43.6056702 ], [ 3.8630965, 43.6057118 ], [ 3.8627324, 43.6057275 ], [ 3.8623679, 43.6057173 ], [ 3.8620065, 43.6056811 ], [ 3.8616518, 43.6056194 ], [ 3.8613071, 43.6055327 ], [ 3.8609973, 43.6054291 ], [ 3.8609104, 43.6055663 ], [ 3.8607261, 43.605795 ], [ 3.8605119, 43.6060096 ], [ 3.8602697, 43.6062078 ], [ 3.860002, 43.6063878 ], [ 3.8598285, 43.6064834 ], [ 3.859702, 43.6065684 ], [ 3.8594112, 43.6067285 ], [ 3.8591003, 43.6068672 ], [ 3.8587722, 43.606983 ], [ 3.85843, 43.6070748 ], [ 3.8580771, 43.6071419 ], [ 3.8577168, 43.6071835 ], [ 3.8573527, 43.6071992 ], [ 3.8569881, 43.607189 ], [ 3.8566268, 43.6071528 ], [ 3.856272, 43.607091 ], [ 3.8559273, 43.6070043 ], [ 3.855596, 43.6068934 ], [ 3.8552812, 43.6067595 ], [ 3.855, 43.6066112 ], [ 3.855, 43.6007331 ], [ 3.8552709, 43.6006603 ], [ 3.8556238, 43.6005933 ], [ 3.855984, 43.6005517 ], [ 3.8561901, 43.6005428 ], [ 3.8561447, 43.6003349 ] ], [ [ 3.877423, 43.6189448 ], [ 3.8777183, 43.6191005 ], [ 3.8779912, 43.6192764 ], [ 3.8781338, 43.6193883 ], [ 3.8784219, 43.6192598 ], [ 3.8785181, 43.6192258 ], [ 3.8782544, 43.6191377 ], [ 3.8779395, 43.6190038 ], [ 3.8776442, 43.6188482 ], [ 3.8773713, 43.6186722 ], [ 3.8771234, 43.6184777 ], [ 3.8769123, 43.6182754 ], [ 3.8768935, 43.6182942 ], [ 3.8768437, 43.618335 ], [ 3.876858, 43.6183487 ], [ 3.8770489, 43.6185746 ], [ 3.8772083, 43.618813 ], [ 3.8772347, 43.6188648 ], [ 3.877423, 43.6189448 ] ], [ [ 3.8845531, 43.6108462 ], [ 3.8845047, 43.6108207 ], [ 3.884495, 43.6108361 ], [ 3.884369, 43.6109926 ], [ 3.8844694, 43.6110714 ], [ 3.8846898, 43.6112826 ], [ 3.8848807, 43.6115085 ], [ 3.8850402, 43.6117469 ], [ 3.8851668, 43.6119955 ], [ 3.8852592, 43.6122519 ], [ 3.8852597, 43.6122546 ], [ 3.8854478, 43.6121006 ], [ 3.8857155, 43.6119205 ], [ 3.8857728, 43.6118889 ], [ 3.885808, 43.6117822 ], [ 3.8859272, 43.6115317 ], [ 3.8860796, 43.6112909 ], [ 3.8860941, 43.6112729 ], [ 3.8860035, 43.6112638 ], [ 3.8856487, 43.6112022 ], [ 3.8855643, 43.611181 ], [ 3.8855442, 43.6111775 ], [ 3.8851994, 43.6110908 ], [ 3.884868, 43.6109801 ], [ 3.8845531, 43.6108462 ] ], [ [ 3.9013821, 43.6123792 ], [ 3.9014023, 43.6124093 ], [ 3.9014713, 43.6123401 ], [ 3.9013905, 43.6123762 ], [ 3.9013821, 43.6123792 ] ] ] } },
{ "type": "Feature", "properties": { "index": "1", "label": "Beyond 300 m", "color": "#d9d9d9" }, "geometry": { "type": "MultiPolygon", "coordinates": [ [ [ [ 3.9027494, 43.6000005 ], [ 3.905, 43.6 ], [ 3.905, 43.6001443 ], [ 3.9048036, 43.6001102 ], [ 3.9044422, 43.6000741 ], [ 3.9043105, 43.6000705 ], [ 3.904291, 43.6000685 ], [ 3.9039266, 43.6000584 ], [ 3.9035625, 43.6000743 ], [ 3.9032023, 43.600116 ], [ 3.9029685, 43.6001605 ], [ 3.9028338, 43.6000548 ], [ 3.9027494, 43.6000005 ] ] ], [ [ [ 3.9047813, 43.608114 ], [ 3.905, 43.6080367 ], [ 3.905, 43.6112112 ], [ 3.9048392, 43.6111951 ], [ 3.9044746, 43.611185 ], [ 3.9041105, 43.6112009 ], [ 3.9037502, 43.6112426 ], [ 3.9033973, 43.6113098 ], [ 3.9030552, 43.6114018 ], [ 3.9027271, 43.6115178 ], [ 3.9026463, 43.6115538 ], [ 3.9027158, 43.6114842 ], [ 3.9029, 43.6112554 ], [ 3.9030523, 43.6110145 ], [ 3.9031715, 43.610764 ], [ 3.9032563, 43.6105062 ], [ 3.9033059, 43.6102436 ], [ 3.9033198, 43.6099787 ], [ 3.903298, 43.6097141 ], [ 3.9032405, 43.6094523 ], [ 3.903148, 43.6091959 ], [ 3.9030214, 43.6089473 ], [ 3.9028619, 43.608709 ], [ 3.9026709, 43.6084831 ], [ 3.9025039, 43.6083231 ], [ 3.9025184, 43.6083256 ], [ 3.9028798, 43.6083617 ], [ 3.9032443, 43.6083718 ], [ 3.9036085, 43.6083559 ], [ 3.9039687, 43.6083142 ], [ 3.9043216, 43.608247 ], [ 3.9046637, 43.608155 ], [ 3.9047746, 43.6081157 ], [ 3.9047813, 43.608114 ] ] ], [ [ [ 3.905, 43.6241156 ], [ 3.905, 43.625 ], [ 3.9032473, 43.6250004 ], [ 3.9032573, 43.6249476 ], [ 3.9032712, 43.6246827 ], [ 3.9032494, 43.6244181 ], [ 3.9031919, 43.6241563 ], [ 3.9031902, 43.6241515 ], [ 3.9033338, 43.6240874 ], [ 3.9033846, 43.6240594 ], [ 3.9036844, 43.6241114 ], [ 3.9040459, 43.6241475 ], [ 3.9044105, 43.6241576 ], [ 3.9047747, 43.6241417 ], [ 3.905, 43.6241156 ] ] ], [ [ [ 3.8952334, 43.6249121 ], [ 3.8952933, 43.6250017 ], [ 3.8839183, 43.6250027 ], [ 3.8842647, 43.6249368 ], [ 3.884607, 43.6248448 ], [ 3.8849352, 43.6247289 ], [ 3.8852461, 43.6245902 ], [ 3.8855369, 43.6244301 ], [ 3.8858046, 43.62425 ], [ 3.8860467, 43.6240517 ], [ 3.886261, 43.6238371 ], [ 3.8864452, 43.6236083 ], [ 3.8865977, 43.6233675 ], [ 3.8867169, 43.623117 ], [ 3.8867455, 43.6230303 ], [ 3.8867744, 43.6229695 ], [ 3.8868593, 43.6227117 ], [ 3.886909, 43.6224491 ], [ 3.886923, 43.6221842 ], [ 3.8869216, 43.6221673 ], [ 3.8869976, 43.6221051 ], [ 3.8872118, 43.6218905 ], [ 3.8873426, 43.621728 ], [ 3.8875577, 43.6218194 ], [ 3.8878892, 43.6219302 ], [ 3.8882341, 43.6220168 ], [ 3.8885889, 43.6220785 ], [ 3.8886882, 43.6220884 ], [ 3.8888158, 43.6221204 ], [ 3.8891706, 43.6221821 ], [ 3.8891928, 43.6221843 ], [ 3.889236, 43.6222026 ], [ 3.8895, 43.6223417 ], [ 3.889815, 43.6224755 ], [ 3.8901465, 43.6225863 ], [ 3.8904913, 43.6226729 ], [ 3.8908462, 43.6227346 ], [ 3.8910183, 43.6227517 ], [ 3.8910258, 43.6227589 ], [ 3.8912737, 43.6229534 ], [ 3.8915467, 43.6231292 ], [ 3.8918421, 43.6232849 ], [ 3.8921571, 43.6234187 ], [ 3.8924886, 43.6235294 ], [ 3.8928334, 43.623616 ], [ 3.8931883, 43.6236777 ], [ 3.8935498, 43.6237137 ], [ 3.8937108, 43.6237182 ], [ 3.893727, 43.6237198 ], [ 3.8940916, 43.62373 ], [ 3.8944559, 43.6237141 ], [ 3.8948162, 43.6236724 ], [ 3.8949461, 43.6236477 ], [ 3.894934, 43.6238773 ], [ 3.8949558, 43.6241419 ], [ 3.8950133, 43.6244036 ], [ 3.8950139, 43.6244053 ], [ 3.8950143, 43.6244071 ], [ 3.8951067, 43.6246635 ], [ 3.8952334, 43.6249121 ] ] ], [ [ [ 3.8821061, 43.6249534 ], [ 3.8823896, 43.6250027 ], [ 3.8751327, 43.6250026 ], [ 3.8751747, 43.6249839 ], [ 3.8754654, 43.6248238 ], [ 3.8757332, 43.6246437 ], [ 3.8759754, 43.6244455 ], [ 3.8761897, 43.6242309 ], [ 3.8763739, 43.6240021 ], [ 3.8764299, 43.6239137 ], [ 3.8765492, 43.623891 ], [ 3.8768914, 43.6237991 ], [ 3.8772196, 43.6236833 ], [ 3.8775306, 43.6235446 ], [ 3.8775605, 43.6235281 ], [ 3.8777054, 43.6236417 ], [ 3.8779783, 43.6238177 ], [ 3.8782737, 43.6239733 ], [ 3.8785886, 43.6241072 ], [ 3.8789201, 43.624218 ], [ 3.8792649, 43.6243046 ], [ 3.8796198, 43.6243663 ], [ 3.8799813, 43.6244024 ], [ 3.8803459, 43.6244126 ], [ 3.8807102, 43.6243968 ], [ 3.8807111, 43.6243967 ], [ 3.8808195, 43.6244665 ], [ 3.8811148, 43.6246222 ], [ 3.8814298, 43.624756 ], [ 3.8817613, 43.6248668 ], [ 3.8821061, 43.6249534 ] ] ], [ [ [ 3.8709221, 43.6249516 ], [ 3.8710185, 43.6250024 ], [ 3.8700938, 43.6250023 ], [ 3.8701738, 43.6249741 ], [ 3.8703729, 43.6248853 ], [ 3.8705434, 43.6249149 ], [ 3.8709049, 43.6249511 ], [ 3.8709221, 43.6249516 ] ] ], [ [ [ 3.8584294, 43.6250007 ], [ 3.855, 43.625 ], [ 3.855, 43.6248646 ], [ 3.8550839, 43.6248669 ], [ 3.8554481, 43.6248512 ], [ 3.8558085, 43.6248096 ], [ 3.8561615, 43.6247426 ], [ 3.8565038, 43.6246507 ], [ 3.856832, 43.6245349 ], [ 3.8569154, 43.6244978 ], [ 3.8570762, 43.6244546 ], [ 3.8572907, 43.6243789 ], [ 3.8573277, 43.6244028 ], [ 3.8576231, 43.6245585 ], [ 3.857938, 43.6246924 ], [ 3.8582694, 43.6248032 ], [ 3.8582718, 43.6248038 ], [ 3.8582893, 43.6248131 ], [ 3.8583594, 43.6249179 ], [ 3.8584294, 43.6250007 ] ] ], [ [ [ 3.8550498, 43.6075451 ], [ 3.855, 43.6075472 ], [ 3.855, 43.6066112 ], [ 3.8552812, 43.6067595 ], [ 3.855596, 43.6068934 ], [ 3.8559273, 43.6070043 ], [ 3.856272, 43.607091 ], [ 3.8566268, 43.6071528 ], [ 3.8569881, 43.607189 ], [ 3.8573527, 43.6071992 ], [ 3.8577168, 43.6071835 ], [ 3.8580771, 43.6071419 ], [ 3.85843, 43.6070748 ], [ 3.8587722, 43.606983 ], [ 3.8591003, 43.6068672 ], [ 3.8594112, 43.6067285 ], [ 3.859702, 43.6065684 ], [ 3.8598285, 43.6064834 ], [ 3.860002, 43.6063878 ], [ 3.8602697, 43.6062078 ], [ 3.8605119, 43.6060096 ], [ 3.8607261, 43.605795 ], [ 3.8609104, 43.6055663 ], [ 3.8609973, 43.6054291 ], [ 3.8613071, 43.6055327 ], [ 3.8616518, 43.6056194 ], [ 3.8620065, 43.6056811 ], [ 3.8623679, 43.6057173 ], [ 3.8627324, 43.6057275 ], [ 3.8630965, 43.6057118 ], [ 3.8634568, 43.6056702 ], [ 3.8638097, 43.6056031 ], [ 3.8641519, 43.6055112 ], [ 3.86448, 43.6053954 ], [ 3.8647909, 43.6052567 ], [ 3.8649091, 43.6051917 ], [ 3.865038, 43.6053152 ], [ 3.8652857, 43.6055098 ], [ 3.8655585, 43.6056857 ], [ 3.8658538, 43.6058414 ], [ 3.8661686, 43.6059753 ], [ 3.8664647, 43.6060743 ], [ 3.8664126, 43.6061093 ], [ 3.8663524, 43.6061586 ], [ 3.8662891, 43.606181 ], [ 3.8659782, 43.6063196 ], [ 3.8656875, 43.6064797 ], [ 3.8654197, 43.6066598 ], [ 3.8651776, 43.606858 ], [ 3.8650535, 43.6069823 ], [ 3.8647013, 43.606947 ], [ 3.8643368, 43.6069368 ], [ 3.8639727, 43.6069525 ], [ 3.8636124, 43.6069941 ], [ 3.8632595, 43.6070612 ], [ 3.8629173, 43.6071531 ], [ 3.8628474, 43.6071778 ], [ 3.8628027, 43.6071733 ], [ 3.8624382, 43.6071631 ], [ 3.8620741, 43.6071788 ], [ 3.8617138, 43.6072204 ], [ 3.8613609, 43.6072875 ], [ 3.8611934, 43.6073325 ], [ 3.8610998, 43.6073365 ], [ 3.8607395, 43.6073781 ], [ 3.8603866, 43.6074452 ], [ 3.8600444, 43.6075371 ], [ 3.8597163, 43.6076529 ], [ 3.8594054, 43.6077915 ], [ 3.8591146, 43.6079516 ], [ 3.8588469, 43.6081316 ], [ 3.8586047, 43.6083299 ], [ 3.8583904, 43.6085444 ], [ 3.8582061, 43.6087731 ], [ 3.8582037, 43.608777 ], [ 3.8581575, 43.6087223 ], [ 3.8579372, 43.608511 ], [ 3.8576894, 43.6083165 ], [ 3.8574166, 43.6081405 ], [ 3.8571214, 43.6079848 ], [ 3.8568066, 43.6078509 ], [ 3.8564752, 43.60774 ], [ 3.8561305, 43.6076533 ], [ 3.8557757, 43.6075915 ], [ 3.8554144, 43.6075553 ], [ 3.8550498, 43.6075451 ] ] ], [ [ [ 3.855, 43.6007331 ], [ 3.855, 43.6 ], [ 3.8561268, 43.6000002 ], [ 3.856123, 43.6000703 ], [ 3.8561447, 43.6003349 ], [ 3.8561901, 43.6005428 ], [ 3.855984, 43.6005517 ], [ 3.8556238, 43.6005933 ], [ 3.8552709, 43.6006603 ], [ 3.855, 43.6007331 ] ] ], [ [ [ 3.8719002, 43.6002312 ], [ 3.8717473, 43.6000024 ], [ 3.8794544, 43.6000027 ], [ 3.879246, 43.6000424 ], [ 3.8789039, 43.6001343 ], [ 3.8785758, 43.6002502 ], [ 3.8782649, 43.6003888 ], [ 3.8779743, 43.600549 ], [ 3.8778282, 43.6006473 ], [ 3.8775679, 43.6005603 ], [ 3.8772232, 43.6004736 ], [ 3.8768693, 43.6004121 ], [ 3.8767019, 43.6003409 ], [ 3.8763705, 43.6002301 ], [ 3.8760258, 43.6001434 ], [ 3.8756711, 43.6000817 ], [ 3.8753097, 43.6000456 ], [ 3.8749453, 43.6000354 ], [ 3.8745812, 43.6000512 ], [ 3.8742209, 43.6000928 ], [ 3.8738681, 43.6001599 ], [ 3.873526, 43.6002518 ], [ 3.8731979, 43.6003677 ], [ 3.872887, 43.6005063 ], [ 3.8727455, 43.6005843 ], [ 3.8725413, 43.6005488 ], [ 3.87218, 43.6005127 ], [ 3.8720371, 43.6005087 ], [ 3.8720267, 43.6004798 ], [ 3.8719002, 43.6002312 ] ] ], [ [ [ 3.8907502, 43.6002552 ], [ 3.8907294, 43.6000022 ], [ 3.8910173, 43.6000022 ], [ 3.8910064, 43.6000596 ], [ 3.8909925, 43.6003244 ], [ 3.8910143, 43.600589 ], [ 3.8910716, 43.6008508 ], [ 3.8911641, 43.6011072 ], [ 3.8912906, 43.6013558 ], [ 3.8913991, 43.6015179 ], [ 3.8912571, 43.6014431 ], [ 3.8909422, 43.6013093 ], [ 3.8906108, 43.6011985 ], [ 3.8905356, 43.6011796 ], [ 3.8906018, 43.6010405 ], [ 3.8906866, 43.6007827 ], [ 3.8907363, 43.6005201 ], [ 3.8907502, 43.6002552 ] ] ], [ [ [ 3.8781338, 43.6193883 ], [ 3.8779912, 43.6192764 ], [ 3.8777183, 43.6191005 ], [ 3.877423, 43.6189448 ], [ 3.8772347, 43.6188648 ], [ 3.8772083, 43.618813 ], [ 3.8770489, 43.6185746 ], [ 3.876858, 43.6183487 ], [ 3.8768437, 43.618335 ], [ 3.8768935, 43.6182942 ], [ 3.8769123, 43.6182754 ], [ 3.8771234, 43.6184777 ], [ 3.8773713, 43.6186722 ], [ 3.8776442, 43.6188482 ], [ 3.8779395, 43.6190038 ], [ 3.8782544, 43.6191377 ], [ 3.8785181, 43.6192258 ], [ 3.8784219, 43.6192598 ], [ 3.8781338, 43.6193883 ] ] ], [ [ [ 3.884369, 43.6109926 ], [ 3.884495, 43.6108361 ], [ 3.8845047, 43.6108207 ], [ 3.8845531, 43.6108462 ], [ 3.884868, 43.6109801 ], [ 3.8851994, 43.6110908 ], [ 3.8855442, 43.6111775 ], [ 3.8855643, 43.611181 ], [ 3.8856487, 43.6112022 ], [ 3.8860035, 43.6112638 ], [ 3.8860941, 43.6112729 ], [ 3.8860796, 43.6112909 ], [ 3.8859272, 43.6115317 ], [ 3.885808, 43.6117822 ], [ 3.8857728, 43.6118889 ], [ 3.8857155, 43.6119205 ], [ 3.8854478, 43.6121006 ], [ 3.8852597, 43.6122546 ], [ 3.8852592, 43.6122519 ], [ 3.8851668, 43.6119955 ], [ 3.8850402, 43.6117469 ], [ 3.8848807, 43.6115085 ], [ 3.8846898, 43.6112826 ], [ 3.8844694, 43.6110714 ], [ 3.884369, 43.6109926 ] ] ], [ [ [ 3.9013905, 43.6123762 ], [ 3.9014713, 43.6123401 ], [ 3.9014023, 43.6124093 ], [ 3.9013821, 43.6123792 ], [ 3.9013905, 43.6123762 ] ] ] ] } }
]
}
