{
"type": "FeatureCollection",
"features": [
{ "type": "Feature", "properties": { "index": "0", "last_edit_year": 2024, "years_since_edit": 2, "label": "2.0–3.0 yr", "color": "#4491c5" }, "geometry": { "type": "Point", "coordinates": [ 3.898652, 43.6238481 ] } },
{ "type": "Feature", "properties": { "index": "1", "last_edit_year": 2024, "years_since_edit": 2, "label": "2.0–3.0 yr", "color": "#4491c5" }, "geometry": { "type": "Point", "coordinates": [ 3.8988156, 43.6238449 ] } },
{ "type": "Feature", "properties": { "index": "2", "last_edit_year": 2025, "years_since_edit": 1, "label": "1.0–2.0 yr", "color": "#a2c9e1" }, "geometry": { "type": "Point", "coordinates": [ 3.900233, 43.6195264 ] } },
{ "type": "Feature", "properties": { "index": "3", "last_edit_year": 2025, "years_since_edit": 1, "label": "1.0–2.0 yr", "color": "#a2c9e1" }, "geometry": { "type": "Point", "coordinates": [ 3.9030587, 43.6192019 ] } },
{ "type": "Feature", "properties": { "index": "4", "last_edit_year": 2025, "years_since_edit": 1, "label": "1.0–2.0 yr", "color": "#a2c9e1" }, "geometry": { "type": "Point", "coordinates": [ 3.8680561, 43.622599 ] } },
{ "type": "Feature", "properties": { "index": "5", "last_edit_year": 2025, "years_since_edit": 1, "label": "1.0–2.0 yr", "color": "#a2c9e1" }, "geometry": { "type": "Point", "coordinates": [ 3.8681642, 43.6226274 ] } },
{ "type": "Feature", "properties": { "index": "6", "last_edit_year": 2025, "years_since_edit": 1, "label": "1.0–2.0 yr", "color": "#a2c9e1" }, "geometry": { "type": "Point", "coordinates": [ 3.8982047, 43.6138129 ] } },
{ "type": "Feature", "properties": { "index": "7", "last_edit_year": 2025, "years_since_edit": 1, "label": "1.0–2.0 yr", "color": "#a2c9e1" }, "geometry": { "type": "Point", "coordinates": [ 3.8976518, 43.6156079 ] } },
{ "type": "Feature", "properties": { "index": "8", "last_edit_year": 2025, "years_since_edit": 1, "label": "1.0–2.0 yr", "color": "#a2c9e1" }, "geometry": { "type": "Point", "coordinates": [ 3.8980864, 43.6136923 ] } },
{ "type": "Feature", "properties": { "index": "9", "last_edit_year": 2019, "years_since_edit": 7, "label": "3.0–13.0 yr", "color": "#08519c" }, "geometry": { "type": "Point", "coordinates": [ 3.8978093, 43.6154896 ] } },
{ "type": "Feature", "properties": { "index": "10", "last_edit_year": 2022, "years_since_edit": 4, "label": "3.0–13.0 yr", "color": "#08519c" }, "geometry": { "type": "Point", "coordinates": [ 3.894175, 43.6073138 ] } },
{ "type": "Feature", "properties": { "index": "11", "last_edit_year": 2025, "years_since_edit": 1, "label": "1.0–2.0 yr", "color": "#a2c9e1" }, "geometry": { "type": "Point", "coordinates": [ 3.8994358, 43.6100498 ] } },
{ "type": "Feature", "properties": { "index": "12", "last_edit_year": 2025, "years_since_edit": 1, "label": "1.0–2.0 yr", "color": "#a2c9e1" }, "geometry": { "type": "Point", "coordinates": [ 3.8994475, 43.6099805 ] } },
{ "type": "Feature", "properties": { "index": "13", "last_edit_year": 2025, "years_since_edit": 1, "label": "1.0–2.0 yr", "color": "#a2c9e1" }, "geometry": { "type": "Point", "coordinates": [ 3.8981833, 43.606283 ] } },
{ "type": "Feature", "properties": { "index": "14", "last_edit_year": 2025, "years_since_edit": 1, "label": "1.0–2.0 yr", "color": "#a2c9e1" }, "geometry": { "type": "Point", "coordinates": [ 3.8980511, 43.6061905 ] } },
{ "type": "Feature", "properties": { "index": "15", "last_edit_year": 2025, "years_since_edit": 1, "label": "1.0–2.0 yr", "color": "#a2c9e1" }, "geometry": { "type": "Point", "coordinates": [ 3.8832735, 43.6070394 ] } },
{ "type": "Feature", "properties": { "index": "16", "last_edit_year": 2025, "years_since_edit": 1, "label": "1.0–2.0 yr", "color": "#a2c9e1" }, "geometry": { "type": "Point", "coordinates": [ 3.8865853, 43.6085845 ] } },
{ "type": "Feature", "properties": { "index": "17", "last_edit_year": 2021, "years_since_edit": 5, "label": "3.0–13.0 yr", "color": "#08519c" }, "geometry": { "type": "Point", "coordinates": [ 3.8869979, 43.6003012 ] } },
{ "type": "Feature", "properties": { "index": "18", "last_edit_year": 2024, "years_since_edit": 2, "label": "2.0–3.0 yr", "color": "#4491c5" }, "geometry": { "type": "Point", "coordinates": [ 3.8865687, 43.6006826 ] } },
{ "type": "Feature", "properties": { "index": "19", "last_edit_year": 2025, "years_since_edit": 1, "label": "1.0–2.0 yr", "color": "#a2c9e1" }, "geometry": { "type": "Point", "coordinates": [ 3.8748139, 43.6040249 ] } },
{ "type": "Feature", "properties": { "index": "20", "last_edit_year": 2024, "years_since_edit": 2, "label": "2.0–3.0 yr", "color": "#4491c5" }, "geometry": { "type": "Point", "coordinates": [ 3.8646542, 43.6184376 ] } },
{ "type": "Feature", "properties": { "index": "21", "last_edit_year": 2024, "years_since_edit": 2, "label": "2.0–3.0 yr", "color": "#4491c5" }, "geometry": { "type": "Point", "coordinates": [ 3.8643156, 43.6183122 ] } },
{ "type": "Feature", "properties": { "index": "22", "last_edit_year": 2025, "years_since_edit": 1, "label": "1.0–2.0 yr", "color": "#a2c9e1" }, "geometry": { "type": "Point", "coordinates": [ 3.8567878, 43.6210562 ] } },
{ "type": "Feature", "properties": { "index": "23", "last_edit_year": 2025, "years_since_edit": 1, "label": "1.0–2.0 yr", "color": "#a2c9e1" }, "geometry": { "type": "Point", "coordinates": [ 3.8560887, 43.6216726 ] } },
{ "type": "Feature", "properties": { "index": "24", "last_edit_year": 2024, "years_since_edit": 2, "label": "2.0–3.0 yr", "color": "#4491c5" }, "geometry": { "type": "Point", "coordinates": [ 3.8550456, 43.622166 ] } },
{ "type": "Feature", "properties": { "index": "25", "last_edit_year": 2023, "years_since_edit": 3, "label": "3.0–13.0 yr", "color": "#08519c" }, "geometry": { "type": "Point", "coordinates": [ 3.8616203, 43.62362 ] } },
{ "type": "Feature", "properties": { "index": "26", "last_edit_year": 2023, "years_since_edit": 3, "label": "3.0–13.0 yr", "color": "#08519c" }, "geometry": { "type": "Point", "coordinates": [ 3.8633118, 43.6245945 ] } },
{ "type": "Feature", "properties": { "index": "27", "last_edit_year": 2023, "years_since_edit": 3, "label": "3.0–13.0 yr", "color": "#08519c" }, "geometry": { "type": "Point", "coordinates": [ 3.8596567, 43.6222972 ] } },
{ "type": "Feature", "properties": { "index": "28", "last_edit_year": 2023, "years_since_edit": 3, "label": "3.0–13.0 yr", "color": "#08519c" }, "geometry": { "type": "Point", "coordinates": [ 3.8604863, 43.6226379 ] } },
{ "type": "Feature", "properties": { "index": "29", "last_edit_year": 2023, "years_since_edit": 3, "label": "3.0–13.0 yr", "color": "#08519c" }, "geometry": { "type": "Point", "coordinates": [ 3.856902, 43.6206125 ] } },
{ "type": "Feature", "properties": { "index": "30", "last_edit_year": 2023, "years_since_edit": 3, "label": "3.0–13.0 yr", "color": "#08519c" }, "geometry": { "type": "Point", "coordinates": [ 3.8569901, 43.6205134 ] } },
{ "type": "Feature", "properties": { "index": "31", "last_edit_year": 2026, "years_since_edit": 0, "label": "0.0–1.0 yr", "color": "#eff3ff" }, "geometry": { "type": "Point", "coordinates": [ 3.8550196, 43.6152826 ] } },
{ "type": "Feature", "properties": { "index": "32", "last_edit_year": 2026, "years_since_edit": 0, "label": "0.0–1.0 yr", "color": "#eff3ff" }, "geometry": { "type": "Point", "coordinates": [ 3.8568513, 43.614987 ] } },
{ "type": "Feature", "properties": { "index": "33", "last_edit_year": 2026, "years_since_edit": 0, "label": "0.0–1.0 yr", "color": "#eff3ff" }, "geometry": { "type": "Point", "coordinates": [ 3.8570875, 43.6149266 ] } },
{ "type": "Feature", "properties": { "index": "34", "last_edit_year": 2022, "years_since_edit": 4, "label": "3.0–13.0 yr", "color": "#08519c" }, "geometry": { "type": "Point", "coordinates": [ 3.8586079, 43.6134726 ] } },
{ "type": "Feature", "properties": { "index": "35", "last_edit_year": 2025, "years_since_edit": 1, "label": "1.0–2.0 yr", "color": "#a2c9e1" }, "geometry": { "type": "Point", "coordinates": [ 3.8590117, 43.6133158 ] } },
{ "type": "Feature", "properties": { "index": "36", "last_edit_year": 2025, "years_since_edit": 1, "label": "1.0–2.0 yr", "color": "#a2c9e1" }, "geometry": { "type": "Point", "coordinates": [ 3.8611766, 43.6121671 ] } },
{ "type": "Feature", "properties": { "index": "37", "last_edit_year": 2025, "years_since_edit": 1, "label": "1.0–2.0 yr", "color": "#a2c9e1" }, "geometry": { "type": "Point", "coordinates": [ 3.8611062, 43.6121104 ] } },
{ "type": "Feature", "properties": { "index": "38", "last_edit_year": 2022, "years_since_edit": 4, "label": "3.0–13.0 yr", "color": "#08519c" }, "geometry": { "type": "Point", "coordinates": [ 3.8631616, 43.6120045 ] } },
{ "type": "Feature", "properties": { "index": "39", "last_edit_year": 2022, "years_since_edit": 4, "label": "3.0–13.0 yr", "color": "#08519c" }, "geometry": { "type": "Point", "coordinates": [ 3.8639058, 43.6118714 ] } },
{ "type": "Feature", "properties": { "index": "40", "last_edit_year": 2024, "years_since_edit": 2, "label": "2.0–3.0 yr", "color": "#4491c5" }, "geometry": { "type": "Point", "coordinates": [ 3.866554, 43.6020368 ] } },
{ "type": "Feature", "properties": { "index": "41", "last_edit_year": 2024, "years_since_edit": 2, "label": "2.0–3.0 yr", "color": "#4491c5" }, "geometry": { "type": "Point", "coordinates": [ 3.8573143, 43.6044983 ] } },
{ "type": "Feature", "properties": { "index": "42", "last_edit_year": 2024, "years_since_edit": 2, "label": "2.0–3.0 yr", "color": "#4491c5" }, "geometry": { "type": "Point", "coordinates": [ 3.8576143, 43.6043177 ] } },
{ "type": "Feature", "properties": { "index": "43", "last_edit_year": 2025, "years_since_edit": 1, "label": "1.0–2.0 yr", "color": "#a2c9e1" }, "geometry": { "type": "Point", "coordinates": [ 3.8626938, 43.6030266 ] } },
{ "type": "Feature", "properties": { "index": "44", "last_edit_year": 2024, "years_since_edit": 2, "label": "2.0–3.0 yr", "color": "#4491c5" }, "geometry": { "type": "Point", "coordinates": [ 3.8618812, 43.6191285 ] } },
{ "type": "Feature", "properties": { "index": "45", "last_edit_year": 2024, "years_since_edit": 2, "label": "2.0–3.0 yr", "color": "#4491c5" }, "geometry": { "type": "Point", "coordinates": [ 3.8612097, 43.6192596 ] } },
{ "type": "Feature", "properties": { "index": "46", "last_edit_year": 2024, "years_since_edit": 2, "label": "2.0–3.0 yr", "color": "#4491c5" }, "geometry": { "type": "Point", "coordinates": [ 3.8585747, 43.6203924 ] } },
{ "type": "Feature", "properties": { "index": "47", "last_edit_year": 2024, "years_since_edit": 2, "label": "2.0–3.0 yr", "color": "#4491c5" }, "geometry": { "type": "Point", "coordinates": [ 3.8583029, 43.6203738 ] } },
{ "type": "Feature", "properties": { "index": "48", "last_edit_year": 2025, "years_since_edit": 1, "label": "1.0–2.0 yr", "color": "#a2c9e1" }, "geometry": { "type": "Point", "coordinates": [ 3.8663961, 43.6172794 ] } },
{ "type": "Feature", "properties": { "index": "49", "last_edit_year": 2024, "years_since_edit": 2, "label": "2.0–3.0 yr", "color": "#4491c5" }, "geometry": { "type": "Point", "coordinates": [ 3.8577303, 43.6162815 ] } },
{ "type": "Feature", "properties": { "index": "50", "last_edit_year": 2024, "years_since_edit": 2, "label": "2.0–3.0 yr", "color": "#4491c5" }, "geometry": { "type": "Point", "coordinates": [ 3.8586715, 43.6162637 ] } },
{ "type": "Feature", "properties": { "index": "51", "last_edit_year": 2024, "years_since_edit": 2, "label": "2.0–3.0 yr", "color": "#4491c5" }, "geometry": { "type": "Point", "coordinates": [ 3.8655822, 43.6141097 ] } },
{ "type": "Feature", "properties": { "index": "52", "last_edit_year": 2024, "years_since_edit": 2, "label": "2.0–3.0 yr", "color": "#4491c5" }, "geometry": { "type": "Point", "coordinates": [ 3.8652214, 43.614218 ] } },
{ "type": "Feature", "properties": { "index": "53", "last_edit_year": 2025, "years_since_edit": 1, "label": "1.0–2.0 yr", "color": "#a2c9e1" }, "geometry": { "type": "Point", "coordinates": [ 3.8621563, 43.6164316 ] } },
{ "type": "Feature", "properties": { "index": "54", "last_edit_year": 2021, "years_since_edit": 5, "label": "3.0–13.0 yr", "color": "#08519c" }, "geometry": { "type": "Point", "coordinates": [ 3.855048, 43.6102597 ] } },
{ "type": "Feature", "properties": { "index": "55", "last_edit_year": 2021, "years_since_edit": 5, "label": "3.0–13.0 yr", "color": "#08519c" }, "geometry": { "type": "Point", "coordinates": [ 3.8624768, 43.609864 ] } },
{ "type": "Feature", "properties": { "index": "56", "last_edit_year": 2025, "years_since_edit": 1, "label": "1.0–2.0 yr", "color": "#a2c9e1" }, "geometry": { "type": "Point", "coordinates": [ 3.8650937, 43.6202625 ] } },
{ "type": "Feature", "properties": { "index": "57", "last_edit_year": 2024, "years_since_edit": 2, "label": "2.0–3.0 yr", "color": "#4491c5" }, "geometry": { "type": "Point", "coordinates": [ 3.8655814, 43.6197142 ] } },
{ "type": "Feature", "properties": { "index": "58", "last_edit_year": 2024, "years_since_edit": 2, "label": "2.0–3.0 yr", "color": "#4491c5" }, "geometry": { "type": "Point", "coordinates": [ 3.8663896, 43.6184031 ] } },
{ "type": "Feature", "properties": { "index": "59", "last_edit_year": 2024, "years_since_edit": 2, "label": "2.0–3.0 yr", "color": "#4491c5" }, "geometry": { "type": "Point", "coordinates": [ 3.8659891, 43.6187686 ] } },
{ "type": "Feature", "properties": { "index": "60", "last_edit_year": 2023, "years_since_edit": 3, "label": "3.0–13.0 yr", "color": "#08519c" }, "geometry": { "type": "Point", "coordinates": [ 3.8550842, 43.6168167 ] } },
{ "type": "Feature", "properties": { "index": "61", "last_edit_year": 2021, "years_since_edit": 5, "label": "3.0–13.0 yr", "color": "#08519c" }, "geometry": { "type": "Point", "coordinates": [ 3.8615025, 43.6100217 ] } },
{ "type": "Feature", "properties": { "index": "62", "last_edit_year": 2023, "years_since_edit": 3, "label": "3.0–13.0 yr", "color": "#08519c" }, "geometry": { "type": "Point", "coordinates": [ 3.855618, 43.6219699 ] } },
{ "type": "Feature", "properties": { "index": "63", "last_edit_year": 2021, "years_since_edit": 5, "label": "3.0–13.0 yr", "color": "#08519c" }, "geometry": { "type": "Point", "coordinates": [ 3.8643755, 43.6096377 ] } },
{ "type": "Feature", "properties": { "index": "64", "last_edit_year": 2025, "years_since_edit": 1, "label": "1.0–2.0 yr", "color": "#a2c9e1" }, "geometry": { "type": "Point", "coordinates": [ 3.8637124, 43.6184151 ] } },
{ "type": "Feature", "properties": { "index": "65", "last_edit_year": 2025, "years_since_edit": 1, "label": "1.0–2.0 yr", "color": "#a2c9e1" }, "geometry": { "type": "Point", "coordinates": [ 3.8562512, 43.615521 ] } },
{ "type": "Feature", "properties": { "index": "66", "last_edit_year": 2024, "years_since_edit": 2, "label": "2.0–3.0 yr", "color": "#4491c5" }, "geometry": { "type": "Point", "coordinates": [ 3.8550872, 43.6221458 ] } },
{ "type": "Feature", "properties": { "index": "67", "last_edit_year": 2025, "years_since_edit": 1, "label": "1.0–2.0 yr", "color": "#a2c9e1" }, "geometry": { "type": "Point", "coordinates": [ 3.8560393, 43.6216925 ] } },
{ "type": "Feature", "properties": { "index": "68", "last_edit_year": 2025, "years_since_edit": 1, "label": "1.0–2.0 yr", "color": "#a2c9e1" }, "geometry": { "type": "Point", "coordinates": [ 3.8568212, 43.6210352 ] } },
{ "type": "Feature", "properties": { "index": "69", "last_edit_year": 2024, "years_since_edit": 2, "label": "2.0–3.0 yr", "color": "#4491c5" }, "geometry": { "type": "Point", "coordinates": [ 3.8643529, 43.6183253 ] } },
{ "type": "Feature", "properties": { "index": "70", "last_edit_year": 2024, "years_since_edit": 2, "label": "2.0–3.0 yr", "color": "#4491c5" }, "geometry": { "type": "Point", "coordinates": [ 3.864601, 43.6184312 ] } },
{ "type": "Feature", "properties": { "index": "71", "last_edit_year": 2025, "years_since_edit": 1, "label": "1.0–2.0 yr", "color": "#a2c9e1" }, "geometry": { "type": "Point", "coordinates": [ 3.8664696, 43.6123202 ] } },
{ "type": "Feature", "properties": { "index": "72", "last_edit_year": 2024, "years_since_edit": 2, "label": "2.0–3.0 yr", "color": "#4491c5" }, "geometry": { "type": "Point", "coordinates": [ 3.8620836, 43.6163712 ] } },
{ "type": "Feature", "properties": { "index": "73", "last_edit_year": 2025, "years_since_edit": 1, "label": "1.0–2.0 yr", "color": "#a2c9e1" }, "geometry": { "type": "Point", "coordinates": [ 3.8619893, 43.6016994 ] } },
{ "type": "Feature", "properties": { "index": "74", "last_edit_year": 2025, "years_since_edit": 1, "label": "1.0–2.0 yr", "color": "#a2c9e1" }, "geometry": { "type": "Point", "coordinates": [ 3.8622907, 43.6015548 ] } },
{ "type": "Feature", "properties": { "index": "75", "last_edit_year": 2025, "years_since_edit": 1, "label": "1.0–2.0 yr", "color": "#a2c9e1" }, "geometry": { "type": "Point", "coordinates": [ 3.8598396, 43.6000424 ] } },
{ "type": "Feature", "properties": { "index": "76", "last_edit_year": 2025, "years_since_edit": 1, "label": "1.0–2.0 yr", "color": "#a2c9e1" }, "geometry": { "type": "Point", "coordinates": [ 3.8563864, 43.6032369 ] } },
{ "type": "Feature", "properties": { "index": "77", "last_edit_year": 2025, "years_since_edit": 1, "label": "1.0–2.0 yr", "color": "#a2c9e1" }, "geometry": { "type": "Point", "coordinates": [ 3.8550881, 43.610246 ] } },
{ "type": "Feature", "properties": { "index": "78", "last_edit_year": 2025, "years_since_edit": 1, "label": "1.0–2.0 yr", "color": "#a2c9e1" }, "geometry": { "type": "Point", "coordinates": [ 3.8550804, 43.6103022 ] } },
{ "type": "Feature", "properties": { "index": "79", "last_edit_year": 2025, "years_since_edit": 1, "label": "1.0–2.0 yr", "color": "#a2c9e1" }, "geometry": { "type": "Point", "coordinates": [ 3.881957, 43.6142561 ] } },
{ "type": "Feature", "properties": { "index": "80", "last_edit_year": 2025, "years_since_edit": 1, "label": "1.0–2.0 yr", "color": "#a2c9e1" }, "geometry": { "type": "Point", "coordinates": [ 3.8782032, 43.6147274 ] } },
{ "type": "Feature", "properties": { "index": "81", "last_edit_year": 2020, "years_since_edit": 6, "label": "3.0–13.0 yr", "color": "#08519c" }, "geometry": { "type": "Point", "coordinates": [ 3.8694871, 43.6189067 ] } },
{ "type": "Feature", "properties": { "index": "82", "last_edit_year": 2022, "years_since_edit": 4, "label": "3.0–13.0 yr", "color": "#08519c" }, "geometry": { "type": "Point", "coordinates": [ 3.8948979, 43.6040961 ] } },
{ "type": "Feature", "properties": { "index": "83", "last_edit_year": 2020, "years_since_edit": 6, "label": "3.0–13.0 yr", "color": "#08519c" }, "geometry": { "type": "Point", "coordinates": [ 3.8955449, 43.6005714 ] } },
{ "type": "Feature", "properties": { "index": "84", "last_edit_year": 2020, "years_since_edit": 6, "label": "3.0–13.0 yr", "color": "#08519c" }, "geometry": { "type": "Point", "coordinates": [ 3.8797702, 43.6084079 ] } },
{ "type": "Feature", "properties": { "index": "85", "last_edit_year": 2023, "years_since_edit": 3, "label": "3.0–13.0 yr", "color": "#08519c" }, "geometry": { "type": "Point", "coordinates": [ 3.8801992, 43.6056584 ] } },
{ "type": "Feature", "properties": { "index": "86", "last_edit_year": 2025, "years_since_edit": 1, "label": "1.0–2.0 yr", "color": "#a2c9e1" }, "geometry": { "type": "Point", "coordinates": [ 3.8741502, 43.6164538 ] } },
{ "type": "Feature", "properties": { "index": "87", "last_edit_year": 2025, "years_since_edit": 1, "label": "1.0–2.0 yr", "color": "#a2c9e1" }, "geometry": { "type": "Point", "coordinates": [ 3.8818054, 43.6144182 ] } },
{ "type": "Feature", "properties": { "index": "88", "last_edit_year": 2025, "years_since_edit": 1, "label": "1.0–2.0 yr", "color": "#a2c9e1" }, "geometry": { "type": "Point", "coordinates": [ 3.8681444, 43.6224984 ] } },
{ "type": "Feature", "properties": { "index": "89", "last_edit_year": 2025, "years_since_edit": 1, "label": "1.0–2.0 yr", "color": "#a2c9e1" }, "geometry": { "type": "Point", "coordinates": [ 3.8835972, 43.6170502 ] } },
{ "type": "Feature", "properties": { "index": "90", "last_edit_year": 2021, "years_since_edit": 5, "label": "3.0–13.0 yr", "color": "#08519c" }, "geometry": { "type": "Point", "coordinates": [ 3.8892253, 43.6037049 ] } },
{ "type": "Feature", "properties": { "index": "91", "last_edit_year": 2025, "years_since_edit": 1, "label": "1.0–2.0 yr", "color": "#a2c9e1" }, "geometry": { "type": "Point", "coordinates": [ 3.8940022, 43.603993 ] } },
{ "type": "Feature", "properties": { "index": "92", "last_edit_year": 2025, "years_since_edit": 1, "label": "1.0–2.0 yr", "color": "#a2c9e1" }, "geometry": { "type": "Point", "coordinates": [ 3.8883314, 43.6139508 ] } },
{ "type": "Feature", "properties": { "index": "93", "last_edit_year": 2025, "years_since_edit": 1, "label": "1.0–2.0 yr", "color": "#a2c9e1" }, "geometry": { "type": "Point", "coordinates": [ 3.8949065, 43.6125111 ] } },
{ "type": "Feature", "properties": { "index": "94", "last_edit_year": 2020, "years_since_edit": 6, "label": "3.0–13.0 yr", "color": "#08519c" }, "geometry": { "type": "Point", "coordinates": [ 3.8866898, 43.6086092 ] } },
{ "type": "Feature", "properties": { "index": "95", "last_edit_year": 2020, "years_since_edit": 6, "label": "3.0–13.0 yr", "color": "#08519c" }, "geometry": { "type": "Point", "coordinates": [ 3.8902941, 43.6088993 ] } },
{ "type": "Feature", "properties": { "index": "96", "last_edit_year": 2020, "years_since_edit": 6, "label": "3.0–13.0 yr", "color": "#08519c" }, "geometry": { "type": "Point", "coordinates": [ 3.8939097, 43.6072981 ] } },
{ "type": "Feature", "properties": { "index": "97", "last_edit_year": 2021, "years_since_edit": 5, "label": "3.0–13.0 yr", "color": "#08519c" }, "geometry": { "type": "Point", "coordinates": [ 3.8761818, 43.6030665 ] } },
{ "type": "Feature", "properties": { "index": "98", "last_edit_year": 2020, "years_since_edit": 6, "label": "3.0–13.0 yr", "color": "#08519c" }, "geometry": { "type": "Point", "coordinates": [ 3.8997688, 43.6016281 ] } },
{ "type": "Feature", "properties": { "index": "99", "last_edit_year": 2020, "years_since_edit": 6, "label": "3.0–13.0 yr", "color": "#08519c" }, "geometry": { "type": "Point", "coordinates": [ 3.9041182, 43.6027649 ] } },
{ "type": "Feature", "properties": { "index": "100", "last_edit_year": 2025, "years_since_edit": 1, "label": "1.0–2.0 yr", "color": "#a2c9e1" }, "geometry": { "type": "Point", "coordinates": [ 3.8928277, 43.6079283 ] } },
{ "type": "Feature", "properties": { "index": "101", "last_edit_year": 2025, "years_since_edit": 1, "label": "1.0–2.0 yr", "color": "#a2c9e1" }, "geometry": { "type": "Point", "coordinates": [ 3.8849886, 43.6032434 ] } },
{ "type": "Feature", "properties": { "index": "102", "last_edit_year": 2025, "years_since_edit": 1, "label": "1.0–2.0 yr", "color": "#a2c9e1" }, "geometry": { "type": "Point", "coordinates": [ 3.881621, 43.612807 ] } },
{ "type": "Feature", "properties": { "index": "103", "last_edit_year": 2025, "years_since_edit": 1, "label": "1.0–2.0 yr", "color": "#a2c9e1" }, "geometry": { "type": "Point", "coordinates": [ 3.8839408, 43.6197908 ] } },
{ "type": "Feature", "properties": { "index": "104", "last_edit_year": 2023, "years_since_edit": 3, "label": "3.0–13.0 yr", "color": "#08519c" }, "geometry": { "type": "Point", "coordinates": [ 3.9045561, 43.6140318 ] } },
{ "type": "Feature", "properties": { "index": "105", "last_edit_year": 2023, "years_since_edit": 3, "label": "3.0–13.0 yr", "color": "#08519c" }, "geometry": { "type": "Point", "coordinates": [ 3.9045151, 43.6138859 ] } },
{ "type": "Feature", "properties": { "index": "106", "last_edit_year": 2023, "years_since_edit": 3, "label": "3.0–13.0 yr", "color": "#08519c" }, "geometry": { "type": "Point", "coordinates": [ 3.9032257, 43.6165298 ] } },
{ "type": "Feature", "properties": { "index": "107", "last_edit_year": 2023, "years_since_edit": 3, "label": "3.0–13.0 yr", "color": "#08519c" }, "geometry": { "type": "Point", "coordinates": [ 3.9032391, 43.616188 ] } },
{ "type": "Feature", "properties": { "index": "108", "last_edit_year": 2025, "years_since_edit": 1, "label": "1.0–2.0 yr", "color": "#a2c9e1" }, "geometry": { "type": "Point", "coordinates": [ 3.904336, 43.619592 ] } },
{ "type": "Feature", "properties": { "index": "109", "last_edit_year": 2025, "years_since_edit": 1, "label": "1.0–2.0 yr", "color": "#a2c9e1" }, "geometry": { "type": "Point", "coordinates": [ 3.9042341, 43.6196744 ] } },
{ "type": "Feature", "properties": { "index": "110", "last_edit_year": 2023, "years_since_edit": 3, "label": "3.0–13.0 yr", "color": "#08519c" }, "geometry": { "type": "Point", "coordinates": [ 3.8988155, 43.6238455 ] } },
{ "type": "Feature", "properties": { "index": "111", "last_edit_year": 2023, "years_since_edit": 3, "label": "3.0–13.0 yr", "color": "#08519c" }, "geometry": { "type": "Point", "coordinates": [ 3.898653, 43.6238516 ] } },
{ "type": "Feature", "properties": { "index": "112", "last_edit_year": 2025, "years_since_edit": 1, "label": "1.0–2.0 yr", "color": "#a2c9e1" }, "geometry": { "type": "Point", "coordinates": [ 3.8995532, 43.624712 ] } },
{ "type": "Feature", "properties": { "index": "113", "last_edit_year": 2026, "years_since_edit": 0, "label": "0.0–1.0 yr", "color": "#eff3ff" }, "geometry": { "type": "Point", "coordinates": [ 3.9012346, 43.621858 ] } },
{ "type": "Feature", "properties": { "index": "114", "last_edit_year": 2023, "years_since_edit": 3, "label": "3.0–13.0 yr", "color": "#08519c" }, "geometry": { "type": "Point", "coordinates": [ 3.9005006, 43.6218327 ] } },
{ "type": "Feature", "properties": { "index": "115", "last_edit_year": 2024, "years_since_edit": 2, "label": "2.0–3.0 yr", "color": "#4491c5" }, "geometry": { "type": "Point", "coordinates": [ 3.8861, 43.6169259 ] } },
{ "type": "Feature", "properties": { "index": "116", "last_edit_year": 2026, "years_since_edit": 0, "label": "0.0–1.0 yr", "color": "#eff3ff" }, "geometry": { "type": "Point", "coordinates": [ 3.8853749, 43.6154567 ] } },
{ "type": "Feature", "properties": { "index": "117", "last_edit_year": 2026, "years_since_edit": 0, "label": "0.0–1.0 yr", "color": "#eff3ff" }, "geometry": { "type": "Point", "coordinates": [ 3.8852393, 43.6154459 ] } },
{ "type": "Feature", "properties": { "index": "118", "last_edit_year": 2024, "years_since_edit": 2, "label": "2.0–3.0 yr", "color": "#4491c5" }, "geometry": { "type": "Point", "coordinates": [ 3.8889163, 43.6136639 ] } },
{ "type": "Feature", "properties": { "index": "119", "last_edit_year": 2024, "years_since_edit": 2, "label": "2.0–3.0 yr", "color": "#4491c5" }, "geometry": { "type": "Point", "coordinates": [ 3.8887007, 43.6136006 ] } },
{ "type": "Feature", "properties": { "index": "120", "last_edit_year": 2024, "years_since_edit": 2, "label": "2.0–3.0 yr", "color": "#4491c5" }, "geometry": { "type": "Point", "coordinates": [ 3.8892752, 43.6194238 ] } },
{ "type": "Feature", "properties": { "index": "121", "last_edit_year": 2024, "years_since_edit": 2, "label": "2.0–3.0 yr", "color": "#4491c5" }, "geometry": { "type": "Point", "coordinates": [ 3.8898569, 43.6195274 ] } },
{ "type": "Feature", "properties": { "index": "122", "last_edit_year": 2024, "years_since_edit": 2, "label": "2.0–3.0 yr", "color": "#4491c5" }, "geometry": { "type": "Point", "coordinates": [ 3.8877601, 43.6185917 ] } },
{ "type": "Feature", "properties": { "index": "123", "last_edit_year": 2024, "years_since_edit": 2, "label": "2.0–3.0 yr", "color": "#4491c5" }, "geometry": { "type": "Point", "coordinates": [ 3.8879482, 43.6186657 ] } },
{ "type": "Feature", "properties": { "index": "124", "last_edit_year": 2024, "years_since_edit": 2, "label": "2.0–3.0 yr", "color": "#4491c5" }, "geometry": { "type": "Point", "coordinates": [ 3.8862996, 43.6172079 ] } },
{ "type": "Feature", "properties": { "index": "125", "last_edit_year": 2026, "years_since_edit": 0, "label": "0.0–1.0 yr", "color": "#eff3ff" }, "geometry": { "type": "Point", "coordinates": [ 3.8938677, 43.6195083 ] } },
{ "type": "Feature", "properties": { "index": "126", "last_edit_year": 2024, "years_since_edit": 2, "label": "2.0–3.0 yr", "color": "#4491c5" }, "geometry": { "type": "Point", "coordinates": [ 3.8938744, 43.621023 ] } },
{ "type": "Feature", "properties": { "index": "127", "last_edit_year": 2024, "years_since_edit": 2, "label": "2.0–3.0 yr", "color": "#4491c5" }, "geometry": { "type": "Point", "coordinates": [ 3.8940516, 43.6210291 ] } },
{ "type": "Feature", "properties": { "index": "128", "last_edit_year": 2024, "years_since_edit": 2, "label": "2.0–3.0 yr", "color": "#4491c5" }, "geometry": { "type": "Point", "coordinates": [ 3.8915324, 43.6200799 ] } },
{ "type": "Feature", "properties": { "index": "129", "last_edit_year": 2024, "years_since_edit": 2, "label": "2.0–3.0 yr", "color": "#4491c5" }, "geometry": { "type": "Point", "coordinates": [ 3.8912001, 43.6199118 ] } },
{ "type": "Feature", "properties": { "index": "130", "last_edit_year": 2024, "years_since_edit": 2, "label": "2.0–3.0 yr", "color": "#4491c5" }, "geometry": { "type": "Point", "coordinates": [ 3.8948208, 43.6185285 ] } },
{ "type": "Feature", "properties": { "index": "131", "last_edit_year": 2024, "years_since_edit": 2, "label": "2.0–3.0 yr", "color": "#4491c5" }, "geometry": { "type": "Point", "coordinates": [ 3.8946037, 43.6184733 ] } },
{ "type": "Feature", "properties": { "index": "132", "last_edit_year": 2026, "years_since_edit": 0, "label": "0.0–1.0 yr", "color": "#eff3ff" }, "geometry": { "type": "Point", "coordinates": [ 3.8941058, 43.6197058 ] } },
{ "type": "Feature", "properties": { "index": "133", "last_edit_year": 2024, "years_since_edit": 2, "label": "2.0–3.0 yr", "color": "#4491c5" }, "geometry": { "type": "Point", "coordinates": [ 3.8893767, 43.6125386 ] } },
{ "type": "Feature", "properties": { "index": "134", "last_edit_year": 2024, "years_since_edit": 2, "label": "2.0–3.0 yr", "color": "#4491c5" }, "geometry": { "type": "Point", "coordinates": [ 3.8904821, 43.6093254 ] } },
{ "type": "Feature", "properties": { "index": "135", "last_edit_year": 2023, "years_since_edit": 3, "label": "3.0–13.0 yr", "color": "#08519c" }, "geometry": { "type": "Point", "coordinates": [ 3.8754324, 43.6213147 ] } },
{ "type": "Feature", "properties": { "index": "136", "last_edit_year": 2024, "years_since_edit": 2, "label": "2.0–3.0 yr", "color": "#4491c5" }, "geometry": { "type": "Point", "coordinates": [ 3.8731606, 43.6225814 ] } },
{ "type": "Feature", "properties": { "index": "137", "last_edit_year": 2024, "years_since_edit": 2, "label": "2.0–3.0 yr", "color": "#4491c5" }, "geometry": { "type": "Point", "coordinates": [ 3.8803065, 43.6217117 ] } },
{ "type": "Feature", "properties": { "index": "138", "last_edit_year": 2024, "years_since_edit": 2, "label": "2.0–3.0 yr", "color": "#4491c5" }, "geometry": { "type": "Point", "coordinates": [ 3.8753901, 43.6212064 ] } },
{ "type": "Feature", "properties": { "index": "139", "last_edit_year": 2025, "years_since_edit": 1, "label": "1.0–2.0 yr", "color": "#a2c9e1" }, "geometry": { "type": "Point", "coordinates": [ 3.8730356, 43.6173138 ] } },
{ "type": "Feature", "properties": { "index": "140", "last_edit_year": 2025, "years_since_edit": 1, "label": "1.0–2.0 yr", "color": "#a2c9e1" }, "geometry": { "type": "Point", "coordinates": [ 3.8727484, 43.6109823 ] } },
{ "type": "Feature", "properties": { "index": "141", "last_edit_year": 2025, "years_since_edit": 1, "label": "1.0–2.0 yr", "color": "#a2c9e1" }, "geometry": { "type": "Point", "coordinates": [ 3.8690684, 43.6079992 ] } },
{ "type": "Feature", "properties": { "index": "142", "last_edit_year": 2025, "years_since_edit": 1, "label": "1.0–2.0 yr", "color": "#a2c9e1" }, "geometry": { "type": "Point", "coordinates": [ 3.9002343, 43.6019854 ] } },
{ "type": "Feature", "properties": { "index": "143", "last_edit_year": 2021, "years_since_edit": 5, "label": "3.0–13.0 yr", "color": "#08519c" }, "geometry": { "type": "Point", "coordinates": [ 3.8678316, 43.6031881 ] } },
{ "type": "Feature", "properties": { "index": "144", "last_edit_year": 2025, "years_since_edit": 1, "label": "1.0–2.0 yr", "color": "#a2c9e1" }, "geometry": { "type": "Point", "coordinates": [ 3.8681303, 43.6173142 ] } },
{ "type": "Feature", "properties": { "index": "145", "last_edit_year": 2025, "years_since_edit": 1, "label": "1.0–2.0 yr", "color": "#a2c9e1" }, "geometry": { "type": "Point", "coordinates": [ 3.8830372, 43.6015492 ] } },
{ "type": "Feature", "properties": { "index": "146", "last_edit_year": 2025, "years_since_edit": 1, "label": "1.0–2.0 yr", "color": "#a2c9e1" }, "geometry": { "type": "Point", "coordinates": [ 3.868638, 43.60835 ] } },
{ "type": "Feature", "properties": { "index": "147", "last_edit_year": 2022, "years_since_edit": 4, "label": "3.0–13.0 yr", "color": "#08519c" }, "geometry": { "type": "Point", "coordinates": [ 3.8776294, 43.614645 ] } },
{ "type": "Feature", "properties": { "index": "148", "last_edit_year": 2025, "years_since_edit": 1, "label": "1.0–2.0 yr", "color": "#a2c9e1" }, "geometry": { "type": "Point", "coordinates": [ 3.8797962, 43.6051723 ] } },
{ "type": "Feature", "properties": { "index": "149", "last_edit_year": 2022, "years_since_edit": 4, "label": "3.0–13.0 yr", "color": "#08519c" }, "geometry": { "type": "Point", "coordinates": [ 3.8678865, 43.60358 ] } },
{ "type": "Feature", "properties": { "index": "150", "last_edit_year": 2025, "years_since_edit": 1, "label": "1.0–2.0 yr", "color": "#a2c9e1" }, "geometry": { "type": "Point", "coordinates": [ 3.8802495, 43.6087212 ] } },
{ "type": "Feature", "properties": { "index": "151", "last_edit_year": 2024, "years_since_edit": 2, "label": "2.0–3.0 yr", "color": "#4491c5" }, "geometry": { "type": "Point", "coordinates": [ 3.8974262, 43.6187985 ] } },
{ "type": "Feature", "properties": { "index": "152", "last_edit_year": 2024, "years_since_edit": 2, "label": "2.0–3.0 yr", "color": "#4491c5" }, "geometry": { "type": "Point", "coordinates": [ 3.8972383, 43.6186685 ] } },
{ "type": "Feature", "properties": { "index": "153", "last_edit_year": 2023, "years_since_edit": 3, "label": "3.0–13.0 yr", "color": "#08519c" }, "geometry": { "type": "Point", "coordinates": [ 3.9042479, 43.6211824 ] } },
{ "type": "Feature", "properties": { "index": "154", "last_edit_year": 2021, "years_since_edit": 5, "label": "3.0–13.0 yr", "color": "#08519c" }, "geometry": { "type": "Point", "coordinates": [ 3.8766896, 43.606427 ] } },
{ "type": "Feature", "properties": { "index": "155", "last_edit_year": 2022, "years_since_edit": 4, "label": "3.0–13.0 yr", "color": "#08519c" }, "geometry": { "type": "Point", "coordinates": [ 3.8680755, 43.6085497 ] } },
{ "type": "Feature", "properties": { "index": "156", "last_edit_year": 2021, "years_since_edit": 5, "label": "3.0–13.0 yr", "color": "#08519c" }, "geometry": { "type": "Point", "coordinates": [ 3.8759259, 43.6031345 ] } },
{ "type": "Feature", "properties": { "index": "157", "last_edit_year": 2021, "years_since_edit": 5, "label": "3.0–13.0 yr", "color": "#08519c" }, "geometry": { "type": "Point", "coordinates": [ 3.8768143, 43.6063438 ] } },
{ "type": "Feature", "properties": { "index": "158", "last_edit_year": 2025, "years_since_edit": 1, "label": "1.0–2.0 yr", "color": "#a2c9e1" }, "geometry": { "type": "Point", "coordinates": [ 3.8739545, 43.6055891 ] } },
{ "type": "Feature", "properties": { "index": "159", "last_edit_year": 2025, "years_since_edit": 1, "label": "1.0–2.0 yr", "color": "#a2c9e1" }, "geometry": { "type": "Point", "coordinates": [ 3.8727299, 43.6062372 ] } },
{ "type": "Feature", "properties": { "index": "160", "last_edit_year": 2025, "years_since_edit": 1, "label": "1.0–2.0 yr", "color": "#a2c9e1" }, "geometry": { "type": "Point", "coordinates": [ 3.8797132, 43.6052424 ] } },
{ "type": "Feature", "properties": { "index": "161", "last_edit_year": 2015, "years_since_edit": 11, "label": "3.0–13.0 yr", "color": "#08519c" }, "geometry": { "type": "Point", "coordinates": [ 3.8799722, 43.6167422 ] } },
{ "type": "Feature", "properties": { "index": "162", "last_edit_year": 2026, "years_since_edit": 0, "label": "0.0–1.0 yr", "color": "#eff3ff" }, "geometry": { "type": "Point", "coordinates": [ 3.8803219, 43.6042456 ] } },
{ "type": "Feature", "properties": { "index": "163", "last_edit_year": 2022, "years_since_edit": 4, "label": "3.0–13.0 yr", "color": "#08519c" }, "geometry": { "type": "Point", "coordinates": [ 3.8743979, 43.6161695 ] } },
{ "type": "Feature", "properties": { "index": "164", "last_edit_year": 2025, "years_since_edit": 1, "label": "1.0–2.0 yr", "color": "#a2c9e1" }, "geometry": { "type": "Point", "coordinates": [ 3.8812294, 43.6053253 ] } },
{ "type": "Feature", "properties": { "index": "165", "last_edit_year": 2025, "years_since_edit": 1, "label": "1.0–2.0 yr", "color": "#a2c9e1" }, "geometry": { "type": "Point", "coordinates": [ 3.8824027, 43.6059524 ] } },
{ "type": "Feature", "properties": { "index": "166", "last_edit_year": 2025, "years_since_edit": 1, "label": "1.0–2.0 yr", "color": "#a2c9e1" }, "geometry": { "type": "Point", "coordinates": [ 3.8769443, 43.6060972 ] } },
{ "type": "Feature", "properties": { "index": "167", "last_edit_year": 2025, "years_since_edit": 1, "label": "1.0–2.0 yr", "color": "#a2c9e1" }, "geometry": { "type": "Point", "coordinates": [ 3.8733344, 43.6109947 ] } },
{ "type": "Feature", "properties": { "index": "168", "last_edit_year": 2025, "years_since_edit": 1, "label": "1.0–2.0 yr", "color": "#a2c9e1" }, "geometry": { "type": "Point", "coordinates": [ 3.8816248, 43.6140308 ] } },
{ "type": "Feature", "properties": { "index": "169", "last_edit_year": 2022, "years_since_edit": 4, "label": "3.0–13.0 yr", "color": "#08519c" }, "geometry": { "type": "Point", "coordinates": [ 3.8683868, 43.6226054 ] } },
{ "type": "Feature", "properties": { "index": "170", "last_edit_year": 2025, "years_since_edit": 1, "label": "1.0–2.0 yr", "color": "#a2c9e1" }, "geometry": { "type": "Point", "coordinates": [ 3.8707375, 43.6070906 ] } },
{ "type": "Feature", "properties": { "index": "171", "last_edit_year": 2024, "years_since_edit": 2, "label": "2.0–3.0 yr", "color": "#4491c5" }, "geometry": { "type": "Point", "coordinates": [ 3.8844511, 43.6011431 ] } },
{ "type": "Feature", "properties": { "index": "172", "last_edit_year": 2013, "years_since_edit": 13, "label": "3.0–13.0 yr", "color": "#08519c" }, "geometry": { "type": "Point", "coordinates": [ 3.8840259, 43.6198762 ] } },
{ "type": "Feature", "properties": { "index": "173", "last_edit_year": 2019, "years_since_edit": 7, "label": "3.0–13.0 yr", "color": "#08519c" }, "geometry": { "type": "Point", "coordinates": [ 3.8937952, 43.618664 ] } },
{ "type": "Feature", "properties": { "index": "174", "last_edit_year": 2023, "years_since_edit": 3, "label": "3.0–13.0 yr", "color": "#08519c" }, "geometry": { "type": "Point", "coordinates": [ 3.8989223, 43.6037969 ] } },
{ "type": "Feature", "properties": { "index": "175", "last_edit_year": 2025, "years_since_edit": 1, "label": "1.0–2.0 yr", "color": "#a2c9e1" }, "geometry": { "type": "Point", "coordinates": [ 3.8803169, 43.6164388 ] } },
{ "type": "Feature", "properties": { "index": "176", "last_edit_year": 2015, "years_since_edit": 11, "label": "3.0–13.0 yr", "color": "#08519c" }, "geometry": { "type": "Point", "coordinates": [ 3.8737886, 43.6198729 ] } },
{ "type": "Feature", "properties": { "index": "177", "last_edit_year": 2020, "years_since_edit": 6, "label": "3.0–13.0 yr", "color": "#08519c" }, "geometry": { "type": "Point", "coordinates": [ 3.8798137, 43.6083781 ] } },
{ "type": "Feature", "properties": { "index": "178", "last_edit_year": 2021, "years_since_edit": 5, "label": "3.0–13.0 yr", "color": "#08519c" }, "geometry": { "type": "Point", "coordinates": [ 3.8802526, 43.6056635 ] } },
{ "type": "Feature", "properties": { "index": "179", "last_edit_year": 2025, "years_since_edit": 1, "label": "1.0–2.0 yr", "color": "#a2c9e1" }, "geometry": { "type": "Point", "coordinates": [ 3.8803625, 43.6026187 ] } },
{ "type": "Feature", "properties": { "index": "180", "last_edit_year": 2020, "years_since_edit": 6, "label": "3.0–13.0 yr", "color": "#08519c" }, "geometry": { "type": "Point", "coordinates": [ 3.8955356, 43.6006479 ] } },
{ "type": "Feature", "properties": { "index": "181", "last_edit_year": 2020, "years_since_edit": 6, "label": "3.0–13.0 yr", "color": "#08519c" }, "geometry": { "type": "Point", "coordinates": [ 3.903967, 43.6027593 ] } },
{ "type": "Feature", "properties": { "index": "182", "last_edit_year": 2022, "years_since_edit": 4, "label": "3.0–13.0 yr", "color": "#08519c" }, "geometry": { "type": "Point", "coordinates": [ 3.8948981, 43.6043283 ] } },
{ "type": "Feature", "properties": { "index": "183", "last_edit_year": 2020, "years_since_edit": 6, "label": "3.0–13.0 yr", "color": "#08519c" }, "geometry": { "type": "Point", "coordinates": [ 3.8939694, 43.6073923 ] } },
{ "type": "Feature", "properties": { "index": "184", "last_edit_year": 2025, "years_since_edit": 1, "label": "1.0–2.0 yr", "color": "#a2c9e1" }, "geometry": { "type": "Point", "coordinates": [ 3.8787624, 43.6081492 ] } },
{ "type": "Feature", "properties": { "index": "185", "last_edit_year": 2025, "years_since_edit": 1, "label": "1.0–2.0 yr", "color": "#a2c9e1" }, "geometry": { "type": "Point", "coordinates": [ 3.8834353, 43.6169338 ] } },
{ "type": "Feature", "properties": { "index": "186", "last_edit_year": 2025, "years_since_edit": 1, "label": "1.0–2.0 yr", "color": "#a2c9e1" }, "geometry": { "type": "Point", "coordinates": [ 3.881667, 43.6141886 ] } },
{ "type": "Feature", "properties": { "index": "187", "last_edit_year": 2024, "years_since_edit": 2, "label": "2.0–3.0 yr", "color": "#4491c5" }, "geometry": { "type": "Point", "coordinates": [ 3.8821386, 43.6144479 ] } },
{ "type": "Feature", "properties": { "index": "188", "last_edit_year": 2025, "years_since_edit": 1, "label": "1.0–2.0 yr", "color": "#a2c9e1" }, "geometry": { "type": "Point", "coordinates": [ 3.8780174, 43.6147682 ] } },
{ "type": "Feature", "properties": { "index": "189", "last_edit_year": 2025, "years_since_edit": 1, "label": "1.0–2.0 yr", "color": "#a2c9e1" }, "geometry": { "type": "Point", "coordinates": [ 3.8739949, 43.6166028 ] } },
{ "type": "Feature", "properties": { "index": "190", "last_edit_year": 2025, "years_since_edit": 1, "label": "1.0–2.0 yr", "color": "#a2c9e1" }, "geometry": { "type": "Point", "coordinates": [ 3.8881044, 43.61399 ] } },
{ "type": "Feature", "properties": { "index": "191", "last_edit_year": 2025, "years_since_edit": 1, "label": "1.0–2.0 yr", "color": "#a2c9e1" }, "geometry": { "type": "Point", "coordinates": [ 3.8949896, 43.6126573 ] } },
{ "type": "Feature", "properties": { "index": "192", "last_edit_year": 2020, "years_since_edit": 6, "label": "3.0–13.0 yr", "color": "#08519c" }, "geometry": { "type": "Point", "coordinates": [ 3.8833017, 43.6071804 ] } },
{ "type": "Feature", "properties": { "index": "193", "last_edit_year": 2020, "years_since_edit": 6, "label": "3.0–13.0 yr", "color": "#08519c" }, "geometry": { "type": "Point", "coordinates": [ 3.8866241, 43.6084999 ] } },
{ "type": "Feature", "properties": { "index": "194", "last_edit_year": 2020, "years_since_edit": 6, "label": "3.0–13.0 yr", "color": "#08519c" }, "geometry": { "type": "Point", "coordinates": [ 3.8831972, 43.6070636 ] } },
{ "type": "Feature", "properties": { "index": "195", "last_edit_year": 2020, "years_since_edit": 6, "label": "3.0–13.0 yr", "color": "#08519c" }, "geometry": { "type": "Point", "coordinates": [ 3.8900989, 43.6089494 ] } },
{ "type": "Feature", "properties": { "index": "196", "last_edit_year": 2021, "years_since_edit": 5, "label": "3.0–13.0 yr", "color": "#08519c" }, "geometry": { "type": "Point", "coordinates": [ 3.8889694, 43.6037185 ] } },
{ "type": "Feature", "properties": { "index": "197", "last_edit_year": 2021, "years_since_edit": 5, "label": "3.0–13.0 yr", "color": "#08519c" }, "geometry": { "type": "Point", "coordinates": [ 3.8681304, 43.6085626 ] } },
{ "type": "Feature", "properties": { "index": "198", "last_edit_year": 2025, "years_since_edit": 1, "label": "1.0–2.0 yr", "color": "#a2c9e1" }, "geometry": { "type": "Point", "coordinates": [ 3.868106, 43.6226771 ] } },
{ "type": "Feature", "properties": { "index": "199", "last_edit_year": 2020, "years_since_edit": 6, "label": "3.0–13.0 yr", "color": "#08519c" }, "geometry": { "type": "Point", "coordinates": [ 3.8695186, 43.6190802 ] } },
{ "type": "Feature", "properties": { "index": "200", "last_edit_year": 2020, "years_since_edit": 6, "label": "3.0–13.0 yr", "color": "#08519c" }, "geometry": { "type": "Point", "coordinates": [ 3.8994636, 43.601566 ] } },
{ "type": "Feature", "properties": { "index": "201", "last_edit_year": 2014, "years_since_edit": 12, "label": "3.0–13.0 yr", "color": "#08519c" }, "geometry": { "type": "Point", "coordinates": [ 3.8842576, 43.6037042 ] } },
{ "type": "Feature", "properties": { "index": "202", "last_edit_year": 2025, "years_since_edit": 1, "label": "1.0–2.0 yr", "color": "#a2c9e1" }, "geometry": { "type": "Point", "coordinates": [ 3.8938614, 43.6040207 ] } },
{ "type": "Feature", "properties": { "index": "203", "last_edit_year": 2022, "years_since_edit": 4, "label": "3.0–13.0 yr", "color": "#08519c" }, "geometry": { "type": "Point", "coordinates": [ 3.8840474, 43.6204066 ] } },
{ "type": "Feature", "properties": { "index": "204", "last_edit_year": 2025, "years_since_edit": 1, "label": "1.0–2.0 yr", "color": "#a2c9e1" }, "geometry": { "type": "Point", "coordinates": [ 3.8723484, 43.6117993 ] } },
{ "type": "Feature", "properties": { "index": "205", "last_edit_year": 2021, "years_since_edit": 5, "label": "3.0–13.0 yr", "color": "#08519c" }, "geometry": { "type": "Point", "coordinates": [ 3.8735064, 43.6081132 ] } },
{ "type": "Feature", "properties": { "index": "206", "last_edit_year": 2025, "years_since_edit": 1, "label": "1.0–2.0 yr", "color": "#a2c9e1" }, "geometry": { "type": "Point", "coordinates": [ 3.8904657, 43.6079062 ] } },
{ "type": "Feature", "properties": { "index": "207", "last_edit_year": 2025, "years_since_edit": 1, "label": "1.0–2.0 yr", "color": "#a2c9e1" }, "geometry": { "type": "Point", "coordinates": [ 3.8811981, 43.6095882 ] } },
{ "type": "Feature", "properties": { "index": "208", "last_edit_year": 2022, "years_since_edit": 4, "label": "3.0–13.0 yr", "color": "#08519c" }, "geometry": { "type": "Point", "coordinates": [ 3.8930561, 43.6082468 ] } },
{ "type": "Feature", "properties": { "index": "209", "last_edit_year": 2025, "years_since_edit": 1, "label": "1.0–2.0 yr", "color": "#a2c9e1" }, "geometry": { "type": "Point", "coordinates": [ 3.8866534, 43.6079002 ] } },
{ "type": "Feature", "properties": { "index": "210", "last_edit_year": 2023, "years_since_edit": 3, "label": "3.0–13.0 yr", "color": "#08519c" }, "geometry": { "type": "Point", "coordinates": [ 3.8984647, 43.6003794 ] } },
{ "type": "Feature", "properties": { "index": "211", "last_edit_year": 2025, "years_since_edit": 1, "label": "1.0–2.0 yr", "color": "#a2c9e1" }, "geometry": { "type": "Point", "coordinates": [ 3.8757891, 43.6030505 ] } },
{ "type": "Feature", "properties": { "index": "212", "last_edit_year": 2025, "years_since_edit": 1, "label": "1.0–2.0 yr", "color": "#a2c9e1" }, "geometry": { "type": "Point", "coordinates": [ 3.8750227, 43.6050394 ] } },
{ "type": "Feature", "properties": { "index": "213", "last_edit_year": 2022, "years_since_edit": 4, "label": "3.0–13.0 yr", "color": "#08519c" }, "geometry": { "type": "Point", "coordinates": [ 3.8885119, 43.603749 ] } },
{ "type": "Feature", "properties": { "index": "214", "last_edit_year": 2025, "years_since_edit": 1, "label": "1.0–2.0 yr", "color": "#a2c9e1" }, "geometry": { "type": "Point", "coordinates": [ 3.8849862, 43.6167043 ] } },
{ "type": "Feature", "properties": { "index": "215", "last_edit_year": 2019, "years_since_edit": 7, "label": "3.0–13.0 yr", "color": "#08519c" }, "geometry": { "type": "Point", "coordinates": [ 3.9037246, 43.6155121 ] } },
{ "type": "Feature", "properties": { "index": "216", "last_edit_year": 2025, "years_since_edit": 1, "label": "1.0–2.0 yr", "color": "#a2c9e1" }, "geometry": { "type": "Point", "coordinates": [ 3.8810025, 43.604359 ] } },
{ "type": "Feature", "properties": { "index": "217", "last_edit_year": 2021, "years_since_edit": 5, "label": "3.0–13.0 yr", "color": "#08519c" }, "geometry": { "type": "Point", "coordinates": [ 3.8735437, 43.6081284 ] } },
{ "type": "Feature", "properties": { "index": "218", "last_edit_year": 2025, "years_since_edit": 1, "label": "1.0–2.0 yr", "color": "#a2c9e1" }, "geometry": { "type": "Point", "coordinates": [ 3.8722575, 43.611415 ] } },
{ "type": "Feature", "properties": { "index": "219", "last_edit_year": 2026, "years_since_edit": 0, "label": "0.0–1.0 yr", "color": "#eff3ff" }, "geometry": { "type": "Point", "coordinates": [ 3.8737832, 43.6148176 ] } },
{ "type": "Feature", "properties": { "index": "220", "last_edit_year": 2026, "years_since_edit": 0, "label": "0.0–1.0 yr", "color": "#eff3ff" }, "geometry": { "type": "Point", "coordinates": [ 3.873733, 43.6148246 ] } },
{ "type": "Feature", "properties": { "index": "221", "last_edit_year": 2023, "years_since_edit": 3, "label": "3.0–13.0 yr", "color": "#08519c" }, "geometry": { "type": "Point", "coordinates": [ 3.8985894, 43.6105136 ] } },
{ "type": "Feature", "properties": { "index": "222", "last_edit_year": 2025, "years_since_edit": 1, "label": "1.0–2.0 yr", "color": "#a2c9e1" }, "geometry": { "type": "Point", "coordinates": [ 3.894709, 43.6002954 ] } },
{ "type": "Feature", "properties": { "index": "223", "last_edit_year": 2025, "years_since_edit": 1, "label": "1.0–2.0 yr", "color": "#a2c9e1" }, "geometry": { "type": "Point", "coordinates": [ 3.8864948, 43.6072959 ] } },
{ "type": "Feature", "properties": { "index": "224", "last_edit_year": 2025, "years_since_edit": 1, "label": "1.0–2.0 yr", "color": "#a2c9e1" }, "geometry": { "type": "Point", "coordinates": [ 3.874185, 43.6053726 ] } },
{ "type": "Feature", "properties": { "index": "225", "last_edit_year": 2025, "years_since_edit": 1, "label": "1.0–2.0 yr", "color": "#a2c9e1" }, "geometry": { "type": "Point", "coordinates": [ 3.878041, 43.6051934 ] } },
{ "type": "Feature", "properties": { "index": "226", "last_edit_year": 2025, "years_since_edit": 1, "label": "1.0–2.0 yr", "color": "#a2c9e1" }, "geometry": { "type": "Point", "coordinates": [ 3.8788828, 43.6035225 ] } },
{ "type": "Feature", "properties": { "index": "227", "last_edit_year": 2025, "years_since_edit": 1, "label": "1.0–2.0 yr", "color": "#a2c9e1" }, "geometry": { "type": "Point", "coordinates": [ 3.8765433, 43.610631 ] } },
{ "type": "Feature", "properties": { "index": "228", "last_edit_year": 2025, "years_since_edit": 1, "label": "1.0–2.0 yr", "color": "#a2c9e1" }, "geometry": { "type": "Point", "coordinates": [ 3.8842854, 43.6062687 ] } },
{ "type": "Feature", "properties": { "index": "229", "last_edit_year": 2025, "years_since_edit": 1, "label": "1.0–2.0 yr", "color": "#a2c9e1" }, "geometry": { "type": "Point", "coordinates": [ 3.8695985, 43.6156735 ] } },
{ "type": "Feature", "properties": { "index": "230", "last_edit_year": 2025, "years_since_edit": 1, "label": "1.0–2.0 yr", "color": "#a2c9e1" }, "geometry": { "type": "Point", "coordinates": [ 3.8814505, 43.6133539 ] } },
{ "type": "Feature", "properties": { "index": "231", "last_edit_year": 2025, "years_since_edit": 1, "label": "1.0–2.0 yr", "color": "#a2c9e1" }, "geometry": { "type": "Point", "coordinates": [ 3.8922774, 43.6153853 ] } },
{ "type": "Feature", "properties": { "index": "232", "last_edit_year": 2025, "years_since_edit": 1, "label": "1.0–2.0 yr", "color": "#a2c9e1" }, "geometry": { "type": "Point", "coordinates": [ 3.8712305, 43.6222604 ] } },
{ "type": "Feature", "properties": { "index": "233", "last_edit_year": 2023, "years_since_edit": 3, "label": "3.0–13.0 yr", "color": "#08519c" }, "geometry": { "type": "Point", "coordinates": [ 3.8946552, 43.6087154 ] } },
{ "type": "Feature", "properties": { "index": "234", "last_edit_year": 2025, "years_since_edit": 1, "label": "1.0–2.0 yr", "color": "#a2c9e1" }, "geometry": { "type": "Point", "coordinates": [ 3.8942605, 43.6081712 ] } },
{ "type": "Feature", "properties": { "index": "235", "last_edit_year": 2022, "years_since_edit": 4, "label": "3.0–13.0 yr", "color": "#08519c" }, "geometry": { "type": "Point", "coordinates": [ 3.8840985, 43.6204139 ] } },
{ "type": "Feature", "properties": { "index": "236", "last_edit_year": 2025, "years_since_edit": 1, "label": "1.0–2.0 yr", "color": "#a2c9e1" }, "geometry": { "type": "Point", "coordinates": [ 3.8980212, 43.6062864 ] } },
{ "type": "Feature", "properties": { "index": "237", "last_edit_year": 2022, "years_since_edit": 4, "label": "3.0–13.0 yr", "color": "#08519c" }, "geometry": { "type": "Point", "coordinates": [ 3.9033215, 43.6056299 ] } },
{ "type": "Feature", "properties": { "index": "238", "last_edit_year": 2022, "years_since_edit": 4, "label": "3.0–13.0 yr", "color": "#08519c" }, "geometry": { "type": "Point", "coordinates": [ 3.9032039, 43.6056709 ] } },
{ "type": "Feature", "properties": { "index": "239", "last_edit_year": 2023, "years_since_edit": 3, "label": "3.0–13.0 yr", "color": "#08519c" }, "geometry": { "type": "Point", "coordinates": [ 3.9034919, 43.6191531 ] } },
{ "type": "Feature", "properties": { "index": "240", "last_edit_year": 2024, "years_since_edit": 2, "label": "2.0–3.0 yr", "color": "#4491c5" }, "geometry": { "type": "Point", "coordinates": [ 3.9004489, 43.6193922 ] } },
{ "type": "Feature", "properties": { "index": "241", "last_edit_year": 2021, "years_since_edit": 5, "label": "3.0–13.0 yr", "color": "#08519c" }, "geometry": { "type": "Point", "coordinates": [ 3.8981147, 43.6183124 ] } },
{ "type": "Feature", "properties": { "index": "242", "last_edit_year": 2025, "years_since_edit": 1, "label": "1.0–2.0 yr", "color": "#a2c9e1" }, "geometry": { "type": "Point", "coordinates": [ 3.8988962, 43.6102237 ] } },
{ "type": "Feature", "properties": { "index": "243", "last_edit_year": 2023, "years_since_edit": 3, "label": "3.0–13.0 yr", "color": "#08519c" }, "geometry": { "type": "Point", "coordinates": [ 3.9005354, 43.6027731 ] } },
{ "type": "Feature", "properties": { "index": "244", "last_edit_year": 2025, "years_since_edit": 1, "label": "1.0–2.0 yr", "color": "#a2c9e1" }, "geometry": { "type": "Point", "coordinates": [ 3.8856173, 43.6009988 ] } },
{ "type": "Feature", "properties": { "index": "245", "last_edit_year": 2025, "years_since_edit": 1, "label": "1.0–2.0 yr", "color": "#a2c9e1" }, "geometry": { "type": "Point", "coordinates": [ 3.880496, 43.6026986 ] } },
{ "type": "Feature", "properties": { "index": "246", "last_edit_year": 2024, "years_since_edit": 2, "label": "2.0–3.0 yr", "color": "#4491c5" }, "geometry": { "type": "Point", "coordinates": [ 3.8782017, 43.6040946 ] } },
{ "type": "Feature", "properties": { "index": "247", "last_edit_year": 2024, "years_since_edit": 2, "label": "2.0–3.0 yr", "color": "#4491c5" }, "geometry": { "type": "Point", "coordinates": [ 3.8792038, 43.6037433 ] } },
{ "type": "Feature", "properties": { "index": "248", "last_edit_year": 2024, "years_since_edit": 2, "label": "2.0–3.0 yr", "color": "#4491c5" }, "geometry": { "type": "Point", "coordinates": [ 3.8819604, 43.6031494 ] } },
{ "type": "Feature", "properties": { "index": "249", "last_edit_year": 2024, "years_since_edit": 2, "label": "2.0–3.0 yr", "color": "#4491c5" }, "geometry": { "type": "Point", "coordinates": [ 3.8838024, 43.6032735 ] } },
{ "type": "Feature", "properties": { "index": "250", "last_edit_year": 2024, "years_since_edit": 2, "label": "2.0–3.0 yr", "color": "#4491c5" }, "geometry": { "type": "Point", "coordinates": [ 3.8847633, 43.6013494 ] } },
{ "type": "Feature", "properties": { "index": "251", "last_edit_year": 2025, "years_since_edit": 1, "label": "1.0–2.0 yr", "color": "#a2c9e1" }, "geometry": { "type": "Point", "coordinates": [ 3.8671976, 43.6120369 ] } },
{ "type": "Feature", "properties": { "index": "252", "last_edit_year": 2024, "years_since_edit": 2, "label": "2.0–3.0 yr", "color": "#4491c5" }, "geometry": { "type": "Point", "coordinates": [ 3.8846823, 43.6004995 ] } },
{ "type": "Feature", "properties": { "index": "253", "last_edit_year": 2025, "years_since_edit": 1, "label": "1.0–2.0 yr", "color": "#a2c9e1" }, "geometry": { "type": "Point", "coordinates": [ 3.8942771, 43.6082821 ] } },
{ "type": "Feature", "properties": { "index": "254", "last_edit_year": 2019, "years_since_edit": 7, "label": "3.0–13.0 yr", "color": "#08519c" }, "geometry": { "type": "Point", "coordinates": [ 3.8938905, 43.6186788 ] } },
{ "type": "Feature", "properties": { "index": "255", "last_edit_year": 2025, "years_since_edit": 1, "label": "1.0–2.0 yr", "color": "#a2c9e1" }, "geometry": { "type": "Point", "coordinates": [ 3.8727765, 43.6089424 ] } },
{ "type": "Feature", "properties": { "index": "256", "last_edit_year": 2025, "years_since_edit": 1, "label": "1.0–2.0 yr", "color": "#a2c9e1" }, "geometry": { "type": "Point", "coordinates": [ 3.8978435, 43.6183932 ] } },
{ "type": "Feature", "properties": { "index": "257", "last_edit_year": 2025, "years_since_edit": 1, "label": "1.0–2.0 yr", "color": "#a2c9e1" }, "geometry": { "type": "Point", "coordinates": [ 3.8941991, 43.6074941 ] } },
{ "type": "Feature", "properties": { "index": "258", "last_edit_year": 2025, "years_since_edit": 1, "label": "1.0–2.0 yr", "color": "#a2c9e1" }, "geometry": { "type": "Point", "coordinates": [ 3.8985789, 43.6066088 ] } },
{ "type": "Feature", "properties": { "index": "259", "last_edit_year": 2023, "years_since_edit": 3, "label": "3.0–13.0 yr", "color": "#08519c" }, "geometry": { "type": "Point", "coordinates": [ 3.90437, 43.6214567 ] } },
{ "type": "Feature", "properties": { "index": "260", "last_edit_year": 2023, "years_since_edit": 3, "label": "3.0–13.0 yr", "color": "#08519c" }, "geometry": { "type": "Point", "coordinates": [ 3.8793685, 43.6039055 ] } },
{ "type": "Feature", "properties": { "index": "261", "last_edit_year": 2025, "years_since_edit": 1, "label": "1.0–2.0 yr", "color": "#a2c9e1" }, "geometry": { "type": "Point", "coordinates": [ 3.8756218, 43.6032233 ] } },
{ "type": "Feature", "properties": { "index": "262", "last_edit_year": 2026, "years_since_edit": 0, "label": "0.0–1.0 yr", "color": "#eff3ff" }, "geometry": { "type": "Point", "coordinates": [ 3.8749844, 43.6027363 ] } },
{ "type": "Feature", "properties": { "index": "263", "last_edit_year": 2024, "years_since_edit": 2, "label": "2.0–3.0 yr", "color": "#4491c5" }, "geometry": { "type": "Point", "coordinates": [ 3.9002845, 43.6195366 ] } },
{ "type": "Feature", "properties": { "index": "264", "last_edit_year": 2024, "years_since_edit": 2, "label": "2.0–3.0 yr", "color": "#4491c5" }, "geometry": { "type": "Point", "coordinates": [ 3.9030097, 43.6192006 ] } },
{ "type": "Feature", "properties": { "index": "265", "last_edit_year": 2024, "years_since_edit": 2, "label": "2.0–3.0 yr", "color": "#4491c5" }, "geometry": { "type": "Point", "coordinates": [ 3.8976466, 43.6156334 ] } },
{ "type": "Feature", "properties": { "index": "266", "last_edit_year": 2024, "years_since_edit": 2, "label": "2.0–3.0 yr", "color": "#4491c5" }, "geometry": { "type": "Point", "coordinates": [ 3.8977937, 43.61551 ] } },
{ "type": "Feature", "properties": { "index": "267", "last_edit_year": 2024, "years_since_edit": 2, "label": "2.0–3.0 yr", "color": "#4491c5" }, "geometry": { "type": "Point", "coordinates": [ 3.898207, 43.6138381 ] } },
{ "type": "Feature", "properties": { "index": "268", "last_edit_year": 2024, "years_since_edit": 2, "label": "2.0–3.0 yr", "color": "#4491c5" }, "geometry": { "type": "Point", "coordinates": [ 3.8981019, 43.6136471 ] } },
{ "type": "Feature", "properties": { "index": "269", "last_edit_year": 2026, "years_since_edit": 0, "label": "0.0–1.0 yr", "color": "#eff3ff" }, "geometry": { "type": "Point", "coordinates": [ 3.8748264, 43.6041201 ] } },
{ "type": "Feature", "properties": { "index": "270", "last_edit_year": 2025, "years_since_edit": 1, "label": "1.0–2.0 yr", "color": "#a2c9e1" }, "geometry": { "type": "Point", "coordinates": [ 3.8747656, 43.6038675 ] } },
{ "type": "Feature", "properties": { "index": "271", "last_edit_year": 2025, "years_since_edit": 1, "label": "1.0–2.0 yr", "color": "#a2c9e1" }, "geometry": { "type": "Point", "coordinates": [ 3.8697215, 43.6152268 ] } },
{ "type": "Feature", "properties": { "index": "272", "last_edit_year": 2026, "years_since_edit": 0, "label": "0.0–1.0 yr", "color": "#eff3ff" }, "geometry": { "type": "Point", "coordinates": [ 3.867914, 43.61252 ] } },
{ "type": "Feature", "properties": { "index": "273", "last_edit_year": 2024, "years_since_edit": 2, "label": "2.0–3.0 yr", "color": "#4491c5" }, "geometry": { "type": "Point", "coordinates": [ 3.8865131, 43.6006925 ] } },
{ "type": "Feature", "properties": { "index": "274", "last_edit_year": 2024, "years_since_edit": 2, "label": "2.0–3.0 yr", "color": "#4491c5" }, "geometry": { "type": "Point", "coordinates": [ 3.8870337, 43.6002841 ] } },
{ "type": "Feature", "properties": { "index": "275", "last_edit_year": 2024, "years_since_edit": 2, "label": "2.0–3.0 yr", "color": "#4491c5" }, "geometry": { "type": "Point", "coordinates": [ 3.8941786, 43.607349 ] } },
{ "type": "Feature", "properties": { "index": "276", "last_edit_year": 2025, "years_since_edit": 1, "label": "1.0–2.0 yr", "color": "#a2c9e1" }, "geometry": { "type": "Point", "coordinates": [ 3.8678958, 43.6012206 ] } },
{ "type": "Feature", "properties": { "index": "277", "last_edit_year": 2025, "years_since_edit": 1, "label": "1.0–2.0 yr", "color": "#a2c9e1" }, "geometry": { "type": "Point", "coordinates": [ 3.8682609, 43.6014042 ] } },
{ "type": "Feature", "properties": { "index": "278", "last_edit_year": 2025, "years_since_edit": 1, "label": "1.0–2.0 yr", "color": "#a2c9e1" }, "geometry": { "type": "Point", "coordinates": [ 3.8718545, 43.6032034 ] } },
{ "type": "Feature", "properties": { "index": "279", "last_edit_year": 2025, "years_since_edit": 1, "label": "1.0–2.0 yr", "color": "#a2c9e1" }, "geometry": { "type": "Point", "coordinates": [ 3.8720429, 43.6033357 ] } },
{ "type": "Feature", "properties": { "index": "280", "last_edit_year": 2025, "years_since_edit": 1, "label": "1.0–2.0 yr", "color": "#a2c9e1" }, "geometry": { "type": "Point", "coordinates": [ 3.8745798, 43.6051115 ] } },
{ "type": "Feature", "properties": { "index": "281", "last_edit_year": 2024, "years_since_edit": 2, "label": "2.0–3.0 yr", "color": "#4491c5" }, "geometry": { "type": "Point", "coordinates": [ 3.8730765, 43.622754 ] } },
{ "type": "Feature", "properties": { "index": "282", "last_edit_year": 2024, "years_since_edit": 2, "label": "2.0–3.0 yr", "color": "#4491c5" }, "geometry": { "type": "Point", "coordinates": [ 3.8802092, 43.6216283 ] } },
{ "type": "Feature", "properties": { "index": "283", "last_edit_year": 2026, "years_since_edit": 0, "label": "0.0–1.0 yr", "color": "#eff3ff" }, "geometry": { "type": "Point", "coordinates": [ 3.885416, 43.6056885 ] } },
{ "type": "Feature", "properties": { "index": "284", "last_edit_year": 2025, "years_since_edit": 1, "label": "1.0–2.0 yr", "color": "#a2c9e1" }, "geometry": { "type": "Point", "coordinates": [ 3.8886552, 43.6191573 ] } },
{ "type": "Feature", "properties": { "index": "285", "last_edit_year": 2025, "years_since_edit": 1, "label": "1.0–2.0 yr", "color": "#a2c9e1" }, "geometry": { "type": "Point", "coordinates": [ 3.8788016, 43.6042424 ] } },
{ "type": "Feature", "properties": { "index": "286", "last_edit_year": 2025, "years_since_edit": 1, "label": "1.0–2.0 yr", "color": "#a2c9e1" }, "geometry": { "type": "Point", "coordinates": [ 3.8874711, 43.6151121 ] } },
{ "type": "Feature", "properties": { "index": "287", "last_edit_year": 2025, "years_since_edit": 1, "label": "1.0–2.0 yr", "color": "#a2c9e1" }, "geometry": { "type": "Point", "coordinates": [ 3.8774309, 43.6062543 ] } },
{ "type": "Feature", "properties": { "index": "288", "last_edit_year": 2025, "years_since_edit": 1, "label": "1.0–2.0 yr", "color": "#a2c9e1" }, "geometry": { "type": "Point", "coordinates": [ 3.8992812, 43.6100371 ] } },
{ "type": "Feature", "properties": { "index": "289", "last_edit_year": 2025, "years_since_edit": 1, "label": "1.0–2.0 yr", "color": "#a2c9e1" }, "geometry": { "type": "Point", "coordinates": [ 3.8996027, 43.610008 ] } },
{ "type": "Feature", "properties": { "index": "290", "last_edit_year": 2025, "years_since_edit": 1, "label": "1.0–2.0 yr", "color": "#a2c9e1" }, "geometry": { "type": "Point", "coordinates": [ 3.8930878, 43.6069928 ] } },
{ "type": "Feature", "properties": { "index": "291", "last_edit_year": 2026, "years_since_edit": 0, "label": "0.0–1.0 yr", "color": "#eff3ff" }, "geometry": { "type": "Point", "coordinates": [ 3.8982612, 43.6221492 ] } },
{ "type": "Feature", "properties": { "index": "292", "last_edit_year": 2026, "years_since_edit": 0, "label": "0.0–1.0 yr", "color": "#eff3ff" }, "geometry": { "type": "Point", "coordinates": [ 3.8982552, 43.6220993 ] } },
{ "type": "Feature", "properties": { "index": "293", "last_edit_year": 2025, "years_since_edit": 1, "label": "1.0–2.0 yr", "color": "#a2c9e1" }, "geometry": { "type": "Point", "coordinates": [ 3.8940075, 43.6073432 ] } },
{ "type": "Feature", "properties": { "index": "294", "last_edit_year": 2025, "years_since_edit": 1, "label": "1.0–2.0 yr", "color": "#a2c9e1" }, "geometry": { "type": "Point", "coordinates": [ 3.89819, 43.6061545 ] } },
{ "type": "Feature", "properties": { "index": "295", "last_edit_year": 2025, "years_since_edit": 1, "label": "1.0–2.0 yr", "color": "#a2c9e1" }, "geometry": { "type": "Point", "coordinates": [ 3.8697452, 43.6166863 ] } },
{ "type": "Feature", "properties": { "index": "296", "last_edit_year": 2025, "years_since_edit": 1, "label": "1.0–2.0 yr", "color": "#a2c9e1" }, "geometry": { "type": "Point", "coordinates": [ 3.8731409, 43.6154863 ] } },
{ "type": "Feature", "properties": { "index": "297", "last_edit_year": 2025, "years_since_edit": 1, "label": "1.0–2.0 yr", "color": "#a2c9e1" }, "geometry": { "type": "Point", "coordinates": [ 3.8731596, 43.6155487 ] } },
{ "type": "Feature", "properties": { "index": "298", "last_edit_year": 2025, "years_since_edit": 1, "label": "1.0–2.0 yr", "color": "#a2c9e1" }, "geometry": { "type": "Point", "coordinates": [ 3.8704556, 43.6120999 ] } },
{ "type": "Feature", "properties": { "index": "299", "last_edit_year": 2025, "years_since_edit": 1, "label": "1.0–2.0 yr", "color": "#a2c9e1" }, "geometry": { "type": "Point", "coordinates": [ 3.8831476, 43.6223605 ] } },
{ "type": "Feature", "properties": { "index": "300", "last_edit_year": 2025, "years_since_edit": 1, "label": "1.0–2.0 yr", "color": "#a2c9e1" }, "geometry": { "type": "Point", "coordinates": [ 3.8832051, 43.622213 ] } },
{ "type": "Feature", "properties": { "index": "301", "last_edit_year": 2026, "years_since_edit": 0, "label": "0.0–1.0 yr", "color": "#eff3ff" }, "geometry": { "type": "Point", "coordinates": [ 3.8682673, 43.6215601 ] } },
{ "type": "Feature", "properties": { "index": "302", "last_edit_year": 2025, "years_since_edit": 1, "label": "1.0–2.0 yr", "color": "#a2c9e1" }, "geometry": { "type": "Point", "coordinates": [ 3.8689565, 43.6216196 ] } },
{ "type": "Feature", "properties": { "index": "303", "last_edit_year": 2025, "years_since_edit": 1, "label": "1.0–2.0 yr", "color": "#a2c9e1" }, "geometry": { "type": "Point", "coordinates": [ 3.8684259, 43.601311 ] } },
{ "type": "Feature", "properties": { "index": "304", "last_edit_year": 2025, "years_since_edit": 1, "label": "1.0–2.0 yr", "color": "#a2c9e1" }, "geometry": { "type": "Point", "coordinates": [ 3.8684814, 43.6012909 ] } },
{ "type": "Feature", "properties": { "index": "305", "last_edit_year": 2026, "years_since_edit": 0, "label": "0.0–1.0 yr", "color": "#eff3ff" }, "geometry": { "type": "Point", "coordinates": [ 3.8992828, 43.6048445 ] } },
{ "type": "Feature", "properties": { "index": "306", "last_edit_year": 2025, "years_since_edit": 1, "label": "1.0–2.0 yr", "color": "#a2c9e1" }, "geometry": { "type": "Point", "coordinates": [ 3.8704555, 43.612009 ] } },
{ "type": "Feature", "properties": { "index": "307", "last_edit_year": 2026, "years_since_edit": 0, "label": "0.0–1.0 yr", "color": "#eff3ff" }, "geometry": { "type": "Point", "coordinates": [ 3.867857, 43.6124399 ] } },
{ "type": "Feature", "properties": { "index": "308", "last_edit_year": 2025, "years_since_edit": 1, "label": "1.0–2.0 yr", "color": "#a2c9e1" }, "geometry": { "type": "Point", "coordinates": [ 3.8982603, 43.6062074 ] } }
]
}
