{
"type": "FeatureCollection",
"features": [
{ "type": "Feature", "properties": { "index": "0", "@osmId": "node/1721162711", "name": "Montpellier Saint-Roch", "opening_hours": null, "label": "Train stations & halts", "color": "#08519c" }, "geometry": { "type": "Point", "coordinates": [ 3.8803219, 43.6042456 ] } },
{ "type": "Feature", "properties": { "index": "1", "@osmId": "node/1504405479", "name": "Astruc", "opening_hours": null, "label": "Tram & light-rail stops", "color": "#ef3b2c" }, "geometry": { "type": "Point", "coordinates": [ 3.855048, 43.6102597 ] } },
{ "type": "Feature", "properties": { "index": "2", "@osmId": "node/1682209623", "name": "Arceaux", "opening_hours": null, "label": "Tram & light-rail stops", "color": "#ef3b2c" }, "geometry": { "type": "Point", "coordinates": [ 3.8624768, 43.609864 ] } },
{ "type": "Feature", "properties": { "index": "3", "@osmId": "node/3123033218", "name": "Arceaux", "opening_hours": null, "label": "Tram & light-rail stops", "color": "#ef3b2c" }, "geometry": { "type": "Point", "coordinates": [ 3.8615025, 43.6100217 ] } },
{ "type": "Feature", "properties": { "index": "4", "@osmId": "node/11885078570", "name": "Cité Créative - Parc Montcalm", "opening_hours": null, "label": "Tram & light-rail stops", "color": "#ef3b2c" }, "geometry": { "type": "Point", "coordinates": [ 3.8619893, 43.6016994 ] } },
{ "type": "Feature", "properties": { "index": "5", "@osmId": "node/11885078571", "name": "Cité Créative - Parc Montcalm", "opening_hours": null, "label": "Tram & light-rail stops", "color": "#ef3b2c" }, "geometry": { "type": "Point", "coordinates": [ 3.8622907, 43.6015548 ] } },
{ "type": "Feature", "properties": { "index": "6", "@osmId": "node/60025037", "name": "Corum", "opening_hours": null, "label": "Tram & light-rail stops", "color": "#ef3b2c" }, "geometry": { "type": "Point", "coordinates": [ 3.881957, 43.6142561 ] } },
{ "type": "Feature", "properties": { "index": "7", "@osmId": "node/60025046", "name": "Louis Blanc - Agora de la Danse", "opening_hours": null, "label": "Tram & light-rail stops", "color": "#ef3b2c" }, "geometry": { "type": "Point", "coordinates": [ 3.8782032, 43.6147274 ] } },
{ "type": "Feature", "properties": { "index": "8", "@osmId": "node/60025062", "name": "Stade Philippidès", "opening_hours": null, "label": "Tram & light-rail stops", "color": "#ef3b2c" }, "geometry": { "type": "Point", "coordinates": [ 3.8694871, 43.6189067 ] } },
{ "type": "Feature", "properties": { "index": "9", "@osmId": "node/60722751", "name": "Rives du Lez", "opening_hours": null, "label": "Tram & light-rail stops", "color": "#ef3b2c" }, "geometry": { "type": "Point", "coordinates": [ 3.8948979, 43.6040961 ] } },
{ "type": "Feature", "properties": { "index": "10", "@osmId": "node/60732076", "name": "Moularès (Hôtel de Ville)", "opening_hours": null, "label": "Tram & light-rail stops", "color": "#ef3b2c" }, "geometry": { "type": "Point", "coordinates": [ 3.8955449, 43.6005714 ] } },
{ "type": "Feature", "properties": { "index": "11", "@osmId": "node/60939764", "name": "Comédie", "opening_hours": null, "label": "Tram & light-rail stops", "color": "#ef3b2c" }, "geometry": { "type": "Point", "coordinates": [ 3.8797702, 43.6084079 ] } },
{ "type": "Feature", "properties": { "index": "12", "@osmId": "node/61094962", "name": "Gare Saint-Roch", "opening_hours": null, "label": "Tram & light-rail stops", "color": "#ef3b2c" }, "geometry": { "type": "Point", "coordinates": [ 3.8801992, 43.6056584 ] } },
{ "type": "Feature", "properties": { "index": "13", "@osmId": "node/61103414", "name": "Albert 1er - Saint-Charles", "opening_hours": null, "label": "Tram & light-rail stops", "color": "#ef3b2c" }, "geometry": { "type": "Point", "coordinates": [ 3.8741502, 43.6164538 ] } },
{ "type": "Feature", "properties": { "index": "14", "@osmId": "node/70972317", "name": "Corum", "opening_hours": null, "label": "Tram & light-rail stops", "color": "#ef3b2c" }, "geometry": { "type": "Point", "coordinates": [ 3.8818054, 43.6144182 ] } },
{ "type": "Feature", "properties": { "index": "15", "@osmId": "node/126601804", "name": "Boutonnet  - Cité des Arts", "opening_hours": null, "label": "Tram & light-rail stops", "color": "#ef3b2c" }, "geometry": { "type": "Point", "coordinates": [ 3.8681444, 43.6224984 ] } },
{ "type": "Feature", "properties": { "index": "16", "@osmId": "node/224660817", "name": "Beaux-Arts", "opening_hours": null, "label": "Tram & light-rail stops", "color": "#ef3b2c" }, "geometry": { "type": "Point", "coordinates": [ 3.8835972, 43.6170502 ] } },
{ "type": "Feature", "properties": { "index": "17", "@osmId": "node/231389166", "name": "Voltaire", "opening_hours": null, "label": "Tram & light-rail stops", "color": "#ef3b2c" }, "geometry": { "type": "Point", "coordinates": [ 3.8892253, 43.6037049 ] } },
{ "type": "Feature", "properties": { "index": "18", "@osmId": "node/231454791", "name": "Rives du Lez - Consuls de Mer", "opening_hours": null, "label": "Tram & light-rail stops", "color": "#ef3b2c" }, "geometry": { "type": "Point", "coordinates": [ 3.8940022, 43.603993 ] } },
{ "type": "Feature", "properties": { "index": "19", "@osmId": "node/231454841", "name": "Les Aubes", "opening_hours": null, "label": "Tram & light-rail stops", "color": "#ef3b2c" }, "geometry": { "type": "Point", "coordinates": [ 3.8883314, 43.6139508 ] } },
{ "type": "Feature", "properties": { "index": "20", "@osmId": "node/250677074", "name": "Pompignane", "opening_hours": null, "label": "Tram & light-rail stops", "color": "#ef3b2c" }, "geometry": { "type": "Point", "coordinates": [ 3.8949065, 43.6125111 ] } },
{ "type": "Feature", "properties": { "index": "21", "@osmId": "node/265410397", "name": "Antigone", "opening_hours": null, "label": "Tram & light-rail stops", "color": "#ef3b2c" }, "geometry": { "type": "Point", "coordinates": [ 3.8866898, 43.6086092 ] } },
{ "type": "Feature", "properties": { "index": "22", "@osmId": "node/267847611", "name": "Léon Blum", "opening_hours": null, "label": "Tram & light-rail stops", "color": "#ef3b2c" }, "geometry": { "type": "Point", "coordinates": [ 3.8902941, 43.6088993 ] } },
{ "type": "Feature", "properties": { "index": "23", "@osmId": "node/267929741", "name": "Place de l'Europe", "opening_hours": null, "label": "Tram & light-rail stops", "color": "#ef3b2c" }, "geometry": { "type": "Point", "coordinates": [ 3.8939097, 43.6072981 ] } },
{ "type": "Feature", "properties": { "index": "24", "@osmId": "node/279556951", "name": "Rondelet", "opening_hours": null, "label": "Tram & light-rail stops", "color": "#ef3b2c" }, "geometry": { "type": "Point", "coordinates": [ 3.8761818, 43.6030665 ] } },
{ "type": "Feature", "properties": { "index": "25", "@osmId": "node/281177110", "name": "Port Marianne", "opening_hours": null, "label": "Tram & light-rail stops", "color": "#ef3b2c" }, "geometry": { "type": "Point", "coordinates": [ 3.8997688, 43.6016281 ] } },
{ "type": "Feature", "properties": { "index": "26", "@osmId": "node/317827455", "name": "Mondial 98", "opening_hours": null, "label": "Tram & light-rail stops", "color": "#ef3b2c" }, "geometry": { "type": "Point", "coordinates": [ 3.9041182, 43.6027649 ] } },
{ "type": "Feature", "properties": { "index": "27", "@osmId": "node/1253673426", "name": "Gare Saint-Roch - République", "opening_hours": null, "label": "Tram & light-rail stops", "color": "#ef3b2c" }, "geometry": { "type": "Point", "coordinates": [ 3.8797962, 43.6051723 ] } },
{ "type": "Feature", "properties": { "index": "28", "@osmId": "node/1506452485", "name": "Observatoire", "opening_hours": null, "label": "Tram & light-rail stops", "color": "#ef3b2c" }, "geometry": { "type": "Point", "coordinates": [ 3.8766896, 43.606427 ] } },
{ "type": "Feature", "properties": { "index": "29", "@osmId": "node/1506452489", "name": "Plan Cabanes", "opening_hours": null, "label": "Tram & light-rail stops", "color": "#ef3b2c" }, "geometry": { "type": "Point", "coordinates": [ 3.8680755, 43.6085497 ] } },
{ "type": "Feature", "properties": { "index": "30", "@osmId": "node/1547396457", "name": "Rondelet", "opening_hours": null, "label": "Tram & light-rail stops", "color": "#ef3b2c" }, "geometry": { "type": "Point", "coordinates": [ 3.8759259, 43.6031345 ] } },
{ "type": "Feature", "properties": { "index": "31", "@osmId": "node/1585675583", "name": "Observatoire", "opening_hours": null, "label": "Tram & light-rail stops", "color": "#ef3b2c" }, "geometry": { "type": "Point", "coordinates": [ 3.8768143, 43.6063438 ] } },
{ "type": "Feature", "properties": { "index": "32", "@osmId": "node/1675121446", "name": "Gambetta", "opening_hours": null, "label": "Tram & light-rail stops", "color": "#ef3b2c" }, "geometry": { "type": "Point", "coordinates": [ 3.8739545, 43.6055891 ] } },
{ "type": "Feature", "properties": { "index": "33", "@osmId": "node/1675121448", "name": "Gambetta - Chaptal", "opening_hours": null, "label": "Tram & light-rail stops", "color": "#ef3b2c" }, "geometry": { "type": "Point", "coordinates": [ 3.8727299, 43.6062372 ] } },
{ "type": "Feature", "properties": { "index": "34", "@osmId": "node/1680783345", "name": "Gare Saint-Roch - République", "opening_hours": null, "label": "Tram & light-rail stops", "color": "#ef3b2c" }, "geometry": { "type": "Point", "coordinates": [ 3.8797132, 43.6052424 ] } },
{ "type": "Feature", "properties": { "index": "35", "@osmId": "node/2305432920", "name": "Comédie", "opening_hours": null, "label": "Tram & light-rail stops", "color": "#ef3b2c" }, "geometry": { "type": "Point", "coordinates": [ 3.8798137, 43.6083781 ] } },
{ "type": "Feature", "properties": { "index": "36", "@osmId": "node/2305432922", "name": "Gare Saint-Roch", "opening_hours": null, "label": "Tram & light-rail stops", "color": "#ef3b2c" }, "geometry": { "type": "Point", "coordinates": [ 3.8802526, 43.6056635 ] } },
{ "type": "Feature", "properties": { "index": "37", "@osmId": "node/2565144095", "name": "Moularès (Hôtel de Ville)", "opening_hours": null, "label": "Tram & light-rail stops", "color": "#ef3b2c" }, "geometry": { "type": "Point", "coordinates": [ 3.8955356, 43.6006479 ] } },
{ "type": "Feature", "properties": { "index": "38", "@osmId": "node/2572111087", "name": "Mondial 98", "opening_hours": null, "label": "Tram & light-rail stops", "color": "#ef3b2c" }, "geometry": { "type": "Point", "coordinates": [ 3.903967, 43.6027593 ] } },
{ "type": "Feature", "properties": { "index": "39", "@osmId": "node/2575586331", "name": "Rives du Lez", "opening_hours": null, "label": "Tram & light-rail stops", "color": "#ef3b2c" }, "geometry": { "type": "Point", "coordinates": [ 3.8948981, 43.6043283 ] } },
{ "type": "Feature", "properties": { "index": "40", "@osmId": "node/2575586432", "name": "Place de l'Europe", "opening_hours": null, "label": "Tram & light-rail stops", "color": "#ef3b2c" }, "geometry": { "type": "Point", "coordinates": [ 3.8939694, 43.6073923 ] } },
{ "type": "Feature", "properties": { "index": "41", "@osmId": "node/3118400913", "name": "Beaux-Arts", "opening_hours": null, "label": "Tram & light-rail stops", "color": "#ef3b2c" }, "geometry": { "type": "Point", "coordinates": [ 3.8834353, 43.6169338 ] } },
{ "type": "Feature", "properties": { "index": "42", "@osmId": "node/3118400914", "name": "Corum", "opening_hours": null, "label": "Tram & light-rail stops", "color": "#ef3b2c" }, "geometry": { "type": "Point", "coordinates": [ 3.881667, 43.6141886 ] } },
{ "type": "Feature", "properties": { "index": "43", "@osmId": "node/3118400915", "name": "Corum", "opening_hours": null, "label": "Tram & light-rail stops", "color": "#ef3b2c" }, "geometry": { "type": "Point", "coordinates": [ 3.8821386, 43.6144479 ] } },
{ "type": "Feature", "properties": { "index": "44", "@osmId": "node/3118400917", "name": "Louis Blanc - Agora de la Danse", "opening_hours": null, "label": "Tram & light-rail stops", "color": "#ef3b2c" }, "geometry": { "type": "Point", "coordinates": [ 3.8780174, 43.6147682 ] } },
{ "type": "Feature", "properties": { "index": "45", "@osmId": "node/3118400918", "name": "Albert 1er - Saint-Charles", "opening_hours": null, "label": "Tram & light-rail stops", "color": "#ef3b2c" }, "geometry": { "type": "Point", "coordinates": [ 3.8739949, 43.6166028 ] } },
{ "type": "Feature", "properties": { "index": "46", "@osmId": "node/3118523797", "name": "Les Aubes", "opening_hours": null, "label": "Tram & light-rail stops", "color": "#ef3b2c" }, "geometry": { "type": "Point", "coordinates": [ 3.8881044, 43.61399 ] } },
{ "type": "Feature", "properties": { "index": "47", "@osmId": "node/3118523798", "name": "Pompignane", "opening_hours": null, "label": "Tram & light-rail stops", "color": "#ef3b2c" }, "geometry": { "type": "Point", "coordinates": [ 3.8949896, 43.6126573 ] } },
{ "type": "Feature", "properties": { "index": "48", "@osmId": "node/3118564775", "name": "Du Guesclin", "opening_hours": null, "label": "Tram & light-rail stops", "color": "#ef3b2c" }, "geometry": { "type": "Point", "coordinates": [ 3.8833017, 43.6071804 ] } },
{ "type": "Feature", "properties": { "index": "49", "@osmId": "node/3119065612", "name": "Antigone", "opening_hours": null, "label": "Tram & light-rail stops", "color": "#ef3b2c" }, "geometry": { "type": "Point", "coordinates": [ 3.8866241, 43.6084999 ] } },
{ "type": "Feature", "properties": { "index": "50", "@osmId": "node/3119065613", "name": "Du Guesclin", "opening_hours": null, "label": "Tram & light-rail stops", "color": "#ef3b2c" }, "geometry": { "type": "Point", "coordinates": [ 3.8831972, 43.6070636 ] } },
{ "type": "Feature", "properties": { "index": "51", "@osmId": "node/3119065614", "name": "Léon Blum", "opening_hours": null, "label": "Tram & light-rail stops", "color": "#ef3b2c" }, "geometry": { "type": "Point", "coordinates": [ 3.8900989, 43.6089494 ] } },
{ "type": "Feature", "properties": { "index": "52", "@osmId": "node/3122456986", "name": "Voltaire", "opening_hours": null, "label": "Tram & light-rail stops", "color": "#ef3b2c" }, "geometry": { "type": "Point", "coordinates": [ 3.8889694, 43.6037185 ] } },
{ "type": "Feature", "properties": { "index": "53", "@osmId": "node/3123033195", "name": "Plan Cabanes", "opening_hours": null, "label": "Tram & light-rail stops", "color": "#ef3b2c" }, "geometry": { "type": "Point", "coordinates": [ 3.8681304, 43.6085626 ] } },
{ "type": "Feature", "properties": { "index": "54", "@osmId": "node/3123093631", "name": "Boutonnet  - Cité des Arts", "opening_hours": null, "label": "Tram & light-rail stops", "color": "#ef3b2c" }, "geometry": { "type": "Point", "coordinates": [ 3.868106, 43.6226771 ] } },
{ "type": "Feature", "properties": { "index": "55", "@osmId": "node/3123093686", "name": "Stade Philippidès", "opening_hours": null, "label": "Tram & light-rail stops", "color": "#ef3b2c" }, "geometry": { "type": "Point", "coordinates": [ 3.8695186, 43.6190802 ] } },
{ "type": "Feature", "properties": { "index": "56", "@osmId": "node/3124627562", "name": "Port Marianne", "opening_hours": null, "label": "Tram & light-rail stops", "color": "#ef3b2c" }, "geometry": { "type": "Point", "coordinates": [ 3.8994636, 43.601566 ] } },
{ "type": "Feature", "properties": { "index": "57", "@osmId": "node/3124636918", "name": "Place Carnot", "opening_hours": null, "label": "Tram & light-rail stops", "color": "#ef3b2c" }, "geometry": { "type": "Point", "coordinates": [ 3.8842576, 43.6037042 ] } },
{ "type": "Feature", "properties": { "index": "58", "@osmId": "node/3124636922", "name": "Rives du Lez - Consuls de Mer", "opening_hours": null, "label": "Tram & light-rail stops", "color": "#ef3b2c" }, "geometry": { "type": "Point", "coordinates": [ 3.8938614, 43.6040207 ] } },
{ "type": "Feature", "properties": { "index": "59", "@osmId": "node/3124671375", "name": "Jeu de Mail des Abbés", "opening_hours": null, "label": "Tram & light-rail stops", "color": "#ef3b2c" }, "geometry": { "type": "Point", "coordinates": [ 3.8840474, 43.6204066 ] } },
{ "type": "Feature", "properties": { "index": "60", "@osmId": "node/3728561514", "name": "Peyrou - Arc de Triomphe", "opening_hours": null, "label": "Tram & light-rail stops", "color": "#ef3b2c" }, "geometry": { "type": "Point", "coordinates": [ 3.8723484, 43.6117993 ] } },
{ "type": "Feature", "properties": { "index": "61", "@osmId": "node/3728561636", "name": "Saint-Guilhem - Courreau", "opening_hours": null, "label": "Tram & light-rail stops", "color": "#ef3b2c" }, "geometry": { "type": "Point", "coordinates": [ 3.8735064, 43.6081132 ] } },
{ "type": "Feature", "properties": { "index": "62", "@osmId": "node/4345616053", "name": "Saint-Guilhem - Courreau", "opening_hours": null, "label": "Tram & light-rail stops", "color": "#ef3b2c" }, "geometry": { "type": "Point", "coordinates": [ 3.8735437, 43.6081284 ] } },
{ "type": "Feature", "properties": { "index": "63", "@osmId": "node/4345616056", "name": "Peyrou - Arc de Triomphe", "opening_hours": null, "label": "Tram & light-rail stops", "color": "#ef3b2c" }, "geometry": { "type": "Point", "coordinates": [ 3.8722575, 43.611415 ] } },
{ "type": "Feature", "properties": { "index": "64", "@osmId": "node/4345616072", "name": "Albert 1er - Jardin des Plantes", "opening_hours": null, "label": "Tram & light-rail stops", "color": "#ef3b2c" }, "geometry": { "type": "Point", "coordinates": [ 3.8737832, 43.6148176 ] } },
{ "type": "Feature", "properties": { "index": "65", "@osmId": "node/4345616073", "name": "Albert 1er - Jardin des Plantes", "opening_hours": null, "label": "Tram & light-rail stops", "color": "#ef3b2c" }, "geometry": { "type": "Point", "coordinates": [ 3.873733, 43.6148246 ] } },
{ "type": "Feature", "properties": { "index": "66", "@osmId": "node/6568557590", "name": "Jeu de Mail des Abbés", "opening_hours": null, "label": "Tram & light-rail stops", "color": "#ef3b2c" }, "geometry": { "type": "Point", "coordinates": [ 3.8840985, 43.6204139 ] } },
{ "type": "Feature", "properties": { "index": "67", "@osmId": "node/11885078572", "name": "Place du 8 Mai 1945", "opening_hours": null, "label": "Tram & light-rail stops", "color": "#ef3b2c" }, "geometry": { "type": "Point", "coordinates": [ 3.8678958, 43.6012206 ] } },
{ "type": "Feature", "properties": { "index": "68", "@osmId": "node/11885078573", "name": "Place du 8 Mai 1945", "opening_hours": null, "label": "Tram & light-rail stops", "color": "#ef3b2c" }, "geometry": { "type": "Point", "coordinates": [ 3.8682609, 43.6014042 ] } },
{ "type": "Feature", "properties": { "index": "69", "@osmId": "node/11885078574", "name": "Parc Clemenceau", "opening_hours": null, "label": "Tram & light-rail stops", "color": "#ef3b2c" }, "geometry": { "type": "Point", "coordinates": [ 3.8718545, 43.6032034 ] } },
{ "type": "Feature", "properties": { "index": "70", "@osmId": "node/11885078575", "name": "Parc Clemenceau", "opening_hours": null, "label": "Tram & light-rail stops", "color": "#ef3b2c" }, "geometry": { "type": "Point", "coordinates": [ 3.8720429, 43.6033357 ] } },
{ "type": "Feature", "properties": { "index": "71", "@osmId": "node/11885078576", "name": "Gambetta - Saint-Denis", "opening_hours": null, "label": "Tram & light-rail stops", "color": "#ef3b2c" }, "geometry": { "type": "Point", "coordinates": [ 3.8745798, 43.6051115 ] } },
{ "type": "Feature", "properties": { "index": "72", "@osmId": "way/361199815", "name": null, "opening_hours": null, "label": "Bus stops", "color": "#4292c6" }, "geometry": { "type": "Polygon", "coordinates": [ [ [ 3.8986308, 43.6238377 ], [ 3.8986492, 43.6238297 ], [ 3.8986732, 43.6238585 ], [ 3.8986549, 43.6238665 ], [ 3.8986308, 43.6238377 ] ] ] } },
{ "type": "Feature", "properties": { "index": "73", "@osmId": "way/361199816", "name": null, "opening_hours": null, "label": "Bus stops", "color": "#4292c6" }, "geometry": { "type": "Polygon", "coordinates": [ [ [ 3.8987968, 43.6238322 ], [ 3.8988166, 43.6238263 ], [ 3.8988343, 43.6238575 ], [ 3.8988145, 43.6238634 ], [ 3.8987968, 43.6238322 ] ] ] } },
{ "type": "Feature", "properties": { "index": "74", "@osmId": "way/362994810", "name": "André Malraux", "opening_hours": null, "label": "Bus stops", "color": "#4292c6" }, "geometry": { "type": "Polygon", "coordinates": [ [ [ 3.9002518, 43.6195359 ], [ 3.9002116, 43.6195321 ], [ 3.9002143, 43.6195169 ], [ 3.9002545, 43.6195207 ], [ 3.9002518, 43.6195359 ] ] ] } },
{ "type": "Feature", "properties": { "index": "75", "@osmId": "way/362994817", "name": "Semard", "opening_hours": null, "label": "Bus stops", "color": "#4292c6" }, "geometry": { "type": "Polygon", "coordinates": [ [ [ 3.9030766, 43.6192122 ], [ 3.9030368, 43.6192067 ], [ 3.9030407, 43.6191915 ], [ 3.9030806, 43.6191971 ], [ 3.9030766, 43.6192122 ] ] ] } },
{ "type": "Feature", "properties": { "index": "76", "@osmId": "way/362994812", "name": "Colverts", "opening_hours": null, "label": "Bus stops", "color": "#4292c6" }, "geometry": { "type": "Polygon", "coordinates": [ [ [ 3.8982158, 43.6137985 ], [ 3.8982148, 43.6138278 ], [ 3.8981936, 43.6138274 ], [ 3.8981945, 43.6137981 ], [ 3.8982158, 43.6137985 ] ] ] } },
{ "type": "Feature", "properties": { "index": "77", "@osmId": "way/362994821", "name": "Saint-Jean", "opening_hours": null, "label": "Bus stops", "color": "#4292c6" }, "geometry": { "type": "Polygon", "coordinates": [ [ [ 3.8976664, 43.6155951 ], [ 3.8976579, 43.6156239 ], [ 3.8976372, 43.6156207 ], [ 3.8976456, 43.615592 ], [ 3.8976664, 43.6155951 ] ] ] } },
{ "type": "Feature", "properties": { "index": "78", "@osmId": "way/362994824", "name": "Colverts", "opening_hours": null, "label": "Bus stops", "color": "#4292c6" }, "geometry": { "type": "Polygon", "coordinates": [ [ [ 3.8980977, 43.6136779 ], [ 3.8980963, 43.6137072 ], [ 3.8980751, 43.6137067 ], [ 3.8980765, 43.6136774 ], [ 3.8980977, 43.6136779 ] ] ] } },
{ "type": "Feature", "properties": { "index": "79", "@osmId": "way/721526151", "name": "Saint-Jean", "opening_hours": null, "label": "Bus stops", "color": "#4292c6" }, "geometry": { "type": "Polygon", "coordinates": [ [ [ 3.8978239, 43.6154768 ], [ 3.8978154, 43.6155056 ], [ 3.8977947, 43.6155024 ], [ 3.8978031, 43.6154737 ], [ 3.8978239, 43.6154768 ] ] ] } },
{ "type": "Feature", "properties": { "index": "80", "@osmId": "way/721526152", "name": "Place de l'Europe", "opening_hours": null, "label": "Bus stops", "color": "#4292c6" }, "geometry": { "type": "Polygon", "coordinates": [ [ [ 3.8941873, 43.6073387 ], [ 3.8941698, 43.6073399 ], [ 3.8941628, 43.6072888 ], [ 3.8941802, 43.6072876 ], [ 3.8941873, 43.6073387 ] ] ] } },
{ "type": "Feature", "properties": { "index": "81", "@osmId": "way/1458134272", "name": null, "opening_hours": null, "label": "Bus stops", "color": "#4292c6" }, "geometry": { "type": "Polygon", "coordinates": [ [ [ 3.8996169, 43.6100672 ], [ 3.8996026, 43.610099 ], [ 3.8992534, 43.6100317 ], [ 3.8992667, 43.6100007 ], [ 3.8996169, 43.6100672 ] ] ] } },
{ "type": "Feature", "properties": { "index": "82", "@osmId": "way/1458134273", "name": null, "opening_hours": null, "label": "Bus stops", "color": "#4292c6" }, "geometry": { "type": "Polygon", "coordinates": [ [ [ 3.8995658, 43.6100186 ], [ 3.8992746, 43.6099638 ], [ 3.8992899, 43.6099291 ], [ 3.89945, 43.609965 ], [ 3.8995495, 43.6099874 ], [ 3.8996422, 43.6100082 ], [ 3.8996319, 43.6100311 ], [ 3.8995658, 43.6100186 ] ] ] } },
{ "type": "Feature", "properties": { "index": "83", "@osmId": "way/1458134276", "name": null, "opening_hours": null, "label": "Bus stops", "color": "#4292c6" }, "geometry": { "type": "Polygon", "coordinates": [ [ [ 3.898006, 43.606291 ], [ 3.8980054, 43.606281 ], [ 3.8983423, 43.6062647 ], [ 3.8983433, 43.6062891 ], [ 3.8981597, 43.6062944 ], [ 3.8980411, 43.6062977 ], [ 3.8980064, 43.6062987 ], [ 3.898006, 43.606291 ] ] ] } },
{ "type": "Feature", "properties": { "index": "84", "@osmId": "way/1458134278", "name": null, "opening_hours": null, "label": "Bus stops", "color": "#4292c6" }, "geometry": { "type": "Polygon", "coordinates": [ [ [ 3.8982147, 43.606139 ], [ 3.8982239, 43.6061612 ], [ 3.8978961, 43.6062418 ], [ 3.8978859, 43.6062159 ], [ 3.8980263, 43.6061831 ], [ 3.8981643, 43.6061508 ], [ 3.8982147, 43.606139 ] ] ] } },
{ "type": "Feature", "properties": { "index": "85", "@osmId": "way/669016496", "name": null, "opening_hours": null, "label": "Bus stops", "color": "#4292c6" }, "geometry": { "type": "LineString", "coordinates": [ [ 3.8551762, 43.6102561 ], [ 3.855, 43.6102359 ] ] } },
{ "type": "Feature", "properties": { "index": "86", "@osmId": "way/669016500", "name": null, "opening_hours": null, "label": "Bus stops", "color": "#4292c6" }, "geometry": { "type": "LineString", "coordinates": [ [ 3.8551608, 43.6103114 ], [ 3.855, 43.610293 ] ] } },
{ "type": "Feature", "properties": { "index": "87", "@osmId": "node/571812677", "name": "Fac de Pharmacie", "opening_hours": null, "label": "Bus stops", "color": "#4292c6" }, "geometry": { "type": "Point", "coordinates": [ 3.8616203, 43.62362 ] } },
{ "type": "Feature", "properties": { "index": "88", "@osmId": "node/571812697", "name": "Fac de Pharmacie", "opening_hours": null, "label": "Bus stops", "color": "#4292c6" }, "geometry": { "type": "Point", "coordinates": [ 3.8633118, 43.6245945 ] } },
{ "type": "Feature", "properties": { "index": "89", "@osmId": "node/571812701", "name": "Voie Domitienne", "opening_hours": null, "label": "Bus stops", "color": "#4292c6" }, "geometry": { "type": "Point", "coordinates": [ 3.8596567, 43.6222972 ] } },
{ "type": "Feature", "properties": { "index": "90", "@osmId": "node/571812702", "name": "Voie Domitienne", "opening_hours": null, "label": "Bus stops", "color": "#4292c6" }, "geometry": { "type": "Point", "coordinates": [ 3.8604863, 43.6226379 ] } },
{ "type": "Feature", "properties": { "index": "91", "@osmId": "node/575745579", "name": "Cinsaults", "opening_hours": null, "label": "Bus stops", "color": "#4292c6" }, "geometry": { "type": "Point", "coordinates": [ 3.856902, 43.6206125 ] } },
{ "type": "Feature", "properties": { "index": "92", "@osmId": "node/575745580", "name": "Cinsaults", "opening_hours": null, "label": "Bus stops", "color": "#4292c6" }, "geometry": { "type": "Point", "coordinates": [ 3.8569901, 43.6205134 ] } },
{ "type": "Feature", "properties": { "index": "93", "@osmId": "node/577005678", "name": "Las Sorbes", "opening_hours": null, "label": "Bus stops", "color": "#4292c6" }, "geometry": { "type": "Point", "coordinates": [ 3.8550196, 43.6152826 ] } },
{ "type": "Feature", "properties": { "index": "94", "@osmId": "node/577007072", "name": "Érables", "opening_hours": null, "label": "Bus stops", "color": "#4292c6" }, "geometry": { "type": "Point", "coordinates": [ 3.8568513, 43.614987 ] } },
{ "type": "Feature", "properties": { "index": "95", "@osmId": "node/577007075", "name": "Érables", "opening_hours": null, "label": "Bus stops", "color": "#4292c6" }, "geometry": { "type": "Point", "coordinates": [ 3.8570875, 43.6149266 ] } },
{ "type": "Feature", "properties": { "index": "96", "@osmId": "node/577009664", "name": "Louvain", "opening_hours": null, "label": "Bus stops", "color": "#4292c6" }, "geometry": { "type": "Point", "coordinates": [ 3.8586079, 43.6134726 ] } },
{ "type": "Feature", "properties": { "index": "97", "@osmId": "node/577009665", "name": "Louvain", "opening_hours": null, "label": "Bus stops", "color": "#4292c6" }, "geometry": { "type": "Point", "coordinates": [ 3.8590117, 43.6133158 ] } },
{ "type": "Feature", "properties": { "index": "98", "@osmId": "node/577010733", "name": "Benjamin Milhaud", "opening_hours": null, "label": "Bus stops", "color": "#4292c6" }, "geometry": { "type": "Point", "coordinates": [ 3.8611766, 43.6121671 ] } },
{ "type": "Feature", "properties": { "index": "99", "@osmId": "node/577010735", "name": "Benjamin Milhaud", "opening_hours": null, "label": "Bus stops", "color": "#4292c6" }, "geometry": { "type": "Point", "coordinates": [ 3.8611062, 43.6121104 ] } },
{ "type": "Feature", "properties": { "index": "100", "@osmId": "node/577012013", "name": "Glycines", "opening_hours": null, "label": "Bus stops", "color": "#4292c6" }, "geometry": { "type": "Point", "coordinates": [ 3.8631616, 43.6120045 ] } },
{ "type": "Feature", "properties": { "index": "101", "@osmId": "node/577012017", "name": "Glycines", "opening_hours": null, "label": "Bus stops", "color": "#4292c6" }, "geometry": { "type": "Point", "coordinates": [ 3.8639058, 43.6118714 ] } },
{ "type": "Feature", "properties": { "index": "102", "@osmId": "node/577237601", "name": "Croix du Capitaine", "opening_hours": null, "label": "Bus stops", "color": "#4292c6" }, "geometry": { "type": "Point", "coordinates": [ 3.866554, 43.6020368 ] } },
{ "type": "Feature", "properties": { "index": "103", "@osmId": "node/577237612", "name": "Mas de Merle", "opening_hours": null, "label": "Bus stops", "color": "#4292c6" }, "geometry": { "type": "Point", "coordinates": [ 3.8573143, 43.6044983 ] } },
{ "type": "Feature", "properties": { "index": "104", "@osmId": "node/577237614", "name": "Mas de Merle", "opening_hours": null, "label": "Bus stops", "color": "#4292c6" }, "geometry": { "type": "Point", "coordinates": [ 3.8576143, 43.6043177 ] } },
{ "type": "Feature", "properties": { "index": "105", "@osmId": "node/577237618", "name": "Cité Créative", "opening_hours": null, "label": "Bus stops", "color": "#4292c6" }, "geometry": { "type": "Point", "coordinates": [ 3.8626938, 43.6030266 ] } },
{ "type": "Feature", "properties": { "index": "106", "@osmId": "node/577242370", "name": "Pous de la Sers", "opening_hours": null, "label": "Bus stops", "color": "#4292c6" }, "geometry": { "type": "Point", "coordinates": [ 3.8618812, 43.6191285 ] } },
{ "type": "Feature", "properties": { "index": "107", "@osmId": "node/577242371", "name": "Pous de la Sers", "opening_hours": null, "label": "Bus stops", "color": "#4292c6" }, "geometry": { "type": "Point", "coordinates": [ 3.8612097, 43.6192596 ] } },
{ "type": "Feature", "properties": { "index": "108", "@osmId": "node/577242372", "name": "Cité Roger", "opening_hours": null, "label": "Bus stops", "color": "#4292c6" }, "geometry": { "type": "Point", "coordinates": [ 3.8585747, 43.6203924 ] } },
{ "type": "Feature", "properties": { "index": "109", "@osmId": "node/577242373", "name": "Cité Roger", "opening_hours": null, "label": "Bus stops", "color": "#4292c6" }, "geometry": { "type": "Point", "coordinates": [ 3.8583029, 43.6203738 ] } },
{ "type": "Feature", "properties": { "index": "110", "@osmId": "node/577242377", "name": "Portalière des Masques", "opening_hours": null, "label": "Bus stops", "color": "#4292c6" }, "geometry": { "type": "Point", "coordinates": [ 3.8663961, 43.6172794 ] } },
{ "type": "Feature", "properties": { "index": "111", "@osmId": "node/577368567", "name": "La Gaillarde", "opening_hours": null, "label": "Bus stops", "color": "#4292c6" }, "geometry": { "type": "Point", "coordinates": [ 3.8577303, 43.6162815 ] } },
{ "type": "Feature", "properties": { "index": "112", "@osmId": "node/577368568", "name": "La Gaillarde", "opening_hours": null, "label": "Bus stops", "color": "#4292c6" }, "geometry": { "type": "Point", "coordinates": [ 3.8586715, 43.6162637 ] } },
{ "type": "Feature", "properties": { "index": "113", "@osmId": "node/577368572", "name": "Sainte-Thérèse", "opening_hours": null, "label": "Bus stops", "color": "#4292c6" }, "geometry": { "type": "Point", "coordinates": [ 3.8655822, 43.6141097 ] } },
{ "type": "Feature", "properties": { "index": "114", "@osmId": "node/577368573", "name": "Sainte-Thérèse", "opening_hours": null, "label": "Bus stops", "color": "#4292c6" }, "geometry": { "type": "Point", "coordinates": [ 3.8652214, 43.614218 ] } },
{ "type": "Feature", "properties": { "index": "115", "@osmId": "node/577368574", "name": "Collège Camille Claudel", "opening_hours": null, "label": "Bus stops", "color": "#4292c6" }, "geometry": { "type": "Point", "coordinates": [ 3.8621563, 43.6164316 ] } },
{ "type": "Feature", "properties": { "index": "116", "@osmId": "node/1825180710", "name": "Hippolyte Rech", "opening_hours": null, "label": "Bus stops", "color": "#4292c6" }, "geometry": { "type": "Point", "coordinates": [ 3.8650937, 43.6202625 ] } },
{ "type": "Feature", "properties": { "index": "117", "@osmId": "node/1825181443", "name": "Hippolyte Rech", "opening_hours": null, "label": "Bus stops", "color": "#4292c6" }, "geometry": { "type": "Point", "coordinates": [ 3.8655814, 43.6197142 ] } },
{ "type": "Feature", "properties": { "index": "118", "@osmId": "node/1825181940", "name": "Charles Flahault", "opening_hours": null, "label": "Bus stops", "color": "#4292c6" }, "geometry": { "type": "Point", "coordinates": [ 3.8663896, 43.6184031 ] } },
{ "type": "Feature", "properties": { "index": "119", "@osmId": "node/11878973378", "name": "Cervantès", "opening_hours": null, "label": "Bus stops", "color": "#4292c6" }, "geometry": { "type": "Point", "coordinates": [ 3.8550872, 43.6221458 ] } },
{ "type": "Feature", "properties": { "index": "120", "@osmId": "node/11878973379", "name": "La Source", "opening_hours": null, "label": "Bus stops", "color": "#4292c6" }, "geometry": { "type": "Point", "coordinates": [ 3.8560393, 43.6216925 ] } },
{ "type": "Feature", "properties": { "index": "121", "@osmId": "node/11878973380", "name": "La Source", "opening_hours": null, "label": "Bus stops", "color": "#4292c6" }, "geometry": { "type": "Point", "coordinates": [ 3.8568212, 43.6210352 ] } },
{ "type": "Feature", "properties": { "index": "122", "@osmId": "node/11878997026", "name": "Maison des Sports", "opening_hours": null, "label": "Bus stops", "color": "#4292c6" }, "geometry": { "type": "Point", "coordinates": [ 3.8643529, 43.6183253 ] } },
{ "type": "Feature", "properties": { "index": "123", "@osmId": "node/11878997027", "name": "Maison des Sports", "opening_hours": null, "label": "Bus stops", "color": "#4292c6" }, "geometry": { "type": "Point", "coordinates": [ 3.864601, 43.6184312 ] } },
{ "type": "Feature", "properties": { "index": "124", "@osmId": "node/11878997030", "name": "Max Rouquette - Saint-Louis", "opening_hours": null, "label": "Bus stops", "color": "#4292c6" }, "geometry": { "type": "Point", "coordinates": [ 3.8664696, 43.6123202 ] } },
{ "type": "Feature", "properties": { "index": "125", "@osmId": "node/11879175197", "name": "Collège Camille Claudel", "opening_hours": null, "label": "Bus stops", "color": "#4292c6" }, "geometry": { "type": "Point", "coordinates": [ 3.8620836, 43.6163712 ] } },
{ "type": "Feature", "properties": { "index": "126", "@osmId": "node/12952670679", "name": "Parc Montcalm", "opening_hours": null, "label": "Bus stops", "color": "#4292c6" }, "geometry": { "type": "Point", "coordinates": [ 3.8598396, 43.6000424 ] } },
{ "type": "Feature", "properties": { "index": "127", "@osmId": "node/12952670681", "name": "Chamberte - Les Roses", "opening_hours": null, "label": "Bus stops", "color": "#4292c6" }, "geometry": { "type": "Point", "coordinates": [ 3.8563864, 43.6032369 ] } },
{ "type": "Feature", "properties": { "index": "128", "@osmId": "node/571469636", "name": "Pinville", "opening_hours": null, "label": "Bus stops", "color": "#4292c6" }, "geometry": { "type": "Point", "coordinates": [ 3.9045561, 43.6140318 ] } },
{ "type": "Feature", "properties": { "index": "129", "@osmId": "node/571469638", "name": "Pinville", "opening_hours": null, "label": "Bus stops", "color": "#4292c6" }, "geometry": { "type": "Point", "coordinates": [ 3.9045151, 43.6138859 ] } },
{ "type": "Feature", "properties": { "index": "130", "@osmId": "node/571479989", "name": "Goélands", "opening_hours": null, "label": "Bus stops", "color": "#4292c6" }, "geometry": { "type": "Point", "coordinates": [ 3.9032257, 43.6165298 ] } },
{ "type": "Feature", "properties": { "index": "131", "@osmId": "node/571479990", "name": "Goélands", "opening_hours": null, "label": "Bus stops", "color": "#4292c6" }, "geometry": { "type": "Point", "coordinates": [ 3.9032391, 43.616188 ] } },
{ "type": "Feature", "properties": { "index": "132", "@osmId": "node/571479991", "name": "Semard", "opening_hours": null, "label": "Bus stops", "color": "#4292c6" }, "geometry": { "type": "Point", "coordinates": [ 3.904336, 43.619592 ] } },
{ "type": "Feature", "properties": { "index": "133", "@osmId": "node/571479992", "name": "Semard", "opening_hours": null, "label": "Bus stops", "color": "#4292c6" }, "geometry": { "type": "Point", "coordinates": [ 3.9042341, 43.6196744 ] } },
{ "type": "Feature", "properties": { "index": "134", "@osmId": "node/571812894", "name": "Salaison", "opening_hours": null, "label": "Bus stops", "color": "#4292c6" }, "geometry": { "type": "Point", "coordinates": [ 3.8988155, 43.6238455 ] } },
{ "type": "Feature", "properties": { "index": "135", "@osmId": "node/571812913", "name": "Salaison", "opening_hours": null, "label": "Bus stops", "color": "#4292c6" }, "geometry": { "type": "Point", "coordinates": [ 3.898653, 43.6238516 ] } },
{ "type": "Feature", "properties": { "index": "136", "@osmId": "node/571812931", "name": "La Pompignane - Les Lacs", "opening_hours": null, "label": "Bus stops", "color": "#4292c6" }, "geometry": { "type": "Point", "coordinates": [ 3.8995532, 43.624712 ] } },
{ "type": "Feature", "properties": { "index": "137", "@osmId": "node/571812965", "name": "Pastourelles", "opening_hours": null, "label": "Bus stops", "color": "#4292c6" }, "geometry": { "type": "Point", "coordinates": [ 3.9012346, 43.621858 ] } },
{ "type": "Feature", "properties": { "index": "138", "@osmId": "node/571812973", "name": "Pastourelles", "opening_hours": null, "label": "Bus stops", "color": "#4292c6" }, "geometry": { "type": "Point", "coordinates": [ 3.9005006, 43.6218327 ] } },
{ "type": "Feature", "properties": { "index": "139", "@osmId": "node/576275765", "name": "Pinsons", "opening_hours": null, "label": "Bus stops", "color": "#4292c6" }, "geometry": { "type": "Point", "coordinates": [ 3.8861, 43.6169259 ] } },
{ "type": "Feature", "properties": { "index": "140", "@osmId": "node/576275772", "name": "Ernest Renan", "opening_hours": null, "label": "Bus stops", "color": "#4292c6" }, "geometry": { "type": "Point", "coordinates": [ 3.8853749, 43.6154567 ] } },
{ "type": "Feature", "properties": { "index": "141", "@osmId": "node/576275774", "name": "Ernest Renan", "opening_hours": null, "label": "Bus stops", "color": "#4292c6" }, "geometry": { "type": "Point", "coordinates": [ 3.8852393, 43.6154459 ] } },
{ "type": "Feature", "properties": { "index": "142", "@osmId": "node/576275775", "name": "Les Aubes", "opening_hours": null, "label": "Bus stops", "color": "#4292c6" }, "geometry": { "type": "Point", "coordinates": [ 3.8889163, 43.6136639 ] } },
{ "type": "Feature", "properties": { "index": "143", "@osmId": "node/576275778", "name": "Les Aubes", "opening_hours": null, "label": "Bus stops", "color": "#4292c6" }, "geometry": { "type": "Point", "coordinates": [ 3.8887007, 43.6136006 ] } },
{ "type": "Feature", "properties": { "index": "144", "@osmId": "node/576275792", "name": "Boulevard des Sports", "opening_hours": null, "label": "Bus stops", "color": "#4292c6" }, "geometry": { "type": "Point", "coordinates": [ 3.8892752, 43.6194238 ] } },
{ "type": "Feature", "properties": { "index": "145", "@osmId": "node/576275795", "name": "Boulevard des Sports", "opening_hours": null, "label": "Bus stops", "color": "#4292c6" }, "geometry": { "type": "Point", "coordinates": [ 3.8898569, 43.6195274 ] } },
{ "type": "Feature", "properties": { "index": "146", "@osmId": "node/576275798", "name": "Estragon", "opening_hours": null, "label": "Bus stops", "color": "#4292c6" }, "geometry": { "type": "Point", "coordinates": [ 3.8877601, 43.6185917 ] } },
{ "type": "Feature", "properties": { "index": "147", "@osmId": "node/576275802", "name": "Estragon", "opening_hours": null, "label": "Bus stops", "color": "#4292c6" }, "geometry": { "type": "Point", "coordinates": [ 3.8879482, 43.6186657 ] } },
{ "type": "Feature", "properties": { "index": "148", "@osmId": "node/576275804", "name": "Pinsons", "opening_hours": null, "label": "Bus stops", "color": "#4292c6" }, "geometry": { "type": "Point", "coordinates": [ 3.8862996, 43.6172079 ] } },
{ "type": "Feature", "properties": { "index": "149", "@osmId": "node/576275817", "name": "Palombes", "opening_hours": null, "label": "Bus stops", "color": "#4292c6" }, "geometry": { "type": "Point", "coordinates": [ 3.8938677, 43.6195083 ] } },
{ "type": "Feature", "properties": { "index": "150", "@osmId": "node/576275821", "name": "Saint-Maur", "opening_hours": null, "label": "Bus stops", "color": "#4292c6" }, "geometry": { "type": "Point", "coordinates": [ 3.8938744, 43.621023 ] } },
{ "type": "Feature", "properties": { "index": "151", "@osmId": "node/576275825", "name": "Saint-Maur", "opening_hours": null, "label": "Bus stops", "color": "#4292c6" }, "geometry": { "type": "Point", "coordinates": [ 3.8940516, 43.6210291 ] } },
{ "type": "Feature", "properties": { "index": "152", "@osmId": "node/576275828", "name": "Françoise", "opening_hours": null, "label": "Bus stops", "color": "#4292c6" }, "geometry": { "type": "Point", "coordinates": [ 3.8915324, 43.6200799 ] } },
{ "type": "Feature", "properties": { "index": "153", "@osmId": "node/576275830", "name": "Françoise", "opening_hours": null, "label": "Bus stops", "color": "#4292c6" }, "geometry": { "type": "Point", "coordinates": [ 3.8912001, 43.6199118 ] } },
{ "type": "Feature", "properties": { "index": "154", "@osmId": "node/576275857", "name": "Foyer des Aubes", "opening_hours": null, "label": "Bus stops", "color": "#4292c6" }, "geometry": { "type": "Point", "coordinates": [ 3.8948208, 43.6185285 ] } },
{ "type": "Feature", "properties": { "index": "155", "@osmId": "node/576275859", "name": "Foyer des Aubes", "opening_hours": null, "label": "Bus stops", "color": "#4292c6" }, "geometry": { "type": "Point", "coordinates": [ 3.8946037, 43.6184733 ] } },
{ "type": "Feature", "properties": { "index": "156", "@osmId": "node/576275862", "name": "Palombes", "opening_hours": null, "label": "Bus stops", "color": "#4292c6" }, "geometry": { "type": "Point", "coordinates": [ 3.8941058, 43.6197058 ] } },
{ "type": "Feature", "properties": { "index": "157", "@osmId": "node/576279185", "name": "Jean Mermoz", "opening_hours": null, "label": "Bus stops", "color": "#4292c6" }, "geometry": { "type": "Point", "coordinates": [ 3.8893767, 43.6125386 ] } },
{ "type": "Feature", "properties": { "index": "158", "@osmId": "node/576279190", "name": "Léon Blum", "opening_hours": null, "label": "Bus stops", "color": "#4292c6" }, "geometry": { "type": "Point", "coordinates": [ 3.8904821, 43.6093254 ] } },
{ "type": "Feature", "properties": { "index": "159", "@osmId": "node/576608097", "name": "Marie Caizergues", "opening_hours": null, "label": "Bus stops", "color": "#4292c6" }, "geometry": { "type": "Point", "coordinates": [ 3.8754324, 43.6213147 ] } },
{ "type": "Feature", "properties": { "index": "160", "@osmId": "node/576608103", "name": "Sainte-Odile", "opening_hours": null, "label": "Bus stops", "color": "#4292c6" }, "geometry": { "type": "Point", "coordinates": [ 3.8731606, 43.6225814 ] } },
{ "type": "Feature", "properties": { "index": "161", "@osmId": "node/576608145", "name": "Nazareth", "opening_hours": null, "label": "Bus stops", "color": "#4292c6" }, "geometry": { "type": "Point", "coordinates": [ 3.8803065, 43.6217117 ] } },
{ "type": "Feature", "properties": { "index": "162", "@osmId": "node/576608156", "name": "Marie Caizergues", "opening_hours": null, "label": "Bus stops", "color": "#4292c6" }, "geometry": { "type": "Point", "coordinates": [ 3.8753901, 43.6212064 ] } },
{ "type": "Feature", "properties": { "index": "163", "@osmId": "node/577242376", "name": "La Pile", "opening_hours": null, "label": "Bus stops", "color": "#4292c6" }, "geometry": { "type": "Point", "coordinates": [ 3.8681303, 43.6173142 ] } },
{ "type": "Feature", "properties": { "index": "164", "@osmId": "node/577560833", "name": "Léon Cordès", "opening_hours": null, "label": "Bus stops", "color": "#4292c6" }, "geometry": { "type": "Point", "coordinates": [ 3.8830372, 43.6015492 ] } },
{ "type": "Feature", "properties": { "index": "165", "@osmId": "node/1420023166", "name": "Garigliano", "opening_hours": null, "label": "Bus stops", "color": "#4292c6" }, "geometry": { "type": "Point", "coordinates": [ 3.8974262, 43.6187985 ] } },
{ "type": "Feature", "properties": { "index": "166", "@osmId": "node/1420024241", "name": "Garigliano", "opening_hours": null, "label": "Bus stops", "color": "#4292c6" }, "geometry": { "type": "Point", "coordinates": [ 3.8972383, 43.6186685 ] } },
{ "type": "Feature", "properties": { "index": "167", "@osmId": "node/1420093866", "name": "Pierre Laroque", "opening_hours": null, "label": "Bus stops", "color": "#4292c6" }, "geometry": { "type": "Point", "coordinates": [ 3.9042479, 43.6211824 ] } },
{ "type": "Feature", "properties": { "index": "168", "@osmId": "node/4979843829", "name": "Paul Painlevé", "opening_hours": null, "label": "Bus stops", "color": "#4292c6" }, "geometry": { "type": "Point", "coordinates": [ 3.8985894, 43.6105136 ] } },
{ "type": "Feature", "properties": { "index": "169", "@osmId": "node/6552432871", "name": "Place de l'Europe", "opening_hours": null, "label": "Bus stops", "color": "#4292c6" }, "geometry": { "type": "Point", "coordinates": [ 3.8946552, 43.6087154 ] } },
{ "type": "Feature", "properties": { "index": "170", "@osmId": "node/6552930673", "name": "Place de l'Europe", "opening_hours": null, "label": "Bus stops", "color": "#4292c6" }, "geometry": { "type": "Point", "coordinates": [ 3.8942605, 43.6081712 ] } },
{ "type": "Feature", "properties": { "index": "171", "@osmId": "node/6767551482", "name": "Pont Juvénal", "opening_hours": null, "label": "Bus stops", "color": "#4292c6" }, "geometry": { "type": "Point", "coordinates": [ 3.8980212, 43.6062864 ] } },
{ "type": "Feature", "properties": { "index": "172", "@osmId": "node/6767957875", "name": "Léon Cazal", "opening_hours": null, "label": "Bus stops", "color": "#4292c6" }, "geometry": { "type": "Point", "coordinates": [ 3.9033215, 43.6056299 ] } },
{ "type": "Feature", "properties": { "index": "173", "@osmId": "node/6767957877", "name": "Léon Cazal", "opening_hours": null, "label": "Bus stops", "color": "#4292c6" }, "geometry": { "type": "Point", "coordinates": [ 3.9032039, 43.6056709 ] } },
{ "type": "Feature", "properties": { "index": "174", "@osmId": "node/6768667972", "name": "Semard", "opening_hours": null, "label": "Bus stops", "color": "#4292c6" }, "geometry": { "type": "Point", "coordinates": [ 3.9034919, 43.6191531 ] } },
{ "type": "Feature", "properties": { "index": "175", "@osmId": "node/6768667973", "name": "André Malraux", "opening_hours": null, "label": "Bus stops", "color": "#4292c6" }, "geometry": { "type": "Point", "coordinates": [ 3.9004489, 43.6193922 ] } },
{ "type": "Feature", "properties": { "index": "176", "@osmId": "node/6768667974", "name": "Marie Durand", "opening_hours": null, "label": "Bus stops", "color": "#4292c6" }, "geometry": { "type": "Point", "coordinates": [ 3.8981147, 43.6183124 ] } },
{ "type": "Feature", "properties": { "index": "177", "@osmId": "node/6768667979", "name": "Paul Painlevé", "opening_hours": null, "label": "Bus stops", "color": "#4292c6" }, "geometry": { "type": "Point", "coordinates": [ 3.8988962, 43.6102237 ] } },
{ "type": "Feature", "properties": { "index": "178", "@osmId": "node/6770530431", "name": "Port Marianne", "opening_hours": null, "label": "Bus stops", "color": "#4292c6" }, "geometry": { "type": "Point", "coordinates": [ 3.9005354, 43.6027731 ] } },
{ "type": "Feature", "properties": { "index": "179", "@osmId": "node/6778385813", "name": "Cité Mion - Bordes", "opening_hours": null, "label": "Bus stops", "color": "#4292c6" }, "geometry": { "type": "Point", "coordinates": [ 3.8856173, 43.6009988 ] } },
{ "type": "Feature", "properties": { "index": "180", "@osmId": "node/6778385814", "name": "Frédéric Bazille", "opening_hours": null, "label": "Bus stops", "color": "#4292c6" }, "geometry": { "type": "Point", "coordinates": [ 3.880496, 43.6026986 ] } },
{ "type": "Feature", "properties": { "index": "181", "@osmId": "node/6778385815", "name": "Gare Saint-Roch (Pont de Sète)", "opening_hours": null, "label": "Bus stops", "color": "#4292c6" }, "geometry": { "type": "Point", "coordinates": [ 3.8782017, 43.6040946 ] } },
{ "type": "Feature", "properties": { "index": "182", "@osmId": "node/6778385816", "name": "Gare Saint-Roch (Pont de Sète)", "opening_hours": null, "label": "Bus stops", "color": "#4292c6" }, "geometry": { "type": "Point", "coordinates": [ 3.8792038, 43.6037433 ] } },
{ "type": "Feature", "properties": { "index": "183", "@osmId": "node/6778385817", "name": "Henri René", "opening_hours": null, "label": "Bus stops", "color": "#4292c6" }, "geometry": { "type": "Point", "coordinates": [ 3.8819604, 43.6031494 ] } },
{ "type": "Feature", "properties": { "index": "184", "@osmId": "node/6778385818", "name": "Place Carnot", "opening_hours": null, "label": "Bus stops", "color": "#4292c6" }, "geometry": { "type": "Point", "coordinates": [ 3.8838024, 43.6032735 ] } },
{ "type": "Feature", "properties": { "index": "185", "@osmId": "node/6778385819", "name": "Cité Mion", "opening_hours": null, "label": "Bus stops", "color": "#4292c6" }, "geometry": { "type": "Point", "coordinates": [ 3.8847633, 43.6013494 ] } },
{ "type": "Feature", "properties": { "index": "186", "@osmId": "node/6779350383", "name": "Max Rouquette - Paladilhe", "opening_hours": null, "label": "Bus stops", "color": "#4292c6" }, "geometry": { "type": "Point", "coordinates": [ 3.8671976, 43.6120369 ] } },
{ "type": "Feature", "properties": { "index": "187", "@osmId": "node/6789980576", "name": "Cité Mion", "opening_hours": null, "label": "Bus stops", "color": "#4292c6" }, "geometry": { "type": "Point", "coordinates": [ 3.8846823, 43.6004995 ] } },
{ "type": "Feature", "properties": { "index": "188", "@osmId": "node/6815145454", "name": "Place de l'Europe", "opening_hours": null, "label": "Bus stops", "color": "#4292c6" }, "geometry": { "type": "Point", "coordinates": [ 3.8942771, 43.6082821 ] } },
{ "type": "Feature", "properties": { "index": "189", "@osmId": "node/9733479599", "name": "Marie Durand", "opening_hours": null, "label": "Bus stops", "color": "#4292c6" }, "geometry": { "type": "Point", "coordinates": [ 3.8978435, 43.6183932 ] } },
{ "type": "Feature", "properties": { "index": "190", "@osmId": "node/9846220527", "name": "Place de l'Europe", "opening_hours": null, "label": "Bus stops", "color": "#4292c6" }, "geometry": { "type": "Point", "coordinates": [ 3.8941991, 43.6074941 ] } },
{ "type": "Feature", "properties": { "index": "191", "@osmId": "node/9848372916", "name": "Pont Juvénal - Platon", "opening_hours": null, "label": "Bus stops", "color": "#4292c6" }, "geometry": { "type": "Point", "coordinates": [ 3.8985789, 43.6066088 ] } },
{ "type": "Feature", "properties": { "index": "192", "@osmId": "node/11104518240", "name": "Pierre Laroque", "opening_hours": null, "label": "Bus stops", "color": "#4292c6" }, "geometry": { "type": "Point", "coordinates": [ 3.90437, 43.6214567 ] } },
{ "type": "Feature", "properties": { "index": "193", "@osmId": "node/11559506936", "name": "Rondelet", "opening_hours": null, "label": "Bus stops", "color": "#4292c6" }, "geometry": { "type": "Point", "coordinates": [ 3.8756218, 43.6032233 ] } },
{ "type": "Feature", "properties": { "index": "194", "@osmId": "node/11559969799", "name": "Rondelet", "opening_hours": null, "label": "Bus stops", "color": "#4292c6" }, "geometry": { "type": "Point", "coordinates": [ 3.8749844, 43.6027363 ] } },
{ "type": "Feature", "properties": { "index": "195", "@osmId": "node/11878878502", "name": "André Malraux", "opening_hours": null, "label": "Bus stops", "color": "#4292c6" }, "geometry": { "type": "Point", "coordinates": [ 3.9002845, 43.6195366 ] } },
{ "type": "Feature", "properties": { "index": "196", "@osmId": "node/11878878503", "name": "Semard", "opening_hours": null, "label": "Bus stops", "color": "#4292c6" }, "geometry": { "type": "Point", "coordinates": [ 3.9030097, 43.6192006 ] } },
{ "type": "Feature", "properties": { "index": "197", "@osmId": "node/11878878504", "name": "Saint-Jean", "opening_hours": null, "label": "Bus stops", "color": "#4292c6" }, "geometry": { "type": "Point", "coordinates": [ 3.8976466, 43.6156334 ] } },
{ "type": "Feature", "properties": { "index": "198", "@osmId": "node/11878878505", "name": "Saint-Jean", "opening_hours": null, "label": "Bus stops", "color": "#4292c6" }, "geometry": { "type": "Point", "coordinates": [ 3.8977937, 43.61551 ] } },
{ "type": "Feature", "properties": { "index": "199", "@osmId": "node/11878878506", "name": "Colverts", "opening_hours": null, "label": "Bus stops", "color": "#4292c6" }, "geometry": { "type": "Point", "coordinates": [ 3.898207, 43.6138381 ] } },
{ "type": "Feature", "properties": { "index": "200", "@osmId": "node/11878878507", "name": "Colverts", "opening_hours": null, "label": "Bus stops", "color": "#4292c6" }, "geometry": { "type": "Point", "coordinates": [ 3.8981019, 43.6136471 ] } },
{ "type": "Feature", "properties": { "index": "201", "@osmId": "node/11878878510", "name": "Rondelet", "opening_hours": null, "label": "Bus stops", "color": "#4292c6" }, "geometry": { "type": "Point", "coordinates": [ 3.8748264, 43.6041201 ] } },
{ "type": "Feature", "properties": { "index": "202", "@osmId": "node/11878878511", "name": "Rondelet", "opening_hours": null, "label": "Bus stops", "color": "#4292c6" }, "geometry": { "type": "Point", "coordinates": [ 3.8747656, 43.6038675 ] } },
{ "type": "Feature", "properties": { "index": "203", "@osmId": "node/11878997028", "name": "Saint-Jaumes", "opening_hours": null, "label": "Bus stops", "color": "#4292c6" }, "geometry": { "type": "Point", "coordinates": [ 3.8697215, 43.6152268 ] } },
{ "type": "Feature", "properties": { "index": "204", "@osmId": "node/11878997029", "name": "Max Rouquette - Assas", "opening_hours": null, "label": "Bus stops", "color": "#4292c6" }, "geometry": { "type": "Point", "coordinates": [ 3.867914, 43.61252 ] } },
{ "type": "Feature", "properties": { "index": "205", "@osmId": "node/11878997031", "name": "Soleiado", "opening_hours": null, "label": "Bus stops", "color": "#4292c6" }, "geometry": { "type": "Point", "coordinates": [ 3.8865131, 43.6006925 ] } },
{ "type": "Feature", "properties": { "index": "206", "@osmId": "node/11878997032", "name": "Soleiado", "opening_hours": null, "label": "Bus stops", "color": "#4292c6" }, "geometry": { "type": "Point", "coordinates": [ 3.8870337, 43.6002841 ] } },
{ "type": "Feature", "properties": { "index": "207", "@osmId": "node/11878997034", "name": "Place de l'Europe", "opening_hours": null, "label": "Bus stops", "color": "#4292c6" }, "geometry": { "type": "Point", "coordinates": [ 3.8941786, 43.607349 ] } },
{ "type": "Feature", "properties": { "index": "208", "@osmId": "node/11893362762", "name": "Sainte-Odile", "opening_hours": null, "label": "Bus stops", "color": "#4292c6" }, "geometry": { "type": "Point", "coordinates": [ 3.8730765, 43.622754 ] } },
{ "type": "Feature", "properties": { "index": "209", "@osmId": "node/11893362763", "name": "Nazareth", "opening_hours": null, "label": "Bus stops", "color": "#4292c6" }, "geometry": { "type": "Point", "coordinates": [ 3.8802092, 43.6216283 ] } },
{ "type": "Feature", "properties": { "index": "210", "@osmId": "node/12480052676", "name": "Gare Saint-Roch  (Rue Pagézy)", "opening_hours": null, "label": "Bus stops", "color": "#4292c6" }, "geometry": { "type": "Point", "coordinates": [ 3.8788016, 43.6042424 ] } },
{ "type": "Feature", "properties": { "index": "211", "@osmId": "node/12843828907", "name": "Paul Painlevé", "opening_hours": null, "label": "Bus stops", "color": "#4292c6" }, "geometry": { "type": "Point", "coordinates": [ 3.8992812, 43.6100371 ] } },
{ "type": "Feature", "properties": { "index": "212", "@osmId": "node/12843828908", "name": "Paul Painlevé", "opening_hours": null, "label": "Bus stops", "color": "#4292c6" }, "geometry": { "type": "Point", "coordinates": [ 3.8996027, 43.610008 ] } },
{ "type": "Feature", "properties": { "index": "213", "@osmId": "node/12843828912", "name": "Place de l'Europe", "opening_hours": null, "label": "Bus stops", "color": "#4292c6" }, "geometry": { "type": "Point", "coordinates": [ 3.8930878, 43.6069928 ] } },
{ "type": "Feature", "properties": { "index": "214", "@osmId": "node/12843828914", "name": "Jules Isaac", "opening_hours": null, "label": "Bus stops", "color": "#4292c6" }, "geometry": { "type": "Point", "coordinates": [ 3.8982612, 43.6221492 ] } },
{ "type": "Feature", "properties": { "index": "215", "@osmId": "node/12843828916", "name": "Jules Isaac", "opening_hours": null, "label": "Bus stops", "color": "#4292c6" }, "geometry": { "type": "Point", "coordinates": [ 3.8982552, 43.6220993 ] } },
{ "type": "Feature", "properties": { "index": "216", "@osmId": "node/12855766541", "name": "Place de l'Europe", "opening_hours": null, "label": "Bus stops", "color": "#4292c6" }, "geometry": { "type": "Point", "coordinates": [ 3.8940075, 43.6073432 ] } },
{ "type": "Feature", "properties": { "index": "217", "@osmId": "node/12855768036", "name": "Pont Juvénal", "opening_hours": null, "label": "Bus stops", "color": "#4292c6" }, "geometry": { "type": "Point", "coordinates": [ 3.89819, 43.6061545 ] } },
{ "type": "Feature", "properties": { "index": "218", "@osmId": "node/13242950332", "name": "Auguste Broussonnet", "opening_hours": null, "label": "Bus stops", "color": "#4292c6" }, "geometry": { "type": "Point", "coordinates": [ 3.8697452, 43.6166863 ] } },
{ "type": "Feature", "properties": { "index": "219", "@osmId": "node/13242950333", "name": "Albert 1er - Jardin des Plantes", "opening_hours": null, "label": "Bus stops", "color": "#4292c6" }, "geometry": { "type": "Point", "coordinates": [ 3.8731409, 43.6154863 ] } },
{ "type": "Feature", "properties": { "index": "220", "@osmId": "node/13242950335", "name": "Albert 1er - Jardin des Plantes", "opening_hours": null, "label": "Bus stops", "color": "#4292c6" }, "geometry": { "type": "Point", "coordinates": [ 3.8731596, 43.6155487 ] } },
{ "type": "Feature", "properties": { "index": "221", "@osmId": "node/13242950336", "name": "Peyrou - Arc de Triomphe", "opening_hours": null, "label": "Bus stops", "color": "#4292c6" }, "geometry": { "type": "Point", "coordinates": [ 3.8704556, 43.6120999 ] } },
{ "type": "Feature", "properties": { "index": "222", "@osmId": "node/13242950339", "name": "Montasinos", "opening_hours": null, "label": "Bus stops", "color": "#4292c6" }, "geometry": { "type": "Point", "coordinates": [ 3.8831476, 43.6223605 ] } },
{ "type": "Feature", "properties": { "index": "223", "@osmId": "node/13242950340", "name": "Montasinos", "opening_hours": null, "label": "Bus stops", "color": "#4292c6" }, "geometry": { "type": "Point", "coordinates": [ 3.8832051, 43.622213 ] } },
{ "type": "Feature", "properties": { "index": "224", "@osmId": "node/13242950343", "name": "Boutonnet - Cité des Arts", "opening_hours": null, "label": "Bus stops", "color": "#4292c6" }, "geometry": { "type": "Point", "coordinates": [ 3.8682673, 43.6215601 ] } },
{ "type": "Feature", "properties": { "index": "225", "@osmId": "node/13242950344", "name": "Boutonnet - Cité des Arts", "opening_hours": null, "label": "Bus stops", "color": "#4292c6" }, "geometry": { "type": "Point", "coordinates": [ 3.8689565, 43.6216196 ] } },
{ "type": "Feature", "properties": { "index": "226", "@osmId": "node/13242950361", "name": "Place du 8 Mai 1945", "opening_hours": null, "label": "Bus stops", "color": "#4292c6" }, "geometry": { "type": "Point", "coordinates": [ 3.8684259, 43.601311 ] } },
{ "type": "Feature", "properties": { "index": "227", "@osmId": "node/13242950362", "name": "Place du 8 Mai 1945", "opening_hours": null, "label": "Bus stops", "color": "#4292c6" }, "geometry": { "type": "Point", "coordinates": [ 3.8684814, 43.6012909 ] } },
{ "type": "Feature", "properties": { "index": "228", "@osmId": "node/13300475986", "name": "Peyrou - Arc de Triomphe", "opening_hours": null, "label": "Bus stops", "color": "#4292c6" }, "geometry": { "type": "Point", "coordinates": [ 3.8704555, 43.612009 ] } },
{ "type": "Feature", "properties": { "index": "229", "@osmId": "node/13300475987", "name": "Max Rouquette - Assas", "opening_hours": null, "label": "Bus stops", "color": "#4292c6" }, "geometry": { "type": "Point", "coordinates": [ 3.867857, 43.6124399 ] } },
{ "type": "Feature", "properties": { "index": "230", "@osmId": "node/13372697046", "name": "Pont Juvénal", "opening_hours": null, "label": "Bus stops", "color": "#4292c6" }, "geometry": { "type": "Point", "coordinates": [ 3.8982603, 43.6062074 ] } },
{ "type": "Feature", "properties": { "index": "231", "@osmId": "way/722380903", "name": "Maison des Sports", "opening_hours": null, "label": "Bus stops", "color": "#4292c6" }, "geometry": { "type": "Polygon", "coordinates": [ [ [ 3.8646782, 43.6184446 ], [ 3.8646301, 43.6184446 ], [ 3.8646301, 43.6184306 ], [ 3.8646782, 43.6184306 ], [ 3.8646782, 43.6184446 ] ] ] } },
{ "type": "Feature", "properties": { "index": "232", "@osmId": "way/722380904", "name": "Maison des Sports", "opening_hours": null, "label": "Bus stops", "color": "#4292c6" }, "geometry": { "type": "Polygon", "coordinates": [ [ [ 3.8643389, 43.6183203 ], [ 3.8642909, 43.6183181 ], [ 3.8642921, 43.6183042 ], [ 3.8643402, 43.6183063 ], [ 3.8643389, 43.6183203 ] ] ] } },
{ "type": "Feature", "properties": { "index": "233", "@osmId": "way/722621487", "name": "La Source", "opening_hours": null, "label": "Bus stops", "color": "#4292c6" }, "geometry": { "type": "Polygon", "coordinates": [ [ [ 3.8568104, 43.6210512 ], [ 3.8567741, 43.6210702 ], [ 3.8567652, 43.6210612 ], [ 3.8568015, 43.6210423 ], [ 3.8568104, 43.6210512 ] ] ] } },
{ "type": "Feature", "properties": { "index": "234", "@osmId": "way/722621488", "name": "La Source", "opening_hours": null, "label": "Bus stops", "color": "#4292c6" }, "geometry": { "type": "Polygon", "coordinates": [ [ [ 3.8561101, 43.6216659 ], [ 3.8560779, 43.6216873 ], [ 3.8560673, 43.6216794 ], [ 3.8560995, 43.621658 ], [ 3.8561101, 43.6216659 ] ] ] } },
{ "type": "Feature", "properties": { "index": "235", "@osmId": "way/722621489", "name": "Cervantès", "opening_hours": null, "label": "Bus stops", "color": "#4292c6" }, "geometry": { "type": "Polygon", "coordinates": [ [ [ 3.8550675, 43.6221583 ], [ 3.8550343, 43.6221816 ], [ 3.8550237, 43.6221737 ], [ 3.8550569, 43.6221504 ], [ 3.8550675, 43.6221583 ] ] ] } },
{ "type": "Feature", "properties": { "index": "236", "@osmId": "way/123341247", "name": "Boutonnet - Cité des Arts", "opening_hours": null, "label": "Bus stops", "color": "#4292c6" }, "geometry": { "type": "Polygon", "coordinates": [ [ [ 3.8681284, 43.6224026 ], [ 3.8681579, 43.6224096 ], [ 3.8680076, 43.6227425 ], [ 3.8679837, 43.6227955 ], [ 3.8679542, 43.6227885 ], [ 3.8681284, 43.6224026 ] ] ] } },
{ "type": "Feature", "properties": { "index": "237", "@osmId": "way/123341248", "name": "Boutonnet - Cité des Arts", "opening_hours": null, "label": "Bus stops", "color": "#4292c6" }, "geometry": { "type": "Polygon", "coordinates": [ [ [ 3.8680599, 43.6228195 ], [ 3.8680856, 43.6227619 ], [ 3.868235, 43.6224275 ], [ 3.8682684, 43.6224354 ], [ 3.8680933, 43.6228273 ], [ 3.8680599, 43.6228195 ] ] ] } },
{ "type": "Feature", "properties": { "index": "238", "@osmId": "way/75043496", "name": "Du Guesclin", "opening_hours": null, "label": "Bus stops", "color": "#4292c6" }, "geometry": { "type": "Polygon", "coordinates": [ [ [ 3.8832883, 43.6070726 ], [ 3.8832798, 43.6070746 ], [ 3.8832502, 43.6070081 ], [ 3.8832588, 43.6070061 ], [ 3.8832672, 43.6070042 ], [ 3.8832968, 43.6070706 ], [ 3.8832883, 43.6070726 ] ] ] } },
{ "type": "Feature", "properties": { "index": "239", "@osmId": "way/75274826", "name": "Antigone", "opening_hours": null, "label": "Bus stops", "color": "#4292c6" }, "geometry": { "type": "Polygon", "coordinates": [ [ [ 3.8865981, 43.6086133 ], [ 3.8865801, 43.6086117 ], [ 3.8865731, 43.6085581 ], [ 3.8865892, 43.6085539 ], [ 3.8865981, 43.6086133 ] ] ] } },
{ "type": "Feature", "properties": { "index": "240", "@osmId": "way/363314697", "name": "Soleiado", "opening_hours": null, "label": "Bus stops", "color": "#4292c6" }, "geometry": { "type": "Polygon", "coordinates": [ [ [ 3.8869866, 43.6003163 ], [ 3.8869758, 43.6003074 ], [ 3.8870093, 43.6002861 ], [ 3.8870201, 43.600295 ], [ 3.8869866, 43.6003163 ] ] ] } },
{ "type": "Feature", "properties": { "index": "241", "@osmId": "way/363314698", "name": "Soleiado", "opening_hours": null, "label": "Bus stops", "color": "#4292c6" }, "geometry": { "type": "Polygon", "coordinates": [ [ [ 3.8865573, 43.6006977 ], [ 3.8865465, 43.6006888 ], [ 3.88658, 43.6006675 ], [ 3.8865908, 43.6006765 ], [ 3.8865573, 43.6006977 ] ] ] } },
{ "type": "Feature", "properties": { "index": "242", "@osmId": "way/722380895", "name": "Rondelet", "opening_hours": null, "label": "Bus stops", "color": "#4292c6" }, "geometry": { "type": "LineString", "coordinates": [ [ 3.874775, 43.6038523 ], [ 3.8748528, 43.6041974 ] ] } },
{ "type": "Feature", "properties": { "index": "243", "@osmId": "node/720958465", "name": "Plan Cabanes", "opening_hours": null, "label": "Bike-sharing points", "color": "#41ab5d" }, "geometry": { "type": "Point", "coordinates": [ 3.868638, 43.60835 ] } },
{ "type": "Feature", "properties": { "index": "244", "@osmId": "node/1252120564", "name": "Louis Blanc", "opening_hours": null, "label": "Bike-sharing points", "color": "#41ab5d" }, "geometry": { "type": "Point", "coordinates": [ 3.8776294, 43.614645 ] } },
{ "type": "Feature", "properties": { "index": "245", "@osmId": "node/1263317919", "name": "Renouvier", "opening_hours": null, "label": "Bike-sharing points", "color": "#41ab5d" }, "geometry": { "type": "Point", "coordinates": [ 3.8678865, 43.60358 ] } },
{ "type": "Feature", "properties": { "index": "246", "@osmId": "node/1684536488", "name": "Emile Combes", "opening_hours": null, "label": "Bike-sharing points", "color": "#41ab5d" }, "geometry": { "type": "Point", "coordinates": [ 3.8799722, 43.6167422 ] } },
{ "type": "Feature", "properties": { "index": "247", "@osmId": "node/1732434637", "name": "Albert 1er", "opening_hours": null, "label": "Bike-sharing points", "color": "#41ab5d" }, "geometry": { "type": "Point", "coordinates": [ 3.8743979, 43.6161695 ] } },
{ "type": "Feature", "properties": { "index": "248", "@osmId": "node/1740249079", "name": "Rue Jules Ferry - Gare Saint-Roch", "opening_hours": null, "label": "Bike-sharing points", "color": "#41ab5d" }, "geometry": { "type": "Point", "coordinates": [ 3.8812294, 43.6053253 ] } },
{ "type": "Feature", "properties": { "index": "249", "@osmId": "node/1740249082", "name": "Du Guesclin", "opening_hours": null, "label": "Bike-sharing points", "color": "#41ab5d" }, "geometry": { "type": "Point", "coordinates": [ 3.8824027, 43.6059524 ] } },
{ "type": "Feature", "properties": { "index": "250", "@osmId": "node/1747358165", "name": "Observatoire", "opening_hours": null, "label": "Bike-sharing points", "color": "#41ab5d" }, "geometry": { "type": "Point", "coordinates": [ 3.8769443, 43.6060972 ] } },
{ "type": "Feature", "properties": { "index": "251", "@osmId": "node/1747358166", "name": "Foch", "opening_hours": null, "label": "Bike-sharing points", "color": "#41ab5d" }, "geometry": { "type": "Point", "coordinates": [ 3.8733344, 43.6109947 ] } },
{ "type": "Feature", "properties": { "index": "252", "@osmId": "node/1747358167", "name": "Corum", "opening_hours": null, "label": "Bike-sharing points", "color": "#41ab5d" }, "geometry": { "type": "Point", "coordinates": [ 3.8816248, 43.6140308 ] } },
{ "type": "Feature", "properties": { "index": "253", "@osmId": "node/1939883792", "name": "Boutonnet", "opening_hours": null, "label": "Bike-sharing points", "color": "#41ab5d" }, "geometry": { "type": "Point", "coordinates": [ 3.8683868, 43.6226054 ] } },
{ "type": "Feature", "properties": { "index": "254", "@osmId": "node/1939883803", "name": "Gambetta", "opening_hours": null, "label": "Bike-sharing points", "color": "#41ab5d" }, "geometry": { "type": "Point", "coordinates": [ 3.8707375, 43.6070906 ] } },
{ "type": "Feature", "properties": { "index": "255", "@osmId": "node/1970352669", "name": "Cité Mion", "opening_hours": null, "label": "Bike-sharing points", "color": "#41ab5d" }, "geometry": { "type": "Point", "coordinates": [ 3.8844511, 43.6011431 ] } },
{ "type": "Feature", "properties": { "index": "256", "@osmId": "node/1970352694", "name": "Jeu de Mail des Abbés", "opening_hours": null, "label": "Bike-sharing points", "color": "#41ab5d" }, "geometry": { "type": "Point", "coordinates": [ 3.8840259, 43.6198762 ] } },
{ "type": "Feature", "properties": { "index": "257", "@osmId": "node/1970352695", "name": "Les Aubes", "opening_hours": null, "label": "Bike-sharing points", "color": "#41ab5d" }, "geometry": { "type": "Point", "coordinates": [ 3.8937952, 43.618664 ] } },
{ "type": "Feature", "properties": { "index": "258", "@osmId": "node/1970352725", "name": "Richter", "opening_hours": null, "label": "Bike-sharing points", "color": "#41ab5d" }, "geometry": { "type": "Point", "coordinates": [ 3.8989223, 43.6037969 ] } },
{ "type": "Feature", "properties": { "index": "259", "@osmId": "node/2137050697", "name": "Marie Caizergues", "opening_hours": null, "label": "Bike-sharing points", "color": "#41ab5d" }, "geometry": { "type": "Point", "coordinates": [ 3.8737886, 43.6198729 ] } },
{ "type": "Feature", "properties": { "index": "260", "@osmId": "node/2950814163", "name": "Comédie", "opening_hours": null, "label": "Bike-sharing points", "color": "#41ab5d" }, "geometry": { "type": "Point", "coordinates": [ 3.8787624, 43.6081492 ] } },
{ "type": "Feature", "properties": { "index": "261", "@osmId": "node/3779581612", "name": "Antigone Centre", "opening_hours": null, "label": "Bike-sharing points", "color": "#41ab5d" }, "geometry": { "type": "Point", "coordinates": [ 3.8904657, 43.6079062 ] } },
{ "type": "Feature", "properties": { "index": "262", "@osmId": "node/3779581614", "name": "Esplanade", "opening_hours": null, "label": "Bike-sharing points", "color": "#41ab5d" }, "geometry": { "type": "Point", "coordinates": [ 3.8811981, 43.6095882 ] } },
{ "type": "Feature", "properties": { "index": "263", "@osmId": "node/3779581618", "name": "Médiathèque Émile Zola", "opening_hours": null, "label": "Bike-sharing points", "color": "#41ab5d" }, "geometry": { "type": "Point", "coordinates": [ 3.8930561, 43.6082468 ] } },
{ "type": "Feature", "properties": { "index": "264", "@osmId": "node/3779581619", "name": "Nombre d'Or", "opening_hours": null, "label": "Bike-sharing points", "color": "#41ab5d" }, "geometry": { "type": "Point", "coordinates": [ 3.8866534, 43.6079002 ] } },
{ "type": "Feature", "properties": { "index": "265", "@osmId": "node/3779581622", "name": "Port Marianne", "opening_hours": null, "label": "Bike-sharing points", "color": "#41ab5d" }, "geometry": { "type": "Point", "coordinates": [ 3.8984647, 43.6003794 ] } },
{ "type": "Feature", "properties": { "index": "266", "@osmId": "node/3779581625", "name": "Rondelet", "opening_hours": null, "label": "Bike-sharing points", "color": "#41ab5d" }, "geometry": { "type": "Point", "coordinates": [ 3.8757891, 43.6030505 ] } },
{ "type": "Feature", "properties": { "index": "267", "@osmId": "node/3779581627", "name": "Saint-Denis", "opening_hours": null, "label": "Bike-sharing points", "color": "#41ab5d" }, "geometry": { "type": "Point", "coordinates": [ 3.8750227, 43.6050394 ] } },
{ "type": "Feature", "properties": { "index": "268", "@osmId": "node/3779581629", "name": "Voltaire", "opening_hours": null, "label": "Bike-sharing points", "color": "#41ab5d" }, "geometry": { "type": "Point", "coordinates": [ 3.8885119, 43.603749 ] } },
{ "type": "Feature", "properties": { "index": "269", "@osmId": "node/3780907407", "name": "Beaux-Arts", "opening_hours": null, "label": "Bike-sharing points", "color": "#41ab5d" }, "geometry": { "type": "Point", "coordinates": [ 3.8849862, 43.6167043 ] } },
{ "type": "Feature", "properties": { "index": "270", "@osmId": "node/4039659471", "name": "Deux Ponts Gare Saint-Roch", "opening_hours": null, "label": "Bike-sharing points", "color": "#41ab5d" }, "geometry": { "type": "Point", "coordinates": [ 3.8810025, 43.604359 ] } },
{ "type": "Feature", "properties": { "index": "271", "@osmId": "node/6987299127", "name": null, "opening_hours": null, "label": "Bike-sharing points", "color": "#41ab5d" }, "geometry": { "type": "Point", "coordinates": [ 3.8938905, 43.6186788 ] } },
{ "type": "Feature", "properties": { "index": "272", "@osmId": "node/7552359634", "name": "Saint-Guilhem – Courreau", "opening_hours": null, "label": "Bike-sharing points", "color": "#41ab5d" }, "geometry": { "type": "Point", "coordinates": [ 3.8727765, 43.6089424 ] } },
{ "type": "Feature", "properties": { "index": "273", "@osmId": "node/11145980141", "name": null, "opening_hours": null, "label": "Bike-sharing points", "color": "#41ab5d" }, "geometry": { "type": "Point", "coordinates": [ 3.8793685, 43.6039055 ] } },
{ "type": "Feature", "properties": { "index": "274", "@osmId": "node/12174340326", "name": "Les Vélopolitains", "opening_hours": null, "label": "Bike-sharing points", "color": "#41ab5d" }, "geometry": { "type": "Point", "coordinates": [ 3.885416, 43.6056885 ] } },
{ "type": "Feature", "properties": { "index": "275", "@osmId": "node/12704832925", "name": null, "opening_hours": null, "label": "Bike-sharing points", "color": "#41ab5d" }, "geometry": { "type": "Point", "coordinates": [ 3.8774309, 43.6062543 ] } },
{ "type": "Feature", "properties": { "index": "276", "@osmId": "node/1970352668", "name": "Charles Flahault", "opening_hours": null, "label": "Bike-sharing points", "color": "#41ab5d" }, "geometry": { "type": "Point", "coordinates": [ 3.8659891, 43.6187686 ] } },
{ "type": "Feature", "properties": { "index": "277", "@osmId": "node/1970352719", "name": "Place Viala", "opening_hours": null, "label": "Bike-sharing points", "color": "#41ab5d" }, "geometry": { "type": "Point", "coordinates": [ 3.8550842, 43.6168167 ] } },
{ "type": "Feature", "properties": { "index": "278", "@osmId": "node/3780936450", "name": "Père Soulas", "opening_hours": null, "label": "Bike-sharing points", "color": "#41ab5d" }, "geometry": { "type": "Point", "coordinates": [ 3.855618, 43.6219699 ] } },
{ "type": "Feature", "properties": { "index": "279", "@osmId": "node/5299390853", "name": "Lodève", "opening_hours": null, "label": "Car-sharing points", "color": "#f16913" }, "geometry": { "type": "Point", "coordinates": [ 3.8643755, 43.6096377 ] } },
{ "type": "Feature", "properties": { "index": "280", "@osmId": "node/5299431322", "name": "Père Soulas", "opening_hours": null, "label": "Car-sharing points", "color": "#f16913" }, "geometry": { "type": "Point", "coordinates": [ 3.8637124, 43.6184151 ] } },
{ "type": "Feature", "properties": { "index": "281", "@osmId": "node/5299431323", "name": "Agriculture", "opening_hours": null, "label": "Car-sharing points", "color": "#f16913" }, "geometry": { "type": "Point", "coordinates": [ 3.8562512, 43.615521 ] } },
{ "type": "Feature", "properties": { "index": "282", "@osmId": "node/522795856", "name": "Europa", "opening_hours": null, "label": "Car-sharing points", "color": "#f16913" }, "geometry": { "type": "Point", "coordinates": [ 3.8928277, 43.6079283 ] } },
{ "type": "Feature", "properties": { "index": "283", "@osmId": "node/522809858", "name": "Carnot", "opening_hours": null, "label": "Car-sharing points", "color": "#f16913" }, "geometry": { "type": "Point", "coordinates": [ 3.8849886, 43.6032434 ] } },
{ "type": "Feature", "properties": { "index": "284", "@osmId": "node/522810311", "name": "Corum", "opening_hours": null, "label": "Car-sharing points", "color": "#f16913" }, "geometry": { "type": "Point", "coordinates": [ 3.881621, 43.612807 ] } },
{ "type": "Feature", "properties": { "index": "285", "@osmId": "node/522811545", "name": "Jeu de Mail des Abbés", "opening_hours": null, "label": "Car-sharing points", "color": "#f16913" }, "geometry": { "type": "Point", "coordinates": [ 3.8839408, 43.6197908 ] } },
{ "type": "Feature", "properties": { "index": "286", "@osmId": "node/576693413", "name": "Albert 1er", "opening_hours": null, "label": "Car-sharing points", "color": "#f16913" }, "geometry": { "type": "Point", "coordinates": [ 3.8730356, 43.6173138 ] } },
{ "type": "Feature", "properties": { "index": "287", "@osmId": "node/576701432", "name": "Arc de Triomphe", "opening_hours": null, "label": "Car-sharing points", "color": "#f16913" }, "geometry": { "type": "Point", "coordinates": [ 3.8727484, 43.6109823 ] } },
{ "type": "Feature", "properties": { "index": "288", "@osmId": "node/576702917", "name": "Gambetta", "opening_hours": null, "label": "Car-sharing points", "color": "#f16913" }, "geometry": { "type": "Point", "coordinates": [ 3.8690684, 43.6079992 ] } },
{ "type": "Feature", "properties": { "index": "289", "@osmId": "node/576712285", "name": "Port Marianne", "opening_hours": null, "label": "Car-sharing points", "color": "#f16913" }, "geometry": { "type": "Point", "coordinates": [ 3.9002343, 43.6019854 ] } },
{ "type": "Feature", "properties": { "index": "290", "@osmId": "node/576713413", "name": "Renouvier", "opening_hours": null, "label": "Car-sharing points", "color": "#f16913" }, "geometry": { "type": "Point", "coordinates": [ 3.8678316, 43.6031881 ] } },
{ "type": "Feature", "properties": { "index": "291", "@osmId": "node/1300409153", "name": "Comédie", "opening_hours": null, "label": "Car-sharing points", "color": "#f16913" }, "geometry": { "type": "Point", "coordinates": [ 3.8802495, 43.6087212 ] } },
{ "type": "Feature", "properties": { "index": "292", "@osmId": "node/2060773809", "name": "Beaux-Arts", "opening_hours": null, "label": "Car-sharing points", "color": "#f16913" }, "geometry": { "type": "Point", "coordinates": [ 3.8803169, 43.6164388 ] } },
{ "type": "Feature", "properties": { "index": "293", "@osmId": "node/2380676607", "name": "Gare Saint-Roch", "opening_hours": null, "label": "Car-sharing points", "color": "#f16913" }, "geometry": { "type": "Point", "coordinates": [ 3.8803625, 43.6026187 ] } },
{ "type": "Feature", "properties": { "index": "294", "@osmId": "node/4009816466", "name": "Vieille Poste", "opening_hours": null, "label": "Car-sharing points", "color": "#f16913" }, "geometry": { "type": "Point", "coordinates": [ 3.9037246, 43.6155121 ] } },
{ "type": "Feature", "properties": { "index": "295", "@osmId": "node/5299340990", "name": "Station d'autopartage Nouvelle mairie", "opening_hours": null, "label": "Car-sharing points", "color": "#f16913" }, "geometry": { "type": "Point", "coordinates": [ 3.894709, 43.6002954 ] } },
{ "type": "Feature", "properties": { "index": "296", "@osmId": "node/5299355962", "name": "Station d'autopartage Antigone", "opening_hours": null, "label": "Car-sharing points", "color": "#f16913" }, "geometry": { "type": "Point", "coordinates": [ 3.8864948, 43.6072959 ] } },
{ "type": "Feature", "properties": { "index": "297", "@osmId": "node/5299355963", "name": "Station d'autopartage parking Gambetta", "opening_hours": null, "label": "Car-sharing points", "color": "#f16913" }, "geometry": { "type": "Point", "coordinates": [ 3.874185, 43.6053726 ] } },
{ "type": "Feature", "properties": { "index": "298", "@osmId": "node/5299355964", "name": "Station d'autopartage Laissac-Durand", "opening_hours": null, "label": "Car-sharing points", "color": "#f16913" }, "geometry": { "type": "Point", "coordinates": [ 3.878041, 43.6051934 ] } },
{ "type": "Feature", "properties": { "index": "299", "@osmId": "node/5299355965", "name": "Station d'autopartage parking Saint-Roch", "opening_hours": null, "label": "Car-sharing points", "color": "#f16913" }, "geometry": { "type": "Point", "coordinates": [ 3.8788828, 43.6035225 ] } },
{ "type": "Feature", "properties": { "index": "300", "@osmId": "node/5299362334", "name": "Station d'autopartage Préfecture", "opening_hours": null, "label": "Car-sharing points", "color": "#f16913" }, "geometry": { "type": "Point", "coordinates": [ 3.8765433, 43.610631 ] } },
{ "type": "Feature", "properties": { "index": "301", "@osmId": "node/5299370888", "name": "Station d'autopartage Pont Juvénal", "opening_hours": null, "label": "Car-sharing points", "color": "#f16913" }, "geometry": { "type": "Point", "coordinates": [ 3.8842854, 43.6062687 ] } },
{ "type": "Feature", "properties": { "index": "302", "@osmId": "node/5299390854", "name": "Faubourg Saint-Jaumes", "opening_hours": null, "label": "Car-sharing points", "color": "#f16913" }, "geometry": { "type": "Point", "coordinates": [ 3.8695985, 43.6156735 ] } },
{ "type": "Feature", "properties": { "index": "303", "@osmId": "node/5299390855", "name": "Parking Corum", "opening_hours": null, "label": "Car-sharing points", "color": "#f16913" }, "geometry": { "type": "Point", "coordinates": [ 3.8814505, 43.6133539 ] } },
{ "type": "Feature", "properties": { "index": "304", "@osmId": "node/5299390856", "name": "Les Aubes", "opening_hours": null, "label": "Car-sharing points", "color": "#f16913" }, "geometry": { "type": "Point", "coordinates": [ 3.8922774, 43.6153853 ] } },
{ "type": "Feature", "properties": { "index": "305", "@osmId": "node/5299431321", "name": "Boutonnet", "opening_hours": null, "label": "Car-sharing points", "color": "#f16913" }, "geometry": { "type": "Point", "coordinates": [ 3.8712305, 43.6222604 ] } },
{ "type": "Feature", "properties": { "index": "306", "@osmId": "node/12192799703", "name": null, "opening_hours": null, "label": "Car-sharing points", "color": "#f16913" }, "geometry": { "type": "Point", "coordinates": [ 3.8886552, 43.6191573 ] } },
{ "type": "Feature", "properties": { "index": "307", "@osmId": "node/12588039696", "name": null, "opening_hours": null, "label": "Car-sharing points", "color": "#f16913" }, "geometry": { "type": "Point", "coordinates": [ 3.8874711, 43.6151121 ] } },
{ "type": "Feature", "properties": { "index": "308", "@osmId": "node/13272652258", "name": "Richter", "opening_hours": "24/7", "label": "Car-sharing points", "color": "#f16913" }, "geometry": { "type": "Point", "coordinates": [ 3.8992828, 43.6048445 ] } }
]
}
