{
"type": "FeatureCollection",
"features": [
{ "type": "Feature", "properties": { "index": "0", "label": "Within 200 m on foot", "color": "#2b8cbe" }, "geometry": { "type": "MultiPolygon", "coordinates": [ [ [ [ 8.6628709, 49.4002204 ], [ 8.6631035, 49.4001303 ], [ 8.6633125, 49.4000665 ], [ 8.6633531, 49.4000312 ], [ 8.6635356, 49.3999009 ], [ 8.6637369, 49.3997829 ], [ 8.6638719, 49.3997181 ], [ 8.6639583, 49.3996429 ], [ 8.6641408, 49.3995126 ], [ 8.6643421, 49.3993946 ], [ 8.66456, 49.3992901 ], [ 8.6646095, 49.3992709 ], [ 8.6646277, 49.3992622 ], [ 8.6648604, 49.3991721 ], [ 8.6651054, 49.3990973 ], [ 8.6651978, 49.3990761 ], [ 8.6652887, 49.3990227 ], [ 8.6653628, 49.3989872 ], [ 8.6653834, 49.398965 ], [ 8.6655225, 49.3988437 ], [ 8.6654482, 49.3987062 ], [ 8.6653836, 49.3985348 ], [ 8.6653451, 49.39836 ], [ 8.665333, 49.3981837 ], [ 8.6653475, 49.3980074 ], [ 8.6653489, 49.3980013 ], [ 8.6753726, 49.398003 ], [ 8.6753797, 49.398016 ], [ 8.6754443, 49.3981875 ], [ 8.6754828, 49.3983622 ], [ 8.6754949, 49.3985386 ], [ 8.6754805, 49.3987149 ], [ 8.6754396, 49.3988894 ], [ 8.6753728, 49.3990604 ], [ 8.6752805, 49.3992264 ], [ 8.6751638, 49.3993857 ], [ 8.6750238, 49.3995367 ], [ 8.6748617, 49.3996781 ], [ 8.6746792, 49.3998084 ], [ 8.674478, 49.3999264 ], [ 8.6743547, 49.3999855 ], [ 8.6743687, 49.399991 ], [ 8.6743797, 49.3999964 ], [ 8.6743936, 49.3999978 ], [ 8.6746558, 49.4000414 ], [ 8.6749101, 49.4001016 ], [ 8.6751541, 49.4001778 ], [ 8.6753855, 49.4002692 ], [ 8.6756021, 49.400375 ], [ 8.6758018, 49.4004941 ], [ 8.6759826, 49.4006254 ], [ 8.6761428, 49.4007677 ], [ 8.6762809, 49.4009195 ], [ 8.6763955, 49.4010794 ], [ 8.6764425, 49.4011664 ], [ 8.6764996, 49.4011684 ], [ 8.676767, 49.401195 ], [ 8.6770291, 49.4012386 ], [ 8.6772834, 49.4012988 ], [ 8.6775275, 49.401375 ], [ 8.6777589, 49.4014664 ], [ 8.6779755, 49.4015722 ], [ 8.6781752, 49.4016913 ], [ 8.678356, 49.4018226 ], [ 8.6785162, 49.4019648 ], [ 8.6785252, 49.4019747 ], [ 8.6785331, 49.4019817 ], [ 8.6785659, 49.4020178 ], [ 8.6787109, 49.4021465 ], [ 8.6787214, 49.402158 ], [ 8.6787253, 49.4021615 ], [ 8.6787296, 49.4021663 ], [ 8.6788343, 49.4022592 ], [ 8.6789843, 49.4022947 ], [ 8.6792283, 49.4023709 ], [ 8.6794598, 49.4024623 ], [ 8.6796764, 49.402568 ], [ 8.6798761, 49.4026872 ], [ 8.6800569, 49.4028185 ], [ 8.6801694, 49.4029184 ], [ 8.6803872, 49.4029546 ], [ 8.680407, 49.4029593 ], [ 8.6805285, 49.4029795 ], [ 8.6807828, 49.4030397 ], [ 8.6810269, 49.4031158 ], [ 8.6812584, 49.4032072 ], [ 8.681475, 49.403313 ], [ 8.6816746, 49.4034321 ], [ 8.6818555, 49.4035634 ], [ 8.6820157, 49.4037057 ], [ 8.6821538, 49.4038575 ], [ 8.6822684, 49.4040174 ], [ 8.6823585, 49.4041839 ], [ 8.6824231, 49.4043553 ], [ 8.6824617, 49.40453 ], [ 8.6824738, 49.4047064 ], [ 8.6824594, 49.4048827 ], [ 8.6824186, 49.4050572 ], [ 8.6823518, 49.4052283 ], [ 8.6822596, 49.4053943 ], [ 8.6821429, 49.4055535 ], [ 8.6820028, 49.4057046 ], [ 8.6818407, 49.4058459 ], [ 8.6816582, 49.4059762 ], [ 8.681457, 49.4060943 ], [ 8.681239, 49.4061988 ], [ 8.6810063, 49.4062889 ], [ 8.6807613, 49.4063637 ], [ 8.6805062, 49.4064225 ], [ 8.6802435, 49.4064647 ], [ 8.6800319, 49.4064846 ], [ 8.6800202, 49.4065348 ], [ 8.6799533, 49.4067058 ], [ 8.6798611, 49.4068718 ], [ 8.6797444, 49.4070311 ], [ 8.6796043, 49.4071821 ], [ 8.6794422, 49.4073235 ], [ 8.6792597, 49.4074538 ], [ 8.6790585, 49.4075718 ], [ 8.6790244, 49.4075881 ], [ 8.6790698, 49.4076381 ], [ 8.6791507, 49.407751 ], [ 8.6793907, 49.4077749 ], [ 8.6796528, 49.4078185 ], [ 8.6799072, 49.4078787 ], [ 8.6801513, 49.4079549 ], [ 8.6803827, 49.4080463 ], [ 8.6805877, 49.4081463 ], [ 8.6805834, 49.4080834 ], [ 8.6805978, 49.4079071 ], [ 8.6806386, 49.4077326 ], [ 8.6807055, 49.4075615 ], [ 8.6807977, 49.4073956 ], [ 8.6809144, 49.4072363 ], [ 8.6810545, 49.4070852 ], [ 8.6812165, 49.4069439 ], [ 8.6813991, 49.4068136 ], [ 8.6814073, 49.4068087 ], [ 8.6814136, 49.4068043 ], [ 8.6815029, 49.4067519 ], [ 8.6815509, 49.4066655 ], [ 8.6816676, 49.4065062 ], [ 8.6818077, 49.4063552 ], [ 8.6819698, 49.4062138 ], [ 8.6821523, 49.4060835 ], [ 8.6823535, 49.4059655 ], [ 8.6825715, 49.4058609 ], [ 8.6828041, 49.4057708 ], [ 8.6830492, 49.405696 ], [ 8.6833043, 49.4056372 ], [ 8.683567, 49.405595 ], [ 8.6838348, 49.4055699 ], [ 8.684105, 49.4055619 ], [ 8.6841826, 49.4055646 ], [ 8.6842064, 49.4055639 ], [ 8.684233, 49.4055649 ], [ 8.6842244, 49.4055259 ], [ 8.6842122, 49.4053495 ], [ 8.6842266, 49.4051732 ], [ 8.6842674, 49.4049987 ], [ 8.6843343, 49.4048276 ], [ 8.6844165, 49.4046796 ], [ 8.6843878, 49.4046266 ], [ 8.6843232, 49.4044552 ], [ 8.6842846, 49.4042805 ], [ 8.6842725, 49.4041041 ], [ 8.6842869, 49.4039278 ], [ 8.6843277, 49.4037533 ], [ 8.6843306, 49.403746 ], [ 8.6841102, 49.4036939 ], [ 8.6838662, 49.4036177 ], [ 8.6836347, 49.4035263 ], [ 8.6834181, 49.4034205 ], [ 8.6832184, 49.4033014 ], [ 8.6830376, 49.4031701 ], [ 8.6828773, 49.4030279 ], [ 8.6827392, 49.4028761 ], [ 8.6826246, 49.4027162 ], [ 8.6825345, 49.4025497 ], [ 8.6824699, 49.4023783 ], [ 8.6824313, 49.4022035 ], [ 8.6824192, 49.4020272 ], [ 8.6824336, 49.4018509 ], [ 8.6824744, 49.4016763 ], [ 8.6824889, 49.4016393 ], [ 8.6825288, 49.4014685 ], [ 8.6825957, 49.4012975 ], [ 8.6826879, 49.4011315 ], [ 8.6826929, 49.4011246 ], [ 8.6827009, 49.4011103 ], [ 8.6828176, 49.400951 ], [ 8.6829576, 49.4008 ], [ 8.6831197, 49.4006586 ], [ 8.6833022, 49.4005283 ], [ 8.6835034, 49.4004103 ], [ 8.6837213, 49.4003057 ], [ 8.6839539, 49.4002156 ], [ 8.684199, 49.4001408 ], [ 8.6843915, 49.4000964 ], [ 8.6843935, 49.4000878 ], [ 8.6844603, 49.3999167 ], [ 8.6844739, 49.3998923 ], [ 8.6843078, 49.3998113 ], [ 8.6841082, 49.3996922 ], [ 8.6839274, 49.3995609 ], [ 8.6837671, 49.3994186 ], [ 8.683629, 49.3992668 ], [ 8.6835144, 49.3991069 ], [ 8.6834243, 49.3989404 ], [ 8.6833597, 49.398769 ], [ 8.6833211, 49.3985942 ], [ 8.683309, 49.3984179 ], [ 8.6833234, 49.3982416 ], [ 8.6833642, 49.3980671 ], [ 8.683389, 49.3980037 ], [ 8.695368, 49.3980038 ], [ 8.6953918, 49.3981115 ], [ 8.695404, 49.3982879 ], [ 8.6953896, 49.3984642 ], [ 8.6953489, 49.3986387 ], [ 8.6952821, 49.3988098 ], [ 8.6951899, 49.3989758 ], [ 8.6950733, 49.3991351 ], [ 8.6949333, 49.3992861 ], [ 8.6947712, 49.3994275 ], [ 8.6945888, 49.3995578 ], [ 8.6943876, 49.3996759 ], [ 8.6941697, 49.3997805 ], [ 8.6940756, 49.3998169 ], [ 8.6940931, 49.3998963 ], [ 8.6941053, 49.4000726 ], [ 8.6940909, 49.4002489 ], [ 8.6940501, 49.4004234 ], [ 8.6939834, 49.4005945 ], [ 8.6938912, 49.4007605 ], [ 8.6937745, 49.4009198 ], [ 8.6936345, 49.4010709 ], [ 8.6934725, 49.4012122 ], [ 8.69329, 49.4013426 ], [ 8.6930888, 49.4014606 ], [ 8.6928709, 49.4015652 ], [ 8.6926383, 49.4016553 ], [ 8.6923933, 49.4017301 ], [ 8.6921382, 49.4017889 ], [ 8.6918755, 49.4018311 ], [ 8.6916078, 49.4018563 ], [ 8.6913375, 49.4018643 ], [ 8.6910674, 49.4018549 ], [ 8.6908, 49.4018283 ], [ 8.6905378, 49.4017847 ], [ 8.6902835, 49.4017245 ], [ 8.6900394, 49.4016484 ], [ 8.689808, 49.401557 ], [ 8.6895913, 49.4014512 ], [ 8.689508, 49.4014016 ], [ 8.6894993, 49.401411 ], [ 8.6894834, 49.4014249 ], [ 8.6894602, 49.4014499 ], [ 8.6893784, 49.4015212 ], [ 8.6894943, 49.4015778 ], [ 8.689694, 49.4016969 ], [ 8.6898748, 49.4018282 ], [ 8.6900351, 49.4019704 ], [ 8.6901732, 49.4021222 ], [ 8.6902878, 49.4022821 ], [ 8.6903779, 49.4024486 ], [ 8.6904426, 49.40262 ], [ 8.6904812, 49.4027947 ], [ 8.6904844, 49.4028413 ], [ 8.6904886, 49.4028602 ], [ 8.690496, 49.4029677 ], [ 8.690498, 49.4029767 ], [ 8.6904997, 49.4030009 ], [ 8.6906956, 49.4030334 ], [ 8.6909499, 49.4030936 ], [ 8.691194, 49.4031697 ], [ 8.6914254, 49.4032611 ], [ 8.6916421, 49.4033669 ], [ 8.6918418, 49.4034859 ], [ 8.6920226, 49.4036172 ], [ 8.6921829, 49.4037595 ], [ 8.692321, 49.4039113 ], [ 8.6924357, 49.4040712 ], [ 8.6925258, 49.4042376 ], [ 8.6925905, 49.4044091 ], [ 8.6926291, 49.4045838 ], [ 8.6926413, 49.4047602 ], [ 8.6926269, 49.4049365 ], [ 8.6925861, 49.405111 ], [ 8.6925193, 49.4052821 ], [ 8.6924271, 49.405448 ], [ 8.6923104, 49.4056073 ], [ 8.6922744, 49.4056462 ], [ 8.692432, 49.4055981 ], [ 8.6926871, 49.4055393 ], [ 8.6929498, 49.4054971 ], [ 8.6932175, 49.4054719 ], [ 8.6934878, 49.4054639 ], [ 8.693758, 49.4054733 ], [ 8.6937996, 49.4054775 ], [ 8.6938342, 49.4054695 ], [ 8.6940969, 49.4054273 ], [ 8.6942017, 49.4054174 ], [ 8.6941137, 49.4053207 ], [ 8.693999, 49.4051608 ], [ 8.6939089, 49.4049944 ], [ 8.6938442, 49.4048229 ], [ 8.6938056, 49.4046482 ], [ 8.6937935, 49.4044718 ], [ 8.6938078, 49.4042955 ], [ 8.6938486, 49.404121 ], [ 8.6939154, 49.4039499 ], [ 8.6940076, 49.403784 ], [ 8.6941242, 49.4036247 ], [ 8.6942643, 49.4034736 ], [ 8.6944263, 49.4033322 ], [ 8.6946088, 49.4032019 ], [ 8.69481, 49.4030839 ], [ 8.6950279, 49.4029793 ], [ 8.6952605, 49.4028891 ], [ 8.6955055, 49.4028143 ], [ 8.6957606, 49.4027555 ], [ 8.6960233, 49.4027133 ], [ 8.6960566, 49.4027101 ], [ 8.696184, 49.4026897 ], [ 8.6964517, 49.4026645 ], [ 8.696722, 49.4026565 ], [ 8.6969921, 49.4026659 ], [ 8.6972596, 49.4026925 ], [ 8.6975217, 49.4027361 ], [ 8.6977761, 49.4027962 ], [ 8.6980201, 49.4028723 ], [ 8.6982516, 49.4029637 ], [ 8.6984683, 49.4030694 ], [ 8.698668, 49.4031885 ], [ 8.6988489, 49.4033198 ], [ 8.6990092, 49.403462 ], [ 8.6991473, 49.4036138 ], [ 8.699262, 49.4037737 ], [ 8.6993105, 49.4038633 ], [ 8.6995617, 49.4038229 ], [ 8.6998295, 49.4037977 ], [ 8.7000998, 49.4037897 ], [ 8.7003699, 49.4037991 ], [ 8.7006374, 49.4038257 ], [ 8.7008995, 49.4038693 ], [ 8.7011539, 49.4039294 ], [ 8.701398, 49.4040055 ], [ 8.7016295, 49.4040969 ], [ 8.7018461, 49.4042026 ], [ 8.7020459, 49.4043217 ], [ 8.7022185, 49.404447 ], [ 8.7023378, 49.4043897 ], [ 8.7025704, 49.4042995 ], [ 8.7028154, 49.4042247 ], [ 8.7030705, 49.4041658 ], [ 8.7033332, 49.4041236 ], [ 8.703601, 49.4040984 ], [ 8.7038712, 49.4040904 ], [ 8.7041414, 49.4040998 ], [ 8.7044088, 49.4041264 ], [ 8.704671, 49.4041699 ], [ 8.7049254, 49.4042301 ], [ 8.7051695, 49.4043062 ], [ 8.705401, 49.4043975 ], [ 8.7056176, 49.4045032 ], [ 8.7058174, 49.4046223 ], [ 8.7059983, 49.4047536 ], [ 8.7061586, 49.4048958 ], [ 8.7062968, 49.4050476 ], [ 8.7063869, 49.4051732 ], [ 8.7063959, 49.4051569 ], [ 8.7065126, 49.4049976 ], [ 8.7066525, 49.4048466 ], [ 8.7068145, 49.4047052 ], [ 8.706997, 49.4045748 ], [ 8.7071982, 49.4044568 ], [ 8.7074161, 49.4043521 ], [ 8.7076487, 49.404262 ], [ 8.7078937, 49.4041871 ], [ 8.7081487, 49.4041283 ], [ 8.7084114, 49.404086 ], [ 8.7086792, 49.4040608 ], [ 8.7089494, 49.4040528 ], [ 8.7092196, 49.4040622 ], [ 8.709487, 49.4040887 ], [ 8.7097492, 49.4041323 ], [ 8.7100036, 49.4041924 ], [ 8.7102477, 49.4042685 ], [ 8.7102704, 49.4042775 ], [ 8.7103732, 49.4043095 ], [ 8.7106047, 49.4044009 ], [ 8.7108214, 49.4045066 ], [ 8.7110211, 49.4046256 ], [ 8.7110734, 49.4046635 ], [ 8.7111577, 49.4047047 ], [ 8.7113574, 49.4048237 ], [ 8.7115383, 49.404955 ], [ 8.7116987, 49.4050972 ], [ 8.7118369, 49.405249 ], [ 8.7119095, 49.4053501 ], [ 8.7119489, 49.405341 ], [ 8.7122116, 49.4052988 ], [ 8.7124793, 49.4052735 ], [ 8.7127496, 49.4052655 ], [ 8.7130198, 49.4052749 ], [ 8.7132872, 49.4053014 ], [ 8.7135494, 49.405345 ], [ 8.7138038, 49.4054051 ], [ 8.7139667, 49.4054559 ], [ 8.7140297, 49.4054413 ], [ 8.7142924, 49.4053991 ], [ 8.7145602, 49.4053738 ], [ 8.7146449, 49.4053713 ], [ 8.7145828, 49.4052566 ], [ 8.7145181, 49.4050852 ], [ 8.7144794, 49.4049105 ], [ 8.7144671, 49.4047341 ], [ 8.7144814, 49.4045578 ], [ 8.7145221, 49.4043833 ], [ 8.7145889, 49.4042122 ], [ 8.714681, 49.4040462 ], [ 8.7147976, 49.4038869 ], [ 8.7149375, 49.4037358 ], [ 8.7150995, 49.4035944 ], [ 8.7152819, 49.403464 ], [ 8.7154831, 49.403346 ], [ 8.715701, 49.4032414 ], [ 8.7159335, 49.4031512 ], [ 8.7161785, 49.4030763 ], [ 8.7164336, 49.4030174 ], [ 8.7166962, 49.4029752 ], [ 8.716964, 49.4029499 ], [ 8.7172342, 49.4029419 ], [ 8.7175044, 49.4029512 ], [ 8.7177718, 49.4029778 ], [ 8.718034, 49.4030213 ], [ 8.7182884, 49.4030814 ], [ 8.7185325, 49.4031575 ], [ 8.718764, 49.4032488 ], [ 8.7189807, 49.4033545 ], [ 8.7191805, 49.4034736 ], [ 8.7193614, 49.4036048 ], [ 8.7195218, 49.403747 ], [ 8.71966, 49.4038988 ], [ 8.7197747, 49.4040587 ], [ 8.7198649, 49.4042251 ], [ 8.7199297, 49.4043965 ], [ 8.7199684, 49.4045712 ], [ 8.7199807, 49.4047476 ], [ 8.7199664, 49.4049239 ], [ 8.7199257, 49.4050984 ], [ 8.719859, 49.4052695 ], [ 8.7197669, 49.4054355 ], [ 8.7196503, 49.4055949 ], [ 8.7195104, 49.4057459 ], [ 8.7193484, 49.4058873 ], [ 8.719166, 49.4060177 ], [ 8.7189648, 49.4061358 ], [ 8.7187469, 49.4062404 ], [ 8.7185144, 49.4063306 ], [ 8.7182694, 49.4064055 ], [ 8.7180143, 49.4064644 ], [ 8.7177516, 49.4065066 ], [ 8.7175934, 49.4065215 ], [ 8.7176103, 49.406545 ], [ 8.7177005, 49.4067115 ], [ 8.71776, 49.4068691 ], [ 8.717963, 49.4068499 ], [ 8.7182333, 49.4068419 ], [ 8.7185035, 49.4068512 ], [ 8.7187709, 49.4068778 ], [ 8.7190331, 49.4069213 ], [ 8.7192875, 49.4069814 ], [ 8.7195317, 49.4070575 ], [ 8.7197632, 49.4071488 ], [ 8.7199799, 49.4072545 ], [ 8.72, 49.4072665 ], [ 8.72, 49.4168458 ], [ 8.7199197, 49.4168482 ], [ 8.7196494, 49.4168389 ], [ 8.7193819, 49.4168123 ], [ 8.7191197, 49.4167688 ], [ 8.7188652, 49.4167087 ], [ 8.718621, 49.4166326 ], [ 8.7186076, 49.4166273 ], [ 8.7185989, 49.4166246 ], [ 8.7183673, 49.4165333 ], [ 8.7181506, 49.4164276 ], [ 8.7179508, 49.4163085 ], [ 8.7177698, 49.4161773 ], [ 8.7176094, 49.4160351 ], [ 8.7174712, 49.4158833 ], [ 8.7174248, 49.4158188 ], [ 8.7173436, 49.4158107 ], [ 8.7170814, 49.4157672 ], [ 8.716827, 49.4157071 ], [ 8.7166035, 49.4156374 ], [ 8.7164025, 49.4156564 ], [ 8.7161322, 49.4156644 ], [ 8.715862, 49.415655 ], [ 8.7155945, 49.4156285 ], [ 8.715571, 49.4156246 ], [ 8.7153785, 49.4156555 ], [ 8.7153583, 49.415742 ], [ 8.7152916, 49.415913 ], [ 8.7151995, 49.416079 ], [ 8.7150829, 49.4162383 ], [ 8.7149429, 49.4163894 ], [ 8.7147809, 49.4165308 ], [ 8.7145984, 49.4166612 ], [ 8.7143972, 49.4167793 ], [ 8.7141792, 49.4168839 ], [ 8.7139466, 49.4169741 ], [ 8.7137015, 49.4170489 ], [ 8.7134464, 49.4171078 ], [ 8.7132625, 49.4171374 ], [ 8.7133565, 49.4172055 ], [ 8.7135169, 49.4173477 ], [ 8.7136552, 49.4174995 ], [ 8.7137699, 49.4176594 ], [ 8.7138601, 49.4178258 ], [ 8.7139249, 49.4179973 ], [ 8.7139636, 49.418172 ], [ 8.7139758, 49.4183484 ], [ 8.7139615, 49.4185247 ], [ 8.7139208, 49.4186992 ], [ 8.7139151, 49.4187137 ], [ 8.7139117, 49.4187555 ], [ 8.713871, 49.41893 ], [ 8.7138043, 49.4191011 ], [ 8.7137574, 49.4191856 ], [ 8.7137663, 49.419198 ], [ 8.7138565, 49.4193644 ], [ 8.7139213, 49.4195359 ], [ 8.71396, 49.4197106 ], [ 8.7139722, 49.419887 ], [ 8.7139579, 49.4200633 ], [ 8.7139172, 49.4202378 ], [ 8.7138504, 49.4204089 ], [ 8.7137583, 49.4205749 ], [ 8.7136417, 49.4207342 ], [ 8.7135016, 49.4208853 ], [ 8.7133396, 49.4210267 ], [ 8.7131571, 49.421157 ], [ 8.7129559, 49.4212751 ], [ 8.7127379, 49.4213797 ], [ 8.7125053, 49.4214699 ], [ 8.7122602, 49.4215448 ], [ 8.712005, 49.4216036 ], [ 8.7117422, 49.4216458 ], [ 8.7114744, 49.4216711 ], [ 8.711204, 49.4216791 ], [ 8.7109338, 49.4216697 ], [ 8.7106662, 49.4216432 ], [ 8.710404, 49.4215996 ], [ 8.7101495, 49.4215395 ], [ 8.7099053, 49.4214634 ], [ 8.7096737, 49.4213721 ], [ 8.709457, 49.4212663 ], [ 8.7092572, 49.4211473 ], [ 8.7090762, 49.421016 ], [ 8.7089158, 49.4208738 ], [ 8.7087776, 49.420722 ], [ 8.7086628, 49.4205621 ], [ 8.7086317, 49.4205047 ], [ 8.7086222, 49.4205025 ], [ 8.708378, 49.4204264 ], [ 8.7081464, 49.420335 ], [ 8.7079912, 49.4202593 ], [ 8.7079873, 49.4202602 ], [ 8.7077245, 49.4203025 ], [ 8.7074566, 49.4203277 ], [ 8.7071863, 49.4203357 ], [ 8.7069161, 49.4203263 ], [ 8.7068898, 49.4203237 ], [ 8.7066989, 49.4203677 ], [ 8.7066839, 49.4203702 ], [ 8.7066549, 49.4204097 ], [ 8.7066438, 49.4204217 ], [ 8.7066369, 49.4204311 ], [ 8.7064969, 49.4205822 ], [ 8.7063348, 49.4207236 ], [ 8.7061523, 49.4208539 ], [ 8.7059511, 49.420972 ], [ 8.7057331, 49.4210766 ], [ 8.7055004, 49.4211668 ], [ 8.7052553, 49.4212416 ], [ 8.7050002, 49.4213004 ], [ 8.7047374, 49.4213427 ], [ 8.7044695, 49.4213679 ], [ 8.7041992, 49.4213759 ], [ 8.7039289, 49.4213665 ], [ 8.7036614, 49.4213399 ], [ 8.7033991, 49.4212964 ], [ 8.7031841, 49.4212455 ], [ 8.703025, 49.4212297 ], [ 8.7027627, 49.4211861 ], [ 8.7025083, 49.421126 ], [ 8.7022641, 49.4210499 ], [ 8.7020325, 49.4209585 ], [ 8.7018158, 49.4208528 ], [ 8.701616, 49.4207337 ], [ 8.701435, 49.4206025 ], [ 8.7012747, 49.4204603 ], [ 8.7011365, 49.4203085 ], [ 8.7010217, 49.4201486 ], [ 8.7009316, 49.4199821 ], [ 8.7008669, 49.4198107 ], [ 8.7008282, 49.419636 ], [ 8.700826, 49.4196033 ], [ 8.7007477, 49.4196107 ], [ 8.7004774, 49.4196187 ], [ 8.7004514, 49.4196178 ], [ 8.7004588, 49.4197243 ], [ 8.7004444, 49.4199006 ], [ 8.7004037, 49.4200751 ], [ 8.7003369, 49.4202462 ], [ 8.7002447, 49.4204122 ], [ 8.700128, 49.4205715 ], [ 8.699988, 49.4207225 ], [ 8.6998259, 49.4208639 ], [ 8.6996434, 49.4209942 ], [ 8.6994421, 49.4211123 ], [ 8.6992241, 49.4212169 ], [ 8.6989914, 49.421307 ], [ 8.6987463, 49.4213819 ], [ 8.6984911, 49.4214407 ], [ 8.6982284, 49.4214829 ], [ 8.6979605, 49.4215081 ], [ 8.6976901, 49.4215161 ], [ 8.6974199, 49.4215067 ], [ 8.6971524, 49.4214801 ], [ 8.6968901, 49.4214365 ], [ 8.6966357, 49.4213764 ], [ 8.6963915, 49.4213002 ], [ 8.6961599, 49.4212089 ], [ 8.6959432, 49.4211031 ], [ 8.6957434, 49.420984 ], [ 8.6956339, 49.4209045 ], [ 8.6956271, 49.4209876 ], [ 8.6955863, 49.4211621 ], [ 8.6955195, 49.4213332 ], [ 8.6954273, 49.4214992 ], [ 8.6953106, 49.4216585 ], [ 8.6951705, 49.4218095 ], [ 8.6950084, 49.4219509 ], [ 8.6949343, 49.4220038 ], [ 8.6908336, 49.4220039 ], [ 8.6907449, 49.4219396 ], [ 8.6905846, 49.4217973 ], [ 8.6904464, 49.4216455 ], [ 8.6903317, 49.4214856 ], [ 8.6902416, 49.4213192 ], [ 8.6901769, 49.4211477 ], [ 8.6901383, 49.420973 ], [ 8.6901261, 49.4207966 ], [ 8.6901405, 49.4206203 ], [ 8.6901813, 49.4204458 ], [ 8.6902482, 49.4202747 ], [ 8.6903404, 49.4201088 ], [ 8.6904571, 49.4199495 ], [ 8.6905761, 49.4198212 ], [ 8.6904238, 49.4196861 ], [ 8.6902856, 49.4195343 ], [ 8.6901709, 49.4193744 ], [ 8.6900808, 49.419208 ], [ 8.6900161, 49.4190365 ], [ 8.6899775, 49.4188618 ], [ 8.6899654, 49.4186854 ], [ 8.6899798, 49.4185091 ], [ 8.6900206, 49.4183346 ], [ 8.6900874, 49.4181635 ], [ 8.6901411, 49.4180669 ], [ 8.6900188, 49.4179326 ], [ 8.6899041, 49.4177727 ], [ 8.689814, 49.4176063 ], [ 8.6897493, 49.4174348 ], [ 8.6897107, 49.4172601 ], [ 8.6896986, 49.4170837 ], [ 8.6897129, 49.4169074 ], [ 8.6897538, 49.4167329 ], [ 8.6898175, 49.4165697 ], [ 8.6896162, 49.4165363 ], [ 8.6893618, 49.4164761 ], [ 8.6891177, 49.4164 ], [ 8.6888862, 49.4163086 ], [ 8.6886695, 49.4162028 ], [ 8.6884697, 49.4160837 ], [ 8.6882888, 49.4159524 ], [ 8.6881285, 49.4158102 ], [ 8.6879904, 49.4156584 ], [ 8.6878757, 49.4154985 ], [ 8.6877856, 49.415332 ], [ 8.6877209, 49.4151606 ], [ 8.6876823, 49.4149859 ], [ 8.6876764, 49.4149002 ], [ 8.6876713, 49.4148865 ], [ 8.6876381, 49.4147363 ], [ 8.6876215, 49.4147335 ], [ 8.6875009, 49.414705 ], [ 8.6873615, 49.4146818 ], [ 8.6871071, 49.4146217 ], [ 8.6871006, 49.4146197 ], [ 8.6869671, 49.4145881 ], [ 8.6868932, 49.414565 ], [ 8.6868704, 49.4145612 ], [ 8.686616, 49.4145011 ], [ 8.686483, 49.4144596 ], [ 8.686458, 49.4144554 ], [ 8.6862287, 49.4144012 ], [ 8.6861946, 49.4143955 ], [ 8.6861897, 49.4143944 ], [ 8.6860809, 49.4143976 ], [ 8.6858107, 49.4143882 ], [ 8.6858065, 49.4143877 ], [ 8.685764, 49.4143863 ], [ 8.6857121, 49.4143811 ], [ 8.6856565, 49.4143792 ], [ 8.6856346, 49.414377 ], [ 8.685614, 49.4143763 ], [ 8.6855355, 49.4143685 ], [ 8.6855175, 49.4143701 ], [ 8.6852472, 49.4143781 ], [ 8.684977, 49.4143687 ], [ 8.6849361, 49.4143646 ], [ 8.6849296, 49.4143644 ], [ 8.6849014, 49.4143616 ], [ 8.6848585, 49.4143601 ], [ 8.6848126, 49.4143555 ], [ 8.6848117, 49.4143555 ], [ 8.6847112, 49.4143455 ], [ 8.6846883, 49.4143447 ], [ 8.6846624, 49.4143421 ], [ 8.6846388, 49.4143413 ], [ 8.6845423, 49.4143317 ], [ 8.6845223, 49.414331 ], [ 8.684322, 49.414311 ], [ 8.6842887, 49.4143099 ], [ 8.6842253, 49.4143036 ], [ 8.6842169, 49.4143033 ], [ 8.6841825, 49.4142998 ], [ 8.6841716, 49.4142995 ], [ 8.6841222, 49.4142946 ], [ 8.6841025, 49.4142939 ], [ 8.6840828, 49.4142919 ], [ 8.6840558, 49.414291 ], [ 8.6839112, 49.4142766 ], [ 8.6839204, 49.4143179 ], [ 8.6839325, 49.4144943 ], [ 8.6839181, 49.4146706 ], [ 8.6838773, 49.4148451 ], [ 8.6838104, 49.4150162 ], [ 8.6837182, 49.4151821 ], [ 8.6836015, 49.4153414 ], [ 8.6834614, 49.4154925 ], [ 8.6832993, 49.4156338 ], [ 8.6832071, 49.4156996 ], [ 8.6832197, 49.4157045 ], [ 8.6834364, 49.4158103 ], [ 8.6836361, 49.4159294 ], [ 8.683817, 49.4160607 ], [ 8.6839773, 49.4162029 ], [ 8.6841154, 49.4163547 ], [ 8.6842301, 49.4165147 ], [ 8.6843202, 49.4166811 ], [ 8.684344, 49.4167444 ], [ 8.6843871, 49.4168239 ], [ 8.6844517, 49.4169954 ], [ 8.6844903, 49.4171701 ], [ 8.6845025, 49.4173465 ], [ 8.684488, 49.4175227 ], [ 8.6844847, 49.4175369 ], [ 8.6845092, 49.4175466 ], [ 8.6847259, 49.4176524 ], [ 8.6849256, 49.4177715 ], [ 8.6851065, 49.4179028 ], [ 8.6852224, 49.4180056 ], [ 8.6853838, 49.4179431 ], [ 8.6856289, 49.4178683 ], [ 8.6858841, 49.4178095 ], [ 8.6861469, 49.4177673 ], [ 8.6864147, 49.4177422 ], [ 8.6866851, 49.4177342 ], [ 8.6869553, 49.4177436 ], [ 8.6870084, 49.4177489 ], [ 8.6870317, 49.4177497 ], [ 8.6870848, 49.417755 ], [ 8.6871081, 49.4177558 ], [ 8.6871597, 49.417761 ], [ 8.6871844, 49.4177618 ], [ 8.6874519, 49.4177885 ], [ 8.6877141, 49.4178321 ], [ 8.6879685, 49.4178922 ], [ 8.6882127, 49.4179684 ], [ 8.6884442, 49.4180598 ], [ 8.6886609, 49.4181655 ], [ 8.6888606, 49.4182846 ], [ 8.6890416, 49.4184159 ], [ 8.6892019, 49.4185581 ], [ 8.68934, 49.4187099 ], [ 8.6894547, 49.4188698 ], [ 8.6895448, 49.4190363 ], [ 8.6895461, 49.4190396 ], [ 8.6895788, 49.4191001 ], [ 8.6896435, 49.4192715 ], [ 8.6896821, 49.4194463 ], [ 8.6896943, 49.4196226 ], [ 8.6896799, 49.4197989 ], [ 8.6896717, 49.4198339 ], [ 8.6896628, 49.419943 ], [ 8.6896508, 49.4199944 ], [ 8.6896501, 49.4200028 ], [ 8.6896459, 49.4200209 ], [ 8.689641, 49.4200806 ], [ 8.689637, 49.420098 ], [ 8.689632, 49.4201585 ], [ 8.6896199, 49.4202105 ], [ 8.6896192, 49.4202183 ], [ 8.6895784, 49.4203929 ], [ 8.689575, 49.4204015 ], [ 8.6895787, 49.420455 ], [ 8.6895643, 49.4206313 ], [ 8.6895525, 49.4206819 ], [ 8.689552, 49.4206876 ], [ 8.6895413, 49.4207335 ], [ 8.6895473, 49.4208197 ], [ 8.6895329, 49.420996 ], [ 8.6895046, 49.4211171 ], [ 8.6895022, 49.4211463 ], [ 8.6894614, 49.4213209 ], [ 8.6893945, 49.4214919 ], [ 8.6893023, 49.4216579 ], [ 8.6891856, 49.4218172 ], [ 8.6890455, 49.4219682 ], [ 8.6890046, 49.4220039 ], [ 8.671486, 49.4220024 ], [ 8.6714823, 49.4219955 ], [ 8.6714177, 49.4218241 ], [ 8.6713791, 49.4216494 ], [ 8.671367, 49.421473 ], [ 8.6713815, 49.4212967 ], [ 8.6714223, 49.4211222 ], [ 8.6714589, 49.4210288 ], [ 8.671406, 49.4210858 ], [ 8.671334, 49.4211486 ], [ 8.6713037, 49.4211812 ], [ 8.6711415, 49.4213225 ], [ 8.6709589, 49.4214528 ], [ 8.6707576, 49.4215708 ], [ 8.6705395, 49.4216754 ], [ 8.6703068, 49.4217655 ], [ 8.6700616, 49.4218402 ], [ 8.6698064, 49.421899 ], [ 8.6695436, 49.4219411 ], [ 8.6692758, 49.4219663 ], [ 8.6691561, 49.4219698 ], [ 8.6691337, 49.4219719 ], [ 8.6688633, 49.4219798 ], [ 8.6685931, 49.4219703 ], [ 8.6683255, 49.4219437 ], [ 8.6680633, 49.4219 ], [ 8.6678089, 49.4218398 ], [ 8.6675648, 49.4217636 ], [ 8.6673332, 49.4216722 ], [ 8.6671166, 49.4215664 ], [ 8.6669169, 49.4214473 ], [ 8.666736, 49.4213159 ], [ 8.6665758, 49.4211737 ], [ 8.6664377, 49.4210218 ], [ 8.666323, 49.4208619 ], [ 8.666233, 49.4206954 ], [ 8.6661684, 49.420524 ], [ 8.6661536, 49.4204567 ], [ 8.6658839, 49.4204473 ], [ 8.6658115, 49.4204401 ], [ 8.665789, 49.420447 ], [ 8.6655338, 49.4205057 ], [ 8.665271, 49.4205479 ], [ 8.6650031, 49.420573 ], [ 8.6647327, 49.4205809 ], [ 8.6644625, 49.4205714 ], [ 8.664195, 49.4205447 ], [ 8.6639328, 49.4205011 ], [ 8.6636784, 49.4204409 ], [ 8.6634343, 49.4203647 ], [ 8.6632028, 49.4202732 ], [ 8.6629861, 49.4201674 ], [ 8.6627864, 49.4200483 ], [ 8.6626056, 49.4199169 ], [ 8.6624453, 49.4197747 ], [ 8.6623073, 49.4196228 ], [ 8.6621926, 49.4194629 ], [ 8.6621026, 49.4192964 ], [ 8.662038, 49.419125 ], [ 8.6619995, 49.4189502 ], [ 8.6619875, 49.4187739 ], [ 8.662002, 49.4185976 ], [ 8.6620429, 49.4184231 ], [ 8.6621098, 49.418252 ], [ 8.6622021, 49.4180861 ], [ 8.6622423, 49.4180312 ], [ 8.662173, 49.4180243 ], [ 8.6619108, 49.4179807 ], [ 8.6616565, 49.4179204 ], [ 8.6614124, 49.4178442 ], [ 8.6611809, 49.4177528 ], [ 8.6609643, 49.417647 ], [ 8.6607646, 49.4175279 ], [ 8.6605837, 49.4173965 ], [ 8.6604235, 49.4172542 ], [ 8.6602854, 49.4171024 ], [ 8.6601708, 49.4169425 ], [ 8.6600808, 49.416776 ], [ 8.6600163, 49.4166045 ], [ 8.66, 49.4165307 ], [ 8.66, 49.4159927 ], [ 8.6600211, 49.4159026 ], [ 8.6600462, 49.4158385 ], [ 8.66, 49.4158276 ], [ 8.66, 49.4123863 ], [ 8.6600919, 49.4123652 ], [ 8.6603547, 49.412323 ], [ 8.6606225, 49.4122979 ], [ 8.6606329, 49.4122976 ], [ 8.6606553, 49.4122955 ], [ 8.6609256, 49.4122876 ], [ 8.6609325, 49.4122879 ], [ 8.6610207, 49.412261 ], [ 8.6612759, 49.4122023 ], [ 8.6613575, 49.4121892 ], [ 8.6613842, 49.4121411 ], [ 8.661501, 49.4119819 ], [ 8.6616411, 49.4118309 ], [ 8.6617283, 49.4117549 ], [ 8.661649, 49.4117162 ], [ 8.6614493, 49.4115971 ], [ 8.6612685, 49.4114657 ], [ 8.6611083, 49.4113235 ], [ 8.6609703, 49.4111716 ], [ 8.6608557, 49.4110117 ], [ 8.6607657, 49.4108452 ], [ 8.6607011, 49.4106738 ], [ 8.6606626, 49.410499 ], [ 8.6606505, 49.4103226 ], [ 8.660665, 49.4101464 ], [ 8.6606785, 49.410089 ], [ 8.6606673, 49.4100823 ], [ 8.6604865, 49.4099509 ], [ 8.6603263, 49.4098086 ], [ 8.6601882, 49.4096568 ], [ 8.6600736, 49.4094969 ], [ 8.66, 49.4093607 ], [ 8.66, 49.4082695 ], [ 8.6600831, 49.40812 ], [ 8.6601999, 49.4079608 ], [ 8.6603401, 49.4078097 ], [ 8.6605022, 49.4076684 ], [ 8.6606848, 49.4075381 ], [ 8.6608861, 49.4074202 ], [ 8.6611041, 49.4073156 ], [ 8.6613368, 49.4072256 ], [ 8.6615819, 49.4071508 ], [ 8.661837, 49.4070921 ], [ 8.6620998, 49.4070499 ], [ 8.6623675, 49.4070248 ], [ 8.6626378, 49.4070169 ], [ 8.662908, 49.4070264 ], [ 8.6631754, 49.4070531 ], [ 8.6634376, 49.4070967 ], [ 8.6636506, 49.4071472 ], [ 8.6637448, 49.4070187 ], [ 8.6638849, 49.4068677 ], [ 8.6640471, 49.4067264 ], [ 8.6642296, 49.4065961 ], [ 8.6644309, 49.4064781 ], [ 8.6646489, 49.4063736 ], [ 8.6647719, 49.406326 ], [ 8.664956, 49.4062377 ], [ 8.6650239, 49.4062114 ], [ 8.6650352, 49.406163 ], [ 8.6651021, 49.405992 ], [ 8.6651497, 49.4059064 ], [ 8.6650209, 49.405792 ], [ 8.6649532, 49.4057429 ], [ 8.6647931, 49.4056006 ], [ 8.664655, 49.4054488 ], [ 8.6645404, 49.4052889 ], [ 8.6645241, 49.4052587 ], [ 8.6644206, 49.4052987 ], [ 8.6641755, 49.4053735 ], [ 8.6639428, 49.4054271 ], [ 8.6638415, 49.4054993 ], [ 8.6637441, 49.4055564 ], [ 8.6637162, 49.4055763 ], [ 8.6635149, 49.4056943 ], [ 8.6632969, 49.4057989 ], [ 8.6630643, 49.4058889 ], [ 8.6628192, 49.4059637 ], [ 8.662564, 49.4060224 ], [ 8.6623013, 49.4060646 ], [ 8.6620335, 49.4060897 ], [ 8.6617632, 49.4060976 ], [ 8.6614931, 49.4060881 ], [ 8.6613169, 49.4060705 ], [ 8.6610554, 49.4061125 ], [ 8.6607876, 49.4061376 ], [ 8.6605173, 49.4061455 ], [ 8.6602471, 49.406136 ], [ 8.66, 49.4061113 ], [ 8.66, 49.4015851 ], [ 8.6600118, 49.4015782 ], [ 8.6600237, 49.4015725 ], [ 8.6600329, 49.4015671 ], [ 8.6600575, 49.4015553 ], [ 8.6600947, 49.4015335 ], [ 8.6603127, 49.4014289 ], [ 8.6605454, 49.4013388 ], [ 8.6607904, 49.4012641 ], [ 8.660964, 49.4012241 ], [ 8.6609896, 49.4012119 ], [ 8.6611622, 49.4011107 ], [ 8.6611848, 49.4010998 ], [ 8.6612407, 49.4010671 ], [ 8.6613246, 49.4010268 ], [ 8.6614003, 49.4009825 ], [ 8.6615181, 49.400926 ], [ 8.6616645, 49.4008402 ], [ 8.6618825, 49.4007356 ], [ 8.6619015, 49.4007283 ], [ 8.6620293, 49.4006534 ], [ 8.6622336, 49.4005554 ], [ 8.6623686, 49.4004763 ], [ 8.6624435, 49.4004404 ], [ 8.6625013, 49.4004065 ], [ 8.6625694, 49.4003738 ], [ 8.6626529, 49.4003249 ], [ 8.6628709, 49.4002204 ] ], [ [ 8.6688659, 49.4127176 ], [ 8.669001, 49.4127496 ], [ 8.6691041, 49.4127532 ], [ 8.6693716, 49.4127798 ], [ 8.6693936, 49.4127835 ], [ 8.6692855, 49.4126875 ], [ 8.6691474, 49.4125357 ], [ 8.6690328, 49.4123758 ], [ 8.6689428, 49.4122093 ], [ 8.6688782, 49.4120378 ], [ 8.6688397, 49.4118631 ], [ 8.6688276, 49.4116867 ], [ 8.668842, 49.4115104 ], [ 8.6688829, 49.4113359 ], [ 8.6689498, 49.4111649 ], [ 8.6690421, 49.4109989 ], [ 8.6691588, 49.4108396 ], [ 8.6692389, 49.4107534 ], [ 8.6691719, 49.4107048 ], [ 8.6690117, 49.4105625 ], [ 8.6688736, 49.4104107 ], [ 8.668759, 49.4102508 ], [ 8.6687088, 49.410158 ], [ 8.6687008, 49.4101923 ], [ 8.6686339, 49.4103634 ], [ 8.6685416, 49.4105294 ], [ 8.6684249, 49.4106886 ], [ 8.6682848, 49.4108397 ], [ 8.6681226, 49.410981 ], [ 8.66794, 49.4111113 ], [ 8.6677388, 49.4112293 ], [ 8.6675207, 49.4113338 ], [ 8.667288, 49.4114239 ], [ 8.6670429, 49.4114987 ], [ 8.6667878, 49.4115574 ], [ 8.6665373, 49.4115976 ], [ 8.6664499, 49.4116177 ], [ 8.6661871, 49.4116599 ], [ 8.6660285, 49.4116747 ], [ 8.6660659, 49.4117019 ], [ 8.6662261, 49.4118442 ], [ 8.6663642, 49.411996 ], [ 8.6664788, 49.4121559 ], [ 8.6665688, 49.4123224 ], [ 8.6666334, 49.4124939 ], [ 8.6666719, 49.4126686 ], [ 8.666684, 49.412845 ], [ 8.6666812, 49.4128789 ], [ 8.6667649, 49.4128465 ], [ 8.66701, 49.4127717 ], [ 8.6672651, 49.412713 ], [ 8.6675279, 49.4126709 ], [ 8.6677957, 49.4126457 ], [ 8.668066, 49.4126378 ], [ 8.6683362, 49.4126473 ], [ 8.6686037, 49.4126739 ], [ 8.6688659, 49.4127176 ] ], [ [ 8.6701987, 49.405602 ], [ 8.6702261, 49.4056012 ], [ 8.6704963, 49.4056107 ], [ 8.6707637, 49.4056373 ], [ 8.6709171, 49.4056629 ], [ 8.6710827, 49.4055835 ], [ 8.6713153, 49.4054934 ], [ 8.6715604, 49.4054186 ], [ 8.6718155, 49.4053598 ], [ 8.6718749, 49.4053503 ], [ 8.6718747, 49.4053502 ], [ 8.6718709, 49.405346 ], [ 8.6718684, 49.4053438 ], [ 8.6718095, 49.405279 ], [ 8.6717234, 49.4052026 ], [ 8.6717201, 49.4051989 ], [ 8.6717171, 49.4051963 ], [ 8.6716275, 49.4050978 ], [ 8.6715391, 49.4050193 ], [ 8.6715362, 49.4050161 ], [ 8.6715327, 49.405013 ], [ 8.6714131, 49.4048814 ], [ 8.6714108, 49.4048827 ], [ 8.6711928, 49.4049873 ], [ 8.6709602, 49.4050774 ], [ 8.6707151, 49.4051521 ], [ 8.6704822, 49.4052058 ], [ 8.6704028, 49.4053486 ], [ 8.6702861, 49.4055079 ], [ 8.6701987, 49.405602 ] ], [ [ 8.675977, 49.4146748 ], [ 8.6757757, 49.4147928 ], [ 8.6757135, 49.4148227 ], [ 8.6757756, 49.4148909 ], [ 8.6758902, 49.4150508 ], [ 8.6759545, 49.4151697 ], [ 8.6760443, 49.4151491 ], [ 8.6763071, 49.4151069 ], [ 8.6765749, 49.4150817 ], [ 8.6768452, 49.4150738 ], [ 8.6771154, 49.4150833 ], [ 8.6773829, 49.4151099 ], [ 8.6776451, 49.4151535 ], [ 8.6778995, 49.4152137 ], [ 8.6781436, 49.4152899 ], [ 8.6783751, 49.4153813 ], [ 8.6785918, 49.4154871 ], [ 8.6786349, 49.4155128 ], [ 8.678573, 49.4154578 ], [ 8.6784348, 49.415306 ], [ 8.6783202, 49.4151461 ], [ 8.6782301, 49.4149796 ], [ 8.6781655, 49.4148082 ], [ 8.6781269, 49.4146334 ], [ 8.6781189, 49.4145168 ], [ 8.6779118, 49.4145645 ], [ 8.677649, 49.4146067 ], [ 8.6773812, 49.4146319 ], [ 8.6771109, 49.4146398 ], [ 8.6768407, 49.4146303 ], [ 8.6765732, 49.4146037 ], [ 8.676311, 49.4145601 ], [ 8.6761779, 49.4145286 ], [ 8.6761596, 49.4145445 ], [ 8.675977, 49.4146748 ] ], [ [ 8.6792708, 49.4160315 ], [ 8.6793854, 49.4161915 ], [ 8.6793874, 49.4161951 ], [ 8.6793919, 49.4161903 ], [ 8.679554, 49.416049 ], [ 8.679558, 49.4160461 ], [ 8.6793305, 49.4159562 ], [ 8.6791138, 49.4158505 ], [ 8.6790707, 49.4158248 ], [ 8.6791326, 49.4158797 ], [ 8.6792708, 49.4160315 ] ], [ [ 8.695305, 49.4160263 ], [ 8.6953951, 49.4161928 ], [ 8.6954598, 49.4163642 ], [ 8.6954984, 49.4165389 ], [ 8.6955106, 49.4167153 ], [ 8.6954994, 49.4168528 ], [ 8.6956088, 49.4168496 ], [ 8.6956795, 49.4167531 ], [ 8.6958195, 49.416602 ], [ 8.6959816, 49.4164607 ], [ 8.6961641, 49.4163303 ], [ 8.6963654, 49.4162123 ], [ 8.6965833, 49.4161077 ], [ 8.696816, 49.4160176 ], [ 8.6970611, 49.4159427 ], [ 8.6971504, 49.4159221 ], [ 8.6971401, 49.4158946 ], [ 8.6971055, 49.4157384 ], [ 8.6969012, 49.4156387 ], [ 8.6967015, 49.4155197 ], [ 8.6965206, 49.4153884 ], [ 8.6963602, 49.4152462 ], [ 8.6963479, 49.4152326 ], [ 8.6962659, 49.4152298 ], [ 8.696136, 49.4152169 ], [ 8.696007, 49.4152466 ], [ 8.6957442, 49.4152888 ], [ 8.6954764, 49.415314 ], [ 8.6952061, 49.415322 ], [ 8.6951191, 49.415319 ], [ 8.6950811, 49.4153201 ], [ 8.6948108, 49.4153107 ], [ 8.6945433, 49.4152841 ], [ 8.6943766, 49.4152564 ], [ 8.6945111, 49.415322 ], [ 8.6947109, 49.4154411 ], [ 8.6948918, 49.4155724 ], [ 8.6950521, 49.4157146 ], [ 8.6951903, 49.4158664 ], [ 8.695305, 49.4160263 ] ], [ [ 8.7032347, 49.4082813 ], [ 8.7033967, 49.4081399 ], [ 8.7035792, 49.4080096 ], [ 8.7037803, 49.4078915 ], [ 8.7039983, 49.4077869 ], [ 8.7042309, 49.4076967 ], [ 8.7043576, 49.407658 ], [ 8.7041199, 49.4076804 ], [ 8.7038496, 49.4076884 ], [ 8.7036577, 49.4076817 ], [ 8.7036531, 49.40769 ], [ 8.7035364, 49.4078493 ], [ 8.7033964, 49.4080004 ], [ 8.7032344, 49.4081417 ], [ 8.7030519, 49.4082721 ], [ 8.7029766, 49.4083163 ], [ 8.703173, 49.4082978 ], [ 8.7032207, 49.4082964 ], [ 8.7032347, 49.4082813 ] ] ], [ [ [ 8.7052882, 49.3983835 ], [ 8.7055425, 49.3984437 ], [ 8.7057866, 49.3985198 ], [ 8.7060181, 49.3986111 ], [ 8.7062347, 49.3987168 ], [ 8.7064344, 49.3988359 ], [ 8.7066153, 49.3989672 ], [ 8.7067756, 49.3991094 ], [ 8.7069138, 49.3992612 ], [ 8.7070285, 49.399421 ], [ 8.7071186, 49.3995875 ], [ 8.7071355, 49.3996321 ], [ 8.7072257, 49.3995088 ], [ 8.7073657, 49.3993578 ], [ 8.7075008, 49.3992398 ], [ 8.7075751, 49.3991596 ], [ 8.7075788, 49.3991146 ], [ 8.7076195, 49.39894 ], [ 8.7076862, 49.3987689 ], [ 8.7077784, 49.398603 ], [ 8.707895, 49.3984437 ], [ 8.7080349, 49.3982926 ], [ 8.7081969, 49.3981512 ], [ 8.7083793, 49.3980208 ], [ 8.7084107, 49.3980024 ], [ 8.7122291, 49.3980018 ], [ 8.7122774, 49.3980306 ], [ 8.7124583, 49.3981619 ], [ 8.7126186, 49.3983041 ], [ 8.7127568, 49.3984558 ], [ 8.7128715, 49.3986157 ], [ 8.7129617, 49.3987822 ], [ 8.7130264, 49.3989536 ], [ 8.7130651, 49.3991283 ], [ 8.7130774, 49.3993047 ], [ 8.7130631, 49.399481 ], [ 8.7130479, 49.399546 ], [ 8.7131768, 49.3996875 ], [ 8.7132915, 49.3998474 ], [ 8.7133817, 49.4000139 ], [ 8.7133844, 49.4000212 ], [ 8.7135428, 49.4000475 ], [ 8.7137972, 49.4001076 ], [ 8.7140413, 49.4001837 ], [ 8.7142728, 49.400275 ], [ 8.7144894, 49.4003807 ], [ 8.7146892, 49.4004998 ], [ 8.7148701, 49.400631 ], [ 8.7150304, 49.4007732 ], [ 8.7151686, 49.400925 ], [ 8.7152833, 49.4010849 ], [ 8.7153735, 49.4012513 ], [ 8.7154383, 49.4014227 ], [ 8.7154769, 49.4015975 ], [ 8.7154892, 49.4017738 ], [ 8.7154749, 49.4019501 ], [ 8.7154342, 49.4021246 ], [ 8.7153675, 49.4022957 ], [ 8.7152754, 49.4024617 ], [ 8.7151588, 49.402621 ], [ 8.7150188, 49.4027721 ], [ 8.7148569, 49.4029135 ], [ 8.7146744, 49.4030439 ], [ 8.7144733, 49.403162 ], [ 8.7142554, 49.4032666 ], [ 8.7140228, 49.4033568 ], [ 8.7137778, 49.4034317 ], [ 8.7135228, 49.4034905 ], [ 8.7132601, 49.4035327 ], [ 8.7129924, 49.403558 ], [ 8.7127221, 49.403566 ], [ 8.712452, 49.4035566 ], [ 8.7121845, 49.4035301 ], [ 8.7119223, 49.4034865 ], [ 8.711668, 49.4034264 ], [ 8.7114239, 49.4033503 ], [ 8.7111923, 49.403259 ], [ 8.7109757, 49.4031533 ], [ 8.7107759, 49.4030342 ], [ 8.7105993, 49.402906 ], [ 8.7104391, 49.402955 ], [ 8.7101841, 49.4030138 ], [ 8.7100469, 49.4030359 ], [ 8.7099995, 49.4030468 ], [ 8.7097368, 49.4030891 ], [ 8.709469, 49.4031143 ], [ 8.7091988, 49.4031223 ], [ 8.7089286, 49.4031129 ], [ 8.7086612, 49.4030864 ], [ 8.7086402, 49.4030829 ], [ 8.7086306, 49.4030825 ], [ 8.7083632, 49.403056 ], [ 8.708101, 49.4030124 ], [ 8.7078466, 49.4029523 ], [ 8.7076025, 49.4028762 ], [ 8.707371, 49.4027848 ], [ 8.7071544, 49.4026791 ], [ 8.7069546, 49.40256 ], [ 8.7067738, 49.4024288 ], [ 8.7066134, 49.4022866 ], [ 8.7064753, 49.4021348 ], [ 8.7063606, 49.4019749 ], [ 8.7062704, 49.4018084 ], [ 8.7062057, 49.401637 ], [ 8.7061791, 49.4015168 ], [ 8.7060002, 49.4016027 ], [ 8.7057676, 49.4016929 ], [ 8.7055226, 49.4017677 ], [ 8.7052676, 49.4018266 ], [ 8.7050049, 49.4018688 ], [ 8.7047372, 49.401894 ], [ 8.7044669, 49.401902 ], [ 8.7041968, 49.4018926 ], [ 8.7039293, 49.401866 ], [ 8.7036672, 49.4018225 ], [ 8.7034128, 49.4017623 ], [ 8.7031687, 49.4016862 ], [ 8.7029372, 49.4015949 ], [ 8.7027206, 49.4014891 ], [ 8.7025209, 49.4013701 ], [ 8.70234, 49.4012388 ], [ 8.7021797, 49.4010966 ], [ 8.7020416, 49.4009448 ], [ 8.7019269, 49.4007849 ], [ 8.7018367, 49.4006184 ], [ 8.701772, 49.400447 ], [ 8.7017334, 49.4002723 ], [ 8.7017212, 49.4000959 ], [ 8.7017355, 49.3999196 ], [ 8.7017763, 49.3997451 ], [ 8.7018431, 49.399574 ], [ 8.7019352, 49.399408 ], [ 8.7020518, 49.3992487 ], [ 8.7021918, 49.3990977 ], [ 8.7023538, 49.3989563 ], [ 8.7025362, 49.3988259 ], [ 8.7027374, 49.3987079 ], [ 8.7029553, 49.3986033 ], [ 8.7031879, 49.3985131 ], [ 8.7034328, 49.3984383 ], [ 8.7036879, 49.3983794 ], [ 8.7039505, 49.3983372 ], [ 8.7042183, 49.398312 ], [ 8.7044885, 49.398304 ], [ 8.7047586, 49.3983134 ], [ 8.705026, 49.39834 ], [ 8.7052882, 49.3983835 ] ] ], [ [ [ 8.7149291, 49.4178598 ], [ 8.715147, 49.4177551 ], [ 8.7153797, 49.417665 ], [ 8.7156247, 49.4175901 ], [ 8.7158799, 49.4175312 ], [ 8.7161426, 49.417489 ], [ 8.7164104, 49.4174637 ], [ 8.7166808, 49.4174557 ], [ 8.716951, 49.4174651 ], [ 8.7172185, 49.4174916 ], [ 8.7174808, 49.4175352 ], [ 8.7177333, 49.4175948 ], [ 8.717838, 49.4175849 ], [ 8.7181083, 49.4175769 ], [ 8.7183785, 49.4175863 ], [ 8.7186461, 49.4176128 ], [ 8.7186617, 49.4176154 ], [ 8.718688, 49.417618 ], [ 8.7189502, 49.4176615 ], [ 8.7192047, 49.4177216 ], [ 8.7194489, 49.4177977 ], [ 8.7196804, 49.417889 ], [ 8.7198972, 49.4179947 ], [ 8.72, 49.418056 ], [ 8.72, 49.422 ], [ 8.7174791, 49.4220006 ], [ 8.7174767, 49.4219986 ], [ 8.7173385, 49.4218468 ], [ 8.7172237, 49.4216869 ], [ 8.7171335, 49.4215205 ], [ 8.7170687, 49.4213491 ], [ 8.71703, 49.4211743 ], [ 8.7170205, 49.4210372 ], [ 8.7169304, 49.4210457 ], [ 8.71666, 49.4210537 ], [ 8.7163898, 49.4210443 ], [ 8.7161222, 49.4210178 ], [ 8.71586, 49.4209742 ], [ 8.7156055, 49.4209141 ], [ 8.7153613, 49.4208381 ], [ 8.7151297, 49.4207467 ], [ 8.714913, 49.420641 ], [ 8.7147131, 49.420522 ], [ 8.7145321, 49.4203907 ], [ 8.7143718, 49.4202485 ], [ 8.7142335, 49.4200967 ], [ 8.7141187, 49.4199369 ], [ 8.7140285, 49.4197704 ], [ 8.7139638, 49.419599 ], [ 8.7139251, 49.4194243 ], [ 8.7139128, 49.4192479 ], [ 8.7139271, 49.4190716 ], [ 8.7139679, 49.4188971 ], [ 8.7140346, 49.418726 ], [ 8.7141267, 49.41856 ], [ 8.7142434, 49.4184007 ], [ 8.7143834, 49.4182496 ], [ 8.7145454, 49.4181082 ], [ 8.7147279, 49.4179778 ], [ 8.7149291, 49.4178598 ] ] ] ] } },
{ "type": "Feature", "properties": { "index": "1", "label": "Beyond 200 m", "color": "#d9d9d9" }, "geometry": { "type": "MultiPolygon", "coordinates": [ [ [ [ 8.7122291, 49.3980018 ], [ 8.72, 49.398 ], [ 8.72, 49.4072665 ], [ 8.7199799, 49.4072545 ], [ 8.7197632, 49.4071488 ], [ 8.7195317, 49.4070575 ], [ 8.7192875, 49.4069814 ], [ 8.7190331, 49.4069213 ], [ 8.7187709, 49.4068778 ], [ 8.7185035, 49.4068512 ], [ 8.7182333, 49.4068419 ], [ 8.717963, 49.4068499 ], [ 8.71776, 49.4068691 ], [ 8.7177005, 49.4067115 ], [ 8.7176103, 49.406545 ], [ 8.7175934, 49.4065215 ], [ 8.7177516, 49.4065066 ], [ 8.7180143, 49.4064644 ], [ 8.7182694, 49.4064055 ], [ 8.7185144, 49.4063306 ], [ 8.7187469, 49.4062404 ], [ 8.7189648, 49.4061358 ], [ 8.719166, 49.4060177 ], [ 8.7193484, 49.4058873 ], [ 8.7195104, 49.4057459 ], [ 8.7196503, 49.4055949 ], [ 8.7197669, 49.4054355 ], [ 8.719859, 49.4052695 ], [ 8.7199257, 49.4050984 ], [ 8.7199664, 49.4049239 ], [ 8.7199807, 49.4047476 ], [ 8.7199684, 49.4045712 ], [ 8.7199297, 49.4043965 ], [ 8.7198649, 49.4042251 ], [ 8.7197747, 49.4040587 ], [ 8.71966, 49.4038988 ], [ 8.7195218, 49.403747 ], [ 8.7193614, 49.4036048 ], [ 8.7191805, 49.4034736 ], [ 8.7189807, 49.4033545 ], [ 8.718764, 49.4032488 ], [ 8.7185325, 49.4031575 ], [ 8.7182884, 49.4030814 ], [ 8.718034, 49.4030213 ], [ 8.7177718, 49.4029778 ], [ 8.7175044, 49.4029512 ], [ 8.7172342, 49.4029419 ], [ 8.716964, 49.4029499 ], [ 8.7166962, 49.4029752 ], [ 8.7164336, 49.4030174 ], [ 8.7161785, 49.4030763 ], [ 8.7159335, 49.4031512 ], [ 8.715701, 49.4032414 ], [ 8.7154831, 49.403346 ], [ 8.7152819, 49.403464 ], [ 8.7150995, 49.4035944 ], [ 8.7149375, 49.4037358 ], [ 8.7147976, 49.4038869 ], [ 8.714681, 49.4040462 ], [ 8.7145889, 49.4042122 ], [ 8.7145221, 49.4043833 ], [ 8.7144814, 49.4045578 ], [ 8.7144671, 49.4047341 ], [ 8.7144794, 49.4049105 ], [ 8.7145181, 49.4050852 ], [ 8.7145828, 49.4052566 ], [ 8.7146449, 49.4053713 ], [ 8.7145602, 49.4053738 ], [ 8.7142924, 49.4053991 ], [ 8.7140297, 49.4054413 ], [ 8.7139667, 49.4054559 ], [ 8.7138038, 49.4054051 ], [ 8.7135494, 49.405345 ], [ 8.7132872, 49.4053014 ], [ 8.7130198, 49.4052749 ], [ 8.7127496, 49.4052655 ], [ 8.7124793, 49.4052735 ], [ 8.7122116, 49.4052988 ], [ 8.7119489, 49.405341 ], [ 8.7119095, 49.4053501 ], [ 8.7118369, 49.405249 ], [ 8.7116987, 49.4050972 ], [ 8.7115383, 49.404955 ], [ 8.7113574, 49.4048237 ], [ 8.7111577, 49.4047047 ], [ 8.7110734, 49.4046635 ], [ 8.7110211, 49.4046256 ], [ 8.7108214, 49.4045066 ], [ 8.7106047, 49.4044009 ], [ 8.7103732, 49.4043095 ], [ 8.7102704, 49.4042775 ], [ 8.7102477, 49.4042685 ], [ 8.7100036, 49.4041924 ], [ 8.7097492, 49.4041323 ], [ 8.709487, 49.4040887 ], [ 8.7092196, 49.4040622 ], [ 8.7089494, 49.4040528 ], [ 8.7086792, 49.4040608 ], [ 8.7084114, 49.404086 ], [ 8.7081487, 49.4041283 ], [ 8.7078937, 49.4041871 ], [ 8.7076487, 49.404262 ], [ 8.7074161, 49.4043521 ], [ 8.7071982, 49.4044568 ], [ 8.706997, 49.4045748 ], [ 8.7068145, 49.4047052 ], [ 8.7066525, 49.4048466 ], [ 8.7065126, 49.4049976 ], [ 8.7063959, 49.4051569 ], [ 8.7063869, 49.4051732 ], [ 8.7062968, 49.4050476 ], [ 8.7061586, 49.4048958 ], [ 8.7059983, 49.4047536 ], [ 8.7058174, 49.4046223 ], [ 8.7056176, 49.4045032 ], [ 8.705401, 49.4043975 ], [ 8.7051695, 49.4043062 ], [ 8.7049254, 49.4042301 ], [ 8.704671, 49.4041699 ], [ 8.7044088, 49.4041264 ], [ 8.7041414, 49.4040998 ], [ 8.7038712, 49.4040904 ], [ 8.703601, 49.4040984 ], [ 8.7033332, 49.4041236 ], [ 8.7030705, 49.4041658 ], [ 8.7028154, 49.4042247 ], [ 8.7025704, 49.4042995 ], [ 8.7023378, 49.4043897 ], [ 8.7022185, 49.404447 ], [ 8.7020459, 49.4043217 ], [ 8.7018461, 49.4042026 ], [ 8.7016295, 49.4040969 ], [ 8.701398, 49.4040055 ], [ 8.7011539, 49.4039294 ], [ 8.7008995, 49.4038693 ], [ 8.7006374, 49.4038257 ], [ 8.7003699, 49.4037991 ], [ 8.7000998, 49.4037897 ], [ 8.6998295, 49.4037977 ], [ 8.6995617, 49.4038229 ], [ 8.6993105, 49.4038633 ], [ 8.699262, 49.4037737 ], [ 8.6991473, 49.4036138 ], [ 8.6990092, 49.403462 ], [ 8.6988489, 49.4033198 ], [ 8.698668, 49.4031885 ], [ 8.6984683, 49.4030694 ], [ 8.6982516, 49.4029637 ], [ 8.6980201, 49.4028723 ], [ 8.6977761, 49.4027962 ], [ 8.6975217, 49.4027361 ], [ 8.6972596, 49.4026925 ], [ 8.6969921, 49.4026659 ], [ 8.696722, 49.4026565 ], [ 8.6964517, 49.4026645 ], [ 8.696184, 49.4026897 ], [ 8.6960566, 49.4027101 ], [ 8.6960233, 49.4027133 ], [ 8.6957606, 49.4027555 ], [ 8.6955055, 49.4028143 ], [ 8.6952605, 49.4028891 ], [ 8.6950279, 49.4029793 ], [ 8.69481, 49.4030839 ], [ 8.6946088, 49.4032019 ], [ 8.6944263, 49.4033322 ], [ 8.6942643, 49.4034736 ], [ 8.6941242, 49.4036247 ], [ 8.6940076, 49.403784 ], [ 8.6939154, 49.4039499 ], [ 8.6938486, 49.404121 ], [ 8.6938078, 49.4042955 ], [ 8.6937935, 49.4044718 ], [ 8.6938056, 49.4046482 ], [ 8.6938442, 49.4048229 ], [ 8.6939089, 49.4049944 ], [ 8.693999, 49.4051608 ], [ 8.6941137, 49.4053207 ], [ 8.6942017, 49.4054174 ], [ 8.6940969, 49.4054273 ], [ 8.6938342, 49.4054695 ], [ 8.6937996, 49.4054775 ], [ 8.693758, 49.4054733 ], [ 8.6934878, 49.4054639 ], [ 8.6932175, 49.4054719 ], [ 8.6929498, 49.4054971 ], [ 8.6926871, 49.4055393 ], [ 8.692432, 49.4055981 ], [ 8.6922744, 49.4056462 ], [ 8.6923104, 49.4056073 ], [ 8.6924271, 49.405448 ], [ 8.6925193, 49.4052821 ], [ 8.6925861, 49.405111 ], [ 8.6926269, 49.4049365 ], [ 8.6926413, 49.4047602 ], [ 8.6926291, 49.4045838 ], [ 8.6925905, 49.4044091 ], [ 8.6925258, 49.4042376 ], [ 8.6924357, 49.4040712 ], [ 8.692321, 49.4039113 ], [ 8.6921829, 49.4037595 ], [ 8.6920226, 49.4036172 ], [ 8.6918418, 49.4034859 ], [ 8.6916421, 49.4033669 ], [ 8.6914254, 49.4032611 ], [ 8.691194, 49.4031697 ], [ 8.6909499, 49.4030936 ], [ 8.6906956, 49.4030334 ], [ 8.6904997, 49.4030009 ], [ 8.690498, 49.4029767 ], [ 8.690496, 49.4029677 ], [ 8.6904886, 49.4028602 ], [ 8.6904844, 49.4028413 ], [ 8.6904812, 49.4027947 ], [ 8.6904426, 49.40262 ], [ 8.6903779, 49.4024486 ], [ 8.6902878, 49.4022821 ], [ 8.6901732, 49.4021222 ], [ 8.6900351, 49.4019704 ], [ 8.6898748, 49.4018282 ], [ 8.689694, 49.4016969 ], [ 8.6894943, 49.4015778 ], [ 8.6893784, 49.4015212 ], [ 8.6894602, 49.4014499 ], [ 8.6894834, 49.4014249 ], [ 8.6894993, 49.401411 ], [ 8.689508, 49.4014016 ], [ 8.6895913, 49.4014512 ], [ 8.689808, 49.401557 ], [ 8.6900394, 49.4016484 ], [ 8.6902835, 49.4017245 ], [ 8.6905378, 49.4017847 ], [ 8.6908, 49.4018283 ], [ 8.6910674, 49.4018549 ], [ 8.6913375, 49.4018643 ], [ 8.6916078, 49.4018563 ], [ 8.6918755, 49.4018311 ], [ 8.6921382, 49.4017889 ], [ 8.6923933, 49.4017301 ], [ 8.6926383, 49.4016553 ], [ 8.6928709, 49.4015652 ], [ 8.6930888, 49.4014606 ], [ 8.69329, 49.4013426 ], [ 8.6934725, 49.4012122 ], [ 8.6936345, 49.4010709 ], [ 8.6937745, 49.4009198 ], [ 8.6938912, 49.4007605 ], [ 8.6939834, 49.4005945 ], [ 8.6940501, 49.4004234 ], [ 8.6940909, 49.4002489 ], [ 8.6941053, 49.4000726 ], [ 8.6940931, 49.3998963 ], [ 8.6940756, 49.3998169 ], [ 8.6941697, 49.3997805 ], [ 8.6943876, 49.3996759 ], [ 8.6945888, 49.3995578 ], [ 8.6947712, 49.3994275 ], [ 8.6949333, 49.3992861 ], [ 8.6950733, 49.3991351 ], [ 8.6951899, 49.3989758 ], [ 8.6952821, 49.3988098 ], [ 8.6953489, 49.3986387 ], [ 8.6953896, 49.3984642 ], [ 8.695404, 49.3982879 ], [ 8.6953918, 49.3981115 ], [ 8.695368, 49.3980038 ], [ 8.7084107, 49.3980024 ], [ 8.7083793, 49.3980208 ], [ 8.7081969, 49.3981512 ], [ 8.7080349, 49.3982926 ], [ 8.707895, 49.3984437 ], [ 8.7077784, 49.398603 ], [ 8.7076862, 49.3987689 ], [ 8.7076195, 49.39894 ], [ 8.7075788, 49.3991146 ], [ 8.7075751, 49.3991596 ], [ 8.7075008, 49.3992398 ], [ 8.7073657, 49.3993578 ], [ 8.7072257, 49.3995088 ], [ 8.7071355, 49.3996321 ], [ 8.7071186, 49.3995875 ], [ 8.7070285, 49.399421 ], [ 8.7069138, 49.3992612 ], [ 8.7067756, 49.3991094 ], [ 8.7066153, 49.3989672 ], [ 8.7064344, 49.3988359 ], [ 8.7062347, 49.3987168 ], [ 8.7060181, 49.3986111 ], [ 8.7057866, 49.3985198 ], [ 8.7055425, 49.3984437 ], [ 8.7052882, 49.3983835 ], [ 8.705026, 49.39834 ], [ 8.7047586, 49.3983134 ], [ 8.7044885, 49.398304 ], [ 8.7042183, 49.398312 ], [ 8.7039505, 49.3983372 ], [ 8.7036879, 49.3983794 ], [ 8.7034328, 49.3984383 ], [ 8.7031879, 49.3985131 ], [ 8.7029553, 49.3986033 ], [ 8.7027374, 49.3987079 ], [ 8.7025362, 49.3988259 ], [ 8.7023538, 49.3989563 ], [ 8.7021918, 49.3990977 ], [ 8.7020518, 49.3992487 ], [ 8.7019352, 49.399408 ], [ 8.7018431, 49.399574 ], [ 8.7017763, 49.3997451 ], [ 8.7017355, 49.3999196 ], [ 8.7017212, 49.4000959 ], [ 8.7017334, 49.4002723 ], [ 8.701772, 49.400447 ], [ 8.7018367, 49.4006184 ], [ 8.7019269, 49.4007849 ], [ 8.7020416, 49.4009448 ], [ 8.7021797, 49.4010966 ], [ 8.70234, 49.4012388 ], [ 8.7025209, 49.4013701 ], [ 8.7027206, 49.4014891 ], [ 8.7029372, 49.4015949 ], [ 8.7031687, 49.4016862 ], [ 8.7034128, 49.4017623 ], [ 8.7036672, 49.4018225 ], [ 8.7039293, 49.401866 ], [ 8.7041968, 49.4018926 ], [ 8.7044669, 49.401902 ], [ 8.7047372, 49.401894 ], [ 8.7050049, 49.4018688 ], [ 8.7052676, 49.4018266 ], [ 8.7055226, 49.4017677 ], [ 8.7057676, 49.4016929 ], [ 8.7060002, 49.4016027 ], [ 8.7061791, 49.4015168 ], [ 8.7062057, 49.401637 ], [ 8.7062704, 49.4018084 ], [ 8.7063606, 49.4019749 ], [ 8.7064753, 49.4021348 ], [ 8.7066134, 49.4022866 ], [ 8.7067738, 49.4024288 ], [ 8.7069546, 49.40256 ], [ 8.7071544, 49.4026791 ], [ 8.707371, 49.4027848 ], [ 8.7076025, 49.4028762 ], [ 8.7078466, 49.4029523 ], [ 8.708101, 49.4030124 ], [ 8.7083632, 49.403056 ], [ 8.7086306, 49.4030825 ], [ 8.7086402, 49.4030829 ], [ 8.7086612, 49.4030864 ], [ 8.7089286, 49.4031129 ], [ 8.7091988, 49.4031223 ], [ 8.709469, 49.4031143 ], [ 8.7097368, 49.4030891 ], [ 8.7099995, 49.4030468 ], [ 8.7100469, 49.4030359 ], [ 8.7101841, 49.4030138 ], [ 8.7104391, 49.402955 ], [ 8.7105993, 49.402906 ], [ 8.7107759, 49.4030342 ], [ 8.7109757, 49.4031533 ], [ 8.7111923, 49.403259 ], [ 8.7114239, 49.4033503 ], [ 8.711668, 49.4034264 ], [ 8.7119223, 49.4034865 ], [ 8.7121845, 49.4035301 ], [ 8.712452, 49.4035566 ], [ 8.7127221, 49.403566 ], [ 8.7129924, 49.403558 ], [ 8.7132601, 49.4035327 ], [ 8.7135228, 49.4034905 ], [ 8.7137778, 49.4034317 ], [ 8.7140228, 49.4033568 ], [ 8.7142554, 49.4032666 ], [ 8.7144733, 49.403162 ], [ 8.7146744, 49.4030439 ], [ 8.7148569, 49.4029135 ], [ 8.7150188, 49.4027721 ], [ 8.7151588, 49.402621 ], [ 8.7152754, 49.4024617 ], [ 8.7153675, 49.4022957 ], [ 8.7154342, 49.4021246 ], [ 8.7154749, 49.4019501 ], [ 8.7154892, 49.4017738 ], [ 8.7154769, 49.4015975 ], [ 8.7154383, 49.4014227 ], [ 8.7153735, 49.4012513 ], [ 8.7152833, 49.4010849 ], [ 8.7151686, 49.400925 ], [ 8.7150304, 49.4007732 ], [ 8.7148701, 49.400631 ], [ 8.7146892, 49.4004998 ], [ 8.7144894, 49.4003807 ], [ 8.7142728, 49.400275 ], [ 8.7140413, 49.4001837 ], [ 8.7137972, 49.4001076 ], [ 8.7135428, 49.4000475 ], [ 8.7133844, 49.4000212 ], [ 8.7133817, 49.4000139 ], [ 8.7132915, 49.3998474 ], [ 8.7131768, 49.3996875 ], [ 8.7130479, 49.399546 ], [ 8.7130631, 49.399481 ], [ 8.7130774, 49.3993047 ], [ 8.7130651, 49.3991283 ], [ 8.7130264, 49.3989536 ], [ 8.7129617, 49.3987822 ], [ 8.7128715, 49.3986157 ], [ 8.7127568, 49.3984558 ], [ 8.7126186, 49.3983041 ], [ 8.7124583, 49.3981619 ], [ 8.7122774, 49.3980306 ], [ 8.7122291, 49.3980018 ] ] ], [ [ [ 8.7199197, 49.4168482 ], [ 8.72, 49.4168458 ], [ 8.72, 49.418056 ], [ 8.7198972, 49.4179947 ], [ 8.7196804, 49.417889 ], [ 8.7194489, 49.4177977 ], [ 8.7192047, 49.4177216 ], [ 8.7189502, 49.4176615 ], [ 8.718688, 49.417618 ], [ 8.7186617, 49.4176154 ], [ 8.7186461, 49.4176128 ], [ 8.7183785, 49.4175863 ], [ 8.7181083, 49.4175769 ], [ 8.717838, 49.4175849 ], [ 8.7177333, 49.4175948 ], [ 8.7174808, 49.4175352 ], [ 8.7172185, 49.4174916 ], [ 8.716951, 49.4174651 ], [ 8.7166808, 49.4174557 ], [ 8.7164104, 49.4174637 ], [ 8.7161426, 49.417489 ], [ 8.7158799, 49.4175312 ], [ 8.7156247, 49.4175901 ], [ 8.7153797, 49.417665 ], [ 8.715147, 49.4177551 ], [ 8.7149291, 49.4178598 ], [ 8.7147279, 49.4179778 ], [ 8.7145454, 49.4181082 ], [ 8.7143834, 49.4182496 ], [ 8.7142434, 49.4184007 ], [ 8.7141267, 49.41856 ], [ 8.7140346, 49.418726 ], [ 8.7139679, 49.4188971 ], [ 8.7139271, 49.4190716 ], [ 8.7139128, 49.4192479 ], [ 8.7139251, 49.4194243 ], [ 8.7139638, 49.419599 ], [ 8.7140285, 49.4197704 ], [ 8.7141187, 49.4199369 ], [ 8.7142335, 49.4200967 ], [ 8.7143718, 49.4202485 ], [ 8.7145321, 49.4203907 ], [ 8.7147131, 49.420522 ], [ 8.714913, 49.420641 ], [ 8.7151297, 49.4207467 ], [ 8.7153613, 49.4208381 ], [ 8.7156055, 49.4209141 ], [ 8.71586, 49.4209742 ], [ 8.7161222, 49.4210178 ], [ 8.7163898, 49.4210443 ], [ 8.71666, 49.4210537 ], [ 8.7169304, 49.4210457 ], [ 8.7170205, 49.4210372 ], [ 8.71703, 49.4211743 ], [ 8.7170687, 49.4213491 ], [ 8.7171335, 49.4215205 ], [ 8.7172237, 49.4216869 ], [ 8.7173385, 49.4218468 ], [ 8.7174767, 49.4219986 ], [ 8.7174791, 49.4220006 ], [ 8.6949343, 49.4220038 ], [ 8.6950084, 49.4219509 ], [ 8.6951705, 49.4218095 ], [ 8.6953106, 49.4216585 ], [ 8.6954273, 49.4214992 ], [ 8.6955195, 49.4213332 ], [ 8.6955863, 49.4211621 ], [ 8.6956271, 49.4209876 ], [ 8.6956339, 49.4209045 ], [ 8.6957434, 49.420984 ], [ 8.6959432, 49.4211031 ], [ 8.6961599, 49.4212089 ], [ 8.6963915, 49.4213002 ], [ 8.6966357, 49.4213764 ], [ 8.6968901, 49.4214365 ], [ 8.6971524, 49.4214801 ], [ 8.6974199, 49.4215067 ], [ 8.6976901, 49.4215161 ], [ 8.6979605, 49.4215081 ], [ 8.6982284, 49.4214829 ], [ 8.6984911, 49.4214407 ], [ 8.6987463, 49.4213819 ], [ 8.6989914, 49.421307 ], [ 8.6992241, 49.4212169 ], [ 8.6994421, 49.4211123 ], [ 8.6996434, 49.4209942 ], [ 8.6998259, 49.4208639 ], [ 8.699988, 49.4207225 ], [ 8.700128, 49.4205715 ], [ 8.7002447, 49.4204122 ], [ 8.7003369, 49.4202462 ], [ 8.7004037, 49.4200751 ], [ 8.7004444, 49.4199006 ], [ 8.7004588, 49.4197243 ], [ 8.7004514, 49.4196178 ], [ 8.7004774, 49.4196187 ], [ 8.7007477, 49.4196107 ], [ 8.700826, 49.4196033 ], [ 8.7008282, 49.419636 ], [ 8.7008669, 49.4198107 ], [ 8.7009316, 49.4199821 ], [ 8.7010217, 49.4201486 ], [ 8.7011365, 49.4203085 ], [ 8.7012747, 49.4204603 ], [ 8.701435, 49.4206025 ], [ 8.701616, 49.4207337 ], [ 8.7018158, 49.4208528 ], [ 8.7020325, 49.4209585 ], [ 8.7022641, 49.4210499 ], [ 8.7025083, 49.421126 ], [ 8.7027627, 49.4211861 ], [ 8.703025, 49.4212297 ], [ 8.7031841, 49.4212455 ], [ 8.7033991, 49.4212964 ], [ 8.7036614, 49.4213399 ], [ 8.7039289, 49.4213665 ], [ 8.7041992, 49.4213759 ], [ 8.7044695, 49.4213679 ], [ 8.7047374, 49.4213427 ], [ 8.7050002, 49.4213004 ], [ 8.7052553, 49.4212416 ], [ 8.7055004, 49.4211668 ], [ 8.7057331, 49.4210766 ], [ 8.7059511, 49.420972 ], [ 8.7061523, 49.4208539 ], [ 8.7063348, 49.4207236 ], [ 8.7064969, 49.4205822 ], [ 8.7066369, 49.4204311 ], [ 8.7066438, 49.4204217 ], [ 8.7066549, 49.4204097 ], [ 8.7066839, 49.4203702 ], [ 8.7066989, 49.4203677 ], [ 8.7068898, 49.4203237 ], [ 8.7069161, 49.4203263 ], [ 8.7071863, 49.4203357 ], [ 8.7074566, 49.4203277 ], [ 8.7077245, 49.4203025 ], [ 8.7079873, 49.4202602 ], [ 8.7079912, 49.4202593 ], [ 8.7081464, 49.420335 ], [ 8.708378, 49.4204264 ], [ 8.7086222, 49.4205025 ], [ 8.7086317, 49.4205047 ], [ 8.7086628, 49.4205621 ], [ 8.7087776, 49.420722 ], [ 8.7089158, 49.4208738 ], [ 8.7090762, 49.421016 ], [ 8.7092572, 49.4211473 ], [ 8.709457, 49.4212663 ], [ 8.7096737, 49.4213721 ], [ 8.7099053, 49.4214634 ], [ 8.7101495, 49.4215395 ], [ 8.710404, 49.4215996 ], [ 8.7106662, 49.4216432 ], [ 8.7109338, 49.4216697 ], [ 8.711204, 49.4216791 ], [ 8.7114744, 49.4216711 ], [ 8.7117422, 49.4216458 ], [ 8.712005, 49.4216036 ], [ 8.7122602, 49.4215448 ], [ 8.7125053, 49.4214699 ], [ 8.7127379, 49.4213797 ], [ 8.7129559, 49.4212751 ], [ 8.7131571, 49.421157 ], [ 8.7133396, 49.4210267 ], [ 8.7135016, 49.4208853 ], [ 8.7136417, 49.4207342 ], [ 8.7137583, 49.4205749 ], [ 8.7138504, 49.4204089 ], [ 8.7139172, 49.4202378 ], [ 8.7139579, 49.4200633 ], [ 8.7139722, 49.419887 ], [ 8.71396, 49.4197106 ], [ 8.7139213, 49.4195359 ], [ 8.7138565, 49.4193644 ], [ 8.7137663, 49.419198 ], [ 8.7137574, 49.4191856 ], [ 8.7138043, 49.4191011 ], [ 8.713871, 49.41893 ], [ 8.7139117, 49.4187555 ], [ 8.7139151, 49.4187137 ], [ 8.7139208, 49.4186992 ], [ 8.7139615, 49.4185247 ], [ 8.7139758, 49.4183484 ], [ 8.7139636, 49.418172 ], [ 8.7139249, 49.4179973 ], [ 8.7138601, 49.4178258 ], [ 8.7137699, 49.4176594 ], [ 8.7136552, 49.4174995 ], [ 8.7135169, 49.4173477 ], [ 8.7133565, 49.4172055 ], [ 8.7132625, 49.4171374 ], [ 8.7134464, 49.4171078 ], [ 8.7137015, 49.4170489 ], [ 8.7139466, 49.4169741 ], [ 8.7141792, 49.4168839 ], [ 8.7143972, 49.4167793 ], [ 8.7145984, 49.4166612 ], [ 8.7147809, 49.4165308 ], [ 8.7149429, 49.4163894 ], [ 8.7150829, 49.4162383 ], [ 8.7151995, 49.416079 ], [ 8.7152916, 49.415913 ], [ 8.7153583, 49.415742 ], [ 8.7153785, 49.4156555 ], [ 8.715571, 49.4156246 ], [ 8.7155945, 49.4156285 ], [ 8.715862, 49.415655 ], [ 8.7161322, 49.4156644 ], [ 8.7164025, 49.4156564 ], [ 8.7166035, 49.4156374 ], [ 8.716827, 49.4157071 ], [ 8.7170814, 49.4157672 ], [ 8.7173436, 49.4158107 ], [ 8.7174248, 49.4158188 ], [ 8.7174712, 49.4158833 ], [ 8.7176094, 49.4160351 ], [ 8.7177698, 49.4161773 ], [ 8.7179508, 49.4163085 ], [ 8.7181506, 49.4164276 ], [ 8.7183673, 49.4165333 ], [ 8.7185989, 49.4166246 ], [ 8.7186076, 49.4166273 ], [ 8.718621, 49.4166326 ], [ 8.7188652, 49.4167087 ], [ 8.7191197, 49.4167688 ], [ 8.7193819, 49.4168123 ], [ 8.7196494, 49.4168389 ], [ 8.7199197, 49.4168482 ] ] ], [ [ [ 8.6907449, 49.4219396 ], [ 8.6908336, 49.4220039 ], [ 8.6890046, 49.4220039 ], [ 8.6890455, 49.4219682 ], [ 8.6891856, 49.4218172 ], [ 8.6893023, 49.4216579 ], [ 8.6893945, 49.4214919 ], [ 8.6894614, 49.4213209 ], [ 8.6895022, 49.4211463 ], [ 8.6895046, 49.4211171 ], [ 8.6895329, 49.420996 ], [ 8.6895473, 49.4208197 ], [ 8.6895413, 49.4207335 ], [ 8.689552, 49.4206876 ], [ 8.6895525, 49.4206819 ], [ 8.6895643, 49.4206313 ], [ 8.6895787, 49.420455 ], [ 8.689575, 49.4204015 ], [ 8.6895784, 49.4203929 ], [ 8.6896192, 49.4202183 ], [ 8.6896199, 49.4202105 ], [ 8.689632, 49.4201585 ], [ 8.689637, 49.420098 ], [ 8.689641, 49.4200806 ], [ 8.6896459, 49.4200209 ], [ 8.6896501, 49.4200028 ], [ 8.6896508, 49.4199944 ], [ 8.6896628, 49.419943 ], [ 8.6896717, 49.4198339 ], [ 8.6896799, 49.4197989 ], [ 8.6896943, 49.4196226 ], [ 8.6896821, 49.4194463 ], [ 8.6896435, 49.4192715 ], [ 8.6895788, 49.4191001 ], [ 8.6895461, 49.4190396 ], [ 8.6895448, 49.4190363 ], [ 8.6894547, 49.4188698 ], [ 8.68934, 49.4187099 ], [ 8.6892019, 49.4185581 ], [ 8.6890416, 49.4184159 ], [ 8.6888606, 49.4182846 ], [ 8.6886609, 49.4181655 ], [ 8.6884442, 49.4180598 ], [ 8.6882127, 49.4179684 ], [ 8.6879685, 49.4178922 ], [ 8.6877141, 49.4178321 ], [ 8.6874519, 49.4177885 ], [ 8.6871844, 49.4177618 ], [ 8.6871597, 49.417761 ], [ 8.6871081, 49.4177558 ], [ 8.6870848, 49.417755 ], [ 8.6870317, 49.4177497 ], [ 8.6870084, 49.4177489 ], [ 8.6869553, 49.4177436 ], [ 8.6866851, 49.4177342 ], [ 8.6864147, 49.4177422 ], [ 8.6861469, 49.4177673 ], [ 8.6858841, 49.4178095 ], [ 8.6856289, 49.4178683 ], [ 8.6853838, 49.4179431 ], [ 8.6852224, 49.4180056 ], [ 8.6851065, 49.4179028 ], [ 8.6849256, 49.4177715 ], [ 8.6847259, 49.4176524 ], [ 8.6845092, 49.4175466 ], [ 8.6844847, 49.4175369 ], [ 8.684488, 49.4175227 ], [ 8.6845025, 49.4173465 ], [ 8.6844903, 49.4171701 ], [ 8.6844517, 49.4169954 ], [ 8.6843871, 49.4168239 ], [ 8.684344, 49.4167444 ], [ 8.6843202, 49.4166811 ], [ 8.6842301, 49.4165147 ], [ 8.6841154, 49.4163547 ], [ 8.6839773, 49.4162029 ], [ 8.683817, 49.4160607 ], [ 8.6836361, 49.4159294 ], [ 8.6834364, 49.4158103 ], [ 8.6832197, 49.4157045 ], [ 8.6832071, 49.4156996 ], [ 8.6832993, 49.4156338 ], [ 8.6834614, 49.4154925 ], [ 8.6836015, 49.4153414 ], [ 8.6837182, 49.4151821 ], [ 8.6838104, 49.4150162 ], [ 8.6838773, 49.4148451 ], [ 8.6839181, 49.4146706 ], [ 8.6839325, 49.4144943 ], [ 8.6839204, 49.4143179 ], [ 8.6839112, 49.4142766 ], [ 8.6840558, 49.414291 ], [ 8.6840828, 49.4142919 ], [ 8.6841025, 49.4142939 ], [ 8.6841222, 49.4142946 ], [ 8.6841716, 49.4142995 ], [ 8.6841825, 49.4142998 ], [ 8.6842169, 49.4143033 ], [ 8.6842253, 49.4143036 ], [ 8.6842887, 49.4143099 ], [ 8.684322, 49.414311 ], [ 8.6845223, 49.414331 ], [ 8.6845423, 49.4143317 ], [ 8.6846388, 49.4143413 ], [ 8.6846624, 49.4143421 ], [ 8.6846883, 49.4143447 ], [ 8.6847112, 49.4143455 ], [ 8.6848117, 49.4143555 ], [ 8.6848126, 49.4143555 ], [ 8.6848585, 49.4143601 ], [ 8.6849014, 49.4143616 ], [ 8.6849296, 49.4143644 ], [ 8.6849361, 49.4143646 ], [ 8.684977, 49.4143687 ], [ 8.6852472, 49.4143781 ], [ 8.6855175, 49.4143701 ], [ 8.6855355, 49.4143685 ], [ 8.685614, 49.4143763 ], [ 8.6856346, 49.414377 ], [ 8.6856565, 49.4143792 ], [ 8.6857121, 49.4143811 ], [ 8.685764, 49.4143863 ], [ 8.6858065, 49.4143877 ], [ 8.6858107, 49.4143882 ], [ 8.6860809, 49.4143976 ], [ 8.6861897, 49.4143944 ], [ 8.6861946, 49.4143955 ], [ 8.6862287, 49.4144012 ], [ 8.686458, 49.4144554 ], [ 8.686483, 49.4144596 ], [ 8.686616, 49.4145011 ], [ 8.6868704, 49.4145612 ], [ 8.6868932, 49.414565 ], [ 8.6869671, 49.4145881 ], [ 8.6871006, 49.4146197 ], [ 8.6871071, 49.4146217 ], [ 8.6873615, 49.4146818 ], [ 8.6875009, 49.414705 ], [ 8.6876215, 49.4147335 ], [ 8.6876381, 49.4147363 ], [ 8.6876713, 49.4148865 ], [ 8.6876764, 49.4149002 ], [ 8.6876823, 49.4149859 ], [ 8.6877209, 49.4151606 ], [ 8.6877856, 49.415332 ], [ 8.6878757, 49.4154985 ], [ 8.6879904, 49.4156584 ], [ 8.6881285, 49.4158102 ], [ 8.6882888, 49.4159524 ], [ 8.6884697, 49.4160837 ], [ 8.6886695, 49.4162028 ], [ 8.6888862, 49.4163086 ], [ 8.6891177, 49.4164 ], [ 8.6893618, 49.4164761 ], [ 8.6896162, 49.4165363 ], [ 8.6898175, 49.4165697 ], [ 8.6897538, 49.4167329 ], [ 8.6897129, 49.4169074 ], [ 8.6896986, 49.4170837 ], [ 8.6897107, 49.4172601 ], [ 8.6897493, 49.4174348 ], [ 8.689814, 49.4176063 ], [ 8.6899041, 49.4177727 ], [ 8.6900188, 49.4179326 ], [ 8.6901411, 49.4180669 ], [ 8.6900874, 49.4181635 ], [ 8.6900206, 49.4183346 ], [ 8.6899798, 49.4185091 ], [ 8.6899654, 49.4186854 ], [ 8.6899775, 49.4188618 ], [ 8.6900161, 49.4190365 ], [ 8.6900808, 49.419208 ], [ 8.6901709, 49.4193744 ], [ 8.6902856, 49.4195343 ], [ 8.6904238, 49.4196861 ], [ 8.6905761, 49.4198212 ], [ 8.6904571, 49.4199495 ], [ 8.6903404, 49.4201088 ], [ 8.6902482, 49.4202747 ], [ 8.6901813, 49.4204458 ], [ 8.6901405, 49.4206203 ], [ 8.6901261, 49.4207966 ], [ 8.6901383, 49.420973 ], [ 8.6901769, 49.4211477 ], [ 8.6902416, 49.4213192 ], [ 8.6903317, 49.4214856 ], [ 8.6904464, 49.4216455 ], [ 8.6905846, 49.4217973 ], [ 8.6907449, 49.4219396 ] ] ], [ [ [ 8.671486, 49.4220024 ], [ 8.66, 49.422 ], [ 8.66, 49.4165307 ], [ 8.6600163, 49.4166045 ], [ 8.6600808, 49.416776 ], [ 8.6601708, 49.4169425 ], [ 8.6602854, 49.4171024 ], [ 8.6604235, 49.4172542 ], [ 8.6605837, 49.4173965 ], [ 8.6607646, 49.4175279 ], [ 8.6609643, 49.417647 ], [ 8.6611809, 49.4177528 ], [ 8.6614124, 49.4178442 ], [ 8.6616565, 49.4179204 ], [ 8.6619108, 49.4179807 ], [ 8.662173, 49.4180243 ], [ 8.6622423, 49.4180312 ], [ 8.6622021, 49.4180861 ], [ 8.6621098, 49.418252 ], [ 8.6620429, 49.4184231 ], [ 8.662002, 49.4185976 ], [ 8.6619875, 49.4187739 ], [ 8.6619995, 49.4189502 ], [ 8.662038, 49.419125 ], [ 8.6621026, 49.4192964 ], [ 8.6621926, 49.4194629 ], [ 8.6623073, 49.4196228 ], [ 8.6624453, 49.4197747 ], [ 8.6626056, 49.4199169 ], [ 8.6627864, 49.4200483 ], [ 8.6629861, 49.4201674 ], [ 8.6632028, 49.4202732 ], [ 8.6634343, 49.4203647 ], [ 8.6636784, 49.4204409 ], [ 8.6639328, 49.4205011 ], [ 8.664195, 49.4205447 ], [ 8.6644625, 49.4205714 ], [ 8.6647327, 49.4205809 ], [ 8.6650031, 49.420573 ], [ 8.665271, 49.4205479 ], [ 8.6655338, 49.4205057 ], [ 8.665789, 49.420447 ], [ 8.6658115, 49.4204401 ], [ 8.6658839, 49.4204473 ], [ 8.6661536, 49.4204567 ], [ 8.6661684, 49.420524 ], [ 8.666233, 49.4206954 ], [ 8.666323, 49.4208619 ], [ 8.6664377, 49.4210218 ], [ 8.6665758, 49.4211737 ], [ 8.666736, 49.4213159 ], [ 8.6669169, 49.4214473 ], [ 8.6671166, 49.4215664 ], [ 8.6673332, 49.4216722 ], [ 8.6675648, 49.4217636 ], [ 8.6678089, 49.4218398 ], [ 8.6680633, 49.4219 ], [ 8.6683255, 49.4219437 ], [ 8.6685931, 49.4219703 ], [ 8.6688633, 49.4219798 ], [ 8.6691337, 49.4219719 ], [ 8.6691561, 49.4219698 ], [ 8.6692758, 49.4219663 ], [ 8.6695436, 49.4219411 ], [ 8.6698064, 49.421899 ], [ 8.6700616, 49.4218402 ], [ 8.6703068, 49.4217655 ], [ 8.6705395, 49.4216754 ], [ 8.6707576, 49.4215708 ], [ 8.6709589, 49.4214528 ], [ 8.6711415, 49.4213225 ], [ 8.6713037, 49.4211812 ], [ 8.671334, 49.4211486 ], [ 8.671406, 49.4210858 ], [ 8.6714589, 49.4210288 ], [ 8.6714223, 49.4211222 ], [ 8.6713815, 49.4212967 ], [ 8.671367, 49.421473 ], [ 8.6713791, 49.4216494 ], [ 8.6714177, 49.4218241 ], [ 8.6714823, 49.4219955 ], [ 8.671486, 49.4220024 ] ] ], [ [ [ 8.6600211, 49.4159026 ], [ 8.66, 49.4159927 ], [ 8.66, 49.4158276 ], [ 8.6600462, 49.4158385 ], [ 8.6600211, 49.4159026 ] ] ], [ [ [ 8.6600919, 49.4123652 ], [ 8.66, 49.4123863 ], [ 8.66, 49.4093607 ], [ 8.6600736, 49.4094969 ], [ 8.6601882, 49.4096568 ], [ 8.6603263, 49.4098086 ], [ 8.6604865, 49.4099509 ], [ 8.6606673, 49.4100823 ], [ 8.6606785, 49.410089 ], [ 8.660665, 49.4101464 ], [ 8.6606505, 49.4103226 ], [ 8.6606626, 49.410499 ], [ 8.6607011, 49.4106738 ], [ 8.6607657, 49.4108452 ], [ 8.6608557, 49.4110117 ], [ 8.6609703, 49.4111716 ], [ 8.6611083, 49.4113235 ], [ 8.6612685, 49.4114657 ], [ 8.6614493, 49.4115971 ], [ 8.661649, 49.4117162 ], [ 8.6617283, 49.4117549 ], [ 8.6616411, 49.4118309 ], [ 8.661501, 49.4119819 ], [ 8.6613842, 49.4121411 ], [ 8.6613575, 49.4121892 ], [ 8.6612759, 49.4122023 ], [ 8.6610207, 49.412261 ], [ 8.6609325, 49.4122879 ], [ 8.6609256, 49.4122876 ], [ 8.6606553, 49.4122955 ], [ 8.6606329, 49.4122976 ], [ 8.6606225, 49.4122979 ], [ 8.6603547, 49.412323 ], [ 8.6600919, 49.4123652 ] ] ], [ [ [ 8.6600831, 49.40812 ], [ 8.66, 49.4082695 ], [ 8.66, 49.4061113 ], [ 8.6602471, 49.406136 ], [ 8.6605173, 49.4061455 ], [ 8.6607876, 49.4061376 ], [ 8.6610554, 49.4061125 ], [ 8.6613169, 49.4060705 ], [ 8.6614931, 49.4060881 ], [ 8.6617632, 49.4060976 ], [ 8.6620335, 49.4060897 ], [ 8.6623013, 49.4060646 ], [ 8.662564, 49.4060224 ], [ 8.6628192, 49.4059637 ], [ 8.6630643, 49.4058889 ], [ 8.6632969, 49.4057989 ], [ 8.6635149, 49.4056943 ], [ 8.6637162, 49.4055763 ], [ 8.6637441, 49.4055564 ], [ 8.6638415, 49.4054993 ], [ 8.6639428, 49.4054271 ], [ 8.6641755, 49.4053735 ], [ 8.6644206, 49.4052987 ], [ 8.6645241, 49.4052587 ], [ 8.6645404, 49.4052889 ], [ 8.664655, 49.4054488 ], [ 8.6647931, 49.4056006 ], [ 8.6649532, 49.4057429 ], [ 8.6650209, 49.405792 ], [ 8.6651497, 49.4059064 ], [ 8.6651021, 49.405992 ], [ 8.6650352, 49.406163 ], [ 8.6650239, 49.4062114 ], [ 8.664956, 49.4062377 ], [ 8.6647719, 49.406326 ], [ 8.6646489, 49.4063736 ], [ 8.6644309, 49.4064781 ], [ 8.6642296, 49.4065961 ], [ 8.6640471, 49.4067264 ], [ 8.6638849, 49.4068677 ], [ 8.6637448, 49.4070187 ], [ 8.6636506, 49.4071472 ], [ 8.6634376, 49.4070967 ], [ 8.6631754, 49.4070531 ], [ 8.662908, 49.4070264 ], [ 8.6626378, 49.4070169 ], [ 8.6623675, 49.4070248 ], [ 8.6620998, 49.4070499 ], [ 8.661837, 49.4070921 ], [ 8.6615819, 49.4071508 ], [ 8.6613368, 49.4072256 ], [ 8.6611041, 49.4073156 ], [ 8.6608861, 49.4074202 ], [ 8.6606848, 49.4075381 ], [ 8.6605022, 49.4076684 ], [ 8.6603401, 49.4078097 ], [ 8.6601999, 49.4079608 ], [ 8.6600831, 49.40812 ] ] ], [ [ [ 8.66, 49.4015851 ], [ 8.66, 49.398 ], [ 8.6653489, 49.3980013 ], [ 8.6653475, 49.3980074 ], [ 8.665333, 49.3981837 ], [ 8.6653451, 49.39836 ], [ 8.6653836, 49.3985348 ], [ 8.6654482, 49.3987062 ], [ 8.6655225, 49.3988437 ], [ 8.6653834, 49.398965 ], [ 8.6653628, 49.3989872 ], [ 8.6652887, 49.3990227 ], [ 8.6651978, 49.3990761 ], [ 8.6651054, 49.3990973 ], [ 8.6648604, 49.3991721 ], [ 8.6646277, 49.3992622 ], [ 8.6646095, 49.3992709 ], [ 8.66456, 49.3992901 ], [ 8.6643421, 49.3993946 ], [ 8.6641408, 49.3995126 ], [ 8.6639583, 49.3996429 ], [ 8.6638719, 49.3997181 ], [ 8.6637369, 49.3997829 ], [ 8.6635356, 49.3999009 ], [ 8.6633531, 49.4000312 ], [ 8.6633125, 49.4000665 ], [ 8.6631035, 49.4001303 ], [ 8.6628709, 49.4002204 ], [ 8.6626529, 49.4003249 ], [ 8.6625694, 49.4003738 ], [ 8.6625013, 49.4004065 ], [ 8.6624435, 49.4004404 ], [ 8.6623686, 49.4004763 ], [ 8.6622336, 49.4005554 ], [ 8.6620293, 49.4006534 ], [ 8.6619015, 49.4007283 ], [ 8.6618825, 49.4007356 ], [ 8.6616645, 49.4008402 ], [ 8.6615181, 49.400926 ], [ 8.6614003, 49.4009825 ], [ 8.6613246, 49.4010268 ], [ 8.6612407, 49.4010671 ], [ 8.6611848, 49.4010998 ], [ 8.6611622, 49.4011107 ], [ 8.6609896, 49.4012119 ], [ 8.660964, 49.4012241 ], [ 8.6607904, 49.4012641 ], [ 8.6605454, 49.4013388 ], [ 8.6603127, 49.4014289 ], [ 8.6600947, 49.4015335 ], [ 8.6600575, 49.4015553 ], [ 8.6600329, 49.4015671 ], [ 8.6600237, 49.4015725 ], [ 8.6600118, 49.4015782 ], [ 8.66, 49.4015851 ] ] ], [ [ [ 8.6753797, 49.398016 ], [ 8.6753726, 49.398003 ], [ 8.683389, 49.3980037 ], [ 8.6833642, 49.3980671 ], [ 8.6833234, 49.3982416 ], [ 8.683309, 49.3984179 ], [ 8.6833211, 49.3985942 ], [ 8.6833597, 49.398769 ], [ 8.6834243, 49.3989404 ], [ 8.6835144, 49.3991069 ], [ 8.683629, 49.3992668 ], [ 8.6837671, 49.3994186 ], [ 8.6839274, 49.3995609 ], [ 8.6841082, 49.3996922 ], [ 8.6843078, 49.3998113 ], [ 8.6844739, 49.3998923 ], [ 8.6844603, 49.3999167 ], [ 8.6843935, 49.4000878 ], [ 8.6843915, 49.4000964 ], [ 8.684199, 49.4001408 ], [ 8.6839539, 49.4002156 ], [ 8.6837213, 49.4003057 ], [ 8.6835034, 49.4004103 ], [ 8.6833022, 49.4005283 ], [ 8.6831197, 49.4006586 ], [ 8.6829576, 49.4008 ], [ 8.6828176, 49.400951 ], [ 8.6827009, 49.4011103 ], [ 8.6826929, 49.4011246 ], [ 8.6826879, 49.4011315 ], [ 8.6825957, 49.4012975 ], [ 8.6825288, 49.4014685 ], [ 8.6824889, 49.4016393 ], [ 8.6824744, 49.4016763 ], [ 8.6824336, 49.4018509 ], [ 8.6824192, 49.4020272 ], [ 8.6824313, 49.4022035 ], [ 8.6824699, 49.4023783 ], [ 8.6825345, 49.4025497 ], [ 8.6826246, 49.4027162 ], [ 8.6827392, 49.4028761 ], [ 8.6828773, 49.4030279 ], [ 8.6830376, 49.4031701 ], [ 8.6832184, 49.4033014 ], [ 8.6834181, 49.4034205 ], [ 8.6836347, 49.4035263 ], [ 8.6838662, 49.4036177 ], [ 8.6841102, 49.4036939 ], [ 8.6843306, 49.403746 ], [ 8.6843277, 49.4037533 ], [ 8.6842869, 49.4039278 ], [ 8.6842725, 49.4041041 ], [ 8.6842846, 49.4042805 ], [ 8.6843232, 49.4044552 ], [ 8.6843878, 49.4046266 ], [ 8.6844165, 49.4046796 ], [ 8.6843343, 49.4048276 ], [ 8.6842674, 49.4049987 ], [ 8.6842266, 49.4051732 ], [ 8.6842122, 49.4053495 ], [ 8.6842244, 49.4055259 ], [ 8.684233, 49.4055649 ], [ 8.6842064, 49.4055639 ], [ 8.6841826, 49.4055646 ], [ 8.684105, 49.4055619 ], [ 8.6838348, 49.4055699 ], [ 8.683567, 49.405595 ], [ 8.6833043, 49.4056372 ], [ 8.6830492, 49.405696 ], [ 8.6828041, 49.4057708 ], [ 8.6825715, 49.4058609 ], [ 8.6823535, 49.4059655 ], [ 8.6821523, 49.4060835 ], [ 8.6819698, 49.4062138 ], [ 8.6818077, 49.4063552 ], [ 8.6816676, 49.4065062 ], [ 8.6815509, 49.4066655 ], [ 8.6815029, 49.4067519 ], [ 8.6814136, 49.4068043 ], [ 8.6814073, 49.4068087 ], [ 8.6813991, 49.4068136 ], [ 8.6812165, 49.4069439 ], [ 8.6810545, 49.4070852 ], [ 8.6809144, 49.4072363 ], [ 8.6807977, 49.4073956 ], [ 8.6807055, 49.4075615 ], [ 8.6806386, 49.4077326 ], [ 8.6805978, 49.4079071 ], [ 8.6805834, 49.4080834 ], [ 8.6805877, 49.4081463 ], [ 8.6803827, 49.4080463 ], [ 8.6801513, 49.4079549 ], [ 8.6799072, 49.4078787 ], [ 8.6796528, 49.4078185 ], [ 8.6793907, 49.4077749 ], [ 8.6791507, 49.407751 ], [ 8.6790698, 49.4076381 ], [ 8.6790244, 49.4075881 ], [ 8.6790585, 49.4075718 ], [ 8.6792597, 49.4074538 ], [ 8.6794422, 49.4073235 ], [ 8.6796043, 49.4071821 ], [ 8.6797444, 49.4070311 ], [ 8.6798611, 49.4068718 ], [ 8.6799533, 49.4067058 ], [ 8.6800202, 49.4065348 ], [ 8.6800319, 49.4064846 ], [ 8.6802435, 49.4064647 ], [ 8.6805062, 49.4064225 ], [ 8.6807613, 49.4063637 ], [ 8.6810063, 49.4062889 ], [ 8.681239, 49.4061988 ], [ 8.681457, 49.4060943 ], [ 8.6816582, 49.4059762 ], [ 8.6818407, 49.4058459 ], [ 8.6820028, 49.4057046 ], [ 8.6821429, 49.4055535 ], [ 8.6822596, 49.4053943 ], [ 8.6823518, 49.4052283 ], [ 8.6824186, 49.4050572 ], [ 8.6824594, 49.4048827 ], [ 8.6824738, 49.4047064 ], [ 8.6824617, 49.40453 ], [ 8.6824231, 49.4043553 ], [ 8.6823585, 49.4041839 ], [ 8.6822684, 49.4040174 ], [ 8.6821538, 49.4038575 ], [ 8.6820157, 49.4037057 ], [ 8.6818555, 49.4035634 ], [ 8.6816746, 49.4034321 ], [ 8.681475, 49.403313 ], [ 8.6812584, 49.4032072 ], [ 8.6810269, 49.4031158 ], [ 8.6807828, 49.4030397 ], [ 8.6805285, 49.4029795 ], [ 8.680407, 49.4029593 ], [ 8.6803872, 49.4029546 ], [ 8.6801694, 49.4029184 ], [ 8.6800569, 49.4028185 ], [ 8.6798761, 49.4026872 ], [ 8.6796764, 49.402568 ], [ 8.6794598, 49.4024623 ], [ 8.6792283, 49.4023709 ], [ 8.6789843, 49.4022947 ], [ 8.6788343, 49.4022592 ], [ 8.6787296, 49.4021663 ], [ 8.6787253, 49.4021615 ], [ 8.6787214, 49.402158 ], [ 8.6787109, 49.4021465 ], [ 8.6785659, 49.4020178 ], [ 8.6785331, 49.4019817 ], [ 8.6785252, 49.4019747 ], [ 8.6785162, 49.4019648 ], [ 8.678356, 49.4018226 ], [ 8.6781752, 49.4016913 ], [ 8.6779755, 49.4015722 ], [ 8.6777589, 49.4014664 ], [ 8.6775275, 49.401375 ], [ 8.6772834, 49.4012988 ], [ 8.6770291, 49.4012386 ], [ 8.676767, 49.401195 ], [ 8.6764996, 49.4011684 ], [ 8.6764425, 49.4011664 ], [ 8.6763955, 49.4010794 ], [ 8.6762809, 49.4009195 ], [ 8.6761428, 49.4007677 ], [ 8.6759826, 49.4006254 ], [ 8.6758018, 49.4004941 ], [ 8.6756021, 49.400375 ], [ 8.6753855, 49.4002692 ], [ 8.6751541, 49.4001778 ], [ 8.6749101, 49.4001016 ], [ 8.6746558, 49.4000414 ], [ 8.6743936, 49.3999978 ], [ 8.6743797, 49.3999964 ], [ 8.6743687, 49.399991 ], [ 8.6743547, 49.3999855 ], [ 8.674478, 49.3999264 ], [ 8.6746792, 49.3998084 ], [ 8.6748617, 49.3996781 ], [ 8.6750238, 49.3995367 ], [ 8.6751638, 49.3993857 ], [ 8.6752805, 49.3992264 ], [ 8.6753728, 49.3990604 ], [ 8.6754396, 49.3988894 ], [ 8.6754805, 49.3987149 ], [ 8.6754949, 49.3985386 ], [ 8.6754828, 49.3983622 ], [ 8.6754443, 49.3981875 ], [ 8.6753797, 49.398016 ] ] ], [ [ [ 8.6693716, 49.4127798 ], [ 8.6691041, 49.4127532 ], [ 8.669001, 49.4127496 ], [ 8.6688659, 49.4127176 ], [ 8.6686037, 49.4126739 ], [ 8.6683362, 49.4126473 ], [ 8.668066, 49.4126378 ], [ 8.6677957, 49.4126457 ], [ 8.6675279, 49.4126709 ], [ 8.6672651, 49.412713 ], [ 8.66701, 49.4127717 ], [ 8.6667649, 49.4128465 ], [ 8.6666812, 49.4128789 ], [ 8.666684, 49.412845 ], [ 8.6666719, 49.4126686 ], [ 8.6666334, 49.4124939 ], [ 8.6665688, 49.4123224 ], [ 8.6664788, 49.4121559 ], [ 8.6663642, 49.411996 ], [ 8.6662261, 49.4118442 ], [ 8.6660659, 49.4117019 ], [ 8.6660285, 49.4116747 ], [ 8.6661871, 49.4116599 ], [ 8.6664499, 49.4116177 ], [ 8.6665373, 49.4115976 ], [ 8.6667878, 49.4115574 ], [ 8.6670429, 49.4114987 ], [ 8.667288, 49.4114239 ], [ 8.6675207, 49.4113338 ], [ 8.6677388, 49.4112293 ], [ 8.66794, 49.4111113 ], [ 8.6681226, 49.410981 ], [ 8.6682848, 49.4108397 ], [ 8.6684249, 49.4106886 ], [ 8.6685416, 49.4105294 ], [ 8.6686339, 49.4103634 ], [ 8.6687008, 49.4101923 ], [ 8.6687088, 49.410158 ], [ 8.668759, 49.4102508 ], [ 8.6688736, 49.4104107 ], [ 8.6690117, 49.4105625 ], [ 8.6691719, 49.4107048 ], [ 8.6692389, 49.4107534 ], [ 8.6691588, 49.4108396 ], [ 8.6690421, 49.4109989 ], [ 8.6689498, 49.4111649 ], [ 8.6688829, 49.4113359 ], [ 8.668842, 49.4115104 ], [ 8.6688276, 49.4116867 ], [ 8.6688397, 49.4118631 ], [ 8.6688782, 49.4120378 ], [ 8.6689428, 49.4122093 ], [ 8.6690328, 49.4123758 ], [ 8.6691474, 49.4125357 ], [ 8.6692855, 49.4126875 ], [ 8.6693936, 49.4127835 ], [ 8.6693716, 49.4127798 ] ] ], [ [ [ 8.6707637, 49.4056373 ], [ 8.6704963, 49.4056107 ], [ 8.6702261, 49.4056012 ], [ 8.6701987, 49.405602 ], [ 8.6702861, 49.4055079 ], [ 8.6704028, 49.4053486 ], [ 8.6704822, 49.4052058 ], [ 8.6707151, 49.4051521 ], [ 8.6709602, 49.4050774 ], [ 8.6711928, 49.4049873 ], [ 8.6714108, 49.4048827 ], [ 8.6714131, 49.4048814 ], [ 8.6715327, 49.405013 ], [ 8.6715362, 49.4050161 ], [ 8.6715391, 49.4050193 ], [ 8.6716275, 49.4050978 ], [ 8.6717171, 49.4051963 ], [ 8.6717201, 49.4051989 ], [ 8.6717234, 49.4052026 ], [ 8.6718095, 49.405279 ], [ 8.6718684, 49.4053438 ], [ 8.6718709, 49.405346 ], [ 8.6718747, 49.4053502 ], [ 8.6718749, 49.4053503 ], [ 8.6718155, 49.4053598 ], [ 8.6715604, 49.4054186 ], [ 8.6713153, 49.4054934 ], [ 8.6710827, 49.4055835 ], [ 8.6709171, 49.4056629 ], [ 8.6707637, 49.4056373 ] ] ], [ [ [ 8.6757756, 49.4148909 ], [ 8.6757135, 49.4148227 ], [ 8.6757757, 49.4147928 ], [ 8.675977, 49.4146748 ], [ 8.6761596, 49.4145445 ], [ 8.6761779, 49.4145286 ], [ 8.676311, 49.4145601 ], [ 8.6765732, 49.4146037 ], [ 8.6768407, 49.4146303 ], [ 8.6771109, 49.4146398 ], [ 8.6773812, 49.4146319 ], [ 8.677649, 49.4146067 ], [ 8.6779118, 49.4145645 ], [ 8.6781189, 49.4145168 ], [ 8.6781269, 49.4146334 ], [ 8.6781655, 49.4148082 ], [ 8.6782301, 49.4149796 ], [ 8.6783202, 49.4151461 ], [ 8.6784348, 49.415306 ], [ 8.678573, 49.4154578 ], [ 8.6786349, 49.4155128 ], [ 8.6785918, 49.4154871 ], [ 8.6783751, 49.4153813 ], [ 8.6781436, 49.4152899 ], [ 8.6778995, 49.4152137 ], [ 8.6776451, 49.4151535 ], [ 8.6773829, 49.4151099 ], [ 8.6771154, 49.4150833 ], [ 8.6768452, 49.4150738 ], [ 8.6765749, 49.4150817 ], [ 8.6763071, 49.4151069 ], [ 8.6760443, 49.4151491 ], [ 8.6759545, 49.4151697 ], [ 8.6758902, 49.4150508 ], [ 8.6757756, 49.4148909 ] ] ], [ [ [ 8.6793919, 49.4161903 ], [ 8.6793874, 49.4161951 ], [ 8.6793854, 49.4161915 ], [ 8.6792708, 49.4160315 ], [ 8.6791326, 49.4158797 ], [ 8.6790707, 49.4158248 ], [ 8.6791138, 49.4158505 ], [ 8.6793305, 49.4159562 ], [ 8.679558, 49.4160461 ], [ 8.679554, 49.416049 ], [ 8.6793919, 49.4161903 ] ] ], [ [ [ 8.6954984, 49.4165389 ], [ 8.6954598, 49.4163642 ], [ 8.6953951, 49.4161928 ], [ 8.695305, 49.4160263 ], [ 8.6951903, 49.4158664 ], [ 8.6950521, 49.4157146 ], [ 8.6948918, 49.4155724 ], [ 8.6947109, 49.4154411 ], [ 8.6945111, 49.415322 ], [ 8.6943766, 49.4152564 ], [ 8.6945433, 49.4152841 ], [ 8.6948108, 49.4153107 ], [ 8.6950811, 49.4153201 ], [ 8.6951191, 49.415319 ], [ 8.6952061, 49.415322 ], [ 8.6954764, 49.415314 ], [ 8.6957442, 49.4152888 ], [ 8.696007, 49.4152466 ], [ 8.696136, 49.4152169 ], [ 8.6962659, 49.4152298 ], [ 8.6963479, 49.4152326 ], [ 8.6963602, 49.4152462 ], [ 8.6965206, 49.4153884 ], [ 8.6967015, 49.4155197 ], [ 8.6969012, 49.4156387 ], [ 8.6971055, 49.4157384 ], [ 8.6971401, 49.4158946 ], [ 8.6971504, 49.4159221 ], [ 8.6970611, 49.4159427 ], [ 8.696816, 49.4160176 ], [ 8.6965833, 49.4161077 ], [ 8.6963654, 49.4162123 ], [ 8.6961641, 49.4163303 ], [ 8.6959816, 49.4164607 ], [ 8.6958195, 49.416602 ], [ 8.6956795, 49.4167531 ], [ 8.6956088, 49.4168496 ], [ 8.6954994, 49.4168528 ], [ 8.6955106, 49.4167153 ], [ 8.6954984, 49.4165389 ] ] ], [ [ [ 8.7037803, 49.4078915 ], [ 8.7035792, 49.4080096 ], [ 8.7033967, 49.4081399 ], [ 8.7032347, 49.4082813 ], [ 8.7032207, 49.4082964 ], [ 8.703173, 49.4082978 ], [ 8.7029766, 49.4083163 ], [ 8.7030519, 49.4082721 ], [ 8.7032344, 49.4081417 ], [ 8.7033964, 49.4080004 ], [ 8.7035364, 49.4078493 ], [ 8.7036531, 49.40769 ], [ 8.7036577, 49.4076817 ], [ 8.7038496, 49.4076884 ], [ 8.7041199, 49.4076804 ], [ 8.7043576, 49.407658 ], [ 8.7042309, 49.4076967 ], [ 8.7039983, 49.4077869 ], [ 8.7037803, 49.4078915 ] ] ] ] } }
]
}
