{
"type": "FeatureCollection",
"features": [
{ "type": "Feature", "properties": { "index": "0", "label": "Within 400 m on foot", "color": "#2b8cbe" }, "geometry": { "type": "Polygon", "coordinates": [ [ [ 8.6607621, 49.3990108 ], [ 8.6608303, 49.3989781 ], [ 8.6609137, 49.3989292 ], [ 8.6613497, 49.3987201 ], [ 8.6615894, 49.3986273 ], [ 8.6615952, 49.3986231 ], [ 8.6619375, 49.3984225 ], [ 8.6622004, 49.3982349 ], [ 8.6625906, 49.3980061 ], [ 8.662591, 49.3980006 ], [ 8.6781851, 49.3980033 ], [ 8.6782271, 49.3981935 ], [ 8.6782513, 49.3985463 ], [ 8.6782225, 49.3988989 ], [ 8.6781408, 49.3992479 ], [ 8.6780627, 49.3994479 ], [ 8.6781209, 49.3994901 ], [ 8.6782676, 49.3996204 ], [ 8.6783492, 49.3996397 ], [ 8.6788372, 49.399792 ], [ 8.6793001, 49.3999749 ], [ 8.6797333, 49.4001864 ], [ 8.6801326, 49.4004246 ], [ 8.6801466, 49.4004348 ], [ 8.6801507, 49.4004291 ], [ 8.6801586, 49.4004149 ], [ 8.680392, 49.4000963 ], [ 8.6806721, 49.3997942 ], [ 8.6808721, 49.3996198 ], [ 8.6807832, 49.3994554 ], [ 8.680654, 49.3991125 ], [ 8.6805769, 49.398763 ], [ 8.6805526, 49.3984103 ], [ 8.6805814, 49.3980577 ], [ 8.6805941, 49.3980035 ], [ 8.6981402, 49.3980036 ], [ 8.6981604, 49.3982951 ], [ 8.6981317, 49.3986477 ], [ 8.6980502, 49.3989968 ], [ 8.6979166, 49.3993389 ], [ 8.6977323, 49.3996709 ], [ 8.697499, 49.3999895 ], [ 8.697219, 49.4002916 ], [ 8.696895, 49.4005744 ], [ 8.6967809, 49.4006559 ], [ 8.6967515, 49.4007815 ], [ 8.6967217, 49.4008579 ], [ 8.6967331, 49.4008576 ], [ 8.6972733, 49.4008763 ], [ 8.6978082, 49.4009295 ], [ 8.6983325, 49.4010167 ], [ 8.6988411, 49.4011369 ], [ 8.6992698, 49.4012706 ], [ 8.6991957, 49.4011338 ], [ 8.6990663, 49.400791 ], [ 8.6989891, 49.4004415 ], [ 8.6989647, 49.4000888 ], [ 8.6989934, 49.3997362 ], [ 8.6990749, 49.3993871 ], [ 8.6992085, 49.399045 ], [ 8.6993928, 49.398713 ], [ 8.699626, 49.3983944 ], [ 8.699906, 49.3980923 ], [ 8.7000078, 49.3980035 ], [ 8.7154587, 49.3980011 ], [ 8.7156025, 49.3982665 ], [ 8.7157319, 49.3986093 ], [ 8.7157663, 49.3987646 ], [ 8.7158128, 49.398783 ], [ 8.7162462, 49.3989944 ], [ 8.7166457, 49.3992325 ], [ 8.7170075, 49.399495 ], [ 8.7173281, 49.3997794 ], [ 8.7176045, 49.4000829 ], [ 8.717834, 49.4004027 ], [ 8.7180144, 49.4007356 ], [ 8.7181439, 49.4010784 ], [ 8.7181708, 49.4011999 ], [ 8.7183197, 49.4012147 ], [ 8.718844, 49.4013018 ], [ 8.7193528, 49.401422 ], [ 8.719841, 49.4015741 ], [ 8.72, 49.4016368 ], [ 8.72, 49.422 ], [ 8.6622937, 49.4220006 ], [ 8.6621234, 49.4219474 ], [ 8.6616604, 49.4217645 ], [ 8.6612271, 49.4215529 ], [ 8.6608277, 49.4213146 ], [ 8.6604661, 49.421052 ], [ 8.6601456, 49.4207674 ], [ 8.66, 49.4206073 ], [ 8.66, 49.3994086 ], [ 8.6601789, 49.3993229 ], [ 8.6602902, 49.3992576 ], [ 8.6604945, 49.3991597 ], [ 8.6606294, 49.3990805 ], [ 8.6607043, 49.3990446 ], [ 8.6607621, 49.3990108 ] ] ] } },
{ "type": "Feature", "properties": { "index": "1", "label": "Beyond 400 m", "color": "#d9d9d9" }, "geometry": { "type": "MultiPolygon", "coordinates": [ [ [ [ 8.7154587, 49.3980011 ], [ 8.72, 49.398 ], [ 8.72, 49.4016368 ], [ 8.719841, 49.4015741 ], [ 8.7193528, 49.401422 ], [ 8.718844, 49.4013018 ], [ 8.7183197, 49.4012147 ], [ 8.7181708, 49.4011999 ], [ 8.7181439, 49.4010784 ], [ 8.7180144, 49.4007356 ], [ 8.717834, 49.4004027 ], [ 8.7176045, 49.4000829 ], [ 8.7173281, 49.3997794 ], [ 8.7170075, 49.399495 ], [ 8.7166457, 49.3992325 ], [ 8.7162462, 49.3989944 ], [ 8.7158128, 49.398783 ], [ 8.7157663, 49.3987646 ], [ 8.7157319, 49.3986093 ], [ 8.7156025, 49.3982665 ], [ 8.7154587, 49.3980011 ] ] ], [ [ [ 8.6622937, 49.4220006 ], [ 8.66, 49.422 ], [ 8.66, 49.4206073 ], [ 8.6601456, 49.4207674 ], [ 8.6604661, 49.421052 ], [ 8.6608277, 49.4213146 ], [ 8.6612271, 49.4215529 ], [ 8.6616604, 49.4217645 ], [ 8.6621234, 49.4219474 ], [ 8.6622937, 49.4220006 ] ] ], [ [ [ 8.66, 49.3994086 ], [ 8.66, 49.398 ], [ 8.662591, 49.3980006 ], [ 8.6625906, 49.3980061 ], [ 8.6622004, 49.3982349 ], [ 8.6619375, 49.3984225 ], [ 8.6615952, 49.3986231 ], [ 8.6615894, 49.3986273 ], [ 8.6613497, 49.3987201 ], [ 8.6609137, 49.3989292 ], [ 8.6608303, 49.3989781 ], [ 8.6607621, 49.3990108 ], [ 8.6607043, 49.3990446 ], [ 8.6606294, 49.3990805 ], [ 8.6604945, 49.3991597 ], [ 8.6602902, 49.3992576 ], [ 8.6601789, 49.3993229 ], [ 8.66, 49.3994086 ] ] ], [ [ [ 8.6782271, 49.3981935 ], [ 8.6781851, 49.3980033 ], [ 8.6805941, 49.3980035 ], [ 8.6805814, 49.3980577 ], [ 8.6805526, 49.3984103 ], [ 8.6805769, 49.398763 ], [ 8.680654, 49.3991125 ], [ 8.6807832, 49.3994554 ], [ 8.6808721, 49.3996198 ], [ 8.6806721, 49.3997942 ], [ 8.680392, 49.4000963 ], [ 8.6801586, 49.4004149 ], [ 8.6801507, 49.4004291 ], [ 8.6801466, 49.4004348 ], [ 8.6801326, 49.4004246 ], [ 8.6797333, 49.4001864 ], [ 8.6793001, 49.3999749 ], [ 8.6788372, 49.399792 ], [ 8.6783492, 49.3996397 ], [ 8.6782676, 49.3996204 ], [ 8.6781209, 49.3994901 ], [ 8.6780627, 49.3994479 ], [ 8.6781408, 49.3992479 ], [ 8.6782225, 49.3988989 ], [ 8.6782513, 49.3985463 ], [ 8.6782271, 49.3981935 ] ] ], [ [ [ 8.6981604, 49.3982951 ], [ 8.6981402, 49.3980036 ], [ 8.7000078, 49.3980035 ], [ 8.699906, 49.3980923 ], [ 8.699626, 49.3983944 ], [ 8.6993928, 49.398713 ], [ 8.6992085, 49.399045 ], [ 8.6990749, 49.3993871 ], [ 8.6989934, 49.3997362 ], [ 8.6989647, 49.4000888 ], [ 8.6989891, 49.4004415 ], [ 8.6990663, 49.400791 ], [ 8.6991957, 49.4011338 ], [ 8.6992698, 49.4012706 ], [ 8.6988411, 49.4011369 ], [ 8.6983325, 49.4010167 ], [ 8.6978082, 49.4009295 ], [ 8.6972733, 49.4008763 ], [ 8.6967331, 49.4008576 ], [ 8.6967217, 49.4008579 ], [ 8.6967515, 49.4007815 ], [ 8.6967809, 49.4006559 ], [ 8.696895, 49.4005744 ], [ 8.697219, 49.4002916 ], [ 8.697499, 49.3999895 ], [ 8.6977323, 49.3996709 ], [ 8.6979166, 49.3993389 ], [ 8.6980502, 49.3989968 ], [ 8.6981317, 49.3986477 ], [ 8.6981604, 49.3982951 ] ] ] ] } }
]
}
