{
"type": "FeatureCollection",
"features": [
{ "type": "Feature", "properties": { "index": "0", "subarea": "H0-0", "count": 9, "population": 37.0, "per_1000_inhabitants": 243.3, "label": "126.9–65112.8 /1k", "color": "#006d2c" }, "geometry": { "type": "Polygon", "coordinates": [ [ [ 8.6678334, 49.3980018 ], [ 8.6639489, 49.4023482 ], [ 8.66, 49.4023366 ], [ 8.66, 49.398 ], [ 8.6678334, 49.3980018 ] ] ] } },
{ "type": "Feature", "properties": { "index": "1", "subarea": "H0-1", "count": 61, "population": 1582.0, "per_1000_inhabitants": 38.56, "label": "23.0–38.6 /1k", "color": "#74c476" }, "geometry": { "type": "Polygon", "coordinates": [ [ [ 8.6678974, 49.4068571 ], [ 8.6638875, 49.411343 ], [ 8.66, 49.4113316 ], [ 8.66, 49.4023366 ], [ 8.6639489, 49.4023482 ], [ 8.6678974, 49.4068571 ] ] ] } },
{ "type": "Feature", "properties": { "index": "2", "subarea": "H0-2", "count": 34, "population": 1478.0, "per_1000_inhabitants": 23.0, "label": "23.0–38.6 /1k", "color": "#74c476" }, "geometry": { "type": "Polygon", "coordinates": [ [ [ 8.6678367, 49.4158519 ], [ 8.6638261, 49.4203378 ], [ 8.66, 49.4203266 ], [ 8.66, 49.4113316 ], [ 8.6638875, 49.411343 ], [ 8.6678367, 49.4158519 ] ] ] } },
{ "type": "Feature", "properties": { "index": "3", "subarea": "H0-3", "count": 0, "population": 66.0, "per_1000_inhabitants": 0.0, "label": "0.0–10.9 /1k", "color": "#edf8e9" }, "geometry": { "type": "Polygon", "coordinates": [ [ [ 8.66, 49.4203266 ], [ 8.6638261, 49.4203378 ], [ 8.6652832, 49.4220012 ], [ 8.66, 49.422 ], [ 8.66, 49.4203266 ] ] ] } },
{ "type": "Feature", "properties": { "index": "4", "subarea": "H1-0", "count": 331, "population": 5295.0, "per_1000_inhabitants": 62.51, "label": "38.6–126.9 /1k", "color": "#31a354" }, "geometry": { "type": "Polygon", "coordinates": [ [ [ 8.6678974, 49.4068571 ], [ 8.6639489, 49.4023482 ], [ 8.6678334, 49.3980018 ], [ 8.6760185, 49.398003 ], [ 8.6798642, 49.4023933 ], [ 8.6758558, 49.4068797 ], [ 8.6678974, 49.4068571 ] ] ] } },
{ "type": "Feature", "properties": { "index": "5", "subarea": "H1-1", "count": 106, "population": 3167.0, "per_1000_inhabitants": 33.47, "label": "23.0–38.6 /1k", "color": "#74c476" }, "geometry": { "type": "Polygon", "coordinates": [ [ [ 8.6678974, 49.4068571 ], [ 8.6758558, 49.4068797 ], [ 8.6798057, 49.4113882 ], [ 8.6757965, 49.4158745 ], [ 8.6678367, 49.4158519 ], [ 8.6638875, 49.411343 ], [ 8.6678974, 49.4068571 ] ] ] } },
{ "type": "Feature", "properties": { "index": "6", "subarea": "H1-2", "count": 81, "population": 2196.0, "per_1000_inhabitants": 36.88, "label": "23.0–38.6 /1k", "color": "#74c476" }, "geometry": { "type": "Polygon", "coordinates": [ [ [ 8.6757965, 49.4158745 ], [ 8.6797472, 49.420383 ], [ 8.6782991, 49.4220033 ], [ 8.6652832, 49.4220012 ], [ 8.6638261, 49.4203378 ], [ 8.6678367, 49.4158519 ], [ 8.6757965, 49.4158745 ] ] ] } },
{ "type": "Feature", "properties": { "index": "7", "subarea": "H2-0", "count": 34, "population": 2952.0, "per_1000_inhabitants": 11.52, "label": "10.9–23.0 /1k", "color": "#bae4b3" }, "geometry": { "type": "Polygon", "coordinates": [ [ [ 8.6878219, 49.4024151 ], [ 8.6798642, 49.4023933 ], [ 8.6760185, 49.398003 ], [ 8.6917614, 49.3980039 ], [ 8.6878219, 49.4024151 ] ] ] } },
{ "type": "Feature", "properties": { "index": "8", "subarea": "H2-1", "count": 93, "population": 8522.0, "per_1000_inhabitants": 10.91, "label": "10.9–23.0 /1k", "color": "#bae4b3" }, "geometry": { "type": "Polygon", "coordinates": [ [ [ 8.6798642, 49.4023933 ], [ 8.6878219, 49.4024151 ], [ 8.6917726, 49.4069232 ], [ 8.6877649, 49.4114099 ], [ 8.6798057, 49.4113882 ], [ 8.6758558, 49.4068797 ], [ 8.6798642, 49.4023933 ] ] ] } },
{ "type": "Feature", "properties": { "index": "9", "subarea": "H2-2", "count": 106, "population": 7469.0, "per_1000_inhabitants": 14.19, "label": "10.9–23.0 /1k", "color": "#bae4b3" }, "geometry": { "type": "Polygon", "coordinates": [ [ [ 8.6798057, 49.4113882 ], [ 8.6877649, 49.4114099 ], [ 8.6917163, 49.415918 ], [ 8.6877078, 49.4204048 ], [ 8.6797472, 49.420383 ], [ 8.6757965, 49.4158745 ], [ 8.6798057, 49.4113882 ] ] ] } },
{ "type": "Feature", "properties": { "index": "10", "subarea": "H2-3", "count": 17, "population": 1364.0, "per_1000_inhabitants": 12.46, "label": "10.9–23.0 /1k", "color": "#bae4b3" }, "geometry": { "type": "Polygon", "coordinates": [ [ [ 8.6797472, 49.420383 ], [ 8.6877078, 49.4204048 ], [ 8.6891096, 49.4220039 ], [ 8.6782991, 49.4220033 ], [ 8.6797472, 49.420383 ] ] ] } },
{ "type": "Feature", "properties": { "index": "11", "subarea": "H3-0", "count": 13, "population": 3839.0, "per_1000_inhabitants": 3.39, "label": "0.0–10.9 /1k", "color": "#edf8e9" }, "geometry": { "type": "Polygon", "coordinates": [ [ [ 8.6917726, 49.4069232 ], [ 8.6878219, 49.4024151 ], [ 8.6917614, 49.3980039 ], [ 8.6998334, 49.3980035 ], [ 8.7037373, 49.402457 ], [ 8.699731, 49.4069441 ], [ 8.6917726, 49.4069232 ] ] ] } },
{ "type": "Feature", "properties": { "index": "12", "subarea": "H3-1", "count": 185, "population": 5472.0, "per_1000_inhabitants": 33.81, "label": "23.0–38.6 /1k", "color": "#74c476" }, "geometry": { "type": "Polygon", "coordinates": [ [ [ 8.6917726, 49.4069232 ], [ 8.699731, 49.4069441 ], [ 8.7036832, 49.4114518 ], [ 8.6996761, 49.415939 ], [ 8.6917163, 49.415918 ], [ 8.6877649, 49.4114099 ], [ 8.6917726, 49.4069232 ] ] ] } },
{ "type": "Feature", "properties": { "index": "13", "subarea": "H3-2", "count": 11, "population": 1759.0, "per_1000_inhabitants": 6.25, "label": "0.0–10.9 /1k", "color": "#edf8e9" }, "geometry": { "type": "Polygon", "coordinates": [ [ [ 8.6996761, 49.415939 ], [ 8.703629, 49.4204467 ], [ 8.7022388, 49.4220032 ], [ 8.6891096, 49.4220039 ], [ 8.6877078, 49.4204048 ], [ 8.6917163, 49.415918 ], [ 8.6996761, 49.415939 ] ] ] } },
{ "type": "Feature", "properties": { "index": "14", "subarea": "H4-0", "count": 12, "population": 0.0, "per_1000_inhabitants": 65112.79, "label": "126.9–65112.8 /1k", "color": "#006d2c" }, "geometry": { "type": "Polygon", "coordinates": [ [ [ 8.711695, 49.4024771 ], [ 8.7037373, 49.402457 ], [ 8.6998334, 49.3980035 ], [ 8.7156895, 49.398001 ], [ 8.711695, 49.4024771 ] ] ] } },
{ "type": "Feature", "properties": { "index": "15", "subarea": "H4-1", "count": 121, "population": 1807.0, "per_1000_inhabitants": 66.95, "label": "38.6–126.9 /1k", "color": "#31a354" }, "geometry": { "type": "Polygon", "coordinates": [ [ [ 8.7037373, 49.402457 ], [ 8.711695, 49.4024771 ], [ 8.7156479, 49.4069844 ], [ 8.7116423, 49.411472 ], [ 8.7036832, 49.4114518 ], [ 8.699731, 49.4069441 ], [ 8.7037373, 49.402457 ] ] ] } },
{ "type": "Feature", "properties": { "index": "16", "subarea": "H4-2", "count": 162, "population": 1778.0, "per_1000_inhabitants": 91.11, "label": "38.6–126.9 /1k", "color": "#31a354" }, "geometry": { "type": "Polygon", "coordinates": [ [ [ 8.7036832, 49.4114518 ], [ 8.7116423, 49.411472 ], [ 8.7155959, 49.4159792 ], [ 8.7115896, 49.4204668 ], [ 8.703629, 49.4204467 ], [ 8.6996761, 49.415939 ], [ 8.7036832, 49.4114518 ] ] ] } },
{ "type": "Feature", "properties": { "index": "17", "subarea": "H4-3", "count": 0, "population": 2.0, "per_1000_inhabitants": 0.0, "label": "0.0–10.9 /1k", "color": "#edf8e9" }, "geometry": { "type": "Polygon", "coordinates": [ [ [ 8.703629, 49.4204467 ], [ 8.7115896, 49.4204668 ], [ 8.712936, 49.4220016 ], [ 8.7022388, 49.4220032 ], [ 8.703629, 49.4204467 ] ] ] } },
{ "type": "Feature", "properties": { "index": "18", "subarea": "H5-0", "count": 2, "population": 10.0, "per_1000_inhabitants": 206.77, "label": "126.9–65112.8 /1k", "color": "#006d2c" }, "geometry": { "type": "Polygon", "coordinates": [ [ [ 8.7156479, 49.4069844 ], [ 8.711695, 49.4024771 ], [ 8.7156895, 49.398001 ], [ 8.72, 49.398 ], [ 8.72, 49.406995 ], [ 8.7156479, 49.4069844 ] ] ] } },
{ "type": "Feature", "properties": { "index": "19", "subarea": "H5-1", "count": 125, "population": 928.0, "per_1000_inhabitants": 134.76, "label": "126.9–65112.8 /1k", "color": "#006d2c" }, "geometry": { "type": "Polygon", "coordinates": [ [ [ 8.7116423, 49.411472 ], [ 8.7156479, 49.4069844 ], [ 8.72, 49.406995 ], [ 8.72, 49.41599 ], [ 8.7155959, 49.4159792 ], [ 8.7116423, 49.411472 ] ] ] } },
{ "type": "Feature", "properties": { "index": "20", "subarea": "H5-2", "count": 4, "population": 32.0, "per_1000_inhabitants": 126.9, "label": "126.9–65112.8 /1k", "color": "#006d2c" }, "geometry": { "type": "Polygon", "coordinates": [ [ [ 8.7115896, 49.4204668 ], [ 8.7155959, 49.4159792 ], [ 8.72, 49.41599 ], [ 8.72, 49.422 ], [ 8.712936, 49.4220016 ], [ 8.7115896, 49.4204668 ] ] ] } }
]
}
