{
"type": "FeatureCollection",
"features": [
{ "type": "Feature", "properties": { "index": "0", "subarea": "H0-0", "count": 9, "area_km2": 0.206, "density_per_km2": 43.6, "label": "15.1–80.2/km²", "color": "#bae4b3" }, "geometry": { "type": "Polygon", "coordinates": [ [ [ 8.6678334, 49.3980018 ], [ 8.6639489, 49.4023482 ], [ 8.66, 49.4023366 ], [ 8.66, 49.398 ], [ 8.6678334, 49.3980018 ] ] ] } },
{ "type": "Feature", "properties": { "index": "1", "subarea": "H0-1", "count": 61, "area_km2": 0.429, "density_per_km2": 142.33, "label": "142.3–385.9/km²", "color": "#006d2c" }, "geometry": { "type": "Polygon", "coordinates": [ [ [ 8.6678974, 49.4068571 ], [ 8.6638875, 49.411343 ], [ 8.66, 49.4113316 ], [ 8.66, 49.4023366 ], [ 8.6639489, 49.4023482 ], [ 8.6678974, 49.4068571 ] ] ] } },
{ "type": "Feature", "properties": { "index": "2", "subarea": "H0-2", "count": 34, "area_km2": 0.424, "density_per_km2": 80.17, "label": "80.2–122.4/km²", "color": "#74c476" }, "geometry": { "type": "Polygon", "coordinates": [ [ [ 8.6678367, 49.4158519 ], [ 8.6638261, 49.4203378 ], [ 8.66, 49.4203266 ], [ 8.66, 49.4113316 ], [ 8.6638875, 49.411343 ], [ 8.6678367, 49.4158519 ] ] ] } },
{ "type": "Feature", "properties": { "index": "3", "subarea": "H0-3", "count": 0, "area_km2": 0.061, "density_per_km2": 0.0, "label": "0.0–15.1/km²", "color": "#edf8e9" }, "geometry": { "type": "Polygon", "coordinates": [ [ [ 8.66, 49.4203266 ], [ 8.6638261, 49.4203378 ], [ 8.6652832, 49.4220012 ], [ 8.66, 49.422 ], [ 8.66, 49.4203266 ] ] ] } },
{ "type": "Feature", "properties": { "index": "4", "subarea": "H1-0", "count": 331, "area_km2": 0.858, "density_per_km2": 385.95, "label": "142.3–385.9/km²", "color": "#006d2c" }, "geometry": { "type": "Polygon", "coordinates": [ [ [ 8.6678974, 49.4068571 ], [ 8.6639489, 49.4023482 ], [ 8.6678334, 49.3980018 ], [ 8.6760185, 49.398003 ], [ 8.6798642, 49.4023933 ], [ 8.6758558, 49.4068797 ], [ 8.6678974, 49.4068571 ] ] ] } },
{ "type": "Feature", "properties": { "index": "5", "subarea": "H1-1", "count": 106, "area_km2": 0.866, "density_per_km2": 122.4, "label": "80.2–122.4/km²", "color": "#74c476" }, "geometry": { "type": "Polygon", "coordinates": [ [ [ 8.6678974, 49.4068571 ], [ 8.6758558, 49.4068797 ], [ 8.6798057, 49.4113882 ], [ 8.6757965, 49.4158745 ], [ 8.6678367, 49.4158519 ], [ 8.6638875, 49.411343 ], [ 8.6678974, 49.4068571 ] ] ] } },
{ "type": "Feature", "properties": { "index": "6", "subarea": "H1-2", "count": 81, "area_km2": 0.625, "density_per_km2": 129.7, "label": "122.4–142.3/km²", "color": "#31a354" }, "geometry": { "type": "Polygon", "coordinates": [ [ [ 8.6757965, 49.4158745 ], [ 8.6797472, 49.420383 ], [ 8.6782991, 49.4220033 ], [ 8.6652832, 49.4220012 ], [ 8.6638261, 49.4203378 ], [ 8.6678367, 49.4158519 ], [ 8.6757965, 49.4158745 ] ] ] } },
{ "type": "Feature", "properties": { "index": "7", "subarea": "H2-0", "count": 34, "area_km2": 0.421, "density_per_km2": 80.83, "label": "80.2–122.4/km²", "color": "#74c476" }, "geometry": { "type": "Polygon", "coordinates": [ [ [ 8.6878219, 49.4024151 ], [ 8.6798642, 49.4023933 ], [ 8.6760185, 49.398003 ], [ 8.6917614, 49.3980039 ], [ 8.6878219, 49.4024151 ] ] ] } },
{ "type": "Feature", "properties": { "index": "8", "subarea": "H2-1", "count": 93, "area_km2": 0.866, "density_per_km2": 107.39, "label": "80.2–122.4/km²", "color": "#74c476" }, "geometry": { "type": "Polygon", "coordinates": [ [ [ 8.6798642, 49.4023933 ], [ 8.6878219, 49.4024151 ], [ 8.6917726, 49.4069232 ], [ 8.6877649, 49.4114099 ], [ 8.6798057, 49.4113882 ], [ 8.6758558, 49.4068797 ], [ 8.6798642, 49.4023933 ] ] ] } },
{ "type": "Feature", "properties": { "index": "9", "subarea": "H2-2", "count": 106, "area_km2": 0.866, "density_per_km2": 122.4, "label": "80.2–122.4/km²", "color": "#74c476" }, "geometry": { "type": "Polygon", "coordinates": [ [ [ 8.6798057, 49.4113882 ], [ 8.6877649, 49.4114099 ], [ 8.6917163, 49.415918 ], [ 8.6877078, 49.4204048 ], [ 8.6797472, 49.420383 ], [ 8.6757965, 49.4158745 ], [ 8.6798057, 49.4113882 ] ] ] } },
{ "type": "Feature", "properties": { "index": "10", "subarea": "H2-3", "count": 17, "area_km2": 0.122, "density_per_km2": 139.55, "label": "122.4–142.3/km²", "color": "#31a354" }, "geometry": { "type": "Polygon", "coordinates": [ [ [ 8.6797472, 49.420383 ], [ 8.6877078, 49.4204048 ], [ 8.6891096, 49.4220039 ], [ 8.6782991, 49.4220033 ], [ 8.6797472, 49.420383 ] ] ] } },
{ "type": "Feature", "properties": { "index": "11", "subarea": "H3-0", "count": 13, "area_km2": 0.862, "density_per_km2": 15.08, "label": "15.1–80.2/km²", "color": "#bae4b3" }, "geometry": { "type": "Polygon", "coordinates": [ [ [ 8.6917726, 49.4069232 ], [ 8.6878219, 49.4024151 ], [ 8.6917614, 49.3980039 ], [ 8.6998334, 49.3980035 ], [ 8.7037373, 49.402457 ], [ 8.699731, 49.4069441 ], [ 8.6917726, 49.4069232 ] ] ] } },
{ "type": "Feature", "properties": { "index": "12", "subarea": "H3-1", "count": 185, "area_km2": 0.866, "density_per_km2": 213.62, "label": "142.3–385.9/km²", "color": "#006d2c" }, "geometry": { "type": "Polygon", "coordinates": [ [ [ 8.6917726, 49.4069232 ], [ 8.699731, 49.4069441 ], [ 8.7036832, 49.4114518 ], [ 8.6996761, 49.415939 ], [ 8.6917163, 49.415918 ], [ 8.6877649, 49.4114099 ], [ 8.6917726, 49.4069232 ] ] ] } },
{ "type": "Feature", "properties": { "index": "13", "subarea": "H3-2", "count": 11, "area_km2": 0.618, "density_per_km2": 17.81, "label": "15.1–80.2/km²", "color": "#bae4b3" }, "geometry": { "type": "Polygon", "coordinates": [ [ [ 8.6996761, 49.415939 ], [ 8.703629, 49.4204467 ], [ 8.7022388, 49.4220032 ], [ 8.6891096, 49.4220039 ], [ 8.6877078, 49.4204048 ], [ 8.6917163, 49.415918 ], [ 8.6996761, 49.415939 ] ] ] } },
{ "type": "Feature", "properties": { "index": "14", "subarea": "H4-0", "count": 12, "area_km2": 0.429, "density_per_km2": 27.98, "label": "15.1–80.2/km²", "color": "#bae4b3" }, "geometry": { "type": "Polygon", "coordinates": [ [ [ 8.711695, 49.4024771 ], [ 8.7037373, 49.402457 ], [ 8.6998334, 49.3980035 ], [ 8.7156895, 49.398001 ], [ 8.711695, 49.4024771 ] ] ] } },
{ "type": "Feature", "properties": { "index": "15", "subarea": "H4-1", "count": 121, "area_km2": 0.866, "density_per_km2": 139.72, "label": "122.4–142.3/km²", "color": "#31a354" }, "geometry": { "type": "Polygon", "coordinates": [ [ [ 8.7037373, 49.402457 ], [ 8.711695, 49.4024771 ], [ 8.7156479, 49.4069844 ], [ 8.7116423, 49.411472 ], [ 8.7036832, 49.4114518 ], [ 8.699731, 49.4069441 ], [ 8.7037373, 49.402457 ] ] ] } },
{ "type": "Feature", "properties": { "index": "16", "subarea": "H4-2", "count": 162, "area_km2": 0.866, "density_per_km2": 187.06, "label": "142.3–385.9/km²", "color": "#006d2c" }, "geometry": { "type": "Polygon", "coordinates": [ [ [ 8.7036832, 49.4114518 ], [ 8.7116423, 49.411472 ], [ 8.7155959, 49.4159792 ], [ 8.7115896, 49.4204668 ], [ 8.703629, 49.4204467 ], [ 8.6996761, 49.415939 ], [ 8.7036832, 49.4114518 ] ] ] } },
{ "type": "Feature", "properties": { "index": "17", "subarea": "H4-3", "count": 0, "area_km2": 0.116, "density_per_km2": 0.0, "label": "0.0–15.1/km²", "color": "#edf8e9" }, "geometry": { "type": "Polygon", "coordinates": [ [ [ 8.703629, 49.4204467 ], [ 8.7115896, 49.4204668 ], [ 8.712936, 49.4220016 ], [ 8.7022388, 49.4220032 ], [ 8.703629, 49.4204467 ] ] ] } },
{ "type": "Feature", "properties": { "index": "18", "subarea": "H5-0", "count": 2, "area_km2": 0.458, "density_per_km2": 4.37, "label": "0.0–15.1/km²", "color": "#edf8e9" }, "geometry": { "type": "Polygon", "coordinates": [ [ [ 8.7156479, 49.4069844 ], [ 8.711695, 49.4024771 ], [ 8.7156895, 49.398001 ], [ 8.72, 49.398 ], [ 8.72, 49.406995 ], [ 8.7156479, 49.4069844 ] ] ] } },
{ "type": "Feature", "properties": { "index": "19", "subarea": "H5-1", "count": 125, "area_km2": 0.462, "density_per_km2": 270.61, "label": "142.3–385.9/km²", "color": "#006d2c" }, "geometry": { "type": "Polygon", "coordinates": [ [ [ 8.7116423, 49.411472 ], [ 8.7156479, 49.4069844 ], [ 8.72, 49.406995 ], [ 8.72, 49.41599 ], [ 8.7155959, 49.4159792 ], [ 8.7116423, 49.411472 ] ] ] } },
{ "type": "Feature", "properties": { "index": "20", "subarea": "H5-2", "count": 4, "area_km2": 0.327, "density_per_km2": 12.22, "label": "0.0–15.1/km²", "color": "#edf8e9" }, "geometry": { "type": "Polygon", "coordinates": [ [ [ 8.7115896, 49.4204668 ], [ 8.7155959, 49.4159792 ], [ 8.72, 49.41599 ], [ 8.72, 49.422 ], [ 8.712936, 49.4220016 ], [ 8.7115896, 49.4204668 ] ] ] } }
]
}
