{
"type": "FeatureCollection",
"features": [
{ "type": "Feature", "properties": { "index": "0", "label": "Within 300 m on foot", "color": "#2b8cbe" }, "geometry": { "type": "MultiPolygon", "coordinates": [ [ [ [ 39.2733215, -6.8231995 ], [ 39.2735623, -6.8230855 ], [ 39.2737908, -6.8229485 ], [ 39.2740047, -6.8227897 ], [ 39.2741134, -6.8226911 ], [ 39.2741215, -6.8226851 ], [ 39.2743188, -6.8225061 ], [ 39.2744977, -6.8223087 ], [ 39.2746563, -6.8220947 ], [ 39.2747931, -6.8218662 ], [ 39.2749069, -6.8216254 ], [ 39.2749965, -6.8213746 ], [ 39.2750611, -6.8211162 ], [ 39.2751001, -6.8208528 ], [ 39.275113, -6.8205868 ], [ 39.2750998, -6.8203208 ], [ 39.2750605, -6.8200574 ], [ 39.2749956, -6.8197991 ], [ 39.2749057, -6.8195484 ], [ 39.2747917, -6.8193077 ], [ 39.2746545, -6.8190793 ], [ 39.2744957, -6.8188655 ], [ 39.2743167, -6.8186683 ], [ 39.2741191, -6.8184895 ], [ 39.273905, -6.818331 ], [ 39.2736764, -6.8181942 ], [ 39.2734355, -6.8180805 ], [ 39.2731846, -6.8179909 ], [ 39.2729261, -6.8179264 ], [ 39.2726625, -6.8178874 ], [ 39.2723964, -6.8178745 ], [ 39.2721303, -6.8178877 ], [ 39.2718667, -6.817927 ], [ 39.2718249, -6.8179375 ], [ 39.2718087, -6.8179399 ], [ 39.2715503, -6.8180047 ], [ 39.2712995, -6.8180946 ], [ 39.2712962, -6.8180961 ], [ 39.2712235, -6.8181222 ], [ 39.2709827, -6.8182362 ], [ 39.2707542, -6.8183732 ], [ 39.2705403, -6.818532 ], [ 39.270343, -6.8187109 ], [ 39.2701641, -6.8189084 ], [ 39.2700055, -6.8191224 ], [ 39.2698687, -6.8193509 ], [ 39.2697549, -6.8195917 ], [ 39.2696653, -6.8198425 ], [ 39.2696007, -6.8201009 ], [ 39.2695617, -6.8203643 ], [ 39.2695488, -6.8206303 ], [ 39.269562, -6.8208963 ], [ 39.2696013, -6.8211597 ], [ 39.2696662, -6.821418 ], [ 39.2696698, -6.8214282 ], [ 39.2696834, -6.8214821 ], [ 39.2697733, -6.8217328 ], [ 39.2698873, -6.8219735 ], [ 39.2700244, -6.8222019 ], [ 39.2701833, -6.8224157 ], [ 39.2703623, -6.8226129 ], [ 39.2705598, -6.8227916 ], [ 39.2707739, -6.8229502 ], [ 39.2710026, -6.823087 ], [ 39.2712435, -6.8232007 ], [ 39.2714944, -6.8232903 ], [ 39.2717529, -6.8233548 ], [ 39.2720165, -6.8233938 ], [ 39.2722826, -6.8234067 ], [ 39.2725488, -6.8233935 ], [ 39.2728123, -6.8233542 ], [ 39.2730707, -6.8232894 ], [ 39.2733215, -6.8231995 ] ] ], [ [ [ 39.2387636, -6.793721 ], [ 39.2388774, -6.7934802 ], [ 39.238967, -6.7932294 ], [ 39.2390316, -6.792971 ], [ 39.2390706, -6.7927076 ], [ 39.2390835, -6.7924416 ], [ 39.2390703, -6.7921756 ], [ 39.2390311, -6.7919122 ], [ 39.2389662, -6.7916539 ], [ 39.2388764, -6.7914031 ], [ 39.2387623, -6.7911625 ], [ 39.2386252, -6.7909341 ], [ 39.2384664, -6.7907203 ], [ 39.2382874, -6.790523 ], [ 39.2380899, -6.7903443 ], [ 39.2378758, -6.7901857 ], [ 39.2376472, -6.7900489 ], [ 39.2374063, -6.7899352 ], [ 39.2371554, -6.7898456 ], [ 39.236897, -6.789781 ], [ 39.2366334, -6.789742 ], [ 39.2363673, -6.7897291 ], [ 39.2361012, -6.7897423 ], [ 39.2358376, -6.7897815 ], [ 39.2355792, -6.7898463 ], [ 39.2353284, -6.7899362 ], [ 39.2350876, -6.7900502 ], [ 39.2348592, -6.7901872 ], [ 39.2346452, -6.7903459 ], [ 39.2344479, -6.7905249 ], [ 39.2342691, -6.7907223 ], [ 39.2341105, -6.7909363 ], [ 39.2339736, -6.7911648 ], [ 39.2338598, -6.7914056 ], [ 39.2337702, -6.7916564 ], [ 39.2337056, -6.7919148 ], [ 39.2336666, -6.7921782 ], [ 39.2336537, -6.7924442 ], [ 39.2336669, -6.7927102 ], [ 39.2337061, -6.7929736 ], [ 39.233771, -6.7932319 ], [ 39.2338608, -6.7934826 ], [ 39.2339749, -6.7937233 ], [ 39.2341119, -6.7939517 ], [ 39.2342708, -6.7941655 ], [ 39.2344498, -6.7943628 ], [ 39.2346473, -6.7945415 ], [ 39.2348614, -6.7947001 ], [ 39.23509, -6.7948369 ], [ 39.2353309, -6.7949506 ], [ 39.2355818, -6.7950402 ], [ 39.2358402, -6.7951048 ], [ 39.2361038, -6.7951438 ], [ 39.2363699, -6.7951567 ], [ 39.236636, -6.7951435 ], [ 39.2368996, -6.7951043 ], [ 39.237158, -6.7950394 ], [ 39.2374088, -6.7949496 ], [ 39.2376496, -6.7948356 ], [ 39.237878, -6.7946986 ], [ 39.238092, -6.7945398 ], [ 39.2382893, -6.7943609 ], [ 39.2384681, -6.7941635 ], [ 39.2386267, -6.7939495 ], [ 39.2387636, -6.793721 ] ] ], [ [ [ 39.2705564, -6.7925939 ], [ 39.2706701, -6.7923531 ], [ 39.2707598, -6.7921023 ], [ 39.2708243, -6.791844 ], [ 39.2708633, -6.7915805 ], [ 39.2708762, -6.7913145 ], [ 39.270863, -6.7910485 ], [ 39.2708238, -6.7907851 ], [ 39.2707589, -6.7905268 ], [ 39.270669, -6.7902761 ], [ 39.2705549, -6.7900354 ], [ 39.2704178, -6.789807 ], [ 39.270259, -6.7895932 ], [ 39.27008, -6.789396 ], [ 39.2698825, -6.7892173 ], [ 39.2696684, -6.7890587 ], [ 39.2694398, -6.7889219 ], [ 39.2691989, -6.7888082 ], [ 39.268948, -6.7887186 ], [ 39.2686895, -6.7886541 ], [ 39.2684259, -6.7886151 ], [ 39.2681598, -6.7886022 ], [ 39.2678937, -6.7886154 ], [ 39.2676302, -6.7886547 ], [ 39.2673718, -6.7887195 ], [ 39.267121, -6.7888094 ], [ 39.2668802, -6.7889234 ], [ 39.2666517, -6.7890604 ], [ 39.2664378, -6.7892192 ], [ 39.2662405, -6.7893981 ], [ 39.2660617, -6.7895956 ], [ 39.2659031, -6.7898095 ], [ 39.2657663, -6.790038 ], [ 39.2656525, -6.7902789 ], [ 39.2655629, -6.7905297 ], [ 39.2654983, -6.790788 ], [ 39.2654593, -6.7910515 ], [ 39.2654464, -6.7913175 ], [ 39.2654596, -6.7915835 ], [ 39.2654988, -6.7918469 ], [ 39.2655637, -6.7921052 ], [ 39.2656536, -6.7923559 ], [ 39.2657677, -6.7925966 ], [ 39.2659048, -6.7928249 ], [ 39.2660636, -6.7930388 ], [ 39.2662426, -6.793236 ], [ 39.2664401, -6.7934147 ], [ 39.2666542, -6.7935733 ], [ 39.2668828, -6.79371 ], [ 39.2671237, -6.7938238 ], [ 39.2673746, -6.7939134 ], [ 39.2676331, -6.7939779 ], [ 39.2678967, -6.7940169 ], [ 39.2681628, -6.7940298 ], [ 39.2684289, -6.7940166 ], [ 39.2686924, -6.7939773 ], [ 39.2689508, -6.7939125 ], [ 39.2692016, -6.7938226 ], [ 39.2694424, -6.7937086 ], [ 39.2696709, -6.7935716 ], [ 39.2698848, -6.7934128 ], [ 39.2700821, -6.7932339 ], [ 39.2702609, -6.7930364 ], [ 39.2704195, -6.7928224 ], [ 39.2705564, -6.7925939 ] ] ], [ [ [ 39.2485262, -6.7889764 ], [ 39.24864, -6.7887356 ], [ 39.2487296, -6.7884848 ], [ 39.2487942, -6.7882265 ], [ 39.2488332, -6.787963 ], [ 39.2488461, -6.787697 ], [ 39.2488329, -6.787431 ], [ 39.2487937, -6.7871676 ], [ 39.2487288, -6.7869093 ], [ 39.2486389, -6.7866586 ], [ 39.2485249, -6.7864179 ], [ 39.2483878, -6.7861895 ], [ 39.248229, -6.7859757 ], [ 39.2480499, -6.7857785 ], [ 39.2478524, -6.7855997 ], [ 39.2478491, -6.7855973 ], [ 39.2480069, -6.785423 ], [ 39.2481655, -6.7852091 ], [ 39.2483024, -6.7849806 ], [ 39.2484162, -6.7847397 ], [ 39.2485058, -6.7844889 ], [ 39.2485704, -6.7842306 ], [ 39.2486093, -6.7839671 ], [ 39.2486223, -6.7837011 ], [ 39.2486091, -6.7834351 ], [ 39.2485698, -6.7831717 ], [ 39.248505, -6.7829134 ], [ 39.2484151, -6.7826627 ], [ 39.2483011, -6.782422 ], [ 39.248164, -6.7821937 ], [ 39.2480051, -6.7819798 ], [ 39.2478261, -6.7817826 ], [ 39.2476286, -6.7816038 ], [ 39.2474146, -6.7814453 ], [ 39.247186, -6.7813085 ], [ 39.2469451, -6.7811948 ], [ 39.2466942, -6.7811052 ], [ 39.2464357, -6.7810406 ], [ 39.2461721, -6.7810016 ], [ 39.245906, -6.7809887 ], [ 39.2456399, -6.7810019 ], [ 39.2453764, -6.7810411 ], [ 39.245118, -6.781106 ], [ 39.2448672, -6.7811958 ], [ 39.2446264, -6.7813098 ], [ 39.244398, -6.7814468 ], [ 39.244184, -6.7816056 ], [ 39.2439867, -6.7817845 ], [ 39.2438079, -6.7819819 ], [ 39.2436493, -6.7821959 ], [ 39.2435124, -6.7824244 ], [ 39.2433987, -6.7826652 ], [ 39.243309, -6.782916 ], [ 39.2432444, -6.7831744 ], [ 39.2432055, -6.7834379 ], [ 39.2431925, -6.7837039 ], [ 39.2432057, -6.7839699 ], [ 39.243245, -6.7842333 ], [ 39.2433098, -6.7844916 ], [ 39.2433997, -6.7847423 ], [ 39.2435137, -6.784983 ], [ 39.2436508, -6.7852113 ], [ 39.2438096, -6.7854252 ], [ 39.2439887, -6.7856224 ], [ 39.2441862, -6.7858012 ], [ 39.2441895, -6.7858036 ], [ 39.2440317, -6.7859779 ], [ 39.2438731, -6.7861918 ], [ 39.2437362, -6.7864203 ], [ 39.2436224, -6.7866611 ], [ 39.2435328, -6.7869119 ], [ 39.2434682, -6.7871703 ], [ 39.2434292, -6.7874338 ], [ 39.2434163, -6.7876998 ], [ 39.2434295, -6.7879658 ], [ 39.2434687, -6.7882292 ], [ 39.2435336, -6.7884875 ], [ 39.2436235, -6.7887382 ], [ 39.2437375, -6.7889789 ], [ 39.2438746, -6.7892072 ], [ 39.2440334, -6.7894211 ], [ 39.2442124, -6.7896183 ], [ 39.2444099, -6.7897971 ], [ 39.244624, -6.7899556 ], [ 39.2448526, -6.7900924 ], [ 39.2450935, -6.7902061 ], [ 39.2453444, -6.7902957 ], [ 39.2456029, -6.7903603 ], [ 39.2458665, -6.7903993 ], [ 39.2461326, -6.7904122 ], [ 39.2463987, -6.790399 ], [ 39.2466622, -6.7903598 ], [ 39.2469206, -6.7902949 ], [ 39.2471714, -6.7902051 ], [ 39.2474122, -6.7900911 ], [ 39.2476407, -6.7899541 ], [ 39.2478546, -6.7897953 ], [ 39.2480519, -6.7896164 ], [ 39.2482307, -6.7894189 ], [ 39.2483893, -6.7892049 ], [ 39.2485262, -6.7889764 ] ] ] ] } },
{ "type": "Feature", "properties": { "index": "1", "label": "Beyond 300 m", "color": "#d9d9d9" }, "geometry": { "type": "Polygon", "coordinates": [ [ [ 39.22, -6.78 ], [ 39.22, -6.85 ], [ 39.3, -6.85 ], [ 39.3, -6.78 ], [ 39.22, -6.78 ] ], [ [ 39.2740047, -6.8227897 ], [ 39.2737908, -6.8229485 ], [ 39.2735623, -6.8230855 ], [ 39.2733215, -6.8231995 ], [ 39.2730707, -6.8232894 ], [ 39.2728123, -6.8233542 ], [ 39.2725488, -6.8233935 ], [ 39.2722826, -6.8234067 ], [ 39.2720165, -6.8233938 ], [ 39.2717529, -6.8233548 ], [ 39.2714944, -6.8232903 ], [ 39.2712435, -6.8232007 ], [ 39.2710026, -6.823087 ], [ 39.2707739, -6.8229502 ], [ 39.2705598, -6.8227916 ], [ 39.2703623, -6.8226129 ], [ 39.2701833, -6.8224157 ], [ 39.2700244, -6.8222019 ], [ 39.2698873, -6.8219735 ], [ 39.2697733, -6.8217328 ], [ 39.2696834, -6.8214821 ], [ 39.2696698, -6.8214282 ], [ 39.2696662, -6.821418 ], [ 39.2696013, -6.8211597 ], [ 39.269562, -6.8208963 ], [ 39.2695488, -6.8206303 ], [ 39.2695617, -6.8203643 ], [ 39.2696007, -6.8201009 ], [ 39.2696653, -6.8198425 ], [ 39.2697549, -6.8195917 ], [ 39.2698687, -6.8193509 ], [ 39.2700055, -6.8191224 ], [ 39.2701641, -6.8189084 ], [ 39.270343, -6.8187109 ], [ 39.2705403, -6.818532 ], [ 39.2707542, -6.8183732 ], [ 39.2709827, -6.8182362 ], [ 39.2712235, -6.8181222 ], [ 39.2712962, -6.8180961 ], [ 39.2712995, -6.8180946 ], [ 39.2715503, -6.8180047 ], [ 39.2718087, -6.8179399 ], [ 39.2718249, -6.8179375 ], [ 39.2718667, -6.817927 ], [ 39.2721303, -6.8178877 ], [ 39.2723964, -6.8178745 ], [ 39.2726625, -6.8178874 ], [ 39.2729261, -6.8179264 ], [ 39.2731846, -6.8179909 ], [ 39.2734355, -6.8180805 ], [ 39.2736764, -6.8181942 ], [ 39.273905, -6.818331 ], [ 39.2741191, -6.8184895 ], [ 39.2743167, -6.8186683 ], [ 39.2744957, -6.8188655 ], [ 39.2746545, -6.8190793 ], [ 39.2747917, -6.8193077 ], [ 39.2749057, -6.8195484 ], [ 39.2749956, -6.8197991 ], [ 39.2750605, -6.8200574 ], [ 39.2750998, -6.8203208 ], [ 39.275113, -6.8205868 ], [ 39.2751001, -6.8208528 ], [ 39.2750611, -6.8211162 ], [ 39.2749965, -6.8213746 ], [ 39.2749069, -6.8216254 ], [ 39.2747931, -6.8218662 ], [ 39.2746563, -6.8220947 ], [ 39.2744977, -6.8223087 ], [ 39.2743188, -6.8225061 ], [ 39.2741215, -6.8226851 ], [ 39.2741134, -6.8226911 ], [ 39.2740047, -6.8227897 ] ], [ [ 39.2390316, -6.792971 ], [ 39.238967, -6.7932294 ], [ 39.2388774, -6.7934802 ], [ 39.2387636, -6.793721 ], [ 39.2386267, -6.7939495 ], [ 39.2384681, -6.7941635 ], [ 39.2382893, -6.7943609 ], [ 39.238092, -6.7945398 ], [ 39.237878, -6.7946986 ], [ 39.2376496, -6.7948356 ], [ 39.2374088, -6.7949496 ], [ 39.237158, -6.7950394 ], [ 39.2368996, -6.7951043 ], [ 39.236636, -6.7951435 ], [ 39.2363699, -6.7951567 ], [ 39.2361038, -6.7951438 ], [ 39.2358402, -6.7951048 ], [ 39.2355818, -6.7950402 ], [ 39.2353309, -6.7949506 ], [ 39.23509, -6.7948369 ], [ 39.2348614, -6.7947001 ], [ 39.2346473, -6.7945415 ], [ 39.2344498, -6.7943628 ], [ 39.2342708, -6.7941655 ], [ 39.2341119, -6.7939517 ], [ 39.2339749, -6.7937233 ], [ 39.2338608, -6.7934826 ], [ 39.233771, -6.7932319 ], [ 39.2337061, -6.7929736 ], [ 39.2336669, -6.7927102 ], [ 39.2336537, -6.7924442 ], [ 39.2336666, -6.7921782 ], [ 39.2337056, -6.7919148 ], [ 39.2337702, -6.7916564 ], [ 39.2338598, -6.7914056 ], [ 39.2339736, -6.7911648 ], [ 39.2341105, -6.7909363 ], [ 39.2342691, -6.7907223 ], [ 39.2344479, -6.7905249 ], [ 39.2346452, -6.7903459 ], [ 39.2348592, -6.7901872 ], [ 39.2350876, -6.7900502 ], [ 39.2353284, -6.7899362 ], [ 39.2355792, -6.7898463 ], [ 39.2358376, -6.7897815 ], [ 39.2361012, -6.7897423 ], [ 39.2363673, -6.7897291 ], [ 39.2366334, -6.789742 ], [ 39.236897, -6.789781 ], [ 39.2371554, -6.7898456 ], [ 39.2374063, -6.7899352 ], [ 39.2376472, -6.7900489 ], [ 39.2378758, -6.7901857 ], [ 39.2380899, -6.7903443 ], [ 39.2382874, -6.790523 ], [ 39.2384664, -6.7907203 ], [ 39.2386252, -6.7909341 ], [ 39.2387623, -6.7911625 ], [ 39.2388764, -6.7914031 ], [ 39.2389662, -6.7916539 ], [ 39.2390311, -6.7919122 ], [ 39.2390703, -6.7921756 ], [ 39.2390835, -6.7924416 ], [ 39.2390706, -6.7927076 ], [ 39.2390316, -6.792971 ] ], [ [ 39.2708243, -6.791844 ], [ 39.2707598, -6.7921023 ], [ 39.2706701, -6.7923531 ], [ 39.2705564, -6.7925939 ], [ 39.2704195, -6.7928224 ], [ 39.2702609, -6.7930364 ], [ 39.2700821, -6.7932339 ], [ 39.2698848, -6.7934128 ], [ 39.2696709, -6.7935716 ], [ 39.2694424, -6.7937086 ], [ 39.2692016, -6.7938226 ], [ 39.2689508, -6.7939125 ], [ 39.2686924, -6.7939773 ], [ 39.2684289, -6.7940166 ], [ 39.2681628, -6.7940298 ], [ 39.2678967, -6.7940169 ], [ 39.2676331, -6.7939779 ], [ 39.2673746, -6.7939134 ], [ 39.2671237, -6.7938238 ], [ 39.2668828, -6.79371 ], [ 39.2666542, -6.7935733 ], [ 39.2664401, -6.7934147 ], [ 39.2662426, -6.793236 ], [ 39.2660636, -6.7930388 ], [ 39.2659048, -6.7928249 ], [ 39.2657677, -6.7925966 ], [ 39.2656536, -6.7923559 ], [ 39.2655637, -6.7921052 ], [ 39.2654988, -6.7918469 ], [ 39.2654596, -6.7915835 ], [ 39.2654464, -6.7913175 ], [ 39.2654593, -6.7910515 ], [ 39.2654983, -6.790788 ], [ 39.2655629, -6.7905297 ], [ 39.2656525, -6.7902789 ], [ 39.2657663, -6.790038 ], [ 39.2659031, -6.7898095 ], [ 39.2660617, -6.7895956 ], [ 39.2662405, -6.7893981 ], [ 39.2664378, -6.7892192 ], [ 39.2666517, -6.7890604 ], [ 39.2668802, -6.7889234 ], [ 39.267121, -6.7888094 ], [ 39.2673718, -6.7887195 ], [ 39.2676302, -6.7886547 ], [ 39.2678937, -6.7886154 ], [ 39.2681598, -6.7886022 ], [ 39.2684259, -6.7886151 ], [ 39.2686895, -6.7886541 ], [ 39.268948, -6.7887186 ], [ 39.2691989, -6.7888082 ], [ 39.2694398, -6.7889219 ], [ 39.2696684, -6.7890587 ], [ 39.2698825, -6.7892173 ], [ 39.27008, -6.789396 ], [ 39.270259, -6.7895932 ], [ 39.2704178, -6.789807 ], [ 39.2705549, -6.7900354 ], [ 39.270669, -6.7902761 ], [ 39.2707589, -6.7905268 ], [ 39.2708238, -6.7907851 ], [ 39.270863, -6.7910485 ], [ 39.2708762, -6.7913145 ], [ 39.2708633, -6.7915805 ], [ 39.2708243, -6.791844 ] ], [ [ 39.2487942, -6.7882265 ], [ 39.2487296, -6.7884848 ], [ 39.24864, -6.7887356 ], [ 39.2485262, -6.7889764 ], [ 39.2483893, -6.7892049 ], [ 39.2482307, -6.7894189 ], [ 39.2480519, -6.7896164 ], [ 39.2478546, -6.7897953 ], [ 39.2476407, -6.7899541 ], [ 39.2474122, -6.7900911 ], [ 39.2471714, -6.7902051 ], [ 39.2469206, -6.7902949 ], [ 39.2466622, -6.7903598 ], [ 39.2463987, -6.790399 ], [ 39.2461326, -6.7904122 ], [ 39.2458665, -6.7903993 ], [ 39.2456029, -6.7903603 ], [ 39.2453444, -6.7902957 ], [ 39.2450935, -6.7902061 ], [ 39.2448526, -6.7900924 ], [ 39.244624, -6.7899556 ], [ 39.2444099, -6.7897971 ], [ 39.2442124, -6.7896183 ], [ 39.2440334, -6.7894211 ], [ 39.2438746, -6.7892072 ], [ 39.2437375, -6.7889789 ], [ 39.2436235, -6.7887382 ], [ 39.2435336, -6.7884875 ], [ 39.2434687, -6.7882292 ], [ 39.2434295, -6.7879658 ], [ 39.2434163, -6.7876998 ], [ 39.2434292, -6.7874338 ], [ 39.2434682, -6.7871703 ], [ 39.2435328, -6.7869119 ], [ 39.2436224, -6.7866611 ], [ 39.2437362, -6.7864203 ], [ 39.2438731, -6.7861918 ], [ 39.2440317, -6.7859779 ], [ 39.2441895, -6.7858036 ], [ 39.2441862, -6.7858012 ], [ 39.2439887, -6.7856224 ], [ 39.2438096, -6.7854252 ], [ 39.2436508, -6.7852113 ], [ 39.2435137, -6.784983 ], [ 39.2433997, -6.7847423 ], [ 39.2433098, -6.7844916 ], [ 39.243245, -6.7842333 ], [ 39.2432057, -6.7839699 ], [ 39.2431925, -6.7837039 ], [ 39.2432055, -6.7834379 ], [ 39.2432444, -6.7831744 ], [ 39.243309, -6.782916 ], [ 39.2433987, -6.7826652 ], [ 39.2435124, -6.7824244 ], [ 39.2436493, -6.7821959 ], [ 39.2438079, -6.7819819 ], [ 39.2439867, -6.7817845 ], [ 39.244184, -6.7816056 ], [ 39.244398, -6.7814468 ], [ 39.2446264, -6.7813098 ], [ 39.2448672, -6.7811958 ], [ 39.245118, -6.781106 ], [ 39.2453764, -6.7810411 ], [ 39.2456399, -6.7810019 ], [ 39.245906, -6.7809887 ], [ 39.2461721, -6.7810016 ], [ 39.2464357, -6.7810406 ], [ 39.2466942, -6.7811052 ], [ 39.2469451, -6.7811948 ], [ 39.247186, -6.7813085 ], [ 39.2474146, -6.7814453 ], [ 39.2476286, -6.7816038 ], [ 39.2478261, -6.7817826 ], [ 39.2480051, -6.7819798 ], [ 39.248164, -6.7821937 ], [ 39.2483011, -6.782422 ], [ 39.2484151, -6.7826627 ], [ 39.248505, -6.7829134 ], [ 39.2485698, -6.7831717 ], [ 39.2486091, -6.7834351 ], [ 39.2486223, -6.7837011 ], [ 39.2486093, -6.7839671 ], [ 39.2485704, -6.7842306 ], [ 39.2485058, -6.7844889 ], [ 39.2484162, -6.7847397 ], [ 39.2483024, -6.7849806 ], [ 39.2481655, -6.7852091 ], [ 39.2480069, -6.785423 ], [ 39.2478491, -6.7855973 ], [ 39.2478524, -6.7855997 ], [ 39.2480499, -6.7857785 ], [ 39.248229, -6.7859757 ], [ 39.2483878, -6.7861895 ], [ 39.2485249, -6.7864179 ], [ 39.2486389, -6.7866586 ], [ 39.2487288, -6.7869093 ], [ 39.2487937, -6.7871676 ], [ 39.2488329, -6.787431 ], [ 39.2488461, -6.787697 ], [ 39.2488332, -6.787963 ], [ 39.2487942, -6.7882265 ] ] ] } }
]
}
