{
"type": "FeatureCollection",
"features": [
{ "type": "Feature", "properties": { "index": "0", "@osmId": "node/1408261564", "name": null, "opening_hours": null, "label": "Fully organic shops", "color": "#238b45" }, "geometry": { "type": "Point", "coordinates": [ 39.2363686, -6.7924429 ] } },
{ "type": "Feature", "properties": { "index": "1", "@osmId": "node/3728100857", "name": null, "opening_hours": "Mo-Su 08:00-18:00", "label": "Shops selling organic", "color": "#a1d99b" }, "geometry": { "type": "Point", "coordinates": [ 39.2723979, -6.8205883 ] } },
{ "type": "Feature", "properties": { "index": "2", "@osmId": "node/3728100859", "name": null, "opening_hours": "Mo-Su 08:00-18:00", "label": "Shops selling organic", "color": "#a1d99b" }, "geometry": { "type": "Point", "coordinates": [ 39.2723399, -6.8206012 ] } },
{ "type": "Feature", "properties": { "index": "3", "@osmId": "node/3728100860", "name": null, "opening_hours": "Mo-Su 08:00-18:00", "label": "Shops selling organic", "color": "#a1d99b" }, "geometry": { "type": "Point", "coordinates": [ 39.2722639, -6.8206288 ] } },
{ "type": "Feature", "properties": { "index": "4", "@osmId": "node/3728100862", "name": null, "opening_hours": "Mo-Su 08:00-18:00", "label": "Shops selling organic", "color": "#a1d99b" }, "geometry": { "type": "Point", "coordinates": [ 39.2722811, -6.8206929 ] } },
{ "type": "Feature", "properties": { "index": "5", "@osmId": "node/3650663720", "name": null, "opening_hours": "Mo-Su 10:00-21:00", "label": "Shops selling organic", "color": "#a1d99b" }, "geometry": { "type": "Point", "coordinates": [ 39.2459074, -6.7837025 ] } },
{ "type": "Feature", "properties": { "index": "6", "@osmId": "node/3658892353", "name": null, "opening_hours": "Mo-Sa 09:00-21:00", "label": "Shops selling organic", "color": "#a1d99b" }, "geometry": { "type": "Point", "coordinates": [ 39.2461312, -6.7876984 ] } },
{ "type": "Feature", "properties": { "index": "7", "@osmId": "node/3718338785", "name": null, "opening_hours": "Mo-Su 08:00-20:00", "label": "Shops selling organic", "color": "#a1d99b" }, "geometry": { "type": "Point", "coordinates": [ 39.2681613, -6.791316 ] } }
]
}
