{
"type": "FeatureCollection",
"features": [
{ "type": "Feature", "properties": { "index": "2279", "@osmId": "node/60697821", "name": null, "opening_hours": null, "label": "Audible crossings", "color": "#31a354" }, "geometry": { "type": "Point", "coordinates": [ 8.692728, 49.409761 ] } },
{ "type": "Feature", "properties": { "index": "2280", "@osmId": "node/60697824", "name": null, "opening_hours": null, "label": "Audible crossings", "color": "#31a354" }, "geometry": { "type": "Point", "coordinates": [ 8.6924098, 49.4088043 ] } },
{ "type": "Feature", "properties": { "index": "2281", "@osmId": "node/60698389", "name": null, "opening_hours": null, "label": "Audible crossings", "color": "#31a354" }, "geometry": { "type": "Point", "coordinates": [ 8.6925549, 49.4092056 ] } },
{ "type": "Feature", "properties": { "index": "2282", "@osmId": "node/145994144", "name": null, "opening_hours": null, "label": "Audible crossings", "color": "#31a354" }, "geometry": { "type": "Point", "coordinates": [ 8.6919797, 49.4171209 ] } },
{ "type": "Feature", "properties": { "index": "2283", "@osmId": "node/267797885", "name": null, "opening_hours": null, "label": "Audible crossings", "color": "#31a354" }, "geometry": { "type": "Point", "coordinates": [ 8.6943017, 49.406887 ] } },
{ "type": "Feature", "properties": { "index": "2284", "@osmId": "node/269416264", "name": null, "opening_hours": null, "label": "Audible crossings", "color": "#31a354" }, "geometry": { "type": "Point", "coordinates": [ 8.6769365, 49.4125767 ] } },
{ "type": "Feature", "properties": { "index": "2285", "@osmId": "node/269603383", "name": null, "opening_hours": null, "label": "Audible crossings", "color": "#31a354" }, "geometry": { "type": "Point", "coordinates": [ 8.6767194, 49.4088064 ] } },
{ "type": "Feature", "properties": { "index": "2286", "@osmId": "node/269726708", "name": null, "opening_hours": null, "label": "Audible crossings", "color": "#31a354" }, "geometry": { "type": "Point", "coordinates": [ 8.6765129, 49.4170068 ] } },
{ "type": "Feature", "properties": { "index": "2287", "@osmId": "node/269876450", "name": null, "opening_hours": null, "label": "Audible crossings", "color": "#31a354" }, "geometry": { "type": "Point", "coordinates": [ 8.6904208, 49.4190488 ] } },
{ "type": "Feature", "properties": { "index": "2288", "@osmId": "node/270233519", "name": null, "opening_hours": null, "label": "Audible crossings", "color": "#31a354" }, "geometry": { "type": "Point", "coordinates": [ 8.6764202, 49.4125901 ] } },
{ "type": "Feature", "properties": { "index": "2289", "@osmId": "node/270233522", "name": null, "opening_hours": null, "label": "Audible crossings", "color": "#31a354" }, "geometry": { "type": "Point", "coordinates": [ 8.6761071, 49.4170115 ] } },
{ "type": "Feature", "properties": { "index": "2290", "@osmId": "node/270418050", "name": null, "opening_hours": null, "label": "Audible crossings", "color": "#31a354" }, "geometry": { "type": "Point", "coordinates": [ 8.6759548, 49.4194654 ] } },
{ "type": "Feature", "properties": { "index": "2291", "@osmId": "node/270427593", "name": null, "opening_hours": null, "label": "Audible crossings", "color": "#31a354" }, "geometry": { "type": "Point", "coordinates": [ 8.6698685, 49.4090125 ] } },
{ "type": "Feature", "properties": { "index": "2292", "@osmId": "node/270427594", "name": null, "opening_hours": null, "label": "Audible crossings", "color": "#31a354" }, "geometry": { "type": "Point", "coordinates": [ 8.6694407, 49.4090864 ] } },
{ "type": "Feature", "properties": { "index": "2293", "@osmId": "node/270429979", "name": null, "opening_hours": null, "label": "Audible crossings", "color": "#31a354" }, "geometry": { "type": "Point", "coordinates": [ 8.6698703, 49.4092247 ] } },
{ "type": "Feature", "properties": { "index": "2294", "@osmId": "node/270429986", "name": null, "opening_hours": null, "label": "Audible crossings", "color": "#31a354" }, "geometry": { "type": "Point", "coordinates": [ 8.6696477, 49.4090688 ] } },
{ "type": "Feature", "properties": { "index": "2295", "@osmId": "node/271325387", "name": null, "opening_hours": null, "label": "Audible crossings", "color": "#31a354" }, "geometry": { "type": "Point", "coordinates": [ 8.6749603, 49.4195109 ] } },
{ "type": "Feature", "properties": { "index": "2296", "@osmId": "node/271325395", "name": null, "opening_hours": null, "label": "Audible crossings", "color": "#31a354" }, "geometry": { "type": "Point", "coordinates": [ 8.6678878, 49.4189885 ] } },
{ "type": "Feature", "properties": { "index": "2297", "@osmId": "node/271383668", "name": null, "opening_hours": null, "label": "Audible crossings", "color": "#31a354" }, "geometry": { "type": "Point", "coordinates": [ 8.6709937, 49.4196365 ] } },
{ "type": "Feature", "properties": { "index": "2298", "@osmId": "node/271383671", "name": null, "opening_hours": null, "label": "Audible crossings", "color": "#31a354" }, "geometry": { "type": "Point", "coordinates": [ 8.6678413, 49.4192719 ] } },
{ "type": "Feature", "properties": { "index": "2299", "@osmId": "node/271724470", "name": null, "opening_hours": null, "label": "Audible crossings", "color": "#31a354" }, "geometry": { "type": "Point", "coordinates": [ 8.6704022, 49.4081349 ] } },
{ "type": "Feature", "properties": { "index": "2300", "@osmId": "node/274089747", "name": null, "opening_hours": null, "label": "Audible crossings", "color": "#31a354" }, "geometry": { "type": "Point", "coordinates": [ 8.6765227, 49.4169084 ] } },
{ "type": "Feature", "properties": { "index": "2301", "@osmId": "node/274089757", "name": null, "opening_hours": null, "label": "Audible crossings", "color": "#31a354" }, "geometry": { "type": "Point", "coordinates": [ 8.676125, 49.4169174 ] } },
{ "type": "Feature", "properties": { "index": "2302", "@osmId": "node/274248074", "name": null, "opening_hours": null, "label": "Audible crossings", "color": "#31a354" }, "geometry": { "type": "Point", "coordinates": [ 8.6760112, 49.4195951 ] } },
{ "type": "Feature", "properties": { "index": "2303", "@osmId": "node/274248075", "name": null, "opening_hours": null, "label": "Audible crossings", "color": "#31a354" }, "geometry": { "type": "Point", "coordinates": [ 8.6760142, 49.4196719 ] } },
{ "type": "Feature", "properties": { "index": "2304", "@osmId": "node/274248100", "name": null, "opening_hours": null, "label": "Audible crossings", "color": "#31a354" }, "geometry": { "type": "Point", "coordinates": [ 8.6761307, 49.4194808 ] } },
{ "type": "Feature", "properties": { "index": "2305", "@osmId": "node/274248108", "name": null, "opening_hours": null, "label": "Audible crossings", "color": "#31a354" }, "geometry": { "type": "Point", "coordinates": [ 8.6764702, 49.4194743 ] } },
{ "type": "Feature", "properties": { "index": "2306", "@osmId": "node/274248131", "name": null, "opening_hours": null, "label": "Audible crossings", "color": "#31a354" }, "geometry": { "type": "Point", "coordinates": [ 8.6761303, 49.4197341 ] } },
{ "type": "Feature", "properties": { "index": "2307", "@osmId": "node/274248195", "name": null, "opening_hours": null, "label": "Audible crossings", "color": "#31a354" }, "geometry": { "type": "Point", "coordinates": [ 8.6761666, 49.4170631 ] } },
{ "type": "Feature", "properties": { "index": "2308", "@osmId": "node/274248214", "name": null, "opening_hours": null, "label": "Audible crossings", "color": "#31a354" }, "geometry": { "type": "Point", "coordinates": [ 8.6764442, 49.4170666 ] } },
{ "type": "Feature", "properties": { "index": "2309", "@osmId": "node/274248282", "name": null, "opening_hours": null, "label": "Audible crossings", "color": "#31a354" }, "geometry": { "type": "Point", "coordinates": [ 8.6761959, 49.4168376 ] } },
{ "type": "Feature", "properties": { "index": "2310", "@osmId": "node/274248285", "name": null, "opening_hours": null, "label": "Audible crossings", "color": "#31a354" }, "geometry": { "type": "Point", "coordinates": [ 8.6764456, 49.4168398 ] } },
{ "type": "Feature", "properties": { "index": "2311", "@osmId": "node/274248292", "name": null, "opening_hours": null, "label": "Audible crossings", "color": "#31a354" }, "geometry": { "type": "Point", "coordinates": [ 8.6769222, 49.4126646 ] } },
{ "type": "Feature", "properties": { "index": "2312", "@osmId": "node/275517795", "name": null, "opening_hours": null, "label": "Audible crossings", "color": "#31a354" }, "geometry": { "type": "Point", "coordinates": [ 8.6697831, 49.4090456 ] } },
{ "type": "Feature", "properties": { "index": "2313", "@osmId": "node/276109558", "name": null, "opening_hours": null, "label": "Audible crossings", "color": "#31a354" }, "geometry": { "type": "Point", "coordinates": [ 8.6676014, 49.4191421 ] } },
{ "type": "Feature", "properties": { "index": "2314", "@osmId": "node/276109562", "name": null, "opening_hours": null, "label": "Audible crossings", "color": "#31a354" }, "geometry": { "type": "Point", "coordinates": [ 8.6676028, 49.4190902 ] } },
{ "type": "Feature", "properties": { "index": "2315", "@osmId": "node/276109595", "name": null, "opening_hours": null, "label": "Audible crossings", "color": "#31a354" }, "geometry": { "type": "Point", "coordinates": [ 8.6679909, 49.4189912 ] } },
{ "type": "Feature", "properties": { "index": "2316", "@osmId": "node/297958768", "name": null, "opening_hours": null, "label": "Audible crossings", "color": "#31a354" }, "geometry": { "type": "Point", "coordinates": [ 8.6722467, 49.4080271 ] } },
{ "type": "Feature", "properties": { "index": "2317", "@osmId": "node/297958790", "name": null, "opening_hours": null, "label": "Audible crossings", "color": "#31a354" }, "geometry": { "type": "Point", "coordinates": [ 8.6721653, 49.4079173 ] } },
{ "type": "Feature", "properties": { "index": "2318", "@osmId": "node/411092144", "name": null, "opening_hours": null, "label": "Audible crossings", "color": "#31a354" }, "geometry": { "type": "Point", "coordinates": [ 8.676078, 49.4193575 ] } },
{ "type": "Feature", "properties": { "index": "2319", "@osmId": "node/411092147", "name": null, "opening_hours": null, "label": "Audible crossings", "color": "#31a354" }, "geometry": { "type": "Point", "coordinates": [ 8.6760776, 49.4197349 ] } },
{ "type": "Feature", "properties": { "index": "2320", "@osmId": "node/441577403", "name": null, "opening_hours": null, "label": "Audible crossings", "color": "#31a354" }, "geometry": { "type": "Point", "coordinates": [ 8.6760801, 49.4194818 ] } },
{ "type": "Feature", "properties": { "index": "2321", "@osmId": "node/441682272", "name": null, "opening_hours": null, "label": "Audible crossings", "color": "#31a354" }, "geometry": { "type": "Point", "coordinates": [ 8.7079095, 49.4135211 ] } },
{ "type": "Feature", "properties": { "index": "2322", "@osmId": "node/465589315", "name": null, "opening_hours": null, "label": "Audible crossings", "color": "#31a354" }, "geometry": { "type": "Point", "coordinates": [ 8.6711578, 49.4066263 ] } },
{ "type": "Feature", "properties": { "index": "2323", "@osmId": "node/529721987", "name": null, "opening_hours": null, "label": "Audible crossings", "color": "#31a354" }, "geometry": { "type": "Point", "coordinates": [ 8.688511, 49.3990799 ] } },
{ "type": "Feature", "properties": { "index": "2324", "@osmId": "node/1019329416", "name": null, "opening_hours": null, "label": "Audible crossings", "color": "#31a354" }, "geometry": { "type": "Point", "coordinates": [ 8.6774377, 49.4046103 ] } },
{ "type": "Feature", "properties": { "index": "2325", "@osmId": "node/1183227584", "name": null, "opening_hours": null, "label": "Audible crossings", "color": "#31a354" }, "geometry": { "type": "Point", "coordinates": [ 8.6709742, 49.4067131 ] } },
{ "type": "Feature", "properties": { "index": "2326", "@osmId": "node/1224927000", "name": null, "opening_hours": null, "label": "Audible crossings", "color": "#31a354" }, "geometry": { "type": "Point", "coordinates": [ 8.6943212, 49.4074815 ] } },
{ "type": "Feature", "properties": { "index": "2327", "@osmId": "node/1232924592", "name": null, "opening_hours": null, "label": "Audible crossings", "color": "#31a354" }, "geometry": { "type": "Point", "coordinates": [ 8.6695009, 49.4091746 ] } },
{ "type": "Feature", "properties": { "index": "2328", "@osmId": "node/1446890306", "name": null, "opening_hours": null, "label": "Audible crossings", "color": "#31a354" }, "geometry": { "type": "Point", "coordinates": [ 8.6926799, 49.4093453 ] } },
{ "type": "Feature", "properties": { "index": "2329", "@osmId": "node/1446890341", "name": null, "opening_hours": null, "label": "Audible crossings", "color": "#31a354" }, "geometry": { "type": "Point", "coordinates": [ 8.6924003, 49.4103329 ] } },
{ "type": "Feature", "properties": { "index": "2330", "@osmId": "node/1470714689", "name": null, "opening_hours": null, "label": "Audible crossings", "color": "#31a354" }, "geometry": { "type": "Point", "coordinates": [ 8.7049108, 49.4087826 ] } },
{ "type": "Feature", "properties": { "index": "2331", "@osmId": "node/1470714693", "name": null, "opening_hours": null, "label": "Audible crossings", "color": "#31a354" }, "geometry": { "type": "Point", "coordinates": [ 8.7049611, 49.4088298 ] } },
{ "type": "Feature", "properties": { "index": "2332", "@osmId": "node/1470714705", "name": null, "opening_hours": null, "label": "Audible crossings", "color": "#31a354" }, "geometry": { "type": "Point", "coordinates": [ 8.7049686, 49.4089809 ] } },
{ "type": "Feature", "properties": { "index": "2333", "@osmId": "node/1727214058", "name": null, "opening_hours": null, "label": "Audible crossings", "color": "#31a354" }, "geometry": { "type": "Point", "coordinates": [ 8.6772877, 49.4078267 ] } },
{ "type": "Feature", "properties": { "index": "2334", "@osmId": "node/1727214062", "name": null, "opening_hours": null, "label": "Audible crossings", "color": "#31a354" }, "geometry": { "type": "Point", "coordinates": [ 8.6772914, 49.4079584 ] } },
{ "type": "Feature", "properties": { "index": "2335", "@osmId": "node/1779442110", "name": null, "opening_hours": null, "label": "Audible crossings", "color": "#31a354" }, "geometry": { "type": "Point", "coordinates": [ 8.7060311, 49.4149491 ] } },
{ "type": "Feature", "properties": { "index": "2336", "@osmId": "node/1779583830", "name": null, "opening_hours": null, "label": "Audible crossings", "color": "#31a354" }, "geometry": { "type": "Point", "coordinates": [ 8.6956267, 49.4134914 ] } },
{ "type": "Feature", "properties": { "index": "2337", "@osmId": "node/1912123301", "name": null, "opening_hours": null, "label": "Audible crossings", "color": "#31a354" }, "geometry": { "type": "Point", "coordinates": [ 8.6913785, 49.401828 ] } },
{ "type": "Feature", "properties": { "index": "2338", "@osmId": "node/1995029928", "name": null, "opening_hours": null, "label": "Audible crossings", "color": "#31a354" }, "geometry": { "type": "Point", "coordinates": [ 8.6812581, 49.4048731 ] } },
{ "type": "Feature", "properties": { "index": "2339", "@osmId": "node/1995904832", "name": null, "opening_hours": null, "label": "Audible crossings", "color": "#31a354" }, "geometry": { "type": "Point", "coordinates": [ 8.689206, 49.3988463 ] } },
{ "type": "Feature", "properties": { "index": "2340", "@osmId": "node/1995904836", "name": null, "opening_hours": null, "label": "Audible crossings", "color": "#31a354" }, "geometry": { "type": "Point", "coordinates": [ 8.689233, 49.3988809 ] } },
{ "type": "Feature", "properties": { "index": "2341", "@osmId": "node/2073152808", "name": null, "opening_hours": null, "label": "Audible crossings", "color": "#31a354" }, "geometry": { "type": "Point", "coordinates": [ 8.6895024, 49.3981375 ] } },
{ "type": "Feature", "properties": { "index": "2342", "@osmId": "node/2235112753", "name": null, "opening_hours": null, "label": "Audible crossings", "color": "#31a354" }, "geometry": { "type": "Point", "coordinates": [ 8.6663939, 49.4190646 ] } },
{ "type": "Feature", "properties": { "index": "2343", "@osmId": "node/2235112765", "name": null, "opening_hours": null, "label": "Audible crossings", "color": "#31a354" }, "geometry": { "type": "Point", "coordinates": [ 8.6663945, 49.4191338 ] } },
{ "type": "Feature", "properties": { "index": "2344", "@osmId": "node/2308341575", "name": null, "opening_hours": null, "label": "Audible crossings", "color": "#31a354" }, "geometry": { "type": "Point", "coordinates": [ 8.6906212, 49.4190948 ] } },
{ "type": "Feature", "properties": { "index": "2345", "@osmId": "node/2319092893", "name": null, "opening_hours": null, "label": "Audible crossings", "color": "#31a354" }, "geometry": { "type": "Point", "coordinates": [ 8.6887097, 49.3990434 ] } },
{ "type": "Feature", "properties": { "index": "2346", "@osmId": "node/2319092897", "name": null, "opening_hours": null, "label": "Audible crossings", "color": "#31a354" }, "geometry": { "type": "Point", "coordinates": [ 8.6888504, 49.3990589 ] } },
{ "type": "Feature", "properties": { "index": "2347", "@osmId": "node/2319092900", "name": null, "opening_hours": null, "label": "Audible crossings", "color": "#31a354" }, "geometry": { "type": "Point", "coordinates": [ 8.6889093, 49.3990671 ] } },
{ "type": "Feature", "properties": { "index": "2348", "@osmId": "node/2381850977", "name": null, "opening_hours": null, "label": "Audible crossings", "color": "#31a354" }, "geometry": { "type": "Point", "coordinates": [ 8.6908766, 49.4001519 ] } },
{ "type": "Feature", "properties": { "index": "2349", "@osmId": "node/2381850998", "name": null, "opening_hours": null, "label": "Audible crossings", "color": "#31a354" }, "geometry": { "type": "Point", "coordinates": [ 8.6909091, 49.4002652 ] } },
{ "type": "Feature", "properties": { "index": "2350", "@osmId": "node/2391363205", "name": null, "opening_hours": null, "label": "Audible crossings", "color": "#31a354" }, "geometry": { "type": "Point", "coordinates": [ 8.6774148, 49.4044584 ] } },
{ "type": "Feature", "properties": { "index": "2351", "@osmId": "node/2593930979", "name": null, "opening_hours": null, "label": "Audible crossings", "color": "#31a354" }, "geometry": { "type": "Point", "coordinates": [ 8.669521, 49.4092498 ] } },
{ "type": "Feature", "properties": { "index": "2352", "@osmId": "node/2598311818", "name": null, "opening_hours": null, "label": "Audible crossings", "color": "#31a354" }, "geometry": { "type": "Point", "coordinates": [ 8.7180436, 49.4144442 ] } },
{ "type": "Feature", "properties": { "index": "2353", "@osmId": "node/2640446045", "name": null, "opening_hours": null, "label": "Audible crossings", "color": "#31a354" }, "geometry": { "type": "Point", "coordinates": [ 8.6895038, 49.3981599 ] } },
{ "type": "Feature", "properties": { "index": "2354", "@osmId": "node/2980068528", "name": null, "opening_hours": null, "label": "Audible crossings", "color": "#31a354" }, "geometry": { "type": "Point", "coordinates": [ 8.6764799, 49.4197321 ] } },
{ "type": "Feature", "properties": { "index": "2355", "@osmId": "node/2980083957", "name": null, "opening_hours": null, "label": "Audible crossings", "color": "#31a354" }, "geometry": { "type": "Point", "coordinates": [ 8.6749553, 49.4197727 ] } },
{ "type": "Feature", "properties": { "index": "2356", "@osmId": "node/3201003656", "name": null, "opening_hours": null, "label": "Audible crossings", "color": "#31a354" }, "geometry": { "type": "Point", "coordinates": [ 8.6927613, 49.4062002 ] } },
{ "type": "Feature", "properties": { "index": "2357", "@osmId": "node/3265115701", "name": null, "opening_hours": null, "label": "Audible crossings", "color": "#31a354" }, "geometry": { "type": "Point", "coordinates": [ 8.6772887, 49.4078899 ] } },
{ "type": "Feature", "properties": { "index": "2358", "@osmId": "node/3879053708", "name": null, "opening_hours": null, "label": "Audible crossings", "color": "#31a354" }, "geometry": { "type": "Point", "coordinates": [ 8.6910358, 49.4111862 ] } },
{ "type": "Feature", "properties": { "index": "2359", "@osmId": "node/3879053797", "name": null, "opening_hours": null, "label": "Audible crossings", "color": "#31a354" }, "geometry": { "type": "Point", "coordinates": [ 8.6869555, 49.4103057 ] } },
{ "type": "Feature", "properties": { "index": "2360", "@osmId": "node/3935549773", "name": null, "opening_hours": null, "label": "Audible crossings", "color": "#31a354" }, "geometry": { "type": "Point", "coordinates": [ 8.6677791, 49.4189861 ] } },
{ "type": "Feature", "properties": { "index": "2361", "@osmId": "node/3962606290", "name": null, "opening_hours": null, "label": "Audible crossings", "color": "#31a354" }, "geometry": { "type": "Point", "coordinates": [ 8.6780545, 49.4004453 ] } },
{ "type": "Feature", "properties": { "index": "2362", "@osmId": "node/4523881764", "name": null, "opening_hours": null, "label": "Audible crossings", "color": "#31a354" }, "geometry": { "type": "Point", "coordinates": [ 8.6747911, 49.4196375 ] } },
{ "type": "Feature", "properties": { "index": "2363", "@osmId": "node/6222512975", "name": null, "opening_hours": null, "label": "Audible crossings", "color": "#31a354" }, "geometry": { "type": "Point", "coordinates": [ 8.6700785, 49.4031129 ] } },
{ "type": "Feature", "properties": { "index": "2364", "@osmId": "node/6489515676", "name": null, "opening_hours": null, "label": "Audible crossings", "color": "#31a354" }, "geometry": { "type": "Point", "coordinates": [ 8.6600109, 49.4051374 ] } },
{ "type": "Feature", "properties": { "index": "2365", "@osmId": "node/6489515677", "name": null, "opening_hours": null, "label": "Audible crossings", "color": "#31a354" }, "geometry": { "type": "Point", "coordinates": [ 8.6600264, 49.4051607 ] } },
{ "type": "Feature", "properties": { "index": "2366", "@osmId": "node/6583593502", "name": null, "opening_hours": null, "label": "Audible crossings", "color": "#31a354" }, "geometry": { "type": "Point", "coordinates": [ 8.6921804, 49.4171675 ] } },
{ "type": "Feature", "properties": { "index": "2367", "@osmId": "node/6583593507", "name": null, "opening_hours": null, "label": "Audible crossings", "color": "#31a354" }, "geometry": { "type": "Point", "coordinates": [ 8.6918254, 49.4170933 ] } },
{ "type": "Feature", "properties": { "index": "2368", "@osmId": "node/6583605533", "name": null, "opening_hours": null, "label": "Audible crossings", "color": "#31a354" }, "geometry": { "type": "Point", "coordinates": [ 8.692423, 49.4138621 ] } },
{ "type": "Feature", "properties": { "index": "2369", "@osmId": "node/6583605536", "name": null, "opening_hours": null, "label": "Audible crossings", "color": "#31a354" }, "geometry": { "type": "Point", "coordinates": [ 8.6920688, 49.413846 ] } },
{ "type": "Feature", "properties": { "index": "2370", "@osmId": "node/6584088380", "name": null, "opening_hours": null, "label": "Audible crossings", "color": "#31a354" }, "geometry": { "type": "Point", "coordinates": [ 8.6922085, 49.4139833 ] } },
{ "type": "Feature", "properties": { "index": "2371", "@osmId": "node/6584088381", "name": null, "opening_hours": null, "label": "Audible crossings", "color": "#31a354" }, "geometry": { "type": "Point", "coordinates": [ 8.692157, 49.4146079 ] } },
{ "type": "Feature", "properties": { "index": "2372", "@osmId": "node/6584088382", "name": null, "opening_hours": null, "label": "Audible crossings", "color": "#31a354" }, "geometry": { "type": "Point", "coordinates": [ 8.6921445, 49.4147999 ] } },
{ "type": "Feature", "properties": { "index": "2373", "@osmId": "node/6584121889", "name": null, "opening_hours": null, "label": "Audible crossings", "color": "#31a354" }, "geometry": { "type": "Point", "coordinates": [ 8.6920042, 49.4169459 ] } },
{ "type": "Feature", "properties": { "index": "2374", "@osmId": "node/6584121890", "name": null, "opening_hours": null, "label": "Audible crossings", "color": "#31a354" }, "geometry": { "type": "Point", "coordinates": [ 8.6919307, 49.4172347 ] } },
{ "type": "Feature", "properties": { "index": "2375", "@osmId": "node/7110970011", "name": null, "opening_hours": null, "label": "Audible crossings", "color": "#31a354" }, "geometry": { "type": "Point", "coordinates": [ 8.672021, 49.4032547 ] } },
{ "type": "Feature", "properties": { "index": "2376", "@osmId": "node/9434060599", "name": null, "opening_hours": null, "label": "Audible crossings", "color": "#31a354" }, "geometry": { "type": "Point", "coordinates": [ 8.6930431, 49.4073877 ] } },
{ "type": "Feature", "properties": { "index": "2377", "@osmId": "node/10584675047", "name": null, "opening_hours": null, "label": "Audible crossings", "color": "#31a354" }, "geometry": { "type": "Point", "coordinates": [ 8.7069976, 49.4090866 ] } },
{ "type": "Feature", "properties": { "index": "2378", "@osmId": "node/12114170214", "name": null, "opening_hours": null, "label": "Audible crossings", "color": "#31a354" }, "geometry": { "type": "Point", "coordinates": [ 8.6749668, 49.4194843 ] } },
{ "type": "Feature", "properties": { "index": "2379", "@osmId": "node/13686841474", "name": null, "opening_hours": null, "label": "Audible crossings", "color": "#31a354" }, "geometry": { "type": "Point", "coordinates": [ 8.6769377, 49.4059957 ] } }
]
}
