{
"type": "FeatureCollection",
"features": [
{ "type": "Feature", "properties": { "index": "1507", "@osmId": "way/192557340", "name": null, "opening_hours": null, "label": "Public toilets", "color": "#3182bd" }, "geometry": { "type": "Point", "coordinates": [ 8.6897971, 49.4131243 ] } },
{ "type": "Feature", "properties": { "index": "1508", "@osmId": "way/192557342", "name": "Posseltstraße", "opening_hours": "May-Oct 08:00-24:00", "label": "Public toilets", "color": "#3182bd" }, "geometry": { "type": "Point", "coordinates": [ 8.6816334, 49.4122418 ] } },
{ "type": "Feature", "properties": { "index": "1509", "@osmId": "way/1026671072", "name": null, "opening_hours": null, "label": "Public toilets", "color": "#3182bd" }, "geometry": { "type": "Point", "coordinates": [ 8.7035439, 49.4108484 ] } },
{ "type": "Feature", "properties": { "index": "1510", "@osmId": "way/1027201620", "name": null, "opening_hours": null, "label": "Public toilets", "color": "#3182bd" }, "geometry": { "type": "Point", "coordinates": [ 8.7036334, 49.4104265 ] } },
{ "type": "Feature", "properties": { "index": "1511", "@osmId": "way/1027201621", "name": null, "opening_hours": null, "label": "Public toilets", "color": "#3182bd" }, "geometry": { "type": "Point", "coordinates": [ 8.7036976, 49.410434 ] } },
{ "type": "Feature", "properties": { "index": "1512", "@osmId": "way/1027201622", "name": null, "opening_hours": null, "label": "Public toilets", "color": "#3182bd" }, "geometry": { "type": "Point", "coordinates": [ 8.7037482, 49.4104397 ] } },
{ "type": "Feature", "properties": { "index": "1513", "@osmId": "way/1027201692", "name": null, "opening_hours": null, "label": "Public toilets", "color": "#3182bd" }, "geometry": { "type": "Point", "coordinates": [ 8.7037587, 49.4103891 ] } },
{ "type": "Feature", "properties": { "index": "1514", "@osmId": "way/1027201693", "name": null, "opening_hours": null, "label": "Public toilets", "color": "#3182bd" }, "geometry": { "type": "Point", "coordinates": [ 8.7037895, 49.4103928 ] } },
{ "type": "Feature", "properties": { "index": "1515", "@osmId": "way/1027359274", "name": null, "opening_hours": null, "label": "Public toilets", "color": "#3182bd" }, "geometry": { "type": "Point", "coordinates": [ 8.7037158, 49.4104362 ] } },
{ "type": "Feature", "properties": { "index": "1516", "@osmId": "way/1027359275", "name": null, "opening_hours": null, "label": "Public toilets", "color": "#3182bd" }, "geometry": { "type": "Point", "coordinates": [ 8.7036569, 49.4104295 ] } },
{ "type": "Feature", "properties": { "index": "1517", "@osmId": "way/1027359364", "name": null, "opening_hours": null, "label": "Public toilets", "color": "#3182bd" }, "geometry": { "type": "Point", "coordinates": [ 8.7035334, 49.4106016 ] } },
{ "type": "Feature", "properties": { "index": "1518", "@osmId": "way/1027359365", "name": null, "opening_hours": null, "label": "Public toilets", "color": "#3182bd" }, "geometry": { "type": "Point", "coordinates": [ 8.7035527, 49.4108518 ] } },
{ "type": "Feature", "properties": { "index": "1519", "@osmId": "way/456209066", "name": null, "opening_hours": null, "label": "Public toilets", "color": "#3182bd" }, "geometry": { "type": "Point", "coordinates": [ 8.6834752, 49.4200821 ] } },
{ "type": "Feature", "properties": { "index": "1520", "@osmId": "way/456209067", "name": null, "opening_hours": null, "label": "Public toilets", "color": "#3182bd" }, "geometry": { "type": "Point", "coordinates": [ 8.6834563, 49.4201299 ] } },
{ "type": "Feature", "properties": { "index": "1521", "@osmId": "way/995318254", "name": null, "opening_hours": null, "label": "Public toilets", "color": "#3182bd" }, "geometry": { "type": "Point", "coordinates": [ 8.6658563, 49.4020368 ] } },
{ "type": "Feature", "properties": { "index": "1522", "@osmId": "node/269385014", "name": null, "opening_hours": "Mo-Su 11:00-19:00", "label": "Public toilets", "color": "#3182bd" }, "geometry": { "type": "Point", "coordinates": [ 8.6856608, 49.4125622 ] } },
{ "type": "Feature", "properties": { "index": "1523", "@osmId": "node/312805611", "name": null, "opening_hours": null, "label": "Public toilets", "color": "#3182bd" }, "geometry": { "type": "Point", "coordinates": [ 8.6877203, 49.4028079 ] } },
{ "type": "Feature", "properties": { "index": "1524", "@osmId": "node/317580926", "name": null, "opening_hours": "May-Oct 08:00-24:00; Nov-Apr 08:00-22:00", "label": "Public toilets", "color": "#3182bd" }, "geometry": { "type": "Point", "coordinates": [ 8.6920033, 49.4132392 ] } },
{ "type": "Feature", "properties": { "index": "1525", "@osmId": "node/364775631", "name": null, "opening_hours": null, "label": "Public toilets", "color": "#3182bd" }, "geometry": { "type": "Point", "coordinates": [ 8.6927154, 49.4101353 ] } },
{ "type": "Feature", "properties": { "index": "1526", "@osmId": "node/765058213", "name": null, "opening_hours": "24/7", "label": "Public toilets", "color": "#3182bd" }, "geometry": { "type": "Point", "coordinates": [ 8.7197133, 49.4148424 ] } },
{ "type": "Feature", "properties": { "index": "1527", "@osmId": "node/829563415", "name": null, "opening_hours": null, "label": "Public toilets", "color": "#3182bd" }, "geometry": { "type": "Point", "coordinates": [ 8.7150914, 49.4102496 ] } },
{ "type": "Feature", "properties": { "index": "1528", "@osmId": "node/1218124791", "name": null, "opening_hours": null, "label": "Public toilets", "color": "#3182bd" }, "geometry": { "type": "Point", "coordinates": [ 8.6639595, 49.4147102 ] } },
{ "type": "Feature", "properties": { "index": "1529", "@osmId": "node/1218124878", "name": null, "opening_hours": null, "label": "Public toilets", "color": "#3182bd" }, "geometry": { "type": "Point", "coordinates": [ 8.6607936, 49.4144388 ] } },
{ "type": "Feature", "properties": { "index": "1530", "@osmId": "node/1218125125", "name": null, "opening_hours": null, "label": "Public toilets", "color": "#3182bd" }, "geometry": { "type": "Point", "coordinates": [ 8.6615636, 49.4157782 ] } },
{ "type": "Feature", "properties": { "index": "1531", "@osmId": "node/1300175192", "name": null, "opening_hours": "24/7", "label": "Public toilets", "color": "#3182bd" }, "geometry": { "type": "Point", "coordinates": [ 8.6890346, 49.3985092 ] } },
{ "type": "Feature", "properties": { "index": "1532", "@osmId": "node/1383144946", "name": null, "opening_hours": "Mo-Th,Sa 09:30-17:00; Fr 09:30-18:00; PH,Su 10:00-15:00", "label": "Public toilets", "color": "#3182bd" }, "geometry": { "type": "Point", "coordinates": [ 8.7132745, 49.4135273 ] } },
{ "type": "Feature", "properties": { "index": "1533", "@osmId": "node/2137805918", "name": null, "opening_hours": null, "label": "Public toilets", "color": "#3182bd" }, "geometry": { "type": "Point", "coordinates": [ 8.6761951, 49.4080292 ] } },
{ "type": "Feature", "properties": { "index": "1534", "@osmId": "node/2139282001", "name": null, "opening_hours": null, "label": "Public toilets", "color": "#3182bd" }, "geometry": { "type": "Point", "coordinates": [ 8.7145767, 49.407219 ] } },
{ "type": "Feature", "properties": { "index": "1535", "@osmId": "node/2242897155", "name": null, "opening_hours": null, "label": "Public toilets", "color": "#3182bd" }, "geometry": { "type": "Point", "coordinates": [ 8.6641649, 49.4149077 ] } },
{ "type": "Feature", "properties": { "index": "1536", "@osmId": "node/2536358091", "name": null, "opening_hours": null, "label": "Public toilets", "color": "#3182bd" }, "geometry": { "type": "Point", "coordinates": [ 8.7149619, 49.409453 ] } },
{ "type": "Feature", "properties": { "index": "1537", "@osmId": "node/2589806453", "name": null, "opening_hours": "Mo-Sa 10:00-20:00", "label": "Public toilets", "color": "#3182bd" }, "geometry": { "type": "Point", "coordinates": [ 8.6941042, 49.4106938 ] } },
{ "type": "Feature", "properties": { "index": "1538", "@osmId": "node/2716955626", "name": null, "opening_hours": null, "label": "Public toilets", "color": "#3182bd" }, "geometry": { "type": "Point", "coordinates": [ 8.6706413, 49.4157103 ] } },
{ "type": "Feature", "properties": { "index": "1539", "@osmId": "node/3190925663", "name": null, "opening_hours": null, "label": "Public toilets", "color": "#3182bd" }, "geometry": { "type": "Point", "coordinates": [ 8.7003337, 49.4099021 ] } },
{ "type": "Feature", "properties": { "index": "1540", "@osmId": "node/3211760431", "name": null, "opening_hours": null, "label": "Public toilets", "color": "#3182bd" }, "geometry": { "type": "Point", "coordinates": [ 8.7059723, 49.410474 ] } },
{ "type": "Feature", "properties": { "index": "1541", "@osmId": "node/3572846910", "name": null, "opening_hours": null, "label": "Public toilets", "color": "#3182bd" }, "geometry": { "type": "Point", "coordinates": [ 8.6903816, 49.4149634 ] } },
{ "type": "Feature", "properties": { "index": "1542", "@osmId": "node/4593699857", "name": null, "opening_hours": "24/7", "label": "Public toilets", "color": "#3182bd" }, "geometry": { "type": "Point", "coordinates": [ 8.7088117, 49.4122592 ] } },
{ "type": "Feature", "properties": { "index": "1543", "@osmId": "node/4975134345", "name": null, "opening_hours": null, "label": "Public toilets", "color": "#3182bd" }, "geometry": { "type": "Point", "coordinates": [ 8.6709773, 49.3994259 ] } },
{ "type": "Feature", "properties": { "index": "1544", "@osmId": "node/4975134347", "name": null, "opening_hours": null, "label": "Public toilets", "color": "#3182bd" }, "geometry": { "type": "Point", "coordinates": [ 8.6701092, 49.4022948 ] } },
{ "type": "Feature", "properties": { "index": "1545", "@osmId": "node/5294768422", "name": null, "opening_hours": null, "label": "Public toilets", "color": "#3182bd" }, "geometry": { "type": "Point", "coordinates": [ 8.7111491, 49.4123439 ] } },
{ "type": "Feature", "properties": { "index": "1546", "@osmId": "node/5319179803", "name": null, "opening_hours": null, "label": "Public toilets", "color": "#3182bd" }, "geometry": { "type": "Point", "coordinates": [ 8.6885077, 49.4080617 ] } },
{ "type": "Feature", "properties": { "index": "1547", "@osmId": "node/5320134447", "name": null, "opening_hours": null, "label": "Public toilets", "color": "#3182bd" }, "geometry": { "type": "Point", "coordinates": [ 8.6886311, 49.408071 ] } },
{ "type": "Feature", "properties": { "index": "1548", "@osmId": "node/5339757229", "name": null, "opening_hours": null, "label": "Public toilets", "color": "#3182bd" }, "geometry": { "type": "Point", "coordinates": [ 8.6650542, 49.4025474 ] } },
{ "type": "Feature", "properties": { "index": "1549", "@osmId": "node/5731363317", "name": null, "opening_hours": "Mo-Fr 08:00-20:00", "label": "Public toilets", "color": "#3182bd" }, "geometry": { "type": "Point", "coordinates": [ 8.6691622, 49.4176575 ] } },
{ "type": "Feature", "properties": { "index": "1550", "@osmId": "node/5731363426", "name": null, "opening_hours": null, "label": "Public toilets", "color": "#3182bd" }, "geometry": { "type": "Point", "coordinates": [ 8.6704454, 49.4166598 ] } },
{ "type": "Feature", "properties": { "index": "1551", "@osmId": "node/6125400315", "name": null, "opening_hours": null, "label": "Public toilets", "color": "#3182bd" }, "geometry": { "type": "Point", "coordinates": [ 8.6896548, 49.4075992 ] } },
{ "type": "Feature", "properties": { "index": "1552", "@osmId": "node/6284856473", "name": null, "opening_hours": "We-Su 11:00-20:00", "label": "Public toilets", "color": "#3182bd" }, "geometry": { "type": "Point", "coordinates": [ 8.7057165, 49.4217856 ] } },
{ "type": "Feature", "properties": { "index": "1553", "@osmId": "node/6469901379", "name": null, "opening_hours": null, "label": "Public toilets", "color": "#3182bd" }, "geometry": { "type": "Point", "coordinates": [ 8.6827955, 49.4191076 ] } },
{ "type": "Feature", "properties": { "index": "1554", "@osmId": "node/6811538228", "name": null, "opening_hours": null, "label": "Public toilets", "color": "#3182bd" }, "geometry": { "type": "Point", "coordinates": [ 8.6632958, 49.4146552 ] } },
{ "type": "Feature", "properties": { "index": "1555", "@osmId": "node/6811554885", "name": null, "opening_hours": null, "label": "Public toilets", "color": "#3182bd" }, "geometry": { "type": "Point", "coordinates": [ 8.6634285, 49.4147641 ] } },
{ "type": "Feature", "properties": { "index": "1556", "@osmId": "node/6811554985", "name": null, "opening_hours": null, "label": "Public toilets", "color": "#3182bd" }, "geometry": { "type": "Point", "coordinates": [ 8.6633227, 49.4147015 ] } },
{ "type": "Feature", "properties": { "index": "1557", "@osmId": "node/7109380870", "name": null, "opening_hours": null, "label": "Public toilets", "color": "#3182bd" }, "geometry": { "type": "Point", "coordinates": [ 8.6985165, 49.4090893 ] } },
{ "type": "Feature", "properties": { "index": "1558", "@osmId": "node/7623722301", "name": null, "opening_hours": null, "label": "Public toilets", "color": "#3182bd" }, "geometry": { "type": "Point", "coordinates": [ 8.6608469, 49.4140079 ] } },
{ "type": "Feature", "properties": { "index": "1559", "@osmId": "node/8149221017", "name": null, "opening_hours": null, "label": "Public toilets", "color": "#3182bd" }, "geometry": { "type": "Point", "coordinates": [ 8.7058015, 49.4097083 ] } },
{ "type": "Feature", "properties": { "index": "1560", "@osmId": "node/9114764690", "name": null, "opening_hours": null, "label": "Public toilets", "color": "#3182bd" }, "geometry": { "type": "Point", "coordinates": [ 8.7117884, 49.4112677 ] } },
{ "type": "Feature", "properties": { "index": "1561", "@osmId": "node/10121106817", "name": null, "opening_hours": null, "label": "Public toilets", "color": "#3182bd" }, "geometry": { "type": "Point", "coordinates": [ 8.6886434, 49.4099701 ] } },
{ "type": "Feature", "properties": { "index": "1562", "@osmId": "node/11046277305", "name": null, "opening_hours": null, "label": "Public toilets", "color": "#3182bd" }, "geometry": { "type": "Point", "coordinates": [ 8.7082043, 49.4101954 ] } },
{ "type": "Feature", "properties": { "index": "1563", "@osmId": "node/11907155804", "name": null, "opening_hours": null, "label": "Public toilets", "color": "#3182bd" }, "geometry": { "type": "Point", "coordinates": [ 8.6699303, 49.4147678 ] } },
{ "type": "Feature", "properties": { "index": "1564", "@osmId": "node/11907161281", "name": null, "opening_hours": null, "label": "Public toilets", "color": "#3182bd" }, "geometry": { "type": "Point", "coordinates": [ 8.6848888, 49.4102 ] } },
{ "type": "Feature", "properties": { "index": "1565", "@osmId": "node/11958895270", "name": null, "opening_hours": null, "label": "Public toilets", "color": "#3182bd" }, "geometry": { "type": "Point", "coordinates": [ 8.6948994, 49.4079022 ] } },
{ "type": "Feature", "properties": { "index": "1566", "@osmId": "node/12005730262", "name": null, "opening_hours": "Mo-Fr 08:00-18:00; PH off", "label": "Public toilets", "color": "#3182bd" }, "geometry": { "type": "Point", "coordinates": [ 8.6757652, 49.4192501 ] } },
{ "type": "Feature", "properties": { "index": "1567", "@osmId": "node/12321180501", "name": null, "opening_hours": null, "label": "Public toilets", "color": "#3182bd" }, "geometry": { "type": "Point", "coordinates": [ 8.6665481, 49.4054881 ] } },
{ "type": "Feature", "properties": { "index": "1568", "@osmId": "node/12749497701", "name": null, "opening_hours": null, "label": "Public toilets", "color": "#3182bd" }, "geometry": { "type": "Point", "coordinates": [ 8.7130008, 49.4123568 ] } },
{ "type": "Feature", "properties": { "index": "1569", "@osmId": "node/13391849121", "name": null, "opening_hours": "Mo-Su,PH 00:00+", "label": "Public toilets", "color": "#3182bd" }, "geometry": { "type": "Point", "coordinates": [ 8.6747045, 49.4029332 ] } },
{ "type": "Feature", "properties": { "index": "1570", "@osmId": "node/13525209995", "name": null, "opening_hours": null, "label": "Public toilets", "color": "#3182bd" }, "geometry": { "type": "Point", "coordinates": [ 8.6997463, 49.4119236 ] } },
{ "type": "Feature", "properties": { "index": "1571", "@osmId": "node/13650404993", "name": null, "opening_hours": "Mo-Su,PH 06:00-23:00", "label": "Public toilets", "color": "#3182bd" }, "geometry": { "type": "Point", "coordinates": [ 8.6765531, 49.4043074 ] } },
{ "type": "Feature", "properties": { "index": "1572", "@osmId": "node/13719523591", "name": null, "opening_hours": null, "label": "Public toilets", "color": "#3182bd" }, "geometry": { "type": "Point", "coordinates": [ 8.6619142, 49.4029024 ] } },
{ "type": "Feature", "properties": { "index": "1573", "@osmId": "node/13727266474", "name": null, "opening_hours": null, "label": "Public toilets", "color": "#3182bd" }, "geometry": { "type": "Point", "coordinates": [ 8.665677, 49.4057367 ] } }
]
}
