{
"type": "FeatureCollection",
"features": [
{ "type": "Feature", "properties": { "index": "0", "label": "Within 200 m on foot", "color": "#2b8cbe" }, "geometry": { "type": "MultiPolygon", "coordinates": [ [ [ [ 8.6628709, 49.4002204 ], [ 8.6631035, 49.4001303 ], [ 8.6633125, 49.4000665 ], [ 8.6633531, 49.4000312 ], [ 8.6635356, 49.3999009 ], [ 8.6637369, 49.3997829 ], [ 8.6638719, 49.3997181 ], [ 8.6639583, 49.3996429 ], [ 8.6641408, 49.3995126 ], [ 8.6643421, 49.3993946 ], [ 8.66456, 49.3992901 ], [ 8.6646095, 49.3992709 ], [ 8.6646277, 49.3992622 ], [ 8.6648604, 49.3991721 ], [ 8.6651054, 49.3990973 ], [ 8.6651978, 49.3990761 ], [ 8.6652887, 49.3990227 ], [ 8.6653628, 49.3989872 ], [ 8.6653834, 49.398965 ], [ 8.6655225, 49.3988437 ], [ 8.6654482, 49.3987062 ], [ 8.6653836, 49.3985348 ], [ 8.6653451, 49.39836 ], [ 8.665333, 49.3981837 ], [ 8.6653475, 49.3980074 ], [ 8.6653489, 49.3980013 ], [ 8.6767194, 49.3980031 ], [ 8.6767279, 49.3981262 ], [ 8.6767254, 49.3981561 ], [ 8.6768707, 49.3981328 ], [ 8.6771385, 49.3981076 ], [ 8.6774087, 49.3980997 ], [ 8.6774806, 49.3981022 ], [ 8.6776312, 49.3980978 ], [ 8.6779013, 49.3981072 ], [ 8.6781687, 49.3981339 ], [ 8.6784308, 49.3981775 ], [ 8.6786851, 49.3982377 ], [ 8.6789291, 49.3983139 ], [ 8.6791606, 49.3984053 ], [ 8.6793771, 49.398511 ], [ 8.6795768, 49.3986302 ], [ 8.6796677, 49.3986962 ], [ 8.6798285, 49.3987597 ], [ 8.680045, 49.3988654 ], [ 8.6802447, 49.3989845 ], [ 8.6804255, 49.3991159 ], [ 8.6805857, 49.3992581 ], [ 8.6807238, 49.3994099 ], [ 8.6808384, 49.3995698 ], [ 8.6808725, 49.3996328 ], [ 8.6809708, 49.3997409 ], [ 8.6810854, 49.3999008 ], [ 8.6811755, 49.4000673 ], [ 8.6812222, 49.4001912 ], [ 8.6814174, 49.4002374 ], [ 8.6816614, 49.4003135 ], [ 8.6818928, 49.4004049 ], [ 8.6821094, 49.4005107 ], [ 8.6823091, 49.4006298 ], [ 8.6824899, 49.4007611 ], [ 8.6826502, 49.4009034 ], [ 8.6826638, 49.4009184 ], [ 8.6827364, 49.4008193 ], [ 8.6828764, 49.4006683 ], [ 8.6830385, 49.4005269 ], [ 8.683221, 49.4003966 ], [ 8.6834208, 49.4002794 ], [ 8.683263, 49.4002023 ], [ 8.6830633, 49.4000832 ], [ 8.6828825, 49.3999519 ], [ 8.6827223, 49.3998097 ], [ 8.6825842, 49.3996579 ], [ 8.6824696, 49.399498 ], [ 8.6823795, 49.3993315 ], [ 8.6823149, 49.3991601 ], [ 8.6822763, 49.3989853 ], [ 8.6822642, 49.398809 ], [ 8.6822786, 49.3986327 ], [ 8.6823194, 49.3984581 ], [ 8.6823862, 49.3982871 ], [ 8.6824784, 49.3981211 ], [ 8.6825645, 49.3980037 ], [ 8.695368, 49.3980038 ], [ 8.6953918, 49.3981115 ], [ 8.695404, 49.3982879 ], [ 8.6953896, 49.3984642 ], [ 8.6953489, 49.3986387 ], [ 8.6952821, 49.3988098 ], [ 8.6951899, 49.3989758 ], [ 8.6950733, 49.3991351 ], [ 8.6949333, 49.3992861 ], [ 8.6947712, 49.3994275 ], [ 8.6945888, 49.3995578 ], [ 8.6943876, 49.3996759 ], [ 8.6941697, 49.3997805 ], [ 8.6940756, 49.3998169 ], [ 8.6940931, 49.3998963 ], [ 8.6941053, 49.4000726 ], [ 8.6940909, 49.4002489 ], [ 8.6940501, 49.4004234 ], [ 8.6939834, 49.4005945 ], [ 8.6938912, 49.4007605 ], [ 8.6937745, 49.4009198 ], [ 8.6937643, 49.4009308 ], [ 8.6938149, 49.4009864 ], [ 8.6939023, 49.4011084 ], [ 8.6939942, 49.4012093 ], [ 8.6941088, 49.4013692 ], [ 8.6941989, 49.4015357 ], [ 8.6942636, 49.4017071 ], [ 8.6943022, 49.4018819 ], [ 8.6943144, 49.4020582 ], [ 8.6943015, 49.4022165 ], [ 8.6943515, 49.4023489 ], [ 8.6943515, 49.4023492 ], [ 8.6943666, 49.4023658 ], [ 8.6944813, 49.4025257 ], [ 8.6945714, 49.4026922 ], [ 8.6946361, 49.4028636 ], [ 8.6946747, 49.4030383 ], [ 8.694683, 49.4031584 ], [ 8.69481, 49.4030839 ], [ 8.6950279, 49.4029793 ], [ 8.6952605, 49.4028891 ], [ 8.6955055, 49.4028143 ], [ 8.6957606, 49.4027555 ], [ 8.6960233, 49.4027133 ], [ 8.6960566, 49.4027101 ], [ 8.696184, 49.4026897 ], [ 8.6964517, 49.4026645 ], [ 8.696722, 49.4026565 ], [ 8.6969921, 49.4026659 ], [ 8.6972596, 49.4026925 ], [ 8.6975217, 49.4027361 ], [ 8.6977761, 49.4027962 ], [ 8.6980201, 49.4028723 ], [ 8.6982516, 49.4029637 ], [ 8.6984683, 49.4030694 ], [ 8.698668, 49.4031885 ], [ 8.6988489, 49.4033198 ], [ 8.6990092, 49.403462 ], [ 8.6991473, 49.4036138 ], [ 8.699262, 49.4037737 ], [ 8.6993105, 49.4038633 ], [ 8.6995617, 49.4038229 ], [ 8.6998295, 49.4037977 ], [ 8.7000998, 49.4037897 ], [ 8.7003699, 49.4037991 ], [ 8.7006374, 49.4038257 ], [ 8.7008995, 49.4038693 ], [ 8.7011539, 49.4039294 ], [ 8.701398, 49.4040055 ], [ 8.7016295, 49.4040969 ], [ 8.7018461, 49.4042026 ], [ 8.7020459, 49.4043217 ], [ 8.7022185, 49.404447 ], [ 8.7023378, 49.4043897 ], [ 8.7025704, 49.4042995 ], [ 8.7028154, 49.4042247 ], [ 8.7030705, 49.4041658 ], [ 8.7033332, 49.4041236 ], [ 8.703601, 49.4040984 ], [ 8.7038712, 49.4040904 ], [ 8.7041414, 49.4040998 ], [ 8.7044088, 49.4041264 ], [ 8.704671, 49.4041699 ], [ 8.7049254, 49.4042301 ], [ 8.7051695, 49.4043062 ], [ 8.705401, 49.4043975 ], [ 8.7056176, 49.4045032 ], [ 8.7058174, 49.4046223 ], [ 8.7059983, 49.4047536 ], [ 8.7061586, 49.4048958 ], [ 8.7062968, 49.4050476 ], [ 8.7063869, 49.4051732 ], [ 8.7063959, 49.4051569 ], [ 8.7065126, 49.4049976 ], [ 8.7066525, 49.4048466 ], [ 8.7068145, 49.4047052 ], [ 8.706997, 49.4045748 ], [ 8.7071982, 49.4044568 ], [ 8.7074161, 49.4043521 ], [ 8.7076487, 49.404262 ], [ 8.7078937, 49.4041871 ], [ 8.7081487, 49.4041283 ], [ 8.7084114, 49.404086 ], [ 8.7086792, 49.4040608 ], [ 8.7089494, 49.4040528 ], [ 8.7092196, 49.4040622 ], [ 8.709487, 49.4040887 ], [ 8.7097492, 49.4041323 ], [ 8.7100036, 49.4041924 ], [ 8.7102477, 49.4042685 ], [ 8.7102704, 49.4042775 ], [ 8.7103732, 49.4043095 ], [ 8.7106047, 49.4044009 ], [ 8.7108214, 49.4045066 ], [ 8.7110211, 49.4046256 ], [ 8.7110734, 49.4046635 ], [ 8.7111577, 49.4047047 ], [ 8.7113574, 49.4048237 ], [ 8.7115383, 49.404955 ], [ 8.7116987, 49.4050972 ], [ 8.7118369, 49.405249 ], [ 8.7119095, 49.4053501 ], [ 8.7119489, 49.405341 ], [ 8.7122116, 49.4052988 ], [ 8.7124793, 49.4052735 ], [ 8.7127496, 49.4052655 ], [ 8.7130198, 49.4052749 ], [ 8.7132872, 49.4053014 ], [ 8.7135494, 49.405345 ], [ 8.7138038, 49.4054051 ], [ 8.7139667, 49.4054559 ], [ 8.7140297, 49.4054413 ], [ 8.7142924, 49.4053991 ], [ 8.7145602, 49.4053738 ], [ 8.7146449, 49.4053713 ], [ 8.7145828, 49.4052566 ], [ 8.7145181, 49.4050852 ], [ 8.7144794, 49.4049105 ], [ 8.7144671, 49.4047341 ], [ 8.7144814, 49.4045578 ], [ 8.7145221, 49.4043833 ], [ 8.7145889, 49.4042122 ], [ 8.714681, 49.4040462 ], [ 8.7147976, 49.4038869 ], [ 8.7149375, 49.4037358 ], [ 8.7150995, 49.4035944 ], [ 8.7152819, 49.403464 ], [ 8.7154831, 49.403346 ], [ 8.715701, 49.4032414 ], [ 8.7159335, 49.4031512 ], [ 8.7161785, 49.4030763 ], [ 8.7164336, 49.4030174 ], [ 8.7166962, 49.4029752 ], [ 8.716964, 49.4029499 ], [ 8.7172342, 49.4029419 ], [ 8.7175044, 49.4029512 ], [ 8.7177718, 49.4029778 ], [ 8.718034, 49.4030213 ], [ 8.7182884, 49.4030814 ], [ 8.7185325, 49.4031575 ], [ 8.718764, 49.4032488 ], [ 8.7189807, 49.4033545 ], [ 8.7191805, 49.4034736 ], [ 8.7193614, 49.4036048 ], [ 8.7195218, 49.403747 ], [ 8.71966, 49.4038988 ], [ 8.7197747, 49.4040587 ], [ 8.7198649, 49.4042251 ], [ 8.7199297, 49.4043965 ], [ 8.7199684, 49.4045712 ], [ 8.7199807, 49.4047476 ], [ 8.7199664, 49.4049239 ], [ 8.7199257, 49.4050984 ], [ 8.719859, 49.4052695 ], [ 8.7197669, 49.4054355 ], [ 8.7196503, 49.4055949 ], [ 8.7195104, 49.4057459 ], [ 8.7193484, 49.4058873 ], [ 8.719166, 49.4060177 ], [ 8.7189648, 49.4061358 ], [ 8.7187469, 49.4062404 ], [ 8.7185144, 49.4063306 ], [ 8.7182694, 49.4064055 ], [ 8.7180143, 49.4064644 ], [ 8.7177516, 49.4065066 ], [ 8.7175934, 49.4065215 ], [ 8.7176103, 49.406545 ], [ 8.7177005, 49.4067115 ], [ 8.71776, 49.4068691 ], [ 8.717963, 49.4068499 ], [ 8.7182333, 49.4068419 ], [ 8.7185035, 49.4068512 ], [ 8.7187709, 49.4068778 ], [ 8.7190331, 49.4069213 ], [ 8.7192875, 49.4069814 ], [ 8.7195317, 49.4070575 ], [ 8.7197632, 49.4071488 ], [ 8.7199799, 49.4072545 ], [ 8.72, 49.4072665 ], [ 8.72, 49.4168458 ], [ 8.7199197, 49.4168482 ], [ 8.7196494, 49.4168389 ], [ 8.7194404, 49.4168181 ], [ 8.7193981, 49.4168943 ], [ 8.7192815, 49.4170537 ], [ 8.7191415, 49.4172047 ], [ 8.7189795, 49.4173462 ], [ 8.718797, 49.4174765 ], [ 8.7185958, 49.4175946 ], [ 8.718573, 49.4176056 ], [ 8.7186461, 49.4176128 ], [ 8.7186617, 49.4176154 ], [ 8.718688, 49.417618 ], [ 8.7189502, 49.4176615 ], [ 8.7192047, 49.4177216 ], [ 8.7194489, 49.4177977 ], [ 8.7196804, 49.417889 ], [ 8.7198972, 49.4179947 ], [ 8.72, 49.418056 ], [ 8.72, 49.422 ], [ 8.7174791, 49.4220006 ], [ 8.7174767, 49.4219986 ], [ 8.7173385, 49.4218468 ], [ 8.7172237, 49.4216869 ], [ 8.7171335, 49.4215205 ], [ 8.7170687, 49.4213491 ], [ 8.71703, 49.4211743 ], [ 8.7170205, 49.4210372 ], [ 8.7169304, 49.4210457 ], [ 8.71666, 49.4210537 ], [ 8.7163898, 49.4210443 ], [ 8.7161222, 49.4210178 ], [ 8.71586, 49.4209742 ], [ 8.7156055, 49.4209141 ], [ 8.7153613, 49.4208381 ], [ 8.7151297, 49.4207467 ], [ 8.714913, 49.420641 ], [ 8.7147131, 49.420522 ], [ 8.7145321, 49.4203907 ], [ 8.7143718, 49.4202485 ], [ 8.7142335, 49.4200967 ], [ 8.7141187, 49.4199369 ], [ 8.7140285, 49.4197704 ], [ 8.7139638, 49.419599 ], [ 8.7139251, 49.4194243 ], [ 8.7139128, 49.4192479 ], [ 8.7139271, 49.4190716 ], [ 8.7139679, 49.4188971 ], [ 8.7140346, 49.418726 ], [ 8.7141267, 49.41856 ], [ 8.7142434, 49.4184007 ], [ 8.7143834, 49.4182496 ], [ 8.7145454, 49.4181082 ], [ 8.7147279, 49.4179778 ], [ 8.7149291, 49.4178598 ], [ 8.715147, 49.4177551 ], [ 8.7152207, 49.4177266 ], [ 8.7152012, 49.4177233 ], [ 8.7149468, 49.4176632 ], [ 8.7149313, 49.4176584 ], [ 8.7148857, 49.4176476 ], [ 8.7146415, 49.4175716 ], [ 8.7144099, 49.4174802 ], [ 8.7141932, 49.4173745 ], [ 8.7139933, 49.4172555 ], [ 8.7138124, 49.4171242 ], [ 8.7137208, 49.417043 ], [ 8.7137015, 49.4170489 ], [ 8.7134464, 49.4171078 ], [ 8.7132625, 49.4171374 ], [ 8.7133565, 49.4172055 ], [ 8.7135169, 49.4173477 ], [ 8.7136552, 49.4174995 ], [ 8.7137699, 49.4176594 ], [ 8.7138601, 49.4178258 ], [ 8.7139249, 49.4179973 ], [ 8.7139636, 49.418172 ], [ 8.7139758, 49.4183484 ], [ 8.7139615, 49.4185247 ], [ 8.7139208, 49.4186992 ], [ 8.7139151, 49.4187137 ], [ 8.7139117, 49.4187555 ], [ 8.713871, 49.41893 ], [ 8.7138043, 49.4191011 ], [ 8.7137574, 49.4191856 ], [ 8.7137663, 49.419198 ], [ 8.7138565, 49.4193644 ], [ 8.7139213, 49.4195359 ], [ 8.71396, 49.4197106 ], [ 8.7139722, 49.419887 ], [ 8.7139579, 49.4200633 ], [ 8.7139172, 49.4202378 ], [ 8.7138504, 49.4204089 ], [ 8.7137583, 49.4205749 ], [ 8.7136417, 49.4207342 ], [ 8.7135016, 49.4208853 ], [ 8.7133396, 49.4210267 ], [ 8.7131571, 49.421157 ], [ 8.7129559, 49.4212751 ], [ 8.7127379, 49.4213797 ], [ 8.7125053, 49.4214699 ], [ 8.7122602, 49.4215448 ], [ 8.712005, 49.4216036 ], [ 8.7117422, 49.4216458 ], [ 8.7114744, 49.4216711 ], [ 8.711204, 49.4216791 ], [ 8.7109338, 49.4216697 ], [ 8.7106662, 49.4216432 ], [ 8.710404, 49.4215996 ], [ 8.7101495, 49.4215395 ], [ 8.7099053, 49.4214634 ], [ 8.7096737, 49.4213721 ], [ 8.709457, 49.4212663 ], [ 8.7092572, 49.4211473 ], [ 8.7090762, 49.421016 ], [ 8.7089158, 49.4208738 ], [ 8.7087776, 49.420722 ], [ 8.7086628, 49.4205621 ], [ 8.7086317, 49.4205047 ], [ 8.7086222, 49.4205025 ], [ 8.708378, 49.4204264 ], [ 8.7081464, 49.420335 ], [ 8.7079912, 49.4202593 ], [ 8.7079873, 49.4202602 ], [ 8.7077245, 49.4203025 ], [ 8.7074566, 49.4203277 ], [ 8.7073346, 49.4203313 ], [ 8.7074742, 49.4203994 ], [ 8.7076741, 49.4205185 ], [ 8.707855, 49.4206498 ], [ 8.7080154, 49.420792 ], [ 8.7081536, 49.4209437 ], [ 8.7082684, 49.4211036 ], [ 8.7083586, 49.4212701 ], [ 8.7084233, 49.4214415 ], [ 8.708462, 49.4216162 ], [ 8.7084742, 49.4217926 ], [ 8.7084599, 49.4219689 ], [ 8.7084521, 49.4220024 ], [ 8.7029817, 49.4220032 ], [ 8.702971, 49.4219549 ], [ 8.7029588, 49.4217785 ], [ 8.7029731, 49.4216023 ], [ 8.7030139, 49.4214277 ], [ 8.7030807, 49.4212566 ], [ 8.7030919, 49.4212364 ], [ 8.703025, 49.4212297 ], [ 8.7027627, 49.4211861 ], [ 8.7025083, 49.421126 ], [ 8.7022641, 49.4210499 ], [ 8.7020325, 49.4209585 ], [ 8.7018158, 49.4208528 ], [ 8.701616, 49.4207337 ], [ 8.701435, 49.4206025 ], [ 8.7012747, 49.4204603 ], [ 8.7011365, 49.4203085 ], [ 8.7010217, 49.4201486 ], [ 8.7009316, 49.4199821 ], [ 8.7008669, 49.4198107 ], [ 8.7008282, 49.419636 ], [ 8.700826, 49.4196033 ], [ 8.7007477, 49.4196107 ], [ 8.7004774, 49.4196187 ], [ 8.7004514, 49.4196178 ], [ 8.7004588, 49.4197243 ], [ 8.7004444, 49.4199006 ], [ 8.7004037, 49.4200751 ], [ 8.7003369, 49.4202462 ], [ 8.7002447, 49.4204122 ], [ 8.700128, 49.4205715 ], [ 8.699988, 49.4207225 ], [ 8.6998259, 49.4208639 ], [ 8.6996434, 49.4209942 ], [ 8.6994421, 49.4211123 ], [ 8.6992241, 49.4212169 ], [ 8.6989914, 49.421307 ], [ 8.6987463, 49.4213819 ], [ 8.6984911, 49.4214407 ], [ 8.6982284, 49.4214829 ], [ 8.6979605, 49.4215081 ], [ 8.6976901, 49.4215161 ], [ 8.6974199, 49.4215067 ], [ 8.6971524, 49.4214801 ], [ 8.6968901, 49.4214365 ], [ 8.6966357, 49.4213764 ], [ 8.6963915, 49.4213002 ], [ 8.6961599, 49.4212089 ], [ 8.6959432, 49.4211031 ], [ 8.6957434, 49.420984 ], [ 8.6956339, 49.4209045 ], [ 8.6956271, 49.4209876 ], [ 8.6955863, 49.4211621 ], [ 8.6955195, 49.4213332 ], [ 8.6954273, 49.4214992 ], [ 8.6953106, 49.4216585 ], [ 8.6951705, 49.4218095 ], [ 8.6950084, 49.4219509 ], [ 8.6949343, 49.4220038 ], [ 8.671486, 49.4220024 ], [ 8.6714823, 49.4219955 ], [ 8.6714177, 49.4218241 ], [ 8.6713791, 49.4216494 ], [ 8.671367, 49.421473 ], [ 8.6713717, 49.4214163 ], [ 8.671252, 49.4214276 ], [ 8.6709833, 49.4214354 ], [ 8.6709589, 49.4214528 ], [ 8.6707576, 49.4215708 ], [ 8.6705395, 49.4216754 ], [ 8.6703068, 49.4217655 ], [ 8.6700616, 49.4218402 ], [ 8.6698064, 49.421899 ], [ 8.6695436, 49.4219411 ], [ 8.6692758, 49.4219663 ], [ 8.6691561, 49.4219698 ], [ 8.6691337, 49.4219719 ], [ 8.6688633, 49.4219798 ], [ 8.6685931, 49.4219703 ], [ 8.6683255, 49.4219437 ], [ 8.6680633, 49.4219 ], [ 8.6678089, 49.4218398 ], [ 8.6675648, 49.4217636 ], [ 8.6673332, 49.4216722 ], [ 8.6671166, 49.4215664 ], [ 8.6669169, 49.4214473 ], [ 8.666736, 49.4213159 ], [ 8.6665758, 49.4211737 ], [ 8.6664377, 49.4210218 ], [ 8.6663736, 49.4209325 ], [ 8.6661121, 49.4209233 ], [ 8.6658445, 49.4208966 ], [ 8.6655823, 49.420853 ], [ 8.6654823, 49.4208293 ], [ 8.6653211, 49.4208552 ], [ 8.6650532, 49.4208803 ], [ 8.6647828, 49.4208882 ], [ 8.6645126, 49.4208787 ], [ 8.6642451, 49.420852 ], [ 8.6639829, 49.4208084 ], [ 8.6637285, 49.4207482 ], [ 8.6634844, 49.420672 ], [ 8.6632529, 49.4205805 ], [ 8.6630362, 49.4204747 ], [ 8.6628365, 49.4203556 ], [ 8.6626557, 49.4202242 ], [ 8.6624954, 49.420082 ], [ 8.6623635, 49.4199369 ], [ 8.6621701, 49.4199959 ], [ 8.6619149, 49.4200546 ], [ 8.6616521, 49.4200968 ], [ 8.6613843, 49.4201219 ], [ 8.6611139, 49.4201298 ], [ 8.6608437, 49.4201203 ], [ 8.6605762, 49.4200936 ], [ 8.660314, 49.4200499 ], [ 8.6600596, 49.4199897 ], [ 8.66, 49.4199711 ], [ 8.66, 49.4122975 ], [ 8.6600584, 49.4122841 ], [ 8.6603212, 49.4122419 ], [ 8.660589, 49.4122168 ], [ 8.6608593, 49.4122089 ], [ 8.6611295, 49.4122184 ], [ 8.6611827, 49.4122237 ], [ 8.6612759, 49.4122023 ], [ 8.6613575, 49.4121892 ], [ 8.6613842, 49.4121411 ], [ 8.661501, 49.4119819 ], [ 8.6616411, 49.4118309 ], [ 8.6617283, 49.4117549 ], [ 8.661649, 49.4117162 ], [ 8.6614493, 49.4115971 ], [ 8.6612685, 49.4114657 ], [ 8.6611083, 49.4113235 ], [ 8.6609703, 49.4111716 ], [ 8.6608557, 49.4110117 ], [ 8.6607657, 49.4108452 ], [ 8.6607045, 49.4106827 ], [ 8.6606582, 49.4106717 ], [ 8.6604141, 49.4105955 ], [ 8.6601827, 49.4105041 ], [ 8.66, 49.4104149 ], [ 8.66, 49.40761 ], [ 8.6602033, 49.4075125 ], [ 8.660436, 49.4074224 ], [ 8.6606811, 49.4073477 ], [ 8.6609362, 49.407289 ], [ 8.661199, 49.4072468 ], [ 8.6613083, 49.4072366 ], [ 8.6613368, 49.4072256 ], [ 8.6615819, 49.4071508 ], [ 8.661837, 49.4070921 ], [ 8.6620998, 49.4070499 ], [ 8.6623675, 49.4070248 ], [ 8.6626378, 49.4070169 ], [ 8.662908, 49.4070264 ], [ 8.6631754, 49.4070531 ], [ 8.6634376, 49.4070967 ], [ 8.6636506, 49.4071472 ], [ 8.6637448, 49.4070187 ], [ 8.6637449, 49.4070186 ], [ 8.663719, 49.4070031 ], [ 8.6635382, 49.4068718 ], [ 8.663378, 49.4067295 ], [ 8.6632399, 49.4065777 ], [ 8.6631599, 49.406466 ], [ 8.662933, 49.4065182 ], [ 8.6626702, 49.4065604 ], [ 8.6624024, 49.4065855 ], [ 8.6621322, 49.4065934 ], [ 8.661862, 49.4065839 ], [ 8.6617349, 49.4065712 ], [ 8.6615477, 49.406661 ], [ 8.661315, 49.4067511 ], [ 8.6610699, 49.4068258 ], [ 8.6608148, 49.4068846 ], [ 8.6605521, 49.4069267 ], [ 8.6602843, 49.4069518 ], [ 8.660014, 49.4069597 ], [ 8.66, 49.4069592 ], [ 8.66, 49.4015851 ], [ 8.6600118, 49.4015782 ], [ 8.6600237, 49.4015725 ], [ 8.6600329, 49.4015671 ], [ 8.6600575, 49.4015553 ], [ 8.6600947, 49.4015335 ], [ 8.6603127, 49.4014289 ], [ 8.6605454, 49.4013388 ], [ 8.6605976, 49.4013229 ], [ 8.6606257, 49.401312 ], [ 8.6608707, 49.4012373 ], [ 8.660995, 49.4012087 ], [ 8.6611622, 49.4011107 ], [ 8.6611848, 49.4010998 ], [ 8.6612407, 49.4010671 ], [ 8.6613246, 49.4010268 ], [ 8.6614003, 49.4009825 ], [ 8.6615181, 49.400926 ], [ 8.6616645, 49.4008402 ], [ 8.6618825, 49.4007356 ], [ 8.6619015, 49.4007283 ], [ 8.6620293, 49.4006534 ], [ 8.6622336, 49.4005554 ], [ 8.6623686, 49.4004763 ], [ 8.6624435, 49.4004404 ], [ 8.6625013, 49.4004065 ], [ 8.6625694, 49.4003738 ], [ 8.6626529, 49.4003249 ], [ 8.6628709, 49.4002204 ] ], [ [ 8.6677957, 49.4126457 ], [ 8.668066, 49.4126378 ], [ 8.6683362, 49.4126473 ], [ 8.6686037, 49.4126739 ], [ 8.6688659, 49.4127176 ], [ 8.669001, 49.4127496 ], [ 8.6691041, 49.4127532 ], [ 8.6693716, 49.4127798 ], [ 8.6693936, 49.4127835 ], [ 8.6692855, 49.4126875 ], [ 8.6691474, 49.4125357 ], [ 8.6690328, 49.4123758 ], [ 8.6689428, 49.4122093 ], [ 8.6688782, 49.4120378 ], [ 8.6688397, 49.4118631 ], [ 8.6688276, 49.4116867 ], [ 8.668842, 49.4115104 ], [ 8.6688829, 49.4113359 ], [ 8.6689498, 49.4111649 ], [ 8.6689798, 49.4111108 ], [ 8.668771, 49.4111589 ], [ 8.6685083, 49.411201 ], [ 8.6682405, 49.4112262 ], [ 8.6679702, 49.4112341 ], [ 8.667744, 49.4112262 ], [ 8.6677388, 49.4112293 ], [ 8.6675207, 49.4113338 ], [ 8.667288, 49.4114239 ], [ 8.6670429, 49.4114987 ], [ 8.6667878, 49.4115574 ], [ 8.6665373, 49.4115976 ], [ 8.6664499, 49.4116177 ], [ 8.6661871, 49.4116599 ], [ 8.6660285, 49.4116747 ], [ 8.6660659, 49.4117019 ], [ 8.6662261, 49.4118442 ], [ 8.6663642, 49.411996 ], [ 8.6664788, 49.4121559 ], [ 8.6665688, 49.4123224 ], [ 8.6666334, 49.4124939 ], [ 8.6666719, 49.4126686 ], [ 8.6666801, 49.4127883 ], [ 8.6668604, 49.4128063 ], [ 8.666884, 49.4128102 ], [ 8.66701, 49.4127717 ], [ 8.6672651, 49.412713 ], [ 8.6675279, 49.4126709 ], [ 8.6677957, 49.4126457 ] ], [ [ 8.6954598, 49.4163642 ], [ 8.6954984, 49.4165389 ], [ 8.6955106, 49.4167153 ], [ 8.6954994, 49.4168528 ], [ 8.6956088, 49.4168496 ], [ 8.6956795, 49.4167531 ], [ 8.6958195, 49.416602 ], [ 8.6959816, 49.4164607 ], [ 8.6961641, 49.4163303 ], [ 8.6963654, 49.4162123 ], [ 8.6965833, 49.4161077 ], [ 8.696816, 49.4160176 ], [ 8.6970611, 49.4159427 ], [ 8.6971504, 49.4159221 ], [ 8.6971401, 49.4158946 ], [ 8.6971055, 49.4157384 ], [ 8.6969012, 49.4156387 ], [ 8.6967015, 49.4155197 ], [ 8.6965206, 49.4153884 ], [ 8.6963602, 49.4152462 ], [ 8.6963479, 49.4152326 ], [ 8.696314, 49.4152315 ], [ 8.6961537, 49.4152572 ], [ 8.6958859, 49.4152824 ], [ 8.6958042, 49.4152848 ], [ 8.6956185, 49.4153568 ], [ 8.6953734, 49.4154316 ], [ 8.6951182, 49.4154904 ], [ 8.6949606, 49.4155157 ], [ 8.6949265, 49.4156031 ], [ 8.6950521, 49.4157146 ], [ 8.6951903, 49.4158664 ], [ 8.695305, 49.4160263 ], [ 8.6953951, 49.4161928 ], [ 8.6954598, 49.4163642 ] ] ], [ [ [ 8.7052882, 49.3983835 ], [ 8.7055425, 49.3984437 ], [ 8.7057866, 49.3985198 ], [ 8.7060181, 49.3986111 ], [ 8.7062347, 49.3987168 ], [ 8.7064344, 49.3988359 ], [ 8.7066153, 49.3989672 ], [ 8.7067756, 49.3991094 ], [ 8.7069138, 49.3992612 ], [ 8.7070285, 49.399421 ], [ 8.7071186, 49.3995875 ], [ 8.7071355, 49.3996321 ], [ 8.7072257, 49.3995088 ], [ 8.7073657, 49.3993578 ], [ 8.7075008, 49.3992398 ], [ 8.7075751, 49.3991596 ], [ 8.7075788, 49.3991146 ], [ 8.7076195, 49.39894 ], [ 8.7076862, 49.3987689 ], [ 8.7077784, 49.398603 ], [ 8.707895, 49.3984437 ], [ 8.7080349, 49.3982926 ], [ 8.7081969, 49.3981512 ], [ 8.7083793, 49.3980208 ], [ 8.7084107, 49.3980024 ], [ 8.7122291, 49.3980018 ], [ 8.7122774, 49.3980306 ], [ 8.7124583, 49.3981619 ], [ 8.7126186, 49.3983041 ], [ 8.7127568, 49.3984558 ], [ 8.7128715, 49.3986157 ], [ 8.7129617, 49.3987822 ], [ 8.7130264, 49.3989536 ], [ 8.7130651, 49.3991283 ], [ 8.7130774, 49.3993047 ], [ 8.7130631, 49.399481 ], [ 8.7130479, 49.399546 ], [ 8.7131768, 49.3996875 ], [ 8.7132915, 49.3998474 ], [ 8.7133817, 49.4000139 ], [ 8.7133844, 49.4000212 ], [ 8.7135428, 49.4000475 ], [ 8.7137972, 49.4001076 ], [ 8.7140413, 49.4001837 ], [ 8.7142728, 49.400275 ], [ 8.7144894, 49.4003807 ], [ 8.7146892, 49.4004998 ], [ 8.7148701, 49.400631 ], [ 8.7150304, 49.4007732 ], [ 8.7151686, 49.400925 ], [ 8.7152833, 49.4010849 ], [ 8.7153735, 49.4012513 ], [ 8.7154383, 49.4014227 ], [ 8.7154769, 49.4015975 ], [ 8.7154892, 49.4017738 ], [ 8.7154749, 49.4019501 ], [ 8.7154342, 49.4021246 ], [ 8.7153675, 49.4022957 ], [ 8.7152754, 49.4024617 ], [ 8.7151588, 49.402621 ], [ 8.7150188, 49.4027721 ], [ 8.7148569, 49.4029135 ], [ 8.7146744, 49.4030439 ], [ 8.7144733, 49.403162 ], [ 8.7142554, 49.4032666 ], [ 8.7140228, 49.4033568 ], [ 8.7137778, 49.4034317 ], [ 8.7135228, 49.4034905 ], [ 8.7132601, 49.4035327 ], [ 8.7129924, 49.403558 ], [ 8.7127221, 49.403566 ], [ 8.712452, 49.4035566 ], [ 8.7121845, 49.4035301 ], [ 8.7119223, 49.4034865 ], [ 8.711668, 49.4034264 ], [ 8.7114239, 49.4033503 ], [ 8.7111923, 49.403259 ], [ 8.7109757, 49.4031533 ], [ 8.7107759, 49.4030342 ], [ 8.7105993, 49.402906 ], [ 8.7104391, 49.402955 ], [ 8.7101841, 49.4030138 ], [ 8.7100469, 49.4030359 ], [ 8.7099995, 49.4030468 ], [ 8.7097368, 49.4030891 ], [ 8.709469, 49.4031143 ], [ 8.7091988, 49.4031223 ], [ 8.7089286, 49.4031129 ], [ 8.7086612, 49.4030864 ], [ 8.7086402, 49.4030829 ], [ 8.7086306, 49.4030825 ], [ 8.7083632, 49.403056 ], [ 8.708101, 49.4030124 ], [ 8.7078466, 49.4029523 ], [ 8.7076025, 49.4028762 ], [ 8.707371, 49.4027848 ], [ 8.7071544, 49.4026791 ], [ 8.7069546, 49.40256 ], [ 8.7067738, 49.4024288 ], [ 8.7066134, 49.4022866 ], [ 8.7064753, 49.4021348 ], [ 8.7063606, 49.4019749 ], [ 8.7062704, 49.4018084 ], [ 8.7062057, 49.401637 ], [ 8.7061791, 49.4015168 ], [ 8.7060002, 49.4016027 ], [ 8.7057676, 49.4016929 ], [ 8.7055226, 49.4017677 ], [ 8.7052676, 49.4018266 ], [ 8.7050049, 49.4018688 ], [ 8.7047372, 49.401894 ], [ 8.7044669, 49.401902 ], [ 8.7041968, 49.4018926 ], [ 8.7039293, 49.401866 ], [ 8.7036672, 49.4018225 ], [ 8.7034128, 49.4017623 ], [ 8.7031687, 49.4016862 ], [ 8.7029372, 49.4015949 ], [ 8.7027206, 49.4014891 ], [ 8.7025209, 49.4013701 ], [ 8.70234, 49.4012388 ], [ 8.7021797, 49.4010966 ], [ 8.7020416, 49.4009448 ], [ 8.7019269, 49.4007849 ], [ 8.7018367, 49.4006184 ], [ 8.701772, 49.400447 ], [ 8.7017334, 49.4002723 ], [ 8.7017212, 49.4000959 ], [ 8.7017355, 49.3999196 ], [ 8.7017763, 49.3997451 ], [ 8.7018431, 49.399574 ], [ 8.7019352, 49.399408 ], [ 8.7020518, 49.3992487 ], [ 8.7021918, 49.3990977 ], [ 8.7023538, 49.3989563 ], [ 8.7025362, 49.3988259 ], [ 8.7027374, 49.3987079 ], [ 8.7029553, 49.3986033 ], [ 8.7031879, 49.3985131 ], [ 8.7034328, 49.3984383 ], [ 8.7036879, 49.3983794 ], [ 8.7039505, 49.3983372 ], [ 8.7042183, 49.398312 ], [ 8.7044885, 49.398304 ], [ 8.7047586, 49.3983134 ], [ 8.705026, 49.39834 ], [ 8.7052882, 49.3983835 ] ] ] ] } },
{ "type": "Feature", "properties": { "index": "1", "label": "Beyond 200 m", "color": "#d9d9d9" }, "geometry": { "type": "MultiPolygon", "coordinates": [ [ [ [ 8.7122291, 49.3980018 ], [ 8.72, 49.398 ], [ 8.72, 49.4072665 ], [ 8.7199799, 49.4072545 ], [ 8.7197632, 49.4071488 ], [ 8.7195317, 49.4070575 ], [ 8.7192875, 49.4069814 ], [ 8.7190331, 49.4069213 ], [ 8.7187709, 49.4068778 ], [ 8.7185035, 49.4068512 ], [ 8.7182333, 49.4068419 ], [ 8.717963, 49.4068499 ], [ 8.71776, 49.4068691 ], [ 8.7177005, 49.4067115 ], [ 8.7176103, 49.406545 ], [ 8.7175934, 49.4065215 ], [ 8.7177516, 49.4065066 ], [ 8.7180143, 49.4064644 ], [ 8.7182694, 49.4064055 ], [ 8.7185144, 49.4063306 ], [ 8.7187469, 49.4062404 ], [ 8.7189648, 49.4061358 ], [ 8.719166, 49.4060177 ], [ 8.7193484, 49.4058873 ], [ 8.7195104, 49.4057459 ], [ 8.7196503, 49.4055949 ], [ 8.7197669, 49.4054355 ], [ 8.719859, 49.4052695 ], [ 8.7199257, 49.4050984 ], [ 8.7199664, 49.4049239 ], [ 8.7199807, 49.4047476 ], [ 8.7199684, 49.4045712 ], [ 8.7199297, 49.4043965 ], [ 8.7198649, 49.4042251 ], [ 8.7197747, 49.4040587 ], [ 8.71966, 49.4038988 ], [ 8.7195218, 49.403747 ], [ 8.7193614, 49.4036048 ], [ 8.7191805, 49.4034736 ], [ 8.7189807, 49.4033545 ], [ 8.718764, 49.4032488 ], [ 8.7185325, 49.4031575 ], [ 8.7182884, 49.4030814 ], [ 8.718034, 49.4030213 ], [ 8.7177718, 49.4029778 ], [ 8.7175044, 49.4029512 ], [ 8.7172342, 49.4029419 ], [ 8.716964, 49.4029499 ], [ 8.7166962, 49.4029752 ], [ 8.7164336, 49.4030174 ], [ 8.7161785, 49.4030763 ], [ 8.7159335, 49.4031512 ], [ 8.715701, 49.4032414 ], [ 8.7154831, 49.403346 ], [ 8.7152819, 49.403464 ], [ 8.7150995, 49.4035944 ], [ 8.7149375, 49.4037358 ], [ 8.7147976, 49.4038869 ], [ 8.714681, 49.4040462 ], [ 8.7145889, 49.4042122 ], [ 8.7145221, 49.4043833 ], [ 8.7144814, 49.4045578 ], [ 8.7144671, 49.4047341 ], [ 8.7144794, 49.4049105 ], [ 8.7145181, 49.4050852 ], [ 8.7145828, 49.4052566 ], [ 8.7146449, 49.4053713 ], [ 8.7145602, 49.4053738 ], [ 8.7142924, 49.4053991 ], [ 8.7140297, 49.4054413 ], [ 8.7139667, 49.4054559 ], [ 8.7138038, 49.4054051 ], [ 8.7135494, 49.405345 ], [ 8.7132872, 49.4053014 ], [ 8.7130198, 49.4052749 ], [ 8.7127496, 49.4052655 ], [ 8.7124793, 49.4052735 ], [ 8.7122116, 49.4052988 ], [ 8.7119489, 49.405341 ], [ 8.7119095, 49.4053501 ], [ 8.7118369, 49.405249 ], [ 8.7116987, 49.4050972 ], [ 8.7115383, 49.404955 ], [ 8.7113574, 49.4048237 ], [ 8.7111577, 49.4047047 ], [ 8.7110734, 49.4046635 ], [ 8.7110211, 49.4046256 ], [ 8.7108214, 49.4045066 ], [ 8.7106047, 49.4044009 ], [ 8.7103732, 49.4043095 ], [ 8.7102704, 49.4042775 ], [ 8.7102477, 49.4042685 ], [ 8.7100036, 49.4041924 ], [ 8.7097492, 49.4041323 ], [ 8.709487, 49.4040887 ], [ 8.7092196, 49.4040622 ], [ 8.7089494, 49.4040528 ], [ 8.7086792, 49.4040608 ], [ 8.7084114, 49.404086 ], [ 8.7081487, 49.4041283 ], [ 8.7078937, 49.4041871 ], [ 8.7076487, 49.404262 ], [ 8.7074161, 49.4043521 ], [ 8.7071982, 49.4044568 ], [ 8.706997, 49.4045748 ], [ 8.7068145, 49.4047052 ], [ 8.7066525, 49.4048466 ], [ 8.7065126, 49.4049976 ], [ 8.7063959, 49.4051569 ], [ 8.7063869, 49.4051732 ], [ 8.7062968, 49.4050476 ], [ 8.7061586, 49.4048958 ], [ 8.7059983, 49.4047536 ], [ 8.7058174, 49.4046223 ], [ 8.7056176, 49.4045032 ], [ 8.705401, 49.4043975 ], [ 8.7051695, 49.4043062 ], [ 8.7049254, 49.4042301 ], [ 8.704671, 49.4041699 ], [ 8.7044088, 49.4041264 ], [ 8.7041414, 49.4040998 ], [ 8.7038712, 49.4040904 ], [ 8.703601, 49.4040984 ], [ 8.7033332, 49.4041236 ], [ 8.7030705, 49.4041658 ], [ 8.7028154, 49.4042247 ], [ 8.7025704, 49.4042995 ], [ 8.7023378, 49.4043897 ], [ 8.7022185, 49.404447 ], [ 8.7020459, 49.4043217 ], [ 8.7018461, 49.4042026 ], [ 8.7016295, 49.4040969 ], [ 8.701398, 49.4040055 ], [ 8.7011539, 49.4039294 ], [ 8.7008995, 49.4038693 ], [ 8.7006374, 49.4038257 ], [ 8.7003699, 49.4037991 ], [ 8.7000998, 49.4037897 ], [ 8.6998295, 49.4037977 ], [ 8.6995617, 49.4038229 ], [ 8.6993105, 49.4038633 ], [ 8.699262, 49.4037737 ], [ 8.6991473, 49.4036138 ], [ 8.6990092, 49.403462 ], [ 8.6988489, 49.4033198 ], [ 8.698668, 49.4031885 ], [ 8.6984683, 49.4030694 ], [ 8.6982516, 49.4029637 ], [ 8.6980201, 49.4028723 ], [ 8.6977761, 49.4027962 ], [ 8.6975217, 49.4027361 ], [ 8.6972596, 49.4026925 ], [ 8.6969921, 49.4026659 ], [ 8.696722, 49.4026565 ], [ 8.6964517, 49.4026645 ], [ 8.696184, 49.4026897 ], [ 8.6960566, 49.4027101 ], [ 8.6960233, 49.4027133 ], [ 8.6957606, 49.4027555 ], [ 8.6955055, 49.4028143 ], [ 8.6952605, 49.4028891 ], [ 8.6950279, 49.4029793 ], [ 8.69481, 49.4030839 ], [ 8.694683, 49.4031584 ], [ 8.6946747, 49.4030383 ], [ 8.6946361, 49.4028636 ], [ 8.6945714, 49.4026922 ], [ 8.6944813, 49.4025257 ], [ 8.6943666, 49.4023658 ], [ 8.6943515, 49.4023492 ], [ 8.6943515, 49.4023489 ], [ 8.6943015, 49.4022165 ], [ 8.6943144, 49.4020582 ], [ 8.6943022, 49.4018819 ], [ 8.6942636, 49.4017071 ], [ 8.6941989, 49.4015357 ], [ 8.6941088, 49.4013692 ], [ 8.6939942, 49.4012093 ], [ 8.6939023, 49.4011084 ], [ 8.6938149, 49.4009864 ], [ 8.6937643, 49.4009308 ], [ 8.6937745, 49.4009198 ], [ 8.6938912, 49.4007605 ], [ 8.6939834, 49.4005945 ], [ 8.6940501, 49.4004234 ], [ 8.6940909, 49.4002489 ], [ 8.6941053, 49.4000726 ], [ 8.6940931, 49.3998963 ], [ 8.6940756, 49.3998169 ], [ 8.6941697, 49.3997805 ], [ 8.6943876, 49.3996759 ], [ 8.6945888, 49.3995578 ], [ 8.6947712, 49.3994275 ], [ 8.6949333, 49.3992861 ], [ 8.6950733, 49.3991351 ], [ 8.6951899, 49.3989758 ], [ 8.6952821, 49.3988098 ], [ 8.6953489, 49.3986387 ], [ 8.6953896, 49.3984642 ], [ 8.695404, 49.3982879 ], [ 8.6953918, 49.3981115 ], [ 8.695368, 49.3980038 ], [ 8.7084107, 49.3980024 ], [ 8.7083793, 49.3980208 ], [ 8.7081969, 49.3981512 ], [ 8.7080349, 49.3982926 ], [ 8.707895, 49.3984437 ], [ 8.7077784, 49.398603 ], [ 8.7076862, 49.3987689 ], [ 8.7076195, 49.39894 ], [ 8.7075788, 49.3991146 ], [ 8.7075751, 49.3991596 ], [ 8.7075008, 49.3992398 ], [ 8.7073657, 49.3993578 ], [ 8.7072257, 49.3995088 ], [ 8.7071355, 49.3996321 ], [ 8.7071186, 49.3995875 ], [ 8.7070285, 49.399421 ], [ 8.7069138, 49.3992612 ], [ 8.7067756, 49.3991094 ], [ 8.7066153, 49.3989672 ], [ 8.7064344, 49.3988359 ], [ 8.7062347, 49.3987168 ], [ 8.7060181, 49.3986111 ], [ 8.7057866, 49.3985198 ], [ 8.7055425, 49.3984437 ], [ 8.7052882, 49.3983835 ], [ 8.705026, 49.39834 ], [ 8.7047586, 49.3983134 ], [ 8.7044885, 49.398304 ], [ 8.7042183, 49.398312 ], [ 8.7039505, 49.3983372 ], [ 8.7036879, 49.3983794 ], [ 8.7034328, 49.3984383 ], [ 8.7031879, 49.3985131 ], [ 8.7029553, 49.3986033 ], [ 8.7027374, 49.3987079 ], [ 8.7025362, 49.3988259 ], [ 8.7023538, 49.3989563 ], [ 8.7021918, 49.3990977 ], [ 8.7020518, 49.3992487 ], [ 8.7019352, 49.399408 ], [ 8.7018431, 49.399574 ], [ 8.7017763, 49.3997451 ], [ 8.7017355, 49.3999196 ], [ 8.7017212, 49.4000959 ], [ 8.7017334, 49.4002723 ], [ 8.701772, 49.400447 ], [ 8.7018367, 49.4006184 ], [ 8.7019269, 49.4007849 ], [ 8.7020416, 49.4009448 ], [ 8.7021797, 49.4010966 ], [ 8.70234, 49.4012388 ], [ 8.7025209, 49.4013701 ], [ 8.7027206, 49.4014891 ], [ 8.7029372, 49.4015949 ], [ 8.7031687, 49.4016862 ], [ 8.7034128, 49.4017623 ], [ 8.7036672, 49.4018225 ], [ 8.7039293, 49.401866 ], [ 8.7041968, 49.4018926 ], [ 8.7044669, 49.401902 ], [ 8.7047372, 49.401894 ], [ 8.7050049, 49.4018688 ], [ 8.7052676, 49.4018266 ], [ 8.7055226, 49.4017677 ], [ 8.7057676, 49.4016929 ], [ 8.7060002, 49.4016027 ], [ 8.7061791, 49.4015168 ], [ 8.7062057, 49.401637 ], [ 8.7062704, 49.4018084 ], [ 8.7063606, 49.4019749 ], [ 8.7064753, 49.4021348 ], [ 8.7066134, 49.4022866 ], [ 8.7067738, 49.4024288 ], [ 8.7069546, 49.40256 ], [ 8.7071544, 49.4026791 ], [ 8.707371, 49.4027848 ], [ 8.7076025, 49.4028762 ], [ 8.7078466, 49.4029523 ], [ 8.708101, 49.4030124 ], [ 8.7083632, 49.403056 ], [ 8.7086306, 49.4030825 ], [ 8.7086402, 49.4030829 ], [ 8.7086612, 49.4030864 ], [ 8.7089286, 49.4031129 ], [ 8.7091988, 49.4031223 ], [ 8.709469, 49.4031143 ], [ 8.7097368, 49.4030891 ], [ 8.7099995, 49.4030468 ], [ 8.7100469, 49.4030359 ], [ 8.7101841, 49.4030138 ], [ 8.7104391, 49.402955 ], [ 8.7105993, 49.402906 ], [ 8.7107759, 49.4030342 ], [ 8.7109757, 49.4031533 ], [ 8.7111923, 49.403259 ], [ 8.7114239, 49.4033503 ], [ 8.711668, 49.4034264 ], [ 8.7119223, 49.4034865 ], [ 8.7121845, 49.4035301 ], [ 8.712452, 49.4035566 ], [ 8.7127221, 49.403566 ], [ 8.7129924, 49.403558 ], [ 8.7132601, 49.4035327 ], [ 8.7135228, 49.4034905 ], [ 8.7137778, 49.4034317 ], [ 8.7140228, 49.4033568 ], [ 8.7142554, 49.4032666 ], [ 8.7144733, 49.403162 ], [ 8.7146744, 49.4030439 ], [ 8.7148569, 49.4029135 ], [ 8.7150188, 49.4027721 ], [ 8.7151588, 49.402621 ], [ 8.7152754, 49.4024617 ], [ 8.7153675, 49.4022957 ], [ 8.7154342, 49.4021246 ], [ 8.7154749, 49.4019501 ], [ 8.7154892, 49.4017738 ], [ 8.7154769, 49.4015975 ], [ 8.7154383, 49.4014227 ], [ 8.7153735, 49.4012513 ], [ 8.7152833, 49.4010849 ], [ 8.7151686, 49.400925 ], [ 8.7150304, 49.4007732 ], [ 8.7148701, 49.400631 ], [ 8.7146892, 49.4004998 ], [ 8.7144894, 49.4003807 ], [ 8.7142728, 49.400275 ], [ 8.7140413, 49.4001837 ], [ 8.7137972, 49.4001076 ], [ 8.7135428, 49.4000475 ], [ 8.7133844, 49.4000212 ], [ 8.7133817, 49.4000139 ], [ 8.7132915, 49.3998474 ], [ 8.7131768, 49.3996875 ], [ 8.7130479, 49.399546 ], [ 8.7130631, 49.399481 ], [ 8.7130774, 49.3993047 ], [ 8.7130651, 49.3991283 ], [ 8.7130264, 49.3989536 ], [ 8.7129617, 49.3987822 ], [ 8.7128715, 49.3986157 ], [ 8.7127568, 49.3984558 ], [ 8.7126186, 49.3983041 ], [ 8.7124583, 49.3981619 ], [ 8.7122774, 49.3980306 ], [ 8.7122291, 49.3980018 ] ] ], [ [ [ 8.7199197, 49.4168482 ], [ 8.72, 49.4168458 ], [ 8.72, 49.418056 ], [ 8.7198972, 49.4179947 ], [ 8.7196804, 49.417889 ], [ 8.7194489, 49.4177977 ], [ 8.7192047, 49.4177216 ], [ 8.7189502, 49.4176615 ], [ 8.718688, 49.417618 ], [ 8.7186617, 49.4176154 ], [ 8.7186461, 49.4176128 ], [ 8.718573, 49.4176056 ], [ 8.7185958, 49.4175946 ], [ 8.718797, 49.4174765 ], [ 8.7189795, 49.4173462 ], [ 8.7191415, 49.4172047 ], [ 8.7192815, 49.4170537 ], [ 8.7193981, 49.4168943 ], [ 8.7194404, 49.4168181 ], [ 8.7196494, 49.4168389 ], [ 8.7199197, 49.4168482 ] ] ], [ [ [ 8.7174767, 49.4219986 ], [ 8.7174791, 49.4220006 ], [ 8.7084521, 49.4220024 ], [ 8.7084599, 49.4219689 ], [ 8.7084742, 49.4217926 ], [ 8.708462, 49.4216162 ], [ 8.7084233, 49.4214415 ], [ 8.7083586, 49.4212701 ], [ 8.7082684, 49.4211036 ], [ 8.7081536, 49.4209437 ], [ 8.7080154, 49.420792 ], [ 8.707855, 49.4206498 ], [ 8.7076741, 49.4205185 ], [ 8.7074742, 49.4203994 ], [ 8.7073346, 49.4203313 ], [ 8.7074566, 49.4203277 ], [ 8.7077245, 49.4203025 ], [ 8.7079873, 49.4202602 ], [ 8.7079912, 49.4202593 ], [ 8.7081464, 49.420335 ], [ 8.708378, 49.4204264 ], [ 8.7086222, 49.4205025 ], [ 8.7086317, 49.4205047 ], [ 8.7086628, 49.4205621 ], [ 8.7087776, 49.420722 ], [ 8.7089158, 49.4208738 ], [ 8.7090762, 49.421016 ], [ 8.7092572, 49.4211473 ], [ 8.709457, 49.4212663 ], [ 8.7096737, 49.4213721 ], [ 8.7099053, 49.4214634 ], [ 8.7101495, 49.4215395 ], [ 8.710404, 49.4215996 ], [ 8.7106662, 49.4216432 ], [ 8.7109338, 49.4216697 ], [ 8.711204, 49.4216791 ], [ 8.7114744, 49.4216711 ], [ 8.7117422, 49.4216458 ], [ 8.712005, 49.4216036 ], [ 8.7122602, 49.4215448 ], [ 8.7125053, 49.4214699 ], [ 8.7127379, 49.4213797 ], [ 8.7129559, 49.4212751 ], [ 8.7131571, 49.421157 ], [ 8.7133396, 49.4210267 ], [ 8.7135016, 49.4208853 ], [ 8.7136417, 49.4207342 ], [ 8.7137583, 49.4205749 ], [ 8.7138504, 49.4204089 ], [ 8.7139172, 49.4202378 ], [ 8.7139579, 49.4200633 ], [ 8.7139722, 49.419887 ], [ 8.71396, 49.4197106 ], [ 8.7139213, 49.4195359 ], [ 8.7138565, 49.4193644 ], [ 8.7137663, 49.419198 ], [ 8.7137574, 49.4191856 ], [ 8.7138043, 49.4191011 ], [ 8.713871, 49.41893 ], [ 8.7139117, 49.4187555 ], [ 8.7139151, 49.4187137 ], [ 8.7139208, 49.4186992 ], [ 8.7139615, 49.4185247 ], [ 8.7139758, 49.4183484 ], [ 8.7139636, 49.418172 ], [ 8.7139249, 49.4179973 ], [ 8.7138601, 49.4178258 ], [ 8.7137699, 49.4176594 ], [ 8.7136552, 49.4174995 ], [ 8.7135169, 49.4173477 ], [ 8.7133565, 49.4172055 ], [ 8.7132625, 49.4171374 ], [ 8.7134464, 49.4171078 ], [ 8.7137015, 49.4170489 ], [ 8.7137208, 49.417043 ], [ 8.7138124, 49.4171242 ], [ 8.7139933, 49.4172555 ], [ 8.7141932, 49.4173745 ], [ 8.7144099, 49.4174802 ], [ 8.7146415, 49.4175716 ], [ 8.7148857, 49.4176476 ], [ 8.7149313, 49.4176584 ], [ 8.7149468, 49.4176632 ], [ 8.7152012, 49.4177233 ], [ 8.7152207, 49.4177266 ], [ 8.715147, 49.4177551 ], [ 8.7149291, 49.4178598 ], [ 8.7147279, 49.4179778 ], [ 8.7145454, 49.4181082 ], [ 8.7143834, 49.4182496 ], [ 8.7142434, 49.4184007 ], [ 8.7141267, 49.41856 ], [ 8.7140346, 49.418726 ], [ 8.7139679, 49.4188971 ], [ 8.7139271, 49.4190716 ], [ 8.7139128, 49.4192479 ], [ 8.7139251, 49.4194243 ], [ 8.7139638, 49.419599 ], [ 8.7140285, 49.4197704 ], [ 8.7141187, 49.4199369 ], [ 8.7142335, 49.4200967 ], [ 8.7143718, 49.4202485 ], [ 8.7145321, 49.4203907 ], [ 8.7147131, 49.420522 ], [ 8.714913, 49.420641 ], [ 8.7151297, 49.4207467 ], [ 8.7153613, 49.4208381 ], [ 8.7156055, 49.4209141 ], [ 8.71586, 49.4209742 ], [ 8.7161222, 49.4210178 ], [ 8.7163898, 49.4210443 ], [ 8.71666, 49.4210537 ], [ 8.7169304, 49.4210457 ], [ 8.7170205, 49.4210372 ], [ 8.71703, 49.4211743 ], [ 8.7170687, 49.4213491 ], [ 8.7171335, 49.4215205 ], [ 8.7172237, 49.4216869 ], [ 8.7173385, 49.4218468 ], [ 8.7174767, 49.4219986 ] ] ], [ [ [ 8.702971, 49.4219549 ], [ 8.7029817, 49.4220032 ], [ 8.6949343, 49.4220038 ], [ 8.6950084, 49.4219509 ], [ 8.6951705, 49.4218095 ], [ 8.6953106, 49.4216585 ], [ 8.6954273, 49.4214992 ], [ 8.6955195, 49.4213332 ], [ 8.6955863, 49.4211621 ], [ 8.6956271, 49.4209876 ], [ 8.6956339, 49.4209045 ], [ 8.6957434, 49.420984 ], [ 8.6959432, 49.4211031 ], [ 8.6961599, 49.4212089 ], [ 8.6963915, 49.4213002 ], [ 8.6966357, 49.4213764 ], [ 8.6968901, 49.4214365 ], [ 8.6971524, 49.4214801 ], [ 8.6974199, 49.4215067 ], [ 8.6976901, 49.4215161 ], [ 8.6979605, 49.4215081 ], [ 8.6982284, 49.4214829 ], [ 8.6984911, 49.4214407 ], [ 8.6987463, 49.4213819 ], [ 8.6989914, 49.421307 ], [ 8.6992241, 49.4212169 ], [ 8.6994421, 49.4211123 ], [ 8.6996434, 49.4209942 ], [ 8.6998259, 49.4208639 ], [ 8.699988, 49.4207225 ], [ 8.700128, 49.4205715 ], [ 8.7002447, 49.4204122 ], [ 8.7003369, 49.4202462 ], [ 8.7004037, 49.4200751 ], [ 8.7004444, 49.4199006 ], [ 8.7004588, 49.4197243 ], [ 8.7004514, 49.4196178 ], [ 8.7004774, 49.4196187 ], [ 8.7007477, 49.4196107 ], [ 8.700826, 49.4196033 ], [ 8.7008282, 49.419636 ], [ 8.7008669, 49.4198107 ], [ 8.7009316, 49.4199821 ], [ 8.7010217, 49.4201486 ], [ 8.7011365, 49.4203085 ], [ 8.7012747, 49.4204603 ], [ 8.701435, 49.4206025 ], [ 8.701616, 49.4207337 ], [ 8.7018158, 49.4208528 ], [ 8.7020325, 49.4209585 ], [ 8.7022641, 49.4210499 ], [ 8.7025083, 49.421126 ], [ 8.7027627, 49.4211861 ], [ 8.703025, 49.4212297 ], [ 8.7030919, 49.4212364 ], [ 8.7030807, 49.4212566 ], [ 8.7030139, 49.4214277 ], [ 8.7029731, 49.4216023 ], [ 8.7029588, 49.4217785 ], [ 8.702971, 49.4219549 ] ] ], [ [ [ 8.671486, 49.4220024 ], [ 8.66, 49.422 ], [ 8.66, 49.4199711 ], [ 8.6600596, 49.4199897 ], [ 8.660314, 49.4200499 ], [ 8.6605762, 49.4200936 ], [ 8.6608437, 49.4201203 ], [ 8.6611139, 49.4201298 ], [ 8.6613843, 49.4201219 ], [ 8.6616521, 49.4200968 ], [ 8.6619149, 49.4200546 ], [ 8.6621701, 49.4199959 ], [ 8.6623635, 49.4199369 ], [ 8.6624954, 49.420082 ], [ 8.6626557, 49.4202242 ], [ 8.6628365, 49.4203556 ], [ 8.6630362, 49.4204747 ], [ 8.6632529, 49.4205805 ], [ 8.6634844, 49.420672 ], [ 8.6637285, 49.4207482 ], [ 8.6639829, 49.4208084 ], [ 8.6642451, 49.420852 ], [ 8.6645126, 49.4208787 ], [ 8.6647828, 49.4208882 ], [ 8.6650532, 49.4208803 ], [ 8.6653211, 49.4208552 ], [ 8.6654823, 49.4208293 ], [ 8.6655823, 49.420853 ], [ 8.6658445, 49.4208966 ], [ 8.6661121, 49.4209233 ], [ 8.6663736, 49.4209325 ], [ 8.6664377, 49.4210218 ], [ 8.6665758, 49.4211737 ], [ 8.666736, 49.4213159 ], [ 8.6669169, 49.4214473 ], [ 8.6671166, 49.4215664 ], [ 8.6673332, 49.4216722 ], [ 8.6675648, 49.4217636 ], [ 8.6678089, 49.4218398 ], [ 8.6680633, 49.4219 ], [ 8.6683255, 49.4219437 ], [ 8.6685931, 49.4219703 ], [ 8.6688633, 49.4219798 ], [ 8.6691337, 49.4219719 ], [ 8.6691561, 49.4219698 ], [ 8.6692758, 49.4219663 ], [ 8.6695436, 49.4219411 ], [ 8.6698064, 49.421899 ], [ 8.6700616, 49.4218402 ], [ 8.6703068, 49.4217655 ], [ 8.6705395, 49.4216754 ], [ 8.6707576, 49.4215708 ], [ 8.6709589, 49.4214528 ], [ 8.6709833, 49.4214354 ], [ 8.671252, 49.4214276 ], [ 8.6713717, 49.4214163 ], [ 8.671367, 49.421473 ], [ 8.6713791, 49.4216494 ], [ 8.6714177, 49.4218241 ], [ 8.6714823, 49.4219955 ], [ 8.671486, 49.4220024 ] ] ], [ [ [ 8.6600584, 49.4122841 ], [ 8.66, 49.4122975 ], [ 8.66, 49.4104149 ], [ 8.6601827, 49.4105041 ], [ 8.6604141, 49.4105955 ], [ 8.6606582, 49.4106717 ], [ 8.6607045, 49.4106827 ], [ 8.6607657, 49.4108452 ], [ 8.6608557, 49.4110117 ], [ 8.6609703, 49.4111716 ], [ 8.6611083, 49.4113235 ], [ 8.6612685, 49.4114657 ], [ 8.6614493, 49.4115971 ], [ 8.661649, 49.4117162 ], [ 8.6617283, 49.4117549 ], [ 8.6616411, 49.4118309 ], [ 8.661501, 49.4119819 ], [ 8.6613842, 49.4121411 ], [ 8.6613575, 49.4121892 ], [ 8.6612759, 49.4122023 ], [ 8.6611827, 49.4122237 ], [ 8.6611295, 49.4122184 ], [ 8.6608593, 49.4122089 ], [ 8.660589, 49.4122168 ], [ 8.6603212, 49.4122419 ], [ 8.6600584, 49.4122841 ] ] ], [ [ [ 8.6602033, 49.4075125 ], [ 8.66, 49.40761 ], [ 8.66, 49.4069592 ], [ 8.660014, 49.4069597 ], [ 8.6602843, 49.4069518 ], [ 8.6605521, 49.4069267 ], [ 8.6608148, 49.4068846 ], [ 8.6610699, 49.4068258 ], [ 8.661315, 49.4067511 ], [ 8.6615477, 49.406661 ], [ 8.6617349, 49.4065712 ], [ 8.661862, 49.4065839 ], [ 8.6621322, 49.4065934 ], [ 8.6624024, 49.4065855 ], [ 8.6626702, 49.4065604 ], [ 8.662933, 49.4065182 ], [ 8.6631599, 49.406466 ], [ 8.6632399, 49.4065777 ], [ 8.663378, 49.4067295 ], [ 8.6635382, 49.4068718 ], [ 8.663719, 49.4070031 ], [ 8.6637449, 49.4070186 ], [ 8.6637448, 49.4070187 ], [ 8.6636506, 49.4071472 ], [ 8.6634376, 49.4070967 ], [ 8.6631754, 49.4070531 ], [ 8.662908, 49.4070264 ], [ 8.6626378, 49.4070169 ], [ 8.6623675, 49.4070248 ], [ 8.6620998, 49.4070499 ], [ 8.661837, 49.4070921 ], [ 8.6615819, 49.4071508 ], [ 8.6613368, 49.4072256 ], [ 8.6613083, 49.4072366 ], [ 8.661199, 49.4072468 ], [ 8.6609362, 49.407289 ], [ 8.6606811, 49.4073477 ], [ 8.660436, 49.4074224 ], [ 8.6602033, 49.4075125 ] ] ], [ [ [ 8.66, 49.4015851 ], [ 8.66, 49.398 ], [ 8.6653489, 49.3980013 ], [ 8.6653475, 49.3980074 ], [ 8.665333, 49.3981837 ], [ 8.6653451, 49.39836 ], [ 8.6653836, 49.3985348 ], [ 8.6654482, 49.3987062 ], [ 8.6655225, 49.3988437 ], [ 8.6653834, 49.398965 ], [ 8.6653628, 49.3989872 ], [ 8.6652887, 49.3990227 ], [ 8.6651978, 49.3990761 ], [ 8.6651054, 49.3990973 ], [ 8.6648604, 49.3991721 ], [ 8.6646277, 49.3992622 ], [ 8.6646095, 49.3992709 ], [ 8.66456, 49.3992901 ], [ 8.6643421, 49.3993946 ], [ 8.6641408, 49.3995126 ], [ 8.6639583, 49.3996429 ], [ 8.6638719, 49.3997181 ], [ 8.6637369, 49.3997829 ], [ 8.6635356, 49.3999009 ], [ 8.6633531, 49.4000312 ], [ 8.6633125, 49.4000665 ], [ 8.6631035, 49.4001303 ], [ 8.6628709, 49.4002204 ], [ 8.6626529, 49.4003249 ], [ 8.6625694, 49.4003738 ], [ 8.6625013, 49.4004065 ], [ 8.6624435, 49.4004404 ], [ 8.6623686, 49.4004763 ], [ 8.6622336, 49.4005554 ], [ 8.6620293, 49.4006534 ], [ 8.6619015, 49.4007283 ], [ 8.6618825, 49.4007356 ], [ 8.6616645, 49.4008402 ], [ 8.6615181, 49.400926 ], [ 8.6614003, 49.4009825 ], [ 8.6613246, 49.4010268 ], [ 8.6612407, 49.4010671 ], [ 8.6611848, 49.4010998 ], [ 8.6611622, 49.4011107 ], [ 8.660995, 49.4012087 ], [ 8.6608707, 49.4012373 ], [ 8.6606257, 49.401312 ], [ 8.6605976, 49.4013229 ], [ 8.6605454, 49.4013388 ], [ 8.6603127, 49.4014289 ], [ 8.6600947, 49.4015335 ], [ 8.6600575, 49.4015553 ], [ 8.6600329, 49.4015671 ], [ 8.6600237, 49.4015725 ], [ 8.6600118, 49.4015782 ], [ 8.66, 49.4015851 ] ] ], [ [ [ 8.6767279, 49.3981262 ], [ 8.6767194, 49.3980031 ], [ 8.6825645, 49.3980037 ], [ 8.6824784, 49.3981211 ], [ 8.6823862, 49.3982871 ], [ 8.6823194, 49.3984581 ], [ 8.6822786, 49.3986327 ], [ 8.6822642, 49.398809 ], [ 8.6822763, 49.3989853 ], [ 8.6823149, 49.3991601 ], [ 8.6823795, 49.3993315 ], [ 8.6824696, 49.399498 ], [ 8.6825842, 49.3996579 ], [ 8.6827223, 49.3998097 ], [ 8.6828825, 49.3999519 ], [ 8.6830633, 49.4000832 ], [ 8.683263, 49.4002023 ], [ 8.6834208, 49.4002794 ], [ 8.683221, 49.4003966 ], [ 8.6830385, 49.4005269 ], [ 8.6828764, 49.4006683 ], [ 8.6827364, 49.4008193 ], [ 8.6826638, 49.4009184 ], [ 8.6826502, 49.4009034 ], [ 8.6824899, 49.4007611 ], [ 8.6823091, 49.4006298 ], [ 8.6821094, 49.4005107 ], [ 8.6818928, 49.4004049 ], [ 8.6816614, 49.4003135 ], [ 8.6814174, 49.4002374 ], [ 8.6812222, 49.4001912 ], [ 8.6811755, 49.4000673 ], [ 8.6810854, 49.3999008 ], [ 8.6809708, 49.3997409 ], [ 8.6808725, 49.3996328 ], [ 8.6808384, 49.3995698 ], [ 8.6807238, 49.3994099 ], [ 8.6805857, 49.3992581 ], [ 8.6804255, 49.3991159 ], [ 8.6802447, 49.3989845 ], [ 8.680045, 49.3988654 ], [ 8.6798285, 49.3987597 ], [ 8.6796677, 49.3986962 ], [ 8.6795768, 49.3986302 ], [ 8.6793771, 49.398511 ], [ 8.6791606, 49.3984053 ], [ 8.6789291, 49.3983139 ], [ 8.6786851, 49.3982377 ], [ 8.6784308, 49.3981775 ], [ 8.6781687, 49.3981339 ], [ 8.6779013, 49.3981072 ], [ 8.6776312, 49.3980978 ], [ 8.6774806, 49.3981022 ], [ 8.6774087, 49.3980997 ], [ 8.6771385, 49.3981076 ], [ 8.6768707, 49.3981328 ], [ 8.6767254, 49.3981561 ], [ 8.6767279, 49.3981262 ] ] ], [ [ [ 8.6686037, 49.4126739 ], [ 8.6683362, 49.4126473 ], [ 8.668066, 49.4126378 ], [ 8.6677957, 49.4126457 ], [ 8.6675279, 49.4126709 ], [ 8.6672651, 49.412713 ], [ 8.66701, 49.4127717 ], [ 8.666884, 49.4128102 ], [ 8.6668604, 49.4128063 ], [ 8.6666801, 49.4127883 ], [ 8.6666719, 49.4126686 ], [ 8.6666334, 49.4124939 ], [ 8.6665688, 49.4123224 ], [ 8.6664788, 49.4121559 ], [ 8.6663642, 49.411996 ], [ 8.6662261, 49.4118442 ], [ 8.6660659, 49.4117019 ], [ 8.6660285, 49.4116747 ], [ 8.6661871, 49.4116599 ], [ 8.6664499, 49.4116177 ], [ 8.6665373, 49.4115976 ], [ 8.6667878, 49.4115574 ], [ 8.6670429, 49.4114987 ], [ 8.667288, 49.4114239 ], [ 8.6675207, 49.4113338 ], [ 8.6677388, 49.4112293 ], [ 8.667744, 49.4112262 ], [ 8.6679702, 49.4112341 ], [ 8.6682405, 49.4112262 ], [ 8.6685083, 49.411201 ], [ 8.668771, 49.4111589 ], [ 8.6689798, 49.4111108 ], [ 8.6689498, 49.4111649 ], [ 8.6688829, 49.4113359 ], [ 8.668842, 49.4115104 ], [ 8.6688276, 49.4116867 ], [ 8.6688397, 49.4118631 ], [ 8.6688782, 49.4120378 ], [ 8.6689428, 49.4122093 ], [ 8.6690328, 49.4123758 ], [ 8.6691474, 49.4125357 ], [ 8.6692855, 49.4126875 ], [ 8.6693936, 49.4127835 ], [ 8.6693716, 49.4127798 ], [ 8.6691041, 49.4127532 ], [ 8.669001, 49.4127496 ], [ 8.6688659, 49.4127176 ], [ 8.6686037, 49.4126739 ] ] ], [ [ [ 8.6954994, 49.4168528 ], [ 8.6955106, 49.4167153 ], [ 8.6954984, 49.4165389 ], [ 8.6954598, 49.4163642 ], [ 8.6953951, 49.4161928 ], [ 8.695305, 49.4160263 ], [ 8.6951903, 49.4158664 ], [ 8.6950521, 49.4157146 ], [ 8.6949265, 49.4156031 ], [ 8.6949606, 49.4155157 ], [ 8.6951182, 49.4154904 ], [ 8.6953734, 49.4154316 ], [ 8.6956185, 49.4153568 ], [ 8.6958042, 49.4152848 ], [ 8.6958859, 49.4152824 ], [ 8.6961537, 49.4152572 ], [ 8.696314, 49.4152315 ], [ 8.6963479, 49.4152326 ], [ 8.6963602, 49.4152462 ], [ 8.6965206, 49.4153884 ], [ 8.6967015, 49.4155197 ], [ 8.6969012, 49.4156387 ], [ 8.6971055, 49.4157384 ], [ 8.6971401, 49.4158946 ], [ 8.6971504, 49.4159221 ], [ 8.6970611, 49.4159427 ], [ 8.696816, 49.4160176 ], [ 8.6965833, 49.4161077 ], [ 8.6963654, 49.4162123 ], [ 8.6961641, 49.4163303 ], [ 8.6959816, 49.4164607 ], [ 8.6958195, 49.416602 ], [ 8.6956795, 49.4167531 ], [ 8.6956088, 49.4168496 ], [ 8.6954994, 49.4168528 ] ] ] ] } }
]
}
