{
"type": "FeatureCollection",
"features": [
{ "type": "Feature", "properties": { "index": "0", "label": "Within 300 m on foot", "color": "#2b8cbe" }, "geometry": { "type": "MultiPolygon", "coordinates": [ [ [ [ 39.2833436, -6.8176433 ], [ 39.2836097, -6.8176562 ], [ 39.2838758, -6.817643 ], [ 39.2841393, -6.8176037 ], [ 39.2843081, -6.8175614 ], [ 39.2845236, -6.8175507 ], [ 39.2847872, -6.8175114 ], [ 39.2850456, -6.8174466 ], [ 39.2852964, -6.8173567 ], [ 39.2855372, -6.8172427 ], [ 39.2857656, -6.8171056 ], [ 39.2859796, -6.8169469 ], [ 39.2861769, -6.8167679 ], [ 39.2863557, -6.8165705 ], [ 39.2865143, -6.8163565 ], [ 39.2866511, -6.816128 ], [ 39.2867649, -6.8158871 ], [ 39.2868545, -6.8156363 ], [ 39.2869191, -6.815378 ], [ 39.286958, -6.8151145 ], [ 39.2869709, -6.8148485 ], [ 39.2869577, -6.8145825 ], [ 39.2869185, -6.8143191 ], [ 39.2868536, -6.8140608 ], [ 39.2867637, -6.8138101 ], [ 39.2866496, -6.8135694 ], [ 39.2865125, -6.8133411 ], [ 39.2863536, -6.8131273 ], [ 39.2861746, -6.81293 ], [ 39.2859771, -6.8127513 ], [ 39.285763, -6.8125928 ], [ 39.2855343, -6.812456 ], [ 39.2852934, -6.8123423 ], [ 39.2850425, -6.8122527 ], [ 39.284784, -6.8121882 ], [ 39.2847249, -6.8121794 ], [ 39.2847353, -6.81217 ], [ 39.2849142, -6.8119726 ], [ 39.2850727, -6.8117586 ], [ 39.2852096, -6.8115301 ], [ 39.2853234, -6.8112892 ], [ 39.285413, -6.8110384 ], [ 39.2854776, -6.8107801 ], [ 39.2855165, -6.8105166 ], [ 39.2855294, -6.8102506 ], [ 39.2855162, -6.8099846 ], [ 39.2854769, -6.8097212 ], [ 39.285412, -6.8094629 ], [ 39.2853221, -6.8092122 ], [ 39.2852081, -6.8089715 ], [ 39.285071, -6.8087432 ], [ 39.2849121, -6.8085294 ], [ 39.2847331, -6.8083321 ], [ 39.2845356, -6.8081534 ], [ 39.2843215, -6.8079949 ], [ 39.2840928, -6.8078581 ], [ 39.2838519, -6.8077444 ], [ 39.283601, -6.8076548 ], [ 39.2833425, -6.8075903 ], [ 39.2830789, -6.8075513 ], [ 39.2828128, -6.8075384 ], [ 39.2825467, -6.8075516 ], [ 39.2822832, -6.8075909 ], [ 39.2820248, -6.8076557 ], [ 39.2817739, -6.8077456 ], [ 39.2815332, -6.8078596 ], [ 39.2813047, -6.8079967 ], [ 39.2810908, -6.8081554 ], [ 39.2808935, -6.8083344 ], [ 39.2807147, -6.8085318 ], [ 39.2805561, -6.8087458 ], [ 39.2804192, -6.8089743 ], [ 39.2803054, -6.8092151 ], [ 39.2802158, -6.8094659 ], [ 39.2801512, -6.8097243 ], [ 39.2801123, -6.8099878 ], [ 39.2800994, -6.8102538 ], [ 39.2801126, -6.8105198 ], [ 39.2801519, -6.8107832 ], [ 39.2802167, -6.8110415 ], [ 39.2803067, -6.8112922 ], [ 39.2804207, -6.8115329 ], [ 39.2805578, -6.8117612 ], [ 39.2807167, -6.811975 ], [ 39.2808957, -6.8121723 ], [ 39.2810932, -6.812351 ], [ 39.2813073, -6.8125095 ], [ 39.2815359, -6.8126463 ], [ 39.2817769, -6.81276 ], [ 39.2819274, -6.8128138 ], [ 39.2818845, -6.8128456 ], [ 39.2816872, -6.8130246 ], [ 39.2815083, -6.813222 ], [ 39.2813497, -6.813436 ], [ 39.2812129, -6.8136645 ], [ 39.2810991, -6.8139053 ], [ 39.2810095, -6.8141562 ], [ 39.2809449, -6.8144145 ], [ 39.280906, -6.814678 ], [ 39.2808931, -6.814944 ], [ 39.2809063, -6.81521 ], [ 39.2809455, -6.8154734 ], [ 39.2810104, -6.8157317 ], [ 39.2811003, -6.8159824 ], [ 39.2812144, -6.8162231 ], [ 39.2813515, -6.8164514 ], [ 39.2815103, -6.8166652 ], [ 39.2816894, -6.8168625 ], [ 39.2818869, -6.8170412 ], [ 39.282101, -6.8171997 ], [ 39.2823296, -6.8173365 ], [ 39.2825706, -6.8174502 ], [ 39.2828215, -6.8175398 ], [ 39.28308, -6.8176043 ], [ 39.2833436, -6.8176433 ] ] ], [ [ [ 39.2887587, -6.8023856 ], [ 39.2888724, -6.8021448 ], [ 39.288962, -6.801894 ], [ 39.2890266, -6.8016356 ], [ 39.2890656, -6.8013722 ], [ 39.2890785, -6.8011062 ], [ 39.2890652, -6.8008402 ], [ 39.289026, -6.8005768 ], [ 39.2889611, -6.8003185 ], [ 39.2888712, -6.8000678 ], [ 39.2887571, -6.7998271 ], [ 39.28862, -6.7995988 ], [ 39.2884612, -6.799385 ], [ 39.2882821, -6.7991877 ], [ 39.2880846, -6.799009 ], [ 39.2878705, -6.7988505 ], [ 39.2876419, -6.7987137 ], [ 39.287401, -6.7986 ], [ 39.2871501, -6.7985104 ], [ 39.2868916, -6.7984459 ], [ 39.286628, -6.7984069 ], [ 39.2863619, -6.798394 ], [ 39.2860958, -6.7984072 ], [ 39.2858323, -6.7984465 ], [ 39.2855739, -6.7985113 ], [ 39.285323, -6.7986012 ], [ 39.2850823, -6.7987152 ], [ 39.2848538, -6.7988523 ], [ 39.2846399, -6.799011 ], [ 39.2844426, -6.79919 ], [ 39.2842638, -6.7993874 ], [ 39.2841052, -6.7996014 ], [ 39.2839684, -6.7998299 ], [ 39.2838546, -6.8000708 ], [ 39.283765, -6.8003216 ], [ 39.2837004, -6.8005799 ], [ 39.2836614, -6.8008434 ], [ 39.2836485, -6.8011094 ], [ 39.2836618, -6.8013754 ], [ 39.283701, -6.8016388 ], [ 39.2837659, -6.8018971 ], [ 39.2838558, -6.8021478 ], [ 39.2839699, -6.8023885 ], [ 39.284107, -6.8026168 ], [ 39.2842658, -6.8028306 ], [ 39.2844449, -6.8030279 ], [ 39.2846424, -6.8032066 ], [ 39.2848565, -6.8033651 ], [ 39.2850851, -6.8035019 ], [ 39.285326, -6.8036156 ], [ 39.2855769, -6.8037052 ], [ 39.2858354, -6.8037697 ], [ 39.286099, -6.8038087 ], [ 39.2863651, -6.8038216 ], [ 39.2866312, -6.8038084 ], [ 39.2868947, -6.8037691 ], [ 39.2871532, -6.8037043 ], [ 39.287404, -6.8036144 ], [ 39.2876448, -6.8035004 ], [ 39.2878732, -6.8033633 ], [ 39.2880871, -6.8032046 ], [ 39.2882844, -6.8030256 ], [ 39.2884632, -6.8028282 ], [ 39.2886218, -6.8026142 ], [ 39.2887587, -6.8023856 ] ] ], [ [ [ 39.2818618, -6.7815798 ], [ 39.2819756, -6.781339 ], [ 39.2820652, -6.7810882 ], [ 39.2821298, -6.7808298 ], [ 39.2821687, -6.7805663 ], [ 39.2821817, -6.7803003 ], [ 39.2821684, -6.7800343 ], [ 39.2821635, -6.7800011 ], [ 39.2767702, -6.7800014 ], [ 39.2767649, -6.7800375 ], [ 39.2767519, -6.7803035 ], [ 39.2767652, -6.7805694 ], [ 39.2768044, -6.7808329 ], [ 39.2768693, -6.7810912 ], [ 39.2769592, -6.7813419 ], [ 39.2770732, -6.7815825 ], [ 39.2772103, -6.7818109 ], [ 39.2773692, -6.7820247 ], [ 39.2775482, -6.7822219 ], [ 39.2777457, -6.7824007 ], [ 39.2779598, -6.7825592 ], [ 39.2781884, -6.782696 ], [ 39.2784293, -6.7828097 ], [ 39.2786802, -6.7828993 ], [ 39.2789387, -6.7829638 ], [ 39.2792023, -6.7830028 ], [ 39.2794684, -6.7830157 ], [ 39.2797345, -6.7830025 ], [ 39.279998, -6.7829632 ], [ 39.2802564, -6.7828984 ], [ 39.2805072, -6.7828085 ], [ 39.280748, -6.7826945 ], [ 39.2809764, -6.7825575 ], [ 39.2811903, -6.7823987 ], [ 39.2813876, -6.7822197 ], [ 39.2815664, -6.7820223 ], [ 39.281725, -6.7818083 ], [ 39.2818618, -6.7815798 ] ] ] ] } },
{ "type": "Feature", "properties": { "index": "1", "label": "Beyond 300 m", "color": "#d9d9d9" }, "geometry": { "type": "Polygon", "coordinates": [ [ [ 39.22, -6.78 ], [ 39.22, -6.85 ], [ 39.3, -6.85 ], [ 39.3, -6.78 ], [ 39.22, -6.78 ] ], [ [ 39.2841393, -6.8176037 ], [ 39.2838758, -6.817643 ], [ 39.2836097, -6.8176562 ], [ 39.2833436, -6.8176433 ], [ 39.28308, -6.8176043 ], [ 39.2828215, -6.8175398 ], [ 39.2825706, -6.8174502 ], [ 39.2823296, -6.8173365 ], [ 39.282101, -6.8171997 ], [ 39.2818869, -6.8170412 ], [ 39.2816894, -6.8168625 ], [ 39.2815103, -6.8166652 ], [ 39.2813515, -6.8164514 ], [ 39.2812144, -6.8162231 ], [ 39.2811003, -6.8159824 ], [ 39.2810104, -6.8157317 ], [ 39.2809455, -6.8154734 ], [ 39.2809063, -6.81521 ], [ 39.2808931, -6.814944 ], [ 39.280906, -6.814678 ], [ 39.2809449, -6.8144145 ], [ 39.2810095, -6.8141562 ], [ 39.2810991, -6.8139053 ], [ 39.2812129, -6.8136645 ], [ 39.2813497, -6.813436 ], [ 39.2815083, -6.813222 ], [ 39.2816872, -6.8130246 ], [ 39.2818845, -6.8128456 ], [ 39.2819274, -6.8128138 ], [ 39.2817769, -6.81276 ], [ 39.2815359, -6.8126463 ], [ 39.2813073, -6.8125095 ], [ 39.2810932, -6.812351 ], [ 39.2808957, -6.8121723 ], [ 39.2807167, -6.811975 ], [ 39.2805578, -6.8117612 ], [ 39.2804207, -6.8115329 ], [ 39.2803067, -6.8112922 ], [ 39.2802167, -6.8110415 ], [ 39.2801519, -6.8107832 ], [ 39.2801126, -6.8105198 ], [ 39.2800994, -6.8102538 ], [ 39.2801123, -6.8099878 ], [ 39.2801512, -6.8097243 ], [ 39.2802158, -6.8094659 ], [ 39.2803054, -6.8092151 ], [ 39.2804192, -6.8089743 ], [ 39.2805561, -6.8087458 ], [ 39.2807147, -6.8085318 ], [ 39.2808935, -6.8083344 ], [ 39.2810908, -6.8081554 ], [ 39.2813047, -6.8079967 ], [ 39.2815332, -6.8078596 ], [ 39.2817739, -6.8077456 ], [ 39.2820248, -6.8076557 ], [ 39.2822832, -6.8075909 ], [ 39.2825467, -6.8075516 ], [ 39.2828128, -6.8075384 ], [ 39.2830789, -6.8075513 ], [ 39.2833425, -6.8075903 ], [ 39.283601, -6.8076548 ], [ 39.2838519, -6.8077444 ], [ 39.2840928, -6.8078581 ], [ 39.2843215, -6.8079949 ], [ 39.2845356, -6.8081534 ], [ 39.2847331, -6.8083321 ], [ 39.2849121, -6.8085294 ], [ 39.285071, -6.8087432 ], [ 39.2852081, -6.8089715 ], [ 39.2853221, -6.8092122 ], [ 39.285412, -6.8094629 ], [ 39.2854769, -6.8097212 ], [ 39.2855162, -6.8099846 ], [ 39.2855294, -6.8102506 ], [ 39.2855165, -6.8105166 ], [ 39.2854776, -6.8107801 ], [ 39.285413, -6.8110384 ], [ 39.2853234, -6.8112892 ], [ 39.2852096, -6.8115301 ], [ 39.2850727, -6.8117586 ], [ 39.2849142, -6.8119726 ], [ 39.2847353, -6.81217 ], [ 39.2847249, -6.8121794 ], [ 39.284784, -6.8121882 ], [ 39.2850425, -6.8122527 ], [ 39.2852934, -6.8123423 ], [ 39.2855343, -6.812456 ], [ 39.285763, -6.8125928 ], [ 39.2859771, -6.8127513 ], [ 39.2861746, -6.81293 ], [ 39.2863536, -6.8131273 ], [ 39.2865125, -6.8133411 ], [ 39.2866496, -6.8135694 ], [ 39.2867637, -6.8138101 ], [ 39.2868536, -6.8140608 ], [ 39.2869185, -6.8143191 ], [ 39.2869577, -6.8145825 ], [ 39.2869709, -6.8148485 ], [ 39.286958, -6.8151145 ], [ 39.2869191, -6.815378 ], [ 39.2868545, -6.8156363 ], [ 39.2867649, -6.8158871 ], [ 39.2866511, -6.816128 ], [ 39.2865143, -6.8163565 ], [ 39.2863557, -6.8165705 ], [ 39.2861769, -6.8167679 ], [ 39.2859796, -6.8169469 ], [ 39.2857656, -6.8171056 ], [ 39.2855372, -6.8172427 ], [ 39.2852964, -6.8173567 ], [ 39.2850456, -6.8174466 ], [ 39.2847872, -6.8175114 ], [ 39.2845236, -6.8175507 ], [ 39.2843081, -6.8175614 ], [ 39.2841393, -6.8176037 ] ], [ [ 39.2890266, -6.8016356 ], [ 39.288962, -6.801894 ], [ 39.2888724, -6.8021448 ], [ 39.2887587, -6.8023856 ], [ 39.2886218, -6.8026142 ], [ 39.2884632, -6.8028282 ], [ 39.2882844, -6.8030256 ], [ 39.2880871, -6.8032046 ], [ 39.2878732, -6.8033633 ], [ 39.2876448, -6.8035004 ], [ 39.287404, -6.8036144 ], [ 39.2871532, -6.8037043 ], [ 39.2868947, -6.8037691 ], [ 39.2866312, -6.8038084 ], [ 39.2863651, -6.8038216 ], [ 39.286099, -6.8038087 ], [ 39.2858354, -6.8037697 ], [ 39.2855769, -6.8037052 ], [ 39.285326, -6.8036156 ], [ 39.2850851, -6.8035019 ], [ 39.2848565, -6.8033651 ], [ 39.2846424, -6.8032066 ], [ 39.2844449, -6.8030279 ], [ 39.2842658, -6.8028306 ], [ 39.284107, -6.8026168 ], [ 39.2839699, -6.8023885 ], [ 39.2838558, -6.8021478 ], [ 39.2837659, -6.8018971 ], [ 39.283701, -6.8016388 ], [ 39.2836618, -6.8013754 ], [ 39.2836485, -6.8011094 ], [ 39.2836614, -6.8008434 ], [ 39.2837004, -6.8005799 ], [ 39.283765, -6.8003216 ], [ 39.2838546, -6.8000708 ], [ 39.2839684, -6.7998299 ], [ 39.2841052, -6.7996014 ], [ 39.2842638, -6.7993874 ], [ 39.2844426, -6.79919 ], [ 39.2846399, -6.799011 ], [ 39.2848538, -6.7988523 ], [ 39.2850823, -6.7987152 ], [ 39.285323, -6.7986012 ], [ 39.2855739, -6.7985113 ], [ 39.2858323, -6.7984465 ], [ 39.2860958, -6.7984072 ], [ 39.2863619, -6.798394 ], [ 39.286628, -6.7984069 ], [ 39.2868916, -6.7984459 ], [ 39.2871501, -6.7985104 ], [ 39.287401, -6.7986 ], [ 39.2876419, -6.7987137 ], [ 39.2878705, -6.7988505 ], [ 39.2880846, -6.799009 ], [ 39.2882821, -6.7991877 ], [ 39.2884612, -6.799385 ], [ 39.28862, -6.7995988 ], [ 39.2887571, -6.7998271 ], [ 39.2888712, -6.8000678 ], [ 39.2889611, -6.8003185 ], [ 39.289026, -6.8005768 ], [ 39.2890652, -6.8008402 ], [ 39.2890785, -6.8011062 ], [ 39.2890656, -6.8013722 ], [ 39.2890266, -6.8016356 ] ], [ [ 39.2821298, -6.7808298 ], [ 39.2820652, -6.7810882 ], [ 39.2819756, -6.781339 ], [ 39.2818618, -6.7815798 ], [ 39.281725, -6.7818083 ], [ 39.2815664, -6.7820223 ], [ 39.2813876, -6.7822197 ], [ 39.2811903, -6.7823987 ], [ 39.2809764, -6.7825575 ], [ 39.280748, -6.7826945 ], [ 39.2805072, -6.7828085 ], [ 39.2802564, -6.7828984 ], [ 39.279998, -6.7829632 ], [ 39.2797345, -6.7830025 ], [ 39.2794684, -6.7830157 ], [ 39.2792023, -6.7830028 ], [ 39.2789387, -6.7829638 ], [ 39.2786802, -6.7828993 ], [ 39.2784293, -6.7828097 ], [ 39.2781884, -6.782696 ], [ 39.2779598, -6.7825592 ], [ 39.2777457, -6.7824007 ], [ 39.2775482, -6.7822219 ], [ 39.2773692, -6.7820247 ], [ 39.2772103, -6.7818109 ], [ 39.2770732, -6.7815825 ], [ 39.2769592, -6.7813419 ], [ 39.2768693, -6.7810912 ], [ 39.2768044, -6.7808329 ], [ 39.2767652, -6.7805694 ], [ 39.2767519, -6.7803035 ], [ 39.2767649, -6.7800375 ], [ 39.2767702, -6.7800014 ], [ 39.2821635, -6.7800011 ], [ 39.2821684, -6.7800343 ], [ 39.2821817, -6.7803003 ], [ 39.2821687, -6.7805663 ], [ 39.2821298, -6.7808298 ] ] ] } }
]
}
