{
"type": "FeatureCollection",
"features": [
{ "type": "Feature", "properties": { "index": "0", "label": "Within 1500 m by bike", "color": "#2b8cbe" }, "geometry": { "type": "Polygon", "coordinates": [ [ [ 39.2809675, -6.8282521 ], [ 39.2822854, -6.8284467 ], [ 39.2836161, -6.8285113 ], [ 39.2849467, -6.8284452 ], [ 39.2855528, -6.8283549 ], [ 39.2855945, -6.8283529 ], [ 39.2869122, -6.8281567 ], [ 39.2882043, -6.8278324 ], [ 39.2894584, -6.827383 ], [ 39.2906624, -6.826813 ], [ 39.2918047, -6.8261277 ], [ 39.2928743, -6.8253338 ], [ 39.2938609, -6.824439 ], [ 39.294755, -6.8234518 ], [ 39.2955479, -6.8223818 ], [ 39.2962321, -6.8212392 ], [ 39.296801, -6.8200351 ], [ 39.297249, -6.8187811 ], [ 39.2975719, -6.8174892 ], [ 39.2977666, -6.8161719 ], [ 39.2978311, -6.8148419 ], [ 39.2977649, -6.813512 ], [ 39.2975686, -6.8121949 ], [ 39.2972442, -6.8109034 ], [ 39.2968291, -6.8097461 ], [ 39.2968623, -6.8097095 ], [ 39.2976552, -6.8086395 ], [ 39.2983394, -6.8074969 ], [ 39.2989082, -6.8062928 ], [ 39.2993562, -6.8050388 ], [ 39.2996791, -6.8037469 ], [ 39.2998738, -6.8024296 ], [ 39.2999383, -6.8010996 ], [ 39.2998721, -6.7997696 ], [ 39.2996759, -6.7984526 ], [ 39.2993514, -6.7971611 ], [ 39.2989018, -6.7959076 ], [ 39.2983315, -6.7947042 ], [ 39.2976459, -6.7935625 ], [ 39.2968517, -6.7924935 ], [ 39.2959565, -6.7915074 ], [ 39.2949689, -6.7906137 ], [ 39.2938984, -6.7898212 ], [ 39.2927554, -6.7891373 ], [ 39.2915508, -6.7885687 ], [ 39.2904931, -6.7881911 ], [ 39.2907579, -6.7878337 ], [ 39.2914421, -6.7866912 ], [ 39.2920109, -6.7854871 ], [ 39.2924589, -6.7842331 ], [ 39.2927818, -6.7829412 ], [ 39.2929765, -6.7816239 ], [ 39.2930411, -6.7802939 ], [ 39.2930265, -6.7800005 ], [ 39.2659075, -6.7800016 ], [ 39.2658925, -6.7803095 ], [ 39.2659586, -6.7816395 ], [ 39.2661548, -6.7829565 ], [ 39.2664792, -6.7842481 ], [ 39.2669287, -6.7855016 ], [ 39.2674989, -6.786705 ], [ 39.2681844, -6.7878468 ], [ 39.2689785, -6.7889159 ], [ 39.2698737, -6.789902 ], [ 39.2708612, -6.7907957 ], [ 39.2719317, -6.7915883 ], [ 39.2730747, -6.7922723 ], [ 39.2742792, -6.7928409 ], [ 39.275337, -6.7932185 ], [ 39.2750721, -6.7935759 ], [ 39.2743879, -6.7947184 ], [ 39.273819, -6.7959225 ], [ 39.273371, -6.7971765 ], [ 39.273048, -6.7984683 ], [ 39.2728533, -6.7997856 ], [ 39.2727886, -6.8011156 ], [ 39.2727892, -6.8011275 ], [ 39.2723158, -6.8016502 ], [ 39.2715229, -6.8027202 ], [ 39.2708386, -6.8038627 ], [ 39.2702697, -6.8050668 ], [ 39.2698216, -6.8063208 ], [ 39.2694987, -6.8076126 ], [ 39.2693039, -6.8089299 ], [ 39.2692393, -6.81026 ], [ 39.2693054, -6.8115899 ], [ 39.2695016, -6.812907 ], [ 39.269826, -6.8141985 ], [ 39.2700403, -6.8147961 ], [ 39.2700329, -6.8149502 ], [ 39.270099, -6.8162801 ], [ 39.2702952, -6.8175972 ], [ 39.2706196, -6.8188887 ], [ 39.2710691, -6.8201422 ], [ 39.2716394, -6.8213456 ], [ 39.272325, -6.8224874 ], [ 39.2731192, -6.8235565 ], [ 39.2740144, -6.8245426 ], [ 39.275002, -6.8254363 ], [ 39.2760726, -6.8262289 ], [ 39.2772157, -6.8269128 ], [ 39.2784203, -6.8274814 ], [ 39.2796749, -6.8279293 ], [ 39.2809675, -6.8282521 ] ] ] } },
{ "type": "Feature", "properties": { "index": "1", "label": "Beyond 1500 m", "color": "#d9d9d9" }, "geometry": { "type": "Polygon", "coordinates": [ [ [ 39.3, -6.85 ], [ 39.3, -6.78 ], [ 39.2930265, -6.7800005 ], [ 39.2930411, -6.7802939 ], [ 39.2929765, -6.7816239 ], [ 39.2927818, -6.7829412 ], [ 39.2924589, -6.7842331 ], [ 39.2920109, -6.7854871 ], [ 39.2914421, -6.7866912 ], [ 39.2907579, -6.7878337 ], [ 39.2904931, -6.7881911 ], [ 39.2915508, -6.7885687 ], [ 39.2927554, -6.7891373 ], [ 39.2938984, -6.7898212 ], [ 39.2949689, -6.7906137 ], [ 39.2959565, -6.7915074 ], [ 39.2968517, -6.7924935 ], [ 39.2976459, -6.7935625 ], [ 39.2983315, -6.7947042 ], [ 39.2989018, -6.7959076 ], [ 39.2993514, -6.7971611 ], [ 39.2996759, -6.7984526 ], [ 39.2998721, -6.7997696 ], [ 39.2999383, -6.8010996 ], [ 39.2998738, -6.8024296 ], [ 39.2996791, -6.8037469 ], [ 39.2993562, -6.8050388 ], [ 39.2989082, -6.8062928 ], [ 39.2983394, -6.8074969 ], [ 39.2976552, -6.8086395 ], [ 39.2968623, -6.8097095 ], [ 39.2968291, -6.8097461 ], [ 39.2972442, -6.8109034 ], [ 39.2975686, -6.8121949 ], [ 39.2977649, -6.813512 ], [ 39.2978311, -6.8148419 ], [ 39.2977666, -6.8161719 ], [ 39.2975719, -6.8174892 ], [ 39.297249, -6.8187811 ], [ 39.296801, -6.8200351 ], [ 39.2962321, -6.8212392 ], [ 39.2955479, -6.8223818 ], [ 39.294755, -6.8234518 ], [ 39.2938609, -6.824439 ], [ 39.2928743, -6.8253338 ], [ 39.2918047, -6.8261277 ], [ 39.2906624, -6.826813 ], [ 39.2894584, -6.827383 ], [ 39.2882043, -6.8278324 ], [ 39.2869122, -6.8281567 ], [ 39.2855945, -6.8283529 ], [ 39.2855528, -6.8283549 ], [ 39.2849467, -6.8284452 ], [ 39.2836161, -6.8285113 ], [ 39.2822854, -6.8284467 ], [ 39.2809675, -6.8282521 ], [ 39.2796749, -6.8279293 ], [ 39.2784203, -6.8274814 ], [ 39.2772157, -6.8269128 ], [ 39.2760726, -6.8262289 ], [ 39.275002, -6.8254363 ], [ 39.2740144, -6.8245426 ], [ 39.2731192, -6.8235565 ], [ 39.272325, -6.8224874 ], [ 39.2716394, -6.8213456 ], [ 39.2710691, -6.8201422 ], [ 39.2706196, -6.8188887 ], [ 39.2702952, -6.8175972 ], [ 39.270099, -6.8162801 ], [ 39.2700329, -6.8149502 ], [ 39.2700403, -6.8147961 ], [ 39.269826, -6.8141985 ], [ 39.2695016, -6.812907 ], [ 39.2693054, -6.8115899 ], [ 39.2692393, -6.81026 ], [ 39.2693039, -6.8089299 ], [ 39.2694987, -6.8076126 ], [ 39.2698216, -6.8063208 ], [ 39.2702697, -6.8050668 ], [ 39.2708386, -6.8038627 ], [ 39.2715229, -6.8027202 ], [ 39.2723158, -6.8016502 ], [ 39.2727892, -6.8011275 ], [ 39.2727886, -6.8011156 ], [ 39.2728533, -6.7997856 ], [ 39.273048, -6.7984683 ], [ 39.273371, -6.7971765 ], [ 39.273819, -6.7959225 ], [ 39.2743879, -6.7947184 ], [ 39.2750721, -6.7935759 ], [ 39.275337, -6.7932185 ], [ 39.2742792, -6.7928409 ], [ 39.2730747, -6.7922723 ], [ 39.2719317, -6.7915883 ], [ 39.2708612, -6.7907957 ], [ 39.2698737, -6.789902 ], [ 39.2689785, -6.7889159 ], [ 39.2681844, -6.7878468 ], [ 39.2674989, -6.786705 ], [ 39.2669287, -6.7855016 ], [ 39.2664792, -6.7842481 ], [ 39.2661548, -6.7829565 ], [ 39.2659586, -6.7816395 ], [ 39.2658925, -6.7803095 ], [ 39.2659075, -6.7800016 ], [ 39.2683883, -6.7800016 ], [ 39.22, -6.78 ], [ 39.22, -6.85 ], [ 39.3, -6.85 ] ] ] } }
]
}
