{
"type": "FeatureCollection",
"features": [
{ "type": "Feature", "properties": { "index": "0", "@osmId": "way/362729734", "name": "Keko Market", "opening_hours": null, "label": "Marketplaces", "color": "#fe9929" }, "geometry": { "type": "Point", "coordinates": [ 39.2729191, -6.8395108 ] } },
{ "type": "Feature", "properties": { "index": "1", "@osmId": "way/367583846", "name": "Msufini Market", "opening_hours": null, "label": "Marketplaces", "color": "#fe9929" }, "geometry": { "type": "Point", "coordinates": [ 39.2595581, -6.7830479 ] } },
{ "type": "Feature", "properties": { "index": "2", "@osmId": "way/354507194", "name": "Soko la Mchikichini", "opening_hours": null, "label": "Marketplaces", "color": "#fe9929" }, "geometry": { "type": "Point", "coordinates": [ 39.2665439, -6.8250552 ] } },
{ "type": "Feature", "properties": { "index": "3", "@osmId": "way/368510048", "name": "Kisutu Market", "opening_hours": null, "label": "Marketplaces", "color": "#fe9929" }, "geometry": { "type": "Point", "coordinates": [ 39.2804031, -6.817283 ] } },
{ "type": "Feature", "properties": { "index": "4", "@osmId": "way/460492942", "name": "Machiga Complex", "opening_hours": null, "label": "Marketplaces", "color": "#fe9929" }, "geometry": { "type": "Point", "coordinates": [ 39.2677874, -6.8277147 ] } },
{ "type": "Feature", "properties": { "index": "5", "@osmId": "way/619444096", "name": "Karume", "opening_hours": null, "label": "Marketplaces", "color": "#fe9929" }, "geometry": { "type": "Point", "coordinates": [ 39.267146, -6.8257266 ] } },
{ "type": "Feature", "properties": { "index": "6", "@osmId": "way/372044030", "name": "Goats Market", "opening_hours": null, "label": "Marketplaces", "color": "#fe9929" }, "geometry": { "type": "Point", "coordinates": [ 39.2242775, -6.8437655 ] } },
{ "type": "Feature", "properties": { "index": "7", "@osmId": "way/989379391", "name": "Viosks-Karume", "opening_hours": null, "label": "Marketplaces", "color": "#fe9929" }, "geometry": { "type": "Point", "coordinates": [ 39.2651164, -6.8257034 ] } },
{ "type": "Feature", "properties": { "index": "8", "@osmId": "way/375527058", "name": "Tenge", "opening_hours": null, "label": "Marketplaces", "color": "#fe9929" }, "geometry": { "type": "Point", "coordinates": [ 39.2239382, -6.8306531 ] } },
{ "type": "Feature", "properties": { "index": "9", "@osmId": "node/3853987682", "name": "Machinga Complex", "opening_hours": null, "label": "Marketplaces", "color": "#fe9929" }, "geometry": { "type": "Point", "coordinates": [ 39.266293, -6.8283106 ] } },
{ "type": "Feature", "properties": { "index": "10", "@osmId": "node/3853987728", "name": null, "opening_hours": null, "label": "Marketplaces", "color": "#fe9929" }, "geometry": { "type": "Point", "coordinates": [ 39.2662108, -6.8284975 ] } },
{ "type": "Feature", "properties": { "index": "11", "@osmId": "node/6397929670", "name": "Buguruni Market", "opening_hours": null, "label": "Marketplaces", "color": "#fe9929" }, "geometry": { "type": "Point", "coordinates": [ 39.2471259, -6.8349546 ] } },
{ "type": "Feature", "properties": { "index": "12", "@osmId": "node/6398093614", "name": "Ilala Mitumba Cooperative Society", "opening_hours": null, "label": "Marketplaces", "color": "#fe9929" }, "geometry": { "type": "Point", "coordinates": [ 39.2629649, -6.8269907 ] } },
{ "type": "Feature", "properties": { "index": "13", "@osmId": "node/6398093624", "name": "Hazari Business Centre", "opening_hours": null, "label": "Marketplaces", "color": "#fe9929" }, "geometry": { "type": "Point", "coordinates": [ 39.2662738, -6.829035 ] } },
{ "type": "Feature", "properties": { "index": "14", "@osmId": "node/6400567429", "name": "Soko la Sambusa", "opening_hours": null, "label": "Marketplaces", "color": "#fe9929" }, "geometry": { "type": "Point", "coordinates": [ 39.2573657, -6.8201753 ] } },
{ "type": "Feature", "properties": { "index": "15", "@osmId": "node/6400567440", "name": "Mchikichini Market", "opening_hours": null, "label": "Marketplaces", "color": "#fe9929" }, "geometry": { "type": "Point", "coordinates": [ 39.2675068, -6.8252252 ] } },
{ "type": "Feature", "properties": { "index": "16", "@osmId": "node/6408763422", "name": "Mapambano Market", "opening_hours": null, "label": "Marketplaces", "color": "#fe9929" }, "geometry": { "type": "Point", "coordinates": [ 39.2491207, -6.8478798 ] } },
{ "type": "Feature", "properties": { "index": "17", "@osmId": "node/7615420419", "name": "DDC social hall", "opening_hours": null, "label": "Marketplaces", "color": "#fe9929" }, "geometry": { "type": "Point", "coordinates": [ 39.2736603, -6.8212843 ] } },
{ "type": "Feature", "properties": { "index": "18", "@osmId": "node/7615449194", "name": "Kariakoo Market Cooperation", "opening_hours": null, "label": "Marketplaces", "color": "#fe9929" }, "geometry": { "type": "Point", "coordinates": [ 39.2753032, -6.819286 ] } },
{ "type": "Feature", "properties": { "index": "19", "@osmId": "node/9277385391", "name": "Mshikamano Wapenda Maendeleo", "opening_hours": "Mo-Fr 08:00-18:00; Sa-Su 08:00-15:00", "label": "Marketplaces", "color": "#fe9929" }, "geometry": { "type": "Point", "coordinates": [ 39.2559528, -6.8161384 ] } },
{ "type": "Feature", "properties": { "index": "20", "@osmId": "node/1399532952", "name": "Genge la Vyakula", "opening_hours": "Mo-Su 08:30-22:00", "label": "Marketplaces", "color": "#fe9929" }, "geometry": { "type": "Point", "coordinates": [ 39.2480763, -6.7962943 ] } },
{ "type": "Feature", "properties": { "index": "21", "@osmId": "node/9277385392", "name": "Edeta Traders Company", "opening_hours": "Mo-Sa 08:00-18:00", "label": "Marketplaces", "color": "#fe9929" }, "geometry": { "type": "Point", "coordinates": [ 39.2723036, -6.8153074 ] } },
{ "type": "Feature", "properties": { "index": "22", "@osmId": "node/1401911320", "name": null, "opening_hours": null, "label": "Marketplaces", "color": "#fe9929" }, "geometry": { "type": "Point", "coordinates": [ 39.2443559, -6.792326 ] } },
{ "type": "Feature", "properties": { "index": "23", "@osmId": "node/1401911392", "name": null, "opening_hours": null, "label": "Marketplaces", "color": "#fe9929" }, "geometry": { "type": "Point", "coordinates": [ 39.2461218, -6.7935026 ] } },
{ "type": "Feature", "properties": { "index": "24", "@osmId": "node/1408260347", "name": null, "opening_hours": null, "label": "Marketplaces", "color": "#fe9929" }, "geometry": { "type": "Point", "coordinates": [ 39.2454066, -6.7949061 ] } },
{ "type": "Feature", "properties": { "index": "25", "@osmId": "node/9277385393", "name": "Glory", "opening_hours": "Mo-Sa 08:00-18:00", "label": "Marketplaces", "color": "#fe9929" }, "geometry": { "type": "Point", "coordinates": [ 39.2721319, -6.8235528 ] } },
{ "type": "Feature", "properties": { "index": "26", "@osmId": "node/3652616841", "name": "Kisiwani Market Place", "opening_hours": null, "label": "Marketplaces", "color": "#fe9929" }, "geometry": { "type": "Point", "coordinates": [ 39.2516604, -6.7940456 ] } },
{ "type": "Feature", "properties": { "index": "27", "@osmId": "node/9277385394", "name": null, "opening_hours": "Mo-Sa 08:00-18:00", "label": "Marketplaces", "color": "#fe9929" }, "geometry": { "type": "Point", "coordinates": [ 39.272792, -6.8155042 ] } },
{ "type": "Feature", "properties": { "index": "28", "@osmId": "node/3733091508", "name": null, "opening_hours": null, "label": "Marketplaces", "color": "#fe9929" }, "geometry": { "type": "Point", "coordinates": [ 39.2739028, -6.8061207 ] } },
{ "type": "Feature", "properties": { "index": "29", "@osmId": "node/9277385397", "name": null, "opening_hours": "Mo-Fr 08:00-18:00; Sa-Su 08:00-15:00", "label": "Marketplaces", "color": "#fe9929" }, "geometry": { "type": "Point", "coordinates": [ 39.2729044, -6.8222958 ] } },
{ "type": "Feature", "properties": { "index": "30", "@osmId": "node/6397955633", "name": "Kinondoni Market", "opening_hours": null, "label": "Marketplaces", "color": "#fe9929" }, "geometry": { "type": "Point", "coordinates": [ 39.2704916, -6.7909305 ] } },
{ "type": "Feature", "properties": { "index": "31", "@osmId": "node/9277385399", "name": null, "opening_hours": "Mo-Sa 08:00-18:00", "label": "Marketplaces", "color": "#fe9929" }, "geometry": { "type": "Point", "coordinates": [ 39.2721963, -6.8157123 ] } },
{ "type": "Feature", "properties": { "index": "32", "@osmId": "node/6400151414", "name": "Mtambani Market", "opening_hours": null, "label": "Marketplaces", "color": "#fe9929" }, "geometry": { "type": "Point", "coordinates": [ 39.2645183, -6.7877485 ] } },
{ "type": "Feature", "properties": { "index": "33", "@osmId": "node/9277385400", "name": "Karume", "opening_hours": "Mo-Sa 08:00-18:00", "label": "Marketplaces", "color": "#fe9929" }, "geometry": { "type": "Point", "coordinates": [ 39.265411, -6.826016 ] } },
{ "type": "Feature", "properties": { "index": "34", "@osmId": "node/6400259068", "name": "Fish Market", "opening_hours": null, "label": "Marketplaces", "color": "#fe9929" }, "geometry": { "type": "Point", "coordinates": [ 39.2614163, -6.807563 ] } },
{ "type": "Feature", "properties": { "index": "35", "@osmId": "node/6400359375", "name": "Kisiwani Market", "opening_hours": null, "label": "Marketplaces", "color": "#fe9929" }, "geometry": { "type": "Point", "coordinates": [ 39.2517778, -6.7941765 ] } },
{ "type": "Feature", "properties": { "index": "36", "@osmId": "way/370686226", "name": "Magomeni Market", "opening_hours": null, "label": "Marketplaces", "color": "#fe9929" }, "geometry": { "type": "Point", "coordinates": [ 39.2563184, -6.8074454 ] } },
{ "type": "Feature", "properties": { "index": "37", "@osmId": "node/9277385401", "name": "Halftone Graphics ltd", "opening_hours": "Mo-Sa 08:00-18:00", "label": "Marketplaces", "color": "#fe9929" }, "geometry": { "type": "Point", "coordinates": [ 39.2731632, -6.8159188 ] } },
{ "type": "Feature", "properties": { "index": "38", "@osmId": "node/6400555994", "name": "Kwa Mpera Market", "opening_hours": null, "label": "Marketplaces", "color": "#fe9929" }, "geometry": { "type": "Point", "coordinates": [ 39.2483705, -6.8065455 ] } },
{ "type": "Feature", "properties": { "index": "39", "@osmId": "node/9277385402", "name": null, "opening_hours": "Mo-Fr 08:00-18:00; Sa-Su 08:00-15:00", "label": "Marketplaces", "color": "#fe9929" }, "geometry": { "type": "Point", "coordinates": [ 39.2721748, -6.8225088 ] } },
{ "type": "Feature", "properties": { "index": "40", "@osmId": "node/6400556000", "name": "Kapera Market", "opening_hours": null, "label": "Marketplaces", "color": "#fe9929" }, "geometry": { "type": "Point", "coordinates": [ 39.2477242, -6.8060865 ] } },
{ "type": "Feature", "properties": { "index": "41", "@osmId": "way/460690721", "name": null, "opening_hours": null, "label": "Marketplaces", "color": "#fe9929" }, "geometry": { "type": "Point", "coordinates": [ 39.251207, -6.8009702 ] } },
{ "type": "Feature", "properties": { "index": "42", "@osmId": "node/7615426557", "name": null, "opening_hours": null, "label": "Marketplaces", "color": "#fe9929" }, "geometry": { "type": "Point", "coordinates": [ 39.2670547, -6.7959802 ] } },
{ "type": "Feature", "properties": { "index": "43", "@osmId": "node/9277385403", "name": null, "opening_hours": null, "label": "Marketplaces", "color": "#fe9929" }, "geometry": { "type": "Point", "coordinates": [ 39.2727327, -6.8233824 ] } },
{ "type": "Feature", "properties": { "index": "44", "@osmId": "node/7615522356", "name": null, "opening_hours": null, "label": "Marketplaces", "color": "#fe9929" }, "geometry": { "type": "Point", "coordinates": [ 39.2517105, -6.8008866 ] } },
{ "type": "Feature", "properties": { "index": "45", "@osmId": "node/9277385406", "name": "Chinese Truck Parts", "opening_hours": "Mo-Su 09:00-21:00", "label": "Marketplaces", "color": "#fe9929" }, "geometry": { "type": "Point", "coordinates": [ 39.2764235, -6.8156057 ] } },
{ "type": "Feature", "properties": { "index": "46", "@osmId": "node/9274610864", "name": "Mkunguni Market", "opening_hours": null, "label": "Marketplaces", "color": "#fe9929" }, "geometry": { "type": "Point", "coordinates": [ 39.2712719, -6.7923919 ] } },
{ "type": "Feature", "properties": { "index": "47", "@osmId": "node/9277385407", "name": "Moki Hotel", "opening_hours": "Mo-Sa 08:00-18:00", "label": "Marketplaces", "color": "#fe9929" }, "geometry": { "type": "Point", "coordinates": [ 39.2730143, -6.8181484 ] } },
{ "type": "Feature", "properties": { "index": "48", "@osmId": "node/9277385408", "name": "Japan Motorcycle Spare Parts", "opening_hours": "Mo-Sa 09:00-20:00", "label": "Marketplaces", "color": "#fe9929" }, "geometry": { "type": "Point", "coordinates": [ 39.2733911, -6.8168083 ] } },
{ "type": "Feature", "properties": { "index": "49", "@osmId": "node/9277385395", "name": null, "opening_hours": "Mo-Sa 08:00-18:00", "label": "Marketplaces", "color": "#fe9929" }, "geometry": { "type": "Point", "coordinates": [ 39.2602873, -6.8076798 ] } },
{ "type": "Feature", "properties": { "index": "50", "@osmId": "node/9277385409", "name": "Excellent", "opening_hours": null, "label": "Marketplaces", "color": "#fe9929" }, "geometry": { "type": "Point", "coordinates": [ 39.2729473, -6.8232971 ] } },
{ "type": "Feature", "properties": { "index": "51", "@osmId": "node/9277385410", "name": null, "opening_hours": "Mo-Sa 08:00-18:00", "label": "Marketplaces", "color": "#fe9929" }, "geometry": { "type": "Point", "coordinates": [ 39.2528629, -6.8167563 ] } },
{ "type": "Feature", "properties": { "index": "52", "@osmId": "node/9277385412", "name": null, "opening_hours": "Mo-Sa 08:00-18:00", "label": "Marketplaces", "color": "#fe9929" }, "geometry": { "type": "Point", "coordinates": [ 39.2760587, -6.8128786 ] } },
{ "type": "Feature", "properties": { "index": "53", "@osmId": "node/9277385414", "name": "Saede Stationary", "opening_hours": "Mo-Sa 08:00-18:00", "label": "Marketplaces", "color": "#fe9929" }, "geometry": { "type": "Point", "coordinates": [ 39.2726684, -6.8152435 ] } },
{ "type": "Feature", "properties": { "index": "54", "@osmId": "node/9277385415", "name": "Moju Barber", "opening_hours": "Mo-Sa 08:00-18:00", "label": "Marketplaces", "color": "#fe9929" }, "geometry": { "type": "Point", "coordinates": [ 39.272368, -6.8234676 ] } },
{ "type": "Feature", "properties": { "index": "55", "@osmId": "node/9277391017", "name": null, "opening_hours": "Mo-Sa 08:00-18:00", "label": "Marketplaces", "color": "#fe9929" }, "geometry": { "type": "Point", "coordinates": [ 39.2529917, -6.8167563 ] } },
{ "type": "Feature", "properties": { "index": "56", "@osmId": "node/9277385396", "name": null, "opening_hours": "Mo-Sa 08:00-18:00", "label": "Marketplaces", "color": "#fe9929" }, "geometry": { "type": "Point", "coordinates": [ 39.2604321, -6.807113 ] } },
{ "type": "Feature", "properties": { "index": "57", "@osmId": "node/9277391019", "name": "Kumoh Diesel Parts", "opening_hours": "Mo-Su 09:00-21:00", "label": "Marketplaces", "color": "#fe9929" }, "geometry": { "type": "Point", "coordinates": [ 39.2751789, -6.8156483 ] } },
{ "type": "Feature", "properties": { "index": "58", "@osmId": "node/9277385398", "name": null, "opening_hours": "Mo-Sa 08:00-18:00", "label": "Marketplaces", "color": "#fe9929" }, "geometry": { "type": "Point", "coordinates": [ 39.2608079, -6.8061772 ] } },
{ "type": "Feature", "properties": { "index": "59", "@osmId": "node/9277391020", "name": null, "opening_hours": "Mo-Su 09:00-21:00;24/7", "label": "Marketplaces", "color": "#fe9929" }, "geometry": { "type": "Point", "coordinates": [ 39.2775515, -6.8152645 ] } },
{ "type": "Feature", "properties": { "index": "60", "@osmId": "node/9277391024", "name": "Yule Yule Agencies", "opening_hours": "Mo-Sa 09:00-20:00", "label": "Marketplaces", "color": "#fe9929" }, "geometry": { "type": "Point", "coordinates": [ 39.2739129, -6.8181411 ] } },
{ "type": "Feature", "properties": { "index": "61", "@osmId": "node/9277385405", "name": "Bosco Mchaga Cosmetic", "opening_hours": "Mo-Su 09:00-21:00;Mo-Fr 09:00-17:00", "label": "Marketplaces", "color": "#fe9929" }, "geometry": { "type": "Point", "coordinates": [ 39.2589784, -6.8030137 ] } },
{ "type": "Feature", "properties": { "index": "62", "@osmId": "node/9277391026", "name": null, "opening_hours": "Mo-Fr 08:00-18:00; Sa-Su 08:00-15:00", "label": "Marketplaces", "color": "#fe9929" }, "geometry": { "type": "Point", "coordinates": [ 39.2617893, -6.821124 ] } },
{ "type": "Feature", "properties": { "index": "63", "@osmId": "node/9277385411", "name": null, "opening_hours": "Mo-Sa 09:00-20:00", "label": "Marketplaces", "color": "#fe9929" }, "geometry": { "type": "Point", "coordinates": [ 39.2738056, -6.8055918 ] } },
{ "type": "Feature", "properties": { "index": "64", "@osmId": "node/9277391027", "name": "Zantel Shop", "opening_hours": "Mo-Sa 09:00-20:00", "label": "Marketplaces", "color": "#fe9929" }, "geometry": { "type": "Point", "coordinates": [ 39.2797567, -6.8161099 ] } },
{ "type": "Feature", "properties": { "index": "65", "@osmId": "node/9277391028", "name": null, "opening_hours": "Mo-Sa 08:00-18:00", "label": "Marketplaces", "color": "#fe9929" }, "geometry": { "type": "Point", "coordinates": [ 39.252069, -6.8168841 ] } },
{ "type": "Feature", "properties": { "index": "66", "@osmId": "node/9277391029", "name": null, "opening_hours": "Mo-Fr 08:00-18:00; Sa-Su 08:00-15:00", "label": "Marketplaces", "color": "#fe9929" }, "geometry": { "type": "Point", "coordinates": [ 39.272718, -6.821879 ] } },
{ "type": "Feature", "properties": { "index": "67", "@osmId": "node/9277391030", "name": null, "opening_hours": "Mo-Sa 08:00-18:00", "label": "Marketplaces", "color": "#fe9929" }, "geometry": { "type": "Point", "coordinates": [ 39.2538285, -6.8165645 ] } },
{ "type": "Feature", "properties": { "index": "68", "@osmId": "node/9277391032", "name": null, "opening_hours": "Mo-Su 09:00-21:00", "label": "Marketplaces", "color": "#fe9929" }, "geometry": { "type": "Point", "coordinates": [ 39.2713165, -6.8226154 ] } },
{ "type": "Feature", "properties": { "index": "69", "@osmId": "node/9277391033", "name": null, "opening_hours": "Mo-Sa 08:00-18:00", "label": "Marketplaces", "color": "#fe9929" }, "geometry": { "type": "Point", "coordinates": [ 39.2523909, -6.8168415 ] } },
{ "type": "Feature", "properties": { "index": "70", "@osmId": "node/9277385413", "name": null, "opening_hours": "Mo-Su 09:00-21:00", "label": "Marketplaces", "color": "#fe9929" }, "geometry": { "type": "Point", "coordinates": [ 39.2642569, -6.7965047 ] } },
{ "type": "Feature", "properties": { "index": "71", "@osmId": "node/9277391034", "name": "Utomost Investment", "opening_hours": "Mo-Sa 08:00-18:00", "label": "Marketplaces", "color": "#fe9929" }, "geometry": { "type": "Point", "coordinates": [ 39.272325, -6.815904 ] } },
{ "type": "Feature", "properties": { "index": "72", "@osmId": "node/9277385416", "name": null, "opening_hours": "Mo-Sa 08:00-18:00", "label": "Marketplaces", "color": "#fe9929" }, "geometry": { "type": "Point", "coordinates": [ 39.264257, -6.800606 ] } },
{ "type": "Feature", "properties": { "index": "73", "@osmId": "node/9277391018", "name": null, "opening_hours": "Mo-Sa 08:00-18:00", "label": "Marketplaces", "color": "#fe9929" }, "geometry": { "type": "Point", "coordinates": [ 39.2748356, -6.8062097 ] } },
{ "type": "Feature", "properties": { "index": "74", "@osmId": "node/9277391021", "name": null, "opening_hours": "Mo-Sa 09:00-20:00", "label": "Marketplaces", "color": "#fe9929" }, "geometry": { "type": "Point", "coordinates": [ 39.2603087, -6.8075946 ] } },
{ "type": "Feature", "properties": { "index": "75", "@osmId": "node/9277391022", "name": "Guo", "opening_hours": "Mo-Sa 09:00-17:00", "label": "Marketplaces", "color": "#fe9929" }, "geometry": { "type": "Point", "coordinates": [ 39.26029, -6.8107585 ] } },
{ "type": "Feature", "properties": { "index": "76", "@osmId": "node/9277391035", "name": "Khadija Auto Parts", "opening_hours": "Mo-Sa 09:00-17:00", "label": "Marketplaces", "color": "#fe9929" }, "geometry": { "type": "Point", "coordinates": [ 39.2736554, -6.8176298 ] } },
{ "type": "Feature", "properties": { "index": "77", "@osmId": "node/9277391023", "name": null, "opening_hours": "24/7", "label": "Marketplaces", "color": "#fe9929" }, "geometry": { "type": "Point", "coordinates": [ 39.2561701, -6.8078609 ] } },
{ "type": "Feature", "properties": { "index": "78", "@osmId": "node/9277391039", "name": "Ally's Tyre", "opening_hours": "Mo-Sa 08:00-18:00", "label": "Marketplaces", "color": "#fe9929" }, "geometry": { "type": "Point", "coordinates": [ 39.2727456, -6.8151702 ] } },
{ "type": "Feature", "properties": { "index": "79", "@osmId": "node/9277391040", "name": "Sanyiwa", "opening_hours": "Mo-Fr 08:00-18:00; Sa-Su 08:00-15:00", "label": "Marketplaces", "color": "#fe9929" }, "geometry": { "type": "Point", "coordinates": [ 39.272325, -6.8224662 ] } },
{ "type": "Feature", "properties": { "index": "80", "@osmId": "node/9277391025", "name": "Bin Anzuwany", "opening_hours": "Mo-Sa 08:00-18:00", "label": "Marketplaces", "color": "#fe9929" }, "geometry": { "type": "Point", "coordinates": [ 39.260805, -6.8093949 ] } },
{ "type": "Feature", "properties": { "index": "81", "@osmId": "node/9277391031", "name": null, "opening_hours": "Mo-Su 09:00-21:00;Mo-Sa 08:00-18:00", "label": "Marketplaces", "color": "#fe9929" }, "geometry": { "type": "Point", "coordinates": [ 39.266746, -6.7903148 ] } },
{ "type": "Feature", "properties": { "index": "82", "@osmId": "node/9277391041", "name": "Nikon", "opening_hours": "Mo-Fr 08:00-18:00; Sa-Su 08:00-15:00", "label": "Marketplaces", "color": "#fe9929" }, "geometry": { "type": "Point", "coordinates": [ 39.2730331, -6.8222319 ] } },
{ "type": "Feature", "properties": { "index": "83", "@osmId": "node/9277391042", "name": null, "opening_hours": "Mo-Sa 08:00-18:00", "label": "Marketplaces", "color": "#fe9929" }, "geometry": { "type": "Point", "coordinates": [ 39.2527342, -6.8167989 ] } },
{ "type": "Feature", "properties": { "index": "84", "@osmId": "node/9277391038", "name": null, "opening_hours": null, "label": "Marketplaces", "color": "#fe9929" }, "geometry": { "type": "Point", "coordinates": [ 39.2771745, -6.8089582 ] } },
{ "type": "Feature", "properties": { "index": "85", "@osmId": "node/9277391043", "name": null, "opening_hours": "Mo-Sa 08:00-18:00", "label": "Marketplaces", "color": "#fe9929" }, "geometry": { "type": "Point", "coordinates": [ 39.2582641, -6.8216859 ] } },
{ "type": "Feature", "properties": { "index": "86", "@osmId": "node/9277391045", "name": null, "opening_hours": "Mo-Sa 08:00-18:00", "label": "Marketplaces", "color": "#fe9929" }, "geometry": { "type": "Point", "coordinates": [ 39.2600513, -6.8217205 ] } },
{ "type": "Feature", "properties": { "index": "87", "@osmId": "node/9277391044", "name": null, "opening_hours": "Mo-Sa 08:00-18:00", "label": "Marketplaces", "color": "#fe9929" }, "geometry": { "type": "Point", "coordinates": [ 39.2601156, -6.8074028 ] } },
{ "type": "Feature", "properties": { "index": "88", "@osmId": "node/9277391047", "name": "London", "opening_hours": null, "label": "Marketplaces", "color": "#fe9929" }, "geometry": { "type": "Point", "coordinates": [ 39.271853, -6.8233398 ] } },
{ "type": "Feature", "properties": { "index": "89", "@osmId": "node/9277391046", "name": "Sabra Mummy", "opening_hours": "Mo-Sa 08:00-18:00", "label": "Marketplaces", "color": "#fe9929" }, "geometry": { "type": "Point", "coordinates": [ 39.2590669, -6.810162 ] } },
{ "type": "Feature", "properties": { "index": "90", "@osmId": "node/9277391051", "name": null, "opening_hours": "Mo-Sa 08:00-18:00", "label": "Marketplaces", "color": "#fe9929" }, "geometry": { "type": "Point", "coordinates": [ 39.2607384, -6.8064418 ] } },
{ "type": "Feature", "properties": { "index": "91", "@osmId": "node/9277391048", "name": null, "opening_hours": "Mo-Sa 08:00-18:00", "label": "Marketplaces", "color": "#fe9929" }, "geometry": { "type": "Point", "coordinates": [ 39.2731404, -6.8146043 ] } },
{ "type": "Feature", "properties": { "index": "92", "@osmId": "node/9277391054", "name": "Mem Bookers", "opening_hours": "Mo-Sa 08:00-18:00", "label": "Marketplaces", "color": "#fe9929" }, "geometry": { "type": "Point", "coordinates": [ 39.2599978, -6.8077104 ] } },
{ "type": "Feature", "properties": { "index": "93", "@osmId": "node/9277391049", "name": null, "opening_hours": null, "label": "Marketplaces", "color": "#fe9929" }, "geometry": { "type": "Point", "coordinates": [ 39.2732906, -6.8230202 ] } },
{ "type": "Feature", "properties": { "index": "94", "@osmId": "node/9277391055", "name": null, "opening_hours": "Mo-Fr 08:00-18:00;Sa-Su 08:00-15:00;Mo-Sa 08:00-18:00", "label": "Marketplaces", "color": "#fe9929" }, "geometry": { "type": "Point", "coordinates": [ 39.2643428, -6.7971757 ] } },
{ "type": "Feature", "properties": { "index": "95", "@osmId": "node/9277391050", "name": "Fs Water Centre ltd", "opening_hours": "Mo-Sa 08:00-18:00", "label": "Marketplaces", "color": "#fe9929" }, "geometry": { "type": "Point", "coordinates": [ 39.2737842, -6.818546 ] } },
{ "type": "Feature", "properties": { "index": "96", "@osmId": "node/9277391052", "name": null, "opening_hours": "Mo-Sa 08:00-18:00", "label": "Marketplaces", "color": "#fe9929" }, "geometry": { "type": "Point", "coordinates": [ 39.2525625, -6.8167989 ] } },
{ "type": "Feature", "properties": { "index": "97", "@osmId": "node/9277391057", "name": null, "opening_hours": "Mo-Sa 08:00-18:00", "label": "Marketplaces", "color": "#fe9929" }, "geometry": { "type": "Point", "coordinates": [ 39.2603087, -6.807829 ] } },
{ "type": "Feature", "properties": { "index": "98", "@osmId": "node/9277391053", "name": "bass transport", "opening_hours": "Mo-Sa 08:00-18:00", "label": "Marketplaces", "color": "#fe9929" }, "geometry": { "type": "Point", "coordinates": [ 39.2730472, -6.8164256 ] } },
{ "type": "Feature", "properties": { "index": "99", "@osmId": "node/9277391063", "name": null, "opening_hours": "Mo-Sa 08:00-18:00", "label": "Marketplaces", "color": "#fe9929" }, "geometry": { "type": "Point", "coordinates": [ 39.2599654, -6.8072111 ] } },
{ "type": "Feature", "properties": { "index": "100", "@osmId": "node/9277391056", "name": "Carpentery", "opening_hours": "Mo-Sa 09:00-17:00", "label": "Marketplaces", "color": "#fe9929" }, "geometry": { "type": "Point", "coordinates": [ 39.2512466, -6.8163091 ] } },
{ "type": "Feature", "properties": { "index": "101", "@osmId": "node/9277391058", "name": null, "opening_hours": "Mo-Fr 08:00-18:00; Sa-Su 08:00-15:00", "label": "Marketplaces", "color": "#fe9929" }, "geometry": { "type": "Point", "coordinates": [ 39.2724752, -6.8222106 ] } },
{ "type": "Feature", "properties": { "index": "102", "@osmId": "node/9277391066", "name": null, "opening_hours": "Mo-Su 09:00-21:00", "label": "Marketplaces", "color": "#fe9929" }, "geometry": { "type": "Point", "coordinates": [ 39.2638707, -6.8084255 ] } },
{ "type": "Feature", "properties": { "index": "103", "@osmId": "node/9277391059", "name": null, "opening_hours": "Mo-Sa 08:00-18:00", "label": "Marketplaces", "color": "#fe9929" }, "geometry": { "type": "Point", "coordinates": [ 39.2541075, -6.8165432 ] } },
{ "type": "Feature", "properties": { "index": "104", "@osmId": "node/9277391060", "name": null, "opening_hours": "Mo-Sa 08:00-18:00", "label": "Marketplaces", "color": "#fe9929" }, "geometry": { "type": "Point", "coordinates": [ 39.2535496, -6.8166284 ] } },
{ "type": "Feature", "properties": { "index": "105", "@osmId": "node/9277391061", "name": null, "opening_hours": "Mo-Su 09:00-21:00", "label": "Marketplaces", "color": "#fe9929" }, "geometry": { "type": "Point", "coordinates": [ 39.2506957, -6.8163727 ] } },
{ "type": "Feature", "properties": { "index": "106", "@osmId": "node/9277391068", "name": null, "opening_hours": "Mo-Fr 08:00-18:00; Sa-Su 08:00-15:00", "label": "Marketplaces", "color": "#fe9929" }, "geometry": { "type": "Point", "coordinates": [ 39.2654371, -6.7985606 ] } },
{ "type": "Feature", "properties": { "index": "107", "@osmId": "node/9277391062", "name": null, "opening_hours": "Mo-Sa 08:00-18:00", "label": "Marketplaces", "color": "#fe9929" }, "geometry": { "type": "Point", "coordinates": [ 39.2530346, -6.8167563 ] } },
{ "type": "Feature", "properties": { "index": "108", "@osmId": "node/9277391064", "name": "dulla and Pius Tyres", "opening_hours": "Mo-Sa 08:00-18:00", "label": "Marketplaces", "color": "#fe9929" }, "geometry": { "type": "Point", "coordinates": [ 39.2728152, -6.8151587 ] } },
{ "type": "Feature", "properties": { "index": "109", "@osmId": "node/9277391070", "name": null, "opening_hours": "Mo-Sa 09:00-17:00", "label": "Marketplaces", "color": "#fe9929" }, "geometry": { "type": "Point", "coordinates": [ 39.2664886, -6.7940862 ] } },
{ "type": "Feature", "properties": { "index": "110", "@osmId": "node/9277391065", "name": null, "opening_hours": "Mo-Fr 08:00-18:00; Sa-Su 08:00-15:00", "label": "Marketplaces", "color": "#fe9929" }, "geometry": { "type": "Point", "coordinates": [ 39.2723465, -6.8219336 ] } },
{ "type": "Feature", "properties": { "index": "111", "@osmId": "node/9277391067", "name": "Plotter Cutter", "opening_hours": "Mo-Sa 08:00-18:00", "label": "Marketplaces", "color": "#fe9929" }, "geometry": { "type": "Point", "coordinates": [ 39.2726296, -6.8157576 ] } },
{ "type": "Feature", "properties": { "index": "112", "@osmId": "node/9277391071", "name": "Mchina", "opening_hours": "Mo-Su 09:00-21:00;Mo-Sa 08:00-18:00", "label": "Marketplaces", "color": "#fe9929" }, "geometry": { "type": "Point", "coordinates": [ 39.2752373, -6.8055319 ] } },
{ "type": "Feature", "properties": { "index": "113", "@osmId": "node/9277391069", "name": null, "opening_hours": "Mo-Sa 08:00-18:00", "label": "Marketplaces", "color": "#fe9929" }, "geometry": { "type": "Point", "coordinates": [ 39.2711663, -6.8165219 ] } },
{ "type": "Feature", "properties": { "index": "114", "@osmId": "way/346493246", "name": null, "opening_hours": null, "label": "Marketplaces", "color": "#fe9929" }, "geometry": { "type": "Point", "coordinates": [ 39.2383528, -6.7910014 ] } },
{ "type": "Feature", "properties": { "index": "115", "@osmId": "way/370752505", "name": "Manzese Market", "opening_hours": null, "label": "Marketplaces", "color": "#fe9929" }, "geometry": { "type": "Point", "coordinates": [ 39.234673, -6.8011816 ] } },
{ "type": "Feature", "properties": { "index": "116", "@osmId": "way/376346113", "name": "Big Brother", "opening_hours": null, "label": "Marketplaces", "color": "#fe9929" }, "geometry": { "type": "Point", "coordinates": [ 39.2255584, -6.7968415 ] } },
{ "type": "Feature", "properties": { "index": "117", "@osmId": "way/450055577", "name": "Urafiki Market", "opening_hours": null, "label": "Marketplaces", "color": "#fe9929" }, "geometry": { "type": "Point", "coordinates": [ 39.2244697, -6.8007461 ] } },
{ "type": "Feature", "properties": { "index": "118", "@osmId": "way/670176769", "name": "Gamex", "opening_hours": null, "label": "Marketplaces", "color": "#fe9929" }, "geometry": { "type": "Point", "coordinates": [ 39.2238133, -6.8058907 ] } },
{ "type": "Feature", "properties": { "index": "119", "@osmId": "node/1401911322", "name": null, "opening_hours": null, "label": "Marketplaces", "color": "#fe9929" }, "geometry": { "type": "Point", "coordinates": [ 39.2430639, -6.7925375 ] } },
{ "type": "Feature", "properties": { "index": "120", "@osmId": "node/1401932232", "name": "Genge", "opening_hours": null, "label": "Marketplaces", "color": "#fe9929" }, "geometry": { "type": "Point", "coordinates": [ 39.2425619, -6.7927425 ] } },
{ "type": "Feature", "properties": { "index": "121", "@osmId": "node/3121880129", "name": null, "opening_hours": null, "label": "Marketplaces", "color": "#fe9929" }, "geometry": { "type": "Point", "coordinates": [ 39.2994803, -6.8185398 ] } },
{ "type": "Feature", "properties": { "index": "122", "@osmId": "node/3446148877", "name": "Tandale Market", "opening_hours": null, "label": "Marketplaces", "color": "#fe9929" }, "geometry": { "type": "Point", "coordinates": [ 39.2374625, -6.7993016 ] } },
{ "type": "Feature", "properties": { "index": "123", "@osmId": "node/3662764374", "name": "Mbrahati Market", "opening_hours": null, "label": "Marketplaces", "color": "#fe9929" }, "geometry": { "type": "Point", "coordinates": [ 39.2385411, -6.8097483 ] } },
{ "type": "Feature", "properties": { "index": "124", "@osmId": "node/3670686228", "name": null, "opening_hours": null, "label": "Marketplaces", "color": "#fe9929" }, "geometry": { "type": "Point", "coordinates": [ 39.2374233, -6.8056498 ] } },
{ "type": "Feature", "properties": { "index": "125", "@osmId": "node/3670794014", "name": null, "opening_hours": null, "label": "Marketplaces", "color": "#fe9929" }, "geometry": { "type": "Point", "coordinates": [ 39.2374277, -6.8055319 ] } },
{ "type": "Feature", "properties": { "index": "126", "@osmId": "node/3670794017", "name": null, "opening_hours": null, "label": "Marketplaces", "color": "#fe9929" }, "geometry": { "type": "Point", "coordinates": [ 39.237522, -6.8055678 ] } },
{ "type": "Feature", "properties": { "index": "127", "@osmId": "node/3670835206", "name": null, "opening_hours": null, "label": "Marketplaces", "color": "#fe9929" }, "geometry": { "type": "Point", "coordinates": [ 39.238219, -6.8043059 ] } },
{ "type": "Feature", "properties": { "index": "128", "@osmId": "node/3722703047", "name": null, "opening_hours": null, "label": "Marketplaces", "color": "#fe9929" }, "geometry": { "type": "Point", "coordinates": [ 39.2406311, -6.8392058 ] } },
{ "type": "Feature", "properties": { "index": "129", "@osmId": "node/3794126525", "name": null, "opening_hours": null, "label": "Marketplaces", "color": "#fe9929" }, "geometry": { "type": "Point", "coordinates": [ 39.2216481, -6.8382876 ] } },
{ "type": "Feature", "properties": { "index": "130", "@osmId": "node/5163149471", "name": null, "opening_hours": "Mo-Sa 09:00-20:00", "label": "Marketplaces", "color": "#fe9929" }, "geometry": { "type": "Point", "coordinates": [ 39.2230729, -6.786256 ] } },
{ "type": "Feature", "properties": { "index": "131", "@osmId": "node/5163149513", "name": null, "opening_hours": "Mo-Su 09:00-21:00", "label": "Marketplaces", "color": "#fe9929" }, "geometry": { "type": "Point", "coordinates": [ 39.2204866, -6.7868745 ] } },
{ "type": "Feature", "properties": { "index": "132", "@osmId": "node/6072487205", "name": null, "opening_hours": "Mo-Fr 08:00-18:00; Sa-Su 08:00-15:00", "label": "Marketplaces", "color": "#fe9929" }, "geometry": { "type": "Point", "coordinates": [ 39.226932, -6.8314747 ] } },
{ "type": "Feature", "properties": { "index": "133", "@osmId": "node/6072487257", "name": "Zai Hair Dressing Saloon", "opening_hours": "Mo-Fr 08:00-18:00; Sa-Su 08:00-15:00", "label": "Marketplaces", "color": "#fe9929" }, "geometry": { "type": "Point", "coordinates": [ 39.2268248, -6.8346545 ] } },
{ "type": "Feature", "properties": { "index": "134", "@osmId": "node/6072512953", "name": "Zai Hair Dressing Saloon", "opening_hours": "Mo-Fr 08:00-18:00; Sa-Su 08:00-15:00", "label": "Marketplaces", "color": "#fe9929" }, "geometry": { "type": "Point", "coordinates": [ 39.2268022, -6.8346653 ] } },
{ "type": "Feature", "properties": { "index": "135", "@osmId": "node/6285447608", "name": null, "opening_hours": "Mo-Sa 09:00-21:00", "label": "Marketplaces", "color": "#fe9929" }, "geometry": { "type": "Point", "coordinates": [ 39.2387868, -6.7837054 ] } },
{ "type": "Feature", "properties": { "index": "136", "@osmId": "node/6398244786", "name": "Alimaua B Market", "opening_hours": null, "label": "Marketplaces", "color": "#fe9929" }, "geometry": { "type": "Point", "coordinates": [ 39.2360601, -6.786269 ] } },
{ "type": "Feature", "properties": { "index": "137", "@osmId": "node/6400287183", "name": "Magenge mengi market", "opening_hours": null, "label": "Marketplaces", "color": "#fe9929" }, "geometry": { "type": "Point", "coordinates": [ 39.2396862, -6.8205423 ] } },
{ "type": "Feature", "properties": { "index": "138", "@osmId": "node/6400556038", "name": "Kagera Market", "opening_hours": null, "label": "Marketplaces", "color": "#fe9929" }, "geometry": { "type": "Point", "coordinates": [ 39.2414027, -6.8017831 ] } },
{ "type": "Feature", "properties": { "index": "139", "@osmId": "node/6406752436", "name": "Tabata Tenge Market", "opening_hours": null, "label": "Marketplaces", "color": "#fe9929" }, "geometry": { "type": "Point", "coordinates": [ 39.2235322, -6.8301794 ] } },
{ "type": "Feature", "properties": { "index": "140", "@osmId": "node/6406787738", "name": "cereal market", "opening_hours": null, "label": "Marketplaces", "color": "#fe9929" }, "geometry": { "type": "Point", "coordinates": [ 39.2396093, -6.7967262 ] } },
{ "type": "Feature", "properties": { "index": "141", "@osmId": "node/6408617593", "name": "Ogelea market", "opening_hours": null, "label": "Marketplaces", "color": "#fe9929" }, "geometry": { "type": "Point", "coordinates": [ 39.2258516, -6.8475339 ] } },
{ "type": "Feature", "properties": { "index": "142", "@osmId": "node/6408617612", "name": "Kwa Simba Market", "opening_hours": null, "label": "Marketplaces", "color": "#fe9929" }, "geometry": { "type": "Point", "coordinates": [ 39.2328201, -6.8431558 ] } },
{ "type": "Feature", "properties": { "index": "143", "@osmId": "node/7615384464", "name": "Sokoni Kwa Simba", "opening_hours": null, "label": "Marketplaces", "color": "#fe9929" }, "geometry": { "type": "Point", "coordinates": [ 39.2325655, -6.8431683 ] } },
{ "type": "Feature", "properties": { "index": "144", "@osmId": "node/7615390083", "name": "Mburahati Market", "opening_hours": null, "label": "Marketplaces", "color": "#fe9929" }, "geometry": { "type": "Point", "coordinates": [ 39.2382297, -6.8099568 ] } },
{ "type": "Feature", "properties": { "index": "145", "@osmId": "node/7615390084", "name": null, "opening_hours": null, "label": "Marketplaces", "color": "#fe9929" }, "geometry": { "type": "Point", "coordinates": [ 39.2355395, -6.8156508 ] } },
{ "type": "Feature", "properties": { "index": "146", "@osmId": "node/7615437188", "name": "Faru Market", "opening_hours": null, "label": "Marketplaces", "color": "#fe9929" }, "geometry": { "type": "Point", "coordinates": [ 39.2383365, -6.8426753 ] } }
]
}
