{
"type": "FeatureCollection",
"features": [
{ "type": "Feature", "properties": { "index": "0", "label": "Within 1500 m by bike", "color": "#2b8cbe" }, "geometry": { "type": "Polygon", "coordinates": [ [ [ 39.2800847, -6.7813304 ], [ 39.2790972, -6.7804367 ], [ 39.2785091, -6.7800013 ], [ 39.22, -6.78 ], [ 39.22, -6.85 ], [ 39.2625141, -6.8500017 ], [ 39.2626322, -6.8492026 ], [ 39.2626717, -6.8483915 ], [ 39.2633247, -6.8491108 ], [ 39.2643092, -6.8500016 ], [ 39.281529, -6.8500012 ], [ 39.2815377, -6.8499947 ], [ 39.2825244, -6.8490999 ], [ 39.2834185, -6.8481127 ], [ 39.2842115, -6.8470427 ], [ 39.2848958, -6.8459002 ], [ 39.2854647, -6.8446961 ], [ 39.2859128, -6.8434421 ], [ 39.2862357, -6.8421502 ], [ 39.2864305, -6.8408329 ], [ 39.286495, -6.8395029 ], [ 39.2864289, -6.838173 ], [ 39.2862326, -6.8368559 ], [ 39.2859081, -6.8355644 ], [ 39.2854585, -6.8343109 ], [ 39.2848882, -6.8331075 ], [ 39.2842026, -6.8319658 ], [ 39.2838684, -6.8315159 ], [ 39.2845826, -6.8305521 ], [ 39.2848645, -6.8300815 ], [ 39.2856056, -6.829816 ], [ 39.2868096, -6.8292459 ], [ 39.2879519, -6.8285607 ], [ 39.2890215, -6.8277668 ], [ 39.2893101, -6.827505 ], [ 39.2898869, -6.8281403 ], [ 39.2908745, -6.8290339 ], [ 39.2919451, -6.8298265 ], [ 39.2930882, -6.8305104 ], [ 39.2942929, -6.831079 ], [ 39.2955476, -6.8315268 ], [ 39.2968401, -6.8318496 ], [ 39.298158, -6.8320441 ], [ 39.2994887, -6.8321087 ], [ 39.3, -6.8320832 ], [ 39.2999999, -6.8049965 ], [ 39.2994719, -6.8049709 ], [ 39.2981413, -6.8050371 ], [ 39.2968237, -6.8052333 ], [ 39.2955316, -6.8055576 ], [ 39.2942776, -6.806007 ], [ 39.2930737, -6.806577 ], [ 39.2919314, -6.8072623 ], [ 39.2908619, -6.8080562 ], [ 39.2907423, -6.8081646 ], [ 39.2907082, -6.8081187 ], [ 39.2906834, -6.8076203 ], [ 39.2904871, -6.8063032 ], [ 39.2901627, -6.8050117 ], [ 39.2897131, -6.8037583 ], [ 39.2891428, -6.8025549 ], [ 39.2884573, -6.8014131 ], [ 39.2878895, -6.8006489 ], [ 39.2877758, -6.800332 ], [ 39.2872056, -6.7991286 ], [ 39.28652, -6.7979869 ], [ 39.2857258, -6.7969178 ], [ 39.2848306, -6.7959317 ], [ 39.2844486, -6.795586 ], [ 39.2845872, -6.7950314 ], [ 39.2847819, -6.7937141 ], [ 39.2848465, -6.7923841 ], [ 39.2847804, -6.7910542 ], [ 39.2845841, -6.7897371 ], [ 39.2842597, -6.7884456 ], [ 39.2838102, -6.7871921 ], [ 39.2832399, -6.7859887 ], [ 39.2828232, -6.7852947 ], [ 39.2824596, -6.7845273 ], [ 39.2817741, -6.7833856 ], [ 39.2809799, -6.7823165 ], [ 39.2800847, -6.7813304 ] ] ] } },
{ "type": "Feature", "properties": { "index": "1", "label": "Beyond 1500 m", "color": "#d9d9d9" }, "geometry": { "type": "MultiPolygon", "coordinates": [ [ [ [ 39.2626322, -6.8492026 ], [ 39.2625141, -6.8500017 ], [ 39.2643092, -6.8500016 ], [ 39.2633247, -6.8491108 ], [ 39.2626717, -6.8483915 ], [ 39.2626322, -6.8492026 ] ] ], [ [ [ 39.2842115, -6.8470427 ], [ 39.2834185, -6.8481127 ], [ 39.2825244, -6.8490999 ], [ 39.2815377, -6.8499947 ], [ 39.281529, -6.8500012 ], [ 39.3, -6.85 ], [ 39.3, -6.8320832 ], [ 39.2994887, -6.8321087 ], [ 39.298158, -6.8320441 ], [ 39.2968401, -6.8318496 ], [ 39.2955476, -6.8315268 ], [ 39.2942929, -6.831079 ], [ 39.2930882, -6.8305104 ], [ 39.2919451, -6.8298265 ], [ 39.2908745, -6.8290339 ], [ 39.2898869, -6.8281403 ], [ 39.2893101, -6.827505 ], [ 39.2890215, -6.8277668 ], [ 39.2879519, -6.8285607 ], [ 39.2868096, -6.8292459 ], [ 39.2856056, -6.829816 ], [ 39.2848645, -6.8300815 ], [ 39.2845826, -6.8305521 ], [ 39.2838684, -6.8315159 ], [ 39.2842026, -6.8319658 ], [ 39.2848882, -6.8331075 ], [ 39.2854585, -6.8343109 ], [ 39.2859081, -6.8355644 ], [ 39.2862326, -6.8368559 ], [ 39.2864289, -6.838173 ], [ 39.286495, -6.8395029 ], [ 39.2864305, -6.8408329 ], [ 39.2862357, -6.8421502 ], [ 39.2859128, -6.8434421 ], [ 39.2854647, -6.8446961 ], [ 39.2848958, -6.8459002 ], [ 39.2842115, -6.8470427 ] ] ], [ [ [ 39.2999999, -6.8049965 ], [ 39.3, -6.8320832 ], [ 39.3, -6.78 ], [ 39.2785091, -6.7800013 ], [ 39.2790972, -6.7804367 ], [ 39.2800847, -6.7813304 ], [ 39.2809799, -6.7823165 ], [ 39.2817741, -6.7833856 ], [ 39.2824596, -6.7845273 ], [ 39.2828232, -6.7852947 ], [ 39.2832399, -6.7859887 ], [ 39.2838102, -6.7871921 ], [ 39.2842597, -6.7884456 ], [ 39.2845841, -6.7897371 ], [ 39.2847804, -6.7910542 ], [ 39.2848465, -6.7923841 ], [ 39.2847819, -6.7937141 ], [ 39.2845872, -6.7950314 ], [ 39.2844486, -6.795586 ], [ 39.2848306, -6.7959317 ], [ 39.2857258, -6.7969178 ], [ 39.28652, -6.7979869 ], [ 39.2872056, -6.7991286 ], [ 39.2877758, -6.800332 ], [ 39.2878895, -6.8006489 ], [ 39.2884573, -6.8014131 ], [ 39.2891428, -6.8025549 ], [ 39.2897131, -6.8037583 ], [ 39.2901627, -6.8050117 ], [ 39.2904871, -6.8063032 ], [ 39.2906834, -6.8076203 ], [ 39.2907082, -6.8081187 ], [ 39.2907423, -6.8081646 ], [ 39.2908619, -6.8080562 ], [ 39.2919314, -6.8072623 ], [ 39.2930737, -6.806577 ], [ 39.2942776, -6.806007 ], [ 39.2955316, -6.8055576 ], [ 39.2968237, -6.8052333 ], [ 39.2981413, -6.8050371 ], [ 39.2994719, -6.8049709 ], [ 39.2999999, -6.8049965 ] ] ] ] } }
]
}
