{
"type": "FeatureCollection",
"features": [
{ "type": "Feature", "properties": { "index": "0", "last_edit_year": 2020, "years_since_edit": 6, "label": "5.0–6.0 yr", "color": "#006837" }, "geometry": { "type": "Point", "coordinates": [ 39.2729191, -6.8395108 ] } },
{ "type": "Feature", "properties": { "index": "1", "last_edit_year": 2020, "years_since_edit": 6, "label": "5.0–6.0 yr", "color": "#006837" }, "geometry": { "type": "Point", "coordinates": [ 39.2595581, -6.7830479 ] } },
{ "type": "Feature", "properties": { "index": "2", "last_edit_year": 2023, "years_since_edit": 3, "label": "1.0–5.0 yr", "color": "#ffc" }, "geometry": { "type": "Point", "coordinates": [ 39.2665439, -6.8250552 ] } },
{ "type": "Feature", "properties": { "index": "3", "last_edit_year": 2024, "years_since_edit": 2, "label": "1.0–5.0 yr", "color": "#ffc" }, "geometry": { "type": "Point", "coordinates": [ 39.2804031, -6.817283 ] } },
{ "type": "Feature", "properties": { "index": "4", "last_edit_year": 2020, "years_since_edit": 6, "label": "5.0–6.0 yr", "color": "#006837" }, "geometry": { "type": "Point", "coordinates": [ 39.2677874, -6.8277147 ] } },
{ "type": "Feature", "properties": { "index": "5", "last_edit_year": 2024, "years_since_edit": 2, "label": "1.0–5.0 yr", "color": "#ffc" }, "geometry": { "type": "Point", "coordinates": [ 39.267146, -6.8257266 ] } },
{ "type": "Feature", "properties": { "index": "6", "last_edit_year": 2021, "years_since_edit": 5, "label": "5.0–6.0 yr", "color": "#006837" }, "geometry": { "type": "Point", "coordinates": [ 39.2651164, -6.8257034 ] } },
{ "type": "Feature", "properties": { "index": "7", "last_edit_year": 2024, "years_since_edit": 2, "label": "1.0–5.0 yr", "color": "#ffc" }, "geometry": { "type": "Point", "coordinates": [ 39.2242775, -6.8437655 ] } },
{ "type": "Feature", "properties": { "index": "8", "last_edit_year": 2020, "years_since_edit": 6, "label": "5.0–6.0 yr", "color": "#006837" }, "geometry": { "type": "Point", "coordinates": [ 39.2239382, -6.8306531 ] } },
{ "type": "Feature", "properties": { "index": "9", "last_edit_year": 2021, "years_since_edit": 5, "label": "5.0–6.0 yr", "color": "#006837" }, "geometry": { "type": "Point", "coordinates": [ 39.2563184, -6.8074454 ] } },
{ "type": "Feature", "properties": { "index": "10", "last_edit_year": 2020, "years_since_edit": 6, "label": "5.0–6.0 yr", "color": "#006837" }, "geometry": { "type": "Point", "coordinates": [ 39.251207, -6.8009702 ] } },
{ "type": "Feature", "properties": { "index": "11", "last_edit_year": 2020, "years_since_edit": 6, "label": "5.0–6.0 yr", "color": "#006837" }, "geometry": { "type": "Point", "coordinates": [ 39.266293, -6.8283106 ] } },
{ "type": "Feature", "properties": { "index": "12", "last_edit_year": 2020, "years_since_edit": 6, "label": "5.0–6.0 yr", "color": "#006837" }, "geometry": { "type": "Point", "coordinates": [ 39.2662108, -6.8284975 ] } },
{ "type": "Feature", "properties": { "index": "13", "last_edit_year": 2020, "years_since_edit": 6, "label": "5.0–6.0 yr", "color": "#006837" }, "geometry": { "type": "Point", "coordinates": [ 39.2471259, -6.8349546 ] } },
{ "type": "Feature", "properties": { "index": "14", "last_edit_year": 2020, "years_since_edit": 6, "label": "5.0–6.0 yr", "color": "#006837" }, "geometry": { "type": "Point", "coordinates": [ 39.2629649, -6.8269907 ] } },
{ "type": "Feature", "properties": { "index": "15", "last_edit_year": 2020, "years_since_edit": 6, "label": "5.0–6.0 yr", "color": "#006837" }, "geometry": { "type": "Point", "coordinates": [ 39.2383528, -6.7910014 ] } },
{ "type": "Feature", "properties": { "index": "16", "last_edit_year": 2020, "years_since_edit": 6, "label": "5.0–6.0 yr", "color": "#006837" }, "geometry": { "type": "Point", "coordinates": [ 39.2662738, -6.829035 ] } },
{ "type": "Feature", "properties": { "index": "17", "last_edit_year": 2020, "years_since_edit": 6, "label": "5.0–6.0 yr", "color": "#006837" }, "geometry": { "type": "Point", "coordinates": [ 39.2573657, -6.8201753 ] } },
{ "type": "Feature", "properties": { "index": "18", "last_edit_year": 2020, "years_since_edit": 6, "label": "5.0–6.0 yr", "color": "#006837" }, "geometry": { "type": "Point", "coordinates": [ 39.234673, -6.8011816 ] } },
{ "type": "Feature", "properties": { "index": "19", "last_edit_year": 2023, "years_since_edit": 3, "label": "1.0–5.0 yr", "color": "#ffc" }, "geometry": { "type": "Point", "coordinates": [ 39.2675068, -6.8252252 ] } },
{ "type": "Feature", "properties": { "index": "20", "last_edit_year": 2024, "years_since_edit": 2, "label": "1.0–5.0 yr", "color": "#ffc" }, "geometry": { "type": "Point", "coordinates": [ 39.2255584, -6.7968415 ] } },
{ "type": "Feature", "properties": { "index": "21", "last_edit_year": 2020, "years_since_edit": 6, "label": "5.0–6.0 yr", "color": "#006837" }, "geometry": { "type": "Point", "coordinates": [ 39.2244697, -6.8007461 ] } },
{ "type": "Feature", "properties": { "index": "22", "last_edit_year": 2023, "years_since_edit": 3, "label": "1.0–5.0 yr", "color": "#ffc" }, "geometry": { "type": "Point", "coordinates": [ 39.2491207, -6.8478798 ] } },
{ "type": "Feature", "properties": { "index": "23", "last_edit_year": 2020, "years_since_edit": 6, "label": "5.0–6.0 yr", "color": "#006837" }, "geometry": { "type": "Point", "coordinates": [ 39.2238133, -6.8058907 ] } },
{ "type": "Feature", "properties": { "index": "24", "last_edit_year": 2021, "years_since_edit": 5, "label": "5.0–6.0 yr", "color": "#006837" }, "geometry": { "type": "Point", "coordinates": [ 39.2736603, -6.8212843 ] } },
{ "type": "Feature", "properties": { "index": "25", "last_edit_year": 2021, "years_since_edit": 5, "label": "5.0–6.0 yr", "color": "#006837" }, "geometry": { "type": "Point", "coordinates": [ 39.2753032, -6.819286 ] } },
{ "type": "Feature", "properties": { "index": "26", "last_edit_year": 2021, "years_since_edit": 5, "label": "5.0–6.0 yr", "color": "#006837" }, "geometry": { "type": "Point", "coordinates": [ 39.2559528, -6.8161384 ] } },
{ "type": "Feature", "properties": { "index": "27", "last_edit_year": 2021, "years_since_edit": 5, "label": "5.0–6.0 yr", "color": "#006837" }, "geometry": { "type": "Point", "coordinates": [ 39.2723036, -6.8153074 ] } },
{ "type": "Feature", "properties": { "index": "28", "last_edit_year": 2021, "years_since_edit": 5, "label": "5.0–6.0 yr", "color": "#006837" }, "geometry": { "type": "Point", "coordinates": [ 39.2721319, -6.8235528 ] } },
{ "type": "Feature", "properties": { "index": "29", "last_edit_year": 2021, "years_since_edit": 5, "label": "5.0–6.0 yr", "color": "#006837" }, "geometry": { "type": "Point", "coordinates": [ 39.272792, -6.8155042 ] } },
{ "type": "Feature", "properties": { "index": "30", "last_edit_year": 2021, "years_since_edit": 5, "label": "5.0–6.0 yr", "color": "#006837" }, "geometry": { "type": "Point", "coordinates": [ 39.2729044, -6.8222958 ] } },
{ "type": "Feature", "properties": { "index": "31", "last_edit_year": 2021, "years_since_edit": 5, "label": "5.0–6.0 yr", "color": "#006837" }, "geometry": { "type": "Point", "coordinates": [ 39.2721963, -6.8157123 ] } },
{ "type": "Feature", "properties": { "index": "32", "last_edit_year": 2021, "years_since_edit": 5, "label": "5.0–6.0 yr", "color": "#006837" }, "geometry": { "type": "Point", "coordinates": [ 39.265411, -6.826016 ] } },
{ "type": "Feature", "properties": { "index": "33", "last_edit_year": 2021, "years_since_edit": 5, "label": "5.0–6.0 yr", "color": "#006837" }, "geometry": { "type": "Point", "coordinates": [ 39.2731632, -6.8159188 ] } },
{ "type": "Feature", "properties": { "index": "34", "last_edit_year": 2021, "years_since_edit": 5, "label": "5.0–6.0 yr", "color": "#006837" }, "geometry": { "type": "Point", "coordinates": [ 39.2721748, -6.8225088 ] } },
{ "type": "Feature", "properties": { "index": "35", "last_edit_year": 2021, "years_since_edit": 5, "label": "5.0–6.0 yr", "color": "#006837" }, "geometry": { "type": "Point", "coordinates": [ 39.2727327, -6.8233824 ] } },
{ "type": "Feature", "properties": { "index": "36", "last_edit_year": 2021, "years_since_edit": 5, "label": "5.0–6.0 yr", "color": "#006837" }, "geometry": { "type": "Point", "coordinates": [ 39.2764235, -6.8156057 ] } },
{ "type": "Feature", "properties": { "index": "37", "last_edit_year": 2021, "years_since_edit": 5, "label": "5.0–6.0 yr", "color": "#006837" }, "geometry": { "type": "Point", "coordinates": [ 39.2730143, -6.8181484 ] } },
{ "type": "Feature", "properties": { "index": "38", "last_edit_year": 2023, "years_since_edit": 3, "label": "1.0–5.0 yr", "color": "#ffc" }, "geometry": { "type": "Point", "coordinates": [ 39.2733911, -6.8168083 ] } },
{ "type": "Feature", "properties": { "index": "39", "last_edit_year": 2021, "years_since_edit": 5, "label": "5.0–6.0 yr", "color": "#006837" }, "geometry": { "type": "Point", "coordinates": [ 39.2729473, -6.8232971 ] } },
{ "type": "Feature", "properties": { "index": "40", "last_edit_year": 2021, "years_since_edit": 5, "label": "5.0–6.0 yr", "color": "#006837" }, "geometry": { "type": "Point", "coordinates": [ 39.2528629, -6.8167563 ] } },
{ "type": "Feature", "properties": { "index": "41", "last_edit_year": 2021, "years_since_edit": 5, "label": "5.0–6.0 yr", "color": "#006837" }, "geometry": { "type": "Point", "coordinates": [ 39.2760587, -6.8128786 ] } },
{ "type": "Feature", "properties": { "index": "42", "last_edit_year": 2021, "years_since_edit": 5, "label": "5.0–6.0 yr", "color": "#006837" }, "geometry": { "type": "Point", "coordinates": [ 39.2726684, -6.8152435 ] } },
{ "type": "Feature", "properties": { "index": "43", "last_edit_year": 2021, "years_since_edit": 5, "label": "5.0–6.0 yr", "color": "#006837" }, "geometry": { "type": "Point", "coordinates": [ 39.272368, -6.8234676 ] } },
{ "type": "Feature", "properties": { "index": "44", "last_edit_year": 2021, "years_since_edit": 5, "label": "5.0–6.0 yr", "color": "#006837" }, "geometry": { "type": "Point", "coordinates": [ 39.2529917, -6.8167563 ] } },
{ "type": "Feature", "properties": { "index": "45", "last_edit_year": 2021, "years_since_edit": 5, "label": "5.0–6.0 yr", "color": "#006837" }, "geometry": { "type": "Point", "coordinates": [ 39.2751789, -6.8156483 ] } },
{ "type": "Feature", "properties": { "index": "46", "last_edit_year": 2021, "years_since_edit": 5, "label": "5.0–6.0 yr", "color": "#006837" }, "geometry": { "type": "Point", "coordinates": [ 39.2775515, -6.8152645 ] } },
{ "type": "Feature", "properties": { "index": "47", "last_edit_year": 2021, "years_since_edit": 5, "label": "5.0–6.0 yr", "color": "#006837" }, "geometry": { "type": "Point", "coordinates": [ 39.2739129, -6.8181411 ] } },
{ "type": "Feature", "properties": { "index": "48", "last_edit_year": 2021, "years_since_edit": 5, "label": "5.0–6.0 yr", "color": "#006837" }, "geometry": { "type": "Point", "coordinates": [ 39.2617893, -6.821124 ] } },
{ "type": "Feature", "properties": { "index": "49", "last_edit_year": 2021, "years_since_edit": 5, "label": "5.0–6.0 yr", "color": "#006837" }, "geometry": { "type": "Point", "coordinates": [ 39.2797567, -6.8161099 ] } },
{ "type": "Feature", "properties": { "index": "50", "last_edit_year": 2021, "years_since_edit": 5, "label": "5.0–6.0 yr", "color": "#006837" }, "geometry": { "type": "Point", "coordinates": [ 39.252069, -6.8168841 ] } },
{ "type": "Feature", "properties": { "index": "51", "last_edit_year": 2021, "years_since_edit": 5, "label": "5.0–6.0 yr", "color": "#006837" }, "geometry": { "type": "Point", "coordinates": [ 39.272718, -6.821879 ] } },
{ "type": "Feature", "properties": { "index": "52", "last_edit_year": 2021, "years_since_edit": 5, "label": "5.0–6.0 yr", "color": "#006837" }, "geometry": { "type": "Point", "coordinates": [ 39.2538285, -6.8165645 ] } },
{ "type": "Feature", "properties": { "index": "53", "last_edit_year": 2021, "years_since_edit": 5, "label": "5.0–6.0 yr", "color": "#006837" }, "geometry": { "type": "Point", "coordinates": [ 39.2713165, -6.8226154 ] } },
{ "type": "Feature", "properties": { "index": "54", "last_edit_year": 2021, "years_since_edit": 5, "label": "5.0–6.0 yr", "color": "#006837" }, "geometry": { "type": "Point", "coordinates": [ 39.2523909, -6.8168415 ] } },
{ "type": "Feature", "properties": { "index": "55", "last_edit_year": 2021, "years_since_edit": 5, "label": "5.0–6.0 yr", "color": "#006837" }, "geometry": { "type": "Point", "coordinates": [ 39.272325, -6.815904 ] } },
{ "type": "Feature", "properties": { "index": "56", "last_edit_year": 2021, "years_since_edit": 5, "label": "5.0–6.0 yr", "color": "#006837" }, "geometry": { "type": "Point", "coordinates": [ 39.2736554, -6.8176298 ] } },
{ "type": "Feature", "properties": { "index": "57", "last_edit_year": 2021, "years_since_edit": 5, "label": "5.0–6.0 yr", "color": "#006837" }, "geometry": { "type": "Point", "coordinates": [ 39.2727456, -6.8151702 ] } },
{ "type": "Feature", "properties": { "index": "58", "last_edit_year": 2021, "years_since_edit": 5, "label": "5.0–6.0 yr", "color": "#006837" }, "geometry": { "type": "Point", "coordinates": [ 39.272325, -6.8224662 ] } },
{ "type": "Feature", "properties": { "index": "59", "last_edit_year": 2021, "years_since_edit": 5, "label": "5.0–6.0 yr", "color": "#006837" }, "geometry": { "type": "Point", "coordinates": [ 39.2730331, -6.8222319 ] } },
{ "type": "Feature", "properties": { "index": "60", "last_edit_year": 2021, "years_since_edit": 5, "label": "5.0–6.0 yr", "color": "#006837" }, "geometry": { "type": "Point", "coordinates": [ 39.2527342, -6.8167989 ] } },
{ "type": "Feature", "properties": { "index": "61", "last_edit_year": 2021, "years_since_edit": 5, "label": "5.0–6.0 yr", "color": "#006837" }, "geometry": { "type": "Point", "coordinates": [ 39.2582641, -6.8216859 ] } },
{ "type": "Feature", "properties": { "index": "62", "last_edit_year": 2021, "years_since_edit": 5, "label": "5.0–6.0 yr", "color": "#006837" }, "geometry": { "type": "Point", "coordinates": [ 39.2600513, -6.8217205 ] } },
{ "type": "Feature", "properties": { "index": "63", "last_edit_year": 2021, "years_since_edit": 5, "label": "5.0–6.0 yr", "color": "#006837" }, "geometry": { "type": "Point", "coordinates": [ 39.271853, -6.8233398 ] } },
{ "type": "Feature", "properties": { "index": "64", "last_edit_year": 2021, "years_since_edit": 5, "label": "5.0–6.0 yr", "color": "#006837" }, "geometry": { "type": "Point", "coordinates": [ 39.2731404, -6.8146043 ] } },
{ "type": "Feature", "properties": { "index": "65", "last_edit_year": 2021, "years_since_edit": 5, "label": "5.0–6.0 yr", "color": "#006837" }, "geometry": { "type": "Point", "coordinates": [ 39.2732906, -6.8230202 ] } },
{ "type": "Feature", "properties": { "index": "66", "last_edit_year": 2021, "years_since_edit": 5, "label": "5.0–6.0 yr", "color": "#006837" }, "geometry": { "type": "Point", "coordinates": [ 39.2737842, -6.818546 ] } },
{ "type": "Feature", "properties": { "index": "67", "last_edit_year": 2021, "years_since_edit": 5, "label": "5.0–6.0 yr", "color": "#006837" }, "geometry": { "type": "Point", "coordinates": [ 39.2525625, -6.8167989 ] } },
{ "type": "Feature", "properties": { "index": "68", "last_edit_year": 2021, "years_since_edit": 5, "label": "5.0–6.0 yr", "color": "#006837" }, "geometry": { "type": "Point", "coordinates": [ 39.2730472, -6.8164256 ] } },
{ "type": "Feature", "properties": { "index": "69", "last_edit_year": 2021, "years_since_edit": 5, "label": "5.0–6.0 yr", "color": "#006837" }, "geometry": { "type": "Point", "coordinates": [ 39.2512466, -6.8163091 ] } },
{ "type": "Feature", "properties": { "index": "70", "last_edit_year": 2021, "years_since_edit": 5, "label": "5.0–6.0 yr", "color": "#006837" }, "geometry": { "type": "Point", "coordinates": [ 39.2724752, -6.8222106 ] } },
{ "type": "Feature", "properties": { "index": "71", "last_edit_year": 2021, "years_since_edit": 5, "label": "5.0–6.0 yr", "color": "#006837" }, "geometry": { "type": "Point", "coordinates": [ 39.2541075, -6.8165432 ] } },
{ "type": "Feature", "properties": { "index": "72", "last_edit_year": 2021, "years_since_edit": 5, "label": "5.0–6.0 yr", "color": "#006837" }, "geometry": { "type": "Point", "coordinates": [ 39.2535496, -6.8166284 ] } },
{ "type": "Feature", "properties": { "index": "73", "last_edit_year": 2021, "years_since_edit": 5, "label": "5.0–6.0 yr", "color": "#006837" }, "geometry": { "type": "Point", "coordinates": [ 39.2506957, -6.8163727 ] } },
{ "type": "Feature", "properties": { "index": "74", "last_edit_year": 2021, "years_since_edit": 5, "label": "5.0–6.0 yr", "color": "#006837" }, "geometry": { "type": "Point", "coordinates": [ 39.2530346, -6.8167563 ] } },
{ "type": "Feature", "properties": { "index": "75", "last_edit_year": 2021, "years_since_edit": 5, "label": "5.0–6.0 yr", "color": "#006837" }, "geometry": { "type": "Point", "coordinates": [ 39.2728152, -6.8151587 ] } },
{ "type": "Feature", "properties": { "index": "76", "last_edit_year": 2021, "years_since_edit": 5, "label": "5.0–6.0 yr", "color": "#006837" }, "geometry": { "type": "Point", "coordinates": [ 39.2723465, -6.8219336 ] } },
{ "type": "Feature", "properties": { "index": "77", "last_edit_year": 2021, "years_since_edit": 5, "label": "5.0–6.0 yr", "color": "#006837" }, "geometry": { "type": "Point", "coordinates": [ 39.2726296, -6.8157576 ] } },
{ "type": "Feature", "properties": { "index": "78", "last_edit_year": 2021, "years_since_edit": 5, "label": "5.0–6.0 yr", "color": "#006837" }, "geometry": { "type": "Point", "coordinates": [ 39.2711663, -6.8165219 ] } },
{ "type": "Feature", "properties": { "index": "79", "last_edit_year": 2020, "years_since_edit": 6, "label": "5.0–6.0 yr", "color": "#006837" }, "geometry": { "type": "Point", "coordinates": [ 39.2480763, -6.7962943 ] } },
{ "type": "Feature", "properties": { "index": "80", "last_edit_year": 2020, "years_since_edit": 6, "label": "5.0–6.0 yr", "color": "#006837" }, "geometry": { "type": "Point", "coordinates": [ 39.2443559, -6.792326 ] } },
{ "type": "Feature", "properties": { "index": "81", "last_edit_year": 2020, "years_since_edit": 6, "label": "5.0–6.0 yr", "color": "#006837" }, "geometry": { "type": "Point", "coordinates": [ 39.2461218, -6.7935026 ] } },
{ "type": "Feature", "properties": { "index": "82", "last_edit_year": 2020, "years_since_edit": 6, "label": "5.0–6.0 yr", "color": "#006837" }, "geometry": { "type": "Point", "coordinates": [ 39.2454066, -6.7949061 ] } },
{ "type": "Feature", "properties": { "index": "83", "last_edit_year": 2020, "years_since_edit": 6, "label": "5.0–6.0 yr", "color": "#006837" }, "geometry": { "type": "Point", "coordinates": [ 39.2516604, -6.7940456 ] } },
{ "type": "Feature", "properties": { "index": "84", "last_edit_year": 2021, "years_since_edit": 5, "label": "5.0–6.0 yr", "color": "#006837" }, "geometry": { "type": "Point", "coordinates": [ 39.2739028, -6.8061207 ] } },
{ "type": "Feature", "properties": { "index": "85", "last_edit_year": 2021, "years_since_edit": 5, "label": "5.0–6.0 yr", "color": "#006837" }, "geometry": { "type": "Point", "coordinates": [ 39.2704916, -6.7909305 ] } },
{ "type": "Feature", "properties": { "index": "86", "last_edit_year": 2023, "years_since_edit": 3, "label": "1.0–5.0 yr", "color": "#ffc" }, "geometry": { "type": "Point", "coordinates": [ 39.2645183, -6.7877485 ] } },
{ "type": "Feature", "properties": { "index": "87", "last_edit_year": 2021, "years_since_edit": 5, "label": "5.0–6.0 yr", "color": "#006837" }, "geometry": { "type": "Point", "coordinates": [ 39.2614163, -6.807563 ] } },
{ "type": "Feature", "properties": { "index": "88", "last_edit_year": 2020, "years_since_edit": 6, "label": "5.0–6.0 yr", "color": "#006837" }, "geometry": { "type": "Point", "coordinates": [ 39.2517778, -6.7941765 ] } },
{ "type": "Feature", "properties": { "index": "89", "last_edit_year": 2020, "years_since_edit": 6, "label": "5.0–6.0 yr", "color": "#006837" }, "geometry": { "type": "Point", "coordinates": [ 39.2483705, -6.8065455 ] } },
{ "type": "Feature", "properties": { "index": "90", "last_edit_year": 2020, "years_since_edit": 6, "label": "5.0–6.0 yr", "color": "#006837" }, "geometry": { "type": "Point", "coordinates": [ 39.2477242, -6.8060865 ] } },
{ "type": "Feature", "properties": { "index": "91", "last_edit_year": 2021, "years_since_edit": 5, "label": "5.0–6.0 yr", "color": "#006837" }, "geometry": { "type": "Point", "coordinates": [ 39.2670547, -6.7959802 ] } },
{ "type": "Feature", "properties": { "index": "92", "last_edit_year": 2020, "years_since_edit": 6, "label": "5.0–6.0 yr", "color": "#006837" }, "geometry": { "type": "Point", "coordinates": [ 39.2517105, -6.8008866 ] } },
{ "type": "Feature", "properties": { "index": "93", "last_edit_year": 2021, "years_since_edit": 5, "label": "5.0–6.0 yr", "color": "#006837" }, "geometry": { "type": "Point", "coordinates": [ 39.2712719, -6.7923919 ] } },
{ "type": "Feature", "properties": { "index": "94", "last_edit_year": 2021, "years_since_edit": 5, "label": "5.0–6.0 yr", "color": "#006837" }, "geometry": { "type": "Point", "coordinates": [ 39.2602873, -6.8076798 ] } },
{ "type": "Feature", "properties": { "index": "95", "last_edit_year": 2021, "years_since_edit": 5, "label": "5.0–6.0 yr", "color": "#006837" }, "geometry": { "type": "Point", "coordinates": [ 39.2604321, -6.807113 ] } },
{ "type": "Feature", "properties": { "index": "96", "last_edit_year": 2021, "years_since_edit": 5, "label": "5.0–6.0 yr", "color": "#006837" }, "geometry": { "type": "Point", "coordinates": [ 39.2608079, -6.8061772 ] } },
{ "type": "Feature", "properties": { "index": "97", "last_edit_year": 2021, "years_since_edit": 5, "label": "5.0–6.0 yr", "color": "#006837" }, "geometry": { "type": "Point", "coordinates": [ 39.2589784, -6.8030137 ] } },
{ "type": "Feature", "properties": { "index": "98", "last_edit_year": 2021, "years_since_edit": 5, "label": "5.0–6.0 yr", "color": "#006837" }, "geometry": { "type": "Point", "coordinates": [ 39.2738056, -6.8055918 ] } },
{ "type": "Feature", "properties": { "index": "99", "last_edit_year": 2021, "years_since_edit": 5, "label": "5.0–6.0 yr", "color": "#006837" }, "geometry": { "type": "Point", "coordinates": [ 39.2642569, -6.7965047 ] } },
{ "type": "Feature", "properties": { "index": "100", "last_edit_year": 2021, "years_since_edit": 5, "label": "5.0–6.0 yr", "color": "#006837" }, "geometry": { "type": "Point", "coordinates": [ 39.264257, -6.800606 ] } },
{ "type": "Feature", "properties": { "index": "101", "last_edit_year": 2021, "years_since_edit": 5, "label": "5.0–6.0 yr", "color": "#006837" }, "geometry": { "type": "Point", "coordinates": [ 39.2748356, -6.8062097 ] } },
{ "type": "Feature", "properties": { "index": "102", "last_edit_year": 2021, "years_since_edit": 5, "label": "5.0–6.0 yr", "color": "#006837" }, "geometry": { "type": "Point", "coordinates": [ 39.2603087, -6.8075946 ] } },
{ "type": "Feature", "properties": { "index": "103", "last_edit_year": 2021, "years_since_edit": 5, "label": "5.0–6.0 yr", "color": "#006837" }, "geometry": { "type": "Point", "coordinates": [ 39.26029, -6.8107585 ] } },
{ "type": "Feature", "properties": { "index": "104", "last_edit_year": 2021, "years_since_edit": 5, "label": "5.0–6.0 yr", "color": "#006837" }, "geometry": { "type": "Point", "coordinates": [ 39.2561701, -6.8078609 ] } },
{ "type": "Feature", "properties": { "index": "105", "last_edit_year": 2021, "years_since_edit": 5, "label": "5.0–6.0 yr", "color": "#006837" }, "geometry": { "type": "Point", "coordinates": [ 39.260805, -6.8093949 ] } },
{ "type": "Feature", "properties": { "index": "106", "last_edit_year": 2021, "years_since_edit": 5, "label": "5.0–6.0 yr", "color": "#006837" }, "geometry": { "type": "Point", "coordinates": [ 39.266746, -6.7903148 ] } },
{ "type": "Feature", "properties": { "index": "107", "last_edit_year": 2021, "years_since_edit": 5, "label": "5.0–6.0 yr", "color": "#006837" }, "geometry": { "type": "Point", "coordinates": [ 39.2771745, -6.8089582 ] } },
{ "type": "Feature", "properties": { "index": "108", "last_edit_year": 2021, "years_since_edit": 5, "label": "5.0–6.0 yr", "color": "#006837" }, "geometry": { "type": "Point", "coordinates": [ 39.2601156, -6.8074028 ] } },
{ "type": "Feature", "properties": { "index": "109", "last_edit_year": 2021, "years_since_edit": 5, "label": "5.0–6.0 yr", "color": "#006837" }, "geometry": { "type": "Point", "coordinates": [ 39.2590669, -6.810162 ] } },
{ "type": "Feature", "properties": { "index": "110", "last_edit_year": 2021, "years_since_edit": 5, "label": "5.0–6.0 yr", "color": "#006837" }, "geometry": { "type": "Point", "coordinates": [ 39.2607384, -6.8064418 ] } },
{ "type": "Feature", "properties": { "index": "111", "last_edit_year": 2021, "years_since_edit": 5, "label": "5.0–6.0 yr", "color": "#006837" }, "geometry": { "type": "Point", "coordinates": [ 39.2599978, -6.8077104 ] } },
{ "type": "Feature", "properties": { "index": "112", "last_edit_year": 2021, "years_since_edit": 5, "label": "5.0–6.0 yr", "color": "#006837" }, "geometry": { "type": "Point", "coordinates": [ 39.2643428, -6.7971757 ] } },
{ "type": "Feature", "properties": { "index": "113", "last_edit_year": 2021, "years_since_edit": 5, "label": "5.0–6.0 yr", "color": "#006837" }, "geometry": { "type": "Point", "coordinates": [ 39.2603087, -6.807829 ] } },
{ "type": "Feature", "properties": { "index": "114", "last_edit_year": 2021, "years_since_edit": 5, "label": "5.0–6.0 yr", "color": "#006837" }, "geometry": { "type": "Point", "coordinates": [ 39.2599654, -6.8072111 ] } },
{ "type": "Feature", "properties": { "index": "115", "last_edit_year": 2021, "years_since_edit": 5, "label": "5.0–6.0 yr", "color": "#006837" }, "geometry": { "type": "Point", "coordinates": [ 39.2638707, -6.8084255 ] } },
{ "type": "Feature", "properties": { "index": "116", "last_edit_year": 2021, "years_since_edit": 5, "label": "5.0–6.0 yr", "color": "#006837" }, "geometry": { "type": "Point", "coordinates": [ 39.2654371, -6.7985606 ] } },
{ "type": "Feature", "properties": { "index": "117", "last_edit_year": 2021, "years_since_edit": 5, "label": "5.0–6.0 yr", "color": "#006837" }, "geometry": { "type": "Point", "coordinates": [ 39.2664886, -6.7940862 ] } },
{ "type": "Feature", "properties": { "index": "118", "last_edit_year": 2021, "years_since_edit": 5, "label": "5.0–6.0 yr", "color": "#006837" }, "geometry": { "type": "Point", "coordinates": [ 39.2752373, -6.8055319 ] } },
{ "type": "Feature", "properties": { "index": "119", "last_edit_year": 2020, "years_since_edit": 6, "label": "5.0–6.0 yr", "color": "#006837" }, "geometry": { "type": "Point", "coordinates": [ 39.2430639, -6.7925375 ] } },
{ "type": "Feature", "properties": { "index": "120", "last_edit_year": 2020, "years_since_edit": 6, "label": "5.0–6.0 yr", "color": "#006837" }, "geometry": { "type": "Point", "coordinates": [ 39.2425619, -6.7927425 ] } },
{ "type": "Feature", "properties": { "index": "121", "last_edit_year": 2020, "years_since_edit": 6, "label": "5.0–6.0 yr", "color": "#006837" }, "geometry": { "type": "Point", "coordinates": [ 39.2994803, -6.8185398 ] } },
{ "type": "Feature", "properties": { "index": "122", "last_edit_year": 2020, "years_since_edit": 6, "label": "5.0–6.0 yr", "color": "#006837" }, "geometry": { "type": "Point", "coordinates": [ 39.2374625, -6.7993016 ] } },
{ "type": "Feature", "properties": { "index": "123", "last_edit_year": 2020, "years_since_edit": 6, "label": "5.0–6.0 yr", "color": "#006837" }, "geometry": { "type": "Point", "coordinates": [ 39.2385411, -6.8097483 ] } },
{ "type": "Feature", "properties": { "index": "124", "last_edit_year": 2025, "years_since_edit": 1, "label": "1.0–5.0 yr", "color": "#ffc" }, "geometry": { "type": "Point", "coordinates": [ 39.2374233, -6.8056498 ] } },
{ "type": "Feature", "properties": { "index": "125", "last_edit_year": 2025, "years_since_edit": 1, "label": "1.0–5.0 yr", "color": "#ffc" }, "geometry": { "type": "Point", "coordinates": [ 39.2374277, -6.8055319 ] } },
{ "type": "Feature", "properties": { "index": "126", "last_edit_year": 2025, "years_since_edit": 1, "label": "1.0–5.0 yr", "color": "#ffc" }, "geometry": { "type": "Point", "coordinates": [ 39.237522, -6.8055678 ] } },
{ "type": "Feature", "properties": { "index": "127", "last_edit_year": 2025, "years_since_edit": 1, "label": "1.0–5.0 yr", "color": "#ffc" }, "geometry": { "type": "Point", "coordinates": [ 39.238219, -6.8043059 ] } },
{ "type": "Feature", "properties": { "index": "128", "last_edit_year": 2020, "years_since_edit": 6, "label": "5.0–6.0 yr", "color": "#006837" }, "geometry": { "type": "Point", "coordinates": [ 39.2406311, -6.8392058 ] } },
{ "type": "Feature", "properties": { "index": "129", "last_edit_year": 2020, "years_since_edit": 6, "label": "5.0–6.0 yr", "color": "#006837" }, "geometry": { "type": "Point", "coordinates": [ 39.2216481, -6.8382876 ] } },
{ "type": "Feature", "properties": { "index": "130", "last_edit_year": 2020, "years_since_edit": 6, "label": "5.0–6.0 yr", "color": "#006837" }, "geometry": { "type": "Point", "coordinates": [ 39.2230729, -6.786256 ] } },
{ "type": "Feature", "properties": { "index": "131", "last_edit_year": 2020, "years_since_edit": 6, "label": "5.0–6.0 yr", "color": "#006837" }, "geometry": { "type": "Point", "coordinates": [ 39.2204866, -6.7868745 ] } },
{ "type": "Feature", "properties": { "index": "132", "last_edit_year": 2020, "years_since_edit": 6, "label": "5.0–6.0 yr", "color": "#006837" }, "geometry": { "type": "Point", "coordinates": [ 39.226932, -6.8314747 ] } },
{ "type": "Feature", "properties": { "index": "133", "last_edit_year": 2020, "years_since_edit": 6, "label": "5.0–6.0 yr", "color": "#006837" }, "geometry": { "type": "Point", "coordinates": [ 39.2268248, -6.8346545 ] } },
{ "type": "Feature", "properties": { "index": "134", "last_edit_year": 2020, "years_since_edit": 6, "label": "5.0–6.0 yr", "color": "#006837" }, "geometry": { "type": "Point", "coordinates": [ 39.2268022, -6.8346653 ] } },
{ "type": "Feature", "properties": { "index": "135", "last_edit_year": 2020, "years_since_edit": 6, "label": "5.0–6.0 yr", "color": "#006837" }, "geometry": { "type": "Point", "coordinates": [ 39.2387868, -6.7837054 ] } },
{ "type": "Feature", "properties": { "index": "136", "last_edit_year": 2020, "years_since_edit": 6, "label": "5.0–6.0 yr", "color": "#006837" }, "geometry": { "type": "Point", "coordinates": [ 39.2360601, -6.786269 ] } },
{ "type": "Feature", "properties": { "index": "137", "last_edit_year": 2021, "years_since_edit": 5, "label": "5.0–6.0 yr", "color": "#006837" }, "geometry": { "type": "Point", "coordinates": [ 39.2396862, -6.8205423 ] } },
{ "type": "Feature", "properties": { "index": "138", "last_edit_year": 2020, "years_since_edit": 6, "label": "5.0–6.0 yr", "color": "#006837" }, "geometry": { "type": "Point", "coordinates": [ 39.2414027, -6.8017831 ] } },
{ "type": "Feature", "properties": { "index": "139", "last_edit_year": 2023, "years_since_edit": 3, "label": "1.0–5.0 yr", "color": "#ffc" }, "geometry": { "type": "Point", "coordinates": [ 39.2235322, -6.8301794 ] } },
{ "type": "Feature", "properties": { "index": "140", "last_edit_year": 2020, "years_since_edit": 6, "label": "5.0–6.0 yr", "color": "#006837" }, "geometry": { "type": "Point", "coordinates": [ 39.2396093, -6.7967262 ] } },
{ "type": "Feature", "properties": { "index": "141", "last_edit_year": 2020, "years_since_edit": 6, "label": "5.0–6.0 yr", "color": "#006837" }, "geometry": { "type": "Point", "coordinates": [ 39.2258516, -6.8475339 ] } },
{ "type": "Feature", "properties": { "index": "142", "last_edit_year": 2020, "years_since_edit": 6, "label": "5.0–6.0 yr", "color": "#006837" }, "geometry": { "type": "Point", "coordinates": [ 39.2328201, -6.8431558 ] } },
{ "type": "Feature", "properties": { "index": "143", "last_edit_year": 2020, "years_since_edit": 6, "label": "5.0–6.0 yr", "color": "#006837" }, "geometry": { "type": "Point", "coordinates": [ 39.2325655, -6.8431683 ] } },
{ "type": "Feature", "properties": { "index": "144", "last_edit_year": 2024, "years_since_edit": 2, "label": "1.0–5.0 yr", "color": "#ffc" }, "geometry": { "type": "Point", "coordinates": [ 39.2382297, -6.8099568 ] } },
{ "type": "Feature", "properties": { "index": "145", "last_edit_year": 2020, "years_since_edit": 6, "label": "5.0–6.0 yr", "color": "#006837" }, "geometry": { "type": "Point", "coordinates": [ 39.2355395, -6.8156508 ] } },
{ "type": "Feature", "properties": { "index": "146", "last_edit_year": 2020, "years_since_edit": 6, "label": "5.0–6.0 yr", "color": "#006837" }, "geometry": { "type": "Point", "coordinates": [ 39.2383365, -6.8426753 ] } }
]
}
