{
"type": "FeatureCollection",
"features": [
{ "type": "Feature", "properties": { "index": "0", "@osmId": "way/362729734", "name": "Keko Market", "opening_hours": null, "label": "Marketplaces", "color": "#fe9929" }, "geometry": { "type": "Polygon", "coordinates": [ [ [ 39.2729523, -6.8390944 ], [ 39.2729, -6.8389737 ], [ 39.2728258, -6.8389925 ], [ 39.2727595, -6.8390473 ], [ 39.2725409, -6.8392281 ], [ 39.2729464, -6.8400387 ], [ 39.2730472, -6.8399776 ], [ 39.2733515, -6.8397964 ], [ 39.2731694, -6.8396084 ], [ 39.2729523, -6.8390944 ] ] ] } },
{ "type": "Feature", "properties": { "index": "1", "@osmId": "way/367583846", "name": "Msufini Market", "opening_hours": null, "label": "Marketplaces", "color": "#fe9929" }, "geometry": { "type": "Polygon", "coordinates": [ [ [ 39.259887, -6.782829 ], [ 39.2591508, -6.7828725 ], [ 39.2591578, -6.7831666 ], [ 39.2591558, -6.7831805 ], [ 39.2594481, -6.7831834 ], [ 39.2594527, -6.7832761 ], [ 39.2599241, -6.7832702 ], [ 39.259887, -6.782829 ] ] ] } },
{ "type": "Feature", "properties": { "index": "2", "@osmId": "way/354507194", "name": "Soko la Mchikichini", "opening_hours": null, "label": "Marketplaces", "color": "#fe9929" }, "geometry": { "type": "Polygon", "coordinates": [ [ [ 39.266896, -6.8255136 ], [ 39.2674234, -6.8253243 ], [ 39.2675082, -6.8250957 ], [ 39.2674009, -6.8249078 ], [ 39.2672135, -6.8245982 ], [ 39.2670899, -6.8244046 ], [ 39.2670684, -6.8243864 ], [ 39.2669718, -6.8243939 ], [ 39.2668564, -6.8244061 ], [ 39.2661604, -6.8245011 ], [ 39.2658591, -6.8245864 ], [ 39.2657936, -6.824605 ], [ 39.2658051, -6.8246451 ], [ 39.2658036, -6.8246456 ], [ 39.2658176, -6.8246944 ], [ 39.2657239, -6.824721 ], [ 39.2657331, -6.8247531 ], [ 39.2657185, -6.8247572 ], [ 39.2657242, -6.8247768 ], [ 39.2656724, -6.8247915 ], [ 39.2659854, -6.8258436 ], [ 39.2660213, -6.8258772 ], [ 39.266896, -6.8255136 ] ] ] } },
{ "type": "Feature", "properties": { "index": "3", "@osmId": "way/368510048", "name": "Kisutu Market", "opening_hours": null, "label": "Marketplaces", "color": "#fe9929" }, "geometry": { "type": "Polygon", "coordinates": [ [ [ 39.2805811, -6.8173267 ], [ 39.2805786, -6.8173195 ], [ 39.280689, -6.8172544 ], [ 39.2806212, -6.8171336 ], [ 39.2806173, -6.8170159 ], [ 39.2804753, -6.8170682 ], [ 39.2804793, -6.8170905 ], [ 39.2802894, -6.8171479 ], [ 39.2802763, -6.8171031 ], [ 39.28014, -6.8171292 ], [ 39.2802108, -6.8175666 ], [ 39.2804416, -6.8174728 ], [ 39.2804558, -6.8174607 ], [ 39.2804508, -6.817444 ], [ 39.2805518, -6.8173979 ], [ 39.2805473, -6.8173865 ], [ 39.2805612, -6.8173811 ], [ 39.2805579, -6.8173725 ], [ 39.28056, -6.8173717 ], [ 39.2805658, -6.8173863 ], [ 39.2805816, -6.8173801 ], [ 39.2805917, -6.8174058 ], [ 39.2806341, -6.8173863 ], [ 39.280633, -6.8173793 ], [ 39.2807209, -6.8173385 ], [ 39.2806975, -6.8172868 ], [ 39.2806072, -6.8173273 ], [ 39.2806023, -6.8173189 ], [ 39.2805811, -6.8173267 ] ] ] } },
{ "type": "Feature", "properties": { "index": "4", "@osmId": "way/460492942", "name": "Machiga Complex", "opening_hours": null, "label": "Marketplaces", "color": "#fe9929" }, "geometry": { "type": "Polygon", "coordinates": [ [ [ 39.2684195, -6.8272673 ], [ 39.2669857, -6.8278999 ], [ 39.267123, -6.8281516 ], [ 39.2680902, -6.8277675 ], [ 39.268569, -6.8275298 ], [ 39.2684195, -6.8272673 ] ] ] } },
{ "type": "Feature", "properties": { "index": "5", "@osmId": "way/619444096", "name": "Karume", "opening_hours": null, "label": "Marketplaces", "color": "#fe9929" }, "geometry": { "type": "Polygon", "coordinates": [ [ [ 39.2673667, -6.8256177 ], [ 39.2671701, -6.8256813 ], [ 39.2669958, -6.8257443 ], [ 39.2670061, -6.8257662 ], [ 39.2669746, -6.8257808 ], [ 39.2670071, -6.8258497 ], [ 39.2670548, -6.8258275 ], [ 39.2670438, -6.8258043 ], [ 39.267199, -6.825731 ], [ 39.2671967, -6.8257267 ], [ 39.2673522, -6.8256594 ], [ 39.2673757, -6.8256495 ], [ 39.2673667, -6.8256177 ] ] ] } },
{ "type": "Feature", "properties": { "index": "6", "@osmId": "way/989379391", "name": "Viosks-Karume", "opening_hours": null, "label": "Marketplaces", "color": "#fe9929" }, "geometry": { "type": "Polygon", "coordinates": [ [ [ 39.2646621, -6.825321 ], [ 39.2645616, -6.8254413 ], [ 39.2645266, -6.8254875 ], [ 39.2646276, -6.825555 ], [ 39.2648422, -6.825657 ], [ 39.2650292, -6.8257863 ], [ 39.2654852, -6.8260525 ], [ 39.2655552, -6.8260448 ], [ 39.2656271, -6.8260244 ], [ 39.2657464, -6.8259806 ], [ 39.2659491, -6.8258999 ], [ 39.2659367, -6.8258401 ], [ 39.2657137, -6.8259145 ], [ 39.2655533, -6.8259765 ], [ 39.265487, -6.8259049 ], [ 39.265283, -6.8257035 ], [ 39.2652421, -6.82567 ], [ 39.2651431, -6.8256229 ], [ 39.2650217, -6.8255307 ], [ 39.2650089, -6.8255101 ], [ 39.2646621, -6.825321 ] ] ] } },
{ "type": "Feature", "properties": { "index": "7", "@osmId": "way/372044030", "name": "Goats Market", "opening_hours": null, "label": "Marketplaces", "color": "#fe9929" }, "geometry": { "type": "Polygon", "coordinates": [ [ [ 39.2242308, -6.8435979 ], [ 39.224251, -6.8439374 ], [ 39.2243242, -6.8439332 ], [ 39.2243041, -6.8435936 ], [ 39.2242308, -6.8435979 ] ] ] } },
{ "type": "Feature", "properties": { "index": "8", "@osmId": "way/370686226", "name": "Magomeni Market", "opening_hours": null, "label": "Marketplaces", "color": "#fe9929" }, "geometry": { "type": "Polygon", "coordinates": [ [ [ 39.2560649, -6.8069822 ], [ 39.2560322, -6.8070694 ], [ 39.2559517, -6.8070397 ], [ 39.255878, -6.8072362 ], [ 39.2558473, -6.8073179 ], [ 39.2558162, -6.807401 ], [ 39.2557412, -6.8076007 ], [ 39.2561053, -6.8077345 ], [ 39.2563765, -6.8078186 ], [ 39.2564823, -6.8078578 ], [ 39.2566537, -6.8079212 ], [ 39.2567751, -6.8075976 ], [ 39.2568348, -6.8074386 ], [ 39.2568905, -6.8072901 ], [ 39.2566028, -6.8071837 ], [ 39.2566036, -6.8071815 ], [ 39.2560649, -6.8069822 ] ] ] } },
{ "type": "Feature", "properties": { "index": "9", "@osmId": "way/460690721", "name": null, "opening_hours": null, "label": "Marketplaces", "color": "#fe9929" }, "geometry": { "type": "Polygon", "coordinates": [ [ [ 39.2513175, -6.8008504 ], [ 39.2510867, -6.8009133 ], [ 39.2510787, -6.8009113 ], [ 39.2511229, -6.8011047 ], [ 39.2512417, -6.8010812 ], [ 39.2512273, -6.8010144 ], [ 39.2513466, -6.8009889 ], [ 39.2513175, -6.8008504 ] ] ] } },
{ "type": "Feature", "properties": { "index": "10", "@osmId": "way/375527058", "name": "Tenge", "opening_hours": null, "label": "Marketplaces", "color": "#fe9929" }, "geometry": { "type": "Polygon", "coordinates": [ [ [ 39.2242386, -6.8302369 ], [ 39.223672, -6.8302303 ], [ 39.2236663, -6.8307203 ], [ 39.2236368, -6.8310635 ], [ 39.2241829, -6.8310927 ], [ 39.2242248, -6.8304795 ], [ 39.2242386, -6.8302369 ] ] ] } },
{ "type": "Feature", "properties": { "index": "11", "@osmId": "node/1399532952", "name": "Genge la Vyakula", "opening_hours": "Mo-Su 08:30-22:00", "label": "Marketplaces", "color": "#fe9929" }, "geometry": { "type": "Point", "coordinates": [ 39.2480763, -6.7962943 ] } },
{ "type": "Feature", "properties": { "index": "12", "@osmId": "node/1401911320", "name": null, "opening_hours": null, "label": "Marketplaces", "color": "#fe9929" }, "geometry": { "type": "Point", "coordinates": [ 39.2443559, -6.792326 ] } },
{ "type": "Feature", "properties": { "index": "13", "@osmId": "node/1401911392", "name": null, "opening_hours": null, "label": "Marketplaces", "color": "#fe9929" }, "geometry": { "type": "Point", "coordinates": [ 39.2461218, -6.7935026 ] } },
{ "type": "Feature", "properties": { "index": "14", "@osmId": "node/1408260347", "name": null, "opening_hours": null, "label": "Marketplaces", "color": "#fe9929" }, "geometry": { "type": "Point", "coordinates": [ 39.2454066, -6.7949061 ] } },
{ "type": "Feature", "properties": { "index": "15", "@osmId": "node/3652616841", "name": "Kisiwani Market Place", "opening_hours": null, "label": "Marketplaces", "color": "#fe9929" }, "geometry": { "type": "Point", "coordinates": [ 39.2516604, -6.7940456 ] } },
{ "type": "Feature", "properties": { "index": "16", "@osmId": "node/3733091508", "name": null, "opening_hours": null, "label": "Marketplaces", "color": "#fe9929" }, "geometry": { "type": "Point", "coordinates": [ 39.2739028, -6.8061207 ] } },
{ "type": "Feature", "properties": { "index": "17", "@osmId": "node/6397955633", "name": "Kinondoni Market", "opening_hours": null, "label": "Marketplaces", "color": "#fe9929" }, "geometry": { "type": "Point", "coordinates": [ 39.2704916, -6.7909305 ] } },
{ "type": "Feature", "properties": { "index": "18", "@osmId": "node/6400151414", "name": "Mtambani Market", "opening_hours": null, "label": "Marketplaces", "color": "#fe9929" }, "geometry": { "type": "Point", "coordinates": [ 39.2645183, -6.7877485 ] } },
{ "type": "Feature", "properties": { "index": "19", "@osmId": "node/6400259068", "name": "Fish Market", "opening_hours": null, "label": "Marketplaces", "color": "#fe9929" }, "geometry": { "type": "Point", "coordinates": [ 39.2614163, -6.807563 ] } },
{ "type": "Feature", "properties": { "index": "20", "@osmId": "node/6400359375", "name": "Kisiwani Market", "opening_hours": null, "label": "Marketplaces", "color": "#fe9929" }, "geometry": { "type": "Point", "coordinates": [ 39.2517778, -6.7941765 ] } },
{ "type": "Feature", "properties": { "index": "21", "@osmId": "node/6400555994", "name": "Kwa Mpera Market", "opening_hours": null, "label": "Marketplaces", "color": "#fe9929" }, "geometry": { "type": "Point", "coordinates": [ 39.2483705, -6.8065455 ] } },
{ "type": "Feature", "properties": { "index": "22", "@osmId": "node/6400556000", "name": "Kapera Market", "opening_hours": null, "label": "Marketplaces", "color": "#fe9929" }, "geometry": { "type": "Point", "coordinates": [ 39.2477242, -6.8060865 ] } },
{ "type": "Feature", "properties": { "index": "23", "@osmId": "node/7615426557", "name": null, "opening_hours": null, "label": "Marketplaces", "color": "#fe9929" }, "geometry": { "type": "Point", "coordinates": [ 39.2670547, -6.7959802 ] } },
{ "type": "Feature", "properties": { "index": "24", "@osmId": "node/7615522356", "name": null, "opening_hours": null, "label": "Marketplaces", "color": "#fe9929" }, "geometry": { "type": "Point", "coordinates": [ 39.2517105, -6.8008866 ] } },
{ "type": "Feature", "properties": { "index": "25", "@osmId": "node/9274610864", "name": "Mkunguni Market", "opening_hours": null, "label": "Marketplaces", "color": "#fe9929" }, "geometry": { "type": "Point", "coordinates": [ 39.2712719, -6.7923919 ] } },
{ "type": "Feature", "properties": { "index": "26", "@osmId": "node/9277385395", "name": null, "opening_hours": "Mo-Sa 08:00-18:00", "label": "Marketplaces", "color": "#fe9929" }, "geometry": { "type": "Point", "coordinates": [ 39.2602873, -6.8076798 ] } },
{ "type": "Feature", "properties": { "index": "27", "@osmId": "node/9277385396", "name": null, "opening_hours": "Mo-Sa 08:00-18:00", "label": "Marketplaces", "color": "#fe9929" }, "geometry": { "type": "Point", "coordinates": [ 39.2604321, -6.807113 ] } },
{ "type": "Feature", "properties": { "index": "28", "@osmId": "node/9277385398", "name": null, "opening_hours": "Mo-Sa 08:00-18:00", "label": "Marketplaces", "color": "#fe9929" }, "geometry": { "type": "Point", "coordinates": [ 39.2608079, -6.8061772 ] } },
{ "type": "Feature", "properties": { "index": "29", "@osmId": "node/9277385405", "name": "Bosco Mchaga Cosmetic", "opening_hours": "Mo-Su 09:00-21:00;Mo-Fr 09:00-17:00", "label": "Marketplaces", "color": "#fe9929" }, "geometry": { "type": "Point", "coordinates": [ 39.2589784, -6.8030137 ] } },
{ "type": "Feature", "properties": { "index": "30", "@osmId": "node/9277385411", "name": null, "opening_hours": "Mo-Sa 09:00-20:00", "label": "Marketplaces", "color": "#fe9929" }, "geometry": { "type": "Point", "coordinates": [ 39.2738056, -6.8055918 ] } },
{ "type": "Feature", "properties": { "index": "31", "@osmId": "node/9277385413", "name": null, "opening_hours": "Mo-Su 09:00-21:00", "label": "Marketplaces", "color": "#fe9929" }, "geometry": { "type": "Point", "coordinates": [ 39.2642569, -6.7965047 ] } },
{ "type": "Feature", "properties": { "index": "32", "@osmId": "node/9277385416", "name": null, "opening_hours": "Mo-Sa 08:00-18:00", "label": "Marketplaces", "color": "#fe9929" }, "geometry": { "type": "Point", "coordinates": [ 39.264257, -6.800606 ] } },
{ "type": "Feature", "properties": { "index": "33", "@osmId": "node/9277391018", "name": null, "opening_hours": "Mo-Sa 08:00-18:00", "label": "Marketplaces", "color": "#fe9929" }, "geometry": { "type": "Point", "coordinates": [ 39.2748356, -6.8062097 ] } },
{ "type": "Feature", "properties": { "index": "34", "@osmId": "node/9277391021", "name": null, "opening_hours": "Mo-Sa 09:00-20:00", "label": "Marketplaces", "color": "#fe9929" }, "geometry": { "type": "Point", "coordinates": [ 39.2603087, -6.8075946 ] } },
{ "type": "Feature", "properties": { "index": "35", "@osmId": "node/9277391022", "name": "Guo", "opening_hours": "Mo-Sa 09:00-17:00", "label": "Marketplaces", "color": "#fe9929" }, "geometry": { "type": "Point", "coordinates": [ 39.26029, -6.8107585 ] } },
{ "type": "Feature", "properties": { "index": "36", "@osmId": "node/9277391023", "name": null, "opening_hours": "24/7", "label": "Marketplaces", "color": "#fe9929" }, "geometry": { "type": "Point", "coordinates": [ 39.2561701, -6.8078609 ] } },
{ "type": "Feature", "properties": { "index": "37", "@osmId": "node/9277391025", "name": "Bin Anzuwany", "opening_hours": "Mo-Sa 08:00-18:00", "label": "Marketplaces", "color": "#fe9929" }, "geometry": { "type": "Point", "coordinates": [ 39.260805, -6.8093949 ] } },
{ "type": "Feature", "properties": { "index": "38", "@osmId": "node/9277391031", "name": null, "opening_hours": "Mo-Su 09:00-21:00;Mo-Sa 08:00-18:00", "label": "Marketplaces", "color": "#fe9929" }, "geometry": { "type": "Point", "coordinates": [ 39.266746, -6.7903148 ] } },
{ "type": "Feature", "properties": { "index": "39", "@osmId": "node/9277391038", "name": null, "opening_hours": null, "label": "Marketplaces", "color": "#fe9929" }, "geometry": { "type": "Point", "coordinates": [ 39.2771745, -6.8089582 ] } },
{ "type": "Feature", "properties": { "index": "40", "@osmId": "node/9277391044", "name": null, "opening_hours": "Mo-Sa 08:00-18:00", "label": "Marketplaces", "color": "#fe9929" }, "geometry": { "type": "Point", "coordinates": [ 39.2601156, -6.8074028 ] } },
{ "type": "Feature", "properties": { "index": "41", "@osmId": "node/9277391046", "name": "Sabra Mummy", "opening_hours": "Mo-Sa 08:00-18:00", "label": "Marketplaces", "color": "#fe9929" }, "geometry": { "type": "Point", "coordinates": [ 39.2590669, -6.810162 ] } },
{ "type": "Feature", "properties": { "index": "42", "@osmId": "node/9277391051", "name": null, "opening_hours": "Mo-Sa 08:00-18:00", "label": "Marketplaces", "color": "#fe9929" }, "geometry": { "type": "Point", "coordinates": [ 39.2607384, -6.8064418 ] } },
{ "type": "Feature", "properties": { "index": "43", "@osmId": "node/9277391054", "name": "Mem Bookers", "opening_hours": "Mo-Sa 08:00-18:00", "label": "Marketplaces", "color": "#fe9929" }, "geometry": { "type": "Point", "coordinates": [ 39.2599978, -6.8077104 ] } },
{ "type": "Feature", "properties": { "index": "44", "@osmId": "node/9277391055", "name": null, "opening_hours": "Mo-Fr 08:00-18:00;Sa-Su 08:00-15:00;Mo-Sa 08:00-18:00", "label": "Marketplaces", "color": "#fe9929" }, "geometry": { "type": "Point", "coordinates": [ 39.2643428, -6.7971757 ] } },
{ "type": "Feature", "properties": { "index": "45", "@osmId": "node/9277391057", "name": null, "opening_hours": "Mo-Sa 08:00-18:00", "label": "Marketplaces", "color": "#fe9929" }, "geometry": { "type": "Point", "coordinates": [ 39.2603087, -6.807829 ] } },
{ "type": "Feature", "properties": { "index": "46", "@osmId": "node/9277391063", "name": null, "opening_hours": "Mo-Sa 08:00-18:00", "label": "Marketplaces", "color": "#fe9929" }, "geometry": { "type": "Point", "coordinates": [ 39.2599654, -6.8072111 ] } },
{ "type": "Feature", "properties": { "index": "47", "@osmId": "node/9277391066", "name": null, "opening_hours": "Mo-Su 09:00-21:00", "label": "Marketplaces", "color": "#fe9929" }, "geometry": { "type": "Point", "coordinates": [ 39.2638707, -6.8084255 ] } },
{ "type": "Feature", "properties": { "index": "48", "@osmId": "node/9277391068", "name": null, "opening_hours": "Mo-Fr 08:00-18:00; Sa-Su 08:00-15:00", "label": "Marketplaces", "color": "#fe9929" }, "geometry": { "type": "Point", "coordinates": [ 39.2654371, -6.7985606 ] } },
{ "type": "Feature", "properties": { "index": "49", "@osmId": "node/9277391070", "name": null, "opening_hours": "Mo-Sa 09:00-17:00", "label": "Marketplaces", "color": "#fe9929" }, "geometry": { "type": "Point", "coordinates": [ 39.2664886, -6.7940862 ] } },
{ "type": "Feature", "properties": { "index": "50", "@osmId": "node/9277391071", "name": "Mchina", "opening_hours": "Mo-Su 09:00-21:00;Mo-Sa 08:00-18:00", "label": "Marketplaces", "color": "#fe9929" }, "geometry": { "type": "Point", "coordinates": [ 39.2752373, -6.8055319 ] } },
{ "type": "Feature", "properties": { "index": "51", "@osmId": "node/3853987682", "name": "Machinga Complex", "opening_hours": null, "label": "Marketplaces", "color": "#fe9929" }, "geometry": { "type": "Point", "coordinates": [ 39.266293, -6.8283106 ] } },
{ "type": "Feature", "properties": { "index": "52", "@osmId": "node/3853987728", "name": null, "opening_hours": null, "label": "Marketplaces", "color": "#fe9929" }, "geometry": { "type": "Point", "coordinates": [ 39.2662108, -6.8284975 ] } },
{ "type": "Feature", "properties": { "index": "53", "@osmId": "node/6397929670", "name": "Buguruni Market", "opening_hours": null, "label": "Marketplaces", "color": "#fe9929" }, "geometry": { "type": "Point", "coordinates": [ 39.2471259, -6.8349546 ] } },
{ "type": "Feature", "properties": { "index": "54", "@osmId": "node/6398093614", "name": "Ilala Mitumba Cooperative Society", "opening_hours": null, "label": "Marketplaces", "color": "#fe9929" }, "geometry": { "type": "Point", "coordinates": [ 39.2629649, -6.8269907 ] } },
{ "type": "Feature", "properties": { "index": "55", "@osmId": "node/6398093624", "name": "Hazari Business Centre", "opening_hours": null, "label": "Marketplaces", "color": "#fe9929" }, "geometry": { "type": "Point", "coordinates": [ 39.2662738, -6.829035 ] } },
{ "type": "Feature", "properties": { "index": "56", "@osmId": "node/6400567429", "name": "Soko la Sambusa", "opening_hours": null, "label": "Marketplaces", "color": "#fe9929" }, "geometry": { "type": "Point", "coordinates": [ 39.2573657, -6.8201753 ] } },
{ "type": "Feature", "properties": { "index": "57", "@osmId": "node/6400567440", "name": "Mchikichini Market", "opening_hours": null, "label": "Marketplaces", "color": "#fe9929" }, "geometry": { "type": "Point", "coordinates": [ 39.2675068, -6.8252252 ] } },
{ "type": "Feature", "properties": { "index": "58", "@osmId": "node/6408763422", "name": "Mapambano Market", "opening_hours": null, "label": "Marketplaces", "color": "#fe9929" }, "geometry": { "type": "Point", "coordinates": [ 39.2491207, -6.8478798 ] } },
{ "type": "Feature", "properties": { "index": "59", "@osmId": "node/7615420419", "name": "DDC social hall", "opening_hours": null, "label": "Marketplaces", "color": "#fe9929" }, "geometry": { "type": "Point", "coordinates": [ 39.2736603, -6.8212843 ] } },
{ "type": "Feature", "properties": { "index": "60", "@osmId": "node/7615449194", "name": "Kariakoo Market Cooperation", "opening_hours": null, "label": "Marketplaces", "color": "#fe9929" }, "geometry": { "type": "Point", "coordinates": [ 39.2753032, -6.819286 ] } },
{ "type": "Feature", "properties": { "index": "61", "@osmId": "node/9277385391", "name": "Mshikamano Wapenda Maendeleo", "opening_hours": "Mo-Fr 08:00-18:00; Sa-Su 08:00-15:00", "label": "Marketplaces", "color": "#fe9929" }, "geometry": { "type": "Point", "coordinates": [ 39.2559528, -6.8161384 ] } },
{ "type": "Feature", "properties": { "index": "62", "@osmId": "node/9277385392", "name": "Edeta Traders Company", "opening_hours": "Mo-Sa 08:00-18:00", "label": "Marketplaces", "color": "#fe9929" }, "geometry": { "type": "Point", "coordinates": [ 39.2723036, -6.8153074 ] } },
{ "type": "Feature", "properties": { "index": "63", "@osmId": "node/9277385393", "name": "Glory", "opening_hours": "Mo-Sa 08:00-18:00", "label": "Marketplaces", "color": "#fe9929" }, "geometry": { "type": "Point", "coordinates": [ 39.2721319, -6.8235528 ] } },
{ "type": "Feature", "properties": { "index": "64", "@osmId": "node/9277385394", "name": null, "opening_hours": "Mo-Sa 08:00-18:00", "label": "Marketplaces", "color": "#fe9929" }, "geometry": { "type": "Point", "coordinates": [ 39.272792, -6.8155042 ] } },
{ "type": "Feature", "properties": { "index": "65", "@osmId": "node/9277385397", "name": null, "opening_hours": "Mo-Fr 08:00-18:00; Sa-Su 08:00-15:00", "label": "Marketplaces", "color": "#fe9929" }, "geometry": { "type": "Point", "coordinates": [ 39.2729044, -6.8222958 ] } },
{ "type": "Feature", "properties": { "index": "66", "@osmId": "node/9277385399", "name": null, "opening_hours": "Mo-Sa 08:00-18:00", "label": "Marketplaces", "color": "#fe9929" }, "geometry": { "type": "Point", "coordinates": [ 39.2721963, -6.8157123 ] } },
{ "type": "Feature", "properties": { "index": "67", "@osmId": "node/9277385400", "name": "Karume", "opening_hours": "Mo-Sa 08:00-18:00", "label": "Marketplaces", "color": "#fe9929" }, "geometry": { "type": "Point", "coordinates": [ 39.265411, -6.826016 ] } },
{ "type": "Feature", "properties": { "index": "68", "@osmId": "node/9277385401", "name": "Halftone Graphics ltd", "opening_hours": "Mo-Sa 08:00-18:00", "label": "Marketplaces", "color": "#fe9929" }, "geometry": { "type": "Point", "coordinates": [ 39.2731632, -6.8159188 ] } },
{ "type": "Feature", "properties": { "index": "69", "@osmId": "node/9277385402", "name": null, "opening_hours": "Mo-Fr 08:00-18:00; Sa-Su 08:00-15:00", "label": "Marketplaces", "color": "#fe9929" }, "geometry": { "type": "Point", "coordinates": [ 39.2721748, -6.8225088 ] } },
{ "type": "Feature", "properties": { "index": "70", "@osmId": "node/9277385403", "name": null, "opening_hours": null, "label": "Marketplaces", "color": "#fe9929" }, "geometry": { "type": "Point", "coordinates": [ 39.2727327, -6.8233824 ] } },
{ "type": "Feature", "properties": { "index": "71", "@osmId": "node/9277385406", "name": "Chinese Truck Parts", "opening_hours": "Mo-Su 09:00-21:00", "label": "Marketplaces", "color": "#fe9929" }, "geometry": { "type": "Point", "coordinates": [ 39.2764235, -6.8156057 ] } },
{ "type": "Feature", "properties": { "index": "72", "@osmId": "node/9277385407", "name": "Moki Hotel", "opening_hours": "Mo-Sa 08:00-18:00", "label": "Marketplaces", "color": "#fe9929" }, "geometry": { "type": "Point", "coordinates": [ 39.2730143, -6.8181484 ] } },
{ "type": "Feature", "properties": { "index": "73", "@osmId": "node/9277385408", "name": "Japan Motorcycle Spare Parts", "opening_hours": "Mo-Sa 09:00-20:00", "label": "Marketplaces", "color": "#fe9929" }, "geometry": { "type": "Point", "coordinates": [ 39.2733911, -6.8168083 ] } },
{ "type": "Feature", "properties": { "index": "74", "@osmId": "node/9277385409", "name": "Excellent", "opening_hours": null, "label": "Marketplaces", "color": "#fe9929" }, "geometry": { "type": "Point", "coordinates": [ 39.2729473, -6.8232971 ] } },
{ "type": "Feature", "properties": { "index": "75", "@osmId": "node/9277385410", "name": null, "opening_hours": "Mo-Sa 08:00-18:00", "label": "Marketplaces", "color": "#fe9929" }, "geometry": { "type": "Point", "coordinates": [ 39.2528629, -6.8167563 ] } },
{ "type": "Feature", "properties": { "index": "76", "@osmId": "node/9277385412", "name": null, "opening_hours": "Mo-Sa 08:00-18:00", "label": "Marketplaces", "color": "#fe9929" }, "geometry": { "type": "Point", "coordinates": [ 39.2760587, -6.8128786 ] } },
{ "type": "Feature", "properties": { "index": "77", "@osmId": "node/9277385414", "name": "Saede Stationary", "opening_hours": "Mo-Sa 08:00-18:00", "label": "Marketplaces", "color": "#fe9929" }, "geometry": { "type": "Point", "coordinates": [ 39.2726684, -6.8152435 ] } },
{ "type": "Feature", "properties": { "index": "78", "@osmId": "node/9277385415", "name": "Moju Barber", "opening_hours": "Mo-Sa 08:00-18:00", "label": "Marketplaces", "color": "#fe9929" }, "geometry": { "type": "Point", "coordinates": [ 39.272368, -6.8234676 ] } },
{ "type": "Feature", "properties": { "index": "79", "@osmId": "node/9277391017", "name": null, "opening_hours": "Mo-Sa 08:00-18:00", "label": "Marketplaces", "color": "#fe9929" }, "geometry": { "type": "Point", "coordinates": [ 39.2529917, -6.8167563 ] } },
{ "type": "Feature", "properties": { "index": "80", "@osmId": "node/9277391019", "name": "Kumoh Diesel Parts", "opening_hours": "Mo-Su 09:00-21:00", "label": "Marketplaces", "color": "#fe9929" }, "geometry": { "type": "Point", "coordinates": [ 39.2751789, -6.8156483 ] } },
{ "type": "Feature", "properties": { "index": "81", "@osmId": "node/9277391020", "name": null, "opening_hours": "Mo-Su 09:00-21:00;24/7", "label": "Marketplaces", "color": "#fe9929" }, "geometry": { "type": "Point", "coordinates": [ 39.2775515, -6.8152645 ] } },
{ "type": "Feature", "properties": { "index": "82", "@osmId": "node/9277391024", "name": "Yule Yule Agencies", "opening_hours": "Mo-Sa 09:00-20:00", "label": "Marketplaces", "color": "#fe9929" }, "geometry": { "type": "Point", "coordinates": [ 39.2739129, -6.8181411 ] } },
{ "type": "Feature", "properties": { "index": "83", "@osmId": "node/9277391026", "name": null, "opening_hours": "Mo-Fr 08:00-18:00; Sa-Su 08:00-15:00", "label": "Marketplaces", "color": "#fe9929" }, "geometry": { "type": "Point", "coordinates": [ 39.2617893, -6.821124 ] } },
{ "type": "Feature", "properties": { "index": "84", "@osmId": "node/9277391027", "name": "Zantel Shop", "opening_hours": "Mo-Sa 09:00-20:00", "label": "Marketplaces", "color": "#fe9929" }, "geometry": { "type": "Point", "coordinates": [ 39.2797567, -6.8161099 ] } },
{ "type": "Feature", "properties": { "index": "85", "@osmId": "node/9277391028", "name": null, "opening_hours": "Mo-Sa 08:00-18:00", "label": "Marketplaces", "color": "#fe9929" }, "geometry": { "type": "Point", "coordinates": [ 39.252069, -6.8168841 ] } },
{ "type": "Feature", "properties": { "index": "86", "@osmId": "node/9277391029", "name": null, "opening_hours": "Mo-Fr 08:00-18:00; Sa-Su 08:00-15:00", "label": "Marketplaces", "color": "#fe9929" }, "geometry": { "type": "Point", "coordinates": [ 39.272718, -6.821879 ] } },
{ "type": "Feature", "properties": { "index": "87", "@osmId": "node/9277391030", "name": null, "opening_hours": "Mo-Sa 08:00-18:00", "label": "Marketplaces", "color": "#fe9929" }, "geometry": { "type": "Point", "coordinates": [ 39.2538285, -6.8165645 ] } },
{ "type": "Feature", "properties": { "index": "88", "@osmId": "node/9277391032", "name": null, "opening_hours": "Mo-Su 09:00-21:00", "label": "Marketplaces", "color": "#fe9929" }, "geometry": { "type": "Point", "coordinates": [ 39.2713165, -6.8226154 ] } },
{ "type": "Feature", "properties": { "index": "89", "@osmId": "node/9277391033", "name": null, "opening_hours": "Mo-Sa 08:00-18:00", "label": "Marketplaces", "color": "#fe9929" }, "geometry": { "type": "Point", "coordinates": [ 39.2523909, -6.8168415 ] } },
{ "type": "Feature", "properties": { "index": "90", "@osmId": "node/9277391034", "name": "Utomost Investment", "opening_hours": "Mo-Sa 08:00-18:00", "label": "Marketplaces", "color": "#fe9929" }, "geometry": { "type": "Point", "coordinates": [ 39.272325, -6.815904 ] } },
{ "type": "Feature", "properties": { "index": "91", "@osmId": "node/9277391035", "name": "Khadija Auto Parts", "opening_hours": "Mo-Sa 09:00-17:00", "label": "Marketplaces", "color": "#fe9929" }, "geometry": { "type": "Point", "coordinates": [ 39.2736554, -6.8176298 ] } },
{ "type": "Feature", "properties": { "index": "92", "@osmId": "node/9277391039", "name": "Ally's Tyre", "opening_hours": "Mo-Sa 08:00-18:00", "label": "Marketplaces", "color": "#fe9929" }, "geometry": { "type": "Point", "coordinates": [ 39.2727456, -6.8151702 ] } },
{ "type": "Feature", "properties": { "index": "93", "@osmId": "node/9277391040", "name": "Sanyiwa", "opening_hours": "Mo-Fr 08:00-18:00; Sa-Su 08:00-15:00", "label": "Marketplaces", "color": "#fe9929" }, "geometry": { "type": "Point", "coordinates": [ 39.272325, -6.8224662 ] } },
{ "type": "Feature", "properties": { "index": "94", "@osmId": "node/9277391041", "name": "Nikon", "opening_hours": "Mo-Fr 08:00-18:00; Sa-Su 08:00-15:00", "label": "Marketplaces", "color": "#fe9929" }, "geometry": { "type": "Point", "coordinates": [ 39.2730331, -6.8222319 ] } },
{ "type": "Feature", "properties": { "index": "95", "@osmId": "node/9277391042", "name": null, "opening_hours": "Mo-Sa 08:00-18:00", "label": "Marketplaces", "color": "#fe9929" }, "geometry": { "type": "Point", "coordinates": [ 39.2527342, -6.8167989 ] } },
{ "type": "Feature", "properties": { "index": "96", "@osmId": "node/9277391043", "name": null, "opening_hours": "Mo-Sa 08:00-18:00", "label": "Marketplaces", "color": "#fe9929" }, "geometry": { "type": "Point", "coordinates": [ 39.2582641, -6.8216859 ] } },
{ "type": "Feature", "properties": { "index": "97", "@osmId": "node/9277391045", "name": null, "opening_hours": "Mo-Sa 08:00-18:00", "label": "Marketplaces", "color": "#fe9929" }, "geometry": { "type": "Point", "coordinates": [ 39.2600513, -6.8217205 ] } },
{ "type": "Feature", "properties": { "index": "98", "@osmId": "node/9277391047", "name": "London", "opening_hours": null, "label": "Marketplaces", "color": "#fe9929" }, "geometry": { "type": "Point", "coordinates": [ 39.271853, -6.8233398 ] } },
{ "type": "Feature", "properties": { "index": "99", "@osmId": "node/9277391048", "name": null, "opening_hours": "Mo-Sa 08:00-18:00", "label": "Marketplaces", "color": "#fe9929" }, "geometry": { "type": "Point", "coordinates": [ 39.2731404, -6.8146043 ] } },
{ "type": "Feature", "properties": { "index": "100", "@osmId": "node/9277391049", "name": null, "opening_hours": null, "label": "Marketplaces", "color": "#fe9929" }, "geometry": { "type": "Point", "coordinates": [ 39.2732906, -6.8230202 ] } },
{ "type": "Feature", "properties": { "index": "101", "@osmId": "node/9277391050", "name": "Fs Water Centre ltd", "opening_hours": "Mo-Sa 08:00-18:00", "label": "Marketplaces", "color": "#fe9929" }, "geometry": { "type": "Point", "coordinates": [ 39.2737842, -6.818546 ] } },
{ "type": "Feature", "properties": { "index": "102", "@osmId": "node/9277391052", "name": null, "opening_hours": "Mo-Sa 08:00-18:00", "label": "Marketplaces", "color": "#fe9929" }, "geometry": { "type": "Point", "coordinates": [ 39.2525625, -6.8167989 ] } },
{ "type": "Feature", "properties": { "index": "103", "@osmId": "node/9277391053", "name": "bass transport", "opening_hours": "Mo-Sa 08:00-18:00", "label": "Marketplaces", "color": "#fe9929" }, "geometry": { "type": "Point", "coordinates": [ 39.2730472, -6.8164256 ] } },
{ "type": "Feature", "properties": { "index": "104", "@osmId": "node/9277391056", "name": "Carpentery", "opening_hours": "Mo-Sa 09:00-17:00", "label": "Marketplaces", "color": "#fe9929" }, "geometry": { "type": "Point", "coordinates": [ 39.2512466, -6.8163091 ] } },
{ "type": "Feature", "properties": { "index": "105", "@osmId": "node/9277391058", "name": null, "opening_hours": "Mo-Fr 08:00-18:00; Sa-Su 08:00-15:00", "label": "Marketplaces", "color": "#fe9929" }, "geometry": { "type": "Point", "coordinates": [ 39.2724752, -6.8222106 ] } },
{ "type": "Feature", "properties": { "index": "106", "@osmId": "node/9277391059", "name": null, "opening_hours": "Mo-Sa 08:00-18:00", "label": "Marketplaces", "color": "#fe9929" }, "geometry": { "type": "Point", "coordinates": [ 39.2541075, -6.8165432 ] } },
{ "type": "Feature", "properties": { "index": "107", "@osmId": "node/9277391060", "name": null, "opening_hours": "Mo-Sa 08:00-18:00", "label": "Marketplaces", "color": "#fe9929" }, "geometry": { "type": "Point", "coordinates": [ 39.2535496, -6.8166284 ] } },
{ "type": "Feature", "properties": { "index": "108", "@osmId": "node/9277391061", "name": null, "opening_hours": "Mo-Su 09:00-21:00", "label": "Marketplaces", "color": "#fe9929" }, "geometry": { "type": "Point", "coordinates": [ 39.2506957, -6.8163727 ] } },
{ "type": "Feature", "properties": { "index": "109", "@osmId": "node/9277391062", "name": null, "opening_hours": "Mo-Sa 08:00-18:00", "label": "Marketplaces", "color": "#fe9929" }, "geometry": { "type": "Point", "coordinates": [ 39.2530346, -6.8167563 ] } },
{ "type": "Feature", "properties": { "index": "110", "@osmId": "node/9277391064", "name": "dulla and Pius Tyres", "opening_hours": "Mo-Sa 08:00-18:00", "label": "Marketplaces", "color": "#fe9929" }, "geometry": { "type": "Point", "coordinates": [ 39.2728152, -6.8151587 ] } },
{ "type": "Feature", "properties": { "index": "111", "@osmId": "node/9277391065", "name": null, "opening_hours": "Mo-Fr 08:00-18:00; Sa-Su 08:00-15:00", "label": "Marketplaces", "color": "#fe9929" }, "geometry": { "type": "Point", "coordinates": [ 39.2723465, -6.8219336 ] } },
{ "type": "Feature", "properties": { "index": "112", "@osmId": "node/9277391067", "name": "Plotter Cutter", "opening_hours": "Mo-Sa 08:00-18:00", "label": "Marketplaces", "color": "#fe9929" }, "geometry": { "type": "Point", "coordinates": [ 39.2726296, -6.8157576 ] } },
{ "type": "Feature", "properties": { "index": "113", "@osmId": "node/9277391069", "name": null, "opening_hours": "Mo-Sa 08:00-18:00", "label": "Marketplaces", "color": "#fe9929" }, "geometry": { "type": "Point", "coordinates": [ 39.2711663, -6.8165219 ] } },
{ "type": "Feature", "properties": { "index": "114", "@osmId": "way/346493246", "name": null, "opening_hours": null, "label": "Marketplaces", "color": "#fe9929" }, "geometry": { "type": "Polygon", "coordinates": [ [ [ 39.238381, -6.7909572 ], [ 39.2383356, -6.7909531 ], [ 39.2383286, -6.7910303 ], [ 39.2383266, -6.7910526 ], [ 39.2383556, -6.7910552 ], [ 39.2383577, -6.7910329 ], [ 39.2383739, -6.7910344 ], [ 39.238381, -6.7909572 ] ] ] } },
{ "type": "Feature", "properties": { "index": "115", "@osmId": "way/370752505", "name": "Manzese Market", "opening_hours": null, "label": "Marketplaces", "color": "#fe9929" }, "geometry": { "type": "Polygon", "coordinates": [ [ [ 39.233835, -6.800609 ], [ 39.2337852, -6.8005904 ], [ 39.2337301, -6.8006891 ], [ 39.2336869, -6.8007714 ], [ 39.2337729, -6.8008184 ], [ 39.2338158, -6.8008565 ], [ 39.2339011, -6.8009225 ], [ 39.2339513, -6.8009661 ], [ 39.234067, -6.8010503 ], [ 39.2341297, -6.8010881 ], [ 39.2342715, -6.8011788 ], [ 39.2343136, -6.8012124 ], [ 39.2343456, -6.8012228 ], [ 39.2343937, -6.8012359 ], [ 39.2344526, -6.8012446 ], [ 39.2344714, -6.8012297 ], [ 39.2345257, -6.8012446 ], [ 39.2345306, -6.8012602 ], [ 39.2345411, -6.8012667 ], [ 39.2345735, -6.8012747 ], [ 39.2346491, -6.8012951 ], [ 39.2346738, -6.8013069 ], [ 39.234695, -6.8013152 ], [ 39.2347334, -6.801328 ], [ 39.2347769, -6.8013404 ], [ 39.2348306, -6.8013553 ], [ 39.2348525, -6.8013536 ], [ 39.2349103, -6.8013708 ], [ 39.2349225, -6.8013608 ], [ 39.234969, -6.8013331 ], [ 39.2350396, -6.8013611 ], [ 39.2350805, -6.8013839 ], [ 39.2351702, -6.8014122 ], [ 39.2352199, -6.8014306 ], [ 39.2352799, -6.801436 ], [ 39.2353213, -6.8014456 ], [ 39.2353636, -6.8014435 ], [ 39.2353948, -6.8014475 ], [ 39.2354425, -6.8014583 ], [ 39.2355473, -6.8014845 ], [ 39.2354942, -6.8015915 ], [ 39.2355095, -6.8017278 ], [ 39.2355596, -6.8017472 ], [ 39.2355774, -6.8016019 ], [ 39.2356869, -6.8012496 ], [ 39.2356293, -6.8012304 ], [ 39.2355781, -6.8013857 ], [ 39.2355565, -6.8014344 ], [ 39.2355237, -6.8014423 ], [ 39.2355054, -6.8014356 ], [ 39.2354859, -6.8014294 ], [ 39.2354642, -6.8014258 ], [ 39.2354496, -6.8014213 ], [ 39.2354071, -6.8014124 ], [ 39.2353783, -6.8014098 ], [ 39.2353409, -6.8014079 ], [ 39.235327, -6.8014071 ], [ 39.2353089, -6.8014047 ], [ 39.2352749, -6.8013984 ], [ 39.2352379, -6.8013971 ], [ 39.2352162, -6.8014109 ], [ 39.2351694, -6.8013992 ], [ 39.2351481, -6.8013796 ], [ 39.2351245, -6.8013781 ], [ 39.2350939, -6.8013614 ], [ 39.2350778, -6.8013548 ], [ 39.2350533, -6.8013442 ], [ 39.235044, -6.801345 ], [ 39.2350316, -6.801337 ], [ 39.2349825, -6.8013258 ], [ 39.234955, -6.8013221 ], [ 39.2349479, -6.8013408 ], [ 39.2348953, -6.80132 ], [ 39.2348365, -6.8013017 ], [ 39.2347703, -6.8012823 ], [ 39.2346951, -6.8012434 ], [ 39.2346826, -6.8012359 ], [ 39.2346676, -6.8012289 ], [ 39.2346581, -6.8012243 ], [ 39.2346331, -6.8012181 ], [ 39.2346078, -6.8012192 ], [ 39.2345921, -6.8012131 ], [ 39.2345362, -6.8011991 ], [ 39.2344205, -6.8011661 ], [ 39.2344226, -6.801146 ], [ 39.2344449, -6.8010799 ], [ 39.2344606, -6.8010419 ], [ 39.2344686, -6.8010305 ], [ 39.2344799, -6.8010123 ], [ 39.2344874, -6.8009987 ], [ 39.2344969, -6.8009834 ], [ 39.2345031, -6.8009737 ], [ 39.2345274, -6.8009896 ], [ 39.2345811, -6.8009616 ], [ 39.2345634, -6.8009558 ], [ 39.2345233, -6.8009423 ], [ 39.2344609, -6.8009229 ], [ 39.2344463, -6.8009281 ], [ 39.2344324, -6.8009378 ], [ 39.2343575, -6.8009191 ], [ 39.2343502, -6.8009592 ], [ 39.2343125, -6.8009609 ], [ 39.2342575, -6.8008771 ], [ 39.2342533, -6.8011287 ], [ 39.2341937, -6.8011028 ], [ 39.234129, -6.801073 ], [ 39.2340833, -6.801054 ], [ 39.2340746, -6.8010253 ], [ 39.2340516, -6.8009931 ], [ 39.2340095, -6.8009623 ], [ 39.2339934, -6.8009689 ], [ 39.2339548, -6.8009305 ], [ 39.2339307, -6.8009035 ], [ 39.2338896, -6.800871 ], [ 39.2338614, -6.8008558 ], [ 39.2338398, -6.8008368 ], [ 39.2338471, -6.8008177 ], [ 39.2338276, -6.8008008 ], [ 39.2337608, -6.8007649 ], [ 39.2337718, -6.8007341 ], [ 39.233835, -6.800609 ] ] ] } },
{ "type": "Feature", "properties": { "index": "116", "@osmId": "way/376346113", "name": "Big Brother", "opening_hours": null, "label": "Marketplaces", "color": "#fe9929" }, "geometry": { "type": "Polygon", "coordinates": [ [ [ 39.2248598, -6.796872 ], [ 39.224854, -6.7969117 ], [ 39.2251702, -6.7969575 ], [ 39.2254507, -6.7969981 ], [ 39.2256609, -6.7970285 ], [ 39.2256596, -6.7970369 ], [ 39.2258084, -6.7970584 ], [ 39.2258047, -6.7970836 ], [ 39.2258503, -6.7970902 ], [ 39.2258519, -6.7970794 ], [ 39.2259741, -6.7970971 ], [ 39.2259962, -6.7969464 ], [ 39.2259874, -6.7969451 ], [ 39.225991, -6.7969209 ], [ 39.2259798, -6.7969193 ], [ 39.2259861, -6.796876 ], [ 39.2260089, -6.7968793 ], [ 39.2260154, -6.7968353 ], [ 39.2260077, -6.7968342 ], [ 39.226012, -6.7968046 ], [ 39.2259734, -6.796799 ], [ 39.225974, -6.7967952 ], [ 39.2259591, -6.796793 ], [ 39.22596, -6.7967867 ], [ 39.2260378, -6.796798 ], [ 39.2260457, -6.796744 ], [ 39.2260464, -6.7967442 ], [ 39.2260552, -6.7966842 ], [ 39.2259691, -6.7966718 ], [ 39.2259805, -6.7965944 ], [ 39.2259217, -6.7965859 ], [ 39.2259204, -6.7965949 ], [ 39.225893, -6.796591 ], [ 39.2258946, -6.7965798 ], [ 39.2256574, -6.7965455 ], [ 39.22565, -6.7965963 ], [ 39.2258771, -6.7966291 ], [ 39.2258745, -6.7966467 ], [ 39.2255717, -6.7966029 ], [ 39.2255645, -6.7966515 ], [ 39.2259094, -6.7967014 ], [ 39.2259084, -6.7967083 ], [ 39.2259257, -6.7967108 ], [ 39.2259236, -6.796725 ], [ 39.2256048, -6.7966789 ], [ 39.2255989, -6.7967191 ], [ 39.2255394, -6.7967105 ], [ 39.2255372, -6.7967257 ], [ 39.225521, -6.7967234 ], [ 39.2255138, -6.7967724 ], [ 39.2255282, -6.7967745 ], [ 39.2255188, -6.7968387 ], [ 39.225514, -6.796838 ], [ 39.2255112, -6.7968571 ], [ 39.2255035, -6.796856 ], [ 39.225508, -6.7968254 ], [ 39.2254323, -6.7968145 ], [ 39.2254376, -6.7967785 ], [ 39.2253648, -6.7967679 ], [ 39.2253601, -6.7967995 ], [ 39.2252549, -6.7967843 ], [ 39.2252597, -6.7967515 ], [ 39.2251826, -6.7967404 ], [ 39.2251787, -6.7967666 ], [ 39.2251675, -6.796765 ], [ 39.2251704, -6.7967452 ], [ 39.2251117, -6.7967367 ], [ 39.2251087, -6.7967575 ], [ 39.2250369, -6.7967471 ], [ 39.2250416, -6.7967147 ], [ 39.2250074, -6.7967097 ], [ 39.2250034, -6.7967367 ], [ 39.224985, -6.796734 ], [ 39.2249852, -6.7967329 ], [ 39.224889, -6.7967189 ], [ 39.2248849, -6.796747 ], [ 39.224889, -6.7967476 ], [ 39.2248837, -6.7967836 ], [ 39.2248898, -6.7967845 ], [ 39.2248766, -6.7968745 ], [ 39.2248598, -6.796872 ] ] ] } },
{ "type": "Feature", "properties": { "index": "117", "@osmId": "way/450055577", "name": "Urafiki Market", "opening_hours": null, "label": "Marketplaces", "color": "#fe9929" }, "geometry": { "type": "Polygon", "coordinates": [ [ [ 39.2240095, -6.7997834 ], [ 39.2239968, -6.7997864 ], [ 39.2238774, -6.8004302 ], [ 39.2238064, -6.800943 ], [ 39.2237303, -6.8013549 ], [ 39.2237339, -6.8013571 ], [ 39.2241503, -6.8015582 ], [ 39.224354, -6.8016468 ], [ 39.2244623, -6.8016968 ], [ 39.2244712, -6.8017028 ], [ 39.2244656, -6.8017273 ], [ 39.2248824, -6.8018942 ], [ 39.2249108, -6.8017187 ], [ 39.2249867, -6.8011893 ], [ 39.2249914, -6.8010888 ], [ 39.2250195, -6.800911 ], [ 39.2250913, -6.8005614 ], [ 39.2251322, -6.8003543 ], [ 39.2252035, -6.7999134 ], [ 39.2245269, -6.7998577 ], [ 39.2243179, -6.7998219 ], [ 39.2242078, -6.7997879 ], [ 39.2240952, -6.7997664 ], [ 39.2240193, -6.7997557 ], [ 39.2240095, -6.7997834 ] ] ] } },
{ "type": "Feature", "properties": { "index": "118", "@osmId": "way/670176769", "name": "Gamex", "opening_hours": null, "label": "Marketplaces", "color": "#fe9929" }, "geometry": { "type": "Polygon", "coordinates": [ [ [ 39.2237008, -6.8056799 ], [ 39.2236338, -6.8056798 ], [ 39.2235277, -6.8060417 ], [ 39.2236071, -6.8060646 ], [ 39.2236034, -6.8060773 ], [ 39.2236035, -6.8060819 ], [ 39.223647, -6.8061007 ], [ 39.2236508, -6.8061051 ], [ 39.2236903, -6.8060719 ], [ 39.223756, -6.8060698 ], [ 39.223774, -6.8060762 ], [ 39.2238005, -6.8060715 ], [ 39.2238304, -6.8061043 ], [ 39.2239612, -6.8061201 ], [ 39.2239959, -6.8060926 ], [ 39.2240603, -6.8058039 ], [ 39.2240788, -6.8057764 ], [ 39.2240821, -6.805694 ], [ 39.2238823, -6.8056861 ], [ 39.2238591, -6.8056944 ], [ 39.2237093, -6.8056995 ], [ 39.2237138, -6.8056836 ], [ 39.2237008, -6.8056799 ] ] ] } },
{ "type": "Feature", "properties": { "index": "119", "@osmId": "node/1401911322", "name": null, "opening_hours": null, "label": "Marketplaces", "color": "#fe9929" }, "geometry": { "type": "Point", "coordinates": [ 39.2430639, -6.7925375 ] } },
{ "type": "Feature", "properties": { "index": "120", "@osmId": "node/1401932232", "name": "Genge", "opening_hours": null, "label": "Marketplaces", "color": "#fe9929" }, "geometry": { "type": "Point", "coordinates": [ 39.2425619, -6.7927425 ] } },
{ "type": "Feature", "properties": { "index": "121", "@osmId": "node/3121880129", "name": null, "opening_hours": null, "label": "Marketplaces", "color": "#fe9929" }, "geometry": { "type": "Point", "coordinates": [ 39.2994803, -6.8185398 ] } },
{ "type": "Feature", "properties": { "index": "122", "@osmId": "node/3446148877", "name": "Tandale Market", "opening_hours": null, "label": "Marketplaces", "color": "#fe9929" }, "geometry": { "type": "Point", "coordinates": [ 39.2374625, -6.7993016 ] } },
{ "type": "Feature", "properties": { "index": "123", "@osmId": "node/3662764374", "name": "Mbrahati Market", "opening_hours": null, "label": "Marketplaces", "color": "#fe9929" }, "geometry": { "type": "Point", "coordinates": [ 39.2385411, -6.8097483 ] } },
{ "type": "Feature", "properties": { "index": "124", "@osmId": "node/3670686228", "name": null, "opening_hours": null, "label": "Marketplaces", "color": "#fe9929" }, "geometry": { "type": "Point", "coordinates": [ 39.2374233, -6.8056498 ] } },
{ "type": "Feature", "properties": { "index": "125", "@osmId": "node/3670794014", "name": null, "opening_hours": null, "label": "Marketplaces", "color": "#fe9929" }, "geometry": { "type": "Point", "coordinates": [ 39.2374277, -6.8055319 ] } },
{ "type": "Feature", "properties": { "index": "126", "@osmId": "node/3670794017", "name": null, "opening_hours": null, "label": "Marketplaces", "color": "#fe9929" }, "geometry": { "type": "Point", "coordinates": [ 39.237522, -6.8055678 ] } },
{ "type": "Feature", "properties": { "index": "127", "@osmId": "node/3670835206", "name": null, "opening_hours": null, "label": "Marketplaces", "color": "#fe9929" }, "geometry": { "type": "Point", "coordinates": [ 39.238219, -6.8043059 ] } },
{ "type": "Feature", "properties": { "index": "128", "@osmId": "node/3722703047", "name": null, "opening_hours": null, "label": "Marketplaces", "color": "#fe9929" }, "geometry": { "type": "Point", "coordinates": [ 39.2406311, -6.8392058 ] } },
{ "type": "Feature", "properties": { "index": "129", "@osmId": "node/3794126525", "name": null, "opening_hours": null, "label": "Marketplaces", "color": "#fe9929" }, "geometry": { "type": "Point", "coordinates": [ 39.2216481, -6.8382876 ] } },
{ "type": "Feature", "properties": { "index": "130", "@osmId": "node/5163149471", "name": null, "opening_hours": "Mo-Sa 09:00-20:00", "label": "Marketplaces", "color": "#fe9929" }, "geometry": { "type": "Point", "coordinates": [ 39.2230729, -6.786256 ] } },
{ "type": "Feature", "properties": { "index": "131", "@osmId": "node/5163149513", "name": null, "opening_hours": "Mo-Su 09:00-21:00", "label": "Marketplaces", "color": "#fe9929" }, "geometry": { "type": "Point", "coordinates": [ 39.2204866, -6.7868745 ] } },
{ "type": "Feature", "properties": { "index": "132", "@osmId": "node/6072487205", "name": null, "opening_hours": "Mo-Fr 08:00-18:00; Sa-Su 08:00-15:00", "label": "Marketplaces", "color": "#fe9929" }, "geometry": { "type": "Point", "coordinates": [ 39.226932, -6.8314747 ] } },
{ "type": "Feature", "properties": { "index": "133", "@osmId": "node/6072487257", "name": "Zai Hair Dressing Saloon", "opening_hours": "Mo-Fr 08:00-18:00; Sa-Su 08:00-15:00", "label": "Marketplaces", "color": "#fe9929" }, "geometry": { "type": "Point", "coordinates": [ 39.2268248, -6.8346545 ] } },
{ "type": "Feature", "properties": { "index": "134", "@osmId": "node/6072512953", "name": "Zai Hair Dressing Saloon", "opening_hours": "Mo-Fr 08:00-18:00; Sa-Su 08:00-15:00", "label": "Marketplaces", "color": "#fe9929" }, "geometry": { "type": "Point", "coordinates": [ 39.2268022, -6.8346653 ] } },
{ "type": "Feature", "properties": { "index": "135", "@osmId": "node/6285447608", "name": null, "opening_hours": "Mo-Sa 09:00-21:00", "label": "Marketplaces", "color": "#fe9929" }, "geometry": { "type": "Point", "coordinates": [ 39.2387868, -6.7837054 ] } },
{ "type": "Feature", "properties": { "index": "136", "@osmId": "node/6398244786", "name": "Alimaua B Market", "opening_hours": null, "label": "Marketplaces", "color": "#fe9929" }, "geometry": { "type": "Point", "coordinates": [ 39.2360601, -6.786269 ] } },
{ "type": "Feature", "properties": { "index": "137", "@osmId": "node/6400287183", "name": "Magenge mengi market", "opening_hours": null, "label": "Marketplaces", "color": "#fe9929" }, "geometry": { "type": "Point", "coordinates": [ 39.2396862, -6.8205423 ] } },
{ "type": "Feature", "properties": { "index": "138", "@osmId": "node/6400556038", "name": "Kagera Market", "opening_hours": null, "label": "Marketplaces", "color": "#fe9929" }, "geometry": { "type": "Point", "coordinates": [ 39.2414027, -6.8017831 ] } },
{ "type": "Feature", "properties": { "index": "139", "@osmId": "node/6406752436", "name": "Tabata Tenge Market", "opening_hours": null, "label": "Marketplaces", "color": "#fe9929" }, "geometry": { "type": "Point", "coordinates": [ 39.2235322, -6.8301794 ] } },
{ "type": "Feature", "properties": { "index": "140", "@osmId": "node/6406787738", "name": "cereal market", "opening_hours": null, "label": "Marketplaces", "color": "#fe9929" }, "geometry": { "type": "Point", "coordinates": [ 39.2396093, -6.7967262 ] } },
{ "type": "Feature", "properties": { "index": "141", "@osmId": "node/6408617593", "name": "Ogelea market", "opening_hours": null, "label": "Marketplaces", "color": "#fe9929" }, "geometry": { "type": "Point", "coordinates": [ 39.2258516, -6.8475339 ] } },
{ "type": "Feature", "properties": { "index": "142", "@osmId": "node/6408617612", "name": "Kwa Simba Market", "opening_hours": null, "label": "Marketplaces", "color": "#fe9929" }, "geometry": { "type": "Point", "coordinates": [ 39.2328201, -6.8431558 ] } },
{ "type": "Feature", "properties": { "index": "143", "@osmId": "node/7615384464", "name": "Sokoni Kwa Simba", "opening_hours": null, "label": "Marketplaces", "color": "#fe9929" }, "geometry": { "type": "Point", "coordinates": [ 39.2325655, -6.8431683 ] } },
{ "type": "Feature", "properties": { "index": "144", "@osmId": "node/7615390083", "name": "Mburahati Market", "opening_hours": null, "label": "Marketplaces", "color": "#fe9929" }, "geometry": { "type": "Point", "coordinates": [ 39.2382297, -6.8099568 ] } },
{ "type": "Feature", "properties": { "index": "145", "@osmId": "node/7615390084", "name": null, "opening_hours": null, "label": "Marketplaces", "color": "#fe9929" }, "geometry": { "type": "Point", "coordinates": [ 39.2355395, -6.8156508 ] } },
{ "type": "Feature", "properties": { "index": "146", "@osmId": "node/7615437188", "name": "Faru Market", "opening_hours": null, "label": "Marketplaces", "color": "#fe9929" }, "geometry": { "type": "Point", "coordinates": [ 39.2383365, -6.8426753 ] } }
]
}
