{
"type": "FeatureCollection",
"features": [
{ "type": "Feature", "properties": { "index": "0", "label": "Within 300 m on foot", "color": "#2b8cbe" }, "geometry": { "type": "MultiPolygon", "coordinates": [ [ [ [ 3.8912811, 43.6003556 ], [ 3.8912593, 43.600091 ], [ 3.891264, 43.6000022 ], [ 3.8986897, 43.6000012 ], [ 3.8986923, 43.6000328 ], [ 3.8986784, 43.6002977 ], [ 3.8986288, 43.6005603 ], [ 3.898544, 43.6008181 ], [ 3.8984248, 43.6010687 ], [ 3.8982724, 43.6013095 ], [ 3.8980883, 43.6015383 ], [ 3.8978742, 43.6017529 ], [ 3.8976322, 43.6019512 ], [ 3.8973646, 43.6021313 ], [ 3.897074, 43.6022915 ], [ 3.8967631, 43.6024303 ], [ 3.8964351, 43.6025462 ], [ 3.896093, 43.6026382 ], [ 3.8957402, 43.6027053 ], [ 3.8953799, 43.6027471 ], [ 3.8950158, 43.6027629 ], [ 3.8946513, 43.6027528 ], [ 3.89429, 43.6027167 ], [ 3.8939352, 43.6026551 ], [ 3.8935905, 43.6025684 ], [ 3.8932591, 43.6024577 ], [ 3.8929442, 43.6023239 ], [ 3.8926489, 43.6021683 ], [ 3.892376, 43.6019924 ], [ 3.8921282, 43.6017979 ], [ 3.8919078, 43.6015867 ], [ 3.8917169, 43.6013608 ], [ 3.8915574, 43.6011224 ], [ 3.8914309, 43.6008738 ], [ 3.8913385, 43.6006174 ], [ 3.8912811, 43.6003556 ] ] ], [ [ [ 3.8820048, 43.6035352 ], [ 3.8821642, 43.6037736 ], [ 3.8822907, 43.6040222 ], [ 3.8823831, 43.6042786 ], [ 3.8824405, 43.6045404 ], [ 3.8824622, 43.604805 ], [ 3.8824482, 43.6050698 ], [ 3.8823985, 43.6053324 ], [ 3.8823136, 43.6055902 ], [ 3.8821944, 43.6058407 ], [ 3.882042, 43.6060816 ], [ 3.8818578, 43.6063104 ], [ 3.8816436, 43.6065249 ], [ 3.8814015, 43.6067232 ], [ 3.8812172, 43.6068472 ], [ 3.8813467, 43.6068416 ], [ 3.8817112, 43.6068518 ], [ 3.8820726, 43.6068879 ], [ 3.8824273, 43.6069496 ], [ 3.8827721, 43.6070362 ], [ 3.8831035, 43.607147 ], [ 3.8834184, 43.6072808 ], [ 3.8837136, 43.6074365 ], [ 3.8839865, 43.6076124 ], [ 3.8842344, 43.6078069 ], [ 3.8844548, 43.6080181 ], [ 3.8846456, 43.608244 ], [ 3.8848051, 43.6084824 ], [ 3.8849317, 43.608731 ], [ 3.8850241, 43.6089874 ], [ 3.8850814, 43.6092492 ], [ 3.8851032, 43.6095138 ], [ 3.8850892, 43.6097787 ], [ 3.8850395, 43.6100413 ], [ 3.8849547, 43.6102991 ], [ 3.8848354, 43.6105496 ], [ 3.884683, 43.6107904 ], [ 3.8844988, 43.6110192 ], [ 3.8842846, 43.6112338 ], [ 3.8840425, 43.611432 ], [ 3.8837748, 43.6116121 ], [ 3.8834841, 43.6117723 ], [ 3.8833655, 43.6118252 ], [ 3.8833546, 43.6118827 ], [ 3.8832697, 43.6121405 ], [ 3.8831505, 43.612391 ], [ 3.882998, 43.6126318 ], [ 3.8828138, 43.6128606 ], [ 3.8825996, 43.6130752 ], [ 3.8823575, 43.6132735 ], [ 3.8820898, 43.6134536 ], [ 3.8817991, 43.6136137 ], [ 3.8814882, 43.6137524 ], [ 3.8811601, 43.6138683 ], [ 3.8808179, 43.6139602 ], [ 3.8804649, 43.6140273 ], [ 3.8801047, 43.614069 ], [ 3.8797405, 43.6140848 ], [ 3.8793759, 43.6140746 ], [ 3.8790145, 43.6140385 ], [ 3.8786597, 43.6139768 ], [ 3.8783149, 43.6138902 ], [ 3.8779835, 43.6137794 ], [ 3.8776686, 43.6136455 ], [ 3.8773733, 43.6134899 ], [ 3.8771004, 43.6133139 ], [ 3.8768525, 43.6131194 ], [ 3.8766321, 43.6129082 ], [ 3.8764413, 43.6126823 ], [ 3.8762818, 43.6124439 ], [ 3.8761553, 43.6121953 ], [ 3.8760629, 43.6119388 ], [ 3.8760056, 43.611677 ], [ 3.8759839, 43.6114124 ], [ 3.8759979, 43.6111476 ], [ 3.8760476, 43.610885 ], [ 3.8761325, 43.6106272 ], [ 3.8762518, 43.6103767 ], [ 3.8764043, 43.6101359 ], [ 3.8765885, 43.6099071 ], [ 3.8768027, 43.6096925 ], [ 3.8770449, 43.6094943 ], [ 3.8773126, 43.6093142 ], [ 3.8776033, 43.609154 ], [ 3.8777218, 43.6091011 ], [ 3.8777327, 43.6090436 ], [ 3.8778176, 43.6087858 ], [ 3.8779369, 43.6085353 ], [ 3.8780894, 43.6082945 ], [ 3.8782736, 43.6080657 ], [ 3.8784878, 43.6078512 ], [ 3.8787299, 43.6076529 ], [ 3.8789142, 43.6075289 ], [ 3.8787847, 43.6075345 ], [ 3.8784202, 43.6075243 ], [ 3.8780588, 43.6074882 ], [ 3.877704, 43.6074265 ], [ 3.8773593, 43.6073399 ], [ 3.8770279, 43.6072291 ], [ 3.8767131, 43.6070952 ], [ 3.8764178, 43.6069395 ], [ 3.8761449, 43.6067636 ], [ 3.8758971, 43.6065691 ], [ 3.8756767, 43.6063579 ], [ 3.8754859, 43.606132 ], [ 3.8753265, 43.6058935 ], [ 3.8752, 43.6056449 ], [ 3.8751076, 43.6053885 ], [ 3.8750503, 43.6051267 ], [ 3.8750286, 43.6048621 ], [ 3.8750426, 43.6045972 ], [ 3.8750923, 43.6043346 ], [ 3.8751772, 43.6040768 ], [ 3.8752965, 43.6038263 ], [ 3.875449, 43.6035855 ], [ 3.8756332, 43.6033568 ], [ 3.8758474, 43.6031422 ], [ 3.8760895, 43.6029439 ], [ 3.8763572, 43.6027639 ], [ 3.8766478, 43.6026037 ], [ 3.8769587, 43.6024651 ], [ 3.8772868, 43.6023492 ], [ 3.8776289, 43.6022573 ], [ 3.8779818, 43.6021901 ], [ 3.878342, 43.6021485 ], [ 3.8787061, 43.6021327 ], [ 3.8790706, 43.6021429 ], [ 3.8794319, 43.602179 ], [ 3.8797867, 43.6022407 ], [ 3.8801314, 43.6023273 ], [ 3.8804628, 43.6024381 ], [ 3.8807776, 43.602572 ], [ 3.8810729, 43.6027276 ], [ 3.8813457, 43.6029035 ], [ 3.8815935, 43.603098 ], [ 3.8818139, 43.6033093 ], [ 3.8820048, 43.6035352 ] ] ], [ [ [ 3.8946151, 43.6058846 ], [ 3.8947746, 43.606123 ], [ 3.8949012, 43.6063716 ], [ 3.8949936, 43.606628 ], [ 3.895051, 43.6068898 ], [ 3.8950729, 43.6071544 ], [ 3.8950589, 43.6074192 ], [ 3.8950093, 43.6076818 ], [ 3.8949244, 43.6079396 ], [ 3.8948053, 43.6081902 ], [ 3.8946528, 43.608431 ], [ 3.8944687, 43.6086598 ], [ 3.8942545, 43.6088744 ], [ 3.8941366, 43.608971 ], [ 3.8941119, 43.6090017 ], [ 3.8938977, 43.6092163 ], [ 3.8936557, 43.6094146 ], [ 3.893388, 43.6095947 ], [ 3.8930974, 43.6097549 ], [ 3.8927865, 43.6098936 ], [ 3.8924584, 43.6100095 ], [ 3.8921163, 43.6101015 ], [ 3.8917634, 43.6101687 ], [ 3.8914031, 43.6102104 ], [ 3.891039, 43.6102262 ], [ 3.8906744, 43.610216 ], [ 3.890313, 43.61018 ], [ 3.8899582, 43.6101183 ], [ 3.8896134, 43.6100317 ], [ 3.889282, 43.6099209 ], [ 3.8889671, 43.6097871 ], [ 3.8886718, 43.6096315 ], [ 3.8883989, 43.6094556 ], [ 3.888151, 43.6092611 ], [ 3.8879306, 43.6090499 ], [ 3.8877397, 43.608824 ], [ 3.8875802, 43.6085856 ], [ 3.8874537, 43.608337 ], [ 3.8873613, 43.6080806 ], [ 3.8873039, 43.6078188 ], [ 3.887299, 43.6077593 ], [ 3.8872981, 43.6077552 ], [ 3.8872763, 43.6074906 ], [ 3.8872903, 43.6072257 ], [ 3.88734, 43.6069631 ], [ 3.8874248, 43.6067053 ], [ 3.8875441, 43.6064548 ], [ 3.8876965, 43.606214 ], [ 3.8878807, 43.6059852 ], [ 3.8880948, 43.6057706 ], [ 3.8883369, 43.6055723 ], [ 3.888465, 43.6054861 ], [ 3.8886995, 43.605294 ], [ 3.8889671, 43.6051139 ], [ 3.8892578, 43.6049538 ], [ 3.8895686, 43.6048151 ], [ 3.8898967, 43.6046992 ], [ 3.8902388, 43.6046072 ], [ 3.8905917, 43.60454 ], [ 3.8909519, 43.6044983 ], [ 3.891316, 43.6044825 ], [ 3.8916805, 43.6044927 ], [ 3.8920419, 43.6045287 ], [ 3.8923967, 43.6045904 ], [ 3.8927414, 43.604677 ], [ 3.8930728, 43.6047877 ], [ 3.8933877, 43.6049216 ], [ 3.893683, 43.6050772 ], [ 3.8939559, 43.605253 ], [ 3.8942038, 43.6054475 ], [ 3.8944242, 43.6056587 ], [ 3.8946151, 43.6058846 ] ] ], [ [ [ 3.9021177, 43.6059392 ], [ 3.9022773, 43.6061776 ], [ 3.9024039, 43.6064261 ], [ 3.9024964, 43.6066826 ], [ 3.9025538, 43.6069443 ], [ 3.9025757, 43.6072089 ], [ 3.9025617, 43.6074738 ], [ 3.9025121, 43.6077364 ], [ 3.9024273, 43.6079942 ], [ 3.9023082, 43.6082447 ], [ 3.9021558, 43.6084856 ], [ 3.9019717, 43.6087144 ], [ 3.9017575, 43.608929 ], [ 3.9015155, 43.6091273 ], [ 3.9012479, 43.6093075 ], [ 3.9009573, 43.6094677 ], [ 3.9006464, 43.6096064 ], [ 3.9003183, 43.6097223 ], [ 3.8999762, 43.6098143 ], [ 3.8996233, 43.6098815 ], [ 3.8992631, 43.6099232 ], [ 3.8988989, 43.6099391 ], [ 3.8985344, 43.609929 ], [ 3.898173, 43.6098929 ], [ 3.8978182, 43.6098313 ], [ 3.8974734, 43.6097447 ], [ 3.8971419, 43.609634 ], [ 3.896827, 43.6095001 ], [ 3.8965317, 43.6093445 ], [ 3.8962588, 43.6091687 ], [ 3.8960109, 43.6089742 ], [ 3.8957904, 43.608763 ], [ 3.8955995, 43.6085371 ], [ 3.89544, 43.6082987 ], [ 3.8953134, 43.6080501 ], [ 3.895221, 43.6077937 ], [ 3.8951636, 43.607532 ], [ 3.8951417, 43.6072674 ], [ 3.8951557, 43.6070025 ], [ 3.8952053, 43.6067399 ], [ 3.8952902, 43.6064821 ], [ 3.8954093, 43.6062316 ], [ 3.8955617, 43.6059907 ], [ 3.8957459, 43.6057619 ], [ 3.89596, 43.6055473 ], [ 3.8962021, 43.605349 ], [ 3.8964697, 43.6051689 ], [ 3.8967603, 43.6050087 ], [ 3.8970711, 43.60487 ], [ 3.8973992, 43.6047541 ], [ 3.8977413, 43.6046621 ], [ 3.8980941, 43.6045949 ], [ 3.8984544, 43.6045532 ], [ 3.8988185, 43.6045373 ], [ 3.899183, 43.6045474 ], [ 3.8995444, 43.6045835 ], [ 3.8998991, 43.6046451 ], [ 3.9002439, 43.6047317 ], [ 3.9005753, 43.6048424 ], [ 3.9008902, 43.6049762 ], [ 3.9011855, 43.6051318 ], [ 3.9014585, 43.6053077 ], [ 3.9017064, 43.6055021 ], [ 3.9019268, 43.6057133 ], [ 3.9021177, 43.6059392 ] ] ], [ [ [ 3.8699006, 43.6099091 ], [ 3.8700914, 43.610135 ], [ 3.8702508, 43.6103734 ], [ 3.8703773, 43.610622 ], [ 3.8704696, 43.6108785 ], [ 3.8705269, 43.6111403 ], [ 3.8705487, 43.6114049 ], [ 3.8705346, 43.6116697 ], [ 3.8704848, 43.6119323 ], [ 3.8703999, 43.6121901 ], [ 3.8702806, 43.6124406 ], [ 3.8701281, 43.6126814 ], [ 3.8699438, 43.6129102 ], [ 3.8697296, 43.6131247 ], [ 3.8694874, 43.613323 ], [ 3.8692197, 43.613503 ], [ 3.8689289, 43.6136632 ], [ 3.868618, 43.6138018 ], [ 3.8682898, 43.6139176 ], [ 3.8679476, 43.6140095 ], [ 3.8675947, 43.6140766 ], [ 3.8672344, 43.6141183 ], [ 3.8668702, 43.614134 ], [ 3.8665056, 43.6141238 ], [ 3.8661442, 43.6140876 ], [ 3.8657894, 43.6140259 ], [ 3.8654447, 43.6139392 ], [ 3.8651132, 43.6138284 ], [ 3.8647984, 43.6136945 ], [ 3.8645031, 43.6135388 ], [ 3.8642303, 43.6133628 ], [ 3.8639825, 43.6131683 ], [ 3.8637621, 43.6129571 ], [ 3.8635713, 43.6127311 ], [ 3.8634119, 43.6124927 ], [ 3.8632854, 43.6122441 ], [ 3.8631931, 43.6119876 ], [ 3.8631358, 43.6117258 ], [ 3.8631141, 43.6114612 ], [ 3.8631283, 43.6111964 ], [ 3.863178, 43.6109338 ], [ 3.863263, 43.610676 ], [ 3.8633823, 43.6104255 ], [ 3.8635349, 43.6101847 ], [ 3.8637191, 43.6099559 ], [ 3.8639334, 43.6097414 ], [ 3.8641756, 43.6095432 ], [ 3.8644433, 43.6093631 ], [ 3.864734, 43.609203 ], [ 3.865045, 43.6090644 ], [ 3.8653731, 43.6089485 ], [ 3.8657153, 43.6088566 ], [ 3.8660682, 43.6087896 ], [ 3.8664285, 43.6087479 ], [ 3.8667926, 43.6087322 ], [ 3.8671571, 43.6087424 ], [ 3.8675185, 43.6087786 ], [ 3.8678733, 43.6088403 ], [ 3.868218, 43.608927 ], [ 3.8685494, 43.6090378 ], [ 3.8688643, 43.6091717 ], [ 3.8691595, 43.6093273 ], [ 3.8694324, 43.6095033 ], [ 3.8696802, 43.6096978 ], [ 3.8699006, 43.6099091 ] ] ] ] } },
{ "type": "Feature", "properties": { "index": "1", "label": "Beyond 300 m", "color": "#d9d9d9" }, "geometry": { "type": "Polygon", "coordinates": [ [ [ 3.855, 43.625 ], [ 3.855, 43.6 ], [ 3.905, 43.6 ], [ 3.905, 43.625 ], [ 3.855, 43.625 ] ], [ [ 3.8986897, 43.6000012 ], [ 3.891264, 43.6000022 ], [ 3.8912593, 43.600091 ], [ 3.8912811, 43.6003556 ], [ 3.8913385, 43.6006174 ], [ 3.8914309, 43.6008738 ], [ 3.8915574, 43.6011224 ], [ 3.8917169, 43.6013608 ], [ 3.8919078, 43.6015867 ], [ 3.8921282, 43.6017979 ], [ 3.892376, 43.6019924 ], [ 3.8926489, 43.6021683 ], [ 3.8929442, 43.6023239 ], [ 3.8932591, 43.6024577 ], [ 3.8935905, 43.6025684 ], [ 3.8939352, 43.6026551 ], [ 3.89429, 43.6027167 ], [ 3.8946513, 43.6027528 ], [ 3.8950158, 43.6027629 ], [ 3.8953799, 43.6027471 ], [ 3.8957402, 43.6027053 ], [ 3.896093, 43.6026382 ], [ 3.8964351, 43.6025462 ], [ 3.8967631, 43.6024303 ], [ 3.897074, 43.6022915 ], [ 3.8973646, 43.6021313 ], [ 3.8976322, 43.6019512 ], [ 3.8978742, 43.6017529 ], [ 3.8980883, 43.6015383 ], [ 3.8982724, 43.6013095 ], [ 3.8984248, 43.6010687 ], [ 3.898544, 43.6008181 ], [ 3.8986288, 43.6005603 ], [ 3.8986784, 43.6002977 ], [ 3.8986923, 43.6000328 ], [ 3.8986897, 43.6000012 ] ], [ [ 3.8823831, 43.6042786 ], [ 3.8822907, 43.6040222 ], [ 3.8821642, 43.6037736 ], [ 3.8820048, 43.6035352 ], [ 3.8818139, 43.6033093 ], [ 3.8815935, 43.603098 ], [ 3.8813457, 43.6029035 ], [ 3.8810729, 43.6027276 ], [ 3.8807776, 43.602572 ], [ 3.8804628, 43.6024381 ], [ 3.8801314, 43.6023273 ], [ 3.8797867, 43.6022407 ], [ 3.8794319, 43.602179 ], [ 3.8790706, 43.6021429 ], [ 3.8787061, 43.6021327 ], [ 3.878342, 43.6021485 ], [ 3.8779818, 43.6021901 ], [ 3.8776289, 43.6022573 ], [ 3.8772868, 43.6023492 ], [ 3.8769587, 43.6024651 ], [ 3.8766478, 43.6026037 ], [ 3.8763572, 43.6027639 ], [ 3.8760895, 43.6029439 ], [ 3.8758474, 43.6031422 ], [ 3.8756332, 43.6033568 ], [ 3.875449, 43.6035855 ], [ 3.8752965, 43.6038263 ], [ 3.8751772, 43.6040768 ], [ 3.8750923, 43.6043346 ], [ 3.8750426, 43.6045972 ], [ 3.8750286, 43.6048621 ], [ 3.8750503, 43.6051267 ], [ 3.8751076, 43.6053885 ], [ 3.8752, 43.6056449 ], [ 3.8753265, 43.6058935 ], [ 3.8754859, 43.606132 ], [ 3.8756767, 43.6063579 ], [ 3.8758971, 43.6065691 ], [ 3.8761449, 43.6067636 ], [ 3.8764178, 43.6069395 ], [ 3.8767131, 43.6070952 ], [ 3.8770279, 43.6072291 ], [ 3.8773593, 43.6073399 ], [ 3.877704, 43.6074265 ], [ 3.8780588, 43.6074882 ], [ 3.8784202, 43.6075243 ], [ 3.8787847, 43.6075345 ], [ 3.8789142, 43.6075289 ], [ 3.8787299, 43.6076529 ], [ 3.8784878, 43.6078512 ], [ 3.8782736, 43.6080657 ], [ 3.8780894, 43.6082945 ], [ 3.8779369, 43.6085353 ], [ 3.8778176, 43.6087858 ], [ 3.8777327, 43.6090436 ], [ 3.8777218, 43.6091011 ], [ 3.8776033, 43.609154 ], [ 3.8773126, 43.6093142 ], [ 3.8770449, 43.6094943 ], [ 3.8768027, 43.6096925 ], [ 3.8765885, 43.6099071 ], [ 3.8764043, 43.6101359 ], [ 3.8762518, 43.6103767 ], [ 3.8761325, 43.6106272 ], [ 3.8760476, 43.610885 ], [ 3.8759979, 43.6111476 ], [ 3.8759839, 43.6114124 ], [ 3.8760056, 43.611677 ], [ 3.8760629, 43.6119388 ], [ 3.8761553, 43.6121953 ], [ 3.8762818, 43.6124439 ], [ 3.8764413, 43.6126823 ], [ 3.8766321, 43.6129082 ], [ 3.8768525, 43.6131194 ], [ 3.8771004, 43.6133139 ], [ 3.8773733, 43.6134899 ], [ 3.8776686, 43.6136455 ], [ 3.8779835, 43.6137794 ], [ 3.8783149, 43.6138902 ], [ 3.8786597, 43.6139768 ], [ 3.8790145, 43.6140385 ], [ 3.8793759, 43.6140746 ], [ 3.8797405, 43.6140848 ], [ 3.8801047, 43.614069 ], [ 3.8804649, 43.6140273 ], [ 3.8808179, 43.6139602 ], [ 3.8811601, 43.6138683 ], [ 3.8814882, 43.6137524 ], [ 3.8817991, 43.6136137 ], [ 3.8820898, 43.6134536 ], [ 3.8823575, 43.6132735 ], [ 3.8825996, 43.6130752 ], [ 3.8828138, 43.6128606 ], [ 3.882998, 43.6126318 ], [ 3.8831505, 43.612391 ], [ 3.8832697, 43.6121405 ], [ 3.8833546, 43.6118827 ], [ 3.8833655, 43.6118252 ], [ 3.8834841, 43.6117723 ], [ 3.8837748, 43.6116121 ], [ 3.8840425, 43.611432 ], [ 3.8842846, 43.6112338 ], [ 3.8844988, 43.6110192 ], [ 3.884683, 43.6107904 ], [ 3.8848354, 43.6105496 ], [ 3.8849547, 43.6102991 ], [ 3.8850395, 43.6100413 ], [ 3.8850892, 43.6097787 ], [ 3.8851032, 43.6095138 ], [ 3.8850814, 43.6092492 ], [ 3.8850241, 43.6089874 ], [ 3.8849317, 43.608731 ], [ 3.8848051, 43.6084824 ], [ 3.8846456, 43.608244 ], [ 3.8844548, 43.6080181 ], [ 3.8842344, 43.6078069 ], [ 3.8839865, 43.6076124 ], [ 3.8837136, 43.6074365 ], [ 3.8834184, 43.6072808 ], [ 3.8831035, 43.607147 ], [ 3.8827721, 43.6070362 ], [ 3.8824273, 43.6069496 ], [ 3.8820726, 43.6068879 ], [ 3.8817112, 43.6068518 ], [ 3.8813467, 43.6068416 ], [ 3.8812172, 43.6068472 ], [ 3.8814015, 43.6067232 ], [ 3.8816436, 43.6065249 ], [ 3.8818578, 43.6063104 ], [ 3.882042, 43.6060816 ], [ 3.8821944, 43.6058407 ], [ 3.8823136, 43.6055902 ], [ 3.8823985, 43.6053324 ], [ 3.8824482, 43.6050698 ], [ 3.8824622, 43.604805 ], [ 3.8824405, 43.6045404 ], [ 3.8823831, 43.6042786 ] ], [ [ 3.8949936, 43.606628 ], [ 3.8949012, 43.6063716 ], [ 3.8947746, 43.606123 ], [ 3.8946151, 43.6058846 ], [ 3.8944242, 43.6056587 ], [ 3.8942038, 43.6054475 ], [ 3.8939559, 43.605253 ], [ 3.893683, 43.6050772 ], [ 3.8933877, 43.6049216 ], [ 3.8930728, 43.6047877 ], [ 3.8927414, 43.604677 ], [ 3.8923967, 43.6045904 ], [ 3.8920419, 43.6045287 ], [ 3.8916805, 43.6044927 ], [ 3.891316, 43.6044825 ], [ 3.8909519, 43.6044983 ], [ 3.8905917, 43.60454 ], [ 3.8902388, 43.6046072 ], [ 3.8898967, 43.6046992 ], [ 3.8895686, 43.6048151 ], [ 3.8892578, 43.6049538 ], [ 3.8889671, 43.6051139 ], [ 3.8886995, 43.605294 ], [ 3.888465, 43.6054861 ], [ 3.8883369, 43.6055723 ], [ 3.8880948, 43.6057706 ], [ 3.8878807, 43.6059852 ], [ 3.8876965, 43.606214 ], [ 3.8875441, 43.6064548 ], [ 3.8874248, 43.6067053 ], [ 3.88734, 43.6069631 ], [ 3.8872903, 43.6072257 ], [ 3.8872763, 43.6074906 ], [ 3.8872981, 43.6077552 ], [ 3.887299, 43.6077593 ], [ 3.8873039, 43.6078188 ], [ 3.8873613, 43.6080806 ], [ 3.8874537, 43.608337 ], [ 3.8875802, 43.6085856 ], [ 3.8877397, 43.608824 ], [ 3.8879306, 43.6090499 ], [ 3.888151, 43.6092611 ], [ 3.8883989, 43.6094556 ], [ 3.8886718, 43.6096315 ], [ 3.8889671, 43.6097871 ], [ 3.889282, 43.6099209 ], [ 3.8896134, 43.6100317 ], [ 3.8899582, 43.6101183 ], [ 3.890313, 43.61018 ], [ 3.8906744, 43.610216 ], [ 3.891039, 43.6102262 ], [ 3.8914031, 43.6102104 ], [ 3.8917634, 43.6101687 ], [ 3.8921163, 43.6101015 ], [ 3.8924584, 43.6100095 ], [ 3.8927865, 43.6098936 ], [ 3.8930974, 43.6097549 ], [ 3.893388, 43.6095947 ], [ 3.8936557, 43.6094146 ], [ 3.8938977, 43.6092163 ], [ 3.8941119, 43.6090017 ], [ 3.8941366, 43.608971 ], [ 3.8942545, 43.6088744 ], [ 3.8944687, 43.6086598 ], [ 3.8946528, 43.608431 ], [ 3.8948053, 43.6081902 ], [ 3.8949244, 43.6079396 ], [ 3.8950093, 43.6076818 ], [ 3.8950589, 43.6074192 ], [ 3.8950729, 43.6071544 ], [ 3.895051, 43.6068898 ], [ 3.8949936, 43.606628 ] ], [ [ 3.9024964, 43.6066826 ], [ 3.9024039, 43.6064261 ], [ 3.9022773, 43.6061776 ], [ 3.9021177, 43.6059392 ], [ 3.9019268, 43.6057133 ], [ 3.9017064, 43.6055021 ], [ 3.9014585, 43.6053077 ], [ 3.9011855, 43.6051318 ], [ 3.9008902, 43.6049762 ], [ 3.9005753, 43.6048424 ], [ 3.9002439, 43.6047317 ], [ 3.8998991, 43.6046451 ], [ 3.8995444, 43.6045835 ], [ 3.899183, 43.6045474 ], [ 3.8988185, 43.6045373 ], [ 3.8984544, 43.6045532 ], [ 3.8980941, 43.6045949 ], [ 3.8977413, 43.6046621 ], [ 3.8973992, 43.6047541 ], [ 3.8970711, 43.60487 ], [ 3.8967603, 43.6050087 ], [ 3.8964697, 43.6051689 ], [ 3.8962021, 43.605349 ], [ 3.89596, 43.6055473 ], [ 3.8957459, 43.6057619 ], [ 3.8955617, 43.6059907 ], [ 3.8954093, 43.6062316 ], [ 3.8952902, 43.6064821 ], [ 3.8952053, 43.6067399 ], [ 3.8951557, 43.6070025 ], [ 3.8951417, 43.6072674 ], [ 3.8951636, 43.607532 ], [ 3.895221, 43.6077937 ], [ 3.8953134, 43.6080501 ], [ 3.89544, 43.6082987 ], [ 3.8955995, 43.6085371 ], [ 3.8957904, 43.608763 ], [ 3.8960109, 43.6089742 ], [ 3.8962588, 43.6091687 ], [ 3.8965317, 43.6093445 ], [ 3.896827, 43.6095001 ], [ 3.8971419, 43.609634 ], [ 3.8974734, 43.6097447 ], [ 3.8978182, 43.6098313 ], [ 3.898173, 43.6098929 ], [ 3.8985344, 43.609929 ], [ 3.8988989, 43.6099391 ], [ 3.8992631, 43.6099232 ], [ 3.8996233, 43.6098815 ], [ 3.8999762, 43.6098143 ], [ 3.9003183, 43.6097223 ], [ 3.9006464, 43.6096064 ], [ 3.9009573, 43.6094677 ], [ 3.9012479, 43.6093075 ], [ 3.9015155, 43.6091273 ], [ 3.9017575, 43.608929 ], [ 3.9019717, 43.6087144 ], [ 3.9021558, 43.6084856 ], [ 3.9023082, 43.6082447 ], [ 3.9024273, 43.6079942 ], [ 3.9025121, 43.6077364 ], [ 3.9025617, 43.6074738 ], [ 3.9025757, 43.6072089 ], [ 3.9025538, 43.6069443 ], [ 3.9024964, 43.6066826 ] ], [ [ 3.8703773, 43.610622 ], [ 3.8702508, 43.6103734 ], [ 3.8700914, 43.610135 ], [ 3.8699006, 43.6099091 ], [ 3.8696802, 43.6096978 ], [ 3.8694324, 43.6095033 ], [ 3.8691595, 43.6093273 ], [ 3.8688643, 43.6091717 ], [ 3.8685494, 43.6090378 ], [ 3.868218, 43.608927 ], [ 3.8678733, 43.6088403 ], [ 3.8675185, 43.6087786 ], [ 3.8671571, 43.6087424 ], [ 3.8667926, 43.6087322 ], [ 3.8664285, 43.6087479 ], [ 3.8660682, 43.6087896 ], [ 3.8657153, 43.6088566 ], [ 3.8653731, 43.6089485 ], [ 3.865045, 43.6090644 ], [ 3.864734, 43.609203 ], [ 3.8644433, 43.6093631 ], [ 3.8641756, 43.6095432 ], [ 3.8639334, 43.6097414 ], [ 3.8637191, 43.6099559 ], [ 3.8635349, 43.6101847 ], [ 3.8633823, 43.6104255 ], [ 3.863263, 43.610676 ], [ 3.863178, 43.6109338 ], [ 3.8631283, 43.6111964 ], [ 3.8631141, 43.6114612 ], [ 3.8631358, 43.6117258 ], [ 3.8631931, 43.6119876 ], [ 3.8632854, 43.6122441 ], [ 3.8634119, 43.6124927 ], [ 3.8635713, 43.6127311 ], [ 3.8637621, 43.6129571 ], [ 3.8639825, 43.6131683 ], [ 3.8642303, 43.6133628 ], [ 3.8645031, 43.6135388 ], [ 3.8647984, 43.6136945 ], [ 3.8651132, 43.6138284 ], [ 3.8654447, 43.6139392 ], [ 3.8657894, 43.6140259 ], [ 3.8661442, 43.6140876 ], [ 3.8665056, 43.6141238 ], [ 3.8668702, 43.614134 ], [ 3.8672344, 43.6141183 ], [ 3.8675947, 43.6140766 ], [ 3.8679476, 43.6140095 ], [ 3.8682898, 43.6139176 ], [ 3.868618, 43.6138018 ], [ 3.8689289, 43.6136632 ], [ 3.8692197, 43.613503 ], [ 3.8694874, 43.613323 ], [ 3.8697296, 43.6131247 ], [ 3.8699438, 43.6129102 ], [ 3.8701281, 43.6126814 ], [ 3.8702806, 43.6124406 ], [ 3.8703999, 43.6121901 ], [ 3.8704848, 43.6119323 ], [ 3.8705346, 43.6116697 ], [ 3.8705487, 43.6114049 ], [ 3.8705269, 43.6111403 ], [ 3.8704696, 43.6108785 ], [ 3.8703773, 43.610622 ] ] ] } }
]
}
