{
"type": "FeatureCollection",
"features": [
{ "type": "Feature", "properties": { "index": "0", "label": "Within 1500 m by bike", "color": "#2b8cbe" }, "geometry": { "type": "Polygon", "coordinates": [ [ [ 3.855, 43.6010234 ], [ 3.8563461, 43.6002822 ], [ 3.8569781, 43.6000004 ], [ 3.905, 43.6 ], [ 3.905, 43.61997 ], [ 3.9044472, 43.6201186 ], [ 3.9026825, 43.6204546 ], [ 3.9008809, 43.6206633 ], [ 3.8990599, 43.6207427 ], [ 3.8972369, 43.620692 ], [ 3.8958244, 43.6205511 ], [ 3.8948212, 43.620742 ], [ 3.8930196, 43.6209506 ], [ 3.8927926, 43.6209605 ], [ 3.8916463, 43.6217317 ], [ 3.8901927, 43.6225326 ], [ 3.8886379, 43.6232261 ], [ 3.8869971, 43.6238055 ], [ 3.885286, 43.6242653 ], [ 3.883521, 43.624601 ], [ 3.8817192, 43.6248094 ], [ 3.879898, 43.6248885 ], [ 3.8780749, 43.6248375 ], [ 3.8762675, 43.6246568 ], [ 3.8744931, 43.6243484 ], [ 3.8733549, 43.6240623 ], [ 3.8724135, 43.6243152 ], [ 3.8706485, 43.6246507 ], [ 3.8688467, 43.6248589 ], [ 3.8670254, 43.6249377 ], [ 3.8652023, 43.6248865 ], [ 3.8633949, 43.6247057 ], [ 3.8616206, 43.624397 ], [ 3.8598965, 43.6239635 ], [ 3.8582393, 43.6234092 ], [ 3.8566648, 43.6227396 ], [ 3.8551883, 43.6219612 ], [ 3.855, 43.6218397 ], [ 3.855, 43.6010234 ] ] ] } },
{ "type": "Feature", "properties": { "index": "1", "label": "Beyond 1500 m", "color": "#d9d9d9" }, "geometry": { "type": "MultiPolygon", "coordinates": [ [ [ [ 3.8569781, 43.6000004 ], [ 3.8563461, 43.6002822 ], [ 3.855, 43.6010234 ], [ 3.855, 43.6 ], [ 3.905, 43.6 ], [ 3.8569781, 43.6000004 ] ] ], [ [ [ 3.9044472, 43.6201186 ], [ 3.905, 43.61997 ], [ 3.905, 43.625 ], [ 3.855, 43.625 ], [ 3.855, 43.6218397 ], [ 3.8551883, 43.6219612 ], [ 3.8566648, 43.6227396 ], [ 3.8582393, 43.6234092 ], [ 3.8598965, 43.6239635 ], [ 3.8616206, 43.624397 ], [ 3.8633949, 43.6247057 ], [ 3.8652023, 43.6248865 ], [ 3.8670254, 43.6249377 ], [ 3.8688467, 43.6248589 ], [ 3.8706485, 43.6246507 ], [ 3.8724135, 43.6243152 ], [ 3.8733549, 43.6240623 ], [ 3.8744931, 43.6243484 ], [ 3.8762675, 43.6246568 ], [ 3.8780749, 43.6248375 ], [ 3.879898, 43.6248885 ], [ 3.8817192, 43.6248094 ], [ 3.883521, 43.624601 ], [ 3.885286, 43.6242653 ], [ 3.8869971, 43.6238055 ], [ 3.8886379, 43.6232261 ], [ 3.8901927, 43.6225326 ], [ 3.8916463, 43.6217317 ], [ 3.8927926, 43.6209605 ], [ 3.8930196, 43.6209506 ], [ 3.8948212, 43.620742 ], [ 3.8958244, 43.6205511 ], [ 3.8972369, 43.620692 ], [ 3.8990599, 43.6207427 ], [ 3.9008809, 43.6206633 ], [ 3.9026825, 43.6204546 ], [ 3.9044472, 43.6201186 ] ] ] ] } }
]
}
