{
"type": "FeatureCollection",
"features": [
{ "type": "Feature", "properties": { "index": "545", "@osmId": "way/1349825943", "name": null, "opening_hours": null, "label": "Public toilets", "color": "#3182bd" }, "geometry": { "type": "Point", "coordinates": [ 3.8575091, 43.6201923 ] } },
{ "type": "Feature", "properties": { "index": "546", "@osmId": "way/1349882205", "name": null, "opening_hours": null, "label": "Public toilets", "color": "#3182bd" }, "geometry": { "type": "Point", "coordinates": [ 3.8575135, 43.6201893 ] } },
{ "type": "Feature", "properties": { "index": "547", "@osmId": "way/532679926", "name": null, "opening_hours": null, "label": "Public toilets", "color": "#3182bd" }, "geometry": { "type": "Point", "coordinates": [ 3.890731, 43.6242742 ] } },
{ "type": "Feature", "properties": { "index": "548", "@osmId": "way/401412546", "name": null, "opening_hours": null, "label": "Public toilets", "color": "#3182bd" }, "geometry": { "type": "Point", "coordinates": [ 3.881427, 43.6047569 ] } },
{ "type": "Feature", "properties": { "index": "549", "@osmId": "way/1164077703", "name": null, "opening_hours": null, "label": "Public toilets", "color": "#3182bd" }, "geometry": { "type": "Point", "coordinates": [ 3.8812647, 43.6046602 ] } },
{ "type": "Feature", "properties": { "index": "550", "@osmId": "node/7340759606", "name": null, "opening_hours": null, "label": "Public toilets", "color": "#3182bd" }, "geometry": { "type": "Point", "coordinates": [ 3.8672066, 43.6068717 ] } },
{ "type": "Feature", "properties": { "index": "551", "@osmId": "node/9159351276", "name": "Toilettes gratuit", "opening_hours": "24/7; 00:00-24:00", "label": "Public toilets", "color": "#3182bd" }, "geometry": { "type": "Point", "coordinates": [ 3.8619243, 43.6118028 ] } },
{ "type": "Feature", "properties": { "index": "552", "@osmId": "node/10876485303", "name": null, "opening_hours": null, "label": "Public toilets", "color": "#3182bd" }, "geometry": { "type": "Point", "coordinates": [ 3.8618815, 43.6117908 ] } },
{ "type": "Feature", "properties": { "index": "553", "@osmId": "node/13786581852", "name": null, "opening_hours": null, "label": "Public toilets", "color": "#3182bd" }, "geometry": { "type": "Point", "coordinates": [ 3.8669334, 43.6120135 ] } },
{ "type": "Feature", "properties": { "index": "554", "@osmId": "node/3802871809", "name": null, "opening_hours": null, "label": "Public toilets", "color": "#3182bd" }, "geometry": { "type": "Point", "coordinates": [ 3.8943491, 43.608284 ] } },
{ "type": "Feature", "properties": { "index": "555", "@osmId": "node/3973552020", "name": "Toilette automatique", "opening_hours": null, "label": "Public toilets", "color": "#3182bd" }, "geometry": { "type": "Point", "coordinates": [ 3.8816077, 43.6139965 ] } },
{ "type": "Feature", "properties": { "index": "556", "@osmId": "node/4203901189", "name": null, "opening_hours": "24/7", "label": "Public toilets", "color": "#3182bd" }, "geometry": { "type": "Point", "coordinates": [ 3.8765995, 43.6088087 ] } },
{ "type": "Feature", "properties": { "index": "557", "@osmId": "node/4319635900", "name": null, "opening_hours": null, "label": "Public toilets", "color": "#3182bd" }, "geometry": { "type": "Point", "coordinates": [ 3.8685798, 43.6086817 ] } },
{ "type": "Feature", "properties": { "index": "558", "@osmId": "node/4319635905", "name": null, "opening_hours": "07:00-21:00", "label": "Public toilets", "color": "#3182bd" }, "geometry": { "type": "Point", "coordinates": [ 3.8733667, 43.6111219 ] } },
{ "type": "Feature", "properties": { "index": "559", "@osmId": "node/4319640095", "name": null, "opening_hours": null, "label": "Public toilets", "color": "#3182bd" }, "geometry": { "type": "Point", "coordinates": [ 3.8783624, 43.6074464 ] } },
{ "type": "Feature", "properties": { "index": "560", "@osmId": "node/4319640096", "name": null, "opening_hours": null, "label": "Public toilets", "color": "#3182bd" }, "geometry": { "type": "Point", "coordinates": [ 3.88891, 43.6077058 ] } },
{ "type": "Feature", "properties": { "index": "561", "@osmId": "node/5519253807", "name": "Toilette automatique", "opening_hours": null, "label": "Public toilets", "color": "#3182bd" }, "geometry": { "type": "Point", "coordinates": [ 3.8741425, 43.6152904 ] } },
{ "type": "Feature", "properties": { "index": "562", "@osmId": "node/5614597792", "name": null, "opening_hours": null, "label": "Public toilets", "color": "#3182bd" }, "geometry": { "type": "Point", "coordinates": [ 3.8798692, 43.6060869 ] } },
{ "type": "Feature", "properties": { "index": "563", "@osmId": "node/5614597795", "name": null, "opening_hours": null, "label": "Public toilets", "color": "#3182bd" }, "geometry": { "type": "Point", "coordinates": [ 3.8813264, 43.6048576 ] } },
{ "type": "Feature", "properties": { "index": "564", "@osmId": "node/6485180578", "name": null, "opening_hours": null, "label": "Public toilets", "color": "#3182bd" }, "geometry": { "type": "Point", "coordinates": [ 3.8798211, 43.6033674 ] } },
{ "type": "Feature", "properties": { "index": "565", "@osmId": "node/6566106057", "name": "Parc Rimbaud", "opening_hours": null, "label": "Public toilets", "color": "#3182bd" }, "geometry": { "type": "Point", "coordinates": [ 3.8942633, 43.6184467 ] } },
{ "type": "Feature", "properties": { "index": "566", "@osmId": "node/7334666496", "name": null, "opening_hours": null, "label": "Public toilets", "color": "#3182bd" }, "geometry": { "type": "Point", "coordinates": [ 3.8747326, 43.6032553 ] } },
{ "type": "Feature", "properties": { "index": "567", "@osmId": "node/7334666497", "name": null, "opening_hours": null, "label": "Public toilets", "color": "#3182bd" }, "geometry": { "type": "Point", "coordinates": [ 3.8721328, 43.6036996 ] } },
{ "type": "Feature", "properties": { "index": "568", "@osmId": "node/8502077549", "name": null, "opening_hours": null, "label": "Public toilets", "color": "#3182bd" }, "geometry": { "type": "Point", "coordinates": [ 3.8887322, 43.6039161 ] } },
{ "type": "Feature", "properties": { "index": "569", "@osmId": "node/8502086179", "name": null, "opening_hours": null, "label": "Public toilets", "color": "#3182bd" }, "geometry": { "type": "Point", "coordinates": [ 3.8990624, 43.6018077 ] } },
{ "type": "Feature", "properties": { "index": "570", "@osmId": "node/10173461918", "name": null, "opening_hours": null, "label": "Public toilets", "color": "#3182bd" }, "geometry": { "type": "Point", "coordinates": [ 3.8768612, 43.6060962 ] } },
{ "type": "Feature", "properties": { "index": "571", "@osmId": "node/10173510130", "name": null, "opening_hours": null, "label": "Public toilets", "color": "#3182bd" }, "geometry": { "type": "Point", "coordinates": [ 3.8740949, 43.6055854 ] } },
{ "type": "Feature", "properties": { "index": "572", "@osmId": "node/10313578809", "name": null, "opening_hours": null, "label": "Public toilets", "color": "#3182bd" }, "geometry": { "type": "Point", "coordinates": [ 3.872708, 43.611068 ] } },
{ "type": "Feature", "properties": { "index": "573", "@osmId": "node/10313602709", "name": null, "opening_hours": null, "label": "Public toilets", "color": "#3182bd" }, "geometry": { "type": "Point", "coordinates": [ 3.8742253, 43.6055997 ] } },
{ "type": "Feature", "properties": { "index": "574", "@osmId": "node/11586530969", "name": null, "opening_hours": null, "label": "Public toilets", "color": "#3182bd" }, "geometry": { "type": "Point", "coordinates": [ 3.8770741, 43.6193357 ] } },
{ "type": "Feature", "properties": { "index": "575", "@osmId": "node/11586539970", "name": null, "opening_hours": null, "label": "Public toilets", "color": "#3182bd" }, "geometry": { "type": "Point", "coordinates": [ 3.8783589, 43.6198988 ] } },
{ "type": "Feature", "properties": { "index": "576", "@osmId": "node/11681346429", "name": null, "opening_hours": null, "label": "Public toilets", "color": "#3182bd" }, "geometry": { "type": "Point", "coordinates": [ 3.8852199, 43.6085502 ] } },
{ "type": "Feature", "properties": { "index": "577", "@osmId": "node/11681346438", "name": null, "opening_hours": null, "label": "Public toilets", "color": "#3182bd" }, "geometry": { "type": "Point", "coordinates": [ 3.8853345, 43.6082251 ] } },
{ "type": "Feature", "properties": { "index": "578", "@osmId": "node/11681438990", "name": null, "opening_hours": null, "label": "Public toilets", "color": "#3182bd" }, "geometry": { "type": "Point", "coordinates": [ 3.8846059, 43.6081449 ] } },
{ "type": "Feature", "properties": { "index": "579", "@osmId": "node/12704948862", "name": null, "opening_hours": null, "label": "Public toilets", "color": "#3182bd" }, "geometry": { "type": "Point", "coordinates": [ 3.8885916, 43.6038391 ] } },
{ "type": "Feature", "properties": { "index": "580", "@osmId": "node/13179749291", "name": null, "opening_hours": null, "label": "Public toilets", "color": "#3182bd" }, "geometry": { "type": "Point", "coordinates": [ 3.8739766, 43.6151107 ] } }
]
}
