{
"type": "FeatureCollection",
"features": [
{ "type": "Feature", "properties": { "index": "0", "label": "Within 200 m on foot", "color": "#2b8cbe" }, "geometry": { "type": "Polygon", "coordinates": [ [ [ 3.8568987, 43.6001091 ], [ 3.8570588, 43.6001021 ], [ 3.8570642, 43.6000004 ], [ 3.905, 43.6 ], [ 3.905, 43.6249449 ], [ 3.9048438, 43.625 ], [ 3.9028332, 43.6250005 ], [ 3.9026917, 43.6249532 ], [ 3.9024817, 43.624864 ], [ 3.9022848, 43.6247603 ], [ 3.9021028, 43.6246431 ], [ 3.9019375, 43.6245134 ], [ 3.9019252, 43.6245017 ], [ 3.9018906, 43.6244745 ], [ 3.9017435, 43.6243337 ], [ 3.9016162, 43.6241832 ], [ 3.9015098, 43.6240242 ], [ 3.9014254, 43.6238585 ], [ 3.9013637, 43.6236876 ], [ 3.9013254, 43.6235131 ], [ 3.9013109, 43.6233367 ], [ 3.9013202, 43.6231601 ], [ 3.9013532, 43.622985 ], [ 3.9014098, 43.6228131 ], [ 3.9014892, 43.6226461 ], [ 3.9015909, 43.6224856 ], [ 3.9017136, 43.622333 ], [ 3.9017314, 43.6223153 ], [ 3.9016793, 43.622213 ], [ 3.9016176, 43.6220421 ], [ 3.9015793, 43.6218676 ], [ 3.9015647, 43.6216912 ], [ 3.901574, 43.6215146 ], [ 3.9016071, 43.6213395 ], [ 3.9016408, 43.6212372 ], [ 3.9015879, 43.6212473 ], [ 3.9015867, 43.6212536 ], [ 3.9015301, 43.6214255 ], [ 3.9014507, 43.6215925 ], [ 3.9014469, 43.6215985 ], [ 3.9014362, 43.6216309 ], [ 3.9013568, 43.6217979 ], [ 3.9012552, 43.6219585 ], [ 3.9011711, 43.622063 ], [ 3.901166, 43.6221594 ], [ 3.9011329, 43.6223344 ], [ 3.9010764, 43.6225063 ], [ 3.9009969, 43.6226733 ], [ 3.9008953, 43.6228339 ], [ 3.9008729, 43.6228617 ], [ 3.9009089, 43.6229042 ], [ 3.9010153, 43.6230631 ], [ 3.9010997, 43.6232288 ], [ 3.9011614, 43.6233998 ], [ 3.9011997, 43.6235743 ], [ 3.9012143, 43.6237507 ], [ 3.901205, 43.6239273 ], [ 3.9011719, 43.6241023 ], [ 3.9011153, 43.6242742 ], [ 3.9010359, 43.6244412 ], [ 3.9009343, 43.6246018 ], [ 3.9008115, 43.6247543 ], [ 3.9006687, 43.6248974 ], [ 3.9005424, 43.6250009 ], [ 3.8968347, 43.6250015 ], [ 3.8967596, 43.6249425 ], [ 3.8966125, 43.6248017 ], [ 3.8964852, 43.6246512 ], [ 3.8963789, 43.6244922 ], [ 3.896339, 43.624414 ], [ 3.8962687, 43.6243588 ], [ 3.8961217, 43.624218 ], [ 3.8959943, 43.6240675 ], [ 3.895888, 43.6239085 ], [ 3.8958036, 43.6237428 ], [ 3.8957419, 43.6235719 ], [ 3.8957036, 43.6233973 ], [ 3.8956949, 43.6232911 ], [ 3.8956847, 43.6232947 ], [ 3.8954566, 43.623356 ], [ 3.8952213, 43.6234008 ], [ 3.8950317, 43.6234228 ], [ 3.895008, 43.623495 ], [ 3.8949285, 43.6236621 ], [ 3.8948268, 43.6238226 ], [ 3.894704, 43.6239751 ], [ 3.8945612, 43.6241182 ], [ 3.8943998, 43.6242504 ], [ 3.8942214, 43.6243705 ], [ 3.8940275, 43.6244773 ], [ 3.8938202, 43.6245698 ], [ 3.8936015, 43.624647 ], [ 3.8933733, 43.6247083 ], [ 3.893138, 43.6247531 ], [ 3.8931182, 43.6247554 ], [ 3.8931107, 43.6247784 ], [ 3.8930312, 43.6249454 ], [ 3.8929954, 43.625002 ], [ 3.8850157, 43.6250026 ], [ 3.8849913, 43.6249965 ], [ 3.8847703, 43.6249226 ], [ 3.8845603, 43.6248334 ], [ 3.8843634, 43.6247297 ], [ 3.8842354, 43.6246472 ], [ 3.884149, 43.6247053 ], [ 3.8839552, 43.6248121 ], [ 3.8837479, 43.6249046 ], [ 3.8835291, 43.6249818 ], [ 3.8834514, 43.6250027 ], [ 3.8816569, 43.6250027 ], [ 3.881632, 43.6249965 ], [ 3.881411, 43.6249226 ], [ 3.881201, 43.6248334 ], [ 3.8810041, 43.6247296 ], [ 3.8808221, 43.6246123 ], [ 3.8806569, 43.6244827 ], [ 3.8805099, 43.6243419 ], [ 3.8803826, 43.6241913 ], [ 3.8802763, 43.6240323 ], [ 3.8801919, 43.6238666 ], [ 3.8801303, 43.6236956 ], [ 3.8800978, 43.6235471 ], [ 3.879902, 43.6235131 ], [ 3.8796721, 43.6234553 ], [ 3.8796434, 43.6234458 ], [ 3.8796121, 43.6234403 ], [ 3.8793822, 43.6233825 ], [ 3.8792403, 43.6233351 ], [ 3.8792836, 43.6234203 ], [ 3.8793452, 43.6235912 ], [ 3.8793835, 43.6237658 ], [ 3.879398, 43.6239422 ], [ 3.8793886, 43.6241187 ], [ 3.8793555, 43.6242938 ], [ 3.8792989, 43.6244657 ], [ 3.8792193, 43.6246327 ], [ 3.8791177, 43.6247932 ], [ 3.8789948, 43.6249457 ], [ 3.8789379, 43.6250027 ], [ 3.8748339, 43.6250026 ], [ 3.8748084, 43.6249782 ], [ 3.8746811, 43.6248275 ], [ 3.8745748, 43.6246686 ], [ 3.8744904, 43.6245029 ], [ 3.8744288, 43.6243319 ], [ 3.8744194, 43.6242887 ], [ 3.8743765, 43.6243123 ], [ 3.8743726, 43.6243859 ], [ 3.8743395, 43.624561 ], [ 3.8742828, 43.6247329 ], [ 3.8742033, 43.6248999 ], [ 3.8741705, 43.6249516 ], [ 3.8741463, 43.6250026 ], [ 3.8600324, 43.625001 ], [ 3.8598858, 43.6249064 ], [ 3.8597711, 43.6248164 ], [ 3.8597573, 43.6248091 ], [ 3.8595754, 43.6246918 ], [ 3.8594101, 43.6245621 ], [ 3.8592632, 43.6244213 ], [ 3.859136, 43.6242707 ], [ 3.859079, 43.6241854 ], [ 3.8589464, 43.6241411 ], [ 3.8588907, 43.6241174 ], [ 3.8587588, 43.6240733 ], [ 3.8585489, 43.623984 ], [ 3.858352, 43.6238802 ], [ 3.8581701, 43.6237629 ], [ 3.8580048, 43.6236332 ], [ 3.8578579, 43.6234924 ], [ 3.8577307, 43.6233417 ], [ 3.8576244, 43.6231828 ], [ 3.8575436, 43.6230238 ], [ 3.8574642, 43.6230591 ], [ 3.8574618, 43.6230615 ], [ 3.8573003, 43.6231937 ], [ 3.8571218, 43.6233137 ], [ 3.8569279, 43.6234204 ], [ 3.8567206, 43.6235129 ], [ 3.8566505, 43.6235376 ], [ 3.8566378, 43.6235461 ], [ 3.8564439, 43.6236529 ], [ 3.8562366, 43.6237453 ], [ 3.8560177, 43.6238225 ], [ 3.8557895, 43.6238837 ], [ 3.8555542, 43.6239284 ], [ 3.855314, 43.6239561 ], [ 3.8550711, 43.6239666 ], [ 3.855, 43.6239646 ], [ 3.855, 43.6134821 ], [ 3.8551857, 43.6134874 ], [ 3.8552228, 43.6134858 ], [ 3.8553855, 43.6134904 ], [ 3.8554233, 43.6134594 ], [ 3.8554345, 43.6134519 ], [ 3.8553412, 43.6134559 ], [ 3.8550982, 43.6134491 ], [ 3.855, 43.6134392 ], [ 3.855, 43.6084268 ], [ 3.8550162, 43.6084261 ], [ 3.8552592, 43.6084329 ], [ 3.8552767, 43.6084347 ], [ 3.8552906, 43.6084341 ], [ 3.8555336, 43.6084409 ], [ 3.8557745, 43.6084651 ], [ 3.856011, 43.6085062 ], [ 3.8562408, 43.608564 ], [ 3.8563079, 43.6085865 ], [ 3.8564465, 43.6085805 ], [ 3.8565045, 43.6085821 ], [ 3.8564488, 43.6084726 ], [ 3.8563873, 43.6083016 ], [ 3.8563491, 43.6081271 ], [ 3.8563347, 43.6079507 ], [ 3.8563441, 43.6077741 ], [ 3.8563773, 43.607599 ], [ 3.856434, 43.6074272 ], [ 3.8564394, 43.6074158 ], [ 3.8562738, 43.6073285 ], [ 3.8560919, 43.6072112 ], [ 3.8559267, 43.6070815 ], [ 3.8557798, 43.6069406 ], [ 3.8556527, 43.60679 ], [ 3.8556168, 43.6067363 ], [ 3.8554224, 43.6067025 ], [ 3.8551926, 43.6066447 ], [ 3.855, 43.6065802 ], [ 3.855, 43.6010055 ], [ 3.8550198, 43.6010047 ], [ 3.8550926, 43.6009143 ], [ 3.8552355, 43.6007712 ], [ 3.8553969, 43.6006391 ], [ 3.8555754, 43.6005191 ], [ 3.8557692, 43.6004123 ], [ 3.8559765, 43.6003199 ], [ 3.8561952, 43.6002427 ], [ 3.8564233, 43.6001815 ], [ 3.8566585, 43.6001368 ], [ 3.8568987, 43.6001091 ] ], [ [ 3.886282, 43.6120459 ], [ 3.8860467, 43.6120907 ], [ 3.8858065, 43.6121185 ], [ 3.8857402, 43.6121213 ], [ 3.8859467, 43.6122091 ], [ 3.8861435, 43.6123128 ], [ 3.8862346, 43.6123715 ], [ 3.8862578, 43.6123426 ], [ 3.8864006, 43.6121996 ], [ 3.886562, 43.6120674 ], [ 3.8865999, 43.6120419 ], [ 3.8865217, 43.6120158 ], [ 3.8864722, 43.6119948 ], [ 3.886282, 43.6120459 ] ], [ [ 3.8948738, 43.6153527 ], [ 3.8948096, 43.6154877 ], [ 3.8948781, 43.6156221 ], [ 3.8949397, 43.615793 ], [ 3.8949709, 43.6159353 ], [ 3.8950683, 43.615938 ], [ 3.895062, 43.6158609 ], [ 3.8950713, 43.6156843 ], [ 3.8951044, 43.6155093 ], [ 3.8951609, 43.6153374 ], [ 3.8952404, 43.6151704 ], [ 3.895342, 43.6150098 ], [ 3.895369, 43.6149763 ], [ 3.8953791, 43.6149228 ], [ 3.8954357, 43.6147509 ], [ 3.8954739, 43.6146705 ], [ 3.8953577, 43.6146756 ], [ 3.8951147, 43.6146688 ], [ 3.8949583, 43.6146532 ], [ 3.8949728, 43.6148292 ], [ 3.8949635, 43.6150058 ], [ 3.8949304, 43.6151809 ], [ 3.8948738, 43.6153527 ] ], [ [ 3.8999354, 43.6167537 ], [ 3.9000615, 43.6168349 ], [ 3.9002268, 43.6169645 ], [ 3.9003738, 43.6171053 ], [ 3.9005011, 43.6172559 ], [ 3.9006075, 43.6174148 ], [ 3.9006738, 43.617545 ], [ 3.9007277, 43.6175388 ], [ 3.9009705, 43.6175282 ], [ 3.9010848, 43.6175314 ], [ 3.9011581, 43.6174987 ], [ 3.9010699, 43.6174141 ], [ 3.9009426, 43.6172635 ], [ 3.9008362, 43.6171046 ], [ 3.9007518, 43.6169389 ], [ 3.9006901, 43.616768 ], [ 3.9006518, 43.6165934 ], [ 3.9006373, 43.6164171 ], [ 3.9006465, 43.6162405 ], [ 3.9006796, 43.6160654 ], [ 3.9007362, 43.6158935 ], [ 3.9008156, 43.6157265 ], [ 3.9009172, 43.615566 ], [ 3.90104, 43.6154134 ], [ 3.9011827, 43.6152703 ], [ 3.9013441, 43.6151381 ], [ 3.9015226, 43.615018 ], [ 3.9016455, 43.6149503 ], [ 3.9016346, 43.61492 ], [ 3.9015963, 43.6147455 ], [ 3.9015817, 43.6145691 ], [ 3.901591, 43.6143925 ], [ 3.9016218, 43.6142297 ], [ 3.9015538, 43.6141939 ], [ 3.9013719, 43.6140766 ], [ 3.9012066, 43.613947 ], [ 3.9010596, 43.6138062 ], [ 3.9009323, 43.6136556 ], [ 3.9008259, 43.6134967 ], [ 3.9007415, 43.613331 ], [ 3.9007177, 43.6132651 ], [ 3.9006208, 43.6132624 ], [ 3.9005727, 43.6134085 ], [ 3.9004932, 43.6135755 ], [ 3.9004837, 43.6135906 ], [ 3.9004845, 43.6135922 ], [ 3.9005462, 43.6137631 ], [ 3.9005845, 43.6139376 ], [ 3.9005991, 43.614114 ], [ 3.9005898, 43.6142906 ], [ 3.9005567, 43.6144657 ], [ 3.9005001, 43.6146375 ], [ 3.9004207, 43.6148045 ], [ 3.9003191, 43.6149651 ], [ 3.9002712, 43.6150246 ], [ 3.9002787, 43.6150591 ], [ 3.9002933, 43.6152355 ], [ 3.900284, 43.6154121 ], [ 3.9002509, 43.6155872 ], [ 3.9001944, 43.615759 ], [ 3.9001149, 43.6159261 ], [ 3.9000588, 43.6160147 ], [ 3.9000272, 43.6161819 ], [ 3.8999707, 43.6163537 ], [ 3.8999628, 43.6163705 ], [ 3.8999692, 43.6164479 ], [ 3.8999599, 43.6166245 ], [ 3.8999354, 43.6167537 ] ] ] } },
{ "type": "Feature", "properties": { "index": "1", "label": "Beyond 200 m", "color": "#d9d9d9" }, "geometry": { "type": "MultiPolygon", "coordinates": [ [ [ [ 3.905, 43.6249449 ], [ 3.905, 43.625 ], [ 3.9048438, 43.625 ], [ 3.905, 43.6249449 ] ] ], [ [ [ 3.9026917, 43.6249532 ], [ 3.9028332, 43.6250005 ], [ 3.9005424, 43.6250009 ], [ 3.9006687, 43.6248974 ], [ 3.9008115, 43.6247543 ], [ 3.9009343, 43.6246018 ], [ 3.9010359, 43.6244412 ], [ 3.9011153, 43.6242742 ], [ 3.9011719, 43.6241023 ], [ 3.901205, 43.6239273 ], [ 3.9012143, 43.6237507 ], [ 3.9011997, 43.6235743 ], [ 3.9011614, 43.6233998 ], [ 3.9010997, 43.6232288 ], [ 3.9010153, 43.6230631 ], [ 3.9009089, 43.6229042 ], [ 3.9008729, 43.6228617 ], [ 3.9008953, 43.6228339 ], [ 3.9009969, 43.6226733 ], [ 3.9010764, 43.6225063 ], [ 3.9011329, 43.6223344 ], [ 3.901166, 43.6221594 ], [ 3.9011711, 43.622063 ], [ 3.9012552, 43.6219585 ], [ 3.9013568, 43.6217979 ], [ 3.9014362, 43.6216309 ], [ 3.9014469, 43.6215985 ], [ 3.9014507, 43.6215925 ], [ 3.9015301, 43.6214255 ], [ 3.9015867, 43.6212536 ], [ 3.9015879, 43.6212473 ], [ 3.9016408, 43.6212372 ], [ 3.9016071, 43.6213395 ], [ 3.901574, 43.6215146 ], [ 3.9015647, 43.6216912 ], [ 3.9015793, 43.6218676 ], [ 3.9016176, 43.6220421 ], [ 3.9016793, 43.622213 ], [ 3.9017314, 43.6223153 ], [ 3.9017136, 43.622333 ], [ 3.9015909, 43.6224856 ], [ 3.9014892, 43.6226461 ], [ 3.9014098, 43.6228131 ], [ 3.9013532, 43.622985 ], [ 3.9013202, 43.6231601 ], [ 3.9013109, 43.6233367 ], [ 3.9013254, 43.6235131 ], [ 3.9013637, 43.6236876 ], [ 3.9014254, 43.6238585 ], [ 3.9015098, 43.6240242 ], [ 3.9016162, 43.6241832 ], [ 3.9017435, 43.6243337 ], [ 3.9018906, 43.6244745 ], [ 3.9019252, 43.6245017 ], [ 3.9019375, 43.6245134 ], [ 3.9021028, 43.6246431 ], [ 3.9022848, 43.6247603 ], [ 3.9024817, 43.624864 ], [ 3.9026917, 43.6249532 ] ] ], [ [ [ 3.8967596, 43.6249425 ], [ 3.8968347, 43.6250015 ], [ 3.8929954, 43.625002 ], [ 3.8930312, 43.6249454 ], [ 3.8931107, 43.6247784 ], [ 3.8931182, 43.6247554 ], [ 3.893138, 43.6247531 ], [ 3.8933733, 43.6247083 ], [ 3.8936015, 43.624647 ], [ 3.8938202, 43.6245698 ], [ 3.8940275, 43.6244773 ], [ 3.8942214, 43.6243705 ], [ 3.8943998, 43.6242504 ], [ 3.8945612, 43.6241182 ], [ 3.894704, 43.6239751 ], [ 3.8948268, 43.6238226 ], [ 3.8949285, 43.6236621 ], [ 3.895008, 43.623495 ], [ 3.8950317, 43.6234228 ], [ 3.8952213, 43.6234008 ], [ 3.8954566, 43.623356 ], [ 3.8956847, 43.6232947 ], [ 3.8956949, 43.6232911 ], [ 3.8957036, 43.6233973 ], [ 3.8957419, 43.6235719 ], [ 3.8958036, 43.6237428 ], [ 3.895888, 43.6239085 ], [ 3.8959943, 43.6240675 ], [ 3.8961217, 43.624218 ], [ 3.8962687, 43.6243588 ], [ 3.896339, 43.624414 ], [ 3.8963789, 43.6244922 ], [ 3.8964852, 43.6246512 ], [ 3.8966125, 43.6248017 ], [ 3.8967596, 43.6249425 ] ] ], [ [ [ 3.8849913, 43.6249965 ], [ 3.8850157, 43.6250026 ], [ 3.8834514, 43.6250027 ], [ 3.8835291, 43.6249818 ], [ 3.8837479, 43.6249046 ], [ 3.8839552, 43.6248121 ], [ 3.884149, 43.6247053 ], [ 3.8842354, 43.6246472 ], [ 3.8843634, 43.6247297 ], [ 3.8845603, 43.6248334 ], [ 3.8847703, 43.6249226 ], [ 3.8849913, 43.6249965 ] ] ], [ [ [ 3.881632, 43.6249965 ], [ 3.8816569, 43.6250027 ], [ 3.8789379, 43.6250027 ], [ 3.8789948, 43.6249457 ], [ 3.8791177, 43.6247932 ], [ 3.8792193, 43.6246327 ], [ 3.8792989, 43.6244657 ], [ 3.8793555, 43.6242938 ], [ 3.8793886, 43.6241187 ], [ 3.879398, 43.6239422 ], [ 3.8793835, 43.6237658 ], [ 3.8793452, 43.6235912 ], [ 3.8792836, 43.6234203 ], [ 3.8792403, 43.6233351 ], [ 3.8793822, 43.6233825 ], [ 3.8796121, 43.6234403 ], [ 3.8796434, 43.6234458 ], [ 3.8796721, 43.6234553 ], [ 3.879902, 43.6235131 ], [ 3.8800978, 43.6235471 ], [ 3.8801303, 43.6236956 ], [ 3.8801919, 43.6238666 ], [ 3.8802763, 43.6240323 ], [ 3.8803826, 43.6241913 ], [ 3.8805099, 43.6243419 ], [ 3.8806569, 43.6244827 ], [ 3.8808221, 43.6246123 ], [ 3.8810041, 43.6247296 ], [ 3.881201, 43.6248334 ], [ 3.881411, 43.6249226 ], [ 3.881632, 43.6249965 ] ] ], [ [ [ 3.8748084, 43.6249782 ], [ 3.8748339, 43.6250026 ], [ 3.8741463, 43.6250026 ], [ 3.8741705, 43.6249516 ], [ 3.8742033, 43.6248999 ], [ 3.8742828, 43.6247329 ], [ 3.8743395, 43.624561 ], [ 3.8743726, 43.6243859 ], [ 3.8743765, 43.6243123 ], [ 3.8744194, 43.6242887 ], [ 3.8744288, 43.6243319 ], [ 3.8744904, 43.6245029 ], [ 3.8745748, 43.6246686 ], [ 3.8746811, 43.6248275 ], [ 3.8748084, 43.6249782 ] ] ], [ [ [ 3.8600324, 43.625001 ], [ 3.855, 43.625 ], [ 3.855, 43.6239646 ], [ 3.8550711, 43.6239666 ], [ 3.855314, 43.6239561 ], [ 3.8555542, 43.6239284 ], [ 3.8557895, 43.6238837 ], [ 3.8560177, 43.6238225 ], [ 3.8562366, 43.6237453 ], [ 3.8564439, 43.6236529 ], [ 3.8566378, 43.6235461 ], [ 3.8566505, 43.6235376 ], [ 3.8567206, 43.6235129 ], [ 3.8569279, 43.6234204 ], [ 3.8571218, 43.6233137 ], [ 3.8573003, 43.6231937 ], [ 3.8574618, 43.6230615 ], [ 3.8574642, 43.6230591 ], [ 3.8575436, 43.6230238 ], [ 3.8576244, 43.6231828 ], [ 3.8577307, 43.6233417 ], [ 3.8578579, 43.6234924 ], [ 3.8580048, 43.6236332 ], [ 3.8581701, 43.6237629 ], [ 3.858352, 43.6238802 ], [ 3.8585489, 43.623984 ], [ 3.8587588, 43.6240733 ], [ 3.8588907, 43.6241174 ], [ 3.8589464, 43.6241411 ], [ 3.859079, 43.6241854 ], [ 3.859136, 43.6242707 ], [ 3.8592632, 43.6244213 ], [ 3.8594101, 43.6245621 ], [ 3.8595754, 43.6246918 ], [ 3.8597573, 43.6248091 ], [ 3.8597711, 43.6248164 ], [ 3.8598858, 43.6249064 ], [ 3.8600324, 43.625001 ] ] ], [ [ [ 3.8551857, 43.6134874 ], [ 3.855, 43.6134821 ], [ 3.855, 43.6134392 ], [ 3.8550982, 43.6134491 ], [ 3.8553412, 43.6134559 ], [ 3.8554345, 43.6134519 ], [ 3.8554233, 43.6134594 ], [ 3.8553855, 43.6134904 ], [ 3.8552228, 43.6134858 ], [ 3.8551857, 43.6134874 ] ] ], [ [ [ 3.8550162, 43.6084261 ], [ 3.855, 43.6084268 ], [ 3.855, 43.6065802 ], [ 3.8551926, 43.6066447 ], [ 3.8554224, 43.6067025 ], [ 3.8556168, 43.6067363 ], [ 3.8556527, 43.60679 ], [ 3.8557798, 43.6069406 ], [ 3.8559267, 43.6070815 ], [ 3.8560919, 43.6072112 ], [ 3.8562738, 43.6073285 ], [ 3.8564394, 43.6074158 ], [ 3.856434, 43.6074272 ], [ 3.8563773, 43.607599 ], [ 3.8563441, 43.6077741 ], [ 3.8563347, 43.6079507 ], [ 3.8563491, 43.6081271 ], [ 3.8563873, 43.6083016 ], [ 3.8564488, 43.6084726 ], [ 3.8565045, 43.6085821 ], [ 3.8564465, 43.6085805 ], [ 3.8563079, 43.6085865 ], [ 3.8562408, 43.608564 ], [ 3.856011, 43.6085062 ], [ 3.8557745, 43.6084651 ], [ 3.8555336, 43.6084409 ], [ 3.8552906, 43.6084341 ], [ 3.8552767, 43.6084347 ], [ 3.8552592, 43.6084329 ], [ 3.8550162, 43.6084261 ] ] ], [ [ [ 3.855, 43.6010055 ], [ 3.855, 43.6 ], [ 3.8570642, 43.6000004 ], [ 3.8570588, 43.6001021 ], [ 3.8568987, 43.6001091 ], [ 3.8566585, 43.6001368 ], [ 3.8564233, 43.6001815 ], [ 3.8561952, 43.6002427 ], [ 3.8559765, 43.6003199 ], [ 3.8557692, 43.6004123 ], [ 3.8555754, 43.6005191 ], [ 3.8553969, 43.6006391 ], [ 3.8552355, 43.6007712 ], [ 3.8550926, 43.6009143 ], [ 3.8550198, 43.6010047 ], [ 3.855, 43.6010055 ] ] ], [ [ [ 3.8857402, 43.6121213 ], [ 3.8858065, 43.6121185 ], [ 3.8860467, 43.6120907 ], [ 3.886282, 43.6120459 ], [ 3.8864722, 43.6119948 ], [ 3.8865217, 43.6120158 ], [ 3.8865999, 43.6120419 ], [ 3.886562, 43.6120674 ], [ 3.8864006, 43.6121996 ], [ 3.8862578, 43.6123426 ], [ 3.8862346, 43.6123715 ], [ 3.8861435, 43.6123128 ], [ 3.8859467, 43.6122091 ], [ 3.8857402, 43.6121213 ] ] ], [ [ [ 3.8949397, 43.615793 ], [ 3.8948781, 43.6156221 ], [ 3.8948096, 43.6154877 ], [ 3.8948738, 43.6153527 ], [ 3.8949304, 43.6151809 ], [ 3.8949635, 43.6150058 ], [ 3.8949728, 43.6148292 ], [ 3.8949583, 43.6146532 ], [ 3.8951147, 43.6146688 ], [ 3.8953577, 43.6146756 ], [ 3.8954739, 43.6146705 ], [ 3.8954357, 43.6147509 ], [ 3.8953791, 43.6149228 ], [ 3.895369, 43.6149763 ], [ 3.895342, 43.6150098 ], [ 3.8952404, 43.6151704 ], [ 3.8951609, 43.6153374 ], [ 3.8951044, 43.6155093 ], [ 3.8950713, 43.6156843 ], [ 3.895062, 43.6158609 ], [ 3.8950683, 43.615938 ], [ 3.8949709, 43.6159353 ], [ 3.8949397, 43.615793 ] ] ], [ [ [ 3.9003738, 43.6171053 ], [ 3.9002268, 43.6169645 ], [ 3.9000615, 43.6168349 ], [ 3.8999354, 43.6167537 ], [ 3.8999599, 43.6166245 ], [ 3.8999692, 43.6164479 ], [ 3.8999628, 43.6163705 ], [ 3.8999707, 43.6163537 ], [ 3.9000272, 43.6161819 ], [ 3.9000588, 43.6160147 ], [ 3.9001149, 43.6159261 ], [ 3.9001944, 43.615759 ], [ 3.9002509, 43.6155872 ], [ 3.900284, 43.6154121 ], [ 3.9002933, 43.6152355 ], [ 3.9002787, 43.6150591 ], [ 3.9002712, 43.6150246 ], [ 3.9003191, 43.6149651 ], [ 3.9004207, 43.6148045 ], [ 3.9005001, 43.6146375 ], [ 3.9005567, 43.6144657 ], [ 3.9005898, 43.6142906 ], [ 3.9005991, 43.614114 ], [ 3.9005845, 43.6139376 ], [ 3.9005462, 43.6137631 ], [ 3.9004845, 43.6135922 ], [ 3.9004837, 43.6135906 ], [ 3.9004932, 43.6135755 ], [ 3.9005727, 43.6134085 ], [ 3.9006208, 43.6132624 ], [ 3.9007177, 43.6132651 ], [ 3.9007415, 43.613331 ], [ 3.9008259, 43.6134967 ], [ 3.9009323, 43.6136556 ], [ 3.9010596, 43.6138062 ], [ 3.9012066, 43.613947 ], [ 3.9013719, 43.6140766 ], [ 3.9015538, 43.6141939 ], [ 3.9016218, 43.6142297 ], [ 3.901591, 43.6143925 ], [ 3.9015817, 43.6145691 ], [ 3.9015963, 43.6147455 ], [ 3.9016346, 43.61492 ], [ 3.9016455, 43.6149503 ], [ 3.9015226, 43.615018 ], [ 3.9013441, 43.6151381 ], [ 3.9011827, 43.6152703 ], [ 3.90104, 43.6154134 ], [ 3.9009172, 43.615566 ], [ 3.9008156, 43.6157265 ], [ 3.9007362, 43.6158935 ], [ 3.9006796, 43.6160654 ], [ 3.9006465, 43.6162405 ], [ 3.9006373, 43.6164171 ], [ 3.9006518, 43.6165934 ], [ 3.9006901, 43.616768 ], [ 3.9007518, 43.6169389 ], [ 3.9008362, 43.6171046 ], [ 3.9009426, 43.6172635 ], [ 3.9010699, 43.6174141 ], [ 3.9011581, 43.6174987 ], [ 3.9010848, 43.6175314 ], [ 3.9009705, 43.6175282 ], [ 3.9007277, 43.6175388 ], [ 3.9006738, 43.617545 ], [ 3.9006075, 43.6174148 ], [ 3.9005011, 43.6172559 ], [ 3.9003738, 43.6171053 ] ] ] ] } }
]
}
