{
"type": "FeatureCollection",
"features": [
{ "type": "Feature", "properties": { "index": "0", "label": "Within 300 m on foot", "color": "#2b8cbe" }, "geometry": { "type": "MultiPolygon", "coordinates": [ [ [ [ 8.6727633, 49.3986484 ], [ 8.6731686, 49.3986365 ], [ 8.6735738, 49.3986507 ], [ 8.6739749, 49.3986907 ], [ 8.6741328, 49.398717 ], [ 8.6741634, 49.3985862 ], [ 8.6742637, 49.3983296 ], [ 8.674402, 49.3980807 ], [ 8.674459, 49.3980028 ], [ 8.6848468, 49.3980038 ], [ 8.6849334, 49.3980308 ], [ 8.6852806, 49.3981679 ], [ 8.6856055, 49.3983265 ], [ 8.685905, 49.3985052 ], [ 8.6861762, 49.3987021 ], [ 8.6864166, 49.3989155 ], [ 8.6866237, 49.3991432 ], [ 8.6867957, 49.3993831 ], [ 8.6869308, 49.3996328 ], [ 8.6870278, 49.3998899 ], [ 8.6870856, 49.400152 ], [ 8.687087, 49.4001718 ], [ 8.6874604, 49.4001366 ], [ 8.6878658, 49.4001247 ], [ 8.688271, 49.4001388 ], [ 8.6886721, 49.4001788 ], [ 8.6888251, 49.4002042 ], [ 8.6887386, 49.4000835 ], [ 8.6886034, 49.3998338 ], [ 8.6885065, 49.3995767 ], [ 8.6884486, 49.3993146 ], [ 8.6884303, 49.39905 ], [ 8.6884519, 49.3987856 ], [ 8.6885131, 49.3985238 ], [ 8.6886133, 49.3982672 ], [ 8.6887516, 49.3980182 ], [ 8.6887621, 49.3980039 ], [ 8.6963663, 49.3980037 ], [ 8.6963913, 49.3980385 ], [ 8.6965264, 49.3982882 ], [ 8.6966235, 49.3985454 ], [ 8.6966814, 49.3988075 ], [ 8.6966997, 49.399072 ], [ 8.6966781, 49.3993365 ], [ 8.696617, 49.3995983 ], [ 8.6965168, 49.3998549 ], [ 8.6963786, 49.4001038 ], [ 8.6962036, 49.4003428 ], [ 8.6959936, 49.4005694 ], [ 8.6957506, 49.4007814 ], [ 8.6954768, 49.4009769 ], [ 8.6951751, 49.401154 ], [ 8.6948482, 49.4013109 ], [ 8.6944993, 49.4014461 ], [ 8.6941318, 49.4015583 ], [ 8.6937492, 49.4016465 ], [ 8.6933552, 49.4017099 ], [ 8.6929535, 49.4017476 ], [ 8.6925482, 49.4017596 ], [ 8.6921429, 49.4017455 ], [ 8.6917418, 49.4017056 ], [ 8.6915888, 49.4016801 ], [ 8.6916754, 49.4018008 ], [ 8.6918105, 49.4020505 ], [ 8.6919075, 49.4023076 ], [ 8.6919654, 49.4025697 ], [ 8.6919837, 49.4028343 ], [ 8.6919621, 49.4030987 ], [ 8.6919009, 49.4033605 ], [ 8.6918007, 49.4036171 ], [ 8.6916624, 49.4038661 ], [ 8.6914874, 49.404105 ], [ 8.6912774, 49.4043316 ], [ 8.6910343, 49.4045437 ], [ 8.6907606, 49.4047392 ], [ 8.6905574, 49.4048583 ], [ 8.6909356, 49.4049213 ], [ 8.6913172, 49.4050115 ], [ 8.6916833, 49.4051257 ], [ 8.6920305, 49.4052628 ], [ 8.6923555, 49.4054214 ], [ 8.6926551, 49.4056 ], [ 8.6929264, 49.405797 ], [ 8.6931668, 49.4060103 ], [ 8.693374, 49.406238 ], [ 8.693546, 49.4064778 ], [ 8.6936812, 49.4067275 ], [ 8.6937782, 49.4069847 ], [ 8.6938361, 49.4072468 ], [ 8.6938544, 49.4075113 ], [ 8.6938328, 49.4077758 ], [ 8.6937716, 49.4080376 ], [ 8.6936714, 49.4082942 ], [ 8.6935331, 49.4085431 ], [ 8.6933581, 49.4087821 ], [ 8.6931481, 49.4090087 ], [ 8.692905, 49.4092207 ], [ 8.6926312, 49.4094162 ], [ 8.6923294, 49.4095932 ], [ 8.6920024, 49.4097501 ], [ 8.6916535, 49.4098853 ], [ 8.6912859, 49.4099976 ], [ 8.6909032, 49.4100858 ], [ 8.6905091, 49.4101491 ], [ 8.6901074, 49.4101868 ], [ 8.689702, 49.4101988 ], [ 8.6892967, 49.4101847 ], [ 8.6888955, 49.4101447 ], [ 8.6885022, 49.4100793 ], [ 8.6881207, 49.4099891 ], [ 8.6877545, 49.4098749 ], [ 8.6874073, 49.4097378 ], [ 8.6870823, 49.4095792 ], [ 8.6867827, 49.4094005 ], [ 8.6865114, 49.4092036 ], [ 8.686271, 49.4089902 ], [ 8.6860638, 49.4087625 ], [ 8.6858918, 49.4085226 ], [ 8.6858473, 49.4084403 ], [ 8.6858342, 49.4084496 ], [ 8.6855324, 49.4086266 ], [ 8.6852054, 49.4087835 ], [ 8.6848564, 49.4089187 ], [ 8.6844888, 49.4090309 ], [ 8.6841061, 49.409119 ], [ 8.6837121, 49.4091823 ], [ 8.6833104, 49.4092201 ], [ 8.6830843, 49.4092267 ], [ 8.6830403, 49.4094147 ], [ 8.6829401, 49.4096713 ], [ 8.6828017, 49.4099203 ], [ 8.6826267, 49.4101592 ], [ 8.6824166, 49.4103858 ], [ 8.6821734, 49.4105978 ], [ 8.6818996, 49.4107933 ], [ 8.6815977, 49.4109703 ], [ 8.6812707, 49.4111271 ], [ 8.6809217, 49.4112623 ], [ 8.6805541, 49.4113745 ], [ 8.6801714, 49.4114627 ], [ 8.6797773, 49.4115259 ], [ 8.6793756, 49.4115637 ], [ 8.6789701, 49.4115755 ], [ 8.6785648, 49.4115614 ], [ 8.6781636, 49.4115215 ], [ 8.6777703, 49.411456 ], [ 8.6773888, 49.4113657 ], [ 8.6770226, 49.4112515 ], [ 8.6766754, 49.4111144 ], [ 8.6763505, 49.4109557 ], [ 8.6760509, 49.410777 ], [ 8.6757797, 49.4105801 ], [ 8.6755393, 49.4103667 ], [ 8.6753322, 49.410139 ], [ 8.6751602, 49.4098991 ], [ 8.6750251, 49.4096494 ], [ 8.6749282, 49.4093922 ], [ 8.6748704, 49.4091301 ], [ 8.6748522, 49.4088655 ], [ 8.6748625, 49.4087406 ], [ 8.6747864, 49.40877 ], [ 8.6744188, 49.4088822 ], [ 8.6740361, 49.4089703 ], [ 8.673642, 49.4090336 ], [ 8.6733406, 49.4090619 ], [ 8.673155, 49.4091944 ], [ 8.6728531, 49.4093714 ], [ 8.672526, 49.4095282 ], [ 8.672177, 49.4096634 ], [ 8.6718094, 49.4097755 ], [ 8.6714267, 49.4098637 ], [ 8.6710326, 49.4099269 ], [ 8.6706309, 49.4099646 ], [ 8.6702254, 49.4099764 ], [ 8.6698202, 49.4099623 ], [ 8.669419, 49.4099223 ], [ 8.6690257, 49.4098568 ], [ 8.6686442, 49.4097665 ], [ 8.6682781, 49.4096522 ], [ 8.6679309, 49.4095151 ], [ 8.667606, 49.4093564 ], [ 8.6673065, 49.4091777 ], [ 8.6670353, 49.4089807 ], [ 8.6667949, 49.4087673 ], [ 8.6665878, 49.4085396 ], [ 8.666416, 49.4082997 ], [ 8.6663631, 49.4082019 ], [ 8.6661837, 49.4082714 ], [ 8.6658161, 49.4083835 ], [ 8.6655754, 49.4084389 ], [ 8.6657103, 49.4086884 ], [ 8.6658071, 49.4089456 ], [ 8.6658649, 49.4092077 ], [ 8.665883, 49.4094722 ], [ 8.6658613, 49.4097367 ], [ 8.6658, 49.4099984 ], [ 8.6656996, 49.410255 ], [ 8.6655612, 49.410504 ], [ 8.6653861, 49.4107429 ], [ 8.6651759, 49.4109694 ], [ 8.6649326, 49.4111814 ], [ 8.6646588, 49.4113768 ], [ 8.6643568, 49.4115538 ], [ 8.6640298, 49.4117106 ], [ 8.6636807, 49.4118457 ], [ 8.663313, 49.4119579 ], [ 8.6629303, 49.412046 ], [ 8.6625362, 49.4121092 ], [ 8.6621344, 49.4121468 ], [ 8.661729, 49.4121586 ], [ 8.6613237, 49.4121445 ], [ 8.6609225, 49.4121044 ], [ 8.6605292, 49.4120389 ], [ 8.6601477, 49.4119486 ], [ 8.66, 49.4119025 ], [ 8.66, 49.4070181 ], [ 8.6601821, 49.4069625 ], [ 8.6604228, 49.4069071 ], [ 8.6602879, 49.4066577 ], [ 8.6601911, 49.4064005 ], [ 8.6601334, 49.4061384 ], [ 8.6601153, 49.4058738 ], [ 8.6601301, 49.4056933 ], [ 8.66, 49.4055502 ], [ 8.66, 49.4020211 ], [ 8.6600402, 49.4019861 ], [ 8.6603141, 49.4017907 ], [ 8.6606159, 49.4016137 ], [ 8.6609429, 49.4014569 ], [ 8.6609659, 49.401448 ], [ 8.6610981, 49.4013846 ], [ 8.6614471, 49.4012495 ], [ 8.6618147, 49.4011373 ], [ 8.6621974, 49.4010492 ], [ 8.6625914, 49.400986 ], [ 8.6627171, 49.4009743 ], [ 8.6630187, 49.4007975 ], [ 8.6633457, 49.4006407 ], [ 8.6636946, 49.4005055 ], [ 8.6640622, 49.4003934 ], [ 8.6642062, 49.4003602 ], [ 8.664214, 49.4003557 ], [ 8.6645409, 49.4001989 ], [ 8.6648899, 49.4000637 ], [ 8.6652575, 49.3999516 ], [ 8.6656401, 49.3998635 ], [ 8.6660342, 49.3998003 ], [ 8.6664358, 49.3997626 ], [ 8.6668412, 49.3997507 ], [ 8.6672463, 49.3997649 ], [ 8.6676474, 49.3998049 ], [ 8.6680406, 49.3998704 ], [ 8.6684221, 49.3999607 ], [ 8.6687881, 49.400075 ], [ 8.6691352, 49.4002121 ], [ 8.669329, 49.4003068 ], [ 8.6693375, 49.4002915 ], [ 8.6695126, 49.4000526 ], [ 8.6697228, 49.3998261 ], [ 8.6699659, 49.399614 ], [ 8.6702397, 49.3994186 ], [ 8.6705415, 49.3992416 ], [ 8.6708685, 49.3990848 ], [ 8.6712174, 49.3989497 ], [ 8.671585, 49.3988375 ], [ 8.6719676, 49.3987493 ], [ 8.6723616, 49.3986861 ], [ 8.6727633, 49.3986484 ] ], [ [ 8.6770795, 49.4063437 ], [ 8.6769804, 49.4062846 ], [ 8.6769881, 49.4063963 ], [ 8.6769778, 49.4065213 ], [ 8.6770539, 49.4064919 ], [ 8.6771097, 49.4064748 ], [ 8.6771066, 49.4064665 ], [ 8.6770795, 49.4063437 ] ] ], [ [ [ 8.6679678, 49.4131319 ], [ 8.6682081, 49.4133453 ], [ 8.6684153, 49.4135731 ], [ 8.6685872, 49.413813 ], [ 8.6687222, 49.4140627 ], [ 8.6688191, 49.4143198 ], [ 8.6688769, 49.414582 ], [ 8.6688951, 49.4148465 ], [ 8.6688734, 49.415111 ], [ 8.6688121, 49.4153727 ], [ 8.6687117, 49.4156293 ], [ 8.6685733, 49.4158783 ], [ 8.6683981, 49.4161172 ], [ 8.6681879, 49.4163437 ], [ 8.6679447, 49.4165557 ], [ 8.6676708, 49.4167511 ], [ 8.6673688, 49.4169281 ], [ 8.6670417, 49.4170849 ], [ 8.6666927, 49.4172201 ], [ 8.6666526, 49.4172323 ], [ 8.666631, 49.4172407 ], [ 8.6662633, 49.4173528 ], [ 8.6658805, 49.4174409 ], [ 8.6654863, 49.4175041 ], [ 8.6650845, 49.4175418 ], [ 8.664679, 49.4175536 ], [ 8.6642737, 49.4175395 ], [ 8.6638724, 49.4174995 ], [ 8.6634791, 49.417434 ], [ 8.6630976, 49.4173436 ], [ 8.6627314, 49.4172293 ], [ 8.6623842, 49.4170922 ], [ 8.6620592, 49.4169335 ], [ 8.6617597, 49.4167548 ], [ 8.6614885, 49.4165578 ], [ 8.6612481, 49.4163444 ], [ 8.661041, 49.4161166 ], [ 8.6608691, 49.4158767 ], [ 8.6607341, 49.415627 ], [ 8.6606373, 49.4153698 ], [ 8.6605795, 49.4151077 ], [ 8.6605614, 49.4148431 ], [ 8.6605832, 49.4145787 ], [ 8.6606445, 49.4143169 ], [ 8.6607449, 49.4140603 ], [ 8.6608834, 49.4138114 ], [ 8.6610586, 49.4135725 ], [ 8.6612688, 49.413346 ], [ 8.661512, 49.413134 ], [ 8.6617859, 49.4129386 ], [ 8.6620879, 49.4127616 ], [ 8.662415, 49.4126048 ], [ 8.662764, 49.4124697 ], [ 8.662804, 49.4124575 ], [ 8.6628257, 49.4124491 ], [ 8.6631934, 49.412337 ], [ 8.6635761, 49.4122489 ], [ 8.6639703, 49.4121857 ], [ 8.664372, 49.412148 ], [ 8.6647775, 49.4121362 ], [ 8.6651828, 49.4121503 ], [ 8.665584, 49.4121903 ], [ 8.6659772, 49.4122558 ], [ 8.6663588, 49.4123461 ], [ 8.6667249, 49.4124604 ], [ 8.6670721, 49.4125976 ], [ 8.667397, 49.4127563 ], [ 8.6676966, 49.412935 ], [ 8.6679678, 49.4131319 ] ] ], [ [ [ 8.6811512, 49.4136007 ], [ 8.6814225, 49.4137977 ], [ 8.6816629, 49.414011 ], [ 8.6818701, 49.4142388 ], [ 8.6820421, 49.4144786 ], [ 8.6821772, 49.4147283 ], [ 8.6822742, 49.4149855 ], [ 8.682332, 49.4152476 ], [ 8.6823502, 49.4155121 ], [ 8.6823286, 49.4157766 ], [ 8.6822674, 49.4160384 ], [ 8.6821752, 49.4162742 ], [ 8.682197, 49.4162552 ], [ 8.6824708, 49.4160597 ], [ 8.6827727, 49.4158827 ], [ 8.6830998, 49.4157258 ], [ 8.6834488, 49.4155907 ], [ 8.6838164, 49.4154784 ], [ 8.6841992, 49.4153903 ], [ 8.6845933, 49.415327 ], [ 8.6849951, 49.4152892 ], [ 8.6854005, 49.4152774 ], [ 8.6858059, 49.4152914 ], [ 8.6862071, 49.4153314 ], [ 8.6866004, 49.4153968 ], [ 8.686982, 49.4154871 ], [ 8.6873482, 49.4156013 ], [ 8.6876955, 49.4157384 ], [ 8.6880205, 49.415897 ], [ 8.6883201, 49.4160756 ], [ 8.6883648, 49.4161081 ], [ 8.688453, 49.4158823 ], [ 8.6885913, 49.4156333 ], [ 8.6887664, 49.4153944 ], [ 8.6889765, 49.4151678 ], [ 8.6891132, 49.4150486 ], [ 8.6889329, 49.4148505 ], [ 8.6887609, 49.4146106 ], [ 8.6886258, 49.4143609 ], [ 8.6885288, 49.4141038 ], [ 8.6884709, 49.4138417 ], [ 8.6884526, 49.4135771 ], [ 8.6884742, 49.4133127 ], [ 8.6885354, 49.4130509 ], [ 8.6886357, 49.4127943 ], [ 8.688774, 49.4125453 ], [ 8.688949, 49.4123064 ], [ 8.6891591, 49.4120798 ], [ 8.6894022, 49.4118678 ], [ 8.689676, 49.4116723 ], [ 8.6899779, 49.4114953 ], [ 8.6903048, 49.4113384 ], [ 8.6906538, 49.4112032 ], [ 8.6910214, 49.4110909 ], [ 8.6914041, 49.4110027 ], [ 8.6917982, 49.4109394 ], [ 8.6921999, 49.4109017 ], [ 8.6926054, 49.4108897 ], [ 8.6928622, 49.4108987 ], [ 8.6929015, 49.4107982 ], [ 8.6930397, 49.4105493 ], [ 8.6932148, 49.4103103 ], [ 8.6934248, 49.4100838 ], [ 8.6936679, 49.4098717 ], [ 8.6939417, 49.4096762 ], [ 8.6942435, 49.4094992 ], [ 8.6943018, 49.4094712 ], [ 8.6942501, 49.4093343 ], [ 8.6941922, 49.4090722 ], [ 8.6941739, 49.4088076 ], [ 8.6941955, 49.4085432 ], [ 8.6942567, 49.4082814 ], [ 8.6943569, 49.4080248 ], [ 8.6944951, 49.4077758 ], [ 8.6946701, 49.4075369 ], [ 8.6948802, 49.4073103 ], [ 8.6951232, 49.4070982 ], [ 8.695397, 49.4069027 ], [ 8.6956988, 49.4067257 ], [ 8.6960257, 49.4065688 ], [ 8.6963746, 49.4064336 ], [ 8.6967422, 49.4063213 ], [ 8.6971248, 49.4062331 ], [ 8.6975189, 49.4061698 ], [ 8.6979205, 49.406132 ], [ 8.6983259, 49.40612 ], [ 8.6987312, 49.4061341 ], [ 8.6991324, 49.406174 ], [ 8.6995256, 49.4062394 ], [ 8.6999072, 49.4063296 ], [ 8.7002733, 49.4064437 ], [ 8.7006206, 49.4065808 ], [ 8.7008603, 49.4066978 ], [ 8.7011712, 49.4065486 ], [ 8.7015201, 49.4064134 ], [ 8.7018876, 49.4063011 ], [ 8.7022703, 49.4062129 ], [ 8.7026643, 49.4061495 ], [ 8.7030659, 49.4061117 ], [ 8.7034714, 49.4060997 ], [ 8.7038766, 49.4061138 ], [ 8.7042778, 49.4061537 ], [ 8.7046711, 49.406219 ], [ 8.7050526, 49.4063092 ], [ 8.7054188, 49.4064234 ], [ 8.7057661, 49.4065604 ], [ 8.7060911, 49.406719 ], [ 8.7063907, 49.4068976 ], [ 8.7066621, 49.4070945 ], [ 8.7069025, 49.4073078 ], [ 8.7071098, 49.4075355 ], [ 8.7072819, 49.4077753 ], [ 8.7074172, 49.408025 ], [ 8.7075142, 49.4082821 ], [ 8.7075722, 49.4085442 ], [ 8.7075906, 49.4088087 ], [ 8.7075691, 49.4090732 ], [ 8.707508, 49.409335 ], [ 8.7074079, 49.4095916 ], [ 8.7072696, 49.4098406 ], [ 8.7070947, 49.4100795 ], [ 8.7068847, 49.4103061 ], [ 8.7066417, 49.4105182 ], [ 8.7063679, 49.4107138 ], [ 8.7060662, 49.4108908 ], [ 8.7057392, 49.4110478 ], [ 8.7053903, 49.411183 ], [ 8.7050227, 49.4112953 ], [ 8.7046401, 49.4113835 ], [ 8.704246, 49.4114469 ], [ 8.7038443, 49.4114847 ], [ 8.7034388, 49.4114967 ], [ 8.7030336, 49.4114826 ], [ 8.7026323, 49.4114427 ], [ 8.702239, 49.4113774 ], [ 8.7018574, 49.4112872 ], [ 8.7014912, 49.411173 ], [ 8.7011439, 49.411036 ], [ 8.7009042, 49.410919 ], [ 8.700862, 49.4109392 ], [ 8.7009136, 49.4110761 ], [ 8.7009716, 49.4113382 ], [ 8.7009899, 49.4116028 ], [ 8.7009684, 49.4118672 ], [ 8.7009072, 49.412129 ], [ 8.7008071, 49.4123856 ], [ 8.7006688, 49.4126346 ], [ 8.7004938, 49.4128735 ], [ 8.7002838, 49.4131001 ], [ 8.7000407, 49.4133122 ], [ 8.699767, 49.4135077 ], [ 8.6994651, 49.4136848 ], [ 8.6991382, 49.4138417 ], [ 8.6987892, 49.4139769 ], [ 8.6984216, 49.4140892 ], [ 8.6980389, 49.4141774 ], [ 8.6976448, 49.4142407 ], [ 8.6972431, 49.4142785 ], [ 8.6968376, 49.4142905 ], [ 8.6965807, 49.4142815 ], [ 8.6965415, 49.414382 ], [ 8.6964032, 49.4146309 ], [ 8.6962282, 49.4148699 ], [ 8.6960181, 49.4150965 ], [ 8.6959407, 49.4151639 ], [ 8.6959684, 49.4151885 ], [ 8.6961757, 49.4154162 ], [ 8.6963478, 49.415656 ], [ 8.696483, 49.4159057 ], [ 8.69658, 49.4161629 ], [ 8.6966379, 49.416425 ], [ 8.6966562, 49.4166895 ], [ 8.6966347, 49.416954 ], [ 8.6965735, 49.4172158 ], [ 8.6964733, 49.4174724 ], [ 8.696335, 49.4177214 ], [ 8.69616, 49.4179603 ], [ 8.6959499, 49.4181869 ], [ 8.6957068, 49.4183989 ], [ 8.695433, 49.4185944 ], [ 8.6951311, 49.4187715 ], [ 8.6948041, 49.4189284 ], [ 8.6945928, 49.4190102 ], [ 8.6945904, 49.4190401 ], [ 8.6945292, 49.4193019 ], [ 8.6944289, 49.4195585 ], [ 8.6942906, 49.4198075 ], [ 8.6941156, 49.4200464 ], [ 8.6939055, 49.420273 ], [ 8.6936624, 49.4204851 ], [ 8.6933885, 49.4206806 ], [ 8.6930866, 49.4208576 ], [ 8.6927596, 49.4210145 ], [ 8.6924106, 49.4211497 ], [ 8.6920429, 49.421262 ], [ 8.6916601, 49.4213502 ], [ 8.691266, 49.4214135 ], [ 8.6908642, 49.4214512 ], [ 8.6904586, 49.4214631 ], [ 8.6900533, 49.4214491 ], [ 8.689652, 49.4214091 ], [ 8.6892586, 49.4213437 ], [ 8.6888769, 49.4212535 ], [ 8.6885107, 49.4211393 ], [ 8.6881634, 49.4210022 ], [ 8.6878383, 49.4208436 ], [ 8.6875387, 49.4206649 ], [ 8.6872673, 49.420468 ], [ 8.6871905, 49.4203998 ], [ 8.6869503, 49.4204731 ], [ 8.6868409, 49.4204984 ], [ 8.6868302, 49.420544 ], [ 8.6867299, 49.4208006 ], [ 8.6865916, 49.4210496 ], [ 8.6864165, 49.4212885 ], [ 8.6862063, 49.4215151 ], [ 8.6859632, 49.4217271 ], [ 8.6856893, 49.4219226 ], [ 8.6855508, 49.4220038 ], [ 8.6706515, 49.4220023 ], [ 8.6706356, 49.4217705 ], [ 8.6706573, 49.4215061 ], [ 8.6707187, 49.4212443 ], [ 8.670819, 49.4209877 ], [ 8.6709574, 49.4207387 ], [ 8.6711326, 49.4204998 ], [ 8.6713428, 49.4202733 ], [ 8.6715727, 49.4200729 ], [ 8.6714284, 49.4198715 ], [ 8.6712933, 49.4196217 ], [ 8.6711964, 49.4193646 ], [ 8.6711385, 49.4191025 ], [ 8.6711204, 49.4188379 ], [ 8.6711421, 49.4185735 ], [ 8.6712034, 49.4183117 ], [ 8.6713037, 49.4180551 ], [ 8.6714421, 49.4178062 ], [ 8.6716173, 49.4175673 ], [ 8.6718275, 49.4173407 ], [ 8.6720707, 49.4171287 ], [ 8.6723446, 49.4169333 ], [ 8.6726465, 49.4167563 ], [ 8.6729736, 49.4165994 ], [ 8.6733227, 49.4164643 ], [ 8.6736903, 49.4163521 ], [ 8.6740731, 49.416264 ], [ 8.6741931, 49.4162447 ], [ 8.674107, 49.4160162 ], [ 8.6740491, 49.4157541 ], [ 8.674031, 49.4154895 ], [ 8.6740526, 49.4152251 ], [ 8.6741139, 49.4149633 ], [ 8.6742143, 49.4147067 ], [ 8.6743526, 49.4144578 ], [ 8.6745278, 49.4142189 ], [ 8.6747379, 49.4139923 ], [ 8.6749811, 49.4137803 ], [ 8.675255, 49.4135848 ], [ 8.6755569, 49.4134078 ], [ 8.6758839, 49.413251 ], [ 8.6762329, 49.4131158 ], [ 8.6766006, 49.4130036 ], [ 8.6769833, 49.4129155 ], [ 8.6773774, 49.4128523 ], [ 8.6777792, 49.4128145 ], [ 8.6781846, 49.4128027 ], [ 8.6781999, 49.4128032 ], [ 8.6782318, 49.4128023 ], [ 8.6786371, 49.4128164 ], [ 8.6790384, 49.4128563 ], [ 8.6794316, 49.4129218 ], [ 8.6798132, 49.4130121 ], [ 8.6801794, 49.4131263 ], [ 8.6805266, 49.4132634 ], [ 8.6808516, 49.413422 ], [ 8.6811512, 49.4136007 ] ], [ [ 8.6804975, 49.4177507 ], [ 8.6801484, 49.4178859 ], [ 8.6797808, 49.4179981 ], [ 8.679398, 49.4180863 ], [ 8.6792333, 49.4181127 ], [ 8.6793034, 49.4182986 ], [ 8.679585, 49.4182904 ], [ 8.6795903, 49.4182858 ], [ 8.6798641, 49.4180903 ], [ 8.680166, 49.4179133 ], [ 8.6804931, 49.4177565 ], [ 8.6808421, 49.4176213 ], [ 8.6812098, 49.4175091 ], [ 8.6813193, 49.4174839 ], [ 8.6813299, 49.4174383 ], [ 8.6814221, 49.4172024 ], [ 8.6814003, 49.4172214 ], [ 8.6811265, 49.4174169 ], [ 8.6808245, 49.4175939 ], [ 8.6804975, 49.4177507 ] ] ], [ [ [ 8.7169915, 49.4076798 ], [ 8.717263, 49.4078767 ], [ 8.7175035, 49.40809 ], [ 8.7177108, 49.4083176 ], [ 8.717883, 49.4085574 ], [ 8.7180183, 49.4088071 ], [ 8.7181154, 49.4090642 ], [ 8.7181734, 49.4093263 ], [ 8.7181918, 49.4095909 ], [ 8.7181704, 49.4098553 ], [ 8.7181094, 49.4101171 ], [ 8.7180093, 49.4103737 ], [ 8.7178711, 49.4106227 ], [ 8.7176962, 49.4108617 ], [ 8.7174863, 49.4110883 ], [ 8.7172433, 49.4113004 ], [ 8.7169696, 49.411496 ], [ 8.7169172, 49.4115267 ], [ 8.7169909, 49.4117218 ], [ 8.717049, 49.4119838 ], [ 8.7170674, 49.4122484 ], [ 8.7170472, 49.4124974 ], [ 8.7171466, 49.4126359 ], [ 8.7172819, 49.4128855 ], [ 8.717379, 49.4131426 ], [ 8.7174371, 49.4134047 ], [ 8.7174555, 49.4136693 ], [ 8.7174341, 49.4139337 ], [ 8.717373, 49.4141955 ], [ 8.7172729, 49.4144522 ], [ 8.7171347, 49.4147012 ], [ 8.7169598, 49.4149401 ], [ 8.7167498, 49.4151668 ], [ 8.7165068, 49.4153789 ], [ 8.7162331, 49.4155744 ], [ 8.7159313, 49.4157515 ], [ 8.7156044, 49.4159085 ], [ 8.7152555, 49.4160437 ], [ 8.7148879, 49.4161561 ], [ 8.7145052, 49.4162443 ], [ 8.7141111, 49.4163077 ], [ 8.7137094, 49.4163456 ], [ 8.7133039, 49.4163576 ], [ 8.7128985, 49.4163436 ], [ 8.7124973, 49.4163037 ], [ 8.7121039, 49.4162384 ], [ 8.7117223, 49.4161482 ], [ 8.711356, 49.4160341 ], [ 8.7110087, 49.4158971 ], [ 8.7106836, 49.4157385 ], [ 8.7103839, 49.4155599 ], [ 8.7101124, 49.415363 ], [ 8.7098719, 49.4151497 ], [ 8.7096646, 49.414922 ], [ 8.7094924, 49.4146822 ], [ 8.7093572, 49.4144325 ], [ 8.7092601, 49.4141754 ], [ 8.7092021, 49.4139133 ], [ 8.7091837, 49.4136488 ], [ 8.7092039, 49.4133998 ], [ 8.7091045, 49.4132613 ], [ 8.7089693, 49.4130116 ], [ 8.7088722, 49.4127545 ], [ 8.7088638, 49.4127168 ], [ 8.7086608, 49.4125368 ], [ 8.7084535, 49.4123091 ], [ 8.7082814, 49.4120693 ], [ 8.7081462, 49.4118196 ], [ 8.7080491, 49.4115625 ], [ 8.7079911, 49.4113004 ], [ 8.7079727, 49.4110358 ], [ 8.7079942, 49.4107714 ], [ 8.7080553, 49.4105096 ], [ 8.7081555, 49.410253 ], [ 8.7082937, 49.410004 ], [ 8.7084686, 49.409765 ], [ 8.7086786, 49.4095384 ], [ 8.7089216, 49.4093263 ], [ 8.7091953, 49.4091308 ], [ 8.7094971, 49.4089537 ], [ 8.709824, 49.4087968 ], [ 8.7101729, 49.4086615 ], [ 8.7101735, 49.4086613 ], [ 8.7102416, 49.4085385 ], [ 8.7104166, 49.4082996 ], [ 8.7106265, 49.408073 ], [ 8.7108695, 49.4078609 ], [ 8.7111432, 49.4076653 ], [ 8.711445, 49.4074882 ], [ 8.7117718, 49.4073313 ], [ 8.7121207, 49.407196 ], [ 8.7124883, 49.4070837 ], [ 8.7128709, 49.4069955 ], [ 8.7132649, 49.4069321 ], [ 8.7136666, 49.4068942 ], [ 8.714072, 49.4068822 ], [ 8.7144772, 49.4068962 ], [ 8.7148784, 49.4069361 ], [ 8.7152717, 49.4070014 ], [ 8.7156533, 49.4070916 ], [ 8.7160195, 49.4072057 ], [ 8.7163668, 49.4073427 ], [ 8.7166919, 49.4075012 ], [ 8.7169915, 49.4076798 ] ] ] ] } },
{ "type": "Feature", "properties": { "index": "1", "label": "Beyond 300 m", "color": "#d9d9d9" }, "geometry": { "type": "MultiPolygon", "coordinates": [ [ [ [ 8.72, 49.398 ], [ 8.72, 49.422 ], [ 8.6855508, 49.4220038 ], [ 8.6856893, 49.4219226 ], [ 8.6859632, 49.4217271 ], [ 8.6862063, 49.4215151 ], [ 8.6864165, 49.4212885 ], [ 8.6865916, 49.4210496 ], [ 8.6867299, 49.4208006 ], [ 8.6868302, 49.420544 ], [ 8.6868409, 49.4204984 ], [ 8.6869503, 49.4204731 ], [ 8.6871905, 49.4203998 ], [ 8.6872673, 49.420468 ], [ 8.6875387, 49.4206649 ], [ 8.6878383, 49.4208436 ], [ 8.6881634, 49.4210022 ], [ 8.6885107, 49.4211393 ], [ 8.6888769, 49.4212535 ], [ 8.6892586, 49.4213437 ], [ 8.689652, 49.4214091 ], [ 8.6900533, 49.4214491 ], [ 8.6904586, 49.4214631 ], [ 8.6908642, 49.4214512 ], [ 8.691266, 49.4214135 ], [ 8.6916601, 49.4213502 ], [ 8.6920429, 49.421262 ], [ 8.6924106, 49.4211497 ], [ 8.6927596, 49.4210145 ], [ 8.6930866, 49.4208576 ], [ 8.6933885, 49.4206806 ], [ 8.6936624, 49.4204851 ], [ 8.6939055, 49.420273 ], [ 8.6941156, 49.4200464 ], [ 8.6942906, 49.4198075 ], [ 8.6944289, 49.4195585 ], [ 8.6945292, 49.4193019 ], [ 8.6945904, 49.4190401 ], [ 8.6945928, 49.4190102 ], [ 8.6948041, 49.4189284 ], [ 8.6951311, 49.4187715 ], [ 8.695433, 49.4185944 ], [ 8.6957068, 49.4183989 ], [ 8.6959499, 49.4181869 ], [ 8.69616, 49.4179603 ], [ 8.696335, 49.4177214 ], [ 8.6964733, 49.4174724 ], [ 8.6965735, 49.4172158 ], [ 8.6966347, 49.416954 ], [ 8.6966562, 49.4166895 ], [ 8.6966379, 49.416425 ], [ 8.69658, 49.4161629 ], [ 8.696483, 49.4159057 ], [ 8.6963478, 49.415656 ], [ 8.6961757, 49.4154162 ], [ 8.6959684, 49.4151885 ], [ 8.6959407, 49.4151639 ], [ 8.6960181, 49.4150965 ], [ 8.6962282, 49.4148699 ], [ 8.6964032, 49.4146309 ], [ 8.6965415, 49.414382 ], [ 8.6965807, 49.4142815 ], [ 8.6968376, 49.4142905 ], [ 8.6972431, 49.4142785 ], [ 8.6976448, 49.4142407 ], [ 8.6980389, 49.4141774 ], [ 8.6984216, 49.4140892 ], [ 8.6987892, 49.4139769 ], [ 8.6991382, 49.4138417 ], [ 8.6994651, 49.4136848 ], [ 8.699767, 49.4135077 ], [ 8.7000407, 49.4133122 ], [ 8.7002838, 49.4131001 ], [ 8.7004938, 49.4128735 ], [ 8.7006688, 49.4126346 ], [ 8.7008071, 49.4123856 ], [ 8.7009072, 49.412129 ], [ 8.7009684, 49.4118672 ], [ 8.7009899, 49.4116028 ], [ 8.7009716, 49.4113382 ], [ 8.7009136, 49.4110761 ], [ 8.700862, 49.4109392 ], [ 8.7009042, 49.410919 ], [ 8.7011439, 49.411036 ], [ 8.7014912, 49.411173 ], [ 8.7018574, 49.4112872 ], [ 8.702239, 49.4113774 ], [ 8.7026323, 49.4114427 ], [ 8.7030336, 49.4114826 ], [ 8.7034388, 49.4114967 ], [ 8.7038443, 49.4114847 ], [ 8.704246, 49.4114469 ], [ 8.7046401, 49.4113835 ], [ 8.7050227, 49.4112953 ], [ 8.7053903, 49.411183 ], [ 8.7057392, 49.4110478 ], [ 8.7060662, 49.4108908 ], [ 8.7063679, 49.4107138 ], [ 8.7066417, 49.4105182 ], [ 8.7068847, 49.4103061 ], [ 8.7070947, 49.4100795 ], [ 8.7072696, 49.4098406 ], [ 8.7074079, 49.4095916 ], [ 8.707508, 49.409335 ], [ 8.7075691, 49.4090732 ], [ 8.7075906, 49.4088087 ], [ 8.7075722, 49.4085442 ], [ 8.7075142, 49.4082821 ], [ 8.7074172, 49.408025 ], [ 8.7072819, 49.4077753 ], [ 8.7071098, 49.4075355 ], [ 8.7069025, 49.4073078 ], [ 8.7066621, 49.4070945 ], [ 8.7063907, 49.4068976 ], [ 8.7060911, 49.406719 ], [ 8.7057661, 49.4065604 ], [ 8.7054188, 49.4064234 ], [ 8.7050526, 49.4063092 ], [ 8.7046711, 49.406219 ], [ 8.7042778, 49.4061537 ], [ 8.7038766, 49.4061138 ], [ 8.7034714, 49.4060997 ], [ 8.7030659, 49.4061117 ], [ 8.7026643, 49.4061495 ], [ 8.7022703, 49.4062129 ], [ 8.7018876, 49.4063011 ], [ 8.7015201, 49.4064134 ], [ 8.7011712, 49.4065486 ], [ 8.7008603, 49.4066978 ], [ 8.7006206, 49.4065808 ], [ 8.7002733, 49.4064437 ], [ 8.6999072, 49.4063296 ], [ 8.6995256, 49.4062394 ], [ 8.6991324, 49.406174 ], [ 8.6987312, 49.4061341 ], [ 8.6983259, 49.40612 ], [ 8.6979205, 49.406132 ], [ 8.6975189, 49.4061698 ], [ 8.6971248, 49.4062331 ], [ 8.6967422, 49.4063213 ], [ 8.6963746, 49.4064336 ], [ 8.6960257, 49.4065688 ], [ 8.6956988, 49.4067257 ], [ 8.695397, 49.4069027 ], [ 8.6951232, 49.4070982 ], [ 8.6948802, 49.4073103 ], [ 8.6946701, 49.4075369 ], [ 8.6944951, 49.4077758 ], [ 8.6943569, 49.4080248 ], [ 8.6942567, 49.4082814 ], [ 8.6941955, 49.4085432 ], [ 8.6941739, 49.4088076 ], [ 8.6941922, 49.4090722 ], [ 8.6942501, 49.4093343 ], [ 8.6943018, 49.4094712 ], [ 8.6942435, 49.4094992 ], [ 8.6939417, 49.4096762 ], [ 8.6936679, 49.4098717 ], [ 8.6934248, 49.4100838 ], [ 8.6932148, 49.4103103 ], [ 8.6930397, 49.4105493 ], [ 8.6929015, 49.4107982 ], [ 8.6928622, 49.4108987 ], [ 8.6926054, 49.4108897 ], [ 8.6921999, 49.4109017 ], [ 8.6917982, 49.4109394 ], [ 8.6914041, 49.4110027 ], [ 8.6910214, 49.4110909 ], [ 8.6906538, 49.4112032 ], [ 8.6903048, 49.4113384 ], [ 8.6899779, 49.4114953 ], [ 8.689676, 49.4116723 ], [ 8.6894022, 49.4118678 ], [ 8.6891591, 49.4120798 ], [ 8.688949, 49.4123064 ], [ 8.688774, 49.4125453 ], [ 8.6886357, 49.4127943 ], [ 8.6885354, 49.4130509 ], [ 8.6884742, 49.4133127 ], [ 8.6884526, 49.4135771 ], [ 8.6884709, 49.4138417 ], [ 8.6885288, 49.4141038 ], [ 8.6886258, 49.4143609 ], [ 8.6887609, 49.4146106 ], [ 8.6889329, 49.4148505 ], [ 8.6891132, 49.4150486 ], [ 8.6889765, 49.4151678 ], [ 8.6887664, 49.4153944 ], [ 8.6885913, 49.4156333 ], [ 8.688453, 49.4158823 ], [ 8.6883648, 49.4161081 ], [ 8.6883201, 49.4160756 ], [ 8.6880205, 49.415897 ], [ 8.6876955, 49.4157384 ], [ 8.6873482, 49.4156013 ], [ 8.686982, 49.4154871 ], [ 8.6866004, 49.4153968 ], [ 8.6862071, 49.4153314 ], [ 8.6858059, 49.4152914 ], [ 8.6854005, 49.4152774 ], [ 8.6849951, 49.4152892 ], [ 8.6845933, 49.415327 ], [ 8.6841992, 49.4153903 ], [ 8.6838164, 49.4154784 ], [ 8.6834488, 49.4155907 ], [ 8.6830998, 49.4157258 ], [ 8.6827727, 49.4158827 ], [ 8.6824708, 49.4160597 ], [ 8.682197, 49.4162552 ], [ 8.6821752, 49.4162742 ], [ 8.6822674, 49.4160384 ], [ 8.6823286, 49.4157766 ], [ 8.6823502, 49.4155121 ], [ 8.682332, 49.4152476 ], [ 8.6822742, 49.4149855 ], [ 8.6821772, 49.4147283 ], [ 8.6820421, 49.4144786 ], [ 8.6818701, 49.4142388 ], [ 8.6816629, 49.414011 ], [ 8.6814225, 49.4137977 ], [ 8.6811512, 49.4136007 ], [ 8.6808516, 49.413422 ], [ 8.6805266, 49.4132634 ], [ 8.6801794, 49.4131263 ], [ 8.6798132, 49.4130121 ], [ 8.6794316, 49.4129218 ], [ 8.6790384, 49.4128563 ], [ 8.6786371, 49.4128164 ], [ 8.6782318, 49.4128023 ], [ 8.6781999, 49.4128032 ], [ 8.6781846, 49.4128027 ], [ 8.6777792, 49.4128145 ], [ 8.6773774, 49.4128523 ], [ 8.6769833, 49.4129155 ], [ 8.6766006, 49.4130036 ], [ 8.6762329, 49.4131158 ], [ 8.6758839, 49.413251 ], [ 8.6755569, 49.4134078 ], [ 8.675255, 49.4135848 ], [ 8.6749811, 49.4137803 ], [ 8.6747379, 49.4139923 ], [ 8.6745278, 49.4142189 ], [ 8.6743526, 49.4144578 ], [ 8.6742143, 49.4147067 ], [ 8.6741139, 49.4149633 ], [ 8.6740526, 49.4152251 ], [ 8.674031, 49.4154895 ], [ 8.6740491, 49.4157541 ], [ 8.674107, 49.4160162 ], [ 8.6741931, 49.4162447 ], [ 8.6740731, 49.416264 ], [ 8.6736903, 49.4163521 ], [ 8.6733227, 49.4164643 ], [ 8.6729736, 49.4165994 ], [ 8.6726465, 49.4167563 ], [ 8.6723446, 49.4169333 ], [ 8.6720707, 49.4171287 ], [ 8.6718275, 49.4173407 ], [ 8.6716173, 49.4175673 ], [ 8.6714421, 49.4178062 ], [ 8.6713037, 49.4180551 ], [ 8.6712034, 49.4183117 ], [ 8.6711421, 49.4185735 ], [ 8.6711204, 49.4188379 ], [ 8.6711385, 49.4191025 ], [ 8.6711964, 49.4193646 ], [ 8.6712933, 49.4196217 ], [ 8.6714284, 49.4198715 ], [ 8.6715727, 49.4200729 ], [ 8.6713428, 49.4202733 ], [ 8.6711326, 49.4204998 ], [ 8.6709574, 49.4207387 ], [ 8.670819, 49.4209877 ], [ 8.6707187, 49.4212443 ], [ 8.6706573, 49.4215061 ], [ 8.6706356, 49.4217705 ], [ 8.6706515, 49.4220023 ], [ 8.66, 49.422 ], [ 8.66, 49.4119025 ], [ 8.6601477, 49.4119486 ], [ 8.6605292, 49.4120389 ], [ 8.6609225, 49.4121044 ], [ 8.6613237, 49.4121445 ], [ 8.661729, 49.4121586 ], [ 8.6621344, 49.4121468 ], [ 8.6625362, 49.4121092 ], [ 8.6629303, 49.412046 ], [ 8.663313, 49.4119579 ], [ 8.6636807, 49.4118457 ], [ 8.6640298, 49.4117106 ], [ 8.6643568, 49.4115538 ], [ 8.6646588, 49.4113768 ], [ 8.6649326, 49.4111814 ], [ 8.6651759, 49.4109694 ], [ 8.6653861, 49.4107429 ], [ 8.6655612, 49.410504 ], [ 8.6656996, 49.410255 ], [ 8.6658, 49.4099984 ], [ 8.6658613, 49.4097367 ], [ 8.665883, 49.4094722 ], [ 8.6658649, 49.4092077 ], [ 8.6658071, 49.4089456 ], [ 8.6657103, 49.4086884 ], [ 8.6655754, 49.4084389 ], [ 8.6658161, 49.4083835 ], [ 8.6661837, 49.4082714 ], [ 8.6663631, 49.4082019 ], [ 8.666416, 49.4082997 ], [ 8.6665878, 49.4085396 ], [ 8.6667949, 49.4087673 ], [ 8.6670353, 49.4089807 ], [ 8.6673065, 49.4091777 ], [ 8.667606, 49.4093564 ], [ 8.6679309, 49.4095151 ], [ 8.6682781, 49.4096522 ], [ 8.6686442, 49.4097665 ], [ 8.6690257, 49.4098568 ], [ 8.669419, 49.4099223 ], [ 8.6698202, 49.4099623 ], [ 8.6702254, 49.4099764 ], [ 8.6706309, 49.4099646 ], [ 8.6710326, 49.4099269 ], [ 8.6714267, 49.4098637 ], [ 8.6718094, 49.4097755 ], [ 8.672177, 49.4096634 ], [ 8.672526, 49.4095282 ], [ 8.6728531, 49.4093714 ], [ 8.673155, 49.4091944 ], [ 8.6733406, 49.4090619 ], [ 8.673642, 49.4090336 ], [ 8.6740361, 49.4089703 ], [ 8.6744188, 49.4088822 ], [ 8.6747864, 49.40877 ], [ 8.6748625, 49.4087406 ], [ 8.6748522, 49.4088655 ], [ 8.6748704, 49.4091301 ], [ 8.6749282, 49.4093922 ], [ 8.6750251, 49.4096494 ], [ 8.6751602, 49.4098991 ], [ 8.6753322, 49.410139 ], [ 8.6755393, 49.4103667 ], [ 8.6757797, 49.4105801 ], [ 8.6760509, 49.410777 ], [ 8.6763505, 49.4109557 ], [ 8.6766754, 49.4111144 ], [ 8.6770226, 49.4112515 ], [ 8.6773888, 49.4113657 ], [ 8.6777703, 49.411456 ], [ 8.6781636, 49.4115215 ], [ 8.6785648, 49.4115614 ], [ 8.6789701, 49.4115755 ], [ 8.6793756, 49.4115637 ], [ 8.6797773, 49.4115259 ], [ 8.6801714, 49.4114627 ], [ 8.6805541, 49.4113745 ], [ 8.6809217, 49.4112623 ], [ 8.6812707, 49.4111271 ], [ 8.6815977, 49.4109703 ], [ 8.6818996, 49.4107933 ], [ 8.6821734, 49.4105978 ], [ 8.6824166, 49.4103858 ], [ 8.6826267, 49.4101592 ], [ 8.6828017, 49.4099203 ], [ 8.6829401, 49.4096713 ], [ 8.6830403, 49.4094147 ], [ 8.6830843, 49.4092267 ], [ 8.6833104, 49.4092201 ], [ 8.6837121, 49.4091823 ], [ 8.6841061, 49.409119 ], [ 8.6844888, 49.4090309 ], [ 8.6848564, 49.4089187 ], [ 8.6852054, 49.4087835 ], [ 8.6855324, 49.4086266 ], [ 8.6858342, 49.4084496 ], [ 8.6858473, 49.4084403 ], [ 8.6858918, 49.4085226 ], [ 8.6860638, 49.4087625 ], [ 8.686271, 49.4089902 ], [ 8.6865114, 49.4092036 ], [ 8.6867827, 49.4094005 ], [ 8.6870823, 49.4095792 ], [ 8.6874073, 49.4097378 ], [ 8.6877545, 49.4098749 ], [ 8.6881207, 49.4099891 ], [ 8.6885022, 49.4100793 ], [ 8.6888955, 49.4101447 ], [ 8.6892967, 49.4101847 ], [ 8.689702, 49.4101988 ], [ 8.6901074, 49.4101868 ], [ 8.6905091, 49.4101491 ], [ 8.6909032, 49.4100858 ], [ 8.6912859, 49.4099976 ], [ 8.6916535, 49.4098853 ], [ 8.6920024, 49.4097501 ], [ 8.6923294, 49.4095932 ], [ 8.6926312, 49.4094162 ], [ 8.692905, 49.4092207 ], [ 8.6931481, 49.4090087 ], [ 8.6933581, 49.4087821 ], [ 8.6935331, 49.4085431 ], [ 8.6936714, 49.4082942 ], [ 8.6937716, 49.4080376 ], [ 8.6938328, 49.4077758 ], [ 8.6938544, 49.4075113 ], [ 8.6938361, 49.4072468 ], [ 8.6937782, 49.4069847 ], [ 8.6936812, 49.4067275 ], [ 8.693546, 49.4064778 ], [ 8.693374, 49.406238 ], [ 8.6931668, 49.4060103 ], [ 8.6929264, 49.405797 ], [ 8.6926551, 49.4056 ], [ 8.6923555, 49.4054214 ], [ 8.6920305, 49.4052628 ], [ 8.6916833, 49.4051257 ], [ 8.6913172, 49.4050115 ], [ 8.6909356, 49.4049213 ], [ 8.6905574, 49.4048583 ], [ 8.6907606, 49.4047392 ], [ 8.6910343, 49.4045437 ], [ 8.6912774, 49.4043316 ], [ 8.6914874, 49.404105 ], [ 8.6916624, 49.4038661 ], [ 8.6918007, 49.4036171 ], [ 8.6919009, 49.4033605 ], [ 8.6919621, 49.4030987 ], [ 8.6919837, 49.4028343 ], [ 8.6919654, 49.4025697 ], [ 8.6919075, 49.4023076 ], [ 8.6918105, 49.4020505 ], [ 8.6916754, 49.4018008 ], [ 8.6915888, 49.4016801 ], [ 8.6917418, 49.4017056 ], [ 8.6921429, 49.4017455 ], [ 8.6925482, 49.4017596 ], [ 8.6929535, 49.4017476 ], [ 8.6933552, 49.4017099 ], [ 8.6937492, 49.4016465 ], [ 8.6941318, 49.4015583 ], [ 8.6944993, 49.4014461 ], [ 8.6948482, 49.4013109 ], [ 8.6951751, 49.401154 ], [ 8.6954768, 49.4009769 ], [ 8.6957506, 49.4007814 ], [ 8.6959936, 49.4005694 ], [ 8.6962036, 49.4003428 ], [ 8.6963786, 49.4001038 ], [ 8.6965168, 49.3998549 ], [ 8.696617, 49.3995983 ], [ 8.6966781, 49.3993365 ], [ 8.6966997, 49.399072 ], [ 8.6966814, 49.3988075 ], [ 8.6966235, 49.3985454 ], [ 8.6965264, 49.3982882 ], [ 8.6963913, 49.3980385 ], [ 8.6963663, 49.3980037 ], [ 8.6887621, 49.3980039 ], [ 8.6887516, 49.3980182 ], [ 8.6886133, 49.3982672 ], [ 8.6885131, 49.3985238 ], [ 8.6884519, 49.3987856 ], [ 8.6884303, 49.39905 ], [ 8.6884486, 49.3993146 ], [ 8.6885065, 49.3995767 ], [ 8.6886034, 49.3998338 ], [ 8.6887386, 49.4000835 ], [ 8.6888251, 49.4002042 ], [ 8.6886721, 49.4001788 ], [ 8.688271, 49.4001388 ], [ 8.6878658, 49.4001247 ], [ 8.6874604, 49.4001366 ], [ 8.687087, 49.4001718 ], [ 8.6870856, 49.400152 ], [ 8.6870278, 49.3998899 ], [ 8.6869308, 49.3996328 ], [ 8.6867957, 49.3993831 ], [ 8.6866237, 49.3991432 ], [ 8.6864166, 49.3989155 ], [ 8.6861762, 49.3987021 ], [ 8.685905, 49.3985052 ], [ 8.6856055, 49.3983265 ], [ 8.6852806, 49.3981679 ], [ 8.6849334, 49.3980308 ], [ 8.6848468, 49.3980038 ], [ 8.6803992, 49.3980035 ], [ 8.72, 49.398 ] ], [ [ 8.6685872, 49.413813 ], [ 8.6684153, 49.4135731 ], [ 8.6682081, 49.4133453 ], [ 8.6679678, 49.4131319 ], [ 8.6676966, 49.412935 ], [ 8.667397, 49.4127563 ], [ 8.6670721, 49.4125976 ], [ 8.6667249, 49.4124604 ], [ 8.6663588, 49.4123461 ], [ 8.6659772, 49.4122558 ], [ 8.665584, 49.4121903 ], [ 8.6651828, 49.4121503 ], [ 8.6647775, 49.4121362 ], [ 8.664372, 49.412148 ], [ 8.6639703, 49.4121857 ], [ 8.6635761, 49.4122489 ], [ 8.6631934, 49.412337 ], [ 8.6628257, 49.4124491 ], [ 8.662804, 49.4124575 ], [ 8.662764, 49.4124697 ], [ 8.662415, 49.4126048 ], [ 8.6620879, 49.4127616 ], [ 8.6617859, 49.4129386 ], [ 8.661512, 49.413134 ], [ 8.6612688, 49.413346 ], [ 8.6610586, 49.4135725 ], [ 8.6608834, 49.4138114 ], [ 8.6607449, 49.4140603 ], [ 8.6606445, 49.4143169 ], [ 8.6605832, 49.4145787 ], [ 8.6605614, 49.4148431 ], [ 8.6605795, 49.4151077 ], [ 8.6606373, 49.4153698 ], [ 8.6607341, 49.415627 ], [ 8.6608691, 49.4158767 ], [ 8.661041, 49.4161166 ], [ 8.6612481, 49.4163444 ], [ 8.6614885, 49.4165578 ], [ 8.6617597, 49.4167548 ], [ 8.6620592, 49.4169335 ], [ 8.6623842, 49.4170922 ], [ 8.6627314, 49.4172293 ], [ 8.6630976, 49.4173436 ], [ 8.6634791, 49.417434 ], [ 8.6638724, 49.4174995 ], [ 8.6642737, 49.4175395 ], [ 8.664679, 49.4175536 ], [ 8.6650845, 49.4175418 ], [ 8.6654863, 49.4175041 ], [ 8.6658805, 49.4174409 ], [ 8.6662633, 49.4173528 ], [ 8.666631, 49.4172407 ], [ 8.6666526, 49.4172323 ], [ 8.6666927, 49.4172201 ], [ 8.6670417, 49.4170849 ], [ 8.6673688, 49.4169281 ], [ 8.6676708, 49.4167511 ], [ 8.6679447, 49.4165557 ], [ 8.6681879, 49.4163437 ], [ 8.6683981, 49.4161172 ], [ 8.6685733, 49.4158783 ], [ 8.6687117, 49.4156293 ], [ 8.6688121, 49.4153727 ], [ 8.6688734, 49.415111 ], [ 8.6688951, 49.4148465 ], [ 8.6688769, 49.414582 ], [ 8.6688191, 49.4143198 ], [ 8.6687222, 49.4140627 ], [ 8.6685872, 49.413813 ] ], [ [ 8.7177108, 49.4083176 ], [ 8.7175035, 49.40809 ], [ 8.717263, 49.4078767 ], [ 8.7169915, 49.4076798 ], [ 8.7166919, 49.4075012 ], [ 8.7163668, 49.4073427 ], [ 8.7160195, 49.4072057 ], [ 8.7156533, 49.4070916 ], [ 8.7152717, 49.4070014 ], [ 8.7148784, 49.4069361 ], [ 8.7144772, 49.4068962 ], [ 8.714072, 49.4068822 ], [ 8.7136666, 49.4068942 ], [ 8.7132649, 49.4069321 ], [ 8.7128709, 49.4069955 ], [ 8.7124883, 49.4070837 ], [ 8.7121207, 49.407196 ], [ 8.7117718, 49.4073313 ], [ 8.711445, 49.4074882 ], [ 8.7111432, 49.4076653 ], [ 8.7108695, 49.4078609 ], [ 8.7106265, 49.408073 ], [ 8.7104166, 49.4082996 ], [ 8.7102416, 49.4085385 ], [ 8.7101735, 49.4086613 ], [ 8.7101729, 49.4086615 ], [ 8.709824, 49.4087968 ], [ 8.7094971, 49.4089537 ], [ 8.7091953, 49.4091308 ], [ 8.7089216, 49.4093263 ], [ 8.7086786, 49.4095384 ], [ 8.7084686, 49.409765 ], [ 8.7082937, 49.410004 ], [ 8.7081555, 49.410253 ], [ 8.7080553, 49.4105096 ], [ 8.7079942, 49.4107714 ], [ 8.7079727, 49.4110358 ], [ 8.7079911, 49.4113004 ], [ 8.7080491, 49.4115625 ], [ 8.7081462, 49.4118196 ], [ 8.7082814, 49.4120693 ], [ 8.7084535, 49.4123091 ], [ 8.7086608, 49.4125368 ], [ 8.7088638, 49.4127168 ], [ 8.7088722, 49.4127545 ], [ 8.7089693, 49.4130116 ], [ 8.7091045, 49.4132613 ], [ 8.7092039, 49.4133998 ], [ 8.7091837, 49.4136488 ], [ 8.7092021, 49.4139133 ], [ 8.7092601, 49.4141754 ], [ 8.7093572, 49.4144325 ], [ 8.7094924, 49.4146822 ], [ 8.7096646, 49.414922 ], [ 8.7098719, 49.4151497 ], [ 8.7101124, 49.415363 ], [ 8.7103839, 49.4155599 ], [ 8.7106836, 49.4157385 ], [ 8.7110087, 49.4158971 ], [ 8.711356, 49.4160341 ], [ 8.7117223, 49.4161482 ], [ 8.7121039, 49.4162384 ], [ 8.7124973, 49.4163037 ], [ 8.7128985, 49.4163436 ], [ 8.7133039, 49.4163576 ], [ 8.7137094, 49.4163456 ], [ 8.7141111, 49.4163077 ], [ 8.7145052, 49.4162443 ], [ 8.7148879, 49.4161561 ], [ 8.7152555, 49.4160437 ], [ 8.7156044, 49.4159085 ], [ 8.7159313, 49.4157515 ], [ 8.7162331, 49.4155744 ], [ 8.7165068, 49.4153789 ], [ 8.7167498, 49.4151668 ], [ 8.7169598, 49.4149401 ], [ 8.7171347, 49.4147012 ], [ 8.7172729, 49.4144522 ], [ 8.717373, 49.4141955 ], [ 8.7174341, 49.4139337 ], [ 8.7174555, 49.4136693 ], [ 8.7174371, 49.4134047 ], [ 8.717379, 49.4131426 ], [ 8.7172819, 49.4128855 ], [ 8.7171466, 49.4126359 ], [ 8.7170472, 49.4124974 ], [ 8.7170674, 49.4122484 ], [ 8.717049, 49.4119838 ], [ 8.7169909, 49.4117218 ], [ 8.7169172, 49.4115267 ], [ 8.7169696, 49.411496 ], [ 8.7172433, 49.4113004 ], [ 8.7174863, 49.4110883 ], [ 8.7176962, 49.4108617 ], [ 8.7178711, 49.4106227 ], [ 8.7180093, 49.4103737 ], [ 8.7181094, 49.4101171 ], [ 8.7181704, 49.4098553 ], [ 8.7181918, 49.4095909 ], [ 8.7181734, 49.4093263 ], [ 8.7181154, 49.4090642 ], [ 8.7180183, 49.4088071 ], [ 8.717883, 49.4085574 ], [ 8.7177108, 49.4083176 ] ] ], [ [ [ 8.6601821, 49.4069625 ], [ 8.66, 49.4070181 ], [ 8.66, 49.4055502 ], [ 8.6601301, 49.4056933 ], [ 8.6601153, 49.4058738 ], [ 8.6601334, 49.4061384 ], [ 8.6601911, 49.4064005 ], [ 8.6602879, 49.4066577 ], [ 8.6604228, 49.4069071 ], [ 8.6601821, 49.4069625 ] ] ], [ [ [ 8.66, 49.4020211 ], [ 8.66, 49.398 ], [ 8.674459, 49.3980028 ], [ 8.674402, 49.3980807 ], [ 8.6742637, 49.3983296 ], [ 8.6741634, 49.3985862 ], [ 8.6741328, 49.398717 ], [ 8.6739749, 49.3986907 ], [ 8.6735738, 49.3986507 ], [ 8.6731686, 49.3986365 ], [ 8.6727633, 49.3986484 ], [ 8.6723616, 49.3986861 ], [ 8.6719676, 49.3987493 ], [ 8.671585, 49.3988375 ], [ 8.6712174, 49.3989497 ], [ 8.6708685, 49.3990848 ], [ 8.6705415, 49.3992416 ], [ 8.6702397, 49.3994186 ], [ 8.6699659, 49.399614 ], [ 8.6697228, 49.3998261 ], [ 8.6695126, 49.4000526 ], [ 8.6693375, 49.4002915 ], [ 8.669329, 49.4003068 ], [ 8.6691352, 49.4002121 ], [ 8.6687881, 49.400075 ], [ 8.6684221, 49.3999607 ], [ 8.6680406, 49.3998704 ], [ 8.6676474, 49.3998049 ], [ 8.6672463, 49.3997649 ], [ 8.6668412, 49.3997507 ], [ 8.6664358, 49.3997626 ], [ 8.6660342, 49.3998003 ], [ 8.6656401, 49.3998635 ], [ 8.6652575, 49.3999516 ], [ 8.6648899, 49.4000637 ], [ 8.6645409, 49.4001989 ], [ 8.664214, 49.4003557 ], [ 8.6642062, 49.4003602 ], [ 8.6640622, 49.4003934 ], [ 8.6636946, 49.4005055 ], [ 8.6633457, 49.4006407 ], [ 8.6630187, 49.4007975 ], [ 8.6627171, 49.4009743 ], [ 8.6625914, 49.400986 ], [ 8.6621974, 49.4010492 ], [ 8.6618147, 49.4011373 ], [ 8.6614471, 49.4012495 ], [ 8.6610981, 49.4013846 ], [ 8.6609659, 49.401448 ], [ 8.6609429, 49.4014569 ], [ 8.6606159, 49.4016137 ], [ 8.6603141, 49.4017907 ], [ 8.6600402, 49.4019861 ], [ 8.66, 49.4020211 ] ] ], [ [ [ 8.6769778, 49.4065213 ], [ 8.6769881, 49.4063963 ], [ 8.6769804, 49.4062846 ], [ 8.6770795, 49.4063437 ], [ 8.6771066, 49.4064665 ], [ 8.6771097, 49.4064748 ], [ 8.6770539, 49.4064919 ], [ 8.6769778, 49.4065213 ] ] ], [ [ [ 8.679398, 49.4180863 ], [ 8.6797808, 49.4179981 ], [ 8.6801484, 49.4178859 ], [ 8.6804975, 49.4177507 ], [ 8.6808245, 49.4175939 ], [ 8.6811265, 49.4174169 ], [ 8.6814003, 49.4172214 ], [ 8.6814221, 49.4172024 ], [ 8.6813299, 49.4174383 ], [ 8.6813193, 49.4174839 ], [ 8.6812098, 49.4175091 ], [ 8.6808421, 49.4176213 ], [ 8.6804931, 49.4177565 ], [ 8.680166, 49.4179133 ], [ 8.6798641, 49.4180903 ], [ 8.6795903, 49.4182858 ], [ 8.679585, 49.4182904 ], [ 8.6793034, 49.4182986 ], [ 8.6792333, 49.4181127 ], [ 8.679398, 49.4180863 ] ] ] ] } }
]
}
