{
"type": "FeatureCollection",
"features": [
{ "type": "Feature", "properties": { "index": "0", "last_edit_year": 2026, "years_since_edit": 0, "label": "0.0–1.0 yr", "color": "#f2f0f7" }, "geometry": { "type": "Point", "coordinates": [ 8.7129316, 49.4122382 ] } },
{ "type": "Feature", "properties": { "index": "1", "last_edit_year": 2021, "years_since_edit": 5, "label": "4.0–6.0 yr", "color": "#54278f" }, "geometry": { "type": "Point", "coordinates": [ 8.6642505, 49.4058859 ] } },
{ "type": "Feature", "properties": { "index": "2", "last_edit_year": 2026, "years_since_edit": 0, "label": "0.0–1.0 yr", "color": "#f2f0f7" }, "geometry": { "type": "Point", "coordinates": [ 8.6656276, 49.402891 ] } },
{ "type": "Feature", "properties": { "index": "3", "last_edit_year": 2026, "years_since_edit": 0, "label": "0.0–1.0 yr", "color": "#f2f0f7" }, "geometry": { "type": "Point", "coordinates": [ 8.689719, 49.4075003 ] } },
{ "type": "Feature", "properties": { "index": "4", "last_edit_year": 2021, "years_since_edit": 5, "label": "4.0–6.0 yr", "color": "#54278f" }, "geometry": { "type": "Point", "coordinates": [ 8.6747722, 49.4217822 ] } },
{ "type": "Feature", "properties": { "index": "5", "last_edit_year": 2026, "years_since_edit": 0, "label": "0.0–1.0 yr", "color": "#f2f0f7" }, "geometry": { "type": "Point", "coordinates": [ 8.6617475, 49.4094602 ] } },
{ "type": "Feature", "properties": { "index": "6", "last_edit_year": 2020, "years_since_edit": 6, "label": "4.0–6.0 yr", "color": "#54278f" }, "geometry": { "type": "Point", "coordinates": [ 8.6854984, 49.4050848 ] } },
{ "type": "Feature", "properties": { "index": "7", "last_edit_year": 2024, "years_since_edit": 2, "label": "2.0–4.0 yr", "color": "#837bb9" }, "geometry": { "type": "Point", "coordinates": [ 8.6729517, 49.4021158 ] } },
{ "type": "Feature", "properties": { "index": "8", "last_edit_year": 2024, "years_since_edit": 2, "label": "2.0–4.0 yr", "color": "#837bb9" }, "geometry": { "type": "Point", "coordinates": [ 8.6983094, 49.4088185 ] } },
{ "type": "Feature", "properties": { "index": "9", "last_edit_year": 2025, "years_since_edit": 1, "label": "1.0–2.0 yr", "color": "#bcb9d9" }, "geometry": { "type": "Point", "coordinates": [ 8.6813847, 49.4064183 ] } },
{ "type": "Feature", "properties": { "index": "10", "last_edit_year": 2021, "years_since_edit": 5, "label": "4.0–6.0 yr", "color": "#54278f" }, "geometry": { "type": "Point", "coordinates": [ 8.6797792, 49.4043025 ] } },
{ "type": "Feature", "properties": { "index": "11", "last_edit_year": 2021, "years_since_edit": 5, "label": "4.0–6.0 yr", "color": "#54278f" }, "geometry": { "type": "Point", "coordinates": [ 8.6799006, 49.4042379 ] } },
{ "type": "Feature", "properties": { "index": "12", "last_edit_year": 2021, "years_since_edit": 5, "label": "4.0–6.0 yr", "color": "#54278f" }, "geometry": { "type": "Point", "coordinates": [ 8.692565, 49.3990611 ] } },
{ "type": "Feature", "properties": { "index": "13", "last_edit_year": 2022, "years_since_edit": 4, "label": "4.0–6.0 yr", "color": "#54278f" }, "geometry": { "type": "Point", "coordinates": [ 8.6829691, 49.4004053 ] } },
{ "type": "Feature", "properties": { "index": "14", "last_edit_year": 2022, "years_since_edit": 4, "label": "4.0–6.0 yr", "color": "#54278f" }, "geometry": { "type": "Point", "coordinates": [ 8.6647591, 49.4148346 ] } },
{ "type": "Feature", "properties": { "index": "15", "last_edit_year": 2022, "years_since_edit": 4, "label": "4.0–6.0 yr", "color": "#54278f" }, "geometry": { "type": "Point", "coordinates": [ 8.6646974, 49.4148552 ] } },
{ "type": "Feature", "properties": { "index": "16", "last_edit_year": 2024, "years_since_edit": 2, "label": "2.0–4.0 yr", "color": "#837bb9" }, "geometry": { "type": "Point", "coordinates": [ 8.6811658, 49.4059513 ] } },
{ "type": "Feature", "properties": { "index": "17", "last_edit_year": 2023, "years_since_edit": 3, "label": "2.0–4.0 yr", "color": "#837bb9" }, "geometry": { "type": "Point", "coordinates": [ 8.6796623, 49.4209877 ] } },
{ "type": "Feature", "properties": { "index": "18", "last_edit_year": 2022, "years_since_edit": 4, "label": "4.0–6.0 yr", "color": "#54278f" }, "geometry": { "type": "Point", "coordinates": [ 8.6796055, 49.4209877 ] } },
{ "type": "Feature", "properties": { "index": "19", "last_edit_year": 2022, "years_since_edit": 4, "label": "4.0–6.0 yr", "color": "#54278f" }, "geometry": { "type": "Point", "coordinates": [ 8.6968542, 49.411592 ] } },
{ "type": "Feature", "properties": { "index": "20", "last_edit_year": 2022, "years_since_edit": 4, "label": "4.0–6.0 yr", "color": "#54278f" }, "geometry": { "type": "Point", "coordinates": [ 8.6782142, 49.4155007 ] } },
{ "type": "Feature", "properties": { "index": "21", "last_edit_year": 2022, "years_since_edit": 4, "label": "4.0–6.0 yr", "color": "#54278f" }, "geometry": { "type": "Point", "coordinates": [ 8.678167, 49.4155011 ] } },
{ "type": "Feature", "properties": { "index": "22", "last_edit_year": 2022, "years_since_edit": 4, "label": "4.0–6.0 yr", "color": "#54278f" }, "geometry": { "type": "Point", "coordinates": [ 8.6925885, 49.4135882 ] } },
{ "type": "Feature", "properties": { "index": "23", "last_edit_year": 2022, "years_since_edit": 4, "label": "4.0–6.0 yr", "color": "#54278f" }, "geometry": { "type": "Point", "coordinates": [ 8.6827766, 49.4200065 ] } },
{ "type": "Feature", "properties": { "index": "24", "last_edit_year": 2026, "years_since_edit": 0, "label": "0.0–1.0 yr", "color": "#f2f0f7" }, "geometry": { "type": "Point", "coordinates": [ 8.6878487, 49.4028232 ] } },
{ "type": "Feature", "properties": { "index": "25", "last_edit_year": 2025, "years_since_edit": 1, "label": "1.0–2.0 yr", "color": "#bcb9d9" }, "geometry": { "type": "Point", "coordinates": [ 8.6924061, 49.4166762 ] } },
{ "type": "Feature", "properties": { "index": "26", "last_edit_year": 2025, "years_since_edit": 1, "label": "1.0–2.0 yr", "color": "#bcb9d9" }, "geometry": { "type": "Point", "coordinates": [ 8.6925201, 49.4166786 ] } },
{ "type": "Feature", "properties": { "index": "27", "last_edit_year": 2026, "years_since_edit": 0, "label": "0.0–1.0 yr", "color": "#f2f0f7" }, "geometry": { "type": "Point", "coordinates": [ 8.6632248, 49.4037073 ] } },
{ "type": "Feature", "properties": { "index": "28", "last_edit_year": 2025, "years_since_edit": 1, "label": "1.0–2.0 yr", "color": "#bcb9d9" }, "geometry": { "type": "Point", "coordinates": [ 8.6636463, 49.4042786 ] } },
{ "type": "Feature", "properties": { "index": "29", "last_edit_year": 2025, "years_since_edit": 1, "label": "1.0–2.0 yr", "color": "#bcb9d9" }, "geometry": { "type": "Point", "coordinates": [ 8.6853833, 49.4179758 ] } },
{ "type": "Feature", "properties": { "index": "30", "last_edit_year": 2026, "years_since_edit": 0, "label": "0.0–1.0 yr", "color": "#f2f0f7" }, "geometry": { "type": "Point", "coordinates": [ 8.6752567, 49.4188496 ] } },
{ "type": "Feature", "properties": { "index": "31", "last_edit_year": 2023, "years_since_edit": 3, "label": "2.0–4.0 yr", "color": "#837bb9" }, "geometry": { "type": "Point", "coordinates": [ 8.6789877, 49.4088771 ] } },
{ "type": "Feature", "properties": { "index": "32", "last_edit_year": 2023, "years_since_edit": 3, "label": "2.0–4.0 yr", "color": "#837bb9" }, "geometry": { "type": "Point", "coordinates": [ 8.6702435, 49.407278 ] } },
{ "type": "Feature", "properties": { "index": "33", "last_edit_year": 2026, "years_since_edit": 0, "label": "0.0–1.0 yr", "color": "#f2f0f7" }, "geometry": { "type": "Point", "coordinates": [ 8.7133196, 49.4136591 ] } },
{ "type": "Feature", "properties": { "index": "34", "last_edit_year": 2024, "years_since_edit": 2, "label": "2.0–4.0 yr", "color": "#837bb9" }, "geometry": { "type": "Point", "coordinates": [ 8.7121084, 49.4110462 ] } },
{ "type": "Feature", "properties": { "index": "35", "last_edit_year": 2025, "years_since_edit": 1, "label": "1.0–2.0 yr", "color": "#bcb9d9" }, "geometry": { "type": "Point", "coordinates": [ 8.6782151, 49.399124 ] } },
{ "type": "Feature", "properties": { "index": "36", "last_edit_year": 2025, "years_since_edit": 1, "label": "1.0–2.0 yr", "color": "#bcb9d9" }, "geometry": { "type": "Point", "coordinates": [ 8.6788851, 49.3998948 ] } },
{ "type": "Feature", "properties": { "index": "37", "last_edit_year": 2025, "years_since_edit": 1, "label": "1.0–2.0 yr", "color": "#bcb9d9" }, "geometry": { "type": "Point", "coordinates": [ 8.6728528, 49.4063847 ] } },
{ "type": "Feature", "properties": { "index": "38", "last_edit_year": 2026, "years_since_edit": 0, "label": "0.0–1.0 yr", "color": "#f2f0f7" }, "geometry": { "type": "Point", "coordinates": [ 8.6904756, 49.4187647 ] } },
{ "type": "Feature", "properties": { "index": "39", "last_edit_year": 2025, "years_since_edit": 1, "label": "1.0–2.0 yr", "color": "#bcb9d9" }, "geometry": { "type": "Point", "coordinates": [ 8.6731507, 49.401335 ] } },
{ "type": "Feature", "properties": { "index": "40", "last_edit_year": 2026, "years_since_edit": 0, "label": "0.0–1.0 yr", "color": "#f2f0f7" }, "geometry": { "type": "Point", "coordinates": [ 8.6668229, 49.4024492 ] } },
{ "type": "Feature", "properties": { "index": "41", "last_edit_year": 2026, "years_since_edit": 0, "label": "0.0–1.0 yr", "color": "#f2f0f7" }, "geometry": { "type": "Point", "coordinates": [ 8.6829223, 49.4065335 ] } },
{ "type": "Feature", "properties": { "index": "42", "last_edit_year": 2025, "years_since_edit": 1, "label": "1.0–2.0 yr", "color": "#bcb9d9" }, "geometry": { "type": "Point", "coordinates": [ 8.7034551, 49.4087982 ] } },
{ "type": "Feature", "properties": { "index": "43", "last_edit_year": 2025, "years_since_edit": 1, "label": "1.0–2.0 yr", "color": "#bcb9d9" }, "geometry": { "type": "Point", "coordinates": [ 8.6743496, 49.4028515 ] } },
{ "type": "Feature", "properties": { "index": "44", "last_edit_year": 2025, "years_since_edit": 1, "label": "1.0–2.0 yr", "color": "#bcb9d9" }, "geometry": { "type": "Point", "coordinates": [ 8.6743888, 49.4028964 ] } },
{ "type": "Feature", "properties": { "index": "45", "last_edit_year": 2026, "years_since_edit": 0, "label": "0.0–1.0 yr", "color": "#f2f0f7" }, "geometry": { "type": "Point", "coordinates": [ 8.7140563, 49.4095807 ] } },
{ "type": "Feature", "properties": { "index": "46", "last_edit_year": 2026, "years_since_edit": 0, "label": "0.0–1.0 yr", "color": "#f2f0f7" }, "geometry": { "type": "Point", "coordinates": [ 8.6663925, 49.4044096 ] } },
{ "type": "Feature", "properties": { "index": "47", "last_edit_year": 2026, "years_since_edit": 0, "label": "0.0–1.0 yr", "color": "#f2f0f7" }, "geometry": { "type": "Point", "coordinates": [ 8.66338, 49.403635 ] } },
{ "type": "Feature", "properties": { "index": "48", "last_edit_year": 2026, "years_since_edit": 0, "label": "0.0–1.0 yr", "color": "#f2f0f7" }, "geometry": { "type": "Point", "coordinates": [ 8.6731401, 49.4018201 ] } }
]
}
