{
"type": "FeatureCollection",
"features": [
{ "type": "Feature", "properties": { "index": "0", "@osmId": "node/3184688312", "name": null, "opening_hours": null, "label": "EV charging stations", "color": "#238b45" }, "geometry": { "type": "Point", "coordinates": [ 8.7129316, 49.4122382 ] } },
{ "type": "Feature", "properties": { "index": "1", "@osmId": "node/4200700461", "name": null, "opening_hours": null, "label": "EV charging stations", "color": "#238b45" }, "geometry": { "type": "Point", "coordinates": [ 8.6642505, 49.4058859 ] } },
{ "type": "Feature", "properties": { "index": "2", "@osmId": "node/5206674827", "name": null, "opening_hours": null, "label": "EV charging stations", "color": "#238b45" }, "geometry": { "type": "Point", "coordinates": [ 8.6656276, 49.402891 ] } },
{ "type": "Feature", "properties": { "index": "3", "@osmId": "node/5338749254", "name": null, "opening_hours": null, "label": "EV charging stations", "color": "#238b45" }, "geometry": { "type": "Point", "coordinates": [ 8.689719, 49.4075003 ] } },
{ "type": "Feature", "properties": { "index": "4", "@osmId": "node/5590162234", "name": null, "opening_hours": null, "label": "EV charging stations", "color": "#238b45" }, "geometry": { "type": "Point", "coordinates": [ 8.6747722, 49.4217822 ] } },
{ "type": "Feature", "properties": { "index": "5", "@osmId": "node/6823093673", "name": null, "opening_hours": "24/7", "label": "EV charging stations", "color": "#238b45" }, "geometry": { "type": "Point", "coordinates": [ 8.6617475, 49.4094602 ] } },
{ "type": "Feature", "properties": { "index": "6", "@osmId": "node/7746621240", "name": null, "opening_hours": null, "label": "EV charging stations", "color": "#238b45" }, "geometry": { "type": "Point", "coordinates": [ 8.6854984, 49.4050848 ] } },
{ "type": "Feature", "properties": { "index": "7", "@osmId": "node/8093818735", "name": null, "opening_hours": null, "label": "EV charging stations", "color": "#238b45" }, "geometry": { "type": "Point", "coordinates": [ 8.6729517, 49.4021158 ] } },
{ "type": "Feature", "properties": { "index": "8", "@osmId": "node/8246109167", "name": null, "opening_hours": null, "label": "EV charging stations", "color": "#238b45" }, "geometry": { "type": "Point", "coordinates": [ 8.6983094, 49.4088185 ] } },
{ "type": "Feature", "properties": { "index": "9", "@osmId": "node/8474086680", "name": "Alte Eppelheimer Straße 3", "opening_hours": null, "label": "EV charging stations", "color": "#238b45" }, "geometry": { "type": "Point", "coordinates": [ 8.6813847, 49.4064183 ] } },
{ "type": "Feature", "properties": { "index": "10", "@osmId": "node/8841284308", "name": null, "opening_hours": null, "label": "EV charging stations", "color": "#238b45" }, "geometry": { "type": "Point", "coordinates": [ 8.6797792, 49.4043025 ] } },
{ "type": "Feature", "properties": { "index": "11", "@osmId": "node/8841284309", "name": null, "opening_hours": null, "label": "EV charging stations", "color": "#238b45" }, "geometry": { "type": "Point", "coordinates": [ 8.6799006, 49.4042379 ] } },
{ "type": "Feature", "properties": { "index": "12", "@osmId": "node/9198305057", "name": null, "opening_hours": "24/7", "label": "EV charging stations", "color": "#238b45" }, "geometry": { "type": "Point", "coordinates": [ 8.692565, 49.3990611 ] } },
{ "type": "Feature", "properties": { "index": "13", "@osmId": "node/9589210660", "name": null, "opening_hours": null, "label": "EV charging stations", "color": "#238b45" }, "geometry": { "type": "Point", "coordinates": [ 8.6829691, 49.4004053 ] } },
{ "type": "Feature", "properties": { "index": "14", "@osmId": "node/9589950734", "name": "Tiergartenstraße 3", "opening_hours": null, "label": "EV charging stations", "color": "#238b45" }, "geometry": { "type": "Point", "coordinates": [ 8.6647591, 49.4148346 ] } },
{ "type": "Feature", "properties": { "index": "15", "@osmId": "node/9589950735", "name": "Tiergartenstraße 3", "opening_hours": null, "label": "EV charging stations", "color": "#238b45" }, "geometry": { "type": "Point", "coordinates": [ 8.6646974, 49.4148552 ] } },
{ "type": "Feature", "properties": { "index": "16", "@osmId": "node/9683136529", "name": "Alte Eppelheimer Straße 3", "opening_hours": null, "label": "EV charging stations", "color": "#238b45" }, "geometry": { "type": "Point", "coordinates": [ 8.6811658, 49.4059513 ] } },
{ "type": "Feature", "properties": { "index": "17", "@osmId": "node/9683643083", "name": "Langgewann 1", "opening_hours": null, "label": "EV charging stations", "color": "#238b45" }, "geometry": { "type": "Point", "coordinates": [ 8.6796623, 49.4209877 ] } },
{ "type": "Feature", "properties": { "index": "18", "@osmId": "node/9683643084", "name": "Langgewann 1", "opening_hours": null, "label": "EV charging stations", "color": "#238b45" }, "geometry": { "type": "Point", "coordinates": [ 8.6796055, 49.4209877 ] } },
{ "type": "Feature", "properties": { "index": "19", "@osmId": "node/9689497950", "name": "Untere Neckarstraße 2", "opening_hours": null, "label": "EV charging stations", "color": "#238b45" }, "geometry": { "type": "Point", "coordinates": [ 8.6968542, 49.411592 ] } },
{ "type": "Feature", "properties": { "index": "20", "@osmId": "node/9689504582", "name": "Rufinusplatz", "opening_hours": null, "label": "EV charging stations", "color": "#238b45" }, "geometry": { "type": "Point", "coordinates": [ 8.6782142, 49.4155007 ] } },
{ "type": "Feature", "properties": { "index": "21", "@osmId": "node/9689504583", "name": "Rufinusplatz", "opening_hours": null, "label": "EV charging stations", "color": "#238b45" }, "geometry": { "type": "Point", "coordinates": [ 8.678167, 49.4155011 ] } },
{ "type": "Feature", "properties": { "index": "22", "@osmId": "node/9697381683", "name": "Brückenkopfstraße 1/1", "opening_hours": null, "label": "EV charging stations", "color": "#238b45" }, "geometry": { "type": "Point", "coordinates": [ 8.6925885, 49.4135882 ] } },
{ "type": "Feature", "properties": { "index": "23", "@osmId": "node/9697413106", "name": "Quinckestraße 69", "opening_hours": null, "label": "EV charging stations", "color": "#238b45" }, "geometry": { "type": "Point", "coordinates": [ 8.6827766, 49.4200065 ] } },
{ "type": "Feature", "properties": { "index": "24", "@osmId": "node/9709052260", "name": null, "opening_hours": null, "label": "EV charging stations", "color": "#238b45" }, "geometry": { "type": "Point", "coordinates": [ 8.6878487, 49.4028232 ] } },
{ "type": "Feature", "properties": { "index": "25", "@osmId": "node/10291150984", "name": null, "opening_hours": null, "label": "EV charging stations", "color": "#238b45" }, "geometry": { "type": "Point", "coordinates": [ 8.6924061, 49.4166762 ] } },
{ "type": "Feature", "properties": { "index": "26", "@osmId": "node/10291150986", "name": null, "opening_hours": null, "label": "EV charging stations", "color": "#238b45" }, "geometry": { "type": "Point", "coordinates": [ 8.6925201, 49.4166786 ] } },
{ "type": "Feature", "properties": { "index": "27", "@osmId": "node/10312164944", "name": null, "opening_hours": null, "label": "EV charging stations", "color": "#238b45" }, "geometry": { "type": "Point", "coordinates": [ 8.6632248, 49.4037073 ] } },
{ "type": "Feature", "properties": { "index": "28", "@osmId": "node/10312164945", "name": null, "opening_hours": null, "label": "EV charging stations", "color": "#238b45" }, "geometry": { "type": "Point", "coordinates": [ 8.6636463, 49.4042786 ] } },
{ "type": "Feature", "properties": { "index": "29", "@osmId": "node/10719332741", "name": null, "opening_hours": null, "label": "EV charging stations", "color": "#238b45" }, "geometry": { "type": "Point", "coordinates": [ 8.6853833, 49.4179758 ] } },
{ "type": "Feature", "properties": { "index": "30", "@osmId": "node/10727195769", "name": null, "opening_hours": null, "label": "EV charging stations", "color": "#238b45" }, "geometry": { "type": "Point", "coordinates": [ 8.6752567, 49.4188496 ] } },
{ "type": "Feature", "properties": { "index": "31", "@osmId": "node/10826358991", "name": null, "opening_hours": null, "label": "EV charging stations", "color": "#238b45" }, "geometry": { "type": "Point", "coordinates": [ 8.6789877, 49.4088771 ] } },
{ "type": "Feature", "properties": { "index": "32", "@osmId": "node/10826658928", "name": null, "opening_hours": null, "label": "EV charging stations", "color": "#238b45" }, "geometry": { "type": "Point", "coordinates": [ 8.6702435, 49.407278 ] } },
{ "type": "Feature", "properties": { "index": "33", "@osmId": "node/11219533123", "name": null, "opening_hours": null, "label": "EV charging stations", "color": "#238b45" }, "geometry": { "type": "Point", "coordinates": [ 8.7133196, 49.4136591 ] } },
{ "type": "Feature", "properties": { "index": "34", "@osmId": "node/11764740549", "name": null, "opening_hours": null, "label": "EV charging stations", "color": "#238b45" }, "geometry": { "type": "Point", "coordinates": [ 8.7121084, 49.4110462 ] } },
{ "type": "Feature", "properties": { "index": "35", "@osmId": "node/12207784944", "name": null, "opening_hours": null, "label": "EV charging stations", "color": "#238b45" }, "geometry": { "type": "Point", "coordinates": [ 8.6782151, 49.399124 ] } },
{ "type": "Feature", "properties": { "index": "36", "@osmId": "node/12358626739", "name": null, "opening_hours": null, "label": "EV charging stations", "color": "#238b45" }, "geometry": { "type": "Point", "coordinates": [ 8.6788851, 49.3998948 ] } },
{ "type": "Feature", "properties": { "index": "37", "@osmId": "node/12530324189", "name": null, "opening_hours": null, "label": "EV charging stations", "color": "#238b45" }, "geometry": { "type": "Point", "coordinates": [ 8.6728528, 49.4063847 ] } },
{ "type": "Feature", "properties": { "index": "38", "@osmId": "node/12621394103", "name": null, "opening_hours": null, "label": "EV charging stations", "color": "#238b45" }, "geometry": { "type": "Point", "coordinates": [ 8.6904756, 49.4187647 ] } },
{ "type": "Feature", "properties": { "index": "39", "@osmId": "node/12750715962", "name": null, "opening_hours": "24/7", "label": "EV charging stations", "color": "#238b45" }, "geometry": { "type": "Point", "coordinates": [ 8.6731507, 49.401335 ] } },
{ "type": "Feature", "properties": { "index": "40", "@osmId": "node/12811388047", "name": null, "opening_hours": null, "label": "EV charging stations", "color": "#238b45" }, "geometry": { "type": "Point", "coordinates": [ 8.6668229, 49.4024492 ] } },
{ "type": "Feature", "properties": { "index": "41", "@osmId": "node/13070941056", "name": null, "opening_hours": null, "label": "EV charging stations", "color": "#238b45" }, "geometry": { "type": "Point", "coordinates": [ 8.6829223, 49.4065335 ] } },
{ "type": "Feature", "properties": { "index": "42", "@osmId": "node/13100264104", "name": null, "opening_hours": null, "label": "EV charging stations", "color": "#238b45" }, "geometry": { "type": "Point", "coordinates": [ 8.7034551, 49.4087982 ] } },
{ "type": "Feature", "properties": { "index": "43", "@osmId": "node/13391849125", "name": null, "opening_hours": "24/7", "label": "EV charging stations", "color": "#238b45" }, "geometry": { "type": "Point", "coordinates": [ 8.6743496, 49.4028515 ] } },
{ "type": "Feature", "properties": { "index": "44", "@osmId": "node/13391849126", "name": null, "opening_hours": "24/7", "label": "EV charging stations", "color": "#238b45" }, "geometry": { "type": "Point", "coordinates": [ 8.6743888, 49.4028964 ] } },
{ "type": "Feature", "properties": { "index": "45", "@osmId": "node/13409497642", "name": null, "opening_hours": null, "label": "EV charging stations", "color": "#238b45" }, "geometry": { "type": "Point", "coordinates": [ 8.7140563, 49.4095807 ] } },
{ "type": "Feature", "properties": { "index": "46", "@osmId": "node/13421444345", "name": null, "opening_hours": null, "label": "EV charging stations", "color": "#238b45" }, "geometry": { "type": "Point", "coordinates": [ 8.6663925, 49.4044096 ] } },
{ "type": "Feature", "properties": { "index": "47", "@osmId": "node/13719505746", "name": null, "opening_hours": null, "label": "EV charging stations", "color": "#238b45" }, "geometry": { "type": "Point", "coordinates": [ 8.66338, 49.403635 ] } },
{ "type": "Feature", "properties": { "index": "48", "@osmId": "node/13929883525", "name": null, "opening_hours": "24/7", "label": "EV charging stations", "color": "#238b45" }, "geometry": { "type": "Point", "coordinates": [ 8.6731401, 49.4018201 ] } }
]
}
