{
"type": "FeatureCollection",
"features": [
{ "type": "Feature", "properties": { "index": "0", "subarea": "H0-0", "underserved_pct": 72.3, "underserved_population": 31.0, "label": "60–80%", "color": "#de2d26" }, "geometry": { "type": "Polygon", "coordinates": [ [ [ 8.6678334, 49.3980018 ], [ 8.6639489, 49.4023482 ], [ 8.66, 49.4023366 ], [ 8.66, 49.398 ], [ 8.6678334, 49.3980018 ] ] ] } },
{ "type": "Feature", "properties": { "index": "1", "subarea": "H0-1", "underserved_pct": 1.3, "underserved_population": null, "label": "0–20%", "color": "#fee5d9" }, "geometry": { "type": "Polygon", "coordinates": [ [ [ 8.6678974, 49.4068571 ], [ 8.6638875, 49.411343 ], [ 8.66, 49.4113316 ], [ 8.66, 49.4023366 ], [ 8.6639489, 49.4023482 ], [ 8.6678974, 49.4068571 ] ] ] } },
{ "type": "Feature", "properties": { "index": "2", "subarea": "H0-2", "underserved_pct": 43.2, "underserved_population": 595.0, "label": "40–60%", "color": "#fb6a4a" }, "geometry": { "type": "Polygon", "coordinates": [ [ [ 8.6678367, 49.4158519 ], [ 8.6638261, 49.4203378 ], [ 8.66, 49.4203266 ], [ 8.66, 49.4113316 ], [ 8.6638875, 49.411343 ], [ 8.6678367, 49.4158519 ] ] ] } },
{ "type": "Feature", "properties": { "index": "3", "subarea": "H0-3", "underserved_pct": 100.0, "underserved_population": 66.0, "label": "80–100%", "color": "#a50f15" }, "geometry": { "type": "Polygon", "coordinates": [ [ [ 8.66, 49.4203266 ], [ 8.6638261, 49.4203378 ], [ 8.6652832, 49.4220012 ], [ 8.66, 49.422 ], [ 8.66, 49.4203266 ] ] ] } },
{ "type": "Feature", "properties": { "index": "4", "subarea": "H1-0", "underserved_pct": 8.8, "underserved_population": 384.0, "label": "0–20%", "color": "#fee5d9" }, "geometry": { "type": "Polygon", "coordinates": [ [ [ 8.6678974, 49.4068571 ], [ 8.6639489, 49.4023482 ], [ 8.6678334, 49.3980018 ], [ 8.6760185, 49.398003 ], [ 8.6798642, 49.4023933 ], [ 8.6758558, 49.4068797 ], [ 8.6678974, 49.4068571 ] ] ] } },
{ "type": "Feature", "properties": { "index": "5", "subarea": "H1-1", "underserved_pct": 54.3, "underserved_population": 1385.0, "label": "40–60%", "color": "#fb6a4a" }, "geometry": { "type": "Polygon", "coordinates": [ [ [ 8.6678974, 49.4068571 ], [ 8.6758558, 49.4068797 ], [ 8.6798057, 49.4113882 ], [ 8.6757965, 49.4158745 ], [ 8.6678367, 49.4158519 ], [ 8.6638875, 49.411343 ], [ 8.6678974, 49.4068571 ] ] ] } },
{ "type": "Feature", "properties": { "index": "6", "subarea": "H1-2", "underserved_pct": 47.5, "underserved_population": 927.0, "label": "40–60%", "color": "#fb6a4a" }, "geometry": { "type": "Polygon", "coordinates": [ [ [ 8.6757965, 49.4158745 ], [ 8.6797472, 49.420383 ], [ 8.6782991, 49.4220033 ], [ 8.6652832, 49.4220012 ], [ 8.6638261, 49.4203378 ], [ 8.6678367, 49.4158519 ], [ 8.6757965, 49.4158745 ] ] ] } },
{ "type": "Feature", "properties": { "index": "7", "subarea": "H2-0", "underserved_pct": 8.9, "underserved_population": 282.0, "label": "0–20%", "color": "#fee5d9" }, "geometry": { "type": "Polygon", "coordinates": [ [ [ 8.6878219, 49.4024151 ], [ 8.6798642, 49.4023933 ], [ 8.6760185, 49.398003 ], [ 8.6917614, 49.3980039 ], [ 8.6878219, 49.4024151 ] ] ] } },
{ "type": "Feature", "properties": { "index": "8", "subarea": "H2-1", "underserved_pct": 12.4, "underserved_population": 281.0, "label": "0–20%", "color": "#fee5d9" }, "geometry": { "type": "Polygon", "coordinates": [ [ [ 8.6798642, 49.4023933 ], [ 8.6878219, 49.4024151 ], [ 8.6917726, 49.4069232 ], [ 8.6877649, 49.4114099 ], [ 8.6798057, 49.4113882 ], [ 8.6758558, 49.4068797 ], [ 8.6798642, 49.4023933 ] ] ] } },
{ "type": "Feature", "properties": { "index": "9", "subarea": "H2-2", "underserved_pct": 30.6, "underserved_population": 1763.0, "label": "20–40%", "color": "#fcae91" }, "geometry": { "type": "Polygon", "coordinates": [ [ [ 8.6798057, 49.4113882 ], [ 8.6877649, 49.4114099 ], [ 8.6917163, 49.415918 ], [ 8.6877078, 49.4204048 ], [ 8.6797472, 49.420383 ], [ 8.6757965, 49.4158745 ], [ 8.6798057, 49.4113882 ] ] ] } },
{ "type": "Feature", "properties": { "index": "10", "subarea": "H2-3", "underserved_pct": 19.9, "underserved_population": 236.0, "label": "0–20%", "color": "#fee5d9" }, "geometry": { "type": "Polygon", "coordinates": [ [ [ 8.6797472, 49.420383 ], [ 8.6877078, 49.4204048 ], [ 8.6891096, 49.4220039 ], [ 8.6782991, 49.4220033 ], [ 8.6797472, 49.420383 ] ] ] } },
{ "type": "Feature", "properties": { "index": "11", "subarea": "H3-0", "underserved_pct": 64.2, "underserved_population": 641.0, "label": "60–80%", "color": "#de2d26" }, "geometry": { "type": "Polygon", "coordinates": [ [ [ 8.6917726, 49.4069232 ], [ 8.6878219, 49.4024151 ], [ 8.6917614, 49.3980039 ], [ 8.6998334, 49.3980035 ], [ 8.7037373, 49.402457 ], [ 8.699731, 49.4069441 ], [ 8.6917726, 49.4069232 ] ] ] } },
{ "type": "Feature", "properties": { "index": "12", "subarea": "H3-1", "underserved_pct": 21.8, "underserved_population": 618.0, "label": "20–40%", "color": "#fcae91" }, "geometry": { "type": "Polygon", "coordinates": [ [ [ 8.6917726, 49.4069232 ], [ 8.699731, 49.4069441 ], [ 8.7036832, 49.4114518 ], [ 8.6996761, 49.415939 ], [ 8.6917163, 49.415918 ], [ 8.6877649, 49.4114099 ], [ 8.6917726, 49.4069232 ] ] ] } },
{ "type": "Feature", "properties": { "index": "13", "subarea": "H3-2", "underserved_pct": 59.5, "underserved_population": 390.0, "label": "40–60%", "color": "#fb6a4a" }, "geometry": { "type": "Polygon", "coordinates": [ [ [ 8.6996761, 49.415939 ], [ 8.703629, 49.4204467 ], [ 8.7022388, 49.4220032 ], [ 8.6891096, 49.4220039 ], [ 8.6877078, 49.4204048 ], [ 8.6917163, 49.415918 ], [ 8.6996761, 49.415939 ] ] ] } },
{ "type": "Feature", "properties": { "index": "14", "subarea": "H4-0", "underserved_pct": 100.0, "underserved_population": 0.0, "label": "80–100%", "color": "#a50f15" }, "geometry": { "type": "Polygon", "coordinates": [ [ [ 8.711695, 49.4024771 ], [ 8.7037373, 49.402457 ], [ 8.6998334, 49.3980035 ], [ 8.7156895, 49.398001 ], [ 8.711695, 49.4024771 ] ] ] } },
{ "type": "Feature", "properties": { "index": "15", "subarea": "H4-1", "underserved_pct": 56.9, "underserved_population": 267.0, "label": "40–60%", "color": "#fb6a4a" }, "geometry": { "type": "Polygon", "coordinates": [ [ [ 8.7037373, 49.402457 ], [ 8.711695, 49.4024771 ], [ 8.7156479, 49.4069844 ], [ 8.7116423, 49.411472 ], [ 8.7036832, 49.4114518 ], [ 8.699731, 49.4069441 ], [ 8.7037373, 49.402457 ] ] ] } },
{ "type": "Feature", "properties": { "index": "16", "subarea": "H4-2", "underserved_pct": 80.6, "underserved_population": 961.0, "label": "80–100%", "color": "#a50f15" }, "geometry": { "type": "Polygon", "coordinates": [ [ [ 8.7036832, 49.4114518 ], [ 8.7116423, 49.411472 ], [ 8.7155959, 49.4159792 ], [ 8.7115896, 49.4204668 ], [ 8.703629, 49.4204467 ], [ 8.6996761, 49.415939 ], [ 8.7036832, 49.4114518 ] ] ] } },
{ "type": "Feature", "properties": { "index": "17", "subarea": "H4-3", "underserved_pct": 100.0, "underserved_population": 2.0, "label": "80–100%", "color": "#a50f15" }, "geometry": { "type": "Polygon", "coordinates": [ [ [ 8.703629, 49.4204467 ], [ 8.7115896, 49.4204668 ], [ 8.712936, 49.4220016 ], [ 8.7022388, 49.4220032 ], [ 8.703629, 49.4204467 ] ] ] } },
{ "type": "Feature", "properties": { "index": "18", "subarea": "H5-0", "underserved_pct": 100.0, "underserved_population": 10.0, "label": "80–100%", "color": "#a50f15" }, "geometry": { "type": "Polygon", "coordinates": [ [ [ 8.7156479, 49.4069844 ], [ 8.711695, 49.4024771 ], [ 8.7156895, 49.398001 ], [ 8.72, 49.398 ], [ 8.72, 49.406995 ], [ 8.7156479, 49.4069844 ] ] ] } },
{ "type": "Feature", "properties": { "index": "19", "subarea": "H5-1", "underserved_pct": 42.4, "underserved_population": 73.0, "label": "40–60%", "color": "#fb6a4a" }, "geometry": { "type": "Polygon", "coordinates": [ [ [ 8.7116423, 49.411472 ], [ 8.7156479, 49.4069844 ], [ 8.72, 49.406995 ], [ 8.72, 49.41599 ], [ 8.7155959, 49.4159792 ], [ 8.7116423, 49.411472 ] ] ] } },
{ "type": "Feature", "properties": { "index": "20", "subarea": "H5-2", "underserved_pct": 100.0, "underserved_population": 32.0, "label": "80–100%", "color": "#a50f15" }, "geometry": { "type": "Polygon", "coordinates": [ [ [ 8.7115896, 49.4204668 ], [ 8.7155959, 49.4159792 ], [ 8.72, 49.41599 ], [ 8.72, 49.422 ], [ 8.712936, 49.4220016 ], [ 8.7115896, 49.4204668 ] ] ] } }
]
}
