{
"type": "FeatureCollection",
"features": [
{ "type": "Feature", "properties": { "index": "0", "subarea": "R1C1", "combined": 9.396, "label": "8.1–15.3/km²", "color": "#fd8d3c" }, "geometry": { "type": "Polygon", "coordinates": [ [ [ 3.855, 43.6163809 ], [ 3.8672697, 43.6162884 ], [ 3.867395, 43.625002 ], [ 3.855, 43.625 ], [ 3.855, 43.6163809 ] ] ] } },
{ "type": "Feature", "properties": { "index": "1", "subarea": "R1C2", "combined": 10.019, "label": "8.1–15.3/km²", "color": "#fd8d3c" }, "geometry": { "type": "Polygon", "coordinates": [ [ [ 3.8672697, 43.6162884 ], [ 3.8796616, 43.6161937 ], [ 3.87979, 43.6250027 ], [ 3.867395, 43.625002 ], [ 3.8672697, 43.6162884 ] ] ] } },
{ "type": "Feature", "properties": { "index": "2", "subarea": "R1C3", "combined": 7.116, "label": "0.8–8.1/km²", "color": "#fdbe85" }, "geometry": { "type": "Polygon", "coordinates": [ [ [ 3.8796616, 43.6161937 ], [ 3.8920533, 43.6160977 ], [ 3.892185, 43.6250021 ], [ 3.87979, 43.6250027 ], [ 3.8796616, 43.6161937 ] ] ] } },
{ "type": "Feature", "properties": { "index": "3", "subarea": "R1C4", "combined": 8.046, "label": "0.8–8.1/km²", "color": "#fdbe85" }, "geometry": { "type": "Polygon", "coordinates": [ [ [ 3.8920533, 43.6160977 ], [ 3.904445, 43.6160003 ], [ 3.9045799, 43.6250001 ], [ 3.892185, 43.6250021 ], [ 3.8920533, 43.6160977 ] ] ] } },
{ "type": "Feature", "properties": { "index": "4", "subarea": "R1C5", "combined": 12.712, "label": "8.1–15.3/km²", "color": "#fd8d3c" }, "geometry": { "type": "Polygon", "coordinates": [ [ [ 3.9045799, 43.6250001 ], [ 3.904445, 43.6160003 ], [ 3.905, 43.6159959 ], [ 3.905, 43.625 ], [ 3.9045799, 43.6250001 ] ] ] } },
{ "type": "Feature", "properties": { "index": "5", "subarea": "R2C1", "combined": 10.66, "label": "8.1–15.3/km²", "color": "#fd8d3c" }, "geometry": { "type": "Polygon", "coordinates": [ [ [ 3.8671404, 43.6072853 ], [ 3.8672697, 43.6162884 ], [ 3.855, 43.6163809 ], [ 3.855, 43.6073768 ], [ 3.8671404, 43.6072853 ] ] ] } },
{ "type": "Feature", "properties": { "index": "6", "subarea": "R2C2", "combined": 10.5, "label": "8.1–15.3/km²", "color": "#fd8d3c" }, "geometry": { "type": "Polygon", "coordinates": [ [ [ 3.8672697, 43.6162884 ], [ 3.8671404, 43.6072853 ], [ 3.8795303, 43.6071907 ], [ 3.8796616, 43.6161937 ], [ 3.8672697, 43.6162884 ] ] ] } },
{ "type": "Feature", "properties": { "index": "7", "subarea": "R2C3", "combined": 15.0, "label": "8.1–15.3/km²", "color": "#fd8d3c" }, "geometry": { "type": "Polygon", "coordinates": [ [ [ 3.8796616, 43.6161937 ], [ 3.8795303, 43.6071907 ], [ 3.8919202, 43.6070947 ], [ 3.8920533, 43.6160977 ], [ 3.8796616, 43.6161937 ] ] ] } },
{ "type": "Feature", "properties": { "index": "8", "subarea": "R2C4", "combined": 10.0, "label": "8.1–15.3/km²", "color": "#fd8d3c" }, "geometry": { "type": "Polygon", "coordinates": [ [ [ 3.8920533, 43.6160977 ], [ 3.8919202, 43.6070947 ], [ 3.9043101, 43.6069973 ], [ 3.904445, 43.6160003 ], [ 3.8920533, 43.6160977 ] ] ] } },
{ "type": "Feature", "properties": { "index": "9", "subarea": "R2C5", "combined": 0.0, "label": "0.0–0.8/km²", "color": "#feedde" }, "geometry": { "type": "Polygon", "coordinates": [ [ [ 3.904445, 43.6160003 ], [ 3.9043101, 43.6069973 ], [ 3.905, 43.6069919 ], [ 3.905, 43.6159959 ], [ 3.904445, 43.6160003 ] ] ] } },
{ "type": "Feature", "properties": { "index": "10", "subarea": "R3C1", "combined": 11.645, "label": "8.1–15.3/km²", "color": "#fd8d3c" }, "geometry": { "type": "Polygon", "coordinates": [ [ [ 3.8670358, 43.600002 ], [ 3.8671404, 43.6072853 ], [ 3.855, 43.6073768 ], [ 3.855, 43.6 ], [ 3.8670358, 43.600002 ] ] ] } },
{ "type": "Feature", "properties": { "index": "11", "subarea": "R3C2", "combined": 28.307, "label": "22.6–28.3/km²", "color": "#a63603" }, "geometry": { "type": "Polygon", "coordinates": [ [ [ 3.8795303, 43.6071907 ], [ 3.8671404, 43.6072853 ], [ 3.8670358, 43.600002 ], [ 3.8794256, 43.6000027 ], [ 3.8795303, 43.6071907 ] ] ] } },
{ "type": "Feature", "properties": { "index": "12", "subarea": "R3C3", "combined": 22.696, "label": "22.6–28.3/km²", "color": "#a63603" }, "geometry": { "type": "Polygon", "coordinates": [ [ [ 3.8919202, 43.6070947 ], [ 3.8795303, 43.6071907 ], [ 3.8794256, 43.6000027 ], [ 3.8918154, 43.6000021 ], [ 3.8919202, 43.6070947 ] ] ] } },
{ "type": "Feature", "properties": { "index": "13", "subarea": "R3C4", "combined": 19.489, "label": "15.3–22.6/km²", "color": "#e6550d" }, "geometry": { "type": "Polygon", "coordinates": [ [ [ 3.9043101, 43.6069973 ], [ 3.8919202, 43.6070947 ], [ 3.8918154, 43.6000021 ], [ 3.9042053, 43.6000002 ], [ 3.9043101, 43.6069973 ] ] ] } },
{ "type": "Feature", "properties": { "index": "14", "subarea": "R3C5", "combined": 0.0, "label": "0.0–0.8/km²", "color": "#feedde" }, "geometry": { "type": "Polygon", "coordinates": [ [ [ 3.905, 43.6069919 ], [ 3.9043101, 43.6069973 ], [ 3.9042053, 43.6000002 ], [ 3.905, 43.6 ], [ 3.905, 43.6069919 ] ] ] } }
]
}
