{
"type": "FeatureCollection",
"features": [
{ "type": "Feature", "properties": { "index": "0", "label": "Within 300 m on foot", "color": "#2b8cbe" }, "geometry": { "type": "Polygon", "coordinates": [ [ [ 3.8560575, 43.600088 ], [ 3.8562243, 43.6000136 ], [ 3.8562251, 43.6000003 ], [ 3.905, 43.6 ], [ 3.905, 43.613915 ], [ 3.9049468, 43.6139338 ], [ 3.9046047, 43.6140258 ], [ 3.9042518, 43.614093 ], [ 3.9038915, 43.6141347 ], [ 3.9035273, 43.6141506 ], [ 3.9031628, 43.6141405 ], [ 3.9028013, 43.6141044 ], [ 3.9024465, 43.6140428 ], [ 3.9021017, 43.6139562 ], [ 3.9018059, 43.6138575 ], [ 3.9016263, 43.6138123 ], [ 3.9012948, 43.6137016 ], [ 3.9009799, 43.6135678 ], [ 3.900728, 43.6134351 ], [ 3.900639, 43.6134327 ], [ 3.9002775, 43.6133966 ], [ 3.8999227, 43.613335 ], [ 3.8995779, 43.6132484 ], [ 3.8995504, 43.6132392 ], [ 3.8992421, 43.6132979 ], [ 3.8989697, 43.6133295 ], [ 3.8988963, 43.6134836 ], [ 3.8987439, 43.6137245 ], [ 3.8985598, 43.6139533 ], [ 3.8984402, 43.6140731 ], [ 3.8985743, 43.6141068 ], [ 3.8989058, 43.6142175 ], [ 3.8992207, 43.6143514 ], [ 3.8995161, 43.6145069 ], [ 3.899789, 43.6146828 ], [ 3.9000369, 43.6148773 ], [ 3.9002574, 43.6150885 ], [ 3.9004484, 43.6153143 ], [ 3.9006018, 43.6155436 ], [ 3.9006307, 43.6155381 ], [ 3.900991, 43.6154964 ], [ 3.9013552, 43.6154805 ], [ 3.9017197, 43.6154906 ], [ 3.9020812, 43.6155267 ], [ 3.902436, 43.6155883 ], [ 3.9027808, 43.6156749 ], [ 3.9031123, 43.6157856 ], [ 3.9034273, 43.6159194 ], [ 3.9037227, 43.616075 ], [ 3.9039956, 43.6162508 ], [ 3.9042436, 43.6164453 ], [ 3.9044641, 43.6166564 ], [ 3.9046551, 43.6168823 ], [ 3.9048146, 43.6171207 ], [ 3.9049217, 43.6173307 ], [ 3.905, 43.617372 ], [ 3.905, 43.6217824 ], [ 3.9049577, 43.6218057 ], [ 3.9046468, 43.6219444 ], [ 3.9045989, 43.6219614 ], [ 3.9045705, 43.6219898 ], [ 3.904935, 43.6219999 ], [ 3.905, 43.6220064 ], [ 3.905, 43.625 ], [ 3.8960271, 43.6250016 ], [ 3.8960056, 43.6249848 ], [ 3.8957851, 43.6247736 ], [ 3.8955942, 43.6245477 ], [ 3.8954346, 43.6243093 ], [ 3.895308, 43.6240608 ], [ 3.8952927, 43.6240184 ], [ 3.8951463, 43.6240578 ], [ 3.8947933, 43.6241249 ], [ 3.894433, 43.6241666 ], [ 3.8940687, 43.6241825 ], [ 3.8937041, 43.6241723 ], [ 3.8933426, 43.6241363 ], [ 3.8929877, 43.6240746 ], [ 3.8926429, 43.623988 ], [ 3.8924654, 43.6239288 ], [ 3.8923375, 43.6239065 ], [ 3.8919926, 43.6238199 ], [ 3.8916611, 43.6237092 ], [ 3.8913462, 43.6235753 ], [ 3.8910508, 43.6234197 ], [ 3.8907778, 43.6232438 ], [ 3.890757, 43.6232276 ], [ 3.8904549, 43.6232191 ], [ 3.8900934, 43.6231831 ], [ 3.8897385, 43.6231214 ], [ 3.8893936, 43.6230348 ], [ 3.8890621, 43.622924 ], [ 3.889024, 43.6229078 ], [ 3.8888491, 43.623125 ], [ 3.8886349, 43.6233396 ], [ 3.8883927, 43.6235379 ], [ 3.888125, 43.623718 ], [ 3.8878515, 43.6238687 ], [ 3.8876796, 43.6240822 ], [ 3.8874654, 43.6242968 ], [ 3.8872233, 43.6244951 ], [ 3.8869555, 43.6246752 ], [ 3.8866648, 43.6248353 ], [ 3.8863538, 43.624974 ], [ 3.886273, 43.6250026 ], [ 3.8828522, 43.6250027 ], [ 3.8826396, 43.6249657 ], [ 3.8822947, 43.6248791 ], [ 3.8819632, 43.6247683 ], [ 3.8816483, 43.6246345 ], [ 3.8813529, 43.6244788 ], [ 3.8810799, 43.6243029 ], [ 3.880832, 43.6241084 ], [ 3.8806116, 43.6238972 ], [ 3.8804848, 43.6237472 ], [ 3.8803824, 43.6238497 ], [ 3.8801402, 43.624048 ], [ 3.8798725, 43.6242281 ], [ 3.8795817, 43.6243883 ], [ 3.8792707, 43.6245269 ], [ 3.8789425, 43.6246428 ], [ 3.8786003, 43.6247347 ], [ 3.8782473, 43.6248018 ], [ 3.8778869, 43.6248435 ], [ 3.8775227, 43.6248593 ], [ 3.8771581, 43.6248491 ], [ 3.8767966, 43.624813 ], [ 3.8764417, 43.6247513 ], [ 3.8764155, 43.6247447 ], [ 3.8762578, 43.6249026 ], [ 3.8761657, 43.6249781 ], [ 3.8761644, 43.6250027 ], [ 3.8589286, 43.6250008 ], [ 3.8587769, 43.6248212 ], [ 3.8586175, 43.6245828 ], [ 3.8585735, 43.6244963 ], [ 3.8583291, 43.6244348 ], [ 3.8579977, 43.624324 ], [ 3.8576828, 43.6241901 ], [ 3.8573875, 43.6240344 ], [ 3.8571146, 43.6238584 ], [ 3.8568668, 43.6236638 ], [ 3.8567908, 43.623591 ], [ 3.8565838, 43.6235999 ], [ 3.8562192, 43.6235897 ], [ 3.8558578, 43.6235535 ], [ 3.8555029, 43.6234917 ], [ 3.8551581, 43.623405 ], [ 3.855, 43.6233521 ], [ 3.855, 43.6008938 ], [ 3.8550426, 43.6008409 ], [ 3.8552569, 43.6006264 ], [ 3.855499, 43.6004281 ], [ 3.8557668, 43.6002481 ], [ 3.8560575, 43.600088 ] ] ] } },
{ "type": "Feature", "properties": { "index": "1", "label": "Beyond 300 m", "color": "#d9d9d9" }, "geometry": { "type": "MultiPolygon", "coordinates": [ [ [ [ 3.8557668, 43.6002481 ], [ 3.855499, 43.6004281 ], [ 3.8552569, 43.6006264 ], [ 3.8550426, 43.6008409 ], [ 3.855, 43.6008938 ], [ 3.855, 43.6 ], [ 3.905, 43.6 ], [ 3.8562251, 43.6000003 ], [ 3.8562243, 43.6000136 ], [ 3.8560575, 43.600088 ], [ 3.8557668, 43.6002481 ] ] ], [ [ [ 3.9038915, 43.6141347 ], [ 3.9042518, 43.614093 ], [ 3.9046047, 43.6140258 ], [ 3.9049468, 43.6139338 ], [ 3.905, 43.613915 ], [ 3.905, 43.617372 ], [ 3.9049217, 43.6173307 ], [ 3.9048146, 43.6171207 ], [ 3.9046551, 43.6168823 ], [ 3.9044641, 43.6166564 ], [ 3.9042436, 43.6164453 ], [ 3.9039956, 43.6162508 ], [ 3.9037227, 43.616075 ], [ 3.9034273, 43.6159194 ], [ 3.9031123, 43.6157856 ], [ 3.9027808, 43.6156749 ], [ 3.902436, 43.6155883 ], [ 3.9020812, 43.6155267 ], [ 3.9017197, 43.6154906 ], [ 3.9013552, 43.6154805 ], [ 3.900991, 43.6154964 ], [ 3.9006307, 43.6155381 ], [ 3.9006018, 43.6155436 ], [ 3.9004484, 43.6153143 ], [ 3.9002574, 43.6150885 ], [ 3.9000369, 43.6148773 ], [ 3.899789, 43.6146828 ], [ 3.8995161, 43.6145069 ], [ 3.8992207, 43.6143514 ], [ 3.8989058, 43.6142175 ], [ 3.8985743, 43.6141068 ], [ 3.8984402, 43.6140731 ], [ 3.8985598, 43.6139533 ], [ 3.8987439, 43.6137245 ], [ 3.8988963, 43.6134836 ], [ 3.8989697, 43.6133295 ], [ 3.8992421, 43.6132979 ], [ 3.8995504, 43.6132392 ], [ 3.8995779, 43.6132484 ], [ 3.8999227, 43.613335 ], [ 3.9002775, 43.6133966 ], [ 3.900639, 43.6134327 ], [ 3.900728, 43.6134351 ], [ 3.9009799, 43.6135678 ], [ 3.9012948, 43.6137016 ], [ 3.9016263, 43.6138123 ], [ 3.9018059, 43.6138575 ], [ 3.9021017, 43.6139562 ], [ 3.9024465, 43.6140428 ], [ 3.9028013, 43.6141044 ], [ 3.9031628, 43.6141405 ], [ 3.9035273, 43.6141506 ], [ 3.9038915, 43.6141347 ] ] ], [ [ [ 3.904935, 43.6219999 ], [ 3.9045705, 43.6219898 ], [ 3.9045989, 43.6219614 ], [ 3.9046468, 43.6219444 ], [ 3.9049577, 43.6218057 ], [ 3.905, 43.6217824 ], [ 3.905, 43.6220064 ], [ 3.904935, 43.6219999 ] ] ], [ [ [ 3.895308, 43.6240608 ], [ 3.8954346, 43.6243093 ], [ 3.8955942, 43.6245477 ], [ 3.8957851, 43.6247736 ], [ 3.8960056, 43.6249848 ], [ 3.8960271, 43.6250016 ], [ 3.8862767, 43.6250012 ], [ 3.8863538, 43.624974 ], [ 3.8866648, 43.6248353 ], [ 3.8869555, 43.6246752 ], [ 3.8872233, 43.6244951 ], [ 3.8874654, 43.6242968 ], [ 3.8876796, 43.6240822 ], [ 3.8878515, 43.6238687 ], [ 3.888125, 43.623718 ], [ 3.8883927, 43.6235379 ], [ 3.8886349, 43.6233396 ], [ 3.8888491, 43.623125 ], [ 3.889024, 43.6229078 ], [ 3.8890621, 43.622924 ], [ 3.8893936, 43.6230348 ], [ 3.8897385, 43.6231214 ], [ 3.8900934, 43.6231831 ], [ 3.8904549, 43.6232191 ], [ 3.890757, 43.6232276 ], [ 3.8907778, 43.6232438 ], [ 3.8910508, 43.6234197 ], [ 3.8913462, 43.6235753 ], [ 3.8916611, 43.6237092 ], [ 3.8919926, 43.6238199 ], [ 3.8923375, 43.6239065 ], [ 3.8924654, 43.6239288 ], [ 3.8926429, 43.623988 ], [ 3.8929877, 43.6240746 ], [ 3.8933426, 43.6241363 ], [ 3.8937041, 43.6241723 ], [ 3.8940687, 43.6241825 ], [ 3.894433, 43.6241666 ], [ 3.8947933, 43.6241249 ], [ 3.8951463, 43.6240578 ], [ 3.8952927, 43.6240184 ], [ 3.895308, 43.6240608 ] ] ], [ [ [ 3.8583291, 43.6244348 ], [ 3.8585735, 43.6244963 ], [ 3.8586175, 43.6245828 ], [ 3.8587769, 43.6248212 ], [ 3.8589281, 43.6250002 ], [ 3.855, 43.625 ], [ 3.855, 43.6233521 ], [ 3.8551581, 43.623405 ], [ 3.8555029, 43.6234917 ], [ 3.8558578, 43.6235535 ], [ 3.8562192, 43.6235897 ], [ 3.8565838, 43.6235999 ], [ 3.8567908, 43.623591 ], [ 3.8568668, 43.6236638 ], [ 3.8571146, 43.6238584 ], [ 3.8573875, 43.6240344 ], [ 3.8576828, 43.6241901 ], [ 3.8579977, 43.624324 ], [ 3.8583291, 43.6244348 ] ] ], [ [ [ 3.8816483, 43.6246345 ], [ 3.8819632, 43.6247683 ], [ 3.8822947, 43.6248791 ], [ 3.8826396, 43.6249657 ], [ 3.882843, 43.6250011 ], [ 3.8761645, 43.6250008 ], [ 3.8761657, 43.6249781 ], [ 3.8762578, 43.6249026 ], [ 3.8764155, 43.6247447 ], [ 3.8764417, 43.6247513 ], [ 3.8767966, 43.624813 ], [ 3.8771581, 43.6248491 ], [ 3.8775227, 43.6248593 ], [ 3.8778869, 43.6248435 ], [ 3.8782473, 43.6248018 ], [ 3.8786003, 43.6247347 ], [ 3.8789425, 43.6246428 ], [ 3.8792707, 43.6245269 ], [ 3.8795817, 43.6243883 ], [ 3.8798725, 43.6242281 ], [ 3.8801402, 43.624048 ], [ 3.8803824, 43.6238497 ], [ 3.8804848, 43.6237472 ], [ 3.8806116, 43.6238972 ], [ 3.880832, 43.6241084 ], [ 3.8810799, 43.6243029 ], [ 3.8813529, 43.6244788 ], [ 3.8816483, 43.6246345 ] ] ], [ [ [ 3.8589286, 43.6250008 ], [ 3.8589281, 43.6250002 ], [ 3.8761645, 43.6250008 ], [ 3.8761644, 43.6250027 ], [ 3.8589286, 43.6250008 ] ] ], [ [ [ 3.8828522, 43.6250027 ], [ 3.882843, 43.6250011 ], [ 3.8862767, 43.6250012 ], [ 3.886273, 43.6250026 ], [ 3.8828522, 43.6250027 ] ] ] ] } }
]
}
