{
"type": "FeatureCollection",
"features": [
{ "type": "Feature", "properties": { "index": "0", "subarea": "R1C1", "count": 44, "density_per_km2": 45.93701, "label": "Not significant", "color": "#d9d9d9" }, "geometry": { "type": "Polygon", "coordinates": [ [ [ 3.855, 43.6163809 ], [ 3.8672697, 43.6162884 ], [ 3.867395, 43.625002 ], [ 3.855, 43.625 ], [ 3.855, 43.6163809 ] ] ] } },
{ "type": "Feature", "properties": { "index": "1", "subarea": "R1C2", "count": 45, "density_per_km2": 46.24172, "label": "Not significant", "color": "#d9d9d9" }, "geometry": { "type": "Polygon", "coordinates": [ [ [ 3.8672697, 43.6162884 ], [ 3.8796616, 43.6161937 ], [ 3.87979, 43.6250027 ], [ 3.867395, 43.625002 ], [ 3.8672697, 43.6162884 ] ] ] } },
{ "type": "Feature", "properties": { "index": "2", "subarea": "R1C3", "count": 29, "density_per_km2": 29.4792, "label": "Not significant", "color": "#d9d9d9" }, "geometry": { "type": "Polygon", "coordinates": [ [ [ 3.8796616, 43.6161937 ], [ 3.8920533, 43.6160977 ], [ 3.892185, 43.6250021 ], [ 3.87979, 43.6250027 ], [ 3.8796616, 43.6161937 ] ] ] } },
{ "type": "Feature", "properties": { "index": "3", "subarea": "R1C4", "count": 32, "density_per_km2": 32.18208, "label": "Not significant", "color": "#d9d9d9" }, "geometry": { "type": "Polygon", "coordinates": [ [ [ 3.8920533, 43.6160977 ], [ 3.904445, 43.6160003 ], [ 3.9045799, 43.6250001 ], [ 3.892185, 43.6250021 ], [ 3.8920533, 43.6160977 ] ] ] } },
{ "type": "Feature", "properties": { "index": "4", "subarea": "R1C5", "count": 2, "density_per_km2": 50.84755, "label": "High-Low", "color": "#fdae61" }, "geometry": { "type": "Polygon", "coordinates": [ [ [ 3.9045799, 43.6250001 ], [ 3.904445, 43.6160003 ], [ 3.905, 43.6159959 ], [ 3.905, 43.625 ], [ 3.9045799, 43.6250001 ] ] ] } },
{ "type": "Feature", "properties": { "index": "5", "subarea": "R2C1", "count": 44, "density_per_km2": 44.67009, "label": "Not significant", "color": "#d9d9d9" }, "geometry": { "type": "Polygon", "coordinates": [ [ [ 3.8671404, 43.6072853 ], [ 3.8672697, 43.6162884 ], [ 3.855, 43.6163809 ], [ 3.855, 43.6073768 ], [ 3.8671404, 43.6072853 ] ] ] } },
{ "type": "Feature", "properties": { "index": "6", "subarea": "R2C2", "count": 43, "density_per_km2": 43.0, "label": "Not significant", "color": "#d9d9d9" }, "geometry": { "type": "Polygon", "coordinates": [ [ [ 3.8672697, 43.6162884 ], [ 3.8671404, 43.6072853 ], [ 3.8795303, 43.6071907 ], [ 3.8796616, 43.6161937 ], [ 3.8672697, 43.6162884 ] ] ] } },
{ "type": "Feature", "properties": { "index": "7", "subarea": "R2C3", "count": 62, "density_per_km2": 62.0, "label": "Not significant", "color": "#d9d9d9" }, "geometry": { "type": "Polygon", "coordinates": [ [ [ 3.8796616, 43.6161937 ], [ 3.8795303, 43.6071907 ], [ 3.8919202, 43.6070947 ], [ 3.8920533, 43.6160977 ], [ 3.8796616, 43.6161937 ] ] ] } },
{ "type": "Feature", "properties": { "index": "8", "subarea": "R2C4", "count": 43, "density_per_km2": 43.0, "label": "Not significant", "color": "#d9d9d9" }, "geometry": { "type": "Polygon", "coordinates": [ [ [ 3.8920533, 43.6160977 ], [ 3.8919202, 43.6070947 ], [ 3.9043101, 43.6069973 ], [ 3.904445, 43.6160003 ], [ 3.8920533, 43.6160977 ] ] ] } },
{ "type": "Feature", "properties": { "index": "9", "subarea": "R2C5", "count": 0, "density_per_km2": 0.0, "label": "Not significant", "color": "#d9d9d9" }, "geometry": { "type": "Polygon", "coordinates": [ [ [ 3.904445, 43.6160003 ], [ 3.9043101, 43.6069973 ], [ 3.905, 43.6069919 ], [ 3.905, 43.6159959 ], [ 3.904445, 43.6160003 ] ] ] } },
{ "type": "Feature", "properties": { "index": "10", "subarea": "R3C1", "count": 37, "density_per_km2": 46.58123, "label": "Not significant", "color": "#d9d9d9" }, "geometry": { "type": "Polygon", "coordinates": [ [ [ 3.8670358, 43.600002 ], [ 3.8671404, 43.6072853 ], [ 3.855, 43.6073768 ], [ 3.855, 43.6 ], [ 3.8670358, 43.600002 ] ] ] } },
{ "type": "Feature", "properties": { "index": "11", "subarea": "R3C2", "count": 94, "density_per_km2": 116.9613, "label": "Not significant", "color": "#d9d9d9" }, "geometry": { "type": "Polygon", "coordinates": [ [ [ 3.8795303, 43.6071907 ], [ 3.8671404, 43.6072853 ], [ 3.8670358, 43.600002 ], [ 3.8794256, 43.6000027 ], [ 3.8795303, 43.6071907 ] ] ] } },
{ "type": "Feature", "properties": { "index": "12", "subarea": "R3C3", "count": 72, "density_per_km2": 90.78395, "label": "High-High", "color": "#d7301f" }, "geometry": { "type": "Polygon", "coordinates": [ [ [ 3.8919202, 43.6070947 ], [ 3.8795303, 43.6071907 ], [ 3.8794256, 43.6000027 ], [ 3.8918154, 43.6000021 ], [ 3.8919202, 43.6070947 ] ] ] } },
{ "type": "Feature", "properties": { "index": "13", "subarea": "R3C4", "count": 62, "density_per_km2": 79.23332, "label": "Not significant", "color": "#d9d9d9" }, "geometry": { "type": "Polygon", "coordinates": [ [ [ 3.9043101, 43.6069973 ], [ 3.8919202, 43.6070947 ], [ 3.8918154, 43.6000021 ], [ 3.9042053, 43.6000002 ], [ 3.9043101, 43.6069973 ] ] ] } },
{ "type": "Feature", "properties": { "index": "14", "subarea": "R3C5", "count": 0, "density_per_km2": 0.0, "label": "Not significant", "color": "#d9d9d9" }, "geometry": { "type": "Polygon", "coordinates": [ [ [ 3.905, 43.6069919 ], [ 3.9043101, 43.6069973 ], [ 3.9042053, 43.6000002 ], [ 3.905, 43.6 ], [ 3.905, 43.6069919 ] ] ] } }
]
}
