{
"type": "FeatureCollection",
"features": [
{ "type": "Feature", "properties": { "index": "0", "subarea": "R1C1", "count": 44, "population": 6623.0, "per_1000_inhabitants": 6.64, "label": "2.3–18.6 /1k", "color": "#fdae6d" }, "geometry": { "type": "Polygon", "coordinates": [ [ [ 3.855, 43.6163809 ], [ 3.8672697, 43.6162884 ], [ 3.867395, 43.625002 ], [ 3.855, 43.625 ], [ 3.855, 43.6163809 ] ] ] } },
{ "type": "Feature", "properties": { "index": "1", "subarea": "R1C2", "count": 45, "population": 8578.0, "per_1000_inhabitants": 5.25, "label": "2.3–18.6 /1k", "color": "#fdae6d" }, "geometry": { "type": "Polygon", "coordinates": [ [ [ 3.8672697, 43.6162884 ], [ 3.8796616, 43.6161937 ], [ 3.87979, 43.6250027 ], [ 3.867395, 43.625002 ], [ 3.8672697, 43.6162884 ] ] ] } },
{ "type": "Feature", "properties": { "index": "2", "subarea": "R1C3", "count": 29, "population": 7316.0, "per_1000_inhabitants": 3.96, "label": "2.3–18.6 /1k", "color": "#fdae6d" }, "geometry": { "type": "Polygon", "coordinates": [ [ [ 3.8796616, 43.6161937 ], [ 3.8920533, 43.6160977 ], [ 3.892185, 43.6250021 ], [ 3.87979, 43.6250027 ], [ 3.8796616, 43.6161937 ] ] ] } },
{ "type": "Feature", "properties": { "index": "3", "subarea": "R1C4", "count": 32, "population": 6487.0, "per_1000_inhabitants": 4.93, "label": "2.3–18.6 /1k", "color": "#fdae6d" }, "geometry": { "type": "Polygon", "coordinates": [ [ [ 3.8920533, 43.6160977 ], [ 3.904445, 43.6160003 ], [ 3.9045799, 43.6250001 ], [ 3.892185, 43.6250021 ], [ 3.8920533, 43.6160977 ] ] ] } },
{ "type": "Feature", "properties": { "index": "4", "subarea": "R1C5", "count": 2, "population": 29.0, "per_1000_inhabitants": 68.21, "label": "34.8–68.2 /1k", "color": "#a63603" }, "geometry": { "type": "Polygon", "coordinates": [ [ [ 3.9045799, 43.6250001 ], [ 3.904445, 43.6160003 ], [ 3.905, 43.6159959 ], [ 3.905, 43.625 ], [ 3.9045799, 43.6250001 ] ] ] } },
{ "type": "Feature", "properties": { "index": "5", "subarea": "R2C1", "count": 44, "population": 7822.0, "per_1000_inhabitants": 5.63, "label": "2.3–18.6 /1k", "color": "#fdae6d" }, "geometry": { "type": "Polygon", "coordinates": [ [ [ 3.8671404, 43.6072853 ], [ 3.8672697, 43.6162884 ], [ 3.855, 43.6163809 ], [ 3.855, 43.6073768 ], [ 3.8671404, 43.6072853 ] ] ] } },
{ "type": "Feature", "properties": { "index": "6", "subarea": "R2C2", "count": 43, "population": 11775.0, "per_1000_inhabitants": 3.65, "label": "2.3–18.6 /1k", "color": "#fdae6d" }, "geometry": { "type": "Polygon", "coordinates": [ [ [ 3.8672697, 43.6162884 ], [ 3.8671404, 43.6072853 ], [ 3.8795303, 43.6071907 ], [ 3.8796616, 43.6161937 ], [ 3.8672697, 43.6162884 ] ] ] } },
{ "type": "Feature", "properties": { "index": "7", "subarea": "R2C3", "count": 62, "population": 7898.0, "per_1000_inhabitants": 7.85, "label": "2.3–18.6 /1k", "color": "#fdae6d" }, "geometry": { "type": "Polygon", "coordinates": [ [ [ 3.8796616, 43.6161937 ], [ 3.8795303, 43.6071907 ], [ 3.8919202, 43.6070947 ], [ 3.8920533, 43.6160977 ], [ 3.8796616, 43.6161937 ] ] ] } },
{ "type": "Feature", "properties": { "index": "8", "subarea": "R2C4", "count": 43, "population": 6991.0, "per_1000_inhabitants": 6.15, "label": "2.3–18.6 /1k", "color": "#fdae6d" }, "geometry": { "type": "Polygon", "coordinates": [ [ [ 3.8920533, 43.6160977 ], [ 3.8919202, 43.6070947 ], [ 3.9043101, 43.6069973 ], [ 3.904445, 43.6160003 ], [ 3.8920533, 43.6160977 ] ] ] } },
{ "type": "Feature", "properties": { "index": "10", "subarea": "R3C1", "count": 37, "population": 7641.0, "per_1000_inhabitants": 4.84, "label": "2.3–18.6 /1k", "color": "#fdae6d" }, "geometry": { "type": "Polygon", "coordinates": [ [ [ 3.8670358, 43.600002 ], [ 3.8671404, 43.6072853 ], [ 3.855, 43.6073768 ], [ 3.855, 43.6 ], [ 3.8670358, 43.600002 ] ] ] } },
{ "type": "Feature", "properties": { "index": "11", "subarea": "R3C2", "count": 94, "population": 9726.0, "per_1000_inhabitants": 9.67, "label": "2.3–18.6 /1k", "color": "#fdae6d" }, "geometry": { "type": "Polygon", "coordinates": [ [ [ 3.8795303, 43.6071907 ], [ 3.8671404, 43.6072853 ], [ 3.8670358, 43.600002 ], [ 3.8794256, 43.6000027 ], [ 3.8795303, 43.6071907 ] ] ] } },
{ "type": "Feature", "properties": { "index": "12", "subarea": "R3C3", "count": 72, "population": 8948.0, "per_1000_inhabitants": 8.05, "label": "2.3–18.6 /1k", "color": "#fdae6d" }, "geometry": { "type": "Polygon", "coordinates": [ [ [ 3.8919202, 43.6070947 ], [ 3.8795303, 43.6071907 ], [ 3.8794256, 43.6000027 ], [ 3.8918154, 43.6000021 ], [ 3.8919202, 43.6070947 ] ] ] } },
{ "type": "Feature", "properties": { "index": "13", "subarea": "R3C4", "count": 62, "population": 5524.0, "per_1000_inhabitants": 11.22, "label": "2.3–18.6 /1k", "color": "#fdae6d" }, "geometry": { "type": "Polygon", "coordinates": [ [ [ 3.9043101, 43.6069973 ], [ 3.8919202, 43.6070947 ], [ 3.8918154, 43.6000021 ], [ 3.9042053, 43.6000002 ], [ 3.9043101, 43.6069973 ] ] ] } },
{ "type": "Feature", "properties": { "index": "14", "subarea": "R3C5", "count": 0, "population": 136.0, "per_1000_inhabitants": 0.0, "label": "0.0–2.3 /1k", "color": "#feedde" }, "geometry": { "type": "Polygon", "coordinates": [ [ [ 3.905, 43.6069919 ], [ 3.9043101, 43.6069973 ], [ 3.9042053, 43.6000002 ], [ 3.905, 43.6 ], [ 3.905, 43.6069919 ] ] ] } }
]
}
