{
"type": "FeatureCollection",
"features": [
{ "type": "Feature", "properties": { "index": "0", "@osmId": "relation/8258002", "name": null, "opening_hours": null, "label": "Multi-storey car parks", "color": "#525252" }, "geometry": { "type": "Point", "coordinates": [ 8.6739775, 49.4202471 ] } },
{ "type": "Feature", "properties": { "index": "1", "@osmId": "way/27620236", "name": "Poststraße", "opening_hours": "24/7", "label": "Multi-storey car parks", "color": "#525252" }, "geometry": { "type": "Point", "coordinates": [ 8.6904605, 49.4077406 ] } },
{ "type": "Feature", "properties": { "index": "2", "@osmId": "way/35692880", "name": "P9 Am Theater", "opening_hours": "24/7", "label": "Multi-storey car parks", "color": "#525252" }, "geometry": { "type": "Point", "coordinates": [ 8.7027212, 49.4091392 ] } },
{ "type": "Feature", "properties": { "index": "3", "@osmId": "way/92139269", "name": "Kornmarkt/Schloss", "opening_hours": "24/7", "label": "Multi-storey car parks", "color": "#525252" }, "geometry": { "type": "Point", "coordinates": [ 8.7119922, 49.4111529 ] } },
{ "type": "Feature", "properties": { "index": "4", "@osmId": "way/25238615", "name": null, "opening_hours": null, "label": "Multi-storey car parks", "color": "#525252" }, "geometry": { "type": "Point", "coordinates": [ 8.6756601, 49.4153908 ] } },
{ "type": "Feature", "properties": { "index": "5", "@osmId": "way/25770933", "name": "Medizinische Klinik INF 160", "opening_hours": "24/7", "label": "Multi-storey car parks", "color": "#525252" }, "geometry": { "type": "Point", "coordinates": [ 8.6650241, 49.4140561 ] } },
{ "type": "Feature", "properties": { "index": "6", "@osmId": "way/197101545", "name": "Zoo", "opening_hours": "Mo-Su 00:00-24:00", "label": "Multi-storey car parks", "color": "#525252" }, "geometry": { "type": "Point", "coordinates": [ 8.6642765, 49.4148159 ] } },
{ "type": "Feature", "properties": { "index": "7", "@osmId": "way/218803933", "name": "Universitätsklinikum Parkhaus INF 699", "opening_hours": "Mo-Su,PH 00:00-24:00", "label": "Multi-storey car parks", "color": "#525252" }, "geometry": { "type": "Point", "coordinates": [ 8.6607805, 49.4187023 ] } },
{ "type": "Feature", "properties": { "index": "8", "@osmId": "node/283178796", "name": "Nordbrückenkopf", "opening_hours": null, "label": "Multi-storey car parks", "color": "#525252" }, "geometry": { "type": "Point", "coordinates": [ 8.6925384, 49.4136238 ] } },
{ "type": "Feature", "properties": { "index": "9", "@osmId": "node/364059072", "name": "Am Bismarckplatz", "opening_hours": "Mo-Su 06:00-22:00", "label": "Multi-storey car parks", "color": "#525252" }, "geometry": { "type": "Point", "coordinates": [ 8.6920076, 49.4096879 ] } },
{ "type": "Feature", "properties": { "index": "10", "@osmId": "node/411412375", "name": "Kaufhof", "opening_hours": "24/7", "label": "Multi-storey car parks", "color": "#525252" }, "geometry": { "type": "Point", "coordinates": [ 8.6965977, 49.4092764 ] } },
{ "type": "Feature", "properties": { "index": "11", "@osmId": "way/158368925", "name": "BG RCI", "opening_hours": "Mo-Sa 06:00-22:00", "label": "Underground car parks", "color": "#737373" }, "geometry": { "type": "Point", "coordinates": [ 8.6757389, 49.4056322 ] } },
{ "type": "Feature", "properties": { "index": "12", "@osmId": "way/14192539", "name": "Henschel", "opening_hours": "24/7", "label": "Underground car parks", "color": "#737373" }, "geometry": { "type": "Point", "coordinates": [ 8.6969759, 49.4112986 ] } },
{ "type": "Feature", "properties": { "index": "13", "@osmId": "way/14197787", "name": "Kongresshaus", "opening_hours": "24/7", "label": "Underground car parks", "color": "#737373" }, "geometry": { "type": "Point", "coordinates": [ 8.6998768, 49.4113947 ] } },
{ "type": "Feature", "properties": { "index": "14", "@osmId": "way/62293909", "name": "Friedrich-Ebert-Platz", "opening_hours": "24/7", "label": "Underground car parks", "color": "#737373" }, "geometry": { "type": "Point", "coordinates": [ 8.6985247, 49.4087378 ] } },
{ "type": "Feature", "properties": { "index": "15", "@osmId": "way/122188809", "name": "Ethianum Heidelberg", "opening_hours": "05:30-21:00", "label": "Underground car parks", "color": "#737373" }, "geometry": { "type": "Point", "coordinates": [ 8.6843053, 49.4093182 ] } },
{ "type": "Feature", "properties": { "index": "16", "@osmId": "way/167312321", "name": null, "opening_hours": null, "label": "Underground car parks", "color": "#737373" }, "geometry": { "type": "Point", "coordinates": [ 8.6889011, 49.4073437 ] } },
{ "type": "Feature", "properties": { "index": "17", "@osmId": "way/406473090", "name": null, "opening_hours": null, "label": "Underground car parks", "color": "#737373" }, "geometry": { "type": "Point", "coordinates": [ 8.684425, 49.4026591 ] } },
{ "type": "Feature", "properties": { "index": "18", "@osmId": "way/1294882321", "name": "Klinikum Bergheim", "opening_hours": null, "label": "Underground car parks", "color": "#737373" }, "geometry": { "type": "Point", "coordinates": [ 8.6878811, 49.4097124 ] } },
{ "type": "Feature", "properties": { "index": "19", "@osmId": "way/1328529597", "name": "Scheck-In Tiefgarage", "opening_hours": null, "label": "Underground car parks", "color": "#737373" }, "geometry": { "type": "Point", "coordinates": [ 8.6866494, 49.4057163 ] } },
{ "type": "Feature", "properties": { "index": "20", "@osmId": "way/14329228", "name": "Karlsplatz/Rathaus", "opening_hours": "24/7", "label": "Underground car parks", "color": "#737373" }, "geometry": { "type": "Point", "coordinates": [ 8.7128074, 49.412228 ] } },
{ "type": "Feature", "properties": { "index": "21", "@osmId": "way/1481409107", "name": null, "opening_hours": null, "label": "Underground car parks", "color": "#737373" }, "geometry": { "type": "Point", "coordinates": [ 8.7197343, 49.4128074 ] } },
{ "type": "Feature", "properties": { "index": "22", "@osmId": "node/270306133", "name": "Hilton", "opening_hours": null, "label": "Underground car parks", "color": "#737373" }, "geometry": { "type": "Point", "coordinates": [ 8.691822, 49.4064795 ] } },
{ "type": "Feature", "properties": { "index": "23", "@osmId": "node/270429893", "name": null, "opening_hours": null, "label": "Underground car parks", "color": "#737373" }, "geometry": { "type": "Point", "coordinates": [ 8.6720084, 49.4089695 ] } },
{ "type": "Feature", "properties": { "index": "24", "@osmId": "node/270430000", "name": null, "opening_hours": null, "label": "Underground car parks", "color": "#737373" }, "geometry": { "type": "Point", "coordinates": [ 8.6693533, 49.4094813 ] } },
{ "type": "Feature", "properties": { "index": "25", "@osmId": "node/272597912", "name": "B2 Heidelberg", "opening_hours": "Mo-Fr 06:00-20:00; Sa 06:00-14:00; Su,PH off", "label": "Underground car parks", "color": "#737373" }, "geometry": { "type": "Point", "coordinates": [ 8.6789769, 49.4040432 ] } },
{ "type": "Feature", "properties": { "index": "26", "@osmId": "node/275518079", "name": null, "opening_hours": null, "label": "Underground car parks", "color": "#737373" }, "geometry": { "type": "Point", "coordinates": [ 8.6754091, 49.4214174 ] } },
{ "type": "Feature", "properties": { "index": "27", "@osmId": "node/281591240", "name": null, "opening_hours": null, "label": "Underground car parks", "color": "#737373" }, "geometry": { "type": "Point", "coordinates": [ 8.6705073, 49.4139305 ] } },
{ "type": "Feature", "properties": { "index": "28", "@osmId": "node/283346919", "name": "Europäischer Hof", "opening_hours": "24/7", "label": "Underground car parks", "color": "#737373" }, "geometry": { "type": "Point", "coordinates": [ 8.6948451, 49.4080031 ] } },
{ "type": "Feature", "properties": { "index": "29", "@osmId": "node/285875733", "name": null, "opening_hours": null, "label": "Underground car parks", "color": "#737373" }, "geometry": { "type": "Point", "coordinates": [ 8.6698002, 49.4066316 ] } },
{ "type": "Feature", "properties": { "index": "30", "@osmId": "node/303300709", "name": "Landratsamt", "opening_hours": null, "label": "Underground car parks", "color": "#737373" }, "geometry": { "type": "Point", "coordinates": [ 8.6829502, 49.4064148 ] } },
{ "type": "Feature", "properties": { "index": "31", "@osmId": "node/303300716", "name": null, "opening_hours": null, "label": "Underground car parks", "color": "#737373" }, "geometry": { "type": "Point", "coordinates": [ 8.6823327, 49.4072882 ] } },
{ "type": "Feature", "properties": { "index": "32", "@osmId": "node/303316033", "name": null, "opening_hours": null, "label": "Underground car parks", "color": "#737373" }, "geometry": { "type": "Point", "coordinates": [ 8.6846006, 49.4064958 ] } },
{ "type": "Feature", "properties": { "index": "33", "@osmId": "node/303316187", "name": "Stadtbücherei", "opening_hours": "24/7", "label": "Underground car parks", "color": "#737373" }, "geometry": { "type": "Point", "coordinates": [ 8.6861757, 49.4073148 ] } },
{ "type": "Feature", "properties": { "index": "34", "@osmId": "node/1446956951", "name": "Sofienquartier", "opening_hours": "24/7", "label": "Underground car parks", "color": "#737373" }, "geometry": { "type": "Point", "coordinates": [ 8.6941874, 49.4109446 ] } },
{ "type": "Feature", "properties": { "index": "35", "@osmId": "node/1469112521", "name": "Triplex Unibibliothek", "opening_hours": "24/7", "label": "Underground car parks", "color": "#737373" }, "geometry": { "type": "Point", "coordinates": [ 8.7055678, 49.4105302 ] } },
{ "type": "Feature", "properties": { "index": "36", "@osmId": "node/1668724001", "name": "ATOS Klinik", "opening_hours": null, "label": "Underground car parks", "color": "#737373" }, "geometry": { "type": "Point", "coordinates": [ 8.6916552, 49.4101694 ] } },
{ "type": "Feature", "properties": { "index": "37", "@osmId": "node/1676196583", "name": null, "opening_hours": null, "label": "Underground car parks", "color": "#737373" }, "geometry": { "type": "Point", "coordinates": [ 8.6857036, 49.4082733 ] } },
{ "type": "Feature", "properties": { "index": "38", "@osmId": "node/1787190842", "name": null, "opening_hours": null, "label": "Underground car parks", "color": "#737373" }, "geometry": { "type": "Point", "coordinates": [ 8.6884352, 49.4071893 ] } },
{ "type": "Feature", "properties": { "index": "39", "@osmId": "node/2599145016", "name": null, "opening_hours": null, "label": "Underground car parks", "color": "#737373" }, "geometry": { "type": "Point", "coordinates": [ 8.6728462, 49.3981694 ] } },
{ "type": "Feature", "properties": { "index": "40", "@osmId": "node/3171164990", "name": null, "opening_hours": null, "label": "Underground car parks", "color": "#737373" }, "geometry": { "type": "Point", "coordinates": [ 8.6781601, 49.4048766 ] } },
{ "type": "Feature", "properties": { "index": "41", "@osmId": "node/3838687535", "name": null, "opening_hours": null, "label": "Underground car parks", "color": "#737373" }, "geometry": { "type": "Point", "coordinates": [ 8.7153581, 49.4138775 ] } },
{ "type": "Feature", "properties": { "index": "42", "@osmId": "node/4021614238", "name": "Mathematikon", "opening_hours": "24/7", "label": "Underground car parks", "color": "#737373" }, "geometry": { "type": "Point", "coordinates": [ 8.6752669, 49.4182004 ] } },
{ "type": "Feature", "properties": { "index": "43", "@osmId": "node/5048776798", "name": null, "opening_hours": null, "label": "Underground car parks", "color": "#737373" }, "geometry": { "type": "Point", "coordinates": [ 8.6661458, 49.4033026 ] } },
{ "type": "Feature", "properties": { "index": "44", "@osmId": "node/5113640003", "name": "Altes Hallenbad", "opening_hours": null, "label": "Underground car parks", "color": "#737373" }, "geometry": { "type": "Point", "coordinates": [ 8.6880666, 49.407644 ] } },
{ "type": "Feature", "properties": { "index": "45", "@osmId": "node/5316446077", "name": null, "opening_hours": null, "label": "Underground car parks", "color": "#737373" }, "geometry": { "type": "Point", "coordinates": [ 8.6914844, 49.4078917 ] } },
{ "type": "Feature", "properties": { "index": "46", "@osmId": "node/5580801017", "name": null, "opening_hours": null, "label": "Underground car parks", "color": "#737373" }, "geometry": { "type": "Point", "coordinates": [ 8.6721197, 49.3983623 ] } },
{ "type": "Feature", "properties": { "index": "47", "@osmId": "node/6763961024", "name": null, "opening_hours": null, "label": "Underground car parks", "color": "#737373" }, "geometry": { "type": "Point", "coordinates": [ 8.6724333, 49.3998887 ] } },
{ "type": "Feature", "properties": { "index": "48", "@osmId": "node/7066293662", "name": null, "opening_hours": null, "label": "Underground car parks", "color": "#737373" }, "geometry": { "type": "Point", "coordinates": [ 8.6810171, 49.4070823 ] } },
{ "type": "Feature", "properties": { "index": "49", "@osmId": "node/7360196992", "name": "Westarkaden", "opening_hours": null, "label": "Underground car parks", "color": "#737373" }, "geometry": { "type": "Point", "coordinates": [ 8.6668203, 49.4047661 ] } },
{ "type": "Feature", "properties": { "index": "50", "@osmId": "node/10770835117", "name": "Hotelgarage", "opening_hours": null, "label": "Underground car parks", "color": "#737373" }, "geometry": { "type": "Point", "coordinates": [ 8.6869548, 49.4079318 ] } },
{ "type": "Feature", "properties": { "index": "51", "@osmId": "node/11450650466", "name": null, "opening_hours": null, "label": "Underground car parks", "color": "#737373" }, "geometry": { "type": "Point", "coordinates": [ 8.7159, 49.413464 ] } },
{ "type": "Feature", "properties": { "index": "52", "@osmId": "node/11801930762", "name": null, "opening_hours": null, "label": "Underground car parks", "color": "#737373" }, "geometry": { "type": "Point", "coordinates": [ 8.6701028, 49.403341 ] } },
{ "type": "Feature", "properties": { "index": "53", "@osmId": "node/11805894970", "name": null, "opening_hours": null, "label": "Underground car parks", "color": "#737373" }, "geometry": { "type": "Point", "coordinates": [ 8.6690081, 49.4036152 ] } },
{ "type": "Feature", "properties": { "index": "54", "@osmId": "node/11870077707", "name": "Europaplatz", "opening_hours": null, "label": "Underground car parks", "color": "#737373" }, "geometry": { "type": "Point", "coordinates": [ 8.674381, 49.4029461 ] } },
{ "type": "Feature", "properties": { "index": "55", "@osmId": "node/11873901140", "name": "Heidelberg Congress Center", "opening_hours": null, "label": "Underground car parks", "color": "#737373" }, "geometry": { "type": "Point", "coordinates": [ 8.6732836, 49.4012087 ] } },
{ "type": "Feature", "properties": { "index": "56", "@osmId": "node/13300450530", "name": null, "opening_hours": null, "label": "Underground car parks", "color": "#737373" }, "geometry": { "type": "Point", "coordinates": [ 8.6873179, 49.4059294 ] } },
{ "type": "Feature", "properties": { "index": "57", "@osmId": "node/13301009941", "name": null, "opening_hours": null, "label": "Underground car parks", "color": "#737373" }, "geometry": { "type": "Point", "coordinates": [ 8.6818201, 49.4054775 ] } },
{ "type": "Feature", "properties": { "index": "58", "@osmId": "node/13307126950", "name": null, "opening_hours": null, "label": "Underground car parks", "color": "#737373" }, "geometry": { "type": "Point", "coordinates": [ 8.6922615, 49.4030562 ] } },
{ "type": "Feature", "properties": { "index": "59", "@osmId": "relation/3536586", "name": null, "opening_hours": null, "label": "Surface car parks", "color": "#969696" }, "geometry": { "type": "Point", "coordinates": [ 8.6887973, 49.4131244 ] } },
{ "type": "Feature", "properties": { "index": "60", "@osmId": "way/27619163", "name": null, "opening_hours": null, "label": "Surface car parks", "color": "#969696" }, "geometry": { "type": "Point", "coordinates": [ 8.6847311, 49.4162022 ] } },
{ "type": "Feature", "properties": { "index": "61", "@osmId": "way/27619489", "name": null, "opening_hours": null, "label": "Surface car parks", "color": "#969696" }, "geometry": { "type": "Point", "coordinates": [ 8.6812192, 49.4092507 ] } },
{ "type": "Feature", "properties": { "index": "62", "@osmId": "way/108962244", "name": null, "opening_hours": null, "label": "Surface car parks", "color": "#969696" }, "geometry": { "type": "Point", "coordinates": [ 8.6821472, 49.4017361 ] } },
{ "type": "Feature", "properties": { "index": "63", "@osmId": "way/122116389", "name": null, "opening_hours": null, "label": "Surface car parks", "color": "#969696" }, "geometry": { "type": "Point", "coordinates": [ 8.6835747, 49.4097083 ] } },
{ "type": "Feature", "properties": { "index": "64", "@osmId": "way/166514548", "name": null, "opening_hours": null, "label": "Surface car parks", "color": "#969696" }, "geometry": { "type": "Point", "coordinates": [ 8.6956256, 49.4132881 ] } },
{ "type": "Feature", "properties": { "index": "65", "@osmId": "way/166965853", "name": null, "opening_hours": null, "label": "Surface car parks", "color": "#969696" }, "geometry": { "type": "Point", "coordinates": [ 8.6910837, 49.4101311 ] } },
{ "type": "Feature", "properties": { "index": "66", "@osmId": "way/166965854", "name": null, "opening_hours": null, "label": "Surface car parks", "color": "#969696" }, "geometry": { "type": "Point", "coordinates": [ 8.6884515, 49.4101669 ] } },
{ "type": "Feature", "properties": { "index": "67", "@osmId": "way/167051980", "name": null, "opening_hours": null, "label": "Surface car parks", "color": "#969696" }, "geometry": { "type": "Point", "coordinates": [ 8.6918683, 49.4134433 ] } },
{ "type": "Feature", "properties": { "index": "68", "@osmId": "way/167187440", "name": null, "opening_hours": null, "label": "Surface car parks", "color": "#969696" }, "geometry": { "type": "Point", "coordinates": [ 8.6852145, 49.4090505 ] } },
{ "type": "Feature", "properties": { "index": "69", "@osmId": "way/167311137", "name": null, "opening_hours": null, "label": "Surface car parks", "color": "#969696" }, "geometry": { "type": "Point", "coordinates": [ 8.6846085, 49.4016531 ] } },
{ "type": "Feature", "properties": { "index": "70", "@osmId": "way/167311139", "name": null, "opening_hours": null, "label": "Surface car parks", "color": "#969696" }, "geometry": { "type": "Point", "coordinates": [ 8.6856469, 49.4083615 ] } },
{ "type": "Feature", "properties": { "index": "71", "@osmId": "way/171469880", "name": null, "opening_hours": null, "label": "Surface car parks", "color": "#969696" }, "geometry": { "type": "Point", "coordinates": [ 8.6915779, 49.4000249 ] } },
{ "type": "Feature", "properties": { "index": "72", "@osmId": "way/208162627", "name": null, "opening_hours": null, "label": "Surface car parks", "color": "#969696" }, "geometry": { "type": "Point", "coordinates": [ 8.696172, 49.4119188 ] } },
{ "type": "Feature", "properties": { "index": "73", "@osmId": "way/215801267", "name": null, "opening_hours": null, "label": "Surface car parks", "color": "#969696" }, "geometry": { "type": "Point", "coordinates": [ 8.6912034, 49.4165555 ] } },
{ "type": "Feature", "properties": { "index": "74", "@osmId": "way/221181579", "name": null, "opening_hours": null, "label": "Surface car parks", "color": "#969696" }, "geometry": { "type": "Point", "coordinates": [ 8.6896408, 49.4076761 ] } },
{ "type": "Feature", "properties": { "index": "75", "@osmId": "way/221181580", "name": null, "opening_hours": null, "label": "Surface car parks", "color": "#969696" }, "geometry": { "type": "Point", "coordinates": [ 8.68973, 49.4075313 ] } },
{ "type": "Feature", "properties": { "index": "76", "@osmId": "way/222965452", "name": null, "opening_hours": null, "label": "Surface car parks", "color": "#969696" }, "geometry": { "type": "Point", "coordinates": [ 8.6931128, 49.4067994 ] } },
{ "type": "Feature", "properties": { "index": "77", "@osmId": "way/222965455", "name": null, "opening_hours": "24/7", "label": "Surface car parks", "color": "#969696" }, "geometry": { "type": "Point", "coordinates": [ 8.6935143, 49.4067872 ] } },
{ "type": "Feature", "properties": { "index": "78", "@osmId": "way/222989845", "name": null, "opening_hours": null, "label": "Surface car parks", "color": "#969696" }, "geometry": { "type": "Point", "coordinates": [ 8.6988133, 49.4083266 ] } },
{ "type": "Feature", "properties": { "index": "79", "@osmId": "way/222989846", "name": null, "opening_hours": null, "label": "Surface car parks", "color": "#969696" }, "geometry": { "type": "Point", "coordinates": [ 8.6992511, 49.4084032 ] } },
{ "type": "Feature", "properties": { "index": "80", "@osmId": "way/222989847", "name": null, "opening_hours": null, "label": "Surface car parks", "color": "#969696" }, "geometry": { "type": "Point", "coordinates": [ 8.7008519, 49.4086919 ] } },
{ "type": "Feature", "properties": { "index": "81", "@osmId": "way/222995062", "name": null, "opening_hours": null, "label": "Surface car parks", "color": "#969696" }, "geometry": { "type": "Point", "coordinates": [ 8.6993906, 49.4082848 ] } },
{ "type": "Feature", "properties": { "index": "82", "@osmId": "way/263336300", "name": null, "opening_hours": "Mo-Su,PH 00:00-24:00; We,Sa 05:00-14:00 off", "label": "Surface car parks", "color": "#969696" }, "geometry": { "type": "Point", "coordinates": [ 8.690894, 49.4132858 ] } },
{ "type": "Feature", "properties": { "index": "83", "@osmId": "way/266512873", "name": null, "opening_hours": null, "label": "Surface car parks", "color": "#969696" }, "geometry": { "type": "Point", "coordinates": [ 8.6911527, 49.4132967 ] } },
{ "type": "Feature", "properties": { "index": "84", "@osmId": "way/279432388", "name": null, "opening_hours": null, "label": "Surface car parks", "color": "#969696" }, "geometry": { "type": "Point", "coordinates": [ 8.6857627, 49.4057388 ] } },
{ "type": "Feature", "properties": { "index": "85", "@osmId": "way/304451474", "name": null, "opening_hours": "07:00-19:00", "label": "Surface car parks", "color": "#969696" }, "geometry": { "type": "Point", "coordinates": [ 8.692339, 49.3987505 ] } },
{ "type": "Feature", "properties": { "index": "86", "@osmId": "way/304451475", "name": null, "opening_hours": "07:00-19:00", "label": "Surface car parks", "color": "#969696" }, "geometry": { "type": "Point", "coordinates": [ 8.6924261, 49.3986529 ] } },
{ "type": "Feature", "properties": { "index": "87", "@osmId": "way/311466851", "name": null, "opening_hours": null, "label": "Surface car parks", "color": "#969696" }, "geometry": { "type": "Point", "coordinates": [ 8.6800343, 49.4014026 ] } },
{ "type": "Feature", "properties": { "index": "88", "@osmId": "way/315142184", "name": null, "opening_hours": null, "label": "Surface car parks", "color": "#969696" }, "geometry": { "type": "Point", "coordinates": [ 8.6814703, 49.4036426 ] } },
{ "type": "Feature", "properties": { "index": "89", "@osmId": "way/368821341", "name": "Gästeparkplatz Hotel Regina", "opening_hours": null, "label": "Surface car parks", "color": "#969696" }, "geometry": { "type": "Point", "coordinates": [ 8.6914108, 49.4096856 ] } },
{ "type": "Feature", "properties": { "index": "90", "@osmId": "way/369280172", "name": null, "opening_hours": null, "label": "Surface car parks", "color": "#969696" }, "geometry": { "type": "Point", "coordinates": [ 8.6986046, 49.400374 ] } },
{ "type": "Feature", "properties": { "index": "91", "@osmId": "way/375695457", "name": null, "opening_hours": null, "label": "Surface car parks", "color": "#969696" }, "geometry": { "type": "Point", "coordinates": [ 8.6939896, 49.4066586 ] } },
{ "type": "Feature", "properties": { "index": "92", "@osmId": "way/393513640", "name": null, "opening_hours": null, "label": "Surface car parks", "color": "#969696" }, "geometry": { "type": "Point", "coordinates": [ 8.6806226, 49.3988131 ] } },
{ "type": "Feature", "properties": { "index": "93", "@osmId": "way/465845162", "name": null, "opening_hours": null, "label": "Surface car parks", "color": "#969696" }, "geometry": { "type": "Point", "coordinates": [ 8.6965391, 49.4117598 ] } },
{ "type": "Feature", "properties": { "index": "94", "@osmId": "way/583431330", "name": null, "opening_hours": null, "label": "Surface car parks", "color": "#969696" }, "geometry": { "type": "Point", "coordinates": [ 8.6857319, 49.4048092 ] } },
{ "type": "Feature", "properties": { "index": "95", "@osmId": "way/627391827", "name": null, "opening_hours": null, "label": "Surface car parks", "color": "#969696" }, "geometry": { "type": "Point", "coordinates": [ 8.693066, 49.4058233 ] } },
{ "type": "Feature", "properties": { "index": "96", "@osmId": "way/906284870", "name": null, "opening_hours": "07:00-19:00", "label": "Surface car parks", "color": "#969696" }, "geometry": { "type": "Point", "coordinates": [ 8.6925543, 49.3989591 ] } },
{ "type": "Feature", "properties": { "index": "97", "@osmId": "way/946863204", "name": null, "opening_hours": null, "label": "Surface car parks", "color": "#969696" }, "geometry": { "type": "Point", "coordinates": [ 8.6913477, 49.4080522 ] } },
{ "type": "Feature", "properties": { "index": "98", "@osmId": "way/987635390", "name": null, "opening_hours": null, "label": "Surface car parks", "color": "#969696" }, "geometry": { "type": "Point", "coordinates": [ 8.6903438, 49.4136051 ] } },
{ "type": "Feature", "properties": { "index": "99", "@osmId": "way/1046108962", "name": null, "opening_hours": null, "label": "Surface car parks", "color": "#969696" }, "geometry": { "type": "Point", "coordinates": [ 8.6820613, 49.4024563 ] } },
{ "type": "Feature", "properties": { "index": "100", "@osmId": "way/1292413346", "name": null, "opening_hours": null, "label": "Surface car parks", "color": "#969696" }, "geometry": { "type": "Point", "coordinates": [ 8.6962189, 49.4109393 ] } },
{ "type": "Feature", "properties": { "index": "101", "@osmId": "way/1300561751", "name": null, "opening_hours": null, "label": "Surface car parks", "color": "#969696" }, "geometry": { "type": "Point", "coordinates": [ 8.6864315, 49.4085411 ] } },
{ "type": "Feature", "properties": { "index": "102", "@osmId": "way/1300576293", "name": null, "opening_hours": null, "label": "Surface car parks", "color": "#969696" }, "geometry": { "type": "Point", "coordinates": [ 8.6893199, 49.4150353 ] } },
{ "type": "Feature", "properties": { "index": "103", "@osmId": "way/1301910143", "name": null, "opening_hours": null, "label": "Surface car parks", "color": "#969696" }, "geometry": { "type": "Point", "coordinates": [ 8.6860752, 49.4046988 ] } },
{ "type": "Feature", "properties": { "index": "104", "@osmId": "way/1301910147", "name": null, "opening_hours": null, "label": "Surface car parks", "color": "#969696" }, "geometry": { "type": "Point", "coordinates": [ 8.6864491, 49.4047046 ] } },
{ "type": "Feature", "properties": { "index": "105", "@osmId": "way/1303084478", "name": null, "opening_hours": null, "label": "Surface car parks", "color": "#969696" }, "geometry": { "type": "Point", "coordinates": [ 8.6870971, 49.4127929 ] } },
{ "type": "Feature", "properties": { "index": "106", "@osmId": "way/1327934530", "name": null, "opening_hours": null, "label": "Surface car parks", "color": "#969696" }, "geometry": { "type": "Point", "coordinates": [ 8.6936031, 49.4057709 ] } },
{ "type": "Feature", "properties": { "index": "107", "@osmId": "way/1454195259", "name": null, "opening_hours": null, "label": "Surface car parks", "color": "#969696" }, "geometry": { "type": "Point", "coordinates": [ 8.6982767, 49.4077985 ] } },
{ "type": "Feature", "properties": { "index": "108", "@osmId": "way/24684166", "name": "Heiligenberg", "opening_hours": null, "label": "Surface car parks", "color": "#969696" }, "geometry": { "type": "Point", "coordinates": [ 8.7052933, 49.4204583 ] } },
{ "type": "Feature", "properties": { "index": "109", "@osmId": "way/24684168", "name": null, "opening_hours": null, "label": "Surface car parks", "color": "#969696" }, "geometry": { "type": "Point", "coordinates": [ 8.7054424, 49.4219735 ] } },
{ "type": "Feature", "properties": { "index": "110", "@osmId": "way/62293895", "name": null, "opening_hours": null, "label": "Surface car parks", "color": "#969696" }, "geometry": { "type": "Point", "coordinates": [ 8.7045121, 49.4121362 ] } },
{ "type": "Feature", "properties": { "index": "111", "@osmId": "way/131479867", "name": null, "opening_hours": null, "label": "Surface car parks", "color": "#969696" }, "geometry": { "type": "Point", "coordinates": [ 8.7122297, 49.4092111 ] } },
{ "type": "Feature", "properties": { "index": "112", "@osmId": "way/133632022", "name": null, "opening_hours": null, "label": "Surface car parks", "color": "#969696" }, "geometry": { "type": "Point", "coordinates": [ 8.7198546, 49.415078 ] } },
{ "type": "Feature", "properties": { "index": "113", "@osmId": "way/147497884", "name": "Blockhaus", "opening_hours": null, "label": "Surface car parks", "color": "#969696" }, "geometry": { "type": "Point", "coordinates": [ 8.713192, 49.4010779 ] } },
{ "type": "Feature", "properties": { "index": "114", "@osmId": "way/166960585", "name": null, "opening_hours": null, "label": "Surface car parks", "color": "#969696" }, "geometry": { "type": "Point", "coordinates": [ 8.7079033, 49.4096804 ] } },
{ "type": "Feature", "properties": { "index": "115", "@osmId": "way/166960586", "name": null, "opening_hours": null, "label": "Surface car parks", "color": "#969696" }, "geometry": { "type": "Point", "coordinates": [ 8.7075104, 49.4096491 ] } },
{ "type": "Feature", "properties": { "index": "116", "@osmId": "way/168000281", "name": null, "opening_hours": "24/7", "label": "Surface car parks", "color": "#969696" }, "geometry": { "type": "Point", "coordinates": [ 8.7195702, 49.4114792 ] } },
{ "type": "Feature", "properties": { "index": "117", "@osmId": "way/168000283", "name": null, "opening_hours": null, "label": "Surface car parks", "color": "#969696" }, "geometry": { "type": "Point", "coordinates": [ 8.7183158, 49.40905 ] } },
{ "type": "Feature", "properties": { "index": "118", "@osmId": "way/168000285", "name": null, "opening_hours": null, "label": "Surface car parks", "color": "#969696" }, "geometry": { "type": "Point", "coordinates": [ 8.7199812, 49.4086323 ] } },
{ "type": "Feature", "properties": { "index": "119", "@osmId": "way/171574579", "name": null, "opening_hours": null, "label": "Surface car parks", "color": "#969696" }, "geometry": { "type": "Point", "coordinates": [ 8.703994, 49.4070755 ] } },
{ "type": "Feature", "properties": { "index": "120", "@osmId": "way/171574585", "name": null, "opening_hours": null, "label": "Surface car parks", "color": "#969696" }, "geometry": { "type": "Point", "coordinates": [ 8.7102732, 49.4057844 ] } },
{ "type": "Feature", "properties": { "index": "121", "@osmId": "way/171574588", "name": null, "opening_hours": null, "label": "Surface car parks", "color": "#969696" }, "geometry": { "type": "Point", "coordinates": [ 8.7101134, 49.4051168 ] } },
{ "type": "Feature", "properties": { "index": "122", "@osmId": "way/171691951", "name": null, "opening_hours": null, "label": "Surface car parks", "color": "#969696" }, "geometry": { "type": "Point", "coordinates": [ 8.7102407, 49.410014 ] } },
{ "type": "Feature", "properties": { "index": "123", "@osmId": "way/171691954", "name": null, "opening_hours": null, "label": "Surface car parks", "color": "#969696" }, "geometry": { "type": "Point", "coordinates": [ 8.709347, 49.4133754 ] } },
{ "type": "Feature", "properties": { "index": "124", "@osmId": "way/171691955", "name": null, "opening_hours": null, "label": "Surface car parks", "color": "#969696" }, "geometry": { "type": "Point", "coordinates": [ 8.7110679, 49.4104632 ] } },
{ "type": "Feature", "properties": { "index": "125", "@osmId": "way/171691957", "name": null, "opening_hours": null, "label": "Surface car parks", "color": "#969696" }, "geometry": { "type": "Point", "coordinates": [ 8.7121173, 49.4090872 ] } },
{ "type": "Feature", "properties": { "index": "126", "@osmId": "way/173307452", "name": null, "opening_hours": null, "label": "Surface car parks", "color": "#969696" }, "geometry": { "type": "Point", "coordinates": [ 8.7125693, 49.4089678 ] } },
{ "type": "Feature", "properties": { "index": "127", "@osmId": "way/179384122", "name": null, "opening_hours": null, "label": "Surface car parks", "color": "#969696" }, "geometry": { "type": "Point", "coordinates": [ 8.7078579, 49.4071471 ] } },
{ "type": "Feature", "properties": { "index": "128", "@osmId": "way/180108351", "name": null, "opening_hours": null, "label": "Surface car parks", "color": "#969696" }, "geometry": { "type": "Point", "coordinates": [ 8.7133043, 49.4089045 ] } },
{ "type": "Feature", "properties": { "index": "129", "@osmId": "way/180108352", "name": null, "opening_hours": null, "label": "Surface car parks", "color": "#969696" }, "geometry": { "type": "Point", "coordinates": [ 8.7128415, 49.4115358 ] } },
{ "type": "Feature", "properties": { "index": "130", "@osmId": "way/222989109", "name": null, "opening_hours": null, "label": "Surface car parks", "color": "#969696" }, "geometry": { "type": "Point", "coordinates": [ 8.7022493, 49.4088403 ] } },
{ "type": "Feature", "properties": { "index": "131", "@osmId": "way/223978292", "name": null, "opening_hours": "24/7", "label": "Surface car parks", "color": "#969696" }, "geometry": { "type": "Point", "coordinates": [ 8.7198983, 49.4121828 ] } },
{ "type": "Feature", "properties": { "index": "132", "@osmId": "way/223978293", "name": null, "opening_hours": "24/7", "label": "Surface car parks", "color": "#969696" }, "geometry": { "type": "Point", "coordinates": [ 8.7198272, 49.4108875 ] } },
{ "type": "Feature", "properties": { "index": "133", "@osmId": "way/223978294", "name": null, "opening_hours": "24/7", "label": "Surface car parks", "color": "#969696" }, "geometry": { "type": "Point", "coordinates": [ 8.7199207, 49.4120575 ] } },
{ "type": "Feature", "properties": { "index": "134", "@osmId": "way/244473984", "name": null, "opening_hours": null, "label": "Surface car parks", "color": "#969696" }, "geometry": { "type": "Point", "coordinates": [ 8.718835, 49.4094935 ] } },
{ "type": "Feature", "properties": { "index": "135", "@osmId": "way/270570112", "name": null, "opening_hours": null, "label": "Surface car parks", "color": "#969696" }, "geometry": { "type": "Point", "coordinates": [ 8.7123522, 49.4131971 ] } },
{ "type": "Feature", "properties": { "index": "136", "@osmId": "way/302248273", "name": null, "opening_hours": null, "label": "Surface car parks", "color": "#969696" }, "geometry": { "type": "Point", "coordinates": [ 8.7141786, 49.4066615 ] } },
{ "type": "Feature", "properties": { "index": "137", "@osmId": "way/302878343", "name": null, "opening_hours": "24/7", "label": "Surface car parks", "color": "#969696" }, "geometry": { "type": "Point", "coordinates": [ 8.7194999, 49.4113254 ] } },
{ "type": "Feature", "properties": { "index": "138", "@osmId": "way/302878344", "name": null, "opening_hours": "24/7", "label": "Surface car parks", "color": "#969696" }, "geometry": { "type": "Point", "coordinates": [ 8.7197211, 49.4110749 ] } },
{ "type": "Feature", "properties": { "index": "139", "@osmId": "way/313085301", "name": null, "opening_hours": null, "label": "Surface car parks", "color": "#969696" }, "geometry": { "type": "Point", "coordinates": [ 8.7117394, 49.4124223 ] } },
{ "type": "Feature", "properties": { "index": "140", "@osmId": "way/350677470", "name": null, "opening_hours": null, "label": "Surface car parks", "color": "#969696" }, "geometry": { "type": "Point", "coordinates": [ 8.7053652, 49.4128834 ] } },
{ "type": "Feature", "properties": { "index": "141", "@osmId": "way/376380059", "name": null, "opening_hours": null, "label": "Surface car parks", "color": "#969696" }, "geometry": { "type": "Point", "coordinates": [ 8.7066085, 49.4088431 ] } },
{ "type": "Feature", "properties": { "index": "142", "@osmId": "way/388111699", "name": null, "opening_hours": null, "label": "Surface car parks", "color": "#969696" }, "geometry": { "type": "Point", "coordinates": [ 8.7038361, 49.4210847 ] } },
{ "type": "Feature", "properties": { "index": "143", "@osmId": "way/466671734", "name": null, "opening_hours": null, "label": "Surface car parks", "color": "#969696" }, "geometry": { "type": "Point", "coordinates": [ 8.7069299, 49.4152108 ] } },
{ "type": "Feature", "properties": { "index": "144", "@osmId": "way/489309272", "name": null, "opening_hours": null, "label": "Surface car parks", "color": "#969696" }, "geometry": { "type": "Point", "coordinates": [ 8.7125357, 49.4128498 ] } },
{ "type": "Feature", "properties": { "index": "145", "@osmId": "way/584357944", "name": null, "opening_hours": null, "label": "Surface car parks", "color": "#969696" }, "geometry": { "type": "Point", "coordinates": [ 8.7152179, 49.4167257 ] } },
{ "type": "Feature", "properties": { "index": "146", "@osmId": "way/1292399364", "name": null, "opening_hours": null, "label": "Surface car parks", "color": "#969696" }, "geometry": { "type": "Point", "coordinates": [ 8.7102901, 49.4157747 ] } },
{ "type": "Feature", "properties": { "index": "147", "@osmId": "way/1413473563", "name": null, "opening_hours": null, "label": "Surface car parks", "color": "#969696" }, "geometry": { "type": "Point", "coordinates": [ 8.7127622, 49.4105579 ] } },
{ "type": "Feature", "properties": { "index": "148", "@osmId": "way/1422871098", "name": null, "opening_hours": null, "label": "Surface car parks", "color": "#969696" }, "geometry": { "type": "Point", "coordinates": [ 8.7065104, 49.4059557 ] } },
{ "type": "Feature", "properties": { "index": "149", "@osmId": "way/24794024", "name": "Parkplätze Landfriedgelände", "opening_hours": "24/7", "label": "Surface car parks", "color": "#969696" }, "geometry": { "type": "Point", "coordinates": [ 8.6756101, 49.4063273 ] } },
{ "type": "Feature", "properties": { "index": "150", "@osmId": "way/24853958", "name": null, "opening_hours": null, "label": "Surface car parks", "color": "#969696" }, "geometry": { "type": "Point", "coordinates": [ 8.676299, 49.4082191 ] } },
{ "type": "Feature", "properties": { "index": "151", "@osmId": "way/24968878", "name": null, "opening_hours": null, "label": "Surface car parks", "color": "#969696" }, "geometry": { "type": "Point", "coordinates": [ 8.6604458, 49.409997 ] } },
{ "type": "Feature", "properties": { "index": "152", "@osmId": "way/24970858", "name": null, "opening_hours": null, "label": "Surface car parks", "color": "#969696" }, "geometry": { "type": "Point", "coordinates": [ 8.6750463, 49.4213736 ] } },
{ "type": "Feature", "properties": { "index": "153", "@osmId": "way/24974574", "name": null, "opening_hours": null, "label": "Surface car parks", "color": "#969696" }, "geometry": { "type": "Point", "coordinates": [ 8.6757046, 49.4204112 ] } },
{ "type": "Feature", "properties": { "index": "154", "@osmId": "way/24974996", "name": null, "opening_hours": null, "label": "Surface car parks", "color": "#969696" }, "geometry": { "type": "Point", "coordinates": [ 8.6719967, 49.4200841 ] } },
{ "type": "Feature", "properties": { "index": "155", "@osmId": "way/24975167", "name": null, "opening_hours": null, "label": "Surface car parks", "color": "#969696" }, "geometry": { "type": "Point", "coordinates": [ 8.6708422, 49.420689 ] } },
{ "type": "Feature", "properties": { "index": "156", "@osmId": "way/24975342", "name": null, "opening_hours": null, "label": "Surface car parks", "color": "#969696" }, "geometry": { "type": "Point", "coordinates": [ 8.6683518, 49.4210538 ] } },
{ "type": "Feature", "properties": { "index": "157", "@osmId": "way/24975490", "name": "P3", "opening_hours": null, "label": "Surface car parks", "color": "#969696" }, "geometry": { "type": "Point", "coordinates": [ 8.6683457, 49.4200607 ] } },
{ "type": "Feature", "properties": { "index": "158", "@osmId": "way/25039132", "name": null, "opening_hours": null, "label": "Surface car parks", "color": "#969696" }, "geometry": { "type": "Point", "coordinates": [ 8.6767535, 49.4039664 ] } },
{ "type": "Feature", "properties": { "index": "159", "@osmId": "way/25040312", "name": null, "opening_hours": null, "label": "Surface car parks", "color": "#969696" }, "geometry": { "type": "Point", "coordinates": [ 8.6758894, 49.4088143 ] } },
{ "type": "Feature", "properties": { "index": "160", "@osmId": "way/25056007", "name": null, "opening_hours": null, "label": "Surface car parks", "color": "#969696" }, "geometry": { "type": "Point", "coordinates": [ 8.679081, 49.4034111 ] } },
{ "type": "Feature", "properties": { "index": "161", "@osmId": "way/25238592", "name": null, "opening_hours": null, "label": "Surface car parks", "color": "#969696" }, "geometry": { "type": "Point", "coordinates": [ 8.6755305, 49.4162291 ] } },
{ "type": "Feature", "properties": { "index": "162", "@osmId": "way/25262370", "name": null, "opening_hours": null, "label": "Surface car parks", "color": "#969696" }, "geometry": { "type": "Point", "coordinates": [ 8.6738427, 49.4212323 ] } },
{ "type": "Feature", "properties": { "index": "163", "@osmId": "way/25292988", "name": null, "opening_hours": null, "label": "Surface car parks", "color": "#969696" }, "geometry": { "type": "Point", "coordinates": [ 8.6738872, 49.4094075 ] } },
{ "type": "Feature", "properties": { "index": "164", "@osmId": "way/25293371", "name": null, "opening_hours": null, "label": "Surface car parks", "color": "#969696" }, "geometry": { "type": "Point", "coordinates": [ 8.6602593, 49.4089621 ] } },
{ "type": "Feature", "properties": { "index": "165", "@osmId": "way/25304730", "name": null, "opening_hours": null, "label": "Surface car parks", "color": "#969696" }, "geometry": { "type": "Point", "coordinates": [ 8.6739268, 49.4167169 ] } },
{ "type": "Feature", "properties": { "index": "166", "@osmId": "way/25570517", "name": null, "opening_hours": null, "label": "Surface car parks", "color": "#969696" }, "geometry": { "type": "Point", "coordinates": [ 8.6686194, 49.413346 ] } },
{ "type": "Feature", "properties": { "index": "167", "@osmId": "way/25771060", "name": "Parkplatz Kopfklinik", "opening_hours": null, "label": "Surface car parks", "color": "#969696" }, "geometry": { "type": "Point", "coordinates": [ 8.6655606, 49.4194922 ] } },
{ "type": "Feature", "properties": { "index": "168", "@osmId": "way/25805722", "name": null, "opening_hours": null, "label": "Surface car parks", "color": "#969696" }, "geometry": { "type": "Point", "coordinates": [ 8.6818587, 49.4216261 ] } },
{ "type": "Feature", "properties": { "index": "169", "@osmId": "way/25805787", "name": null, "opening_hours": null, "label": "Surface car parks", "color": "#969696" }, "geometry": { "type": "Point", "coordinates": [ 8.676938, 49.4189209 ] } },
{ "type": "Feature", "properties": { "index": "170", "@osmId": "way/25813177", "name": null, "opening_hours": null, "label": "Surface car parks", "color": "#969696" }, "geometry": { "type": "Point", "coordinates": [ 8.6700173, 49.4130791 ] } },
{ "type": "Feature", "properties": { "index": "171", "@osmId": "way/25813185", "name": null, "opening_hours": null, "label": "Surface car parks", "color": "#969696" }, "geometry": { "type": "Point", "coordinates": [ 8.6714856, 49.4134327 ] } },
{ "type": "Feature", "properties": { "index": "172", "@osmId": "way/25815335", "name": null, "opening_hours": null, "label": "Surface car parks", "color": "#969696" }, "geometry": { "type": "Point", "coordinates": [ 8.6785039, 49.4155738 ] } },
{ "type": "Feature", "properties": { "index": "173", "@osmId": "way/25817111", "name": null, "opening_hours": null, "label": "Surface car parks", "color": "#969696" }, "geometry": { "type": "Point", "coordinates": [ 8.6704413, 49.4139318 ] } },
{ "type": "Feature", "properties": { "index": "174", "@osmId": "way/25960093", "name": null, "opening_hours": null, "label": "Surface car parks", "color": "#969696" }, "geometry": { "type": "Point", "coordinates": [ 8.6605712, 49.4195045 ] } },
{ "type": "Feature", "properties": { "index": "175", "@osmId": "way/25960105", "name": null, "opening_hours": null, "label": "Surface car parks", "color": "#969696" }, "geometry": { "type": "Point", "coordinates": [ 8.6640728, 49.4192303 ] } },
{ "type": "Feature", "properties": { "index": "176", "@osmId": "way/26003673", "name": null, "opening_hours": null, "label": "Surface car parks", "color": "#969696" }, "geometry": { "type": "Point", "coordinates": [ 8.6612207, 49.4174705 ] } },
{ "type": "Feature", "properties": { "index": "177", "@osmId": "way/26004975", "name": null, "opening_hours": null, "label": "Surface car parks", "color": "#969696" }, "geometry": { "type": "Point", "coordinates": [ 8.6607804, 49.4166308 ] } },
{ "type": "Feature", "properties": { "index": "178", "@osmId": "way/26088961", "name": null, "opening_hours": null, "label": "Surface car parks", "color": "#969696" }, "geometry": { "type": "Point", "coordinates": [ 8.6745102, 49.4135603 ] } },
{ "type": "Feature", "properties": { "index": "179", "@osmId": "way/26088970", "name": null, "opening_hours": null, "label": "Surface car parks", "color": "#969696" }, "geometry": { "type": "Point", "coordinates": [ 8.6749584, 49.4125845 ] } },
{ "type": "Feature", "properties": { "index": "180", "@osmId": "way/26105284", "name": null, "opening_hours": null, "label": "Surface car parks", "color": "#969696" }, "geometry": { "type": "Point", "coordinates": [ 8.6765063, 49.4063842 ] } },
{ "type": "Feature", "properties": { "index": "181", "@osmId": "way/26107842", "name": null, "opening_hours": null, "label": "Surface car parks", "color": "#969696" }, "geometry": { "type": "Point", "coordinates": [ 8.6629627, 49.4085539 ] } },
{ "type": "Feature", "properties": { "index": "182", "@osmId": "way/26112015", "name": null, "opening_hours": null, "label": "Surface car parks", "color": "#969696" }, "geometry": { "type": "Point", "coordinates": [ 8.6696196, 49.4062503 ] } },
{ "type": "Feature", "properties": { "index": "183", "@osmId": "way/27619158", "name": null, "opening_hours": null, "label": "Surface car parks", "color": "#969696" }, "geometry": { "type": "Point", "coordinates": [ 8.6846986, 49.4171569 ] } },
{ "type": "Feature", "properties": { "index": "184", "@osmId": "way/76844670", "name": null, "opening_hours": null, "label": "Surface car parks", "color": "#969696" }, "geometry": { "type": "Point", "coordinates": [ 8.6746303, 49.3989002 ] } },
{ "type": "Feature", "properties": { "index": "185", "@osmId": "way/87645980", "name": null, "opening_hours": null, "label": "Surface car parks", "color": "#969696" }, "geometry": { "type": "Point", "coordinates": [ 8.6761542, 49.4070566 ] } },
{ "type": "Feature", "properties": { "index": "186", "@osmId": "way/111114205", "name": null, "opening_hours": null, "label": "Surface car parks", "color": "#969696" }, "geometry": { "type": "Point", "coordinates": [ 8.6790138, 49.4021887 ] } },
{ "type": "Feature", "properties": { "index": "187", "@osmId": "way/156194375", "name": "P7", "opening_hours": null, "label": "Surface car parks", "color": "#969696" }, "geometry": { "type": "Point", "coordinates": [ 8.668743, 49.4186668 ] } },
{ "type": "Feature", "properties": { "index": "188", "@osmId": "way/167186558", "name": null, "opening_hours": null, "label": "Surface car parks", "color": "#969696" }, "geometry": { "type": "Point", "coordinates": [ 8.6791316, 49.4088905 ] } },
{ "type": "Feature", "properties": { "index": "189", "@osmId": "way/196732873", "name": null, "opening_hours": null, "label": "Surface car parks", "color": "#969696" }, "geometry": { "type": "Point", "coordinates": [ 8.6604558, 49.405869 ] } },
{ "type": "Feature", "properties": { "index": "190", "@osmId": "way/221850875", "name": null, "opening_hours": null, "label": "Surface car parks", "color": "#969696" }, "geometry": { "type": "Point", "coordinates": [ 8.6890667, 49.419073 ] } },
{ "type": "Feature", "properties": { "index": "191", "@osmId": "way/221850876", "name": null, "opening_hours": null, "label": "Surface car parks", "color": "#969696" }, "geometry": { "type": "Point", "coordinates": [ 8.6903296, 49.4187489 ] } },
{ "type": "Feature", "properties": { "index": "192", "@osmId": "way/221850877", "name": null, "opening_hours": null, "label": "Surface car parks", "color": "#969696" }, "geometry": { "type": "Point", "coordinates": [ 8.6904506, 49.4187098 ] } },
{ "type": "Feature", "properties": { "index": "193", "@osmId": "way/225875414", "name": null, "opening_hours": null, "label": "Surface car parks", "color": "#969696" }, "geometry": { "type": "Point", "coordinates": [ 8.6800477, 49.4211178 ] } },
{ "type": "Feature", "properties": { "index": "194", "@osmId": "way/225875415", "name": null, "opening_hours": null, "label": "Surface car parks", "color": "#969696" }, "geometry": { "type": "Point", "coordinates": [ 8.6788357, 49.4210926 ] } },
{ "type": "Feature", "properties": { "index": "195", "@osmId": "way/236220659", "name": null, "opening_hours": null, "label": "Surface car parks", "color": "#969696" }, "geometry": { "type": "Point", "coordinates": [ 8.6777804, 49.4030617 ] } },
{ "type": "Feature", "properties": { "index": "196", "@osmId": "way/242879741", "name": null, "opening_hours": null, "label": "Surface car parks", "color": "#969696" }, "geometry": { "type": "Point", "coordinates": [ 8.6760376, 49.4067295 ] } },
{ "type": "Feature", "properties": { "index": "197", "@osmId": "way/263647997", "name": null, "opening_hours": null, "label": "Surface car parks", "color": "#969696" }, "geometry": { "type": "Point", "coordinates": [ 8.6699801, 49.4155155 ] } },
{ "type": "Feature", "properties": { "index": "198", "@osmId": "way/264842608", "name": null, "opening_hours": null, "label": "Surface car parks", "color": "#969696" }, "geometry": { "type": "Point", "coordinates": [ 8.668125, 49.4068284 ] } },
{ "type": "Feature", "properties": { "index": "199", "@osmId": "way/264842610", "name": null, "opening_hours": null, "label": "Surface car parks", "color": "#969696" }, "geometry": { "type": "Point", "coordinates": [ 8.6691295, 49.4072781 ] } },
{ "type": "Feature", "properties": { "index": "200", "@osmId": "way/264842611", "name": null, "opening_hours": null, "label": "Surface car parks", "color": "#969696" }, "geometry": { "type": "Point", "coordinates": [ 8.6693318, 49.4072936 ] } },
{ "type": "Feature", "properties": { "index": "201", "@osmId": "way/267200767", "name": "Parkplatz Blutbank", "opening_hours": null, "label": "Surface car parks", "color": "#969696" }, "geometry": { "type": "Point", "coordinates": [ 8.6703454, 49.4160814 ] } },
{ "type": "Feature", "properties": { "index": "202", "@osmId": "way/267200768", "name": "Betriebsgelände Mensa Parkplatz", "opening_hours": null, "label": "Surface car parks", "color": "#969696" }, "geometry": { "type": "Point", "coordinates": [ 8.6705524, 49.4159612 ] } },
{ "type": "Feature", "properties": { "index": "203", "@osmId": "way/267206694", "name": null, "opening_hours": null, "label": "Surface car parks", "color": "#969696" }, "geometry": { "type": "Point", "coordinates": [ 8.6692959, 49.4160945 ] } },
{ "type": "Feature", "properties": { "index": "204", "@osmId": "way/276687797", "name": null, "opening_hours": null, "label": "Surface car parks", "color": "#969696" }, "geometry": { "type": "Point", "coordinates": [ 8.670061, 49.4160191 ] } },
{ "type": "Feature", "properties": { "index": "205", "@osmId": "way/276687798", "name": null, "opening_hours": null, "label": "Surface car parks", "color": "#969696" }, "geometry": { "type": "Point", "coordinates": [ 8.6706782, 49.4160763 ] } },
{ "type": "Feature", "properties": { "index": "206", "@osmId": "way/283587557", "name": null, "opening_hours": null, "label": "Surface car parks", "color": "#969696" }, "geometry": { "type": "Point", "coordinates": [ 8.6783241, 49.400017 ] } },
{ "type": "Feature", "properties": { "index": "207", "@osmId": "way/312155117", "name": null, "opening_hours": null, "label": "Surface car parks", "color": "#969696" }, "geometry": { "type": "Point", "coordinates": [ 8.69258, 49.4166596 ] } },
{ "type": "Feature", "properties": { "index": "208", "@osmId": "way/345764149", "name": null, "opening_hours": null, "label": "Surface car parks", "color": "#969696" }, "geometry": { "type": "Point", "coordinates": [ 8.6724365, 49.4135349 ] } },
{ "type": "Feature", "properties": { "index": "209", "@osmId": "way/364970836", "name": null, "opening_hours": null, "label": "Surface car parks", "color": "#969696" }, "geometry": { "type": "Point", "coordinates": [ 8.6600655, 49.4160272 ] } },
{ "type": "Feature", "properties": { "index": "210", "@osmId": "way/370165856", "name": null, "opening_hours": null, "label": "Surface car parks", "color": "#969696" }, "geometry": { "type": "Point", "coordinates": [ 8.6788906, 49.3980001 ] } },
{ "type": "Feature", "properties": { "index": "211", "@osmId": "way/454467056", "name": null, "opening_hours": null, "label": "Surface car parks", "color": "#969696" }, "geometry": { "type": "Point", "coordinates": [ 8.6760322, 49.4000745 ] } },
{ "type": "Feature", "properties": { "index": "212", "@osmId": "way/583748995", "name": null, "opening_hours": null, "label": "Surface car parks", "color": "#969696" }, "geometry": { "type": "Point", "coordinates": [ 8.6723125, 49.39834 ] } },
{ "type": "Feature", "properties": { "index": "213", "@osmId": "way/691654273", "name": null, "opening_hours": null, "label": "Surface car parks", "color": "#969696" }, "geometry": { "type": "Point", "coordinates": [ 8.677153, 49.3988792 ] } },
{ "type": "Feature", "properties": { "index": "214", "@osmId": "way/693240064", "name": null, "opening_hours": null, "label": "Surface car parks", "color": "#969696" }, "geometry": { "type": "Point", "coordinates": [ 8.670635, 49.4177517 ] } },
{ "type": "Feature", "properties": { "index": "215", "@osmId": "way/693668249", "name": null, "opening_hours": null, "label": "Surface car parks", "color": "#969696" }, "geometry": { "type": "Point", "coordinates": [ 8.6683074, 49.4175363 ] } },
{ "type": "Feature", "properties": { "index": "216", "@osmId": "way/693668250", "name": null, "opening_hours": null, "label": "Surface car parks", "color": "#969696" }, "geometry": { "type": "Point", "coordinates": [ 8.6684328, 49.4175348 ] } },
{ "type": "Feature", "properties": { "index": "217", "@osmId": "way/693676761", "name": null, "opening_hours": null, "label": "Surface car parks", "color": "#969696" }, "geometry": { "type": "Point", "coordinates": [ 8.668862, 49.4161059 ] } },
{ "type": "Feature", "properties": { "index": "218", "@osmId": "way/693697065", "name": null, "opening_hours": null, "label": "Surface car parks", "color": "#969696" }, "geometry": { "type": "Point", "coordinates": [ 8.669029, 49.4164862 ] } },
{ "type": "Feature", "properties": { "index": "219", "@osmId": "way/693697066", "name": null, "opening_hours": null, "label": "Surface car parks", "color": "#969696" }, "geometry": { "type": "Point", "coordinates": [ 8.6685709, 49.4168413 ] } },
{ "type": "Feature", "properties": { "index": "220", "@osmId": "way/693697067", "name": null, "opening_hours": null, "label": "Surface car parks", "color": "#969696" }, "geometry": { "type": "Point", "coordinates": [ 8.6686664, 49.416894 ] } },
{ "type": "Feature", "properties": { "index": "221", "@osmId": "way/693697068", "name": null, "opening_hours": null, "label": "Surface car parks", "color": "#969696" }, "geometry": { "type": "Point", "coordinates": [ 8.6684859, 49.4167513 ] } },
{ "type": "Feature", "properties": { "index": "222", "@osmId": "way/693697069", "name": null, "opening_hours": null, "label": "Surface car parks", "color": "#969696" }, "geometry": { "type": "Point", "coordinates": [ 8.6680621, 49.4167538 ] } },
{ "type": "Feature", "properties": { "index": "223", "@osmId": "way/693697070", "name": null, "opening_hours": null, "label": "Surface car parks", "color": "#969696" }, "geometry": { "type": "Point", "coordinates": [ 8.6682408, 49.4167526 ] } },
{ "type": "Feature", "properties": { "index": "224", "@osmId": "way/693697071", "name": null, "opening_hours": null, "label": "Surface car parks", "color": "#969696" }, "geometry": { "type": "Point", "coordinates": [ 8.6690829, 49.4164088 ] } },
{ "type": "Feature", "properties": { "index": "225", "@osmId": "way/693697072", "name": null, "opening_hours": null, "label": "Surface car parks", "color": "#969696" }, "geometry": { "type": "Point", "coordinates": [ 8.6684427, 49.4163602 ] } },
{ "type": "Feature", "properties": { "index": "226", "@osmId": "way/693697073", "name": null, "opening_hours": null, "label": "Surface car parks", "color": "#969696" }, "geometry": { "type": "Point", "coordinates": [ 8.6685984, 49.4164767 ] } },
{ "type": "Feature", "properties": { "index": "227", "@osmId": "way/693697074", "name": null, "opening_hours": null, "label": "Surface car parks", "color": "#969696" }, "geometry": { "type": "Point", "coordinates": [ 8.6689164, 49.4169066 ] } },
{ "type": "Feature", "properties": { "index": "228", "@osmId": "way/715905238", "name": null, "opening_hours": null, "label": "Surface car parks", "color": "#969696" }, "geometry": { "type": "Point", "coordinates": [ 8.6712316, 49.4186616 ] } },
{ "type": "Feature", "properties": { "index": "229", "@osmId": "way/778647048", "name": null, "opening_hours": null, "label": "Surface car parks", "color": "#969696" }, "geometry": { "type": "Point", "coordinates": [ 8.677746, 49.3986369 ] } },
{ "type": "Feature", "properties": { "index": "230", "@osmId": "way/855298212", "name": null, "opening_hours": null, "label": "Surface car parks", "color": "#969696" }, "geometry": { "type": "Point", "coordinates": [ 8.6771081, 49.40831 ] } },
{ "type": "Feature", "properties": { "index": "231", "@osmId": "way/894520645", "name": null, "opening_hours": null, "label": "Surface car parks", "color": "#969696" }, "geometry": { "type": "Point", "coordinates": [ 8.6604169, 49.4067155 ] } },
{ "type": "Feature", "properties": { "index": "232", "@osmId": "way/894520647", "name": null, "opening_hours": null, "label": "Surface car parks", "color": "#969696" }, "geometry": { "type": "Point", "coordinates": [ 8.6611265, 49.4066825 ] } },
{ "type": "Feature", "properties": { "index": "233", "@osmId": "way/894520648", "name": null, "opening_hours": null, "label": "Surface car parks", "color": "#969696" }, "geometry": { "type": "Point", "coordinates": [ 8.6622915, 49.4066459 ] } },
{ "type": "Feature", "properties": { "index": "234", "@osmId": "way/894520649", "name": null, "opening_hours": null, "label": "Surface car parks", "color": "#969696" }, "geometry": { "type": "Point", "coordinates": [ 8.6627319, 49.4066327 ] } },
{ "type": "Feature", "properties": { "index": "235", "@osmId": "way/896136092", "name": null, "opening_hours": null, "label": "Surface car parks", "color": "#969696" }, "geometry": { "type": "Point", "coordinates": [ 8.664468, 49.404734 ] } },
{ "type": "Feature", "properties": { "index": "236", "@osmId": "way/901228308", "name": null, "opening_hours": null, "label": "Surface car parks", "color": "#969696" }, "geometry": { "type": "Point", "coordinates": [ 8.6638353, 49.4053961 ] } },
{ "type": "Feature", "properties": { "index": "237", "@osmId": "way/902824366", "name": null, "opening_hours": null, "label": "Surface car parks", "color": "#969696" }, "geometry": { "type": "Point", "coordinates": [ 8.6661296, 49.405089 ] } },
{ "type": "Feature", "properties": { "index": "238", "@osmId": "way/902824367", "name": null, "opening_hours": null, "label": "Surface car parks", "color": "#969696" }, "geometry": { "type": "Point", "coordinates": [ 8.6660825, 49.4045517 ] } },
{ "type": "Feature", "properties": { "index": "239", "@osmId": "way/902824369", "name": null, "opening_hours": null, "label": "Surface car parks", "color": "#969696" }, "geometry": { "type": "Point", "coordinates": [ 8.6649092, 49.4052195 ] } },
{ "type": "Feature", "properties": { "index": "240", "@osmId": "way/1004326665", "name": null, "opening_hours": null, "label": "Surface car parks", "color": "#969696" }, "geometry": { "type": "Point", "coordinates": [ 8.6600548, 49.4094512 ] } },
{ "type": "Feature", "properties": { "index": "241", "@osmId": "way/1076126225", "name": null, "opening_hours": null, "label": "Surface car parks", "color": "#969696" }, "geometry": { "type": "Point", "coordinates": [ 8.6629234, 49.4189554 ] } },
{ "type": "Feature", "properties": { "index": "242", "@osmId": "way/1076195582", "name": null, "opening_hours": null, "label": "Surface car parks", "color": "#969696" }, "geometry": { "type": "Point", "coordinates": [ 8.6611158, 49.4187509 ] } },
{ "type": "Feature", "properties": { "index": "243", "@osmId": "way/1117650527", "name": null, "opening_hours": null, "label": "Surface car parks", "color": "#969696" }, "geometry": { "type": "Point", "coordinates": [ 8.7004408, 49.4084502 ] } },
{ "type": "Feature", "properties": { "index": "244", "@osmId": "way/1142006483", "name": null, "opening_hours": "24/7", "label": "Surface car parks", "color": "#969696" }, "geometry": { "type": "Point", "coordinates": [ 8.6644578, 49.4151206 ] } },
{ "type": "Feature", "properties": { "index": "245", "@osmId": "way/1164101853", "name": null, "opening_hours": null, "label": "Surface car parks", "color": "#969696" }, "geometry": { "type": "Point", "coordinates": [ 8.6702426, 49.4072604 ] } },
{ "type": "Feature", "properties": { "index": "246", "@osmId": "way/1164101854", "name": null, "opening_hours": null, "label": "Surface car parks", "color": "#969696" }, "geometry": { "type": "Point", "coordinates": [ 8.6702861, 49.4071835 ] } },
{ "type": "Feature", "properties": { "index": "247", "@osmId": "way/1230832329", "name": null, "opening_hours": null, "label": "Surface car parks", "color": "#969696" }, "geometry": { "type": "Point", "coordinates": [ 8.6703371, 49.3981398 ] } },
{ "type": "Feature", "properties": { "index": "248", "@osmId": "way/1230832330", "name": null, "opening_hours": null, "label": "Surface car parks", "color": "#969696" }, "geometry": { "type": "Point", "coordinates": [ 8.6700093, 49.3981583 ] } },
{ "type": "Feature", "properties": { "index": "249", "@osmId": "way/1253664390", "name": null, "opening_hours": null, "label": "Surface car parks", "color": "#969696" }, "geometry": { "type": "Point", "coordinates": [ 8.6639327, 49.4187402 ] } },
{ "type": "Feature", "properties": { "index": "250", "@osmId": "way/1253666451", "name": null, "opening_hours": null, "label": "Surface car parks", "color": "#969696" }, "geometry": { "type": "Point", "coordinates": [ 8.665226, 49.4209942 ] } },
{ "type": "Feature", "properties": { "index": "251", "@osmId": "way/1282780492", "name": null, "opening_hours": null, "label": "Surface car parks", "color": "#969696" }, "geometry": { "type": "Point", "coordinates": [ 8.6727894, 49.4066538 ] } },
{ "type": "Feature", "properties": { "index": "252", "@osmId": "way/1282793226", "name": null, "opening_hours": null, "label": "Surface car parks", "color": "#969696" }, "geometry": { "type": "Point", "coordinates": [ 8.6727687, 49.4072574 ] } },
{ "type": "Feature", "properties": { "index": "253", "@osmId": "way/1296886353", "name": null, "opening_hours": null, "label": "Surface car parks", "color": "#969696" }, "geometry": { "type": "Point", "coordinates": [ 8.6697072, 49.4149429 ] } },
{ "type": "Feature", "properties": { "index": "254", "@osmId": "way/1329439780", "name": null, "opening_hours": null, "label": "Surface car parks", "color": "#969696" }, "geometry": { "type": "Point", "coordinates": [ 8.6703496, 49.4131244 ] } },
{ "type": "Feature", "properties": { "index": "255", "@osmId": "way/1337238574", "name": null, "opening_hours": null, "label": "Surface car parks", "color": "#969696" }, "geometry": { "type": "Point", "coordinates": [ 8.6705401, 49.4092069 ] } },
{ "type": "Feature", "properties": { "index": "256", "@osmId": "way/1337238575", "name": null, "opening_hours": null, "label": "Surface car parks", "color": "#969696" }, "geometry": { "type": "Point", "coordinates": [ 8.6702399, 49.4092161 ] } },
{ "type": "Feature", "properties": { "index": "257", "@osmId": "way/1354043331", "name": null, "opening_hours": null, "label": "Surface car parks", "color": "#969696" }, "geometry": { "type": "Point", "coordinates": [ 8.6718847, 49.4068114 ] } },
{ "type": "Feature", "properties": { "index": "258", "@osmId": "way/1417554887", "name": null, "opening_hours": null, "label": "Surface car parks", "color": "#969696" }, "geometry": { "type": "Point", "coordinates": [ 8.6629834, 49.4061047 ] } },
{ "type": "Feature", "properties": { "index": "259", "@osmId": "way/1417554888", "name": null, "opening_hours": null, "label": "Surface car parks", "color": "#969696" }, "geometry": { "type": "Point", "coordinates": [ 8.6627305, 49.4060424 ] } },
{ "type": "Feature", "properties": { "index": "260", "@osmId": "way/1418741201", "name": null, "opening_hours": null, "label": "Surface car parks", "color": "#969696" }, "geometry": { "type": "Point", "coordinates": [ 8.6779951, 49.4082154 ] } },
{ "type": "Feature", "properties": { "index": "261", "@osmId": "way/1425543300", "name": null, "opening_hours": null, "label": "Surface car parks", "color": "#969696" }, "geometry": { "type": "Point", "coordinates": [ 8.6662767, 49.4127772 ] } },
{ "type": "Feature", "properties": { "index": "262", "@osmId": "way/1472186977", "name": null, "opening_hours": null, "label": "Surface car parks", "color": "#969696" }, "geometry": { "type": "Point", "coordinates": [ 8.6673976, 49.3980585 ] } },
{ "type": "Feature", "properties": { "index": "263", "@osmId": "node/1015786083", "name": null, "opening_hours": null, "label": "Surface car parks", "color": "#969696" }, "geometry": { "type": "Point", "coordinates": [ 8.7081342, 49.4132914 ] } },
{ "type": "Feature", "properties": { "index": "264", "@osmId": "node/1015820281", "name": null, "opening_hours": null, "label": "Surface car parks", "color": "#969696" }, "geometry": { "type": "Point", "coordinates": [ 8.6938003, 49.4088903 ] } },
{ "type": "Feature", "properties": { "index": "265", "@osmId": "node/1015820285", "name": null, "opening_hours": null, "label": "Surface car parks", "color": "#969696" }, "geometry": { "type": "Point", "coordinates": [ 8.7118726, 49.4126713 ] } },
{ "type": "Feature", "properties": { "index": "266", "@osmId": "node/1015820298", "name": "Juristisches Seminar", "opening_hours": null, "label": "Surface car parks", "color": "#969696" }, "geometry": { "type": "Point", "coordinates": [ 8.6968388, 49.407925 ] } },
{ "type": "Feature", "properties": { "index": "267", "@osmId": "node/1015820328", "name": null, "opening_hours": null, "label": "Surface car parks", "color": "#969696" }, "geometry": { "type": "Point", "coordinates": [ 8.697748, 49.4102391 ] } },
{ "type": "Feature", "properties": { "index": "268", "@osmId": "node/1179006609", "name": null, "opening_hours": null, "label": "Surface car parks", "color": "#969696" }, "geometry": { "type": "Point", "coordinates": [ 8.7188097, 49.4145019 ] } },
{ "type": "Feature", "properties": { "index": "269", "@osmId": "node/1801743070", "name": null, "opening_hours": null, "label": "Surface car parks", "color": "#969696" }, "geometry": { "type": "Point", "coordinates": [ 8.6801373, 49.4077773 ] } },
{ "type": "Feature", "properties": { "index": "270", "@osmId": "node/1801759023", "name": null, "opening_hours": null, "label": "Surface car parks", "color": "#969696" }, "geometry": { "type": "Point", "coordinates": [ 8.6789696, 49.4072067 ] } },
{ "type": "Feature", "properties": { "index": "271", "@osmId": "node/1801759029", "name": null, "opening_hours": null, "label": "Surface car parks", "color": "#969696" }, "geometry": { "type": "Point", "coordinates": [ 8.6789231, 49.4083342 ] } },
{ "type": "Feature", "properties": { "index": "272", "@osmId": "node/1809951738", "name": null, "opening_hours": null, "label": "Surface car parks", "color": "#969696" }, "geometry": { "type": "Point", "coordinates": [ 8.681833, 49.4088561 ] } },
{ "type": "Feature", "properties": { "index": "273", "@osmId": "node/1809994981", "name": null, "opening_hours": null, "label": "Surface car parks", "color": "#969696" }, "geometry": { "type": "Point", "coordinates": [ 8.6901438, 49.4145805 ] } },
{ "type": "Feature", "properties": { "index": "274", "@osmId": "node/1809994982", "name": null, "opening_hours": null, "label": "Surface car parks", "color": "#969696" }, "geometry": { "type": "Point", "coordinates": [ 8.691164, 49.418497 ] } },
{ "type": "Feature", "properties": { "index": "275", "@osmId": "node/1809994983", "name": null, "opening_hours": null, "label": "Surface car parks", "color": "#969696" }, "geometry": { "type": "Point", "coordinates": [ 8.6871936, 49.4186745 ] } },
{ "type": "Feature", "properties": { "index": "276", "@osmId": "node/1810009441", "name": null, "opening_hours": null, "label": "Surface car parks", "color": "#969696" }, "geometry": { "type": "Point", "coordinates": [ 8.6810379, 49.4035002 ] } },
{ "type": "Feature", "properties": { "index": "277", "@osmId": "node/3302900279", "name": "Hotel Panorama", "opening_hours": null, "label": "Surface car parks", "color": "#969696" }, "geometry": { "type": "Point", "coordinates": [ 8.6917261, 49.4110761 ] } },
{ "type": "Feature", "properties": { "index": "278", "@osmId": "node/3370587011", "name": "Fritz Berger", "opening_hours": null, "label": "Surface car parks", "color": "#969696" }, "geometry": { "type": "Point", "coordinates": [ 8.678525, 49.3984302 ] } },
{ "type": "Feature", "properties": { "index": "279", "@osmId": "node/6255453485", "name": null, "opening_hours": null, "label": "Surface car parks", "color": "#969696" }, "geometry": { "type": "Point", "coordinates": [ 8.6936107, 49.4109741 ] } },
{ "type": "Feature", "properties": { "index": "280", "@osmId": "node/13756973080", "name": null, "opening_hours": null, "label": "Surface car parks", "color": "#969696" }, "geometry": { "type": "Point", "coordinates": [ 8.6855396, 49.4016026 ] } },
{ "type": "Feature", "properties": { "index": "281", "@osmId": "way/25262372", "name": null, "opening_hours": null, "label": "Street-side parking", "color": "#bdbdbd" }, "geometry": { "type": "Point", "coordinates": [ 8.6726885, 49.4210551 ] } },
{ "type": "Feature", "properties": { "index": "282", "@osmId": "way/25570514", "name": null, "opening_hours": null, "label": "Street-side parking", "color": "#bdbdbd" }, "geometry": { "type": "Point", "coordinates": [ 8.6686267, 49.4135383 ] } },
{ "type": "Feature", "properties": { "index": "283", "@osmId": "way/25806734", "name": null, "opening_hours": null, "label": "Street-side parking", "color": "#bdbdbd" }, "geometry": { "type": "Point", "coordinates": [ 8.6775048, 49.4210766 ] } },
{ "type": "Feature", "properties": { "index": "284", "@osmId": "way/25812180", "name": null, "opening_hours": null, "label": "Street-side parking", "color": "#bdbdbd" }, "geometry": { "type": "Point", "coordinates": [ 8.6671286, 49.421166 ] } },
{ "type": "Feature", "properties": { "index": "285", "@osmId": "way/26004417", "name": null, "opening_hours": "Di-So 00:00-24:00", "label": "Street-side parking", "color": "#bdbdbd" }, "geometry": { "type": "Point", "coordinates": [ 8.6602451, 49.4178612 ] } },
{ "type": "Feature", "properties": { "index": "286", "@osmId": "way/167051978", "name": null, "opening_hours": null, "label": "Street-side parking", "color": "#bdbdbd" }, "geometry": { "type": "Point", "coordinates": [ 8.6774545, 49.4169025 ] } },
{ "type": "Feature", "properties": { "index": "287", "@osmId": "way/167051979", "name": null, "opening_hours": null, "label": "Street-side parking", "color": "#bdbdbd" }, "geometry": { "type": "Point", "coordinates": [ 8.6775259, 49.4170452 ] } },
{ "type": "Feature", "properties": { "index": "288", "@osmId": "way/693705952", "name": null, "opening_hours": null, "label": "Street-side parking", "color": "#bdbdbd" }, "geometry": { "type": "Point", "coordinates": [ 8.6828892, 49.4197495 ] } },
{ "type": "Feature", "properties": { "index": "289", "@osmId": "way/894520646", "name": null, "opening_hours": null, "label": "Street-side parking", "color": "#bdbdbd" }, "geometry": { "type": "Point", "coordinates": [ 8.6609342, 49.4065001 ] } },
{ "type": "Feature", "properties": { "index": "290", "@osmId": "way/1137830646", "name": null, "opening_hours": null, "label": "Street-side parking", "color": "#bdbdbd" }, "geometry": { "type": "Point", "coordinates": [ 8.6660549, 49.414487 ] } },
{ "type": "Feature", "properties": { "index": "291", "@osmId": "way/1152457578", "name": null, "opening_hours": null, "label": "Street-side parking", "color": "#bdbdbd" }, "geometry": { "type": "Point", "coordinates": [ 8.6853688, 49.4179088 ] } },
{ "type": "Feature", "properties": { "index": "292", "@osmId": "way/1289403070", "name": null, "opening_hours": null, "label": "Street-side parking", "color": "#bdbdbd" }, "geometry": { "type": "Point", "coordinates": [ 8.667563, 49.4180803 ] } },
{ "type": "Feature", "properties": { "index": "293", "@osmId": "way/1289403071", "name": null, "opening_hours": null, "label": "Street-side parking", "color": "#bdbdbd" }, "geometry": { "type": "Point", "coordinates": [ 8.6675184, 49.4178805 ] } },
{ "type": "Feature", "properties": { "index": "294", "@osmId": "way/1289403072", "name": null, "opening_hours": null, "label": "Street-side parking", "color": "#bdbdbd" }, "geometry": { "type": "Point", "coordinates": [ 8.6675411, 49.4179862 ] } },
{ "type": "Feature", "properties": { "index": "295", "@osmId": "way/1421401604", "name": null, "opening_hours": null, "label": "Street-side parking", "color": "#bdbdbd" }, "geometry": { "type": "Point", "coordinates": [ 8.6741599, 49.4020811 ] } },
{ "type": "Feature", "properties": { "index": "296", "@osmId": "way/1421401606", "name": null, "opening_hours": null, "label": "Street-side parking", "color": "#bdbdbd" }, "geometry": { "type": "Point", "coordinates": [ 8.6743489, 49.4019899 ] } },
{ "type": "Feature", "properties": { "index": "297", "@osmId": "way/1452294313", "name": null, "opening_hours": null, "label": "Street-side parking", "color": "#bdbdbd" }, "geometry": { "type": "Point", "coordinates": [ 8.6733431, 49.4089936 ] } },
{ "type": "Feature", "properties": { "index": "298", "@osmId": "way/25040154", "name": null, "opening_hours": "24/7", "label": "Street-side parking", "color": "#bdbdbd" }, "geometry": { "type": "Point", "coordinates": [ 8.6897806, 49.405887 ] } },
{ "type": "Feature", "properties": { "index": "299", "@osmId": "way/25040156", "name": null, "opening_hours": "24/7", "label": "Street-side parking", "color": "#bdbdbd" }, "geometry": { "type": "Point", "coordinates": [ 8.6905373, 49.4060196 ] } },
{ "type": "Feature", "properties": { "index": "300", "@osmId": "way/25040158", "name": null, "opening_hours": "24/7", "label": "Street-side parking", "color": "#bdbdbd" }, "geometry": { "type": "Point", "coordinates": [ 8.6912929, 49.4061514 ] } },
{ "type": "Feature", "properties": { "index": "301", "@osmId": "way/27937390", "name": null, "opening_hours": null, "label": "Street-side parking", "color": "#bdbdbd" }, "geometry": { "type": "Point", "coordinates": [ 8.6819261, 49.3980869 ] } },
{ "type": "Feature", "properties": { "index": "302", "@osmId": "way/166959846", "name": null, "opening_hours": null, "label": "Street-side parking", "color": "#bdbdbd" }, "geometry": { "type": "Point", "coordinates": [ 8.693921, 49.4084267 ] } },
{ "type": "Feature", "properties": { "index": "303", "@osmId": "way/166959847", "name": null, "opening_hours": null, "label": "Street-side parking", "color": "#bdbdbd" }, "geometry": { "type": "Point", "coordinates": [ 8.6941716, 49.4078262 ] } },
{ "type": "Feature", "properties": { "index": "304", "@osmId": "way/166967457", "name": null, "opening_hours": null, "label": "Street-side parking", "color": "#bdbdbd" }, "geometry": { "type": "Point", "coordinates": [ 8.6890057, 49.4099175 ] } },
{ "type": "Feature", "properties": { "index": "305", "@osmId": "way/167187439", "name": null, "opening_hours": null, "label": "Street-side parking", "color": "#bdbdbd" }, "geometry": { "type": "Point", "coordinates": [ 8.6834313, 49.4080373 ] } },
{ "type": "Feature", "properties": { "index": "306", "@osmId": "way/167187441", "name": null, "opening_hours": null, "label": "Street-side parking", "color": "#bdbdbd" }, "geometry": { "type": "Point", "coordinates": [ 8.6865168, 49.4092828 ] } },
{ "type": "Feature", "properties": { "index": "307", "@osmId": "way/302203387", "name": null, "opening_hours": null, "label": "Street-side parking", "color": "#bdbdbd" }, "geometry": { "type": "Point", "coordinates": [ 8.6911773, 49.4101553 ] } },
{ "type": "Feature", "properties": { "index": "308", "@osmId": "way/583432338", "name": null, "opening_hours": "24/7", "label": "Street-side parking", "color": "#bdbdbd" }, "geometry": { "type": "Point", "coordinates": [ 8.685827, 49.405273 ] } },
{ "type": "Feature", "properties": { "index": "309", "@osmId": "way/583444864", "name": null, "opening_hours": null, "label": "Street-side parking", "color": "#bdbdbd" }, "geometry": { "type": "Point", "coordinates": [ 8.684879, 49.4050811 ] } },
{ "type": "Feature", "properties": { "index": "310", "@osmId": "way/795164916", "name": null, "opening_hours": null, "label": "Street-side parking", "color": "#bdbdbd" }, "geometry": { "type": "Point", "coordinates": [ 8.6797913, 49.404277 ] } },
{ "type": "Feature", "properties": { "index": "311", "@osmId": "way/946863205", "name": null, "opening_hours": null, "label": "Street-side parking", "color": "#bdbdbd" }, "geometry": { "type": "Point", "coordinates": [ 8.6914842, 49.4080732 ] } },
{ "type": "Feature", "properties": { "index": "312", "@osmId": "way/953387363", "name": null, "opening_hours": null, "label": "Street-side parking", "color": "#bdbdbd" }, "geometry": { "type": "Point", "coordinates": [ 8.6858633, 49.4091635 ] } },
{ "type": "Feature", "properties": { "index": "313", "@osmId": "way/1211318124", "name": null, "opening_hours": null, "label": "Street-side parking", "color": "#bdbdbd" }, "geometry": { "type": "Point", "coordinates": [ 8.6910739, 49.3999696 ] } },
{ "type": "Feature", "properties": { "index": "314", "@osmId": "way/1221831362", "name": null, "opening_hours": null, "label": "Street-side parking", "color": "#bdbdbd" }, "geometry": { "type": "Point", "coordinates": [ 8.6805172, 49.4098496 ] } },
{ "type": "Feature", "properties": { "index": "315", "@osmId": "way/1253386603", "name": null, "opening_hours": null, "label": "Street-side parking", "color": "#bdbdbd" }, "geometry": { "type": "Point", "coordinates": [ 8.6889814, 49.4107352 ] } },
{ "type": "Feature", "properties": { "index": "316", "@osmId": "way/1300561749", "name": null, "opening_hours": null, "label": "Street-side parking", "color": "#bdbdbd" }, "geometry": { "type": "Point", "coordinates": [ 8.6883813, 49.410337 ] } },
{ "type": "Feature", "properties": { "index": "317", "@osmId": "way/1510258569", "name": null, "opening_hours": null, "label": "Street-side parking", "color": "#bdbdbd" }, "geometry": { "type": "Point", "coordinates": [ 8.6892643, 49.3991393 ] } },
{ "type": "Feature", "properties": { "index": "318", "@osmId": "way/171574587", "name": null, "opening_hours": null, "label": "Street-side parking", "color": "#bdbdbd" }, "geometry": { "type": "Point", "coordinates": [ 8.703279, 49.4069724 ] } },
{ "type": "Feature", "properties": { "index": "319", "@osmId": "way/370173390", "name": null, "opening_hours": null, "label": "Street-side parking", "color": "#bdbdbd" }, "geometry": { "type": "Point", "coordinates": [ 8.7043852, 49.4105711 ] } },
{ "type": "Feature", "properties": { "index": "320", "@osmId": "way/1178649726", "name": null, "opening_hours": null, "label": "Street-side parking", "color": "#bdbdbd" }, "geometry": { "type": "Point", "coordinates": [ 8.7063257, 49.4095344 ] } },
{ "type": "Feature", "properties": { "index": "321", "@osmId": "way/1319370999", "name": null, "opening_hours": null, "label": "Street-side parking", "color": "#bdbdbd" }, "geometry": { "type": "Point", "coordinates": [ 8.7159282, 49.4086079 ] } },
{ "type": "Feature", "properties": { "index": "322", "@osmId": "node/1015820305", "name": null, "opening_hours": null, "label": "Street-side parking", "color": "#bdbdbd" }, "geometry": { "type": "Point", "coordinates": [ 8.7017843, 49.4123736 ] } },
{ "type": "Feature", "properties": { "index": "323", "@osmId": "node/1801743072", "name": null, "opening_hours": null, "label": "Street-side parking", "color": "#bdbdbd" }, "geometry": { "type": "Point", "coordinates": [ 8.690543, 49.4086991 ] } },
{ "type": "Feature", "properties": { "index": "324", "@osmId": "node/1810016322", "name": null, "opening_hours": null, "label": "Street-side parking", "color": "#bdbdbd" }, "geometry": { "type": "Point", "coordinates": [ 8.6871845, 49.4049652 ] } },
{ "type": "Feature", "properties": { "index": "325", "@osmId": "node/4784268446", "name": null, "opening_hours": null, "label": "Street-side parking", "color": "#bdbdbd" }, "geometry": { "type": "Point", "coordinates": [ 8.6918261, 49.4014461 ] } },
{ "type": "Feature", "properties": { "index": "326", "@osmId": "node/5156839228", "name": null, "opening_hours": null, "label": "Street-side parking", "color": "#bdbdbd" }, "geometry": { "type": "Point", "coordinates": [ 8.7084412, 49.410026 ] } },
{ "type": "Feature", "properties": { "index": "327", "@osmId": "node/5156915223", "name": null, "opening_hours": null, "label": "Street-side parking", "color": "#bdbdbd" }, "geometry": { "type": "Point", "coordinates": [ 8.7132514, 49.4090269 ] } },
{ "type": "Feature", "properties": { "index": "328", "@osmId": "node/6469543546", "name": null, "opening_hours": null, "label": "Street-side parking", "color": "#bdbdbd" }, "geometry": { "type": "Point", "coordinates": [ 8.6840395, 49.4206709 ] } },
{ "type": "Feature", "properties": { "index": "329", "@osmId": "way/242515897", "name": null, "opening_hours": null, "label": "Marked parking spaces", "color": "#fdae6b" }, "geometry": { "type": "Point", "coordinates": [ 8.6739607, 49.4074519 ] } },
{ "type": "Feature", "properties": { "index": "330", "@osmId": "way/242515898", "name": null, "opening_hours": null, "label": "Marked parking spaces", "color": "#fdae6b" }, "geometry": { "type": "Point", "coordinates": [ 8.674227, 49.4068864 ] } },
{ "type": "Feature", "properties": { "index": "331", "@osmId": "way/242515899", "name": null, "opening_hours": null, "label": "Marked parking spaces", "color": "#fdae6b" }, "geometry": { "type": "Point", "coordinates": [ 8.6742776, 49.4066748 ] } },
{ "type": "Feature", "properties": { "index": "332", "@osmId": "way/242515900", "name": null, "opening_hours": null, "label": "Marked parking spaces", "color": "#fdae6b" }, "geometry": { "type": "Point", "coordinates": [ 8.674297, 49.4065288 ] } },
{ "type": "Feature", "properties": { "index": "333", "@osmId": "way/242515901", "name": null, "opening_hours": null, "label": "Marked parking spaces", "color": "#fdae6b" }, "geometry": { "type": "Point", "coordinates": [ 8.6738082, 49.4074304 ] } },
{ "type": "Feature", "properties": { "index": "334", "@osmId": "way/242515902", "name": null, "opening_hours": null, "label": "Marked parking spaces", "color": "#fdae6b" }, "geometry": { "type": "Point", "coordinates": [ 8.6742207, 49.4070671 ] } },
{ "type": "Feature", "properties": { "index": "335", "@osmId": "way/242515903", "name": null, "opening_hours": null, "label": "Marked parking spaces", "color": "#fdae6b" }, "geometry": { "type": "Point", "coordinates": [ 8.6739688, 49.4072325 ] } },
{ "type": "Feature", "properties": { "index": "336", "@osmId": "way/242515904", "name": null, "opening_hours": null, "label": "Marked parking spaces", "color": "#fdae6b" }, "geometry": { "type": "Point", "coordinates": [ 8.6739332, 49.4071113 ] } },
{ "type": "Feature", "properties": { "index": "337", "@osmId": "way/242515905", "name": null, "opening_hours": null, "label": "Marked parking spaces", "color": "#fdae6b" }, "geometry": { "type": "Point", "coordinates": [ 8.6739715, 49.4071745 ] } },
{ "type": "Feature", "properties": { "index": "338", "@osmId": "way/242515906", "name": null, "opening_hours": null, "label": "Marked parking spaces", "color": "#fdae6b" }, "geometry": { "type": "Point", "coordinates": [ 8.6739132, 49.4068232 ] } },
{ "type": "Feature", "properties": { "index": "339", "@osmId": "way/242515907", "name": null, "opening_hours": null, "label": "Marked parking spaces", "color": "#fdae6b" }, "geometry": { "type": "Point", "coordinates": [ 8.6742297, 49.4068404 ] } },
{ "type": "Feature", "properties": { "index": "340", "@osmId": "way/242515908", "name": null, "opening_hours": null, "label": "Marked parking spaces", "color": "#fdae6b" }, "geometry": { "type": "Point", "coordinates": [ 8.674294, 49.406574 ] } },
{ "type": "Feature", "properties": { "index": "341", "@osmId": "way/242515909", "name": null, "opening_hours": null, "label": "Marked parking spaces", "color": "#fdae6b" }, "geometry": { "type": "Point", "coordinates": [ 8.6739365, 49.4067618 ] } },
{ "type": "Feature", "properties": { "index": "342", "@osmId": "way/242515910", "name": null, "opening_hours": null, "label": "Marked parking spaces", "color": "#fdae6b" }, "geometry": { "type": "Point", "coordinates": [ 8.6743326, 49.4063702 ] } },
{ "type": "Feature", "properties": { "index": "343", "@osmId": "way/242515911", "name": null, "opening_hours": null, "label": "Marked parking spaces", "color": "#fdae6b" }, "geometry": { "type": "Point", "coordinates": [ 8.6743176, 49.4063379 ] } },
{ "type": "Feature", "properties": { "index": "344", "@osmId": "way/242515912", "name": null, "opening_hours": null, "label": "Marked parking spaces", "color": "#fdae6b" }, "geometry": { "type": "Point", "coordinates": [ 8.6744575, 49.4071878 ] } },
{ "type": "Feature", "properties": { "index": "345", "@osmId": "way/242515913", "name": null, "opening_hours": null, "label": "Marked parking spaces", "color": "#fdae6b" }, "geometry": { "type": "Point", "coordinates": [ 8.6743394, 49.4064083 ] } },
{ "type": "Feature", "properties": { "index": "346", "@osmId": "way/242515914", "name": null, "opening_hours": null, "label": "Marked parking spaces", "color": "#fdae6b" }, "geometry": { "type": "Point", "coordinates": [ 8.674223, 49.4070214 ] } },
{ "type": "Feature", "properties": { "index": "347", "@osmId": "way/242515915", "name": null, "opening_hours": null, "label": "Marked parking spaces", "color": "#fdae6b" }, "geometry": { "type": "Point", "coordinates": [ 8.6739251, 49.4067923 ] } },
{ "type": "Feature", "properties": { "index": "348", "@osmId": "way/242515916", "name": null, "opening_hours": null, "label": "Marked parking spaces", "color": "#fdae6b" }, "geometry": { "type": "Point", "coordinates": [ 8.6739017, 49.4068536 ] } },
{ "type": "Feature", "properties": { "index": "349", "@osmId": "way/242515917", "name": null, "opening_hours": null, "label": "Marked parking spaces", "color": "#fdae6b" }, "geometry": { "type": "Point", "coordinates": [ 8.6742305, 49.4067956 ] } },
{ "type": "Feature", "properties": { "index": "350", "@osmId": "way/242515918", "name": null, "opening_hours": null, "label": "Marked parking spaces", "color": "#fdae6b" }, "geometry": { "type": "Point", "coordinates": [ 8.6743032, 49.4072279 ] } },
{ "type": "Feature", "properties": { "index": "351", "@osmId": "way/242515919", "name": null, "opening_hours": null, "label": "Marked parking spaces", "color": "#fdae6b" }, "geometry": { "type": "Point", "coordinates": [ 8.673938, 49.4075112 ] } },
{ "type": "Feature", "properties": { "index": "352", "@osmId": "way/242515920", "name": null, "opening_hours": null, "label": "Marked parking spaces", "color": "#fdae6b" }, "geometry": { "type": "Point", "coordinates": [ 8.6739635, 49.4073401 ] } },
{ "type": "Feature", "properties": { "index": "353", "@osmId": "way/242515921", "name": null, "opening_hours": null, "label": "Marked parking spaces", "color": "#fdae6b" }, "geometry": { "type": "Point", "coordinates": [ 8.6738414, 49.4074309 ] } },
{ "type": "Feature", "properties": { "index": "354", "@osmId": "way/242515922", "name": null, "opening_hours": null, "label": "Marked parking spaces", "color": "#fdae6b" }, "geometry": { "type": "Point", "coordinates": [ 8.6742229, 49.4069772 ] } },
{ "type": "Feature", "properties": { "index": "355", "@osmId": "way/242515923", "name": null, "opening_hours": null, "label": "Marked parking spaces", "color": "#fdae6b" }, "geometry": { "type": "Point", "coordinates": [ 8.6740776, 49.4073532 ] } },
{ "type": "Feature", "properties": { "index": "356", "@osmId": "way/242515924", "name": null, "opening_hours": null, "label": "Marked parking spaces", "color": "#fdae6b" }, "geometry": { "type": "Point", "coordinates": [ 8.6739348, 49.4070462 ] } },
{ "type": "Feature", "properties": { "index": "357", "@osmId": "way/242515925", "name": null, "opening_hours": null, "label": "Marked parking spaces", "color": "#fdae6b" }, "geometry": { "type": "Point", "coordinates": [ 8.674233, 49.4075273 ] } },
{ "type": "Feature", "properties": { "index": "358", "@osmId": "way/242515926", "name": null, "opening_hours": null, "label": "Marked parking spaces", "color": "#fdae6b" }, "geometry": { "type": "Point", "coordinates": [ 8.6739623, 49.4073911 ] } },
{ "type": "Feature", "properties": { "index": "359", "@osmId": "way/242515927", "name": null, "opening_hours": null, "label": "Marked parking spaces", "color": "#fdae6b" }, "geometry": { "type": "Point", "coordinates": [ 8.6742138, 49.4071591 ] } },
{ "type": "Feature", "properties": { "index": "360", "@osmId": "way/242515928", "name": null, "opening_hours": null, "label": "Marked parking spaces", "color": "#fdae6b" }, "geometry": { "type": "Point", "coordinates": [ 8.6742461, 49.4067408 ] } },
{ "type": "Feature", "properties": { "index": "361", "@osmId": "way/242515929", "name": null, "opening_hours": null, "label": "Marked parking spaces", "color": "#fdae6b" }, "geometry": { "type": "Point", "coordinates": [ 8.6737756, 49.4074298 ] } },
{ "type": "Feature", "properties": { "index": "362", "@osmId": "way/242515930", "name": null, "opening_hours": null, "label": "Marked parking spaces", "color": "#fdae6b" }, "geometry": { "type": "Point", "coordinates": [ 8.6743014, 49.4063049 ] } },
{ "type": "Feature", "properties": { "index": "363", "@osmId": "way/242515931", "name": null, "opening_hours": null, "label": "Marked parking spaces", "color": "#fdae6b" }, "geometry": { "type": "Point", "coordinates": [ 8.6738734, 49.4074931 ] } },
{ "type": "Feature", "properties": { "index": "364", "@osmId": "way/242515932", "name": null, "opening_hours": null, "label": "Marked parking spaces", "color": "#fdae6b" }, "geometry": { "type": "Point", "coordinates": [ 8.6742933, 49.4066188 ] } },
{ "type": "Feature", "properties": { "index": "365", "@osmId": "way/242515933", "name": null, "opening_hours": null, "label": "Marked parking spaces", "color": "#fdae6b" }, "geometry": { "type": "Point", "coordinates": [ 8.6738921, 49.4069166 ] } },
{ "type": "Feature", "properties": { "index": "366", "@osmId": "way/242515934", "name": null, "opening_hours": null, "label": "Marked parking spaces", "color": "#fdae6b" }, "geometry": { "type": "Point", "coordinates": [ 8.6739343, 49.4070675 ] } },
{ "type": "Feature", "properties": { "index": "367", "@osmId": "way/242515935", "name": null, "opening_hours": null, "label": "Marked parking spaces", "color": "#fdae6b" }, "geometry": { "type": "Point", "coordinates": [ 8.6742245, 49.4069324 ] } },
{ "type": "Feature", "properties": { "index": "368", "@osmId": "way/242515936", "name": null, "opening_hours": null, "label": "Marked parking spaces", "color": "#fdae6b" }, "geometry": { "type": "Point", "coordinates": [ 8.6738909, 49.4069478 ] } },
{ "type": "Feature", "properties": { "index": "369", "@osmId": "way/242515937", "name": null, "opening_hours": null, "label": "Marked parking spaces", "color": "#fdae6b" }, "geometry": { "type": "Point", "coordinates": [ 8.674075, 49.4074009 ] } },
{ "type": "Feature", "properties": { "index": "370", "@osmId": "way/242515938", "name": null, "opening_hours": null, "label": "Marked parking spaces", "color": "#fdae6b" }, "geometry": { "type": "Point", "coordinates": [ 8.6742836, 49.4062723 ] } },
{ "type": "Feature", "properties": { "index": "371", "@osmId": "way/242515939", "name": null, "opening_hours": null, "label": "Marked parking spaces", "color": "#fdae6b" }, "geometry": { "type": "Point", "coordinates": [ 8.6742192, 49.4071121 ] } },
{ "type": "Feature", "properties": { "index": "372", "@osmId": "way/242515940", "name": null, "opening_hours": null, "label": "Marked parking spaces", "color": "#fdae6b" }, "geometry": { "type": "Point", "coordinates": [ 8.6739337, 49.4070894 ] } },
{ "type": "Feature", "properties": { "index": "373", "@osmId": "way/242515941", "name": null, "opening_hours": null, "label": "Marked parking spaces", "color": "#fdae6b" }, "geometry": { "type": "Point", "coordinates": [ 8.6739384, 49.4074938 ] } },
{ "type": "Feature", "properties": { "index": "374", "@osmId": "way/242515942", "name": null, "opening_hours": null, "label": "Marked parking spaces", "color": "#fdae6b" }, "geometry": { "type": "Point", "coordinates": [ 8.6742611, 49.4072139 ] } },
{ "type": "Feature", "properties": { "index": "375", "@osmId": "way/242515943", "name": null, "opening_hours": null, "label": "Marked parking spaces", "color": "#fdae6b" }, "geometry": { "type": "Point", "coordinates": [ 8.6738932, 49.4068853 ] } },
{ "type": "Feature", "properties": { "index": "376", "@osmId": "way/242515944", "name": null, "opening_hours": null, "label": "Marked parking spaces", "color": "#fdae6b" }, "geometry": { "type": "Point", "coordinates": [ 8.674336, 49.4064568 ] } },
{ "type": "Feature", "properties": { "index": "377", "@osmId": "way/242515945", "name": null, "opening_hours": null, "label": "Marked parking spaces", "color": "#fdae6b" }, "geometry": { "type": "Point", "coordinates": [ 8.6744523, 49.4073274 ] } },
{ "type": "Feature", "properties": { "index": "378", "@osmId": "way/242515946", "name": null, "opening_hours": null, "label": "Marked parking spaces", "color": "#fdae6b" }, "geometry": { "type": "Point", "coordinates": [ 8.6742374, 49.4075005 ] } },
{ "type": "Feature", "properties": { "index": "379", "@osmId": "way/242515947", "name": null, "opening_hours": null, "label": "Marked parking spaces", "color": "#fdae6b" }, "geometry": { "type": "Point", "coordinates": [ 8.6742166, 49.4072009 ] } },
{ "type": "Feature", "properties": { "index": "380", "@osmId": "way/304706525", "name": null, "opening_hours": null, "label": "Marked parking spaces", "color": "#fdae6b" }, "geometry": { "type": "Point", "coordinates": [ 8.6761651, 49.4064397 ] } },
{ "type": "Feature", "properties": { "index": "381", "@osmId": "way/1020672865", "name": null, "opening_hours": null, "label": "Marked parking spaces", "color": "#fdae6b" }, "geometry": { "type": "Point", "coordinates": [ 8.6696094, 49.4025118 ] } },
{ "type": "Feature", "properties": { "index": "382", "@osmId": "way/1253664388", "name": null, "opening_hours": null, "label": "Marked parking spaces", "color": "#fdae6b" }, "geometry": { "type": "Point", "coordinates": [ 8.663932, 49.4187665 ] } },
{ "type": "Feature", "properties": { "index": "383", "@osmId": "way/1253664389", "name": null, "opening_hours": null, "label": "Marked parking spaces", "color": "#fdae6b" }, "geometry": { "type": "Point", "coordinates": [ 8.6639333, 49.418714 ] } },
{ "type": "Feature", "properties": { "index": "384", "@osmId": "way/1525687397", "name": null, "opening_hours": "24/7", "label": "Marked parking spaces", "color": "#fdae6b" }, "geometry": { "type": "Point", "coordinates": [ 8.6993542, 49.4122311 ] } },
{ "type": "Feature", "properties": { "index": "385", "@osmId": "node/13770851206", "name": null, "opening_hours": null, "label": "Marked parking spaces", "color": "#fdae6b" }, "geometry": { "type": "Point", "coordinates": [ 8.6730244, 49.4170553 ] } },
{ "type": "Feature", "properties": { "index": "386", "@osmId": "node/13770968889", "name": null, "opening_hours": null, "label": "Marked parking spaces", "color": "#fdae6b" }, "geometry": { "type": "Point", "coordinates": [ 8.6721559, 49.4172564 ] } }
]
}
