{
"type": "FeatureCollection",
"features": [
{ "type": "Feature", "properties": { "index": "0", "label": "Within 300 m on foot", "color": "#2b8cbe" }, "geometry": { "type": "Polygon", "coordinates": [ [ [ 8.6632811, 49.3983111 ], [ 8.663263, 49.3980465 ], [ 8.6632668, 49.3980008 ], [ 8.6964342, 49.3980037 ], [ 8.6964595, 49.3980707 ], [ 8.6966324, 49.3980037 ], [ 8.7005788, 49.3980034 ], [ 8.7009154, 49.3981363 ], [ 8.7012403, 49.3982949 ], [ 8.7015399, 49.3984735 ], [ 8.7018112, 49.3986704 ], [ 8.7020516, 49.3988837 ], [ 8.7022588, 49.3991114 ], [ 8.7024309, 49.3993512 ], [ 8.7025661, 49.3996009 ], [ 8.7026631, 49.3998581 ], [ 8.7027211, 49.4001202 ], [ 8.7027394, 49.4003847 ], [ 8.7027179, 49.4006491 ], [ 8.7026567, 49.4009109 ], [ 8.7025566, 49.4011676 ], [ 8.7024184, 49.4014166 ], [ 8.7022434, 49.4016555 ], [ 8.7020335, 49.4018821 ], [ 8.7017905, 49.4020942 ], [ 8.7015168, 49.4022897 ], [ 8.701215, 49.4024667 ], [ 8.7008881, 49.4026237 ], [ 8.7005392, 49.4027589 ], [ 8.7001717, 49.4028712 ], [ 8.6997891, 49.4029594 ], [ 8.6993951, 49.4030227 ], [ 8.6989935, 49.4030605 ], [ 8.6985881, 49.4030725 ], [ 8.6981829, 49.4030584 ], [ 8.6977817, 49.4030185 ], [ 8.6973885, 49.4029531 ], [ 8.697007, 49.4028629 ], [ 8.6966408, 49.4027487 ], [ 8.6963401, 49.40263 ], [ 8.6963782, 49.4028026 ], [ 8.6963965, 49.4030671 ], [ 8.6963749, 49.4033316 ], [ 8.6963138, 49.4035934 ], [ 8.6962685, 49.4037093 ], [ 8.6965389, 49.4038705 ], [ 8.6968102, 49.4040674 ], [ 8.6970506, 49.4042808 ], [ 8.6972579, 49.4045085 ], [ 8.6974299, 49.4047483 ], [ 8.6975651, 49.404998 ], [ 8.6976177, 49.4051374 ], [ 8.6978878, 49.405112 ], [ 8.6982932, 49.4051 ], [ 8.6986985, 49.4051141 ], [ 8.6990996, 49.405154 ], [ 8.6994929, 49.4052194 ], [ 8.6998744, 49.4053096 ], [ 8.6999869, 49.4053446 ], [ 8.7000928, 49.4052523 ], [ 8.7003665, 49.4050568 ], [ 8.7006683, 49.4048797 ], [ 8.7009952, 49.4047228 ], [ 8.7013441, 49.4045876 ], [ 8.7017116, 49.4044753 ], [ 8.7020942, 49.4043871 ], [ 8.7024882, 49.4043237 ], [ 8.7028899, 49.4042859 ], [ 8.7032797, 49.4042744 ], [ 8.7033241, 49.4042357 ], [ 8.7035978, 49.4040401 ], [ 8.7038996, 49.4038631 ], [ 8.7042265, 49.4037062 ], [ 8.7045753, 49.4035709 ], [ 8.7049429, 49.4034586 ], [ 8.7053255, 49.4033704 ], [ 8.7057195, 49.403307 ], [ 8.7061211, 49.4032692 ], [ 8.7065265, 49.4032572 ], [ 8.7069317, 49.4032713 ], [ 8.707082, 49.4032862 ], [ 8.7072007, 49.4032013 ], [ 8.7075025, 49.4030243 ], [ 8.7078293, 49.4028673 ], [ 8.7081782, 49.4027321 ], [ 8.7085457, 49.4026198 ], [ 8.7089283, 49.4025315 ], [ 8.7093223, 49.4024682 ], [ 8.7096276, 49.4024394 ], [ 8.7095379, 49.4023408 ], [ 8.7093658, 49.402101 ], [ 8.7092306, 49.4018513 ], [ 8.7091335, 49.4015942 ], [ 8.7090755, 49.4013321 ], [ 8.7090572, 49.4010676 ], [ 8.7090786, 49.4008031 ], [ 8.7091397, 49.4005413 ], [ 8.7092398, 49.4002847 ], [ 8.709378, 49.4000357 ], [ 8.7095529, 49.3997968 ], [ 8.7097628, 49.3995701 ], [ 8.7100058, 49.399358 ], [ 8.7102795, 49.3991625 ], [ 8.7105811, 49.3989854 ], [ 8.710908, 49.3988285 ], [ 8.7112568, 49.3986932 ], [ 8.7116243, 49.3985809 ], [ 8.7120068, 49.3984926 ], [ 8.7124008, 49.3984293 ], [ 8.7128024, 49.3983914 ], [ 8.7132077, 49.3983794 ], [ 8.7136129, 49.3983934 ], [ 8.714014, 49.3984333 ], [ 8.7144073, 49.3984986 ], [ 8.7147888, 49.3985888 ], [ 8.7151549, 49.3987029 ], [ 8.7155022, 49.3988399 ], [ 8.7158271, 49.3989984 ], [ 8.7161268, 49.399177 ], [ 8.7163981, 49.3993739 ], [ 8.7166386, 49.3995872 ], [ 8.7168459, 49.3998148 ], [ 8.717018, 49.4000547 ], [ 8.7171533, 49.4003043 ], [ 8.7172504, 49.4005614 ], [ 8.7173084, 49.4008235 ], [ 8.7173268, 49.4010881 ], [ 8.7173054, 49.4013525 ], [ 8.7172444, 49.4016143 ], [ 8.7171443, 49.401871 ], [ 8.7170062, 49.40212 ], [ 8.7168313, 49.4023589 ], [ 8.7166214, 49.4025856 ], [ 8.7163784, 49.4027977 ], [ 8.7161048, 49.4029932 ], [ 8.7158031, 49.4031703 ], [ 8.7154762, 49.4033273 ], [ 8.7151274, 49.4034625 ], [ 8.7147599, 49.4035749 ], [ 8.7143773, 49.4036631 ], [ 8.7139833, 49.4037265 ], [ 8.713678, 49.4037553 ], [ 8.7137677, 49.4038538 ], [ 8.7138533, 49.4039731 ], [ 8.7141943, 49.403963 ], [ 8.7145995, 49.403977 ], [ 8.7150007, 49.4040169 ], [ 8.7153939, 49.4040822 ], [ 8.7157755, 49.4041723 ], [ 8.7161417, 49.4042865 ], [ 8.716489, 49.4044235 ], [ 8.716814, 49.404582 ], [ 8.7171137, 49.4047606 ], [ 8.7173851, 49.4049575 ], [ 8.7176256, 49.4051708 ], [ 8.7178329, 49.4053984 ], [ 8.718005, 49.4056382 ], [ 8.7181403, 49.4058879 ], [ 8.7182375, 49.406145 ], [ 8.7182466, 49.4061862 ], [ 8.7184129, 49.4061354 ], [ 8.7187955, 49.4060471 ], [ 8.7191895, 49.4059837 ], [ 8.7195911, 49.4059459 ], [ 8.7199965, 49.4059338 ], [ 8.72, 49.405934 ], [ 8.72, 49.4177717 ], [ 8.7198392, 49.4177765 ], [ 8.7194339, 49.4177625 ], [ 8.719057, 49.4177251 ], [ 8.7190333, 49.4177677 ], [ 8.7188584, 49.4180067 ], [ 8.7186484, 49.4182333 ], [ 8.7184054, 49.4184454 ], [ 8.7181317, 49.418641 ], [ 8.7178299, 49.4188181 ], [ 8.7175029, 49.418975 ], [ 8.717154, 49.4191103 ], [ 8.7167864, 49.4192226 ], [ 8.7164037, 49.4193109 ], [ 8.7160096, 49.4193743 ], [ 8.7156078, 49.4194122 ], [ 8.7152023, 49.4194242 ], [ 8.7147969, 49.4194102 ], [ 8.7143956, 49.4193703 ], [ 8.7140022, 49.419305 ], [ 8.7136206, 49.4192148 ], [ 8.7132543, 49.4191007 ], [ 8.7129069, 49.4189637 ], [ 8.7125818, 49.4188051 ], [ 8.712282, 49.4186266 ], [ 8.7120106, 49.4184297 ], [ 8.7118378, 49.4182764 ], [ 8.7114756, 49.41836 ], [ 8.7110815, 49.4184233 ], [ 8.7106797, 49.4184612 ], [ 8.7102742, 49.4184732 ], [ 8.7098689, 49.4184591 ], [ 8.7094676, 49.4184193 ], [ 8.7090742, 49.4183539 ], [ 8.7086925, 49.4182638 ], [ 8.7083263, 49.4181496 ], [ 8.7079789, 49.4180126 ], [ 8.707674, 49.4178639 ], [ 8.7073193, 49.4178973 ], [ 8.7069138, 49.4179093 ], [ 8.7065896, 49.417898 ], [ 8.7068911, 49.4179693 ], [ 8.7072574, 49.4180834 ], [ 8.7076047, 49.4182205 ], [ 8.7079298, 49.418379 ], [ 8.7082295, 49.4185576 ], [ 8.708501, 49.4187545 ], [ 8.7087415, 49.4189678 ], [ 8.7089489, 49.4191955 ], [ 8.709121, 49.4194353 ], [ 8.7092563, 49.419685 ], [ 8.7093534, 49.4199421 ], [ 8.7094114, 49.4202042 ], [ 8.7094298, 49.4204688 ], [ 8.7094083, 49.4207332 ], [ 8.7093472, 49.420995 ], [ 8.709325, 49.4210517 ], [ 8.7094055, 49.4212002 ], [ 8.7095026, 49.4214573 ], [ 8.7095606, 49.4217194 ], [ 8.709579, 49.421984 ], [ 8.7095775, 49.4220022 ], [ 8.6999518, 49.4220035 ], [ 8.6998729, 49.4218578 ], [ 8.6997759, 49.4216007 ], [ 8.6997179, 49.4213386 ], [ 8.6996996, 49.421074 ], [ 8.6997211, 49.4208096 ], [ 8.6997823, 49.4205478 ], [ 8.6998825, 49.4202912 ], [ 8.7000208, 49.4200422 ], [ 8.7001958, 49.4198033 ], [ 8.7004058, 49.4195767 ], [ 8.7006489, 49.4193646 ], [ 8.7009227, 49.4191691 ], [ 8.7012246, 49.418992 ], [ 8.7015516, 49.4188351 ], [ 8.7019006, 49.4186999 ], [ 8.7022682, 49.4185876 ], [ 8.7023404, 49.418571 ], [ 8.7023799, 49.4185427 ], [ 8.7026818, 49.4183657 ], [ 8.7030087, 49.4182087 ], [ 8.7033577, 49.4180735 ], [ 8.7037254, 49.4179612 ], [ 8.7041081, 49.417873 ], [ 8.7045022, 49.4178096 ], [ 8.704904, 49.4177718 ], [ 8.7053095, 49.4177598 ], [ 8.7056337, 49.4177711 ], [ 8.7053322, 49.4176998 ], [ 8.7049659, 49.4175857 ], [ 8.7046186, 49.4174486 ], [ 8.7042935, 49.4172901 ], [ 8.7039938, 49.4171114 ], [ 8.7037224, 49.4169145 ], [ 8.7034819, 49.4167012 ], [ 8.7032746, 49.4164735 ], [ 8.7031025, 49.4162337 ], [ 8.7029673, 49.415984 ], [ 8.7028702, 49.4157269 ], [ 8.7028122, 49.4154648 ], [ 8.7027939, 49.4152002 ], [ 8.70281, 49.4150022 ], [ 8.7027828, 49.4149889 ], [ 8.7025752, 49.4150223 ], [ 8.7021734, 49.4150601 ], [ 8.701768, 49.4150721 ], [ 8.7013626, 49.415058 ], [ 8.7009614, 49.4150181 ], [ 8.700568, 49.4149528 ], [ 8.7002131, 49.4148689 ], [ 8.7001449, 49.4148798 ], [ 8.6997432, 49.4149176 ], [ 8.6993377, 49.4149296 ], [ 8.6989324, 49.4149155 ], [ 8.69892, 49.4149143 ], [ 8.6988122, 49.4150084 ], [ 8.6985384, 49.4152039 ], [ 8.6982366, 49.4153809 ], [ 8.6979096, 49.4155378 ], [ 8.6975606, 49.415673 ], [ 8.697193, 49.4157853 ], [ 8.6968103, 49.4158735 ], [ 8.6965534, 49.4159148 ], [ 8.6966399, 49.4161439 ], [ 8.6966978, 49.416406 ], [ 8.6967161, 49.4166705 ], [ 8.6966946, 49.416935 ], [ 8.6966334, 49.4171968 ], [ 8.6965332, 49.4174534 ], [ 8.6963949, 49.4177023 ], [ 8.6962199, 49.4179413 ], [ 8.6960098, 49.4181679 ], [ 8.6957667, 49.4183799 ], [ 8.6954929, 49.4185754 ], [ 8.6952848, 49.4186974 ], [ 8.6952787, 49.4187724 ], [ 8.6952176, 49.4190342 ], [ 8.6951173, 49.4192908 ], [ 8.694979, 49.4195398 ], [ 8.694804, 49.4197787 ], [ 8.6945939, 49.4200053 ], [ 8.6943508, 49.4202174 ], [ 8.6940769, 49.4204129 ], [ 8.6937751, 49.4205899 ], [ 8.693448, 49.4207468 ], [ 8.693099, 49.420882 ], [ 8.6927313, 49.4209943 ], [ 8.6925187, 49.4210433 ], [ 8.6923856, 49.4210948 ], [ 8.6922909, 49.4211237 ], [ 8.6922646, 49.4211339 ], [ 8.6918969, 49.4212462 ], [ 8.6915141, 49.4213344 ], [ 8.6911841, 49.4213874 ], [ 8.6910016, 49.421458 ], [ 8.6906339, 49.4215703 ], [ 8.6902512, 49.4216585 ], [ 8.689857, 49.4217218 ], [ 8.6894552, 49.4217595 ], [ 8.6890497, 49.4217714 ], [ 8.6886443, 49.4217574 ], [ 8.688243, 49.4217174 ], [ 8.6878856, 49.421658 ], [ 8.6878545, 49.4217139 ], [ 8.6876795, 49.4219528 ], [ 8.6876321, 49.4220039 ], [ 8.66, 49.422 ], [ 8.66, 49.4133312 ], [ 8.6600841, 49.4133288 ], [ 8.6604894, 49.4133429 ], [ 8.6607867, 49.4133726 ], [ 8.6608479, 49.4133067 ], [ 8.6610911, 49.4130947 ], [ 8.661214, 49.4130071 ], [ 8.6613853, 49.4127734 ], [ 8.6615507, 49.4125953 ], [ 8.6612344, 49.412646 ], [ 8.6608327, 49.4126836 ], [ 8.6604272, 49.4126954 ], [ 8.6600219, 49.4126813 ], [ 8.66, 49.4126791 ], [ 8.66, 49.4031888 ], [ 8.660069, 49.4031824 ], [ 8.6604744, 49.4031706 ], [ 8.6608796, 49.4031847 ], [ 8.6610648, 49.4032032 ], [ 8.6612833, 49.4030128 ], [ 8.6615571, 49.4028174 ], [ 8.661859, 49.4026404 ], [ 8.662186, 49.4024836 ], [ 8.6622136, 49.402473 ], [ 8.6623326, 49.4022589 ], [ 8.6625078, 49.40202 ], [ 8.6627179, 49.4017934 ], [ 8.6629611, 49.4015814 ], [ 8.663235, 49.401386 ], [ 8.6635368, 49.4012091 ], [ 8.6638638, 49.4010523 ], [ 8.6642128, 49.4009171 ], [ 8.6645804, 49.400805 ], [ 8.664963, 49.4007169 ], [ 8.6653571, 49.4006537 ], [ 8.6657587, 49.400616 ], [ 8.6660535, 49.4006074 ], [ 8.6657985, 49.400547 ], [ 8.6654324, 49.4004327 ], [ 8.6650853, 49.4002955 ], [ 8.6647605, 49.4001369 ], [ 8.664461, 49.3999581 ], [ 8.6641899, 49.3997611 ], [ 8.6639496, 49.3995477 ], [ 8.6637426, 49.39932 ], [ 8.6635707, 49.3990801 ], [ 8.6634357, 49.3988304 ], [ 8.6633389, 49.3985732 ], [ 8.6632811, 49.3983111 ] ], [ [ 8.6790791, 49.4123763 ], [ 8.6790942, 49.4125961 ], [ 8.6790725, 49.4128605 ], [ 8.6790626, 49.412903 ], [ 8.679328, 49.4129294 ], [ 8.6797213, 49.4129949 ], [ 8.6801029, 49.4130851 ], [ 8.6804691, 49.4131994 ], [ 8.6808163, 49.4133365 ], [ 8.6811413, 49.4134951 ], [ 8.6814409, 49.4136738 ], [ 8.6817122, 49.4138708 ], [ 8.6819526, 49.4140841 ], [ 8.6820259, 49.4141647 ], [ 8.6821207, 49.4141091 ], [ 8.6824477, 49.4139522 ], [ 8.6827967, 49.413817 ], [ 8.6831643, 49.4137048 ], [ 8.6832047, 49.4136955 ], [ 8.6831343, 49.4135654 ], [ 8.6830374, 49.4133083 ], [ 8.6829795, 49.4130462 ], [ 8.6829613, 49.4127816 ], [ 8.6829829, 49.4125172 ], [ 8.6830152, 49.412379 ], [ 8.6827508, 49.4123527 ], [ 8.6823576, 49.4122873 ], [ 8.6823135, 49.4122769 ], [ 8.6820837, 49.412347 ], [ 8.681701, 49.4124352 ], [ 8.6813069, 49.4124984 ], [ 8.6809051, 49.4125362 ], [ 8.6804997, 49.412548 ], [ 8.6800944, 49.4125339 ], [ 8.6796932, 49.412494 ], [ 8.6792999, 49.4124285 ], [ 8.6790791, 49.4123763 ] ] ] } },
{ "type": "Feature", "properties": { "index": "1", "label": "Beyond 300 m", "color": "#d9d9d9" }, "geometry": { "type": "MultiPolygon", "coordinates": [ [ [ [ 8.6610648, 49.4032032 ], [ 8.6608796, 49.4031847 ], [ 8.6604744, 49.4031706 ], [ 8.660069, 49.4031824 ], [ 8.66, 49.4031888 ], [ 8.66, 49.398 ], [ 8.6632668, 49.3980008 ], [ 8.663263, 49.3980465 ], [ 8.6632811, 49.3983111 ], [ 8.6633389, 49.3985732 ], [ 8.6634357, 49.3988304 ], [ 8.6635707, 49.3990801 ], [ 8.6637426, 49.39932 ], [ 8.6639496, 49.3995477 ], [ 8.6641899, 49.3997611 ], [ 8.664461, 49.3999581 ], [ 8.6647605, 49.4001369 ], [ 8.6650853, 49.4002955 ], [ 8.6654324, 49.4004327 ], [ 8.6657985, 49.400547 ], [ 8.6660535, 49.4006074 ], [ 8.6657587, 49.400616 ], [ 8.6653571, 49.4006537 ], [ 8.664963, 49.4007169 ], [ 8.6645804, 49.400805 ], [ 8.6642128, 49.4009171 ], [ 8.6638638, 49.4010523 ], [ 8.6635368, 49.4012091 ], [ 8.663235, 49.401386 ], [ 8.6629611, 49.4015814 ], [ 8.6627179, 49.4017934 ], [ 8.6625078, 49.40202 ], [ 8.6623326, 49.4022589 ], [ 8.6622136, 49.402473 ], [ 8.662186, 49.4024836 ], [ 8.661859, 49.4026404 ], [ 8.6615571, 49.4028174 ], [ 8.6612833, 49.4030128 ], [ 8.6610648, 49.4032032 ] ] ], [ [ [ 8.7005788, 49.3980034 ], [ 8.6966324, 49.3980037 ], [ 8.6964595, 49.3980707 ], [ 8.6964342, 49.3980037 ], [ 8.6833964, 49.3980037 ], [ 8.72, 49.398 ], [ 8.72, 49.405934 ], [ 8.7199965, 49.4059338 ], [ 8.7195911, 49.4059459 ], [ 8.7191895, 49.4059837 ], [ 8.7187955, 49.4060471 ], [ 8.7184129, 49.4061354 ], [ 8.7182466, 49.4061862 ], [ 8.7182375, 49.406145 ], [ 8.7181403, 49.4058879 ], [ 8.718005, 49.4056382 ], [ 8.7178329, 49.4053984 ], [ 8.7176256, 49.4051708 ], [ 8.7173851, 49.4049575 ], [ 8.7171137, 49.4047606 ], [ 8.716814, 49.404582 ], [ 8.716489, 49.4044235 ], [ 8.7161417, 49.4042865 ], [ 8.7157755, 49.4041723 ], [ 8.7153939, 49.4040822 ], [ 8.7150007, 49.4040169 ], [ 8.7145995, 49.403977 ], [ 8.7141943, 49.403963 ], [ 8.7138533, 49.4039731 ], [ 8.7137677, 49.4038538 ], [ 8.713678, 49.4037553 ], [ 8.7139833, 49.4037265 ], [ 8.7143773, 49.4036631 ], [ 8.7147599, 49.4035749 ], [ 8.7151274, 49.4034625 ], [ 8.7154762, 49.4033273 ], [ 8.7158031, 49.4031703 ], [ 8.7161048, 49.4029932 ], [ 8.7163784, 49.4027977 ], [ 8.7166214, 49.4025856 ], [ 8.7168313, 49.4023589 ], [ 8.7170062, 49.40212 ], [ 8.7171443, 49.401871 ], [ 8.7172444, 49.4016143 ], [ 8.7173054, 49.4013525 ], [ 8.7173268, 49.4010881 ], [ 8.7173084, 49.4008235 ], [ 8.7172504, 49.4005614 ], [ 8.7171533, 49.4003043 ], [ 8.717018, 49.4000547 ], [ 8.7168459, 49.3998148 ], [ 8.7166386, 49.3995872 ], [ 8.7163981, 49.3993739 ], [ 8.7161268, 49.399177 ], [ 8.7158271, 49.3989984 ], [ 8.7155022, 49.3988399 ], [ 8.7151549, 49.3987029 ], [ 8.7147888, 49.3985888 ], [ 8.7144073, 49.3984986 ], [ 8.714014, 49.3984333 ], [ 8.7136129, 49.3983934 ], [ 8.7132077, 49.3983794 ], [ 8.7128024, 49.3983914 ], [ 8.7124008, 49.3984293 ], [ 8.7120068, 49.3984926 ], [ 8.7116243, 49.3985809 ], [ 8.7112568, 49.3986932 ], [ 8.710908, 49.3988285 ], [ 8.7105811, 49.3989854 ], [ 8.7102795, 49.3991625 ], [ 8.7100058, 49.399358 ], [ 8.7097628, 49.3995701 ], [ 8.7095529, 49.3997968 ], [ 8.709378, 49.4000357 ], [ 8.7092398, 49.4002847 ], [ 8.7091397, 49.4005413 ], [ 8.7090786, 49.4008031 ], [ 8.7090572, 49.4010676 ], [ 8.7090755, 49.4013321 ], [ 8.7091335, 49.4015942 ], [ 8.7092306, 49.4018513 ], [ 8.7093658, 49.402101 ], [ 8.7095379, 49.4023408 ], [ 8.7096276, 49.4024394 ], [ 8.7093223, 49.4024682 ], [ 8.7089283, 49.4025315 ], [ 8.7085457, 49.4026198 ], [ 8.7081782, 49.4027321 ], [ 8.7078293, 49.4028673 ], [ 8.7075025, 49.4030243 ], [ 8.7072007, 49.4032013 ], [ 8.707082, 49.4032862 ], [ 8.7069317, 49.4032713 ], [ 8.7065265, 49.4032572 ], [ 8.7061211, 49.4032692 ], [ 8.7057195, 49.403307 ], [ 8.7053255, 49.4033704 ], [ 8.7049429, 49.4034586 ], [ 8.7045753, 49.4035709 ], [ 8.7042265, 49.4037062 ], [ 8.7038996, 49.4038631 ], [ 8.7035978, 49.4040401 ], [ 8.7033241, 49.4042357 ], [ 8.7032797, 49.4042744 ], [ 8.7028899, 49.4042859 ], [ 8.7024882, 49.4043237 ], [ 8.7020942, 49.4043871 ], [ 8.7017116, 49.4044753 ], [ 8.7013441, 49.4045876 ], [ 8.7009952, 49.4047228 ], [ 8.7006683, 49.4048797 ], [ 8.7003665, 49.4050568 ], [ 8.7000928, 49.4052523 ], [ 8.6999869, 49.4053446 ], [ 8.6998744, 49.4053096 ], [ 8.6994929, 49.4052194 ], [ 8.6990996, 49.405154 ], [ 8.6986985, 49.4051141 ], [ 8.6982932, 49.4051 ], [ 8.6978878, 49.405112 ], [ 8.6976177, 49.4051374 ], [ 8.6975651, 49.404998 ], [ 8.6974299, 49.4047483 ], [ 8.6972579, 49.4045085 ], [ 8.6970506, 49.4042808 ], [ 8.6968102, 49.4040674 ], [ 8.6965389, 49.4038705 ], [ 8.6962685, 49.4037093 ], [ 8.6963138, 49.4035934 ], [ 8.6963749, 49.4033316 ], [ 8.6963965, 49.4030671 ], [ 8.6963782, 49.4028026 ], [ 8.6963401, 49.40263 ], [ 8.6966408, 49.4027487 ], [ 8.697007, 49.4028629 ], [ 8.6973885, 49.4029531 ], [ 8.6977817, 49.4030185 ], [ 8.6981829, 49.4030584 ], [ 8.6985881, 49.4030725 ], [ 8.6989935, 49.4030605 ], [ 8.6993951, 49.4030227 ], [ 8.6997891, 49.4029594 ], [ 8.7001717, 49.4028712 ], [ 8.7005392, 49.4027589 ], [ 8.7008881, 49.4026237 ], [ 8.701215, 49.4024667 ], [ 8.7015168, 49.4022897 ], [ 8.7017905, 49.4020942 ], [ 8.7020335, 49.4018821 ], [ 8.7022434, 49.4016555 ], [ 8.7024184, 49.4014166 ], [ 8.7025566, 49.4011676 ], [ 8.7026567, 49.4009109 ], [ 8.7027179, 49.4006491 ], [ 8.7027394, 49.4003847 ], [ 8.7027211, 49.4001202 ], [ 8.7026631, 49.3998581 ], [ 8.7025661, 49.3996009 ], [ 8.7024309, 49.3993512 ], [ 8.7022588, 49.3991114 ], [ 8.7020516, 49.3988837 ], [ 8.7018112, 49.3986704 ], [ 8.7015399, 49.3984735 ], [ 8.7012403, 49.3982949 ], [ 8.7009154, 49.3981363 ], [ 8.7005788, 49.3980034 ] ] ], [ [ [ 8.6804691, 49.4131994 ], [ 8.6801029, 49.4130851 ], [ 8.6797213, 49.4129949 ], [ 8.679328, 49.4129294 ], [ 8.6790626, 49.412903 ], [ 8.6790725, 49.4128605 ], [ 8.6790942, 49.4125961 ], [ 8.6790791, 49.4123763 ], [ 8.6792999, 49.4124285 ], [ 8.6796932, 49.412494 ], [ 8.6800944, 49.4125339 ], [ 8.6804997, 49.412548 ], [ 8.6809051, 49.4125362 ], [ 8.6813069, 49.4124984 ], [ 8.681701, 49.4124352 ], [ 8.6820837, 49.412347 ], [ 8.6823135, 49.4122769 ], [ 8.6823576, 49.4122873 ], [ 8.6827508, 49.4123527 ], [ 8.6830152, 49.412379 ], [ 8.6829829, 49.4125172 ], [ 8.6829613, 49.4127816 ], [ 8.6829795, 49.4130462 ], [ 8.6830374, 49.4133083 ], [ 8.6831343, 49.4135654 ], [ 8.6832047, 49.4136955 ], [ 8.6831643, 49.4137048 ], [ 8.6827967, 49.413817 ], [ 8.6824477, 49.4139522 ], [ 8.6821207, 49.4141091 ], [ 8.6820259, 49.4141647 ], [ 8.6819526, 49.4140841 ], [ 8.6817122, 49.4138708 ], [ 8.6814409, 49.4136738 ], [ 8.6811413, 49.4134951 ], [ 8.6808163, 49.4133365 ], [ 8.6804691, 49.4131994 ] ] ], [ [ [ 8.6608479, 49.4133067 ], [ 8.6607867, 49.4133726 ], [ 8.6604894, 49.4133429 ], [ 8.6600841, 49.4133288 ], [ 8.66, 49.4133312 ], [ 8.66, 49.4126791 ], [ 8.6600219, 49.4126813 ], [ 8.6604272, 49.4126954 ], [ 8.6608327, 49.4126836 ], [ 8.6612344, 49.412646 ], [ 8.6615507, 49.4125953 ], [ 8.6613853, 49.4127734 ], [ 8.661214, 49.4130071 ], [ 8.6610911, 49.4130947 ], [ 8.6608479, 49.4133067 ] ] ], [ [ [ 8.6997211, 49.4208096 ], [ 8.6996996, 49.421074 ], [ 8.6997179, 49.4213386 ], [ 8.6997759, 49.4216007 ], [ 8.6998729, 49.4218578 ], [ 8.6999518, 49.4220035 ], [ 8.6876335, 49.4220024 ], [ 8.6876795, 49.4219528 ], [ 8.6878545, 49.4217139 ], [ 8.6878856, 49.421658 ], [ 8.688243, 49.4217174 ], [ 8.6886443, 49.4217574 ], [ 8.6890497, 49.4217714 ], [ 8.6894552, 49.4217595 ], [ 8.689857, 49.4217218 ], [ 8.6902512, 49.4216585 ], [ 8.6906339, 49.4215703 ], [ 8.6910016, 49.421458 ], [ 8.6911841, 49.4213874 ], [ 8.6915141, 49.4213344 ], [ 8.6918969, 49.4212462 ], [ 8.6922646, 49.4211339 ], [ 8.6922909, 49.4211237 ], [ 8.6923856, 49.4210948 ], [ 8.6925187, 49.4210433 ], [ 8.6927313, 49.4209943 ], [ 8.693099, 49.420882 ], [ 8.693448, 49.4207468 ], [ 8.6937751, 49.4205899 ], [ 8.6940769, 49.4204129 ], [ 8.6943508, 49.4202174 ], [ 8.6945939, 49.4200053 ], [ 8.694804, 49.4197787 ], [ 8.694979, 49.4195398 ], [ 8.6951173, 49.4192908 ], [ 8.6952176, 49.4190342 ], [ 8.6952787, 49.4187724 ], [ 8.6952848, 49.4186974 ], [ 8.6954929, 49.4185754 ], [ 8.6957667, 49.4183799 ], [ 8.6960098, 49.4181679 ], [ 8.6962199, 49.4179413 ], [ 8.6963949, 49.4177023 ], [ 8.6965332, 49.4174534 ], [ 8.6966334, 49.4171968 ], [ 8.6966946, 49.416935 ], [ 8.6967161, 49.4166705 ], [ 8.6966978, 49.416406 ], [ 8.6966399, 49.4161439 ], [ 8.6965534, 49.4159148 ], [ 8.6968103, 49.4158735 ], [ 8.697193, 49.4157853 ], [ 8.6975606, 49.415673 ], [ 8.6979096, 49.4155378 ], [ 8.6982366, 49.4153809 ], [ 8.6985384, 49.4152039 ], [ 8.6988122, 49.4150084 ], [ 8.69892, 49.4149143 ], [ 8.6989324, 49.4149155 ], [ 8.6993377, 49.4149296 ], [ 8.6997432, 49.4149176 ], [ 8.7001449, 49.4148798 ], [ 8.7002131, 49.4148689 ], [ 8.700568, 49.4149528 ], [ 8.7009614, 49.4150181 ], [ 8.7013626, 49.415058 ], [ 8.701768, 49.4150721 ], [ 8.7021734, 49.4150601 ], [ 8.7025752, 49.4150223 ], [ 8.7027828, 49.4149889 ], [ 8.70281, 49.4150022 ], [ 8.7027939, 49.4152002 ], [ 8.7028122, 49.4154648 ], [ 8.7028702, 49.4157269 ], [ 8.7029673, 49.415984 ], [ 8.7031025, 49.4162337 ], [ 8.7032746, 49.4164735 ], [ 8.7034819, 49.4167012 ], [ 8.7037224, 49.4169145 ], [ 8.7039938, 49.4171114 ], [ 8.7042935, 49.4172901 ], [ 8.7046186, 49.4174486 ], [ 8.7049659, 49.4175857 ], [ 8.7053322, 49.4176998 ], [ 8.7056337, 49.4177711 ], [ 8.7053095, 49.4177598 ], [ 8.704904, 49.4177718 ], [ 8.7045022, 49.4178096 ], [ 8.7041081, 49.417873 ], [ 8.7037254, 49.4179612 ], [ 8.7033577, 49.4180735 ], [ 8.7030087, 49.4182087 ], [ 8.7026818, 49.4183657 ], [ 8.7023799, 49.4185427 ], [ 8.7023404, 49.418571 ], [ 8.7022682, 49.4185876 ], [ 8.7019006, 49.4186999 ], [ 8.7015516, 49.4188351 ], [ 8.7012246, 49.418992 ], [ 8.7009227, 49.4191691 ], [ 8.7006489, 49.4193646 ], [ 8.7004058, 49.4195767 ], [ 8.7001958, 49.4198033 ], [ 8.7000208, 49.4200422 ], [ 8.6998825, 49.4202912 ], [ 8.6997823, 49.4205478 ], [ 8.6997211, 49.4208096 ] ] ], [ [ [ 8.7190333, 49.4177677 ], [ 8.719057, 49.4177251 ], [ 8.7194339, 49.4177625 ], [ 8.7198392, 49.4177765 ], [ 8.72, 49.4177717 ], [ 8.72, 49.422 ], [ 8.7095775, 49.4220021 ], [ 8.709579, 49.421984 ], [ 8.7095606, 49.4217194 ], [ 8.7095026, 49.4214573 ], [ 8.7094055, 49.4212002 ], [ 8.709325, 49.4210517 ], [ 8.7093472, 49.420995 ], [ 8.7094083, 49.4207332 ], [ 8.7094298, 49.4204688 ], [ 8.7094114, 49.4202042 ], [ 8.7093534, 49.4199421 ], [ 8.7092563, 49.419685 ], [ 8.709121, 49.4194353 ], [ 8.7089489, 49.4191955 ], [ 8.7087415, 49.4189678 ], [ 8.708501, 49.4187545 ], [ 8.7082295, 49.4185576 ], [ 8.7079298, 49.418379 ], [ 8.7076047, 49.4182205 ], [ 8.7072574, 49.4180834 ], [ 8.7068911, 49.4179693 ], [ 8.7065896, 49.417898 ], [ 8.7069138, 49.4179093 ], [ 8.7073193, 49.4178973 ], [ 8.707674, 49.4178639 ], [ 8.7079789, 49.4180126 ], [ 8.7083263, 49.4181496 ], [ 8.7086925, 49.4182638 ], [ 8.7090742, 49.4183539 ], [ 8.7094676, 49.4184193 ], [ 8.7098689, 49.4184591 ], [ 8.7102742, 49.4184732 ], [ 8.7106797, 49.4184612 ], [ 8.7110815, 49.4184233 ], [ 8.7114756, 49.41836 ], [ 8.7118378, 49.4182764 ], [ 8.7120106, 49.4184297 ], [ 8.712282, 49.4186266 ], [ 8.7125818, 49.4188051 ], [ 8.7129069, 49.4189637 ], [ 8.7132543, 49.4191007 ], [ 8.7136206, 49.4192148 ], [ 8.7140022, 49.419305 ], [ 8.7143956, 49.4193703 ], [ 8.7147969, 49.4194102 ], [ 8.7152023, 49.4194242 ], [ 8.7156078, 49.4194122 ], [ 8.7160096, 49.4193743 ], [ 8.7164037, 49.4193109 ], [ 8.7167864, 49.4192226 ], [ 8.717154, 49.4191103 ], [ 8.7175029, 49.418975 ], [ 8.7178299, 49.4188181 ], [ 8.7181317, 49.418641 ], [ 8.7184054, 49.4184454 ], [ 8.7186484, 49.4182333 ], [ 8.7188584, 49.4180067 ], [ 8.7190333, 49.4177677 ] ] ], [ [ [ 8.66, 49.422 ], [ 8.6876335, 49.4220024 ], [ 8.6876321, 49.4220039 ], [ 8.66, 49.422 ] ] ], [ [ [ 8.7095775, 49.4220021 ], [ 8.7095775, 49.4220022 ], [ 8.7059511, 49.4220028 ], [ 8.7095775, 49.4220021 ] ] ] ] } }
]
}
