{
"type": "FeatureCollection",
"features": [
{ "type": "Feature", "properties": { "index": "0", "last_edit_year": 2024, "years_since_edit": 2, "label": "1.7–5.8 yr", "color": "#fdae6d" }, "geometry": { "type": "Point", "coordinates": [ 8.6887973, 49.4131244 ] } },
{ "type": "Feature", "properties": { "index": "1", "last_edit_year": 2026, "years_since_edit": 0, "label": "0.0–1.7 yr", "color": "#feedde" }, "geometry": { "type": "Point", "coordinates": [ 8.6739775, 49.4202471 ] } },
{ "type": "Feature", "properties": { "index": "2", "last_edit_year": 2026, "years_since_edit": 0, "label": "0.0–1.7 yr", "color": "#feedde" }, "geometry": { "type": "Point", "coordinates": [ 8.6969759, 49.4112986 ] } },
{ "type": "Feature", "properties": { "index": "3", "last_edit_year": 2026, "years_since_edit": 0, "label": "0.0–1.7 yr", "color": "#feedde" }, "geometry": { "type": "Point", "coordinates": [ 8.6998768, 49.4113947 ] } },
{ "type": "Feature", "properties": { "index": "4", "last_edit_year": 2025, "years_since_edit": 1, "label": "0.0–1.7 yr", "color": "#feedde" }, "geometry": { "type": "Point", "coordinates": [ 8.6897806, 49.405887 ] } },
{ "type": "Feature", "properties": { "index": "5", "last_edit_year": 2025, "years_since_edit": 1, "label": "0.0–1.7 yr", "color": "#feedde" }, "geometry": { "type": "Point", "coordinates": [ 8.6905373, 49.4060196 ] } },
{ "type": "Feature", "properties": { "index": "6", "last_edit_year": 2025, "years_since_edit": 1, "label": "0.0–1.7 yr", "color": "#feedde" }, "geometry": { "type": "Point", "coordinates": [ 8.6912929, 49.4061514 ] } },
{ "type": "Feature", "properties": { "index": "7", "last_edit_year": 2016, "years_since_edit": 10, "label": "10.0–14.0 yr", "color": "#a63603" }, "geometry": { "type": "Point", "coordinates": [ 8.6847311, 49.4162022 ] } },
{ "type": "Feature", "properties": { "index": "8", "last_edit_year": 2025, "years_since_edit": 1, "label": "0.0–1.7 yr", "color": "#feedde" }, "geometry": { "type": "Point", "coordinates": [ 8.6812192, 49.4092507 ] } },
{ "type": "Feature", "properties": { "index": "9", "last_edit_year": 2025, "years_since_edit": 1, "label": "0.0–1.7 yr", "color": "#feedde" }, "geometry": { "type": "Point", "coordinates": [ 8.6904605, 49.4077406 ] } },
{ "type": "Feature", "properties": { "index": "10", "last_edit_year": 2021, "years_since_edit": 5, "label": "1.7–5.8 yr", "color": "#fdae6d" }, "geometry": { "type": "Point", "coordinates": [ 8.6819261, 49.3980869 ] } },
{ "type": "Feature", "properties": { "index": "11", "last_edit_year": 2024, "years_since_edit": 2, "label": "1.7–5.8 yr", "color": "#fdae6d" }, "geometry": { "type": "Point", "coordinates": [ 8.6985247, 49.4087378 ] } },
{ "type": "Feature", "properties": { "index": "12", "last_edit_year": 2025, "years_since_edit": 1, "label": "0.0–1.7 yr", "color": "#feedde" }, "geometry": { "type": "Point", "coordinates": [ 8.6821472, 49.4017361 ] } },
{ "type": "Feature", "properties": { "index": "13", "last_edit_year": 2021, "years_since_edit": 5, "label": "1.7–5.8 yr", "color": "#fdae6d" }, "geometry": { "type": "Point", "coordinates": [ 8.6835747, 49.4097083 ] } },
{ "type": "Feature", "properties": { "index": "14", "last_edit_year": 2024, "years_since_edit": 2, "label": "1.7–5.8 yr", "color": "#fdae6d" }, "geometry": { "type": "Point", "coordinates": [ 8.6843053, 49.4093182 ] } },
{ "type": "Feature", "properties": { "index": "15", "last_edit_year": 2025, "years_since_edit": 1, "label": "0.0–1.7 yr", "color": "#feedde" }, "geometry": { "type": "Point", "coordinates": [ 8.6956256, 49.4132881 ] } },
{ "type": "Feature", "properties": { "index": "16", "last_edit_year": 2025, "years_since_edit": 1, "label": "0.0–1.7 yr", "color": "#feedde" }, "geometry": { "type": "Point", "coordinates": [ 8.693921, 49.4084267 ] } },
{ "type": "Feature", "properties": { "index": "17", "last_edit_year": 2025, "years_since_edit": 1, "label": "0.0–1.7 yr", "color": "#feedde" }, "geometry": { "type": "Point", "coordinates": [ 8.6941716, 49.4078262 ] } },
{ "type": "Feature", "properties": { "index": "18", "last_edit_year": 2019, "years_since_edit": 7, "label": "5.8–10.0 yr", "color": "#ee681d" }, "geometry": { "type": "Point", "coordinates": [ 8.6910837, 49.4101311 ] } },
{ "type": "Feature", "properties": { "index": "19", "last_edit_year": 2025, "years_since_edit": 1, "label": "0.0–1.7 yr", "color": "#feedde" }, "geometry": { "type": "Point", "coordinates": [ 8.6884515, 49.4101669 ] } },
{ "type": "Feature", "properties": { "index": "20", "last_edit_year": 2025, "years_since_edit": 1, "label": "0.0–1.7 yr", "color": "#feedde" }, "geometry": { "type": "Point", "coordinates": [ 8.6890057, 49.4099175 ] } },
{ "type": "Feature", "properties": { "index": "21", "last_edit_year": 2023, "years_since_edit": 3, "label": "1.7–5.8 yr", "color": "#fdae6d" }, "geometry": { "type": "Point", "coordinates": [ 8.6918683, 49.4134433 ] } },
{ "type": "Feature", "properties": { "index": "22", "last_edit_year": 2025, "years_since_edit": 1, "label": "0.0–1.7 yr", "color": "#feedde" }, "geometry": { "type": "Point", "coordinates": [ 8.6834313, 49.4080373 ] } },
{ "type": "Feature", "properties": { "index": "23", "last_edit_year": 2026, "years_since_edit": 0, "label": "0.0–1.7 yr", "color": "#feedde" }, "geometry": { "type": "Point", "coordinates": [ 8.6852145, 49.4090505 ] } },
{ "type": "Feature", "properties": { "index": "24", "last_edit_year": 2026, "years_since_edit": 0, "label": "0.0–1.7 yr", "color": "#feedde" }, "geometry": { "type": "Point", "coordinates": [ 8.6865168, 49.4092828 ] } },
{ "type": "Feature", "properties": { "index": "25", "last_edit_year": 2025, "years_since_edit": 1, "label": "0.0–1.7 yr", "color": "#feedde" }, "geometry": { "type": "Point", "coordinates": [ 8.6846085, 49.4016531 ] } },
{ "type": "Feature", "properties": { "index": "26", "last_edit_year": 2024, "years_since_edit": 2, "label": "1.7–5.8 yr", "color": "#fdae6d" }, "geometry": { "type": "Point", "coordinates": [ 8.6856469, 49.4083615 ] } },
{ "type": "Feature", "properties": { "index": "27", "last_edit_year": 2025, "years_since_edit": 1, "label": "0.0–1.7 yr", "color": "#feedde" }, "geometry": { "type": "Point", "coordinates": [ 8.6889011, 49.4073437 ] } },
{ "type": "Feature", "properties": { "index": "28", "last_edit_year": 2024, "years_since_edit": 2, "label": "1.7–5.8 yr", "color": "#fdae6d" }, "geometry": { "type": "Point", "coordinates": [ 8.6915779, 49.4000249 ] } },
{ "type": "Feature", "properties": { "index": "29", "last_edit_year": 2013, "years_since_edit": 13, "label": "10.0–14.0 yr", "color": "#a63603" }, "geometry": { "type": "Point", "coordinates": [ 8.696172, 49.4119188 ] } },
{ "type": "Feature", "properties": { "index": "30", "last_edit_year": 2013, "years_since_edit": 13, "label": "10.0–14.0 yr", "color": "#a63603" }, "geometry": { "type": "Point", "coordinates": [ 8.6912034, 49.4165555 ] } },
{ "type": "Feature", "properties": { "index": "31", "last_edit_year": 2021, "years_since_edit": 5, "label": "1.7–5.8 yr", "color": "#fdae6d" }, "geometry": { "type": "Point", "coordinates": [ 8.6896408, 49.4076761 ] } },
{ "type": "Feature", "properties": { "index": "32", "last_edit_year": 2021, "years_since_edit": 5, "label": "1.7–5.8 yr", "color": "#fdae6d" }, "geometry": { "type": "Point", "coordinates": [ 8.68973, 49.4075313 ] } },
{ "type": "Feature", "properties": { "index": "33", "last_edit_year": 2013, "years_since_edit": 13, "label": "10.0–14.0 yr", "color": "#a63603" }, "geometry": { "type": "Point", "coordinates": [ 8.6931128, 49.4067994 ] } },
{ "type": "Feature", "properties": { "index": "34", "last_edit_year": 2024, "years_since_edit": 2, "label": "1.7–5.8 yr", "color": "#fdae6d" }, "geometry": { "type": "Point", "coordinates": [ 8.6935143, 49.4067872 ] } },
{ "type": "Feature", "properties": { "index": "35", "last_edit_year": 2022, "years_since_edit": 4, "label": "1.7–5.8 yr", "color": "#fdae6d" }, "geometry": { "type": "Point", "coordinates": [ 8.6988133, 49.4083266 ] } },
{ "type": "Feature", "properties": { "index": "36", "last_edit_year": 2022, "years_since_edit": 4, "label": "1.7–5.8 yr", "color": "#fdae6d" }, "geometry": { "type": "Point", "coordinates": [ 8.6992511, 49.4084032 ] } },
{ "type": "Feature", "properties": { "index": "37", "last_edit_year": 2026, "years_since_edit": 0, "label": "0.0–1.7 yr", "color": "#feedde" }, "geometry": { "type": "Point", "coordinates": [ 8.7008519, 49.4086919 ] } },
{ "type": "Feature", "properties": { "index": "38", "last_edit_year": 2022, "years_since_edit": 4, "label": "1.7–5.8 yr", "color": "#fdae6d" }, "geometry": { "type": "Point", "coordinates": [ 8.6993906, 49.4082848 ] } },
{ "type": "Feature", "properties": { "index": "39", "last_edit_year": 2025, "years_since_edit": 1, "label": "0.0–1.7 yr", "color": "#feedde" }, "geometry": { "type": "Point", "coordinates": [ 8.690894, 49.4132858 ] } },
{ "type": "Feature", "properties": { "index": "40", "last_edit_year": 2024, "years_since_edit": 2, "label": "1.7–5.8 yr", "color": "#fdae6d" }, "geometry": { "type": "Point", "coordinates": [ 8.6911527, 49.4132967 ] } },
{ "type": "Feature", "properties": { "index": "41", "last_edit_year": 2021, "years_since_edit": 5, "label": "1.7–5.8 yr", "color": "#fdae6d" }, "geometry": { "type": "Point", "coordinates": [ 8.6857627, 49.4057388 ] } },
{ "type": "Feature", "properties": { "index": "42", "last_edit_year": 2022, "years_since_edit": 4, "label": "1.7–5.8 yr", "color": "#fdae6d" }, "geometry": { "type": "Point", "coordinates": [ 8.6911773, 49.4101553 ] } },
{ "type": "Feature", "properties": { "index": "43", "last_edit_year": 2026, "years_since_edit": 0, "label": "0.0–1.7 yr", "color": "#feedde" }, "geometry": { "type": "Point", "coordinates": [ 8.692339, 49.3987505 ] } },
{ "type": "Feature", "properties": { "index": "44", "last_edit_year": 2026, "years_since_edit": 0, "label": "0.0–1.7 yr", "color": "#feedde" }, "geometry": { "type": "Point", "coordinates": [ 8.6924261, 49.3986529 ] } },
{ "type": "Feature", "properties": { "index": "45", "last_edit_year": 2024, "years_since_edit": 2, "label": "1.7–5.8 yr", "color": "#fdae6d" }, "geometry": { "type": "Point", "coordinates": [ 8.6800343, 49.4014026 ] } },
{ "type": "Feature", "properties": { "index": "46", "last_edit_year": 2024, "years_since_edit": 2, "label": "1.7–5.8 yr", "color": "#fdae6d" }, "geometry": { "type": "Point", "coordinates": [ 8.6814703, 49.4036426 ] } },
{ "type": "Feature", "properties": { "index": "47", "last_edit_year": 2026, "years_since_edit": 0, "label": "0.0–1.7 yr", "color": "#feedde" }, "geometry": { "type": "Point", "coordinates": [ 8.7128074, 49.412228 ] } },
{ "type": "Feature", "properties": { "index": "48", "last_edit_year": 2018, "years_since_edit": 8, "label": "5.8–10.0 yr", "color": "#ee681d" }, "geometry": { "type": "Point", "coordinates": [ 8.6914108, 49.4096856 ] } },
{ "type": "Feature", "properties": { "index": "49", "last_edit_year": 2025, "years_since_edit": 1, "label": "0.0–1.7 yr", "color": "#feedde" }, "geometry": { "type": "Point", "coordinates": [ 8.6986046, 49.400374 ] } },
{ "type": "Feature", "properties": { "index": "50", "last_edit_year": 2023, "years_since_edit": 3, "label": "1.7–5.8 yr", "color": "#fdae6d" }, "geometry": { "type": "Point", "coordinates": [ 8.7052933, 49.4204583 ] } },
{ "type": "Feature", "properties": { "index": "51", "last_edit_year": 2024, "years_since_edit": 2, "label": "1.7–5.8 yr", "color": "#fdae6d" }, "geometry": { "type": "Point", "coordinates": [ 8.6939896, 49.4066586 ] } },
{ "type": "Feature", "properties": { "index": "52", "last_edit_year": 2023, "years_since_edit": 3, "label": "1.7–5.8 yr", "color": "#fdae6d" }, "geometry": { "type": "Point", "coordinates": [ 8.7054424, 49.4219735 ] } },
{ "type": "Feature", "properties": { "index": "53", "last_edit_year": 2016, "years_since_edit": 10, "label": "10.0–14.0 yr", "color": "#a63603" }, "geometry": { "type": "Point", "coordinates": [ 8.6806226, 49.3988131 ] } },
{ "type": "Feature", "properties": { "index": "54", "last_edit_year": 2022, "years_since_edit": 4, "label": "1.7–5.8 yr", "color": "#fdae6d" }, "geometry": { "type": "Point", "coordinates": [ 8.684425, 49.4026591 ] } },
{ "type": "Feature", "properties": { "index": "55", "last_edit_year": 2022, "years_since_edit": 4, "label": "1.7–5.8 yr", "color": "#fdae6d" }, "geometry": { "type": "Point", "coordinates": [ 8.7027212, 49.4091392 ] } },
{ "type": "Feature", "properties": { "index": "56", "last_edit_year": 2024, "years_since_edit": 2, "label": "1.7–5.8 yr", "color": "#fdae6d" }, "geometry": { "type": "Point", "coordinates": [ 8.6965391, 49.4117598 ] } },
{ "type": "Feature", "properties": { "index": "57", "last_edit_year": 2012, "years_since_edit": 14, "label": "10.0–14.0 yr", "color": "#a63603" }, "geometry": { "type": "Point", "coordinates": [ 8.7045121, 49.4121362 ] } },
{ "type": "Feature", "properties": { "index": "58", "last_edit_year": 2024, "years_since_edit": 2, "label": "1.7–5.8 yr", "color": "#fdae6d" }, "geometry": { "type": "Point", "coordinates": [ 8.6857319, 49.4048092 ] } },
{ "type": "Feature", "properties": { "index": "59", "last_edit_year": 2025, "years_since_edit": 1, "label": "0.0–1.7 yr", "color": "#feedde" }, "geometry": { "type": "Point", "coordinates": [ 8.7119922, 49.4111529 ] } },
{ "type": "Feature", "properties": { "index": "60", "last_edit_year": 2024, "years_since_edit": 2, "label": "1.7–5.8 yr", "color": "#fdae6d" }, "geometry": { "type": "Point", "coordinates": [ 8.685827, 49.405273 ] } },
{ "type": "Feature", "properties": { "index": "61", "last_edit_year": 2021, "years_since_edit": 5, "label": "1.7–5.8 yr", "color": "#fdae6d" }, "geometry": { "type": "Point", "coordinates": [ 8.7122297, 49.4092111 ] } },
{ "type": "Feature", "properties": { "index": "62", "last_edit_year": 2024, "years_since_edit": 2, "label": "1.7–5.8 yr", "color": "#fdae6d" }, "geometry": { "type": "Point", "coordinates": [ 8.684879, 49.4050811 ] } },
{ "type": "Feature", "properties": { "index": "63", "last_edit_year": 2024, "years_since_edit": 2, "label": "1.7–5.8 yr", "color": "#fdae6d" }, "geometry": { "type": "Point", "coordinates": [ 8.693066, 49.4058233 ] } },
{ "type": "Feature", "properties": { "index": "64", "last_edit_year": 2025, "years_since_edit": 1, "label": "0.0–1.7 yr", "color": "#feedde" }, "geometry": { "type": "Point", "coordinates": [ 8.7198546, 49.415078 ] } },
{ "type": "Feature", "properties": { "index": "65", "last_edit_year": 2024, "years_since_edit": 2, "label": "1.7–5.8 yr", "color": "#fdae6d" }, "geometry": { "type": "Point", "coordinates": [ 8.6797913, 49.404277 ] } },
{ "type": "Feature", "properties": { "index": "66", "last_edit_year": 2026, "years_since_edit": 0, "label": "0.0–1.7 yr", "color": "#feedde" }, "geometry": { "type": "Point", "coordinates": [ 8.6925543, 49.3989591 ] } },
{ "type": "Feature", "properties": { "index": "67", "last_edit_year": 2025, "years_since_edit": 1, "label": "0.0–1.7 yr", "color": "#feedde" }, "geometry": { "type": "Point", "coordinates": [ 8.713192, 49.4010779 ] } },
{ "type": "Feature", "properties": { "index": "68", "last_edit_year": 2021, "years_since_edit": 5, "label": "1.7–5.8 yr", "color": "#fdae6d" }, "geometry": { "type": "Point", "coordinates": [ 8.6913477, 49.4080522 ] } },
{ "type": "Feature", "properties": { "index": "69", "last_edit_year": 2025, "years_since_edit": 1, "label": "0.0–1.7 yr", "color": "#feedde" }, "geometry": { "type": "Point", "coordinates": [ 8.7079033, 49.4096804 ] } },
{ "type": "Feature", "properties": { "index": "70", "last_edit_year": 2021, "years_since_edit": 5, "label": "1.7–5.8 yr", "color": "#fdae6d" }, "geometry": { "type": "Point", "coordinates": [ 8.6914842, 49.4080732 ] } },
{ "type": "Feature", "properties": { "index": "71", "last_edit_year": 2025, "years_since_edit": 1, "label": "0.0–1.7 yr", "color": "#feedde" }, "geometry": { "type": "Point", "coordinates": [ 8.7075104, 49.4096491 ] } },
{ "type": "Feature", "properties": { "index": "72", "last_edit_year": 2026, "years_since_edit": 0, "label": "0.0–1.7 yr", "color": "#feedde" }, "geometry": { "type": "Point", "coordinates": [ 8.6858633, 49.4091635 ] } },
{ "type": "Feature", "properties": { "index": "73", "last_edit_year": 2021, "years_since_edit": 5, "label": "1.7–5.8 yr", "color": "#fdae6d" }, "geometry": { "type": "Point", "coordinates": [ 8.6903438, 49.4136051 ] } },
{ "type": "Feature", "properties": { "index": "74", "last_edit_year": 2017, "years_since_edit": 9, "label": "5.8–10.0 yr", "color": "#ee681d" }, "geometry": { "type": "Point", "coordinates": [ 8.7195702, 49.4114792 ] } },
{ "type": "Feature", "properties": { "index": "75", "last_edit_year": 2022, "years_since_edit": 4, "label": "1.7–5.8 yr", "color": "#fdae6d" }, "geometry": { "type": "Point", "coordinates": [ 8.6820613, 49.4024563 ] } },
{ "type": "Feature", "properties": { "index": "76", "last_edit_year": 2025, "years_since_edit": 1, "label": "0.0–1.7 yr", "color": "#feedde" }, "geometry": { "type": "Point", "coordinates": [ 8.7183158, 49.40905 ] } },
{ "type": "Feature", "properties": { "index": "77", "last_edit_year": 2025, "years_since_edit": 1, "label": "0.0–1.7 yr", "color": "#feedde" }, "geometry": { "type": "Point", "coordinates": [ 8.6910739, 49.3999696 ] } },
{ "type": "Feature", "properties": { "index": "78", "last_edit_year": 2025, "years_since_edit": 1, "label": "0.0–1.7 yr", "color": "#feedde" }, "geometry": { "type": "Point", "coordinates": [ 8.7199812, 49.4086323 ] } },
{ "type": "Feature", "properties": { "index": "79", "last_edit_year": 2025, "years_since_edit": 1, "label": "0.0–1.7 yr", "color": "#feedde" }, "geometry": { "type": "Point", "coordinates": [ 8.6805172, 49.4098496 ] } },
{ "type": "Feature", "properties": { "index": "80", "last_edit_year": 2026, "years_since_edit": 0, "label": "0.0–1.7 yr", "color": "#feedde" }, "geometry": { "type": "Point", "coordinates": [ 8.703994, 49.4070755 ] } },
{ "type": "Feature", "properties": { "index": "81", "last_edit_year": 2024, "years_since_edit": 2, "label": "1.7–5.8 yr", "color": "#fdae6d" }, "geometry": { "type": "Point", "coordinates": [ 8.6889814, 49.4107352 ] } },
{ "type": "Feature", "properties": { "index": "82", "last_edit_year": 2020, "years_since_edit": 6, "label": "5.8–10.0 yr", "color": "#ee681d" }, "geometry": { "type": "Point", "coordinates": [ 8.7102732, 49.4057844 ] } },
{ "type": "Feature", "properties": { "index": "83", "last_edit_year": 2024, "years_since_edit": 2, "label": "1.7–5.8 yr", "color": "#fdae6d" }, "geometry": { "type": "Point", "coordinates": [ 8.6962189, 49.4109393 ] } },
{ "type": "Feature", "properties": { "index": "84", "last_edit_year": 2024, "years_since_edit": 2, "label": "1.7–5.8 yr", "color": "#fdae6d" }, "geometry": { "type": "Point", "coordinates": [ 8.6878811, 49.4097124 ] } },
{ "type": "Feature", "properties": { "index": "85", "last_edit_year": 2025, "years_since_edit": 1, "label": "0.0–1.7 yr", "color": "#feedde" }, "geometry": { "type": "Point", "coordinates": [ 8.6883813, 49.410337 ] } },
{ "type": "Feature", "properties": { "index": "86", "last_edit_year": 2024, "years_since_edit": 2, "label": "1.7–5.8 yr", "color": "#fdae6d" }, "geometry": { "type": "Point", "coordinates": [ 8.6864315, 49.4085411 ] } },
{ "type": "Feature", "properties": { "index": "87", "last_edit_year": 2024, "years_since_edit": 2, "label": "1.7–5.8 yr", "color": "#fdae6d" }, "geometry": { "type": "Point", "coordinates": [ 8.6893199, 49.4150353 ] } },
{ "type": "Feature", "properties": { "index": "88", "last_edit_year": 2024, "years_since_edit": 2, "label": "1.7–5.8 yr", "color": "#fdae6d" }, "geometry": { "type": "Point", "coordinates": [ 8.6860752, 49.4046988 ] } },
{ "type": "Feature", "properties": { "index": "89", "last_edit_year": 2026, "years_since_edit": 0, "label": "0.0–1.7 yr", "color": "#feedde" }, "geometry": { "type": "Point", "coordinates": [ 8.703279, 49.4069724 ] } },
{ "type": "Feature", "properties": { "index": "90", "last_edit_year": 2024, "years_since_edit": 2, "label": "1.7–5.8 yr", "color": "#fdae6d" }, "geometry": { "type": "Point", "coordinates": [ 8.6864491, 49.4047046 ] } },
{ "type": "Feature", "properties": { "index": "91", "last_edit_year": 2024, "years_since_edit": 2, "label": "1.7–5.8 yr", "color": "#fdae6d" }, "geometry": { "type": "Point", "coordinates": [ 8.6870971, 49.4127929 ] } },
{ "type": "Feature", "properties": { "index": "92", "last_edit_year": 2014, "years_since_edit": 12, "label": "10.0–14.0 yr", "color": "#a63603" }, "geometry": { "type": "Point", "coordinates": [ 8.7101134, 49.4051168 ] } },
{ "type": "Feature", "properties": { "index": "93", "last_edit_year": 2025, "years_since_edit": 1, "label": "0.0–1.7 yr", "color": "#feedde" }, "geometry": { "type": "Point", "coordinates": [ 8.6936031, 49.4057709 ] } },
{ "type": "Feature", "properties": { "index": "94", "last_edit_year": 2018, "years_since_edit": 8, "label": "5.8–10.0 yr", "color": "#ee681d" }, "geometry": { "type": "Point", "coordinates": [ 8.7102407, 49.410014 ] } },
{ "type": "Feature", "properties": { "index": "95", "last_edit_year": 2024, "years_since_edit": 2, "label": "1.7–5.8 yr", "color": "#fdae6d" }, "geometry": { "type": "Point", "coordinates": [ 8.6866494, 49.4057163 ] } },
{ "type": "Feature", "properties": { "index": "96", "last_edit_year": 2025, "years_since_edit": 1, "label": "0.0–1.7 yr", "color": "#feedde" }, "geometry": { "type": "Point", "coordinates": [ 8.709347, 49.4133754 ] } },
{ "type": "Feature", "properties": { "index": "97", "last_edit_year": 2025, "years_since_edit": 1, "label": "0.0–1.7 yr", "color": "#feedde" }, "geometry": { "type": "Point", "coordinates": [ 8.6982767, 49.4077985 ] } },
{ "type": "Feature", "properties": { "index": "98", "last_edit_year": 2026, "years_since_edit": 0, "label": "0.0–1.7 yr", "color": "#feedde" }, "geometry": { "type": "Point", "coordinates": [ 8.6892643, 49.3991393 ] } },
{ "type": "Feature", "properties": { "index": "99", "last_edit_year": 2018, "years_since_edit": 8, "label": "5.8–10.0 yr", "color": "#ee681d" }, "geometry": { "type": "Point", "coordinates": [ 8.7110679, 49.4104632 ] } },
{ "type": "Feature", "properties": { "index": "100", "last_edit_year": 2026, "years_since_edit": 0, "label": "0.0–1.7 yr", "color": "#feedde" }, "geometry": { "type": "Point", "coordinates": [ 8.6993542, 49.4122311 ] } },
{ "type": "Feature", "properties": { "index": "101", "last_edit_year": 2021, "years_since_edit": 5, "label": "1.7–5.8 yr", "color": "#fdae6d" }, "geometry": { "type": "Point", "coordinates": [ 8.7121173, 49.4090872 ] } },
{ "type": "Feature", "properties": { "index": "102", "last_edit_year": 2024, "years_since_edit": 2, "label": "1.7–5.8 yr", "color": "#fdae6d" }, "geometry": { "type": "Point", "coordinates": [ 8.7125693, 49.4089678 ] } },
{ "type": "Feature", "properties": { "index": "103", "last_edit_year": 2014, "years_since_edit": 12, "label": "10.0–14.0 yr", "color": "#a63603" }, "geometry": { "type": "Point", "coordinates": [ 8.7078579, 49.4071471 ] } },
{ "type": "Feature", "properties": { "index": "104", "last_edit_year": 2014, "years_since_edit": 12, "label": "10.0–14.0 yr", "color": "#a63603" }, "geometry": { "type": "Point", "coordinates": [ 8.7133043, 49.4089045 ] } },
{ "type": "Feature", "properties": { "index": "105", "last_edit_year": 2025, "years_since_edit": 1, "label": "0.0–1.7 yr", "color": "#feedde" }, "geometry": { "type": "Point", "coordinates": [ 8.7128415, 49.4115358 ] } },
{ "type": "Feature", "properties": { "index": "106", "last_edit_year": 2015, "years_since_edit": 11, "label": "10.0–14.0 yr", "color": "#a63603" }, "geometry": { "type": "Point", "coordinates": [ 8.7022493, 49.4088403 ] } },
{ "type": "Feature", "properties": { "index": "107", "last_edit_year": 2017, "years_since_edit": 9, "label": "5.8–10.0 yr", "color": "#ee681d" }, "geometry": { "type": "Point", "coordinates": [ 8.7198983, 49.4121828 ] } },
{ "type": "Feature", "properties": { "index": "108", "last_edit_year": 2017, "years_since_edit": 9, "label": "5.8–10.0 yr", "color": "#ee681d" }, "geometry": { "type": "Point", "coordinates": [ 8.7198272, 49.4108875 ] } },
{ "type": "Feature", "properties": { "index": "109", "last_edit_year": 2017, "years_since_edit": 9, "label": "5.8–10.0 yr", "color": "#ee681d" }, "geometry": { "type": "Point", "coordinates": [ 8.7199207, 49.4120575 ] } },
{ "type": "Feature", "properties": { "index": "110", "last_edit_year": 2013, "years_since_edit": 13, "label": "10.0–14.0 yr", "color": "#a63603" }, "geometry": { "type": "Point", "coordinates": [ 8.718835, 49.4094935 ] } },
{ "type": "Feature", "properties": { "index": "111", "last_edit_year": 2018, "years_since_edit": 8, "label": "5.8–10.0 yr", "color": "#ee681d" }, "geometry": { "type": "Point", "coordinates": [ 8.7123522, 49.4131971 ] } },
{ "type": "Feature", "properties": { "index": "112", "last_edit_year": 2025, "years_since_edit": 1, "label": "0.0–1.7 yr", "color": "#feedde" }, "geometry": { "type": "Point", "coordinates": [ 8.7141786, 49.4066615 ] } },
{ "type": "Feature", "properties": { "index": "113", "last_edit_year": 2017, "years_since_edit": 9, "label": "5.8–10.0 yr", "color": "#ee681d" }, "geometry": { "type": "Point", "coordinates": [ 8.7194999, 49.4113254 ] } },
{ "type": "Feature", "properties": { "index": "114", "last_edit_year": 2017, "years_since_edit": 9, "label": "5.8–10.0 yr", "color": "#ee681d" }, "geometry": { "type": "Point", "coordinates": [ 8.7197211, 49.4110749 ] } },
{ "type": "Feature", "properties": { "index": "115", "last_edit_year": 2023, "years_since_edit": 3, "label": "1.7–5.8 yr", "color": "#fdae6d" }, "geometry": { "type": "Point", "coordinates": [ 8.7117394, 49.4124223 ] } },
{ "type": "Feature", "properties": { "index": "116", "last_edit_year": 2015, "years_since_edit": 11, "label": "10.0–14.0 yr", "color": "#a63603" }, "geometry": { "type": "Point", "coordinates": [ 8.7053652, 49.4128834 ] } },
{ "type": "Feature", "properties": { "index": "117", "last_edit_year": 2024, "years_since_edit": 2, "label": "1.7–5.8 yr", "color": "#fdae6d" }, "geometry": { "type": "Point", "coordinates": [ 8.7043852, 49.4105711 ] } },
{ "type": "Feature", "properties": { "index": "118", "last_edit_year": 2015, "years_since_edit": 11, "label": "10.0–14.0 yr", "color": "#a63603" }, "geometry": { "type": "Point", "coordinates": [ 8.7066085, 49.4088431 ] } },
{ "type": "Feature", "properties": { "index": "119", "last_edit_year": 2023, "years_since_edit": 3, "label": "1.7–5.8 yr", "color": "#fdae6d" }, "geometry": { "type": "Point", "coordinates": [ 8.7038361, 49.4210847 ] } },
{ "type": "Feature", "properties": { "index": "120", "last_edit_year": 2021, "years_since_edit": 5, "label": "1.7–5.8 yr", "color": "#fdae6d" }, "geometry": { "type": "Point", "coordinates": [ 8.7069299, 49.4152108 ] } },
{ "type": "Feature", "properties": { "index": "121", "last_edit_year": 2017, "years_since_edit": 9, "label": "5.8–10.0 yr", "color": "#ee681d" }, "geometry": { "type": "Point", "coordinates": [ 8.7125357, 49.4128498 ] } },
{ "type": "Feature", "properties": { "index": "122", "last_edit_year": 2024, "years_since_edit": 2, "label": "1.7–5.8 yr", "color": "#fdae6d" }, "geometry": { "type": "Point", "coordinates": [ 8.7152179, 49.4167257 ] } },
{ "type": "Feature", "properties": { "index": "123", "last_edit_year": 2025, "years_since_edit": 1, "label": "0.0–1.7 yr", "color": "#feedde" }, "geometry": { "type": "Point", "coordinates": [ 8.7063257, 49.4095344 ] } },
{ "type": "Feature", "properties": { "index": "124", "last_edit_year": 2024, "years_since_edit": 2, "label": "1.7–5.8 yr", "color": "#fdae6d" }, "geometry": { "type": "Point", "coordinates": [ 8.7102901, 49.4157747 ] } },
{ "type": "Feature", "properties": { "index": "125", "last_edit_year": 2024, "years_since_edit": 2, "label": "1.7–5.8 yr", "color": "#fdae6d" }, "geometry": { "type": "Point", "coordinates": [ 8.7159282, 49.4086079 ] } },
{ "type": "Feature", "properties": { "index": "126", "last_edit_year": 2025, "years_since_edit": 1, "label": "0.0–1.7 yr", "color": "#feedde" }, "geometry": { "type": "Point", "coordinates": [ 8.7127622, 49.4105579 ] } },
{ "type": "Feature", "properties": { "index": "127", "last_edit_year": 2025, "years_since_edit": 1, "label": "0.0–1.7 yr", "color": "#feedde" }, "geometry": { "type": "Point", "coordinates": [ 8.7065104, 49.4059557 ] } },
{ "type": "Feature", "properties": { "index": "128", "last_edit_year": 2026, "years_since_edit": 0, "label": "0.0–1.7 yr", "color": "#feedde" }, "geometry": { "type": "Point", "coordinates": [ 8.7197343, 49.4128074 ] } },
{ "type": "Feature", "properties": { "index": "129", "last_edit_year": 2026, "years_since_edit": 0, "label": "0.0–1.7 yr", "color": "#feedde" }, "geometry": { "type": "Point", "coordinates": [ 8.6756101, 49.4063273 ] } },
{ "type": "Feature", "properties": { "index": "130", "last_edit_year": 2025, "years_since_edit": 1, "label": "0.0–1.7 yr", "color": "#feedde" }, "geometry": { "type": "Point", "coordinates": [ 8.676299, 49.4082191 ] } },
{ "type": "Feature", "properties": { "index": "131", "last_edit_year": 2022, "years_since_edit": 4, "label": "1.7–5.8 yr", "color": "#fdae6d" }, "geometry": { "type": "Point", "coordinates": [ 8.6604458, 49.409997 ] } },
{ "type": "Feature", "properties": { "index": "132", "last_edit_year": 2021, "years_since_edit": 5, "label": "1.7–5.8 yr", "color": "#fdae6d" }, "geometry": { "type": "Point", "coordinates": [ 8.6750463, 49.4213736 ] } },
{ "type": "Feature", "properties": { "index": "133", "last_edit_year": 2022, "years_since_edit": 4, "label": "1.7–5.8 yr", "color": "#fdae6d" }, "geometry": { "type": "Point", "coordinates": [ 8.6757046, 49.4204112 ] } },
{ "type": "Feature", "properties": { "index": "134", "last_edit_year": 2022, "years_since_edit": 4, "label": "1.7–5.8 yr", "color": "#fdae6d" }, "geometry": { "type": "Point", "coordinates": [ 8.6719967, 49.4200841 ] } },
{ "type": "Feature", "properties": { "index": "135", "last_edit_year": 2024, "years_since_edit": 2, "label": "1.7–5.8 yr", "color": "#fdae6d" }, "geometry": { "type": "Point", "coordinates": [ 8.6708422, 49.420689 ] } },
{ "type": "Feature", "properties": { "index": "136", "last_edit_year": 2024, "years_since_edit": 2, "label": "1.7–5.8 yr", "color": "#fdae6d" }, "geometry": { "type": "Point", "coordinates": [ 8.6683518, 49.4210538 ] } },
{ "type": "Feature", "properties": { "index": "137", "last_edit_year": 2024, "years_since_edit": 2, "label": "1.7–5.8 yr", "color": "#fdae6d" }, "geometry": { "type": "Point", "coordinates": [ 8.6683457, 49.4200607 ] } },
{ "type": "Feature", "properties": { "index": "138", "last_edit_year": 2025, "years_since_edit": 1, "label": "0.0–1.7 yr", "color": "#feedde" }, "geometry": { "type": "Point", "coordinates": [ 8.6767535, 49.4039664 ] } },
{ "type": "Feature", "properties": { "index": "139", "last_edit_year": 2025, "years_since_edit": 1, "label": "0.0–1.7 yr", "color": "#feedde" }, "geometry": { "type": "Point", "coordinates": [ 8.6758894, 49.4088143 ] } },
{ "type": "Feature", "properties": { "index": "140", "last_edit_year": 2025, "years_since_edit": 1, "label": "0.0–1.7 yr", "color": "#feedde" }, "geometry": { "type": "Point", "coordinates": [ 8.679081, 49.4034111 ] } },
{ "type": "Feature", "properties": { "index": "141", "last_edit_year": 2025, "years_since_edit": 1, "label": "0.0–1.7 yr", "color": "#feedde" }, "geometry": { "type": "Point", "coordinates": [ 8.6755305, 49.4162291 ] } },
{ "type": "Feature", "properties": { "index": "142", "last_edit_year": 2025, "years_since_edit": 1, "label": "0.0–1.7 yr", "color": "#feedde" }, "geometry": { "type": "Point", "coordinates": [ 8.6756601, 49.4153908 ] } },
{ "type": "Feature", "properties": { "index": "143", "last_edit_year": 2021, "years_since_edit": 5, "label": "1.7–5.8 yr", "color": "#fdae6d" }, "geometry": { "type": "Point", "coordinates": [ 8.6738427, 49.4212323 ] } },
{ "type": "Feature", "properties": { "index": "144", "last_edit_year": 2026, "years_since_edit": 0, "label": "0.0–1.7 yr", "color": "#feedde" }, "geometry": { "type": "Point", "coordinates": [ 8.6726885, 49.4210551 ] } },
{ "type": "Feature", "properties": { "index": "145", "last_edit_year": 2021, "years_since_edit": 5, "label": "1.7–5.8 yr", "color": "#fdae6d" }, "geometry": { "type": "Point", "coordinates": [ 8.6738872, 49.4094075 ] } },
{ "type": "Feature", "properties": { "index": "146", "last_edit_year": 2025, "years_since_edit": 1, "label": "0.0–1.7 yr", "color": "#feedde" }, "geometry": { "type": "Point", "coordinates": [ 8.6602593, 49.4089621 ] } },
{ "type": "Feature", "properties": { "index": "147", "last_edit_year": 2026, "years_since_edit": 0, "label": "0.0–1.7 yr", "color": "#feedde" }, "geometry": { "type": "Point", "coordinates": [ 8.6739268, 49.4167169 ] } },
{ "type": "Feature", "properties": { "index": "148", "last_edit_year": 2024, "years_since_edit": 2, "label": "1.7–5.8 yr", "color": "#fdae6d" }, "geometry": { "type": "Point", "coordinates": [ 8.6686267, 49.4135383 ] } },
{ "type": "Feature", "properties": { "index": "149", "last_edit_year": 2024, "years_since_edit": 2, "label": "1.7–5.8 yr", "color": "#fdae6d" }, "geometry": { "type": "Point", "coordinates": [ 8.6686194, 49.413346 ] } },
{ "type": "Feature", "properties": { "index": "150", "last_edit_year": 2024, "years_since_edit": 2, "label": "1.7–5.8 yr", "color": "#fdae6d" }, "geometry": { "type": "Point", "coordinates": [ 8.6650241, 49.4140561 ] } },
{ "type": "Feature", "properties": { "index": "151", "last_edit_year": 2024, "years_since_edit": 2, "label": "1.7–5.8 yr", "color": "#fdae6d" }, "geometry": { "type": "Point", "coordinates": [ 8.6655606, 49.4194922 ] } },
{ "type": "Feature", "properties": { "index": "152", "last_edit_year": 2025, "years_since_edit": 1, "label": "0.0–1.7 yr", "color": "#feedde" }, "geometry": { "type": "Point", "coordinates": [ 8.6818587, 49.4216261 ] } },
{ "type": "Feature", "properties": { "index": "153", "last_edit_year": 2022, "years_since_edit": 4, "label": "1.7–5.8 yr", "color": "#fdae6d" }, "geometry": { "type": "Point", "coordinates": [ 8.676938, 49.4189209 ] } },
{ "type": "Feature", "properties": { "index": "154", "last_edit_year": 2026, "years_since_edit": 0, "label": "0.0–1.7 yr", "color": "#feedde" }, "geometry": { "type": "Point", "coordinates": [ 8.6775048, 49.4210766 ] } },
{ "type": "Feature", "properties": { "index": "155", "last_edit_year": 2021, "years_since_edit": 5, "label": "1.7–5.8 yr", "color": "#fdae6d" }, "geometry": { "type": "Point", "coordinates": [ 8.6671286, 49.421166 ] } },
{ "type": "Feature", "properties": { "index": "156", "last_edit_year": 2025, "years_since_edit": 1, "label": "0.0–1.7 yr", "color": "#feedde" }, "geometry": { "type": "Point", "coordinates": [ 8.6700173, 49.4130791 ] } },
{ "type": "Feature", "properties": { "index": "157", "last_edit_year": 2025, "years_since_edit": 1, "label": "0.0–1.7 yr", "color": "#feedde" }, "geometry": { "type": "Point", "coordinates": [ 8.6714856, 49.4134327 ] } },
{ "type": "Feature", "properties": { "index": "158", "last_edit_year": 2024, "years_since_edit": 2, "label": "1.7–5.8 yr", "color": "#fdae6d" }, "geometry": { "type": "Point", "coordinates": [ 8.6785039, 49.4155738 ] } },
{ "type": "Feature", "properties": { "index": "159", "last_edit_year": 2021, "years_since_edit": 5, "label": "1.7–5.8 yr", "color": "#fdae6d" }, "geometry": { "type": "Point", "coordinates": [ 8.6704413, 49.4139318 ] } },
{ "type": "Feature", "properties": { "index": "160", "last_edit_year": 2022, "years_since_edit": 4, "label": "1.7–5.8 yr", "color": "#fdae6d" }, "geometry": { "type": "Point", "coordinates": [ 8.6605712, 49.4195045 ] } },
{ "type": "Feature", "properties": { "index": "161", "last_edit_year": 2024, "years_since_edit": 2, "label": "1.7–5.8 yr", "color": "#fdae6d" }, "geometry": { "type": "Point", "coordinates": [ 8.6640728, 49.4192303 ] } },
{ "type": "Feature", "properties": { "index": "162", "last_edit_year": 2021, "years_since_edit": 5, "label": "1.7–5.8 yr", "color": "#fdae6d" }, "geometry": { "type": "Point", "coordinates": [ 8.6612207, 49.4174705 ] } },
{ "type": "Feature", "properties": { "index": "163", "last_edit_year": 2025, "years_since_edit": 1, "label": "0.0–1.7 yr", "color": "#feedde" }, "geometry": { "type": "Point", "coordinates": [ 8.6602451, 49.4178612 ] } },
{ "type": "Feature", "properties": { "index": "164", "last_edit_year": 2024, "years_since_edit": 2, "label": "1.7–5.8 yr", "color": "#fdae6d" }, "geometry": { "type": "Point", "coordinates": [ 8.6607804, 49.4166308 ] } },
{ "type": "Feature", "properties": { "index": "165", "last_edit_year": 2025, "years_since_edit": 1, "label": "0.0–1.7 yr", "color": "#feedde" }, "geometry": { "type": "Point", "coordinates": [ 8.6745102, 49.4135603 ] } },
{ "type": "Feature", "properties": { "index": "166", "last_edit_year": 2019, "years_since_edit": 7, "label": "5.8–10.0 yr", "color": "#ee681d" }, "geometry": { "type": "Point", "coordinates": [ 8.6749584, 49.4125845 ] } },
{ "type": "Feature", "properties": { "index": "167", "last_edit_year": 2024, "years_since_edit": 2, "label": "1.7–5.8 yr", "color": "#fdae6d" }, "geometry": { "type": "Point", "coordinates": [ 8.6765063, 49.4063842 ] } },
{ "type": "Feature", "properties": { "index": "168", "last_edit_year": 2021, "years_since_edit": 5, "label": "1.7–5.8 yr", "color": "#fdae6d" }, "geometry": { "type": "Point", "coordinates": [ 8.6629627, 49.4085539 ] } },
{ "type": "Feature", "properties": { "index": "169", "last_edit_year": 2018, "years_since_edit": 8, "label": "5.8–10.0 yr", "color": "#ee681d" }, "geometry": { "type": "Point", "coordinates": [ 8.6696196, 49.4062503 ] } },
{ "type": "Feature", "properties": { "index": "170", "last_edit_year": 2016, "years_since_edit": 10, "label": "10.0–14.0 yr", "color": "#a63603" }, "geometry": { "type": "Point", "coordinates": [ 8.6846986, 49.4171569 ] } },
{ "type": "Feature", "properties": { "index": "171", "last_edit_year": 2024, "years_since_edit": 2, "label": "1.7–5.8 yr", "color": "#fdae6d" }, "geometry": { "type": "Point", "coordinates": [ 8.6746303, 49.3989002 ] } },
{ "type": "Feature", "properties": { "index": "172", "last_edit_year": 2026, "years_since_edit": 0, "label": "0.0–1.7 yr", "color": "#feedde" }, "geometry": { "type": "Point", "coordinates": [ 8.6761542, 49.4070566 ] } },
{ "type": "Feature", "properties": { "index": "173", "last_edit_year": 2025, "years_since_edit": 1, "label": "0.0–1.7 yr", "color": "#feedde" }, "geometry": { "type": "Point", "coordinates": [ 8.6790138, 49.4021887 ] } },
{ "type": "Feature", "properties": { "index": "174", "last_edit_year": 2025, "years_since_edit": 1, "label": "0.0–1.7 yr", "color": "#feedde" }, "geometry": { "type": "Point", "coordinates": [ 8.668743, 49.4186668 ] } },
{ "type": "Feature", "properties": { "index": "175", "last_edit_year": 2026, "years_since_edit": 0, "label": "0.0–1.7 yr", "color": "#feedde" }, "geometry": { "type": "Point", "coordinates": [ 8.6757389, 49.4056322 ] } },
{ "type": "Feature", "properties": { "index": "176", "last_edit_year": 2026, "years_since_edit": 0, "label": "0.0–1.7 yr", "color": "#feedde" }, "geometry": { "type": "Point", "coordinates": [ 8.6774545, 49.4169025 ] } },
{ "type": "Feature", "properties": { "index": "177", "last_edit_year": 2025, "years_since_edit": 1, "label": "0.0–1.7 yr", "color": "#feedde" }, "geometry": { "type": "Point", "coordinates": [ 8.6775259, 49.4170452 ] } },
{ "type": "Feature", "properties": { "index": "178", "last_edit_year": 2025, "years_since_edit": 1, "label": "0.0–1.7 yr", "color": "#feedde" }, "geometry": { "type": "Point", "coordinates": [ 8.6791316, 49.4088905 ] } },
{ "type": "Feature", "properties": { "index": "179", "last_edit_year": 2025, "years_since_edit": 1, "label": "0.0–1.7 yr", "color": "#feedde" }, "geometry": { "type": "Point", "coordinates": [ 8.6604558, 49.405869 ] } },
{ "type": "Feature", "properties": { "index": "180", "last_edit_year": 2025, "years_since_edit": 1, "label": "0.0–1.7 yr", "color": "#feedde" }, "geometry": { "type": "Point", "coordinates": [ 8.6642765, 49.4148159 ] } },
{ "type": "Feature", "properties": { "index": "181", "last_edit_year": 2024, "years_since_edit": 2, "label": "1.7–5.8 yr", "color": "#fdae6d" }, "geometry": { "type": "Point", "coordinates": [ 8.6607805, 49.4187023 ] } },
{ "type": "Feature", "properties": { "index": "182", "last_edit_year": 2013, "years_since_edit": 13, "label": "10.0–14.0 yr", "color": "#a63603" }, "geometry": { "type": "Point", "coordinates": [ 8.6890667, 49.419073 ] } },
{ "type": "Feature", "properties": { "index": "183", "last_edit_year": 2013, "years_since_edit": 13, "label": "10.0–14.0 yr", "color": "#a63603" }, "geometry": { "type": "Point", "coordinates": [ 8.6903296, 49.4187489 ] } },
{ "type": "Feature", "properties": { "index": "184", "last_edit_year": 2019, "years_since_edit": 7, "label": "5.8–10.0 yr", "color": "#ee681d" }, "geometry": { "type": "Point", "coordinates": [ 8.6904506, 49.4187098 ] } },
{ "type": "Feature", "properties": { "index": "185", "last_edit_year": 2021, "years_since_edit": 5, "label": "1.7–5.8 yr", "color": "#fdae6d" }, "geometry": { "type": "Point", "coordinates": [ 8.6800477, 49.4211178 ] } },
{ "type": "Feature", "properties": { "index": "186", "last_edit_year": 2021, "years_since_edit": 5, "label": "1.7–5.8 yr", "color": "#fdae6d" }, "geometry": { "type": "Point", "coordinates": [ 8.6788357, 49.4210926 ] } },
{ "type": "Feature", "properties": { "index": "187", "last_edit_year": 2025, "years_since_edit": 1, "label": "0.0–1.7 yr", "color": "#feedde" }, "geometry": { "type": "Point", "coordinates": [ 8.6777804, 49.4030617 ] } },
{ "type": "Feature", "properties": { "index": "188", "last_edit_year": 2013, "years_since_edit": 13, "label": "10.0–14.0 yr", "color": "#a63603" }, "geometry": { "type": "Point", "coordinates": [ 8.6739607, 49.4074519 ] } },
{ "type": "Feature", "properties": { "index": "189", "last_edit_year": 2025, "years_since_edit": 1, "label": "0.0–1.7 yr", "color": "#feedde" }, "geometry": { "type": "Point", "coordinates": [ 8.674227, 49.4068864 ] } },
{ "type": "Feature", "properties": { "index": "190", "last_edit_year": 2013, "years_since_edit": 13, "label": "10.0–14.0 yr", "color": "#a63603" }, "geometry": { "type": "Point", "coordinates": [ 8.6742776, 49.4066748 ] } },
{ "type": "Feature", "properties": { "index": "191", "last_edit_year": 2013, "years_since_edit": 13, "label": "10.0–14.0 yr", "color": "#a63603" }, "geometry": { "type": "Point", "coordinates": [ 8.674297, 49.4065288 ] } },
{ "type": "Feature", "properties": { "index": "192", "last_edit_year": 2013, "years_since_edit": 13, "label": "10.0–14.0 yr", "color": "#a63603" }, "geometry": { "type": "Point", "coordinates": [ 8.6738082, 49.4074304 ] } },
{ "type": "Feature", "properties": { "index": "193", "last_edit_year": 2025, "years_since_edit": 1, "label": "0.0–1.7 yr", "color": "#feedde" }, "geometry": { "type": "Point", "coordinates": [ 8.6742207, 49.4070671 ] } },
{ "type": "Feature", "properties": { "index": "194", "last_edit_year": 2013, "years_since_edit": 13, "label": "10.0–14.0 yr", "color": "#a63603" }, "geometry": { "type": "Point", "coordinates": [ 8.6739688, 49.4072325 ] } },
{ "type": "Feature", "properties": { "index": "195", "last_edit_year": 2013, "years_since_edit": 13, "label": "10.0–14.0 yr", "color": "#a63603" }, "geometry": { "type": "Point", "coordinates": [ 8.6739332, 49.4071113 ] } },
{ "type": "Feature", "properties": { "index": "196", "last_edit_year": 2013, "years_since_edit": 13, "label": "10.0–14.0 yr", "color": "#a63603" }, "geometry": { "type": "Point", "coordinates": [ 8.6739715, 49.4071745 ] } },
{ "type": "Feature", "properties": { "index": "197", "last_edit_year": 2013, "years_since_edit": 13, "label": "10.0–14.0 yr", "color": "#a63603" }, "geometry": { "type": "Point", "coordinates": [ 8.6739132, 49.4068232 ] } },
{ "type": "Feature", "properties": { "index": "198", "last_edit_year": 2025, "years_since_edit": 1, "label": "0.0–1.7 yr", "color": "#feedde" }, "geometry": { "type": "Point", "coordinates": [ 8.6742297, 49.4068404 ] } },
{ "type": "Feature", "properties": { "index": "199", "last_edit_year": 2013, "years_since_edit": 13, "label": "10.0–14.0 yr", "color": "#a63603" }, "geometry": { "type": "Point", "coordinates": [ 8.674294, 49.406574 ] } },
{ "type": "Feature", "properties": { "index": "200", "last_edit_year": 2013, "years_since_edit": 13, "label": "10.0–14.0 yr", "color": "#a63603" }, "geometry": { "type": "Point", "coordinates": [ 8.6739365, 49.4067618 ] } },
{ "type": "Feature", "properties": { "index": "201", "last_edit_year": 2025, "years_since_edit": 1, "label": "0.0–1.7 yr", "color": "#feedde" }, "geometry": { "type": "Point", "coordinates": [ 8.6743326, 49.4063702 ] } },
{ "type": "Feature", "properties": { "index": "202", "last_edit_year": 2025, "years_since_edit": 1, "label": "0.0–1.7 yr", "color": "#feedde" }, "geometry": { "type": "Point", "coordinates": [ 8.6743176, 49.4063379 ] } },
{ "type": "Feature", "properties": { "index": "203", "last_edit_year": 2013, "years_since_edit": 13, "label": "10.0–14.0 yr", "color": "#a63603" }, "geometry": { "type": "Point", "coordinates": [ 8.6744575, 49.4071878 ] } },
{ "type": "Feature", "properties": { "index": "204", "last_edit_year": 2025, "years_since_edit": 1, "label": "0.0–1.7 yr", "color": "#feedde" }, "geometry": { "type": "Point", "coordinates": [ 8.6743394, 49.4064083 ] } },
{ "type": "Feature", "properties": { "index": "205", "last_edit_year": 2025, "years_since_edit": 1, "label": "0.0–1.7 yr", "color": "#feedde" }, "geometry": { "type": "Point", "coordinates": [ 8.674223, 49.4070214 ] } },
{ "type": "Feature", "properties": { "index": "206", "last_edit_year": 2013, "years_since_edit": 13, "label": "10.0–14.0 yr", "color": "#a63603" }, "geometry": { "type": "Point", "coordinates": [ 8.6739251, 49.4067923 ] } },
{ "type": "Feature", "properties": { "index": "207", "last_edit_year": 2013, "years_since_edit": 13, "label": "10.0–14.0 yr", "color": "#a63603" }, "geometry": { "type": "Point", "coordinates": [ 8.6739017, 49.4068536 ] } },
{ "type": "Feature", "properties": { "index": "208", "last_edit_year": 2025, "years_since_edit": 1, "label": "0.0–1.7 yr", "color": "#feedde" }, "geometry": { "type": "Point", "coordinates": [ 8.6742305, 49.4067956 ] } },
{ "type": "Feature", "properties": { "index": "209", "last_edit_year": 2013, "years_since_edit": 13, "label": "10.0–14.0 yr", "color": "#a63603" }, "geometry": { "type": "Point", "coordinates": [ 8.6743032, 49.4072279 ] } },
{ "type": "Feature", "properties": { "index": "210", "last_edit_year": 2013, "years_since_edit": 13, "label": "10.0–14.0 yr", "color": "#a63603" }, "geometry": { "type": "Point", "coordinates": [ 8.673938, 49.4075112 ] } },
{ "type": "Feature", "properties": { "index": "211", "last_edit_year": 2013, "years_since_edit": 13, "label": "10.0–14.0 yr", "color": "#a63603" }, "geometry": { "type": "Point", "coordinates": [ 8.6739635, 49.4073401 ] } },
{ "type": "Feature", "properties": { "index": "212", "last_edit_year": 2013, "years_since_edit": 13, "label": "10.0–14.0 yr", "color": "#a63603" }, "geometry": { "type": "Point", "coordinates": [ 8.6738414, 49.4074309 ] } },
{ "type": "Feature", "properties": { "index": "213", "last_edit_year": 2025, "years_since_edit": 1, "label": "0.0–1.7 yr", "color": "#feedde" }, "geometry": { "type": "Point", "coordinates": [ 8.6742229, 49.4069772 ] } },
{ "type": "Feature", "properties": { "index": "214", "last_edit_year": 2013, "years_since_edit": 13, "label": "10.0–14.0 yr", "color": "#a63603" }, "geometry": { "type": "Point", "coordinates": [ 8.6740776, 49.4073532 ] } },
{ "type": "Feature", "properties": { "index": "215", "last_edit_year": 2013, "years_since_edit": 13, "label": "10.0–14.0 yr", "color": "#a63603" }, "geometry": { "type": "Point", "coordinates": [ 8.6739348, 49.4070462 ] } },
{ "type": "Feature", "properties": { "index": "216", "last_edit_year": 2013, "years_since_edit": 13, "label": "10.0–14.0 yr", "color": "#a63603" }, "geometry": { "type": "Point", "coordinates": [ 8.674233, 49.4075273 ] } },
{ "type": "Feature", "properties": { "index": "217", "last_edit_year": 2013, "years_since_edit": 13, "label": "10.0–14.0 yr", "color": "#a63603" }, "geometry": { "type": "Point", "coordinates": [ 8.6739623, 49.4073911 ] } },
{ "type": "Feature", "properties": { "index": "218", "last_edit_year": 2025, "years_since_edit": 1, "label": "0.0–1.7 yr", "color": "#feedde" }, "geometry": { "type": "Point", "coordinates": [ 8.6742138, 49.4071591 ] } },
{ "type": "Feature", "properties": { "index": "219", "last_edit_year": 2025, "years_since_edit": 1, "label": "0.0–1.7 yr", "color": "#feedde" }, "geometry": { "type": "Point", "coordinates": [ 8.6742461, 49.4067408 ] } },
{ "type": "Feature", "properties": { "index": "220", "last_edit_year": 2013, "years_since_edit": 13, "label": "10.0–14.0 yr", "color": "#a63603" }, "geometry": { "type": "Point", "coordinates": [ 8.6737756, 49.4074298 ] } },
{ "type": "Feature", "properties": { "index": "221", "last_edit_year": 2025, "years_since_edit": 1, "label": "0.0–1.7 yr", "color": "#feedde" }, "geometry": { "type": "Point", "coordinates": [ 8.6743014, 49.4063049 ] } },
{ "type": "Feature", "properties": { "index": "222", "last_edit_year": 2013, "years_since_edit": 13, "label": "10.0–14.0 yr", "color": "#a63603" }, "geometry": { "type": "Point", "coordinates": [ 8.6738734, 49.4074931 ] } },
{ "type": "Feature", "properties": { "index": "223", "last_edit_year": 2013, "years_since_edit": 13, "label": "10.0–14.0 yr", "color": "#a63603" }, "geometry": { "type": "Point", "coordinates": [ 8.6742933, 49.4066188 ] } },
{ "type": "Feature", "properties": { "index": "224", "last_edit_year": 2013, "years_since_edit": 13, "label": "10.0–14.0 yr", "color": "#a63603" }, "geometry": { "type": "Point", "coordinates": [ 8.6738921, 49.4069166 ] } },
{ "type": "Feature", "properties": { "index": "225", "last_edit_year": 2013, "years_since_edit": 13, "label": "10.0–14.0 yr", "color": "#a63603" }, "geometry": { "type": "Point", "coordinates": [ 8.6739343, 49.4070675 ] } },
{ "type": "Feature", "properties": { "index": "226", "last_edit_year": 2025, "years_since_edit": 1, "label": "0.0–1.7 yr", "color": "#feedde" }, "geometry": { "type": "Point", "coordinates": [ 8.6742245, 49.4069324 ] } },
{ "type": "Feature", "properties": { "index": "227", "last_edit_year": 2013, "years_since_edit": 13, "label": "10.0–14.0 yr", "color": "#a63603" }, "geometry": { "type": "Point", "coordinates": [ 8.6738909, 49.4069478 ] } },
{ "type": "Feature", "properties": { "index": "228", "last_edit_year": 2013, "years_since_edit": 13, "label": "10.0–14.0 yr", "color": "#a63603" }, "geometry": { "type": "Point", "coordinates": [ 8.674075, 49.4074009 ] } },
{ "type": "Feature", "properties": { "index": "229", "last_edit_year": 2025, "years_since_edit": 1, "label": "0.0–1.7 yr", "color": "#feedde" }, "geometry": { "type": "Point", "coordinates": [ 8.6742836, 49.4062723 ] } },
{ "type": "Feature", "properties": { "index": "230", "last_edit_year": 2025, "years_since_edit": 1, "label": "0.0–1.7 yr", "color": "#feedde" }, "geometry": { "type": "Point", "coordinates": [ 8.6742192, 49.4071121 ] } },
{ "type": "Feature", "properties": { "index": "231", "last_edit_year": 2013, "years_since_edit": 13, "label": "10.0–14.0 yr", "color": "#a63603" }, "geometry": { "type": "Point", "coordinates": [ 8.6739337, 49.4070894 ] } },
{ "type": "Feature", "properties": { "index": "232", "last_edit_year": 2013, "years_since_edit": 13, "label": "10.0–14.0 yr", "color": "#a63603" }, "geometry": { "type": "Point", "coordinates": [ 8.6739384, 49.4074938 ] } },
{ "type": "Feature", "properties": { "index": "233", "last_edit_year": 2013, "years_since_edit": 13, "label": "10.0–14.0 yr", "color": "#a63603" }, "geometry": { "type": "Point", "coordinates": [ 8.6742611, 49.4072139 ] } },
{ "type": "Feature", "properties": { "index": "234", "last_edit_year": 2013, "years_since_edit": 13, "label": "10.0–14.0 yr", "color": "#a63603" }, "geometry": { "type": "Point", "coordinates": [ 8.6738932, 49.4068853 ] } },
{ "type": "Feature", "properties": { "index": "235", "last_edit_year": 2025, "years_since_edit": 1, "label": "0.0–1.7 yr", "color": "#feedde" }, "geometry": { "type": "Point", "coordinates": [ 8.674336, 49.4064568 ] } },
{ "type": "Feature", "properties": { "index": "236", "last_edit_year": 2013, "years_since_edit": 13, "label": "10.0–14.0 yr", "color": "#a63603" }, "geometry": { "type": "Point", "coordinates": [ 8.6744523, 49.4073274 ] } },
{ "type": "Feature", "properties": { "index": "237", "last_edit_year": 2013, "years_since_edit": 13, "label": "10.0–14.0 yr", "color": "#a63603" }, "geometry": { "type": "Point", "coordinates": [ 8.6742374, 49.4075005 ] } },
{ "type": "Feature", "properties": { "index": "238", "last_edit_year": 2025, "years_since_edit": 1, "label": "0.0–1.7 yr", "color": "#feedde" }, "geometry": { "type": "Point", "coordinates": [ 8.6742166, 49.4072009 ] } },
{ "type": "Feature", "properties": { "index": "239", "last_edit_year": 2026, "years_since_edit": 0, "label": "0.0–1.7 yr", "color": "#feedde" }, "geometry": { "type": "Point", "coordinates": [ 8.6760376, 49.4067295 ] } },
{ "type": "Feature", "properties": { "index": "240", "last_edit_year": 2014, "years_since_edit": 12, "label": "10.0–14.0 yr", "color": "#a63603" }, "geometry": { "type": "Point", "coordinates": [ 8.6699801, 49.4155155 ] } },
{ "type": "Feature", "properties": { "index": "241", "last_edit_year": 2025, "years_since_edit": 1, "label": "0.0–1.7 yr", "color": "#feedde" }, "geometry": { "type": "Point", "coordinates": [ 8.668125, 49.4068284 ] } },
{ "type": "Feature", "properties": { "index": "242", "last_edit_year": 2018, "years_since_edit": 8, "label": "5.8–10.0 yr", "color": "#ee681d" }, "geometry": { "type": "Point", "coordinates": [ 8.6691295, 49.4072781 ] } },
{ "type": "Feature", "properties": { "index": "243", "last_edit_year": 2018, "years_since_edit": 8, "label": "5.8–10.0 yr", "color": "#ee681d" }, "geometry": { "type": "Point", "coordinates": [ 8.6693318, 49.4072936 ] } },
{ "type": "Feature", "properties": { "index": "244", "last_edit_year": 2025, "years_since_edit": 1, "label": "0.0–1.7 yr", "color": "#feedde" }, "geometry": { "type": "Point", "coordinates": [ 8.6703454, 49.4160814 ] } },
{ "type": "Feature", "properties": { "index": "245", "last_edit_year": 2025, "years_since_edit": 1, "label": "0.0–1.7 yr", "color": "#feedde" }, "geometry": { "type": "Point", "coordinates": [ 8.6705524, 49.4159612 ] } },
{ "type": "Feature", "properties": { "index": "246", "last_edit_year": 2014, "years_since_edit": 12, "label": "10.0–14.0 yr", "color": "#a63603" }, "geometry": { "type": "Point", "coordinates": [ 8.6692959, 49.4160945 ] } },
{ "type": "Feature", "properties": { "index": "247", "last_edit_year": 2014, "years_since_edit": 12, "label": "10.0–14.0 yr", "color": "#a63603" }, "geometry": { "type": "Point", "coordinates": [ 8.670061, 49.4160191 ] } },
{ "type": "Feature", "properties": { "index": "248", "last_edit_year": 2014, "years_since_edit": 12, "label": "10.0–14.0 yr", "color": "#a63603" }, "geometry": { "type": "Point", "coordinates": [ 8.6706782, 49.4160763 ] } },
{ "type": "Feature", "properties": { "index": "249", "last_edit_year": 2026, "years_since_edit": 0, "label": "0.0–1.7 yr", "color": "#feedde" }, "geometry": { "type": "Point", "coordinates": [ 8.6783241, 49.400017 ] } },
{ "type": "Feature", "properties": { "index": "250", "last_edit_year": 2014, "years_since_edit": 12, "label": "10.0–14.0 yr", "color": "#a63603" }, "geometry": { "type": "Point", "coordinates": [ 8.6761651, 49.4064397 ] } },
{ "type": "Feature", "properties": { "index": "251", "last_edit_year": 2022, "years_since_edit": 4, "label": "1.7–5.8 yr", "color": "#fdae6d" }, "geometry": { "type": "Point", "coordinates": [ 8.69258, 49.4166596 ] } },
{ "type": "Feature", "properties": { "index": "252", "last_edit_year": 2019, "years_since_edit": 7, "label": "5.8–10.0 yr", "color": "#ee681d" }, "geometry": { "type": "Point", "coordinates": [ 8.6724365, 49.4135349 ] } },
{ "type": "Feature", "properties": { "index": "253", "last_edit_year": 2019, "years_since_edit": 7, "label": "5.8–10.0 yr", "color": "#ee681d" }, "geometry": { "type": "Point", "coordinates": [ 8.6600655, 49.4160272 ] } },
{ "type": "Feature", "properties": { "index": "254", "last_edit_year": 2025, "years_since_edit": 1, "label": "0.0–1.7 yr", "color": "#feedde" }, "geometry": { "type": "Point", "coordinates": [ 8.6788906, 49.3980001 ] } },
{ "type": "Feature", "properties": { "index": "255", "last_edit_year": 2024, "years_since_edit": 2, "label": "1.7–5.8 yr", "color": "#fdae6d" }, "geometry": { "type": "Point", "coordinates": [ 8.6760322, 49.4000745 ] } },
{ "type": "Feature", "properties": { "index": "256", "last_edit_year": 2021, "years_since_edit": 5, "label": "1.7–5.8 yr", "color": "#fdae6d" }, "geometry": { "type": "Point", "coordinates": [ 8.6723125, 49.39834 ] } },
{ "type": "Feature", "properties": { "index": "257", "last_edit_year": 2019, "years_since_edit": 7, "label": "5.8–10.0 yr", "color": "#ee681d" }, "geometry": { "type": "Point", "coordinates": [ 8.677153, 49.3988792 ] } },
{ "type": "Feature", "properties": { "index": "258", "last_edit_year": 2024, "years_since_edit": 2, "label": "1.7–5.8 yr", "color": "#fdae6d" }, "geometry": { "type": "Point", "coordinates": [ 8.670635, 49.4177517 ] } },
{ "type": "Feature", "properties": { "index": "259", "last_edit_year": 2024, "years_since_edit": 2, "label": "1.7–5.8 yr", "color": "#fdae6d" }, "geometry": { "type": "Point", "coordinates": [ 8.6683074, 49.4175363 ] } },
{ "type": "Feature", "properties": { "index": "260", "last_edit_year": 2024, "years_since_edit": 2, "label": "1.7–5.8 yr", "color": "#fdae6d" }, "geometry": { "type": "Point", "coordinates": [ 8.6684328, 49.4175348 ] } },
{ "type": "Feature", "properties": { "index": "261", "last_edit_year": 2019, "years_since_edit": 7, "label": "5.8–10.0 yr", "color": "#ee681d" }, "geometry": { "type": "Point", "coordinates": [ 8.668862, 49.4161059 ] } },
{ "type": "Feature", "properties": { "index": "262", "last_edit_year": 2025, "years_since_edit": 1, "label": "0.0–1.7 yr", "color": "#feedde" }, "geometry": { "type": "Point", "coordinates": [ 8.669029, 49.4164862 ] } },
{ "type": "Feature", "properties": { "index": "263", "last_edit_year": 2024, "years_since_edit": 2, "label": "1.7–5.8 yr", "color": "#fdae6d" }, "geometry": { "type": "Point", "coordinates": [ 8.6685709, 49.4168413 ] } },
{ "type": "Feature", "properties": { "index": "264", "last_edit_year": 2024, "years_since_edit": 2, "label": "1.7–5.8 yr", "color": "#fdae6d" }, "geometry": { "type": "Point", "coordinates": [ 8.6686664, 49.416894 ] } },
{ "type": "Feature", "properties": { "index": "265", "last_edit_year": 2024, "years_since_edit": 2, "label": "1.7–5.8 yr", "color": "#fdae6d" }, "geometry": { "type": "Point", "coordinates": [ 8.6684859, 49.4167513 ] } },
{ "type": "Feature", "properties": { "index": "266", "last_edit_year": 2024, "years_since_edit": 2, "label": "1.7–5.8 yr", "color": "#fdae6d" }, "geometry": { "type": "Point", "coordinates": [ 8.6680621, 49.4167538 ] } },
{ "type": "Feature", "properties": { "index": "267", "last_edit_year": 2024, "years_since_edit": 2, "label": "1.7–5.8 yr", "color": "#fdae6d" }, "geometry": { "type": "Point", "coordinates": [ 8.6682408, 49.4167526 ] } },
{ "type": "Feature", "properties": { "index": "268", "last_edit_year": 2024, "years_since_edit": 2, "label": "1.7–5.8 yr", "color": "#fdae6d" }, "geometry": { "type": "Point", "coordinates": [ 8.6690829, 49.4164088 ] } },
{ "type": "Feature", "properties": { "index": "269", "last_edit_year": 2025, "years_since_edit": 1, "label": "0.0–1.7 yr", "color": "#feedde" }, "geometry": { "type": "Point", "coordinates": [ 8.6684427, 49.4163602 ] } },
{ "type": "Feature", "properties": { "index": "270", "last_edit_year": 2024, "years_since_edit": 2, "label": "1.7–5.8 yr", "color": "#fdae6d" }, "geometry": { "type": "Point", "coordinates": [ 8.6685984, 49.4164767 ] } },
{ "type": "Feature", "properties": { "index": "271", "last_edit_year": 2024, "years_since_edit": 2, "label": "1.7–5.8 yr", "color": "#fdae6d" }, "geometry": { "type": "Point", "coordinates": [ 8.6689164, 49.4169066 ] } },
{ "type": "Feature", "properties": { "index": "272", "last_edit_year": 2021, "years_since_edit": 5, "label": "1.7–5.8 yr", "color": "#fdae6d" }, "geometry": { "type": "Point", "coordinates": [ 8.6828892, 49.4197495 ] } },
{ "type": "Feature", "properties": { "index": "273", "last_edit_year": 2019, "years_since_edit": 7, "label": "5.8–10.0 yr", "color": "#ee681d" }, "geometry": { "type": "Point", "coordinates": [ 8.6712316, 49.4186616 ] } },
{ "type": "Feature", "properties": { "index": "274", "last_edit_year": 2022, "years_since_edit": 4, "label": "1.7–5.8 yr", "color": "#fdae6d" }, "geometry": { "type": "Point", "coordinates": [ 8.677746, 49.3986369 ] } },
{ "type": "Feature", "properties": { "index": "275", "last_edit_year": 2020, "years_since_edit": 6, "label": "5.8–10.0 yr", "color": "#ee681d" }, "geometry": { "type": "Point", "coordinates": [ 8.6771081, 49.40831 ] } },
{ "type": "Feature", "properties": { "index": "276", "last_edit_year": 2026, "years_since_edit": 0, "label": "0.0–1.7 yr", "color": "#feedde" }, "geometry": { "type": "Point", "coordinates": [ 8.6604169, 49.4067155 ] } },
{ "type": "Feature", "properties": { "index": "277", "last_edit_year": 2021, "years_since_edit": 5, "label": "1.7–5.8 yr", "color": "#fdae6d" }, "geometry": { "type": "Point", "coordinates": [ 8.6609342, 49.4065001 ] } },
{ "type": "Feature", "properties": { "index": "278", "last_edit_year": 2026, "years_since_edit": 0, "label": "0.0–1.7 yr", "color": "#feedde" }, "geometry": { "type": "Point", "coordinates": [ 8.6611265, 49.4066825 ] } },
{ "type": "Feature", "properties": { "index": "279", "last_edit_year": 2025, "years_since_edit": 1, "label": "0.0–1.7 yr", "color": "#feedde" }, "geometry": { "type": "Point", "coordinates": [ 8.6622915, 49.4066459 ] } },
{ "type": "Feature", "properties": { "index": "280", "last_edit_year": 2025, "years_since_edit": 1, "label": "0.0–1.7 yr", "color": "#feedde" }, "geometry": { "type": "Point", "coordinates": [ 8.6627319, 49.4066327 ] } },
{ "type": "Feature", "properties": { "index": "281", "last_edit_year": 2025, "years_since_edit": 1, "label": "0.0–1.7 yr", "color": "#feedde" }, "geometry": { "type": "Point", "coordinates": [ 8.664468, 49.404734 ] } },
{ "type": "Feature", "properties": { "index": "282", "last_edit_year": 2021, "years_since_edit": 5, "label": "1.7–5.8 yr", "color": "#fdae6d" }, "geometry": { "type": "Point", "coordinates": [ 8.6638353, 49.4053961 ] } },
{ "type": "Feature", "properties": { "index": "283", "last_edit_year": 2024, "years_since_edit": 2, "label": "1.7–5.8 yr", "color": "#fdae6d" }, "geometry": { "type": "Point", "coordinates": [ 8.6661296, 49.405089 ] } },
{ "type": "Feature", "properties": { "index": "284", "last_edit_year": 2025, "years_since_edit": 1, "label": "0.0–1.7 yr", "color": "#feedde" }, "geometry": { "type": "Point", "coordinates": [ 8.6660825, 49.4045517 ] } },
{ "type": "Feature", "properties": { "index": "285", "last_edit_year": 2021, "years_since_edit": 5, "label": "1.7–5.8 yr", "color": "#fdae6d" }, "geometry": { "type": "Point", "coordinates": [ 8.6649092, 49.4052195 ] } },
{ "type": "Feature", "properties": { "index": "286", "last_edit_year": 2022, "years_since_edit": 4, "label": "1.7–5.8 yr", "color": "#fdae6d" }, "geometry": { "type": "Point", "coordinates": [ 8.6600548, 49.4094512 ] } },
{ "type": "Feature", "properties": { "index": "287", "last_edit_year": 2022, "years_since_edit": 4, "label": "1.7–5.8 yr", "color": "#fdae6d" }, "geometry": { "type": "Point", "coordinates": [ 8.6696094, 49.4025118 ] } },
{ "type": "Feature", "properties": { "index": "288", "last_edit_year": 2023, "years_since_edit": 3, "label": "1.7–5.8 yr", "color": "#fdae6d" }, "geometry": { "type": "Point", "coordinates": [ 8.6629234, 49.4189554 ] } },
{ "type": "Feature", "properties": { "index": "289", "last_edit_year": 2024, "years_since_edit": 2, "label": "1.7–5.8 yr", "color": "#fdae6d" }, "geometry": { "type": "Point", "coordinates": [ 8.6611158, 49.4187509 ] } },
{ "type": "Feature", "properties": { "index": "290", "last_edit_year": 2025, "years_since_edit": 1, "label": "0.0–1.7 yr", "color": "#feedde" }, "geometry": { "type": "Point", "coordinates": [ 8.7004408, 49.4084502 ] } },
{ "type": "Feature", "properties": { "index": "291", "last_edit_year": 2026, "years_since_edit": 0, "label": "0.0–1.7 yr", "color": "#feedde" }, "geometry": { "type": "Point", "coordinates": [ 8.6660549, 49.414487 ] } },
{ "type": "Feature", "properties": { "index": "292", "last_edit_year": 2024, "years_since_edit": 2, "label": "1.7–5.8 yr", "color": "#fdae6d" }, "geometry": { "type": "Point", "coordinates": [ 8.6644578, 49.4151206 ] } },
{ "type": "Feature", "properties": { "index": "293", "last_edit_year": 2025, "years_since_edit": 1, "label": "0.0–1.7 yr", "color": "#feedde" }, "geometry": { "type": "Point", "coordinates": [ 8.6853688, 49.4179088 ] } },
{ "type": "Feature", "properties": { "index": "294", "last_edit_year": 2024, "years_since_edit": 2, "label": "1.7–5.8 yr", "color": "#fdae6d" }, "geometry": { "type": "Point", "coordinates": [ 8.6702426, 49.4072604 ] } },
{ "type": "Feature", "properties": { "index": "295", "last_edit_year": 2024, "years_since_edit": 2, "label": "1.7–5.8 yr", "color": "#fdae6d" }, "geometry": { "type": "Point", "coordinates": [ 8.6702861, 49.4071835 ] } },
{ "type": "Feature", "properties": { "index": "296", "last_edit_year": 2023, "years_since_edit": 3, "label": "1.7–5.8 yr", "color": "#fdae6d" }, "geometry": { "type": "Point", "coordinates": [ 8.6703371, 49.3981398 ] } },
{ "type": "Feature", "properties": { "index": "297", "last_edit_year": 2023, "years_since_edit": 3, "label": "1.7–5.8 yr", "color": "#fdae6d" }, "geometry": { "type": "Point", "coordinates": [ 8.6700093, 49.3981583 ] } },
{ "type": "Feature", "properties": { "index": "298", "last_edit_year": 2024, "years_since_edit": 2, "label": "1.7–5.8 yr", "color": "#fdae6d" }, "geometry": { "type": "Point", "coordinates": [ 8.663932, 49.4187665 ] } },
{ "type": "Feature", "properties": { "index": "299", "last_edit_year": 2024, "years_since_edit": 2, "label": "1.7–5.8 yr", "color": "#fdae6d" }, "geometry": { "type": "Point", "coordinates": [ 8.6639333, 49.418714 ] } },
{ "type": "Feature", "properties": { "index": "300", "last_edit_year": 2024, "years_since_edit": 2, "label": "1.7–5.8 yr", "color": "#fdae6d" }, "geometry": { "type": "Point", "coordinates": [ 8.6639327, 49.4187402 ] } },
{ "type": "Feature", "properties": { "index": "301", "last_edit_year": 2024, "years_since_edit": 2, "label": "1.7–5.8 yr", "color": "#fdae6d" }, "geometry": { "type": "Point", "coordinates": [ 8.665226, 49.4209942 ] } },
{ "type": "Feature", "properties": { "index": "302", "last_edit_year": 2024, "years_since_edit": 2, "label": "1.7–5.8 yr", "color": "#fdae6d" }, "geometry": { "type": "Point", "coordinates": [ 8.6727894, 49.4066538 ] } },
{ "type": "Feature", "properties": { "index": "303", "last_edit_year": 2024, "years_since_edit": 2, "label": "1.7–5.8 yr", "color": "#fdae6d" }, "geometry": { "type": "Point", "coordinates": [ 8.6727687, 49.4072574 ] } },
{ "type": "Feature", "properties": { "index": "304", "last_edit_year": 2024, "years_since_edit": 2, "label": "1.7–5.8 yr", "color": "#fdae6d" }, "geometry": { "type": "Point", "coordinates": [ 8.667563, 49.4180803 ] } },
{ "type": "Feature", "properties": { "index": "305", "last_edit_year": 2024, "years_since_edit": 2, "label": "1.7–5.8 yr", "color": "#fdae6d" }, "geometry": { "type": "Point", "coordinates": [ 8.6675184, 49.4178805 ] } },
{ "type": "Feature", "properties": { "index": "306", "last_edit_year": 2024, "years_since_edit": 2, "label": "1.7–5.8 yr", "color": "#fdae6d" }, "geometry": { "type": "Point", "coordinates": [ 8.6675411, 49.4179862 ] } },
{ "type": "Feature", "properties": { "index": "307", "last_edit_year": 2024, "years_since_edit": 2, "label": "1.7–5.8 yr", "color": "#fdae6d" }, "geometry": { "type": "Point", "coordinates": [ 8.6697072, 49.4149429 ] } },
{ "type": "Feature", "properties": { "index": "308", "last_edit_year": 2025, "years_since_edit": 1, "label": "0.0–1.7 yr", "color": "#feedde" }, "geometry": { "type": "Point", "coordinates": [ 8.6703496, 49.4131244 ] } },
{ "type": "Feature", "properties": { "index": "309", "last_edit_year": 2024, "years_since_edit": 2, "label": "1.7–5.8 yr", "color": "#fdae6d" }, "geometry": { "type": "Point", "coordinates": [ 8.6705401, 49.4092069 ] } },
{ "type": "Feature", "properties": { "index": "310", "last_edit_year": 2024, "years_since_edit": 2, "label": "1.7–5.8 yr", "color": "#fdae6d" }, "geometry": { "type": "Point", "coordinates": [ 8.6702399, 49.4092161 ] } },
{ "type": "Feature", "properties": { "index": "311", "last_edit_year": 2025, "years_since_edit": 1, "label": "0.0–1.7 yr", "color": "#feedde" }, "geometry": { "type": "Point", "coordinates": [ 8.6718847, 49.4068114 ] } },
{ "type": "Feature", "properties": { "index": "312", "last_edit_year": 2025, "years_since_edit": 1, "label": "0.0–1.7 yr", "color": "#feedde" }, "geometry": { "type": "Point", "coordinates": [ 8.6629834, 49.4061047 ] } },
{ "type": "Feature", "properties": { "index": "313", "last_edit_year": 2025, "years_since_edit": 1, "label": "0.0–1.7 yr", "color": "#feedde" }, "geometry": { "type": "Point", "coordinates": [ 8.6627305, 49.4060424 ] } },
{ "type": "Feature", "properties": { "index": "314", "last_edit_year": 2025, "years_since_edit": 1, "label": "0.0–1.7 yr", "color": "#feedde" }, "geometry": { "type": "Point", "coordinates": [ 8.6779951, 49.4082154 ] } },
{ "type": "Feature", "properties": { "index": "315", "last_edit_year": 2025, "years_since_edit": 1, "label": "0.0–1.7 yr", "color": "#feedde" }, "geometry": { "type": "Point", "coordinates": [ 8.6741599, 49.4020811 ] } },
{ "type": "Feature", "properties": { "index": "316", "last_edit_year": 2025, "years_since_edit": 1, "label": "0.0–1.7 yr", "color": "#feedde" }, "geometry": { "type": "Point", "coordinates": [ 8.6743489, 49.4019899 ] } },
{ "type": "Feature", "properties": { "index": "317", "last_edit_year": 2026, "years_since_edit": 0, "label": "0.0–1.7 yr", "color": "#feedde" }, "geometry": { "type": "Point", "coordinates": [ 8.6662767, 49.4127772 ] } },
{ "type": "Feature", "properties": { "index": "318", "last_edit_year": 2026, "years_since_edit": 0, "label": "0.0–1.7 yr", "color": "#feedde" }, "geometry": { "type": "Point", "coordinates": [ 8.6733431, 49.4089936 ] } },
{ "type": "Feature", "properties": { "index": "319", "last_edit_year": 2026, "years_since_edit": 0, "label": "0.0–1.7 yr", "color": "#feedde" }, "geometry": { "type": "Point", "coordinates": [ 8.6673976, 49.3980585 ] } },
{ "type": "Feature", "properties": { "index": "320", "last_edit_year": 2024, "years_since_edit": 2, "label": "1.7–5.8 yr", "color": "#fdae6d" }, "geometry": { "type": "Point", "coordinates": [ 8.691822, 49.4064795 ] } },
{ "type": "Feature", "properties": { "index": "321", "last_edit_year": 2025, "years_since_edit": 1, "label": "0.0–1.7 yr", "color": "#feedde" }, "geometry": { "type": "Point", "coordinates": [ 8.6720084, 49.4089695 ] } },
{ "type": "Feature", "properties": { "index": "322", "last_edit_year": 2025, "years_since_edit": 1, "label": "0.0–1.7 yr", "color": "#feedde" }, "geometry": { "type": "Point", "coordinates": [ 8.6693533, 49.4094813 ] } },
{ "type": "Feature", "properties": { "index": "323", "last_edit_year": 2024, "years_since_edit": 2, "label": "1.7–5.8 yr", "color": "#fdae6d" }, "geometry": { "type": "Point", "coordinates": [ 8.6789769, 49.4040432 ] } },
{ "type": "Feature", "properties": { "index": "324", "last_edit_year": 2026, "years_since_edit": 0, "label": "0.0–1.7 yr", "color": "#feedde" }, "geometry": { "type": "Point", "coordinates": [ 8.6754091, 49.4214174 ] } },
{ "type": "Feature", "properties": { "index": "325", "last_edit_year": 2024, "years_since_edit": 2, "label": "1.7–5.8 yr", "color": "#fdae6d" }, "geometry": { "type": "Point", "coordinates": [ 8.6705073, 49.4139305 ] } },
{ "type": "Feature", "properties": { "index": "326", "last_edit_year": 2024, "years_since_edit": 2, "label": "1.7–5.8 yr", "color": "#fdae6d" }, "geometry": { "type": "Point", "coordinates": [ 8.6925384, 49.4136238 ] } },
{ "type": "Feature", "properties": { "index": "327", "last_edit_year": 2024, "years_since_edit": 2, "label": "1.7–5.8 yr", "color": "#fdae6d" }, "geometry": { "type": "Point", "coordinates": [ 8.6948451, 49.4080031 ] } },
{ "type": "Feature", "properties": { "index": "328", "last_edit_year": 2023, "years_since_edit": 3, "label": "1.7–5.8 yr", "color": "#fdae6d" }, "geometry": { "type": "Point", "coordinates": [ 8.6698002, 49.4066316 ] } },
{ "type": "Feature", "properties": { "index": "329", "last_edit_year": 2024, "years_since_edit": 2, "label": "1.7–5.8 yr", "color": "#fdae6d" }, "geometry": { "type": "Point", "coordinates": [ 8.6829502, 49.4064148 ] } },
{ "type": "Feature", "properties": { "index": "330", "last_edit_year": 2024, "years_since_edit": 2, "label": "1.7–5.8 yr", "color": "#fdae6d" }, "geometry": { "type": "Point", "coordinates": [ 8.6823327, 49.4072882 ] } },
{ "type": "Feature", "properties": { "index": "331", "last_edit_year": 2024, "years_since_edit": 2, "label": "1.7–5.8 yr", "color": "#fdae6d" }, "geometry": { "type": "Point", "coordinates": [ 8.6846006, 49.4064958 ] } },
{ "type": "Feature", "properties": { "index": "332", "last_edit_year": 2025, "years_since_edit": 1, "label": "0.0–1.7 yr", "color": "#feedde" }, "geometry": { "type": "Point", "coordinates": [ 8.6861757, 49.4073148 ] } },
{ "type": "Feature", "properties": { "index": "333", "last_edit_year": 2024, "years_since_edit": 2, "label": "1.7–5.8 yr", "color": "#fdae6d" }, "geometry": { "type": "Point", "coordinates": [ 8.6920076, 49.4096879 ] } },
{ "type": "Feature", "properties": { "index": "334", "last_edit_year": 2025, "years_since_edit": 1, "label": "0.0–1.7 yr", "color": "#feedde" }, "geometry": { "type": "Point", "coordinates": [ 8.6965977, 49.4092764 ] } },
{ "type": "Feature", "properties": { "index": "335", "last_edit_year": 2025, "years_since_edit": 1, "label": "0.0–1.7 yr", "color": "#feedde" }, "geometry": { "type": "Point", "coordinates": [ 8.7081342, 49.4132914 ] } },
{ "type": "Feature", "properties": { "index": "336", "last_edit_year": 2021, "years_since_edit": 5, "label": "1.7–5.8 yr", "color": "#fdae6d" }, "geometry": { "type": "Point", "coordinates": [ 8.6938003, 49.4088903 ] } },
{ "type": "Feature", "properties": { "index": "337", "last_edit_year": 2021, "years_since_edit": 5, "label": "1.7–5.8 yr", "color": "#fdae6d" }, "geometry": { "type": "Point", "coordinates": [ 8.7118726, 49.4126713 ] } },
{ "type": "Feature", "properties": { "index": "338", "last_edit_year": 2024, "years_since_edit": 2, "label": "1.7–5.8 yr", "color": "#fdae6d" }, "geometry": { "type": "Point", "coordinates": [ 8.6968388, 49.407925 ] } },
{ "type": "Feature", "properties": { "index": "339", "last_edit_year": 2026, "years_since_edit": 0, "label": "0.0–1.7 yr", "color": "#feedde" }, "geometry": { "type": "Point", "coordinates": [ 8.7017843, 49.4123736 ] } },
{ "type": "Feature", "properties": { "index": "340", "last_edit_year": 2024, "years_since_edit": 2, "label": "1.7–5.8 yr", "color": "#fdae6d" }, "geometry": { "type": "Point", "coordinates": [ 8.697748, 49.4102391 ] } },
{ "type": "Feature", "properties": { "index": "341", "last_edit_year": 2016, "years_since_edit": 10, "label": "10.0–14.0 yr", "color": "#a63603" }, "geometry": { "type": "Point", "coordinates": [ 8.7188097, 49.4145019 ] } },
{ "type": "Feature", "properties": { "index": "342", "last_edit_year": 2026, "years_since_edit": 0, "label": "0.0–1.7 yr", "color": "#feedde" }, "geometry": { "type": "Point", "coordinates": [ 8.6941874, 49.4109446 ] } },
{ "type": "Feature", "properties": { "index": "343", "last_edit_year": 2024, "years_since_edit": 2, "label": "1.7–5.8 yr", "color": "#fdae6d" }, "geometry": { "type": "Point", "coordinates": [ 8.7055678, 49.4105302 ] } },
{ "type": "Feature", "properties": { "index": "344", "last_edit_year": 2025, "years_since_edit": 1, "label": "0.0–1.7 yr", "color": "#feedde" }, "geometry": { "type": "Point", "coordinates": [ 8.6916552, 49.4101694 ] } },
{ "type": "Feature", "properties": { "index": "345", "last_edit_year": 2024, "years_since_edit": 2, "label": "1.7–5.8 yr", "color": "#fdae6d" }, "geometry": { "type": "Point", "coordinates": [ 8.6857036, 49.4082733 ] } },
{ "type": "Feature", "properties": { "index": "346", "last_edit_year": 2026, "years_since_edit": 0, "label": "0.0–1.7 yr", "color": "#feedde" }, "geometry": { "type": "Point", "coordinates": [ 8.6884352, 49.4071893 ] } },
{ "type": "Feature", "properties": { "index": "347", "last_edit_year": 2025, "years_since_edit": 1, "label": "0.0–1.7 yr", "color": "#feedde" }, "geometry": { "type": "Point", "coordinates": [ 8.6801373, 49.4077773 ] } },
{ "type": "Feature", "properties": { "index": "348", "last_edit_year": 2025, "years_since_edit": 1, "label": "0.0–1.7 yr", "color": "#feedde" }, "geometry": { "type": "Point", "coordinates": [ 8.690543, 49.4086991 ] } },
{ "type": "Feature", "properties": { "index": "349", "last_edit_year": 2025, "years_since_edit": 1, "label": "0.0–1.7 yr", "color": "#feedde" }, "geometry": { "type": "Point", "coordinates": [ 8.6789696, 49.4072067 ] } },
{ "type": "Feature", "properties": { "index": "350", "last_edit_year": 2024, "years_since_edit": 2, "label": "1.7–5.8 yr", "color": "#fdae6d" }, "geometry": { "type": "Point", "coordinates": [ 8.6789231, 49.4083342 ] } },
{ "type": "Feature", "properties": { "index": "351", "last_edit_year": 2025, "years_since_edit": 1, "label": "0.0–1.7 yr", "color": "#feedde" }, "geometry": { "type": "Point", "coordinates": [ 8.681833, 49.4088561 ] } },
{ "type": "Feature", "properties": { "index": "352", "last_edit_year": 2021, "years_since_edit": 5, "label": "1.7–5.8 yr", "color": "#fdae6d" }, "geometry": { "type": "Point", "coordinates": [ 8.6901438, 49.4145805 ] } },
{ "type": "Feature", "properties": { "index": "353", "last_edit_year": 2021, "years_since_edit": 5, "label": "1.7–5.8 yr", "color": "#fdae6d" }, "geometry": { "type": "Point", "coordinates": [ 8.691164, 49.418497 ] } },
{ "type": "Feature", "properties": { "index": "354", "last_edit_year": 2021, "years_since_edit": 5, "label": "1.7–5.8 yr", "color": "#fdae6d" }, "geometry": { "type": "Point", "coordinates": [ 8.6871936, 49.4186745 ] } },
{ "type": "Feature", "properties": { "index": "355", "last_edit_year": 2025, "years_since_edit": 1, "label": "0.0–1.7 yr", "color": "#feedde" }, "geometry": { "type": "Point", "coordinates": [ 8.6810379, 49.4035002 ] } },
{ "type": "Feature", "properties": { "index": "356", "last_edit_year": 2025, "years_since_edit": 1, "label": "0.0–1.7 yr", "color": "#feedde" }, "geometry": { "type": "Point", "coordinates": [ 8.6871845, 49.4049652 ] } },
{ "type": "Feature", "properties": { "index": "357", "last_edit_year": 2025, "years_since_edit": 1, "label": "0.0–1.7 yr", "color": "#feedde" }, "geometry": { "type": "Point", "coordinates": [ 8.6728462, 49.3981694 ] } },
{ "type": "Feature", "properties": { "index": "358", "last_edit_year": 2026, "years_since_edit": 0, "label": "0.0–1.7 yr", "color": "#feedde" }, "geometry": { "type": "Point", "coordinates": [ 8.6781601, 49.4048766 ] } },
{ "type": "Feature", "properties": { "index": "359", "last_edit_year": 2021, "years_since_edit": 5, "label": "1.7–5.8 yr", "color": "#fdae6d" }, "geometry": { "type": "Point", "coordinates": [ 8.6917261, 49.4110761 ] } },
{ "type": "Feature", "properties": { "index": "360", "last_edit_year": 2019, "years_since_edit": 7, "label": "5.8–10.0 yr", "color": "#ee681d" }, "geometry": { "type": "Point", "coordinates": [ 8.678525, 49.3984302 ] } },
{ "type": "Feature", "properties": { "index": "361", "last_edit_year": 2024, "years_since_edit": 2, "label": "1.7–5.8 yr", "color": "#fdae6d" }, "geometry": { "type": "Point", "coordinates": [ 8.7153581, 49.4138775 ] } },
{ "type": "Feature", "properties": { "index": "362", "last_edit_year": 2026, "years_since_edit": 0, "label": "0.0–1.7 yr", "color": "#feedde" }, "geometry": { "type": "Point", "coordinates": [ 8.6752669, 49.4182004 ] } },
{ "type": "Feature", "properties": { "index": "363", "last_edit_year": 2026, "years_since_edit": 0, "label": "0.0–1.7 yr", "color": "#feedde" }, "geometry": { "type": "Point", "coordinates": [ 8.6918261, 49.4014461 ] } },
{ "type": "Feature", "properties": { "index": "364", "last_edit_year": 2025, "years_since_edit": 1, "label": "0.0–1.7 yr", "color": "#feedde" }, "geometry": { "type": "Point", "coordinates": [ 8.6661458, 49.4033026 ] } },
{ "type": "Feature", "properties": { "index": "365", "last_edit_year": 2026, "years_since_edit": 0, "label": "0.0–1.7 yr", "color": "#feedde" }, "geometry": { "type": "Point", "coordinates": [ 8.6880666, 49.407644 ] } },
{ "type": "Feature", "properties": { "index": "366", "last_edit_year": 2025, "years_since_edit": 1, "label": "0.0–1.7 yr", "color": "#feedde" }, "geometry": { "type": "Point", "coordinates": [ 8.7084412, 49.410026 ] } },
{ "type": "Feature", "properties": { "index": "367", "last_edit_year": 2026, "years_since_edit": 0, "label": "0.0–1.7 yr", "color": "#feedde" }, "geometry": { "type": "Point", "coordinates": [ 8.7132514, 49.4090269 ] } },
{ "type": "Feature", "properties": { "index": "368", "last_edit_year": 2018, "years_since_edit": 8, "label": "5.8–10.0 yr", "color": "#ee681d" }, "geometry": { "type": "Point", "coordinates": [ 8.6914844, 49.4078917 ] } },
{ "type": "Feature", "properties": { "index": "369", "last_edit_year": 2025, "years_since_edit": 1, "label": "0.0–1.7 yr", "color": "#feedde" }, "geometry": { "type": "Point", "coordinates": [ 8.6721197, 49.3983623 ] } },
{ "type": "Feature", "properties": { "index": "370", "last_edit_year": 2023, "years_since_edit": 3, "label": "1.7–5.8 yr", "color": "#fdae6d" }, "geometry": { "type": "Point", "coordinates": [ 8.6936107, 49.4109741 ] } },
{ "type": "Feature", "properties": { "index": "371", "last_edit_year": 2021, "years_since_edit": 5, "label": "1.7–5.8 yr", "color": "#fdae6d" }, "geometry": { "type": "Point", "coordinates": [ 8.6840395, 49.4206709 ] } },
{ "type": "Feature", "properties": { "index": "372", "last_edit_year": 2026, "years_since_edit": 0, "label": "0.0–1.7 yr", "color": "#feedde" }, "geometry": { "type": "Point", "coordinates": [ 8.6724333, 49.3998887 ] } },
{ "type": "Feature", "properties": { "index": "373", "last_edit_year": 2019, "years_since_edit": 7, "label": "5.8–10.0 yr", "color": "#ee681d" }, "geometry": { "type": "Point", "coordinates": [ 8.6810171, 49.4070823 ] } },
{ "type": "Feature", "properties": { "index": "374", "last_edit_year": 2026, "years_since_edit": 0, "label": "0.0–1.7 yr", "color": "#feedde" }, "geometry": { "type": "Point", "coordinates": [ 8.6668203, 49.4047661 ] } },
{ "type": "Feature", "properties": { "index": "375", "last_edit_year": 2023, "years_since_edit": 3, "label": "1.7–5.8 yr", "color": "#fdae6d" }, "geometry": { "type": "Point", "coordinates": [ 8.6869548, 49.4079318 ] } },
{ "type": "Feature", "properties": { "index": "376", "last_edit_year": 2024, "years_since_edit": 2, "label": "1.7–5.8 yr", "color": "#fdae6d" }, "geometry": { "type": "Point", "coordinates": [ 8.7159, 49.413464 ] } },
{ "type": "Feature", "properties": { "index": "377", "last_edit_year": 2024, "years_since_edit": 2, "label": "1.7–5.8 yr", "color": "#fdae6d" }, "geometry": { "type": "Point", "coordinates": [ 8.6701028, 49.403341 ] } },
{ "type": "Feature", "properties": { "index": "378", "last_edit_year": 2025, "years_since_edit": 1, "label": "0.0–1.7 yr", "color": "#feedde" }, "geometry": { "type": "Point", "coordinates": [ 8.6690081, 49.4036152 ] } },
{ "type": "Feature", "properties": { "index": "379", "last_edit_year": 2026, "years_since_edit": 0, "label": "0.0–1.7 yr", "color": "#feedde" }, "geometry": { "type": "Point", "coordinates": [ 8.674381, 49.4029461 ] } },
{ "type": "Feature", "properties": { "index": "380", "last_edit_year": 2025, "years_since_edit": 1, "label": "0.0–1.7 yr", "color": "#feedde" }, "geometry": { "type": "Point", "coordinates": [ 8.6732836, 49.4012087 ] } },
{ "type": "Feature", "properties": { "index": "381", "last_edit_year": 2025, "years_since_edit": 1, "label": "0.0–1.7 yr", "color": "#feedde" }, "geometry": { "type": "Point", "coordinates": [ 8.6873179, 49.4059294 ] } },
{ "type": "Feature", "properties": { "index": "382", "last_edit_year": 2025, "years_since_edit": 1, "label": "0.0–1.7 yr", "color": "#feedde" }, "geometry": { "type": "Point", "coordinates": [ 8.6818201, 49.4054775 ] } },
{ "type": "Feature", "properties": { "index": "383", "last_edit_year": 2025, "years_since_edit": 1, "label": "0.0–1.7 yr", "color": "#feedde" }, "geometry": { "type": "Point", "coordinates": [ 8.6922615, 49.4030562 ] } },
{ "type": "Feature", "properties": { "index": "384", "last_edit_year": 2026, "years_since_edit": 0, "label": "0.0–1.7 yr", "color": "#feedde" }, "geometry": { "type": "Point", "coordinates": [ 8.6855396, 49.4016026 ] } },
{ "type": "Feature", "properties": { "index": "385", "last_edit_year": 2026, "years_since_edit": 0, "label": "0.0–1.7 yr", "color": "#feedde" }, "geometry": { "type": "Point", "coordinates": [ 8.6730244, 49.4170553 ] } },
{ "type": "Feature", "properties": { "index": "386", "last_edit_year": 2026, "years_since_edit": 0, "label": "0.0–1.7 yr", "color": "#feedde" }, "geometry": { "type": "Point", "coordinates": [ 8.6721559, 49.4172564 ] } }
]
}
