{
"type": "FeatureCollection",
"features": [
{ "type": "Feature", "properties": { "index": "0", "subarea": "R1C1", "count": 60, "density_per_km2": 60.71498, "per_1000_inhabitants": 16.19823, "label": "Not significant", "color": "#d9d9d9" }, "geometry": { "type": "Polygon", "coordinates": [ [ [ 8.66, 49.413005 ], [ 8.6736824, 49.4130444 ], [ 8.673623, 49.4220027 ], [ 8.66, 49.422 ], [ 8.66, 49.413005 ] ] ] } },
{ "type": "Feature", "properties": { "index": "1", "subarea": "R1C2", "count": 24, "density_per_km2": 24.14766, "per_1000_inhabitants": 3.138947, "label": "Not significant", "color": "#d9d9d9" }, "geometry": { "type": "Polygon", "coordinates": [ [ [ 8.6736824, 49.4130444 ], [ 8.6874685, 49.4130825 ], [ 8.6874119, 49.4220039 ], [ 8.673623, 49.4220027 ], [ 8.6736824, 49.4130444 ] ] ] } },
{ "type": "Feature", "properties": { "index": "2", "subarea": "R1C3", "count": 15, "density_per_km2": 15.15495, "per_1000_inhabitants": 3.330682, "label": "Not significant", "color": "#d9d9d9" }, "geometry": { "type": "Polygon", "coordinates": [ [ [ 8.6874685, 49.4130825 ], [ 8.7012546, 49.413119 ], [ 8.7012007, 49.4220033 ], [ 8.6874119, 49.4220039 ], [ 8.6874685, 49.4130825 ] ] ] } },
{ "type": "Feature", "properties": { "index": "3", "subarea": "R1C4", "count": 8, "density_per_km2": 8.116337, "per_1000_inhabitants": 20.24971, "label": "Not significant", "color": "#d9d9d9" }, "geometry": { "type": "Polygon", "coordinates": [ [ [ 8.7012546, 49.413119 ], [ 8.7150408, 49.4131538 ], [ 8.7149895, 49.4220012 ], [ 8.7012007, 49.4220033 ], [ 8.7012546, 49.413119 ] ] ] } },
{ "type": "Feature", "properties": { "index": "4", "subarea": "R1C5", "count": 5, "density_per_km2": 14.07049, "per_1000_inhabitants": 38.46508, "label": "Not significant", "color": "#d9d9d9" }, "geometry": { "type": "Polygon", "coordinates": [ [ [ 8.7149895, 49.4220012 ], [ 8.7150408, 49.4131538 ], [ 8.72, 49.4131659 ], [ 8.72, 49.422 ], [ 8.7149895, 49.4220012 ] ] ] } },
{ "type": "Feature", "properties": { "index": "5", "subarea": "R2C1", "count": 34, "density_per_km2": 34.17993, "per_1000_inhabitants": 11.05033, "label": "Not significant", "color": "#d9d9d9" }, "geometry": { "type": "Polygon", "coordinates": [ [ [ 8.673742, 49.4040496 ], [ 8.6736824, 49.4130444 ], [ 8.66, 49.413005 ], [ 8.66, 49.40401 ], [ 8.673742, 49.4040496 ] ] ] } },
{ "type": "Feature", "properties": { "index": "6", "subarea": "R2C2", "count": 98, "density_per_km2": 98.0, "per_1000_inhabitants": 15.51846, "label": "Low-Low", "color": "#2b8cbe" }, "geometry": { "type": "Polygon", "coordinates": [ [ [ 8.6736824, 49.4130444 ], [ 8.673742, 49.4040496 ], [ 8.6875256, 49.4040877 ], [ 8.6874685, 49.4130825 ], [ 8.6736824, 49.4130444 ] ] ] } },
{ "type": "Feature", "properties": { "index": "7", "subarea": "R2C3", "count": 52, "density_per_km2": 52.0, "per_1000_inhabitants": 7.714167, "label": "Not significant", "color": "#d9d9d9" }, "geometry": { "type": "Polygon", "coordinates": [ [ [ 8.6874685, 49.4130825 ], [ 8.6875256, 49.4040877 ], [ 8.7013092, 49.4041241 ], [ 8.7012546, 49.413119 ], [ 8.6874685, 49.4130825 ] ] ] } },
{ "type": "Feature", "properties": { "index": "8", "subarea": "R2C4", "count": 33, "density_per_km2": 33.0, "per_1000_inhabitants": 7.470416, "label": "Not significant", "color": "#d9d9d9" }, "geometry": { "type": "Polygon", "coordinates": [ [ [ 8.7012546, 49.413119 ], [ 8.7013092, 49.4041241 ], [ 8.7150928, 49.4041589 ], [ 8.7150408, 49.4131538 ], [ 8.7012546, 49.413119 ] ] ] } },
{ "type": "Feature", "properties": { "index": "9", "subarea": "R2C5", "count": 11, "density_per_km2": 30.73746, "per_1000_inhabitants": 44.43407, "label": "Low-High", "color": "#abd9e9" }, "geometry": { "type": "Polygon", "coordinates": [ [ [ 8.7150408, 49.4131538 ], [ 8.7150928, 49.4041589 ], [ 8.72, 49.4041709 ], [ 8.72, 49.4131659 ], [ 8.7150408, 49.4131538 ] ] ] } },
{ "type": "Feature", "properties": { "index": "10", "subarea": "R3C1", "count": 12, "density_per_km2": 17.93193, "per_1000_inhabitants": 3.105295, "label": "Not significant", "color": "#d9d9d9" }, "geometry": { "type": "Polygon", "coordinates": [ [ [ 8.6737821, 49.3980028 ], [ 8.673742, 49.4040496 ], [ 8.66, 49.40401 ], [ 8.66, 49.398 ], [ 8.6737821, 49.3980028 ] ] ] } },
{ "type": "Feature", "properties": { "index": "11", "subarea": "R3C2", "count": 24, "density_per_km2": 35.59187, "per_1000_inhabitants": 4.557982, "label": "Not significant", "color": "#d9d9d9" }, "geometry": { "type": "Polygon", "coordinates": [ [ [ 8.6875256, 49.4040877 ], [ 8.673742, 49.4040496 ], [ 8.6737821, 49.3980028 ], [ 8.6875642, 49.3980039 ], [ 8.6875256, 49.4040877 ] ] ] } },
{ "type": "Feature", "properties": { "index": "12", "subarea": "R3C3", "count": 9, "density_per_km2": 13.26613, "per_1000_inhabitants": 2.610256, "label": "Not significant", "color": "#d9d9d9" }, "geometry": { "type": "Polygon", "coordinates": [ [ [ 8.7013092, 49.4041241 ], [ 8.6875256, 49.4040877 ], [ 8.6875642, 49.3980039 ], [ 8.7013463, 49.3980033 ], [ 8.7013092, 49.4041241 ] ] ] } },
{ "type": "Feature", "properties": { "index": "13", "subarea": "R3C4", "count": 1, "density_per_km2": 1.465143, "per_1000_inhabitants": 1518.405, "label": "Not significant", "color": "#d9d9d9" }, "geometry": { "type": "Polygon", "coordinates": [ [ [ 8.7150928, 49.4041589 ], [ 8.7013092, 49.4041241 ], [ 8.7013463, 49.3980033 ], [ 8.7151285, 49.3980012 ], [ 8.7150928, 49.4041589 ] ] ] } }
]
}
