{
"type": "FeatureCollection",
"features": [
{ "type": "Feature", "properties": { "index": "0", "subarea": "R1C1", "count": 60, "population": 3704.0, "per_1000_inhabitants": 16.2, "label": "2.6–315.0 /1k", "color": "#feedde" }, "geometry": { "type": "Polygon", "coordinates": [ [ [ 8.66, 49.413005 ], [ 8.6736824, 49.4130444 ], [ 8.673623, 49.4220027 ], [ 8.66, 49.422 ], [ 8.66, 49.413005 ] ] ] } },
{ "type": "Feature", "properties": { "index": "1", "subarea": "R1C2", "count": 24, "population": 7646.0, "per_1000_inhabitants": 3.14, "label": "2.6–315.0 /1k", "color": "#feedde" }, "geometry": { "type": "Polygon", "coordinates": [ [ [ 8.6736824, 49.4130444 ], [ 8.6874685, 49.4130825 ], [ 8.6874119, 49.4220039 ], [ 8.673623, 49.4220027 ], [ 8.6736824, 49.4130444 ] ] ] } },
{ "type": "Feature", "properties": { "index": "2", "subarea": "R1C3", "count": 15, "population": 4504.0, "per_1000_inhabitants": 3.33, "label": "2.6–315.0 /1k", "color": "#feedde" }, "geometry": { "type": "Polygon", "coordinates": [ [ [ 8.6874685, 49.4130825 ], [ 8.7012546, 49.413119 ], [ 8.7012007, 49.4220033 ], [ 8.6874119, 49.4220039 ], [ 8.6874685, 49.4130825 ] ] ] } },
{ "type": "Feature", "properties": { "index": "3", "subarea": "R1C4", "count": 8, "population": 395.0, "per_1000_inhabitants": 20.25, "label": "2.6–315.0 /1k", "color": "#feedde" }, "geometry": { "type": "Polygon", "coordinates": [ [ [ 8.7012546, 49.413119 ], [ 8.7150408, 49.4131538 ], [ 8.7149895, 49.4220012 ], [ 8.7012007, 49.4220033 ], [ 8.7012546, 49.413119 ] ] ] } },
{ "type": "Feature", "properties": { "index": "4", "subarea": "R1C5", "count": 5, "population": 130.0, "per_1000_inhabitants": 38.47, "label": "2.6–315.0 /1k", "color": "#feedde" }, "geometry": { "type": "Polygon", "coordinates": [ [ [ 8.7149895, 49.4220012 ], [ 8.7150408, 49.4131538 ], [ 8.72, 49.4131659 ], [ 8.72, 49.422 ], [ 8.7149895, 49.4220012 ] ] ] } },
{ "type": "Feature", "properties": { "index": "5", "subarea": "R2C1", "count": 34, "population": 3077.0, "per_1000_inhabitants": 11.05, "label": "2.6–315.0 /1k", "color": "#feedde" }, "geometry": { "type": "Polygon", "coordinates": [ [ [ 8.673742, 49.4040496 ], [ 8.6736824, 49.4130444 ], [ 8.66, 49.413005 ], [ 8.66, 49.40401 ], [ 8.673742, 49.4040496 ] ] ] } },
{ "type": "Feature", "properties": { "index": "6", "subarea": "R2C2", "count": 98, "population": 6315.0, "per_1000_inhabitants": 15.52, "label": "2.6–315.0 /1k", "color": "#feedde" }, "geometry": { "type": "Polygon", "coordinates": [ [ [ 8.6736824, 49.4130444 ], [ 8.673742, 49.4040496 ], [ 8.6875256, 49.4040877 ], [ 8.6874685, 49.4130825 ], [ 8.6736824, 49.4130444 ] ] ] } },
{ "type": "Feature", "properties": { "index": "7", "subarea": "R2C3", "count": 52, "population": 6741.0, "per_1000_inhabitants": 7.71, "label": "2.6–315.0 /1k", "color": "#feedde" }, "geometry": { "type": "Polygon", "coordinates": [ [ [ 8.6874685, 49.4130825 ], [ 8.6875256, 49.4040877 ], [ 8.7013092, 49.4041241 ], [ 8.7012546, 49.413119 ], [ 8.6874685, 49.4130825 ] ] ] } },
{ "type": "Feature", "properties": { "index": "8", "subarea": "R2C4", "count": 33, "population": 4417.0, "per_1000_inhabitants": 7.47, "label": "2.6–315.0 /1k", "color": "#feedde" }, "geometry": { "type": "Polygon", "coordinates": [ [ [ 8.7012546, 49.413119 ], [ 8.7013092, 49.4041241 ], [ 8.7150928, 49.4041589 ], [ 8.7150408, 49.4131538 ], [ 8.7012546, 49.413119 ] ] ] } },
{ "type": "Feature", "properties": { "index": "9", "subarea": "R2C5", "count": 11, "population": 248.0, "per_1000_inhabitants": 44.43, "label": "2.6–315.0 /1k", "color": "#feedde" }, "geometry": { "type": "Polygon", "coordinates": [ [ [ 8.7150408, 49.4131538 ], [ 8.7150928, 49.4041589 ], [ 8.72, 49.4041709 ], [ 8.72, 49.4131659 ], [ 8.7150408, 49.4131538 ] ] ] } },
{ "type": "Feature", "properties": { "index": "10", "subarea": "R3C1", "count": 12, "population": 3864.0, "per_1000_inhabitants": 3.11, "label": "2.6–315.0 /1k", "color": "#feedde" }, "geometry": { "type": "Polygon", "coordinates": [ [ [ 8.6737821, 49.3980028 ], [ 8.673742, 49.4040496 ], [ 8.66, 49.40401 ], [ 8.66, 49.398 ], [ 8.6737821, 49.3980028 ] ] ] } },
{ "type": "Feature", "properties": { "index": "11", "subarea": "R3C2", "count": 24, "population": 5265.0, "per_1000_inhabitants": 4.56, "label": "2.6–315.0 /1k", "color": "#feedde" }, "geometry": { "type": "Polygon", "coordinates": [ [ [ 8.6875256, 49.4040877 ], [ 8.673742, 49.4040496 ], [ 8.6737821, 49.3980028 ], [ 8.6875642, 49.3980039 ], [ 8.6875256, 49.4040877 ] ] ] } },
{ "type": "Feature", "properties": { "index": "12", "subarea": "R3C3", "count": 9, "population": 3448.0, "per_1000_inhabitants": 2.61, "label": "2.6–315.0 /1k", "color": "#feedde" }, "geometry": { "type": "Polygon", "coordinates": [ [ [ 8.7013092, 49.4041241 ], [ 8.6875256, 49.4040877 ], [ 8.6875642, 49.3980039 ], [ 8.7013463, 49.3980033 ], [ 8.7013092, 49.4041241 ] ] ] } },
{ "type": "Feature", "properties": { "index": "13", "subarea": "R3C4", "count": 1, "population": 1.0, "per_1000_inhabitants": 1518.41, "label": "702.8–1518.4 /1k", "color": "#a63603" }, "geometry": { "type": "Polygon", "coordinates": [ [ [ 8.7150928, 49.4041589 ], [ 8.7013092, 49.4041241 ], [ 8.7013463, 49.3980033 ], [ 8.7151285, 49.3980012 ], [ 8.7150928, 49.4041589 ] ] ] } }
]
}
