{
"type": "FeatureCollection",
"features": [
{ "type": "Feature", "properties": { "index": "0", "@osmId": "relation/162528", "name": "Universitätsbibliothek", "opening_hours": "Mo-Fr 08:30-01:00; Sa,Su 09:00-01:00", "label": "Cool places", "color": "#3182bd" }, "geometry": { "type": "Point", "coordinates": [ 8.7058285, 49.409921 ] } },
{ "type": "Feature", "properties": { "index": "1", "@osmId": "relation/14976574", "name": "Kurpfäzisches Museum Heidelberg", "opening_hours": "Tu-Su 10:00-18:00", "label": "Cool places", "color": "#3182bd" }, "geometry": { "type": "Point", "coordinates": [ 8.7028127, 49.4118525 ] } },
{ "type": "Feature", "properties": { "index": "2", "@osmId": "relation/18092541", "name": "Bella Park", "opening_hours": null, "label": "Cool places", "color": "#3182bd" }, "geometry": { "type": "Point", "coordinates": [ 8.6809407, 49.4049867 ] } },
{ "type": "Feature", "properties": { "index": "3", "@osmId": "way/14195511", "name": "Jubiläumsplatz", "opening_hours": null, "label": "Cool places", "color": "#3182bd" }, "geometry": { "type": "Point", "coordinates": [ 8.698847, 49.4121147 ] } },
{ "type": "Feature", "properties": { "index": "4", "@osmId": "way/27620764", "name": "Stadtbücherei", "opening_hours": "Tu-Fr 10:00-20:00; Sa 10:00-16:00; Su,Mo off", "label": "Cool places", "color": "#3182bd" }, "geometry": { "type": "Point", "coordinates": [ 8.6865009, 49.4067159 ] } },
{ "type": "Feature", "properties": { "index": "5", "@osmId": "way/33610969", "name": "Stadtgarten", "opening_hours": null, "label": "Cool places", "color": "#3182bd" }, "geometry": { "type": "Point", "coordinates": [ 8.6949416, 49.4073133 ] } },
{ "type": "Feature", "properties": { "index": "6", "@osmId": "way/35866606", "name": "Sammlung Prinzhorn", "opening_hours": "Mo off; Tu,Th-Su,PH 11:00-17:00; We 11:00-20:00", "label": "Cool places", "color": "#3182bd" }, "geometry": { "type": "Point", "coordinates": [ 8.688756, 49.409803 ] } },
{ "type": "Feature", "properties": { "index": "7", "@osmId": "way/35982105", "name": "Schwanenteichanlage", "opening_hours": null, "label": "Cool places", "color": "#3182bd" }, "geometry": { "type": "Point", "coordinates": [ 8.6873585, 49.4068013 ] } },
{ "type": "Feature", "properties": { "index": "8", "@osmId": "way/36822132", "name": "Adenauerplatz", "opening_hours": null, "label": "Cool places", "color": "#3182bd" }, "geometry": { "type": "Point", "coordinates": [ 8.6936252, 49.4072311 ] } },
{ "type": "Feature", "properties": { "index": "9", "@osmId": "way/43060855", "name": "Das Carré", "opening_hours": null, "label": "Cool places", "color": "#3182bd" }, "geometry": { "type": "Point", "coordinates": [ 8.6918668, 49.40771 ] } },
{ "type": "Feature", "properties": { "index": "10", "@osmId": "way/49501404", "name": "Neue Synagoge Heidelberg", "opening_hours": null, "label": "Cool places", "color": "#3182bd" }, "geometry": { "type": "Point", "coordinates": [ 8.6900594, 49.4044611 ] } },
{ "type": "Feature", "properties": { "index": "11", "@osmId": "way/90867330", "name": "Neuapostolische Kirche", "opening_hours": null, "label": "Cool places", "color": "#3182bd" }, "geometry": { "type": "Point", "coordinates": [ 8.6875271, 49.4137661 ] } },
{ "type": "Feature", "properties": { "index": "12", "@osmId": "way/91083997", "name": "Jakobuskirche", "opening_hours": null, "label": "Cool places", "color": "#3182bd" }, "geometry": { "type": "Point", "coordinates": [ 8.6793936, 49.415385 ] } },
{ "type": "Feature", "properties": { "index": "13", "@osmId": "way/92838836", "name": "St. Bonifatius", "opening_hours": null, "label": "Cool places", "color": "#3182bd" }, "geometry": { "type": "Point", "coordinates": [ 8.687519, 49.4039284 ] } },
{ "type": "Feature", "properties": { "index": "14", "@osmId": "way/96690335", "name": "Lutherkirche", "opening_hours": null, "label": "Cool places", "color": "#3182bd" }, "geometry": { "type": "Point", "coordinates": [ 8.6820587, 49.4084807 ] } },
{ "type": "Feature", "properties": { "index": "15", "@osmId": "way/108668052", "name": "Christuskirche", "opening_hours": null, "label": "Cool places", "color": "#3182bd" }, "geometry": { "type": "Point", "coordinates": [ 8.6853562, 49.4021829 ] } },
{ "type": "Feature", "properties": { "index": "16", "@osmId": "way/109508570", "name": null, "opening_hours": null, "label": "Cool places", "color": "#3182bd" }, "geometry": { "type": "Point", "coordinates": [ 8.6893521, 49.3990592 ] } },
{ "type": "Feature", "properties": { "index": "17", "@osmId": "way/131478144", "name": null, "opening_hours": null, "label": "Cool places", "color": "#3182bd" }, "geometry": { "type": "Point", "coordinates": [ 8.6925373, 49.4107336 ] } },
{ "type": "Feature", "properties": { "index": "18", "@osmId": "way/140317953", "name": "Sankt Anna", "opening_hours": null, "label": "Cool places", "color": "#3182bd" }, "geometry": { "type": "Point", "coordinates": [ 8.6956616, 49.4087265 ] } },
{ "type": "Feature", "properties": { "index": "19", "@osmId": "way/367010021", "name": null, "opening_hours": null, "label": "Cool places", "color": "#3182bd" }, "geometry": { "type": "Point", "coordinates": [ 8.685861, 49.3985055 ] } },
{ "type": "Feature", "properties": { "index": "20", "@osmId": "way/445177089", "name": null, "opening_hours": null, "label": "Cool places", "color": "#3182bd" }, "geometry": { "type": "Point", "coordinates": [ 8.6974298, 49.4094237 ] } },
{ "type": "Feature", "properties": { "index": "21", "@osmId": "way/488810534", "name": null, "opening_hours": null, "label": "Cool places", "color": "#3182bd" }, "geometry": { "type": "Point", "coordinates": [ 8.6891947, 49.398025 ] } },
{ "type": "Feature", "properties": { "index": "22", "@osmId": "way/692214547", "name": "Gerhart-Hauptmann-Platz", "opening_hours": null, "label": "Cool places", "color": "#3182bd" }, "geometry": { "type": "Point", "coordinates": [ 8.6810527, 49.4143543 ] } },
{ "type": "Feature", "properties": { "index": "23", "@osmId": "way/704764162", "name": null, "opening_hours": null, "label": "Cool places", "color": "#3182bd" }, "geometry": { "type": "Point", "coordinates": [ 8.6912757, 49.4000776 ] } },
{ "type": "Feature", "properties": { "index": "24", "@osmId": "way/711985308", "name": "Sofienquartier", "opening_hours": "Mo-Sa 08:00-21:30", "label": "Cool places", "color": "#3182bd" }, "geometry": { "type": "Point", "coordinates": [ 8.6939798, 49.4104163 ] } },
{ "type": "Feature", "properties": { "index": "25", "@osmId": "way/1192036406", "name": null, "opening_hours": null, "label": "Cool places", "color": "#3182bd" }, "geometry": { "type": "Point", "coordinates": [ 8.6851106, 49.4016754 ] } },
{ "type": "Feature", "properties": { "index": "26", "@osmId": "way/1192040746", "name": null, "opening_hours": null, "label": "Cool places", "color": "#3182bd" }, "geometry": { "type": "Point", "coordinates": [ 8.6871909, 49.4003841 ] } },
{ "type": "Feature", "properties": { "index": "27", "@osmId": "way/1195015744", "name": null, "opening_hours": null, "label": "Cool places", "color": "#3182bd" }, "geometry": { "type": "Point", "coordinates": [ 8.6839264, 49.4017253 ] } },
{ "type": "Feature", "properties": { "index": "28", "@osmId": "way/14324273", "name": "Krahnenplatz", "opening_hours": null, "label": "Cool places", "color": "#3182bd" }, "geometry": { "type": "Point", "coordinates": [ 8.7033358, 49.4128078 ] } },
{ "type": "Feature", "properties": { "index": "29", "@osmId": "way/35464541", "name": "Historischer Studentenkarzer", "opening_hours": "Mo-Su 10:00-13:45,14:15-18:00", "label": "Cool places", "color": "#3182bd" }, "geometry": { "type": "Point", "coordinates": [ 8.7063954, 49.4112809 ] } },
{ "type": "Feature", "properties": { "index": "30", "@osmId": "way/35465057", "name": "Alte Universität, Rektorat", "opening_hours": null, "label": "Cool places", "color": "#3182bd" }, "geometry": { "type": "Point", "coordinates": [ 8.7063427, 49.4112645 ] } },
{ "type": "Feature", "properties": { "index": "31", "@osmId": "way/75246883", "name": "Schlossgarten", "opening_hours": null, "label": "Cool places", "color": "#3182bd" }, "geometry": { "type": "Point", "coordinates": [ 8.718099, 49.4106484 ] } },
{ "type": "Feature", "properties": { "index": "32", "@osmId": "way/123815173", "name": null, "opening_hours": null, "label": "Cool places", "color": "#3182bd" }, "geometry": { "type": "Point", "coordinates": [ 8.7179255, 49.4141089 ] } },
{ "type": "Feature", "properties": { "index": "33", "@osmId": "way/179552527", "name": null, "opening_hours": null, "label": "Cool places", "color": "#3182bd" }, "geometry": { "type": "Point", "coordinates": [ 8.709108, 49.4060873 ] } },
{ "type": "Feature", "properties": { "index": "34", "@osmId": "way/233164326", "name": "Museumsgarten", "opening_hours": null, "label": "Cool places", "color": "#3182bd" }, "geometry": { "type": "Point", "coordinates": [ 8.7025897, 49.4117744 ] } },
{ "type": "Feature", "properties": { "index": "35", "@osmId": "way/247530260", "name": "Dokumentations- und Kulturzentrum Deutscher Sinti und Roma", "opening_hours": "Tu 09:30-19:45; We-Fr 09:30-16:30; Sa,Su 11:00-16:30", "label": "Cool places", "color": "#3182bd" }, "geometry": { "type": "Point", "coordinates": [ 8.7108996, 49.4107561 ] } },
{ "type": "Feature", "properties": { "index": "36", "@osmId": "way/254154166", "name": "Deutsches Apotheken-Museum", "opening_hours": "Apr-Oct Mo-Su 10:00-18:00; Nov-Mar Mo-Su 10:00-17:00", "label": "Cool places", "color": "#3182bd" }, "geometry": { "type": "Point", "coordinates": [ 8.7158117, 49.4109036 ] } },
{ "type": "Feature", "properties": { "index": "37", "@osmId": "way/254154173", "name": null, "opening_hours": null, "label": "Cool places", "color": "#3182bd" }, "geometry": { "type": "Point", "coordinates": [ 8.7146252, 49.4096512 ] } },
{ "type": "Feature", "properties": { "index": "38", "@osmId": "way/293836248", "name": "Erlöserkirche", "opening_hours": null, "label": "Cool places", "color": "#3182bd" }, "geometry": { "type": "Point", "coordinates": [ 8.7016286, 49.4092629 ] } },
{ "type": "Feature", "properties": { "index": "39", "@osmId": "way/432542429", "name": "Providenzkirche", "opening_hours": null, "label": "Cool places", "color": "#3182bd" }, "geometry": { "type": "Point", "coordinates": [ 8.702, 49.4109022 ] } },
{ "type": "Feature", "properties": { "index": "40", "@osmId": "way/918164562", "name": "Providenzgarten", "opening_hours": "24/7", "label": "Cool places", "color": "#3182bd" }, "geometry": { "type": "Point", "coordinates": [ 8.7024973, 49.4105279 ] } },
{ "type": "Feature", "properties": { "index": "41", "@osmId": "way/1186032662", "name": "Peterskirche", "opening_hours": "easter-Oct 31: Mo-Fr 14:00-17:00", "label": "Cool places", "color": "#3182bd" }, "geometry": { "type": "Point", "coordinates": [ 8.7060537, 49.4093253 ] } },
{ "type": "Feature", "properties": { "index": "42", "@osmId": "way/1186298822", "name": "Heiliggeistkirche", "opening_hours": "Mo-Sa 11:00-17:00; PH,Su 12:30-17:00", "label": "Cool places", "color": "#3182bd" }, "geometry": { "type": "Point", "coordinates": [ 8.7096605, 49.4121036 ] } },
{ "type": "Feature", "properties": { "index": "43", "@osmId": "way/1186801516", "name": "Völkerkundemuseum", "opening_hours": "We-Sa 14:00-18:00; Su,PH 11:00-18:00", "label": "Cool places", "color": "#3182bd" }, "geometry": { "type": "Point", "coordinates": [ 8.7149703, 49.4132916 ] } },
{ "type": "Feature", "properties": { "index": "44", "@osmId": "way/1187911604", "name": "Jesuitenkirche", "opening_hours": "May-Sep: 09:30-18:00; Oct-Apr: 09:30-17:00", "label": "Cool places", "color": "#3182bd" }, "geometry": { "type": "Point", "coordinates": [ 8.7077054, 49.4108182 ] } },
{ "type": "Feature", "properties": { "index": "45", "@osmId": "way/1293738324", "name": "Barockgarten", "opening_hours": null, "label": "Cool places", "color": "#3182bd" }, "geometry": { "type": "Point", "coordinates": [ 8.7082005, 49.4106488 ] } },
{ "type": "Feature", "properties": { "index": "46", "@osmId": "way/1349245433", "name": "Stückgarten", "opening_hours": null, "label": "Cool places", "color": "#3182bd" }, "geometry": { "type": "Point", "coordinates": [ 8.7142847, 49.4100847 ] } },
{ "type": "Feature", "properties": { "index": "47", "@osmId": "way/213504501", "name": "Unterer Neckar: Altneckar Heidelberg-Wieblingen", "opening_hours": null, "label": "Cool places", "color": "#3182bd" }, "geometry": { "type": "Point", "coordinates": [ 8.6643356, 49.4112945 ] } },
{ "type": "Feature", "properties": { "index": "48", "@osmId": "way/787508363", "name": "Spitzes Eck", "opening_hours": null, "label": "Cool places", "color": "#3182bd" }, "geometry": { "type": "Point", "coordinates": [ 8.6612559, 49.404645 ] } },
{ "type": "Feature", "properties": { "index": "49", "@osmId": "way/14195520", "name": "Montpellierplatz", "opening_hours": null, "label": "Cool places", "color": "#3182bd" }, "geometry": { "type": "Point", "coordinates": [ 8.7010196, 49.4124165 ] } },
{ "type": "Feature", "properties": { "index": "50", "@osmId": "way/24853955", "name": "Werderplatz", "opening_hours": null, "label": "Cool places", "color": "#3182bd" }, "geometry": { "type": "Point", "coordinates": [ 8.6866569, 49.4202389 ] } },
{ "type": "Feature", "properties": { "index": "51", "@osmId": "way/26937875", "name": null, "opening_hours": null, "label": "Cool places", "color": "#3182bd" }, "geometry": { "type": "Point", "coordinates": [ 8.6777317, 49.4121228 ] } },
{ "type": "Feature", "properties": { "index": "52", "@osmId": "way/48396293", "name": "Bibliothek Pädagogische Hochschule", "opening_hours": "Mo-Fr 10:00-15:00", "label": "Cool places", "color": "#3182bd" }, "geometry": { "type": "Point", "coordinates": [ 8.6845408, 49.4198183 ] } },
{ "type": "Feature", "properties": { "index": "53", "@osmId": "way/89332498", "name": "St. Albert", "opening_hours": null, "label": "Cool places", "color": "#3182bd" }, "geometry": { "type": "Point", "coordinates": [ 8.6762361, 49.4085546 ] } },
{ "type": "Feature", "properties": { "index": "54", "@osmId": "way/90234435", "name": "St. Raphael", "opening_hours": null, "label": "Cool places", "color": "#3182bd" }, "geometry": { "type": "Point", "coordinates": [ 8.6866625, 49.4184516 ] } },
{ "type": "Feature", "properties": { "index": "55", "@osmId": "way/91237845", "name": "Johanneskirche", "opening_hours": null, "label": "Cool places", "color": "#3182bd" }, "geometry": { "type": "Point", "coordinates": [ 8.6907199, 49.4179387 ] } },
{ "type": "Feature", "properties": { "index": "56", "@osmId": "way/92154827", "name": "Calvary Chapel Heidelberg", "opening_hours": null, "label": "Cool places", "color": "#3182bd" }, "geometry": { "type": "Point", "coordinates": [ 8.6733865, 49.4085146 ] } },
{ "type": "Feature", "properties": { "index": "57", "@osmId": "way/101041870", "name": null, "opening_hours": null, "label": "Cool places", "color": "#3182bd" }, "geometry": { "type": "Point", "coordinates": [ 8.7009704, 49.4156844 ] } },
{ "type": "Feature", "properties": { "index": "58", "@osmId": "way/113581136", "name": null, "opening_hours": null, "label": "Cool places", "color": "#3182bd" }, "geometry": { "type": "Point", "coordinates": [ 8.6786669, 49.4038837 ] } },
{ "type": "Feature", "properties": { "index": "59", "@osmId": "way/140104672", "name": "Penta-Park", "opening_hours": null, "label": "Cool places", "color": "#3182bd" }, "geometry": { "type": "Point", "coordinates": [ 8.6714197, 49.4093472 ] } },
{ "type": "Feature", "properties": { "index": "60", "@osmId": "way/172091898", "name": "Kapelle", "opening_hours": null, "label": "Cool places", "color": "#3182bd" }, "geometry": { "type": "Point", "coordinates": [ 8.6828712, 49.4190631 ] } },
{ "type": "Feature", "properties": { "index": "61", "@osmId": "way/242164833", "name": null, "opening_hours": null, "label": "Cool places", "color": "#3182bd" }, "geometry": { "type": "Point", "coordinates": [ 8.6686082, 49.4119205 ] } },
{ "type": "Feature", "properties": { "index": "62", "@osmId": "way/268515366", "name": "Kirche Jesu Christi der Heiligen der Letzten Tage", "opening_hours": null, "label": "Cool places", "color": "#3182bd" }, "geometry": { "type": "Point", "coordinates": [ 8.6607762, 49.4088981 ] } },
{ "type": "Feature", "properties": { "index": "63", "@osmId": "way/311477426", "name": "Zollhofgarten", "opening_hours": null, "label": "Cool places", "color": "#3182bd" }, "geometry": { "type": "Point", "coordinates": [ 8.6704895, 49.4018473 ] } },
{ "type": "Feature", "properties": { "index": "64", "@osmId": "way/331375200", "name": null, "opening_hours": null, "label": "Cool places", "color": "#3182bd" }, "geometry": { "type": "Point", "coordinates": [ 8.6891073, 49.4200869 ] } },
{ "type": "Feature", "properties": { "index": "65", "@osmId": "way/331375201", "name": null, "opening_hours": null, "label": "Cool places", "color": "#3182bd" }, "geometry": { "type": "Point", "coordinates": [ 8.6890893, 49.4198766 ] } },
{ "type": "Feature", "properties": { "index": "66", "@osmId": "way/448184453", "name": null, "opening_hours": null, "label": "Cool places", "color": "#3182bd" }, "geometry": { "type": "Point", "coordinates": [ 8.6696036, 49.3990341 ] } },
{ "type": "Feature", "properties": { "index": "67", "@osmId": "way/448184455", "name": null, "opening_hours": null, "label": "Cool places", "color": "#3182bd" }, "geometry": { "type": "Point", "coordinates": [ 8.6695904, 49.3990928 ] } },
{ "type": "Feature", "properties": { "index": "68", "@osmId": "way/448184456", "name": null, "opening_hours": null, "label": "Cool places", "color": "#3182bd" }, "geometry": { "type": "Point", "coordinates": [ 8.6695013, 49.399133 ] } },
{ "type": "Feature", "properties": { "index": "69", "@osmId": "way/448184457", "name": null, "opening_hours": null, "label": "Cool places", "color": "#3182bd" }, "geometry": { "type": "Point", "coordinates": [ 8.6693069, 49.3991771 ] } },
{ "type": "Feature", "properties": { "index": "70", "@osmId": "way/448184458", "name": null, "opening_hours": null, "label": "Cool places", "color": "#3182bd" }, "geometry": { "type": "Point", "coordinates": [ 8.6693964, 49.3991328 ] } },
{ "type": "Feature", "properties": { "index": "71", "@osmId": "way/448184460", "name": null, "opening_hours": null, "label": "Cool places", "color": "#3182bd" }, "geometry": { "type": "Point", "coordinates": [ 8.6677646, 49.3999763 ] } },
{ "type": "Feature", "properties": { "index": "72", "@osmId": "way/448184461", "name": null, "opening_hours": null, "label": "Cool places", "color": "#3182bd" }, "geometry": { "type": "Point", "coordinates": [ 8.6693874, 49.3991866 ] } },
{ "type": "Feature", "properties": { "index": "73", "@osmId": "way/448184462", "name": null, "opening_hours": null, "label": "Cool places", "color": "#3182bd" }, "geometry": { "type": "Point", "coordinates": [ 8.6694921, 49.3990904 ] } },
{ "type": "Feature", "properties": { "index": "74", "@osmId": "way/448184463", "name": null, "opening_hours": null, "label": "Cool places", "color": "#3182bd" }, "geometry": { "type": "Point", "coordinates": [ 8.6676362, 49.4000389 ] } },
{ "type": "Feature", "properties": { "index": "75", "@osmId": "way/448184464", "name": null, "opening_hours": null, "label": "Cool places", "color": "#3182bd" }, "geometry": { "type": "Point", "coordinates": [ 8.6677731, 49.3999207 ] } },
{ "type": "Feature", "properties": { "index": "76", "@osmId": "way/448184466", "name": null, "opening_hours": null, "label": "Cool places", "color": "#3182bd" }, "geometry": { "type": "Point", "coordinates": [ 8.6676311, 49.3999907 ] } },
{ "type": "Feature", "properties": { "index": "77", "@osmId": "way/484616560", "name": "Bahnstadt Promenade", "opening_hours": null, "label": "Cool places", "color": "#3182bd" }, "geometry": { "type": "Point", "coordinates": [ 8.6680431, 49.3997465 ] } },
{ "type": "Feature", "properties": { "index": "78", "@osmId": "way/907564724", "name": null, "opening_hours": null, "label": "Cool places", "color": "#3182bd" }, "geometry": { "type": "Point", "coordinates": [ 8.6784478, 49.4219226 ] } },
{ "type": "Feature", "properties": { "index": "79", "@osmId": "way/1164236957", "name": null, "opening_hours": null, "label": "Cool places", "color": "#3182bd" }, "geometry": { "type": "Point", "coordinates": [ 8.6702984, 49.4074022 ] } },
{ "type": "Feature", "properties": { "index": "80", "@osmId": "way/1289413086", "name": "Tertiärgarten", "opening_hours": "24/7", "label": "Cool places", "color": "#3182bd" }, "geometry": { "type": "Point", "coordinates": [ 8.6735279, 49.4192432 ] } },
{ "type": "Feature", "properties": { "index": "81", "@osmId": "node/267889562", "name": "Kurpfälzisches Museum", "opening_hours": "Tu-Su 10:00-18:00", "label": "Cool places", "color": "#3182bd" }, "geometry": { "type": "Point", "coordinates": [ 8.7028964, 49.4113671 ] } },
{ "type": "Feature", "properties": { "index": "82", "@osmId": "node/316328702", "name": "Zentralbibliothek INF 368", "opening_hours": "Mo-Fr 09:00-18:00; Sa 13:00-17:00", "label": "Cool places", "color": "#3182bd" }, "geometry": { "type": "Point", "coordinates": [ 8.6683775, 49.4176768 ] } },
{ "type": "Feature", "properties": { "index": "83", "@osmId": "node/360855606", "name": null, "opening_hours": null, "label": "Cool places", "color": "#3182bd" }, "geometry": { "type": "Point", "coordinates": [ 8.6901583, 49.4093101 ] } },
{ "type": "Feature", "properties": { "index": "84", "@osmId": "node/415441489", "name": "Kirche am Markt", "opening_hours": null, "label": "Cool places", "color": "#3182bd" }, "geometry": { "type": "Point", "coordinates": [ 8.6899329, 49.4143991 ] } },
{ "type": "Feature", "properties": { "index": "85", "@osmId": "node/482802959", "name": "Angehörigen Kapelle", "opening_hours": null, "label": "Cool places", "color": "#3182bd" }, "geometry": { "type": "Point", "coordinates": [ 8.6749258, 49.4139013 ] } },
{ "type": "Feature", "properties": { "index": "86", "@osmId": "node/1300163591", "name": "Museum Geowissenschaften", "opening_hours": "Mo-Fr 08:00-17:00 || \"Am Wochenende auf Anfrage\"", "label": "Cool places", "color": "#3182bd" }, "geometry": { "type": "Point", "coordinates": [ 8.674447, 49.4190214 ] } },
{ "type": "Feature", "properties": { "index": "87", "@osmId": "node/1324802486", "name": "Unimuseum", "opening_hours": "Tu-Su 10:00-18:00", "label": "Cool places", "color": "#3182bd" }, "geometry": { "type": "Point", "coordinates": [ 8.7066904, 49.4113863 ] } },
{ "type": "Feature", "properties": { "index": "88", "@osmId": "node/1412648912", "name": "Zoologisches Museum", "opening_hours": "Mo-Fr 08:00-18:00; Sa,Su,PH off", "label": "Cool places", "color": "#3182bd" }, "geometry": { "type": "Point", "coordinates": [ 8.6743102, 49.4178595 ] } },
{ "type": "Feature", "properties": { "index": "89", "@osmId": "node/1657964075", "name": "Studentenbücherei des Studentenwerks Heidelberg", "opening_hours": null, "label": "Cool places", "color": "#3182bd" }, "geometry": { "type": "Point", "coordinates": [ 8.7052085, 49.4105445 ] } },
{ "type": "Feature", "properties": { "index": "90", "@osmId": "node/1818817917", "name": "Buddhistisches Zentrum Heidelberg", "opening_hours": null, "label": "Cool places", "color": "#3182bd" }, "geometry": { "type": "Point", "coordinates": [ 8.6842485, 49.4042418 ] } },
{ "type": "Feature", "properties": { "index": "91", "@osmId": "node/2421161970", "name": "Körperwelten", "opening_hours": "Mo-Su,PH 10:00-18:00; Dec 24 off", "label": "Cool places", "color": "#3182bd" }, "geometry": { "type": "Point", "coordinates": [ 8.6887219, 49.4079846 ] } },
{ "type": "Feature", "properties": { "index": "92", "@osmId": "node/2501670073", "name": "Haus Cajeth", "opening_hours": "Mo-Sa 11:00-17:00", "label": "Cool places", "color": "#3182bd" }, "geometry": { "type": "Point", "coordinates": [ 8.708951, 49.4127586 ] } },
{ "type": "Feature", "properties": { "index": "93", "@osmId": "node/4241246284", "name": "+punkt Kirche INF 130", "opening_hours": null, "label": "Cool places", "color": "#3182bd" }, "geometry": { "type": "Point", "coordinates": [ 8.671097, 49.4126826 ] } },
{ "type": "Feature", "properties": { "index": "94", "@osmId": "node/4294013709", "name": "Deutsches Verpackungsmuseum", "opening_hours": "We-Fr 13:00-18:00;Sa,Su 11:00-18:00;Mo,Tu off", "label": "Cool places", "color": "#3182bd" }, "geometry": { "type": "Point", "coordinates": [ 8.6957273, 49.4098894 ] } },
{ "type": "Feature", "properties": { "index": "95", "@osmId": "node/4385104373", "name": "Bereichsbibliothek Mathematik und Informatik", "opening_hours": "Mo-Fr 09:00-21:00", "label": "Cool places", "color": "#3182bd" }, "geometry": { "type": "Point", "coordinates": [ 8.6758306, 49.4172298 ] } },
{ "type": "Feature", "properties": { "index": "96", "@osmId": "node/4423417426", "name": "Campus-Bibliothek Bergheim", "opening_hours": "Mo-Fr 09:00-22:00; Sa 10:00-20:00", "label": "Cool places", "color": "#3182bd" }, "geometry": { "type": "Point", "coordinates": [ 8.6842526, 49.4086404 ] } },
{ "type": "Feature", "properties": { "index": "97", "@osmId": "node/4515124089", "name": "Herz-Jesu-Kapelle", "opening_hours": null, "label": "Cool places", "color": "#3182bd" }, "geometry": { "type": "Point", "coordinates": [ 8.6799684, 49.4141257 ] } },
{ "type": "Feature", "properties": { "index": "98", "@osmId": "node/4857343885", "name": "Universitätsbibliothek Heidelberg", "opening_hours": "Mo-Fr 08:30-01:00; Sa-Su 09:00-01:00; PH off", "label": "Cool places", "color": "#3182bd" }, "geometry": { "type": "Point", "coordinates": [ 8.7058892, 49.4097516 ] } },
{ "type": "Feature", "properties": { "index": "99", "@osmId": "node/4872984638", "name": "Forum für Kunst", "opening_hours": "Tu-Su 14:00-18:00", "label": "Cool places", "color": "#3182bd" }, "geometry": { "type": "Point", "coordinates": [ 8.7132063, 49.4128998 ] } },
{ "type": "Feature", "properties": { "index": "100", "@osmId": "node/5100400111", "name": "Reichspräsident-Friedrich-Ebert-Gedenkstätte", "opening_hours": "Mo-Fr 09:00-18:00; Sa,Su 10:00-18:00", "label": "Cool places", "color": "#3182bd" }, "geometry": { "type": "Point", "coordinates": [ 8.7083167, 49.4124781 ] } },
{ "type": "Feature", "properties": { "index": "101", "@osmId": "node/5435115531", "name": "Museum für sakrale Kunst und Liturgie SCHATZKAMMER", "opening_hours": "Jun-Oct: Tu-Sa 10:00-17:00; Jun-Oct: Su,PH 13:00-17:00; Nov-May: Sa 10:00-17:00; Nov-May: Su 13:00-17:00", "label": "Cool places", "color": "#3182bd" }, "geometry": { "type": "Point", "coordinates": [ 8.7078944, 49.4110783 ] } },
{ "type": "Feature", "properties": { "index": "102", "@osmId": "node/5588276714", "name": "Heidelberger Stuhlmuseum", "opening_hours": null, "label": "Cool places", "color": "#3182bd" }, "geometry": { "type": "Point", "coordinates": [ 8.6969452, 49.4087285 ] } },
{ "type": "Feature", "properties": { "index": "103", "@osmId": "node/7003610134", "name": "CATS Bibliothek", "opening_hours": "Mo-Fr 09:00-20:00; Sa 12:00-20:00", "label": "Cool places", "color": "#3182bd" }, "geometry": { "type": "Point", "coordinates": [ 8.6900756, 49.410055 ] } },
{ "type": "Feature", "properties": { "index": "104", "@osmId": "node/12072131804", "name": "3D TrickArt", "opening_hours": "Mo-Su 10:00-18:00", "label": "Cool places", "color": "#3182bd" }, "geometry": { "type": "Point", "coordinates": [ 8.6911774, 49.4068121 ] } },
{ "type": "Feature", "properties": { "index": "105", "@osmId": "node/12299694218", "name": "LIFE Church", "opening_hours": null, "label": "Cool places", "color": "#3182bd" }, "geometry": { "type": "Point", "coordinates": [ 8.6774382, 49.4077213 ] } },
{ "type": "Feature", "properties": { "index": "106", "@osmId": "node/13448358823", "name": "Antikensammlung der Universität Heidelberg", "opening_hours": "\"Besuch eingechränkt auf Anfrage möglich wegen Sanierung\"", "label": "Cool places", "color": "#3182bd" }, "geometry": { "type": "Point", "coordinates": [ 8.7045642, 49.4124913 ] } },
{ "type": "Feature", "properties": { "index": "107", "@osmId": "node/13806047146", "name": "Mathematik-Informatik-Station (MAINS)", "opening_hours": null, "label": "Cool places", "color": "#3182bd" }, "geometry": { "type": "Point", "coordinates": [ 8.6754916, 49.4073796 ] } },
{ "type": "Feature", "properties": { "index": "108", "@osmId": "node/13821639864", "name": "Universitätsbibliothek: Magazin", "opening_hours": null, "label": "Cool places", "color": "#3182bd" }, "geometry": { "type": "Point", "coordinates": [ 8.6752306, 49.4073832 ] } },
{ "type": "Feature", "properties": { "index": "109", "@osmId": "node/13870921187", "name": "EC + Liebenzeller Gemeinde Heidelberg", "opening_hours": null, "label": "Cool places", "color": "#3182bd" }, "geometry": { "type": "Point", "coordinates": [ 8.6898795, 49.4143881 ] } },
{ "type": "Feature", "properties": { "index": "110", "@osmId": "node/13870921188", "name": "Hosanna-Gemeinde", "opening_hours": null, "label": "Cool places", "color": "#3182bd" }, "geometry": { "type": "Point", "coordinates": [ 8.6818978, 49.408535 ] } },
{ "type": "Feature", "properties": { "index": "111", "@osmId": "node/346451313", "name": null, "opening_hours": null, "label": "Drinking water", "color": "#31a354" }, "geometry": { "type": "Point", "coordinates": [ 8.7004521, 49.4157261 ] } },
{ "type": "Feature", "properties": { "index": "112", "@osmId": "node/419294001", "name": null, "opening_hours": null, "label": "Drinking water", "color": "#31a354" }, "geometry": { "type": "Point", "coordinates": [ 8.7006398, 49.4157681 ] } },
{ "type": "Feature", "properties": { "index": "113", "@osmId": "node/2018074954", "name": null, "opening_hours": null, "label": "Drinking water", "color": "#31a354" }, "geometry": { "type": "Point", "coordinates": [ 8.7002566, 49.4095083 ] } },
{ "type": "Feature", "properties": { "index": "114", "@osmId": "node/2280283474", "name": null, "opening_hours": null, "label": "Drinking water", "color": "#31a354" }, "geometry": { "type": "Point", "coordinates": [ 8.7018271, 49.4109969 ] } },
{ "type": "Feature", "properties": { "index": "115", "@osmId": "node/5115143358", "name": null, "opening_hours": null, "label": "Drinking water", "color": "#31a354" }, "geometry": { "type": "Point", "coordinates": [ 8.6795902, 49.409495 ] } },
{ "type": "Feature", "properties": { "index": "116", "@osmId": "node/5139365929", "name": null, "opening_hours": "Mo-Fr 10:30-19:00; Sa 11:00-18:00; PH off", "label": "Drinking water", "color": "#31a354" }, "geometry": { "type": "Point", "coordinates": [ 8.7042745, 49.4117 ] } },
{ "type": "Feature", "properties": { "index": "117", "@osmId": "node/12369571055", "name": null, "opening_hours": null, "label": "Drinking water", "color": "#31a354" }, "geometry": { "type": "Point", "coordinates": [ 8.6737651, 49.4030052 ] } }
]
}
