{
"type": "FeatureCollection",
"features": [
{ "type": "Feature", "properties": { "index": "0", "label": "Within 400 m on foot", "color": "#2b8cbe" }, "geometry": { "type": "Polygon", "coordinates": [ [ [ 8.6625472, 49.3985991 ], [ 8.6627807, 49.3982806 ], [ 8.6630403, 49.3980007 ], [ 8.674885, 49.3980029 ], [ 8.674886, 49.3980046 ], [ 8.6750152, 49.3983475 ], [ 8.6750922, 49.398697 ], [ 8.6751165, 49.3990497 ], [ 8.6750876, 49.3994023 ], [ 8.6750747, 49.3994574 ], [ 8.6750744, 49.399461 ], [ 8.6750624, 49.3995124 ], [ 8.6753882, 49.3995667 ], [ 8.6758968, 49.3996871 ], [ 8.6763849, 49.3998394 ], [ 8.6768478, 49.4000222 ], [ 8.6772809, 49.4002338 ], [ 8.6775077, 49.400369 ], [ 8.6776144, 49.4003519 ], [ 8.6781499, 49.4003016 ], [ 8.6786904, 49.4002858 ], [ 8.6788729, 49.4002921 ], [ 8.6790753, 49.4000158 ], [ 8.6793554, 49.3997138 ], [ 8.6796795, 49.3994311 ], [ 8.6800445, 49.3991705 ], [ 8.6803988, 49.3989627 ], [ 8.6803725, 49.3988431 ], [ 8.6803482, 49.3984904 ], [ 8.680377, 49.3981378 ], [ 8.6804084, 49.3980035 ], [ 8.6957738, 49.3980037 ], [ 8.6958719, 49.3980908 ], [ 8.6961482, 49.3983944 ], [ 8.6963775, 49.3987142 ], [ 8.6965577, 49.3990471 ], [ 8.6966871, 49.39939 ], [ 8.6967643, 49.3997395 ], [ 8.6967887, 49.4000922 ], [ 8.69676, 49.4004448 ], [ 8.6966784, 49.4007938 ], [ 8.6965449, 49.401136 ], [ 8.6963605, 49.401468 ], [ 8.6961273, 49.4017865 ], [ 8.6958472, 49.4020887 ], [ 8.6955232, 49.4023714 ], [ 8.6951582, 49.4026321 ], [ 8.6949244, 49.4027692 ], [ 8.6949324, 49.402778 ], [ 8.6951617, 49.4030978 ], [ 8.6953419, 49.4034307 ], [ 8.6954558, 49.4037324 ], [ 8.6955042, 49.4037341 ], [ 8.6960391, 49.4037873 ], [ 8.6965634, 49.4038745 ], [ 8.6970721, 49.4039948 ], [ 8.6975603, 49.404147 ], [ 8.6980233, 49.4043298 ], [ 8.6984566, 49.4045412 ], [ 8.698856, 49.4047794 ], [ 8.6992178, 49.405042 ], [ 8.6995384, 49.4053264 ], [ 8.6998147, 49.40563 ], [ 8.6998459, 49.4056735 ], [ 8.7000268, 49.4057449 ], [ 8.7001415, 49.4058009 ], [ 8.7005743, 49.4057313 ], [ 8.7011099, 49.4056809 ], [ 8.7016504, 49.405665 ], [ 8.7021907, 49.4056837 ], [ 8.7027256, 49.4057369 ], [ 8.70325, 49.405824 ], [ 8.7036077, 49.4059086 ], [ 8.703623, 49.4057207 ], [ 8.7037045, 49.4053716 ], [ 8.703838, 49.4050295 ], [ 8.7040223, 49.4046975 ], [ 8.7042556, 49.4043789 ], [ 8.7045355, 49.4040768 ], [ 8.7048596, 49.403794 ], [ 8.7052245, 49.4035333 ], [ 8.7056268, 49.4032972 ], [ 8.7060626, 49.403088 ], [ 8.7065278, 49.4029076 ], [ 8.7070178, 49.4027579 ], [ 8.7075279, 49.4026402 ], [ 8.7080533, 49.4025558 ], [ 8.7085888, 49.4025053 ], [ 8.7091293, 49.4024894 ], [ 8.7096695, 49.402508 ], [ 8.7102044, 49.4025612 ], [ 8.7107288, 49.4026483 ], [ 8.7112375, 49.4027685 ], [ 8.7117257, 49.4029207 ], [ 8.7121887, 49.4031034 ], [ 8.7126221, 49.4033148 ], [ 8.7130216, 49.4035529 ], [ 8.7133834, 49.4038154 ], [ 8.7137041, 49.4040998 ], [ 8.7139805, 49.4044034 ], [ 8.71421, 49.4047231 ], [ 8.7143903, 49.405056 ], [ 8.7145198, 49.4053989 ], [ 8.7145972, 49.4057483 ], [ 8.7146184, 49.4060541 ], [ 8.7146461, 49.4060533 ], [ 8.7151864, 49.4060719 ], [ 8.7157213, 49.406125 ], [ 8.7162457, 49.4062121 ], [ 8.7167545, 49.4063323 ], [ 8.7172427, 49.4064845 ], [ 8.7177058, 49.4066671 ], [ 8.7181392, 49.4068785 ], [ 8.7184467, 49.4070617 ], [ 8.7186599, 49.4070691 ], [ 8.7191949, 49.4071222 ], [ 8.7197193, 49.4072093 ], [ 8.72, 49.4072756 ], [ 8.72, 49.417442 ], [ 8.7195067, 49.4175558 ], [ 8.7189812, 49.4176403 ], [ 8.7184455, 49.4176908 ], [ 8.7179049, 49.4177068 ], [ 8.7173644, 49.4176882 ], [ 8.7168294, 49.4176351 ], [ 8.7163049, 49.417548 ], [ 8.715796, 49.4174278 ], [ 8.7153076, 49.4172756 ], [ 8.7148444, 49.417093 ], [ 8.714411, 49.4168816 ], [ 8.7143898, 49.416869 ], [ 8.713874, 49.4168178 ], [ 8.7133495, 49.4167307 ], [ 8.7128406, 49.4166104 ], [ 8.7123523, 49.4164583 ], [ 8.7123243, 49.4164472 ], [ 8.7121098, 49.4164259 ], [ 8.7115854, 49.4163388 ], [ 8.7110765, 49.4162186 ], [ 8.7108208, 49.4161389 ], [ 8.7105315, 49.4162056 ], [ 8.710006, 49.4162901 ], [ 8.7094704, 49.4163406 ], [ 8.7089297, 49.4163565 ], [ 8.7083893, 49.4163379 ], [ 8.7078542, 49.4162847 ], [ 8.7073298, 49.4161976 ], [ 8.7068209, 49.4160773 ], [ 8.7064634, 49.4159659 ], [ 8.7064565, 49.4160511 ], [ 8.706375, 49.4164002 ], [ 8.7062414, 49.4167424 ], [ 8.7060571, 49.4170743 ], [ 8.7058238, 49.4173929 ], [ 8.7055438, 49.4176951 ], [ 8.7052197, 49.4179779 ], [ 8.7048547, 49.4182385 ], [ 8.7044522, 49.4184746 ], [ 8.7040162, 49.4186839 ], [ 8.7035509, 49.4188642 ], [ 8.7030607, 49.4190139 ], [ 8.7028301, 49.4190671 ], [ 8.7027301, 49.4190976 ], [ 8.7022198, 49.4192152 ], [ 8.7016943, 49.4192997 ], [ 8.7011586, 49.4193501 ], [ 8.7006179, 49.419366 ], [ 8.7000774, 49.4193473 ], [ 8.6995424, 49.4192941 ], [ 8.6990179, 49.419207 ], [ 8.6988639, 49.4191706 ], [ 8.6988302, 49.419165 ], [ 8.6983213, 49.4190447 ], [ 8.697833, 49.4188924 ], [ 8.6973699, 49.4187097 ], [ 8.6969365, 49.4184982 ], [ 8.6965369, 49.4182601 ], [ 8.6962282, 49.418036 ], [ 8.6962062, 49.4183059 ], [ 8.6961246, 49.418655 ], [ 8.695991, 49.4189971 ], [ 8.6958066, 49.4193291 ], [ 8.6955732, 49.4196477 ], [ 8.6952931, 49.4199498 ], [ 8.6949689, 49.4202325 ], [ 8.6946038, 49.4204932 ], [ 8.6945816, 49.4205062 ], [ 8.6945122, 49.4208032 ], [ 8.6943786, 49.4211454 ], [ 8.6941942, 49.4214774 ], [ 8.6939607, 49.4217959 ], [ 8.693768, 49.4220038 ], [ 8.6699898, 49.4220022 ], [ 8.669611, 49.4217762 ], [ 8.6692493, 49.4215136 ], [ 8.6689559, 49.4212531 ], [ 8.668894, 49.4212589 ], [ 8.6683533, 49.4212747 ], [ 8.6678128, 49.4212558 ], [ 8.6672777, 49.4212025 ], [ 8.6667533, 49.4211152 ], [ 8.6662445, 49.4209948 ], [ 8.6657562, 49.4208424 ], [ 8.6652932, 49.4206595 ], [ 8.6648599, 49.4204479 ], [ 8.6644605, 49.4202097 ], [ 8.6640988, 49.419947 ], [ 8.6637783, 49.4196625 ], [ 8.6635022, 49.4193588 ], [ 8.6632729, 49.4190389 ], [ 8.6630929, 49.418706 ], [ 8.6629637, 49.4183631 ], [ 8.6628867, 49.4180136 ], [ 8.6628626, 49.4176609 ], [ 8.6628915, 49.4173083 ], [ 8.6629733, 49.4169592 ], [ 8.6631072, 49.4166171 ], [ 8.6632918, 49.4162852 ], [ 8.6635253, 49.4159667 ], [ 8.6638056, 49.4156647 ], [ 8.66413, 49.415382 ], [ 8.6644952, 49.4151214 ], [ 8.6648978, 49.4148855 ], [ 8.6649319, 49.4148691 ], [ 8.6648517, 49.4148767 ], [ 8.6643111, 49.4148924 ], [ 8.6637707, 49.4148735 ], [ 8.6632357, 49.4148202 ], [ 8.6627113, 49.4147328 ], [ 8.6622026, 49.4146124 ], [ 8.6617144, 49.41446 ], [ 8.6612515, 49.4142771 ], [ 8.6608182, 49.4140655 ], [ 8.6604189, 49.4138272 ], [ 8.6600573, 49.4135645 ], [ 8.66, 49.4135137 ], [ 8.66, 49.4011459 ], [ 8.6602046, 49.401113 ], [ 8.6607402, 49.4010628 ], [ 8.6612806, 49.4010471 ], [ 8.6618209, 49.401066 ], [ 8.6623557, 49.4011193 ], [ 8.6623837, 49.401124 ], [ 8.6623535, 49.401068 ], [ 8.6622243, 49.4007252 ], [ 8.6621474, 49.4003757 ], [ 8.6621449, 49.4003393 ], [ 8.6621423, 49.4003275 ], [ 8.6621181, 49.3999747 ], [ 8.6621471, 49.3996221 ], [ 8.6622289, 49.3992731 ], [ 8.6623627, 49.398931 ], [ 8.6625472, 49.3985991 ] ], [ [ 8.6668976, 49.4045734 ], [ 8.6667577, 49.4044899 ], [ 8.666768, 49.404641 ], [ 8.6668193, 49.4046109 ], [ 8.6668976, 49.4045734 ] ] ] } },
{ "type": "Feature", "properties": { "index": "1", "label": "Beyond 400 m", "color": "#d9d9d9" }, "geometry": { "type": "MultiPolygon", "coordinates": [ [ [ [ 8.6957738, 49.3980037 ], [ 8.72, 49.398 ], [ 8.72, 49.4072756 ], [ 8.7197193, 49.4072093 ], [ 8.7191949, 49.4071222 ], [ 8.7186599, 49.4070691 ], [ 8.7184467, 49.4070617 ], [ 8.7181392, 49.4068785 ], [ 8.7177058, 49.4066671 ], [ 8.7172427, 49.4064845 ], [ 8.7167545, 49.4063323 ], [ 8.7162457, 49.4062121 ], [ 8.7157213, 49.406125 ], [ 8.7151864, 49.4060719 ], [ 8.7146461, 49.4060533 ], [ 8.7146184, 49.4060541 ], [ 8.7145972, 49.4057483 ], [ 8.7145198, 49.4053989 ], [ 8.7143903, 49.405056 ], [ 8.71421, 49.4047231 ], [ 8.7139805, 49.4044034 ], [ 8.7137041, 49.4040998 ], [ 8.7133834, 49.4038154 ], [ 8.7130216, 49.4035529 ], [ 8.7126221, 49.4033148 ], [ 8.7121887, 49.4031034 ], [ 8.7117257, 49.4029207 ], [ 8.7112375, 49.4027685 ], [ 8.7107288, 49.4026483 ], [ 8.7102044, 49.4025612 ], [ 8.7096695, 49.402508 ], [ 8.7091293, 49.4024894 ], [ 8.7085888, 49.4025053 ], [ 8.7080533, 49.4025558 ], [ 8.7075279, 49.4026402 ], [ 8.7070178, 49.4027579 ], [ 8.7065278, 49.4029076 ], [ 8.7060626, 49.403088 ], [ 8.7056268, 49.4032972 ], [ 8.7052245, 49.4035333 ], [ 8.7048596, 49.403794 ], [ 8.7045355, 49.4040768 ], [ 8.7042556, 49.4043789 ], [ 8.7040223, 49.4046975 ], [ 8.703838, 49.4050295 ], [ 8.7037045, 49.4053716 ], [ 8.703623, 49.4057207 ], [ 8.7036077, 49.4059086 ], [ 8.70325, 49.405824 ], [ 8.7027256, 49.4057369 ], [ 8.7021907, 49.4056837 ], [ 8.7016504, 49.405665 ], [ 8.7011099, 49.4056809 ], [ 8.7005743, 49.4057313 ], [ 8.7001415, 49.4058009 ], [ 8.7000268, 49.4057449 ], [ 8.6998459, 49.4056735 ], [ 8.6998147, 49.40563 ], [ 8.6995384, 49.4053264 ], [ 8.6992178, 49.405042 ], [ 8.698856, 49.4047794 ], [ 8.6984566, 49.4045412 ], [ 8.6980233, 49.4043298 ], [ 8.6975603, 49.404147 ], [ 8.6970721, 49.4039948 ], [ 8.6965634, 49.4038745 ], [ 8.6960391, 49.4037873 ], [ 8.6955042, 49.4037341 ], [ 8.6954558, 49.4037324 ], [ 8.6953419, 49.4034307 ], [ 8.6951617, 49.4030978 ], [ 8.6949324, 49.402778 ], [ 8.6949244, 49.4027692 ], [ 8.6951582, 49.4026321 ], [ 8.6955232, 49.4023714 ], [ 8.6958472, 49.4020887 ], [ 8.6961273, 49.4017865 ], [ 8.6963605, 49.401468 ], [ 8.6965449, 49.401136 ], [ 8.6966784, 49.4007938 ], [ 8.69676, 49.4004448 ], [ 8.6967887, 49.4000922 ], [ 8.6967643, 49.3997395 ], [ 8.6966871, 49.39939 ], [ 8.6965577, 49.3990471 ], [ 8.6963775, 49.3987142 ], [ 8.6961482, 49.3983944 ], [ 8.6958719, 49.3980908 ], [ 8.6957738, 49.3980037 ] ] ], [ [ [ 8.72, 49.417442 ], [ 8.72, 49.422 ], [ 8.693768, 49.4220038 ], [ 8.6939607, 49.4217959 ], [ 8.6941942, 49.4214774 ], [ 8.6943786, 49.4211454 ], [ 8.6945122, 49.4208032 ], [ 8.6945816, 49.4205062 ], [ 8.6946038, 49.4204932 ], [ 8.6949689, 49.4202325 ], [ 8.6952931, 49.4199498 ], [ 8.6955732, 49.4196477 ], [ 8.6958066, 49.4193291 ], [ 8.695991, 49.4189971 ], [ 8.6961246, 49.418655 ], [ 8.6962062, 49.4183059 ], [ 8.6962282, 49.418036 ], [ 8.6965369, 49.4182601 ], [ 8.6969365, 49.4184982 ], [ 8.6973699, 49.4187097 ], [ 8.697833, 49.4188924 ], [ 8.6983213, 49.4190447 ], [ 8.6988302, 49.419165 ], [ 8.6988639, 49.4191706 ], [ 8.6990179, 49.419207 ], [ 8.6995424, 49.4192941 ], [ 8.7000774, 49.4193473 ], [ 8.7006179, 49.419366 ], [ 8.7011586, 49.4193501 ], [ 8.7016943, 49.4192997 ], [ 8.7022198, 49.4192152 ], [ 8.7027301, 49.4190976 ], [ 8.7028301, 49.4190671 ], [ 8.7030607, 49.4190139 ], [ 8.7035509, 49.4188642 ], [ 8.7040162, 49.4186839 ], [ 8.7044522, 49.4184746 ], [ 8.7048547, 49.4182385 ], [ 8.7052197, 49.4179779 ], [ 8.7055438, 49.4176951 ], [ 8.7058238, 49.4173929 ], [ 8.7060571, 49.4170743 ], [ 8.7062414, 49.4167424 ], [ 8.706375, 49.4164002 ], [ 8.7064565, 49.4160511 ], [ 8.7064634, 49.4159659 ], [ 8.7068209, 49.4160773 ], [ 8.7073298, 49.4161976 ], [ 8.7078542, 49.4162847 ], [ 8.7083893, 49.4163379 ], [ 8.7089297, 49.4163565 ], [ 8.7094704, 49.4163406 ], [ 8.710006, 49.4162901 ], [ 8.7105315, 49.4162056 ], [ 8.7108208, 49.4161389 ], [ 8.7110765, 49.4162186 ], [ 8.7115854, 49.4163388 ], [ 8.7121098, 49.4164259 ], [ 8.7123243, 49.4164472 ], [ 8.7123523, 49.4164583 ], [ 8.7128406, 49.4166104 ], [ 8.7133495, 49.4167307 ], [ 8.713874, 49.4168178 ], [ 8.7143898, 49.416869 ], [ 8.714411, 49.4168816 ], [ 8.7148444, 49.417093 ], [ 8.7153076, 49.4172756 ], [ 8.715796, 49.4174278 ], [ 8.7163049, 49.417548 ], [ 8.7168294, 49.4176351 ], [ 8.7173644, 49.4176882 ], [ 8.7179049, 49.4177068 ], [ 8.7184455, 49.4176908 ], [ 8.7189812, 49.4176403 ], [ 8.7195067, 49.4175558 ], [ 8.72, 49.417442 ] ] ], [ [ [ 8.6699898, 49.4220022 ], [ 8.66, 49.422 ], [ 8.66, 49.4135137 ], [ 8.6600573, 49.4135645 ], [ 8.6604189, 49.4138272 ], [ 8.6608182, 49.4140655 ], [ 8.6612515, 49.4142771 ], [ 8.6617144, 49.41446 ], [ 8.6622026, 49.4146124 ], [ 8.6627113, 49.4147328 ], [ 8.6632357, 49.4148202 ], [ 8.6637707, 49.4148735 ], [ 8.6643111, 49.4148924 ], [ 8.6648517, 49.4148767 ], [ 8.6649319, 49.4148691 ], [ 8.6648978, 49.4148855 ], [ 8.6644952, 49.4151214 ], [ 8.66413, 49.415382 ], [ 8.6638056, 49.4156647 ], [ 8.6635253, 49.4159667 ], [ 8.6632918, 49.4162852 ], [ 8.6631072, 49.4166171 ], [ 8.6629733, 49.4169592 ], [ 8.6628915, 49.4173083 ], [ 8.6628626, 49.4176609 ], [ 8.6628867, 49.4180136 ], [ 8.6629637, 49.4183631 ], [ 8.6630929, 49.418706 ], [ 8.6632729, 49.4190389 ], [ 8.6635022, 49.4193588 ], [ 8.6637783, 49.4196625 ], [ 8.6640988, 49.419947 ], [ 8.6644605, 49.4202097 ], [ 8.6648599, 49.4204479 ], [ 8.6652932, 49.4206595 ], [ 8.6657562, 49.4208424 ], [ 8.6662445, 49.4209948 ], [ 8.6667533, 49.4211152 ], [ 8.6672777, 49.4212025 ], [ 8.6678128, 49.4212558 ], [ 8.6683533, 49.4212747 ], [ 8.668894, 49.4212589 ], [ 8.6689559, 49.4212531 ], [ 8.6692493, 49.4215136 ], [ 8.669611, 49.4217762 ], [ 8.6699898, 49.4220022 ] ] ], [ [ [ 8.66, 49.4011459 ], [ 8.66, 49.398 ], [ 8.6630403, 49.3980007 ], [ 8.6627807, 49.3982806 ], [ 8.6625472, 49.3985991 ], [ 8.6623627, 49.398931 ], [ 8.6622289, 49.3992731 ], [ 8.6621471, 49.3996221 ], [ 8.6621181, 49.3999747 ], [ 8.6621423, 49.4003275 ], [ 8.6621449, 49.4003393 ], [ 8.6621474, 49.4003757 ], [ 8.6622243, 49.4007252 ], [ 8.6623535, 49.401068 ], [ 8.6623837, 49.401124 ], [ 8.6623557, 49.4011193 ], [ 8.6618209, 49.401066 ], [ 8.6612806, 49.4010471 ], [ 8.6607402, 49.4010628 ], [ 8.6602046, 49.401113 ], [ 8.66, 49.4011459 ] ] ], [ [ [ 8.674886, 49.3980046 ], [ 8.674885, 49.3980029 ], [ 8.6804084, 49.3980035 ], [ 8.680377, 49.3981378 ], [ 8.6803482, 49.3984904 ], [ 8.6803725, 49.3988431 ], [ 8.6803988, 49.3989627 ], [ 8.6800445, 49.3991705 ], [ 8.6796795, 49.3994311 ], [ 8.6793554, 49.3997138 ], [ 8.6790753, 49.4000158 ], [ 8.6788729, 49.4002921 ], [ 8.6786904, 49.4002858 ], [ 8.6781499, 49.4003016 ], [ 8.6776144, 49.4003519 ], [ 8.6775077, 49.400369 ], [ 8.6772809, 49.4002338 ], [ 8.6768478, 49.4000222 ], [ 8.6763849, 49.3998394 ], [ 8.6758968, 49.3996871 ], [ 8.6753882, 49.3995667 ], [ 8.6750624, 49.3995124 ], [ 8.6750744, 49.399461 ], [ 8.6750747, 49.3994574 ], [ 8.6750876, 49.3994023 ], [ 8.6751165, 49.3990497 ], [ 8.6750922, 49.398697 ], [ 8.6750152, 49.3983475 ], [ 8.674886, 49.3980046 ] ] ], [ [ [ 8.6668193, 49.4046109 ], [ 8.666768, 49.404641 ], [ 8.6667577, 49.4044899 ], [ 8.6668976, 49.4045734 ], [ 8.6668193, 49.4046109 ] ] ] ] } }
]
}
