{
"type": "FeatureCollection",
"features": [
{ "type": "Feature", "properties": { "index": "0", "label": "Within 200 m on foot", "color": "#2b8cbe" }, "geometry": { "type": "MultiPolygon", "coordinates": [ [ [ [ 8.6672232, 49.3980016 ], [ 8.6718586, 49.3980025 ], [ 8.6719021, 49.3980412 ], [ 8.6720402, 49.398193 ], [ 8.6721548, 49.3983529 ], [ 8.6722448, 49.3985194 ], [ 8.6723094, 49.3986908 ], [ 8.6723479, 49.3988656 ], [ 8.67236, 49.3990419 ], [ 8.6723456, 49.3992182 ], [ 8.6723327, 49.3992734 ], [ 8.6723324, 49.3992769 ], [ 8.6722915, 49.3994515 ], [ 8.6722247, 49.3996225 ], [ 8.6721324, 49.3997885 ], [ 8.6720157, 49.3999477 ], [ 8.6718756, 49.4000988 ], [ 8.6717157, 49.4002383 ], [ 8.6717995, 49.4002644 ], [ 8.6720309, 49.4003559 ], [ 8.6722475, 49.4004616 ], [ 8.6724472, 49.4005808 ], [ 8.672628, 49.4007121 ], [ 8.6727882, 49.4008544 ], [ 8.6729262, 49.4010062 ], [ 8.6730408, 49.4011661 ], [ 8.6730931, 49.4012627 ], [ 8.673239, 49.4012393 ], [ 8.6735068, 49.4012141 ], [ 8.673777, 49.4012062 ], [ 8.6740471, 49.4012157 ], [ 8.6743146, 49.4012423 ], [ 8.6745767, 49.4012859 ], [ 8.674831, 49.4013461 ], [ 8.675075, 49.4014223 ], [ 8.6753065, 49.4015137 ], [ 8.6755231, 49.4016195 ], [ 8.6757227, 49.4017386 ], [ 8.6759035, 49.4018699 ], [ 8.6760637, 49.4020122 ], [ 8.6762018, 49.402164 ], [ 8.6763164, 49.4023239 ], [ 8.6764065, 49.4024904 ], [ 8.6764711, 49.4026618 ], [ 8.6764966, 49.4027774 ], [ 8.6765434, 49.4027365 ], [ 8.676726, 49.4026062 ], [ 8.6769272, 49.4024882 ], [ 8.6771452, 49.4023836 ], [ 8.6773778, 49.4022935 ], [ 8.6776228, 49.4022187 ], [ 8.6778779, 49.40216 ], [ 8.6781406, 49.4021178 ], [ 8.6784084, 49.4020926 ], [ 8.6786786, 49.4020847 ], [ 8.6789488, 49.4020941 ], [ 8.6792162, 49.4021208 ], [ 8.6794783, 49.4021644 ], [ 8.6797327, 49.4022246 ], [ 8.6799767, 49.4023008 ], [ 8.6802082, 49.4023922 ], [ 8.6804248, 49.4024979 ], [ 8.6806244, 49.402617 ], [ 8.6808053, 49.4027483 ], [ 8.6809655, 49.4028906 ], [ 8.6811036, 49.4030424 ], [ 8.6812143, 49.4031969 ], [ 8.6812225, 49.4031971 ], [ 8.6814899, 49.4032238 ], [ 8.6817521, 49.4032674 ], [ 8.6819011, 49.4033027 ], [ 8.6819628, 49.4032361 ], [ 8.6821249, 49.4030947 ], [ 8.6821323, 49.4030894 ], [ 8.681969, 49.402992 ], [ 8.6817882, 49.4028607 ], [ 8.6816279, 49.4027185 ], [ 8.6814898, 49.4025667 ], [ 8.6813752, 49.4024067 ], [ 8.6812851, 49.4022403 ], [ 8.6812205, 49.4020688 ], [ 8.6811819, 49.4018941 ], [ 8.6811698, 49.4017177 ], [ 8.6811842, 49.4015414 ], [ 8.6812251, 49.4013669 ], [ 8.6812919, 49.4011958 ], [ 8.6813841, 49.4010299 ], [ 8.6815008, 49.4008706 ], [ 8.6816408, 49.4007196 ], [ 8.6818029, 49.4005782 ], [ 8.6819854, 49.4004479 ], [ 8.6821866, 49.4003299 ], [ 8.6824046, 49.4002253 ], [ 8.6826372, 49.4001352 ], [ 8.6828822, 49.4000604 ], [ 8.6831373, 49.4000016 ], [ 8.6834, 49.3999594 ], [ 8.6836677, 49.3999343 ], [ 8.6839379, 49.3999263 ], [ 8.6841933, 49.3999352 ], [ 8.6841034, 49.3998914 ], [ 8.6839038, 49.3997723 ], [ 8.6837229, 49.3996409 ], [ 8.6835627, 49.3994987 ], [ 8.6834246, 49.3993469 ], [ 8.68331, 49.399187 ], [ 8.6832199, 49.3990205 ], [ 8.6831553, 49.3988491 ], [ 8.6831167, 49.3986743 ], [ 8.6831046, 49.398498 ], [ 8.683119, 49.3983217 ], [ 8.6831598, 49.3981472 ], [ 8.6832159, 49.3980037 ], [ 8.6919491, 49.3980039 ], [ 8.6919511, 49.3980324 ], [ 8.6919367, 49.3982087 ], [ 8.6919087, 49.3983286 ], [ 8.6920866, 49.3983582 ], [ 8.6923409, 49.3984184 ], [ 8.692585, 49.3984945 ], [ 8.6928165, 49.3985859 ], [ 8.6930331, 49.3986916 ], [ 8.6932328, 49.3988107 ], [ 8.6934136, 49.398942 ], [ 8.6935739, 49.3990842 ], [ 8.693712, 49.399236 ], [ 8.6938266, 49.3993959 ], [ 8.6939167, 49.3995624 ], [ 8.6939814, 49.3997338 ], [ 8.69402, 49.3999086 ], [ 8.6940322, 49.4000849 ], [ 8.6940178, 49.4002612 ], [ 8.693977, 49.4004357 ], [ 8.6939103, 49.4006068 ], [ 8.6938181, 49.4007728 ], [ 8.6937014, 49.4009321 ], [ 8.6935614, 49.4010832 ], [ 8.6933994, 49.4012245 ], [ 8.6932169, 49.4013549 ], [ 8.6930157, 49.4014729 ], [ 8.6927978, 49.4015775 ], [ 8.6925652, 49.4016676 ], [ 8.6923202, 49.4017424 ], [ 8.6920651, 49.4018012 ], [ 8.6918024, 49.4018434 ], [ 8.6915347, 49.4018686 ], [ 8.6912644, 49.4018766 ], [ 8.6909943, 49.4018672 ], [ 8.6907269, 49.4018406 ], [ 8.6904647, 49.401797 ], [ 8.6902104, 49.4017368 ], [ 8.6899663, 49.4016607 ], [ 8.6897349, 49.4015693 ], [ 8.6895182, 49.4014635 ], [ 8.6894432, 49.4014188 ], [ 8.6893145, 49.4015311 ], [ 8.689132, 49.4016614 ], [ 8.6889308, 49.4017794 ], [ 8.6887129, 49.401884 ], [ 8.6884803, 49.4019742 ], [ 8.6882352, 49.402049 ], [ 8.6881051, 49.402079 ], [ 8.6881116, 49.4021727 ], [ 8.6883301, 49.4022091 ], [ 8.6885845, 49.4022692 ], [ 8.6888285, 49.4023454 ], [ 8.68906, 49.4024367 ], [ 8.6892766, 49.4025425 ], [ 8.6894763, 49.4026616 ], [ 8.6895245, 49.4026966 ], [ 8.6895327, 49.4026953 ], [ 8.6898005, 49.4026701 ], [ 8.6900707, 49.4026621 ], [ 8.6903409, 49.4026715 ], [ 8.6906083, 49.4026981 ], [ 8.6908704, 49.4027417 ], [ 8.6911248, 49.4028019 ], [ 8.6913689, 49.402878 ], [ 8.6916003, 49.4029694 ], [ 8.691817, 49.4030752 ], [ 8.6920167, 49.4031942 ], [ 8.6921975, 49.4033255 ], [ 8.6923578, 49.4034678 ], [ 8.6924959, 49.4036196 ], [ 8.6926106, 49.4037795 ], [ 8.6927007, 49.4039459 ], [ 8.6927654, 49.4041174 ], [ 8.692804, 49.4042921 ], [ 8.6928161, 49.4044685 ], [ 8.6928018, 49.4046448 ], [ 8.692761, 49.4048193 ], [ 8.6926942, 49.4049904 ], [ 8.692602, 49.4051563 ], [ 8.6925349, 49.405248 ], [ 8.6927184, 49.4053204 ], [ 8.692935, 49.4054261 ], [ 8.6930214, 49.4054776 ], [ 8.6930984, 49.4054653 ], [ 8.6933661, 49.4054401 ], [ 8.6936364, 49.4054321 ], [ 8.6939066, 49.4054415 ], [ 8.694174, 49.4054681 ], [ 8.6944362, 49.4055117 ], [ 8.6945383, 49.4055359 ], [ 8.6946825, 49.4055223 ], [ 8.6949527, 49.4055143 ], [ 8.6952229, 49.4055237 ], [ 8.6954904, 49.4055503 ], [ 8.6957525, 49.4055939 ], [ 8.6960069, 49.405654 ], [ 8.696251, 49.4057302 ], [ 8.6964825, 49.4058215 ], [ 8.6966991, 49.4059273 ], [ 8.6968989, 49.4060464 ], [ 8.6970797, 49.4061776 ], [ 8.69724, 49.4063199 ], [ 8.6973782, 49.4064717 ], [ 8.6974929, 49.4066316 ], [ 8.697583, 49.406798 ], [ 8.6976477, 49.4069694 ], [ 8.6976526, 49.4069919 ], [ 8.6977561, 49.4070091 ], [ 8.6980104, 49.4070692 ], [ 8.6982546, 49.4071453 ], [ 8.6984861, 49.4072367 ], [ 8.6987027, 49.4073424 ], [ 8.6989025, 49.4074615 ], [ 8.6990833, 49.4075928 ], [ 8.6992437, 49.407735 ], [ 8.6993197, 49.4078186 ], [ 8.6994668, 49.4077847 ], [ 8.6997295, 49.4077425 ], [ 8.6999973, 49.4077173 ], [ 8.700243, 49.4077101 ], [ 8.7003386, 49.407673 ], [ 8.7005836, 49.4075981 ], [ 8.7008387, 49.4075393 ], [ 8.7011014, 49.4074971 ], [ 8.7013692, 49.4074719 ], [ 8.7016395, 49.4074639 ], [ 8.7019097, 49.4074733 ], [ 8.7021771, 49.4074999 ], [ 8.7024393, 49.4075435 ], [ 8.7026937, 49.4076036 ], [ 8.7029378, 49.4076797 ], [ 8.7031693, 49.4077711 ], [ 8.703386, 49.4078768 ], [ 8.7035858, 49.4079958 ], [ 8.7037667, 49.4081271 ], [ 8.7038766, 49.4082246 ], [ 8.7039294, 49.4081786 ], [ 8.7041118, 49.4080483 ], [ 8.704313, 49.4079302 ], [ 8.704531, 49.4078256 ], [ 8.7047636, 49.4077354 ], [ 8.7050086, 49.4076606 ], [ 8.7052637, 49.4076018 ], [ 8.7055264, 49.4075595 ], [ 8.7057942, 49.4075343 ], [ 8.7060644, 49.4075263 ], [ 8.7063346, 49.4075357 ], [ 8.7066021, 49.4075623 ], [ 8.7068643, 49.4076058 ], [ 8.7071187, 49.4076659 ], [ 8.7073628, 49.407742 ], [ 8.7075943, 49.4078334 ], [ 8.707811, 49.4079391 ], [ 8.7080107, 49.4080582 ], [ 8.7081917, 49.4081894 ], [ 8.708352, 49.4083316 ], [ 8.7084902, 49.4084834 ], [ 8.7086049, 49.4086433 ], [ 8.7086951, 49.4088098 ], [ 8.7087228, 49.4088832 ], [ 8.7087488, 49.4088858 ], [ 8.709011, 49.4089293 ], [ 8.7092654, 49.4089894 ], [ 8.7095095, 49.4090655 ], [ 8.709697, 49.4091395 ], [ 8.7098543, 49.4090914 ], [ 8.7101094, 49.4090326 ], [ 8.7103721, 49.4089903 ], [ 8.7106399, 49.4089651 ], [ 8.7109102, 49.4089571 ], [ 8.7111803, 49.4089665 ], [ 8.7114478, 49.408993 ], [ 8.71171, 49.4090366 ], [ 8.7119644, 49.4090967 ], [ 8.7119783, 49.409101 ], [ 8.7119981, 49.4090796 ], [ 8.7120284, 49.4090531 ], [ 8.7120821, 49.4089564 ], [ 8.7121987, 49.4087971 ], [ 8.7123386, 49.4086461 ], [ 8.7125006, 49.4085047 ], [ 8.7126831, 49.4083743 ], [ 8.7128843, 49.4082562 ], [ 8.7131022, 49.4081516 ], [ 8.7133348, 49.4080614 ], [ 8.7135798, 49.4079866 ], [ 8.7138349, 49.4079277 ], [ 8.7140976, 49.4078855 ], [ 8.7143654, 49.4078602 ], [ 8.7146356, 49.4078522 ], [ 8.7149058, 49.4078616 ], [ 8.7151733, 49.4078881 ], [ 8.7154355, 49.4079317 ], [ 8.7156899, 49.4079918 ], [ 8.715934, 49.4080678 ], [ 8.7161656, 49.4081592 ], [ 8.7163823, 49.4082649 ], [ 8.716582, 49.4083839 ], [ 8.716763, 49.4085152 ], [ 8.7169233, 49.4086574 ], [ 8.7170616, 49.4088091 ], [ 8.717168, 49.4089574 ], [ 8.7173085, 49.4089249 ], [ 8.7175712, 49.4088827 ], [ 8.717839, 49.4088574 ], [ 8.7181093, 49.4088494 ], [ 8.7183795, 49.4088587 ], [ 8.718647, 49.4088853 ], [ 8.7189092, 49.4089288 ], [ 8.7191636, 49.4089889 ], [ 8.7194077, 49.409065 ], [ 8.7196393, 49.4091563 ], [ 8.719856, 49.409262 ], [ 8.72, 49.4093478 ], [ 8.72, 49.4119495 ], [ 8.7198402, 49.4120433 ], [ 8.7196222, 49.4121479 ], [ 8.7193896, 49.4122381 ], [ 8.7191446, 49.412313 ], [ 8.7188895, 49.4123719 ], [ 8.718754, 49.4123937 ], [ 8.7189902, 49.4124494 ], [ 8.7192343, 49.4125255 ], [ 8.7194659, 49.4126168 ], [ 8.7196826, 49.4127225 ], [ 8.7198824, 49.4128416 ], [ 8.72, 49.4129268 ], [ 8.72, 49.4152914 ], [ 8.719868, 49.4153857 ], [ 8.7196668, 49.4155038 ], [ 8.7194488, 49.4156084 ], [ 8.7192162, 49.4156986 ], [ 8.7189712, 49.4157735 ], [ 8.7187161, 49.4158324 ], [ 8.7184533, 49.4158746 ], [ 8.7181855, 49.4158999 ], [ 8.7179152, 49.4159079 ], [ 8.717645, 49.4158985 ], [ 8.7173774, 49.415872 ], [ 8.7171152, 49.4158285 ], [ 8.7168608, 49.4157684 ], [ 8.7166166, 49.4156923 ], [ 8.716385, 49.4156009 ], [ 8.7161683, 49.4154952 ], [ 8.7159685, 49.4153762 ], [ 8.7157875, 49.4152449 ], [ 8.7156271, 49.4151027 ], [ 8.7155746, 49.415045 ], [ 8.715498, 49.4150573 ], [ 8.7152302, 49.4150826 ], [ 8.7149599, 49.4150906 ], [ 8.7146897, 49.4150812 ], [ 8.7144222, 49.4150547 ], [ 8.7141599, 49.4150111 ], [ 8.7139055, 49.414951 ], [ 8.7136613, 49.4148749 ], [ 8.7134298, 49.4147836 ], [ 8.7132524, 49.4146971 ], [ 8.7131958, 49.4146988 ], [ 8.7129256, 49.4146894 ], [ 8.7126581, 49.4146629 ], [ 8.7123959, 49.4146193 ], [ 8.7121414, 49.4145592 ], [ 8.7118973, 49.4144831 ], [ 8.7116657, 49.4143918 ], [ 8.711449, 49.4142861 ], [ 8.7112492, 49.414167 ], [ 8.7110682, 49.4140357 ], [ 8.71099, 49.4139664 ], [ 8.7108932, 49.4140356 ], [ 8.710692, 49.4141536 ], [ 8.710474, 49.4142582 ], [ 8.7102414, 49.4143484 ], [ 8.7099963, 49.4144233 ], [ 8.7097412, 49.4144821 ], [ 8.7094785, 49.4145244 ], [ 8.7092107, 49.4145496 ], [ 8.7089404, 49.4145576 ], [ 8.7086702, 49.4145482 ], [ 8.7084026, 49.4145216 ], [ 8.7081404, 49.4144781 ], [ 8.707886, 49.414418 ], [ 8.7076418, 49.4143419 ], [ 8.7074103, 49.4142505 ], [ 8.7071936, 49.4141448 ], [ 8.707104, 49.4140914 ], [ 8.7070075, 49.4140614 ], [ 8.706776, 49.41397 ], [ 8.7065593, 49.4138643 ], [ 8.7064518, 49.4138003 ], [ 8.706305, 49.4138864 ], [ 8.7060871, 49.413991 ], [ 8.7058545, 49.4140812 ], [ 8.7056094, 49.414156 ], [ 8.7053543, 49.4142148 ], [ 8.7050915, 49.4142571 ], [ 8.7049325, 49.414272 ], [ 8.7048587, 49.4143075 ], [ 8.704626, 49.4143977 ], [ 8.704381, 49.4144725 ], [ 8.7041258, 49.4145314 ], [ 8.7038631, 49.4145736 ], [ 8.7035953, 49.4145988 ], [ 8.703325, 49.4146068 ], [ 8.7031682, 49.4146013 ], [ 8.7032691, 49.4146909 ], [ 8.7034073, 49.4148426 ], [ 8.703522, 49.4150025 ], [ 8.7036122, 49.415169 ], [ 8.7036769, 49.4153404 ], [ 8.7037156, 49.4155151 ], [ 8.7037278, 49.4156915 ], [ 8.7037134, 49.4158678 ], [ 8.7036727, 49.4160423 ], [ 8.7036059, 49.4162134 ], [ 8.7035137, 49.4163794 ], [ 8.7033971, 49.4165387 ], [ 8.703257, 49.4166898 ], [ 8.703095, 49.4168311 ], [ 8.7029125, 49.4169615 ], [ 8.7027113, 49.4170795 ], [ 8.7024933, 49.4171841 ], [ 8.7022606, 49.4172743 ], [ 8.7020155, 49.4173492 ], [ 8.7017849, 49.4174023 ], [ 8.7016849, 49.4174329 ], [ 8.7014298, 49.4174917 ], [ 8.701167, 49.4175339 ], [ 8.7008992, 49.4175591 ], [ 8.7006289, 49.4175671 ], [ 8.7003586, 49.4175577 ], [ 8.7000911, 49.4175311 ], [ 8.6998289, 49.4174875 ], [ 8.6996749, 49.4174511 ], [ 8.6996412, 49.4174455 ], [ 8.6993867, 49.4173854 ], [ 8.6991426, 49.4173093 ], [ 8.698911, 49.4172179 ], [ 8.6986943, 49.4171122 ], [ 8.6984946, 49.4169931 ], [ 8.6983136, 49.4168618 ], [ 8.6981533, 49.4167196 ], [ 8.6980151, 49.4165678 ], [ 8.6979004, 49.4164079 ], [ 8.6978103, 49.4162414 ], [ 8.6977456, 49.41607 ], [ 8.6977069, 49.4158953 ], [ 8.6976947, 49.4157189 ], [ 8.6977091, 49.4155426 ], [ 8.6977499, 49.4153681 ], [ 8.6978167, 49.415197 ], [ 8.6979088, 49.415031 ], [ 8.6980255, 49.4148717 ], [ 8.6981656, 49.4147207 ], [ 8.6983276, 49.4145793 ], [ 8.6985101, 49.414449 ], [ 8.6987114, 49.4143309 ], [ 8.6989293, 49.4142263 ], [ 8.699162, 49.4141362 ], [ 8.699407, 49.4140613 ], [ 8.6996622, 49.4140025 ], [ 8.6997014, 49.4139962 ], [ 8.6994787, 49.4139083 ], [ 8.6994099, 49.4138748 ], [ 8.6993741, 49.4138805 ], [ 8.6991063, 49.4139057 ], [ 8.698836, 49.4139137 ], [ 8.6985658, 49.4139043 ], [ 8.6982983, 49.4138777 ], [ 8.6980361, 49.4138341 ], [ 8.6977817, 49.413774 ], [ 8.6975375, 49.4136979 ], [ 8.697306, 49.4136065 ], [ 8.6970893, 49.4135008 ], [ 8.6968896, 49.4133817 ], [ 8.6967086, 49.4132504 ], [ 8.6965483, 49.4131082 ], [ 8.6964102, 49.4129564 ], [ 8.6962955, 49.4127965 ], [ 8.6962053, 49.41263 ], [ 8.6961406, 49.4124586 ], [ 8.696102, 49.4122839 ], [ 8.6960898, 49.4121075 ], [ 8.6961042, 49.4119312 ], [ 8.696145, 49.4117567 ], [ 8.6961819, 49.411662 ], [ 8.6959865, 49.4116804 ], [ 8.6959378, 49.4116818 ], [ 8.6959215, 49.4116935 ], [ 8.6957203, 49.4118115 ], [ 8.6955023, 49.4119161 ], [ 8.6952697, 49.4120063 ], [ 8.6950246, 49.4120811 ], [ 8.6947695, 49.4121399 ], [ 8.6945067, 49.4121821 ], [ 8.6942389, 49.4122073 ], [ 8.6941061, 49.4122112 ], [ 8.6940598, 49.4122335 ], [ 8.6938271, 49.4123236 ], [ 8.693582, 49.4123984 ], [ 8.6933269, 49.4124572 ], [ 8.6930642, 49.4124994 ], [ 8.6927964, 49.4125246 ], [ 8.6925261, 49.4125326 ], [ 8.6922559, 49.4125232 ], [ 8.6919884, 49.4124966 ], [ 8.6917262, 49.412453 ], [ 8.6914718, 49.4123928 ], [ 8.6912277, 49.4123167 ], [ 8.6909962, 49.4122253 ], [ 8.6907795, 49.4121196 ], [ 8.6905797, 49.4120005 ], [ 8.6903989, 49.4118692 ], [ 8.6903691, 49.4118428 ], [ 8.6903346, 49.411846 ], [ 8.6900643, 49.411854 ], [ 8.6897941, 49.4118446 ], [ 8.6895266, 49.411818 ], [ 8.6892644, 49.4117744 ], [ 8.68901, 49.4117142 ], [ 8.6887659, 49.4116381 ], [ 8.6886677, 49.4115993 ], [ 8.6884744, 49.4115926 ], [ 8.688207, 49.411566 ], [ 8.6879448, 49.4115223 ], [ 8.6876904, 49.4114622 ], [ 8.6874463, 49.411386 ], [ 8.6872148, 49.4112947 ], [ 8.6869981, 49.4111889 ], [ 8.6867984, 49.4110698 ], [ 8.6866175, 49.4109385 ], [ 8.6864572, 49.4107963 ], [ 8.6863191, 49.4106445 ], [ 8.6862044, 49.4104846 ], [ 8.6861144, 49.4103181 ], [ 8.6860497, 49.4101467 ], [ 8.6860215, 49.4100189 ], [ 8.6859927, 49.4100358 ], [ 8.6857747, 49.4101404 ], [ 8.6855421, 49.4102305 ], [ 8.685297, 49.4103053 ], [ 8.6850419, 49.4103641 ], [ 8.6847792, 49.4104063 ], [ 8.6845114, 49.4104314 ], [ 8.6842411, 49.4104394 ], [ 8.6839709, 49.41043 ], [ 8.6837034, 49.4104033 ], [ 8.6834412, 49.4103597 ], [ 8.6831869, 49.4102995 ], [ 8.6829428, 49.4102234 ], [ 8.682905, 49.4102085 ], [ 8.682687, 49.4102587 ], [ 8.6824243, 49.4103009 ], [ 8.6821565, 49.410326 ], [ 8.6820309, 49.4103297 ], [ 8.6820162, 49.4103497 ], [ 8.6818761, 49.4105008 ], [ 8.681714, 49.4106421 ], [ 8.6815315, 49.4107724 ], [ 8.6813302, 49.4108905 ], [ 8.6811122, 49.410995 ], [ 8.6808796, 49.4110851 ], [ 8.6806345, 49.4111599 ], [ 8.6803793, 49.4112187 ], [ 8.6801458, 49.4112562 ], [ 8.6801688, 49.4112815 ], [ 8.6802835, 49.4114414 ], [ 8.6803735, 49.4116079 ], [ 8.6804382, 49.4117793 ], [ 8.6804767, 49.4119541 ], [ 8.6804889, 49.4121305 ], [ 8.6804744, 49.4123067 ], [ 8.6804626, 49.4123573 ], [ 8.6805178, 49.4123628 ], [ 8.68078, 49.4124064 ], [ 8.6810343, 49.4124666 ], [ 8.6812784, 49.4125427 ], [ 8.6813341, 49.4125647 ], [ 8.6813346, 49.4125647 ], [ 8.681602, 49.4125914 ], [ 8.6818642, 49.412635 ], [ 8.6821186, 49.4126952 ], [ 8.6823627, 49.4127713 ], [ 8.6825942, 49.4128627 ], [ 8.6828109, 49.4129685 ], [ 8.6830106, 49.4130876 ], [ 8.6831915, 49.4132189 ], [ 8.6833517, 49.4133611 ], [ 8.6834899, 49.413513 ], [ 8.6836045, 49.4136729 ], [ 8.6836946, 49.4138393 ], [ 8.6837593, 49.4140108 ], [ 8.6837978, 49.4141855 ], [ 8.68381, 49.4143619 ], [ 8.6837956, 49.4145382 ], [ 8.6837548, 49.4147127 ], [ 8.6836879, 49.4148838 ], [ 8.6835957, 49.4150497 ], [ 8.683479, 49.415209 ], [ 8.6833389, 49.4153601 ], [ 8.6831768, 49.4155014 ], [ 8.6829942, 49.4156317 ], [ 8.6827929, 49.4157497 ], [ 8.6825749, 49.4158543 ], [ 8.6823422, 49.4159444 ], [ 8.6820971, 49.4160192 ], [ 8.6819521, 49.4160526 ], [ 8.6819366, 49.4160805 ], [ 8.6818199, 49.4162397 ], [ 8.6816798, 49.4163908 ], [ 8.6815177, 49.4165321 ], [ 8.6813351, 49.4166624 ], [ 8.6811338, 49.4167805 ], [ 8.6809158, 49.416885 ], [ 8.6806831, 49.4169751 ], [ 8.680438, 49.4170499 ], [ 8.6801828, 49.4171087 ], [ 8.6799201, 49.4171509 ], [ 8.6796522, 49.4171761 ], [ 8.6793819, 49.417184 ], [ 8.6791117, 49.4171746 ], [ 8.6788442, 49.4171479 ], [ 8.6785819, 49.4171043 ], [ 8.6785788, 49.4171035 ], [ 8.6785881, 49.4172375 ], [ 8.6785736, 49.4174138 ], [ 8.6785328, 49.4175883 ], [ 8.6784659, 49.4177594 ], [ 8.6783737, 49.4179253 ], [ 8.6782569, 49.4180846 ], [ 8.6781168, 49.4182357 ], [ 8.6779547, 49.418377 ], [ 8.6777721, 49.4185073 ], [ 8.6775708, 49.4186253 ], [ 8.6773528, 49.4187299 ], [ 8.6771801, 49.4187967 ], [ 8.6771924, 49.4188528 ], [ 8.6772046, 49.4190291 ], [ 8.6771901, 49.4192054 ], [ 8.6771493, 49.4193799 ], [ 8.6770824, 49.419551 ], [ 8.6769901, 49.419717 ], [ 8.6768734, 49.4198762 ], [ 8.6767333, 49.4200273 ], [ 8.6765711, 49.4201686 ], [ 8.6763885, 49.4202989 ], [ 8.6761872, 49.4204169 ], [ 8.6759692, 49.4205215 ], [ 8.6757364, 49.4206116 ], [ 8.6754913, 49.4206864 ], [ 8.6752361, 49.4207452 ], [ 8.6749733, 49.4207873 ], [ 8.6749245, 49.4207919 ], [ 8.6748173, 49.4208334 ], [ 8.6745722, 49.4209082 ], [ 8.674317, 49.420967 ], [ 8.6740542, 49.4210091 ], [ 8.6737863, 49.4210343 ], [ 8.673516, 49.4210422 ], [ 8.6732457, 49.4210327 ], [ 8.6729782, 49.4210061 ], [ 8.672716, 49.4209624 ], [ 8.6724616, 49.4209022 ], [ 8.6722174, 49.4208261 ], [ 8.6719859, 49.4207346 ], [ 8.6717692, 49.4206289 ], [ 8.6715695, 49.4205097 ], [ 8.6713887, 49.4203784 ], [ 8.6712284, 49.4202362 ], [ 8.6710903, 49.4200843 ], [ 8.6709756, 49.4199244 ], [ 8.6708856, 49.4197579 ], [ 8.670821, 49.4195865 ], [ 8.6707824, 49.4194117 ], [ 8.6707703, 49.4192354 ], [ 8.6707848, 49.4190591 ], [ 8.6708257, 49.4188846 ], [ 8.6708926, 49.4187135 ], [ 8.6709848, 49.4185475 ], [ 8.6711016, 49.4183883 ], [ 8.6712417, 49.4182373 ], [ 8.6714039, 49.4180959 ], [ 8.6715617, 49.4179833 ], [ 8.6715527, 49.4178517 ], [ 8.6715672, 49.4176754 ], [ 8.671608, 49.4175009 ], [ 8.6716749, 49.4173298 ], [ 8.6717672, 49.4171639 ], [ 8.671884, 49.4170046 ], [ 8.6720241, 49.4168536 ], [ 8.6721862, 49.4167122 ], [ 8.6723688, 49.4165819 ], [ 8.6725701, 49.4164639 ], [ 8.6727882, 49.4163594 ], [ 8.6730209, 49.4162693 ], [ 8.673266, 49.4161945 ], [ 8.6735212, 49.4161357 ], [ 8.6736737, 49.4161113 ], [ 8.6737066, 49.4160826 ], [ 8.6738892, 49.4159523 ], [ 8.6740905, 49.4158343 ], [ 8.6743085, 49.4157297 ], [ 8.674457, 49.4156722 ], [ 8.6743762, 49.4156642 ], [ 8.674114, 49.4156205 ], [ 8.6738596, 49.4155604 ], [ 8.6736155, 49.4154842 ], [ 8.673384, 49.4153928 ], [ 8.6731674, 49.415287 ], [ 8.6729677, 49.4151679 ], [ 8.6727868, 49.4150365 ], [ 8.6726266, 49.4148943 ], [ 8.6724885, 49.4147425 ], [ 8.6723738, 49.4145825 ], [ 8.6722838, 49.4144161 ], [ 8.6722459, 49.4143156 ], [ 8.6721411, 49.4143476 ], [ 8.6718859, 49.4144064 ], [ 8.6716231, 49.4144485 ], [ 8.6713553, 49.4144737 ], [ 8.671085, 49.4144816 ], [ 8.6708148, 49.4144721 ], [ 8.6705473, 49.4144455 ], [ 8.6702851, 49.4144018 ], [ 8.6700307, 49.4143416 ], [ 8.6697866, 49.4142654 ], [ 8.6695551, 49.414174 ], [ 8.6693385, 49.4140682 ], [ 8.6691388, 49.4139491 ], [ 8.668958, 49.4138178 ], [ 8.6688393, 49.4137124 ], [ 8.6685961, 49.4137195 ], [ 8.6683259, 49.41371 ], [ 8.6680584, 49.4136834 ], [ 8.6677962, 49.4136397 ], [ 8.6675419, 49.4135795 ], [ 8.6672978, 49.4135033 ], [ 8.6670663, 49.4134119 ], [ 8.6668497, 49.4133061 ], [ 8.66665, 49.413187 ], [ 8.6664692, 49.4130556 ], [ 8.6663089, 49.4129134 ], [ 8.6661709, 49.4127615 ], [ 8.6661066, 49.4126718 ], [ 8.6660753, 49.4126902 ], [ 8.6658572, 49.4127947 ], [ 8.6656245, 49.4128848 ], [ 8.6653794, 49.4129596 ], [ 8.6651242, 49.4130183 ], [ 8.6648615, 49.4130605 ], [ 8.6645936, 49.4130856 ], [ 8.6643233, 49.4130935 ], [ 8.6640531, 49.413084 ], [ 8.6637857, 49.4130573 ], [ 8.6635235, 49.4130137 ], [ 8.6632691, 49.4129535 ], [ 8.663025, 49.4128773 ], [ 8.6627936, 49.4127858 ], [ 8.662577, 49.41268 ], [ 8.6623773, 49.4125609 ], [ 8.6621965, 49.4124295 ], [ 8.6620363, 49.4122873 ], [ 8.6618982, 49.4121354 ], [ 8.6617836, 49.4119755 ], [ 8.6616936, 49.411809 ], [ 8.6616291, 49.4116376 ], [ 8.6615906, 49.4114628 ], [ 8.6615785, 49.4112865 ], [ 8.661593, 49.4111102 ], [ 8.6616339, 49.4109357 ], [ 8.6617008, 49.4107646 ], [ 8.6617931, 49.4105986 ], [ 8.6618189, 49.4105634 ], [ 8.6615647, 49.4106219 ], [ 8.6613019, 49.4106641 ], [ 8.6610341, 49.4106892 ], [ 8.6607638, 49.4106971 ], [ 8.6604936, 49.4106876 ], [ 8.6602262, 49.4106609 ], [ 8.66, 49.4106232 ], [ 8.66, 49.4071723 ], [ 8.6602505, 49.4071321 ], [ 8.6605183, 49.407107 ], [ 8.6607886, 49.4070991 ], [ 8.6610588, 49.4071086 ], [ 8.6613262, 49.4071353 ], [ 8.6615883, 49.4071789 ], [ 8.6618427, 49.4072392 ], [ 8.6620867, 49.4073154 ], [ 8.6623182, 49.4074068 ], [ 8.6625347, 49.4075126 ], [ 8.6627344, 49.4076317 ], [ 8.6629152, 49.4077631 ], [ 8.6630754, 49.4079054 ], [ 8.6632134, 49.4080572 ], [ 8.663328, 49.4082171 ], [ 8.663418, 49.4083836 ], [ 8.6634826, 49.408555 ], [ 8.6635211, 49.4087298 ], [ 8.6635332, 49.4089062 ], [ 8.6635187, 49.4090824 ], [ 8.6634778, 49.409257 ], [ 8.6634109, 49.409428 ], [ 8.6633186, 49.409594 ], [ 8.6632928, 49.4096292 ], [ 8.663547, 49.4095707 ], [ 8.6638098, 49.4095285 ], [ 8.6640776, 49.4095034 ], [ 8.6643479, 49.4094955 ], [ 8.664618, 49.409505 ], [ 8.6648855, 49.4095317 ], [ 8.6651477, 49.4095753 ], [ 8.665402, 49.4096355 ], [ 8.6656461, 49.4097117 ], [ 8.6658775, 49.4098032 ], [ 8.6660941, 49.4099089 ], [ 8.6662938, 49.4100281 ], [ 8.6664746, 49.4101594 ], [ 8.6666348, 49.4103017 ], [ 8.6667729, 49.4104535 ], [ 8.6668372, 49.4105432 ], [ 8.6668685, 49.4105249 ], [ 8.6670865, 49.4104203 ], [ 8.6673192, 49.4103302 ], [ 8.6675643, 49.4102554 ], [ 8.6678195, 49.4101967 ], [ 8.6680822, 49.4101546 ], [ 8.66835, 49.4101294 ], [ 8.6686203, 49.4101215 ], [ 8.6688905, 49.410131 ], [ 8.6689454, 49.4101364 ], [ 8.6688679, 49.4100284 ], [ 8.6687779, 49.4098619 ], [ 8.6687133, 49.4096904 ], [ 8.6686748, 49.4095157 ], [ 8.6686627, 49.4093393 ], [ 8.6686772, 49.409163 ], [ 8.668718, 49.4089885 ], [ 8.6687554, 49.408893 ], [ 8.6685401, 49.4087878 ], [ 8.6683404, 49.4086687 ], [ 8.6681596, 49.4085374 ], [ 8.6679994, 49.4083951 ], [ 8.6678613, 49.4082433 ], [ 8.6677467, 49.4080833 ], [ 8.6676567, 49.4079169 ], [ 8.6675921, 49.4077454 ], [ 8.6675536, 49.4075707 ], [ 8.6675415, 49.4073943 ], [ 8.667556, 49.407218 ], [ 8.6675968, 49.4070435 ], [ 8.6676637, 49.4068724 ], [ 8.667756, 49.4067065 ], [ 8.6678728, 49.4065472 ], [ 8.6680129, 49.4063962 ], [ 8.668175, 49.4062549 ], [ 8.6683575, 49.4061246 ], [ 8.6685588, 49.4060066 ], [ 8.6687768, 49.405902 ], [ 8.6690095, 49.4058119 ], [ 8.6692545, 49.4057372 ], [ 8.6695097, 49.4056784 ], [ 8.6697724, 49.4056363 ], [ 8.6700402, 49.4056111 ], [ 8.6703104, 49.4056032 ], [ 8.6705806, 49.4056127 ], [ 8.670848, 49.4056393 ], [ 8.6711102, 49.405683 ], [ 8.6713645, 49.4057432 ], [ 8.6716086, 49.4058194 ], [ 8.67184, 49.4059108 ], [ 8.6720566, 49.4060166 ], [ 8.6722563, 49.4061357 ], [ 8.6724371, 49.406267 ], [ 8.6725973, 49.4064093 ], [ 8.6727354, 49.4065611 ], [ 8.6727579, 49.4065924 ], [ 8.6728049, 49.4065283 ], [ 8.672945, 49.4063773 ], [ 8.6731071, 49.4062359 ], [ 8.6732896, 49.4061056 ], [ 8.6734909, 49.4059877 ], [ 8.6737089, 49.4058831 ], [ 8.6739415, 49.405793 ], [ 8.6741866, 49.4057182 ], [ 8.6744417, 49.4056594 ], [ 8.6747044, 49.4056173 ], [ 8.6749722, 49.4055921 ], [ 8.6752425, 49.4055842 ], [ 8.6753054, 49.4055864 ], [ 8.6755035, 49.4055806 ], [ 8.6757736, 49.4055901 ], [ 8.6760411, 49.4056167 ], [ 8.6763032, 49.4056603 ], [ 8.6765575, 49.4057205 ], [ 8.6768016, 49.4057967 ], [ 8.6770331, 49.4058881 ], [ 8.6771291, 49.405935 ], [ 8.6771797, 49.4059302 ], [ 8.67745, 49.4059223 ], [ 8.6777201, 49.4059317 ], [ 8.6779876, 49.4059584 ], [ 8.6782497, 49.406002 ], [ 8.6785041, 49.4060622 ], [ 8.6787482, 49.4061384 ], [ 8.678916, 49.4062047 ], [ 8.6788022, 49.4061221 ], [ 8.678642, 49.4059798 ], [ 8.6785039, 49.405828 ], [ 8.6783932, 49.4056735 ], [ 8.678385, 49.4056733 ], [ 8.6781176, 49.4056466 ], [ 8.6778554, 49.405603 ], [ 8.6776011, 49.4055428 ], [ 8.677357, 49.4054666 ], [ 8.6771256, 49.4053752 ], [ 8.6769089, 49.4052694 ], [ 8.6767093, 49.4051503 ], [ 8.6765284, 49.405019 ], [ 8.6763682, 49.4048768 ], [ 8.6762301, 49.4047249 ], [ 8.6761155, 49.404565 ], [ 8.6760255, 49.4043986 ], [ 8.6759609, 49.4042271 ], [ 8.6759354, 49.4041116 ], [ 8.6758885, 49.4041524 ], [ 8.675706, 49.4042827 ], [ 8.6755047, 49.4044007 ], [ 8.6752868, 49.4045053 ], [ 8.6750541, 49.4045954 ], [ 8.674809, 49.4046702 ], [ 8.6745539, 49.404729 ], [ 8.6742912, 49.4047711 ], [ 8.6740234, 49.4047963 ], [ 8.6737532, 49.4048042 ], [ 8.673483, 49.4047947 ], [ 8.6732156, 49.4047681 ], [ 8.6729535, 49.4047244 ], [ 8.6726991, 49.4046642 ], [ 8.6724551, 49.4045881 ], [ 8.6722236, 49.4044967 ], [ 8.672007, 49.4043909 ], [ 8.6718074, 49.4042717 ], [ 8.6716266, 49.4041404 ], [ 8.6714664, 49.4039982 ], [ 8.6713283, 49.4038463 ], [ 8.6712137, 49.4036864 ], [ 8.6711614, 49.4035898 ], [ 8.6710155, 49.4036132 ], [ 8.6707477, 49.4036384 ], [ 8.6704775, 49.4036463 ], [ 8.6702073, 49.4036368 ], [ 8.6699399, 49.4036102 ], [ 8.6696778, 49.4035665 ], [ 8.6694234, 49.4035063 ], [ 8.6691794, 49.4034301 ], [ 8.668948, 49.4033387 ], [ 8.6687314, 49.4032329 ], [ 8.6685317, 49.4031138 ], [ 8.6683509, 49.4029825 ], [ 8.6681907, 49.4028402 ], [ 8.6680527, 49.4026884 ], [ 8.6679381, 49.4025284 ], [ 8.6678481, 49.402362 ], [ 8.6677835, 49.4021905 ], [ 8.667745, 49.4020158 ], [ 8.6677329, 49.4018394 ], [ 8.6677333, 49.4018347 ], [ 8.6676241, 49.4018379 ], [ 8.6673539, 49.4018284 ], [ 8.6670865, 49.4018018 ], [ 8.6668244, 49.4017581 ], [ 8.6665701, 49.4016979 ], [ 8.6663261, 49.4016217 ], [ 8.6660946, 49.4015303 ], [ 8.6658781, 49.4014245 ], [ 8.6656784, 49.4013053 ], [ 8.6654977, 49.401174 ], [ 8.6653375, 49.4010317 ], [ 8.6651994, 49.4008799 ], [ 8.6650849, 49.40072 ], [ 8.6649949, 49.4005535 ], [ 8.6649303, 49.4003821 ], [ 8.6648918, 49.4002073 ], [ 8.6648893, 49.4001709 ], [ 8.6648867, 49.4001591 ], [ 8.6648746, 49.3999827 ], [ 8.6648891, 49.3998065 ], [ 8.66493, 49.3996319 ], [ 8.6649969, 49.3994609 ], [ 8.6650891, 49.3992949 ], [ 8.6652059, 49.3991357 ], [ 8.665346, 49.3989846 ], [ 8.6655081, 49.3988433 ], [ 8.6656906, 49.398713 ], [ 8.6658918, 49.398595 ], [ 8.6659953, 49.3985454 ], [ 8.6661026, 49.3984688 ], [ 8.6663038, 49.3983508 ], [ 8.6665218, 49.3982463 ], [ 8.6667544, 49.3981562 ], [ 8.6669995, 49.3980814 ], [ 8.6671694, 49.3980423 ], [ 8.6671839, 49.3980297 ], [ 8.6672232, 49.3980016 ] ], [ [ 8.6764478, 49.4154014 ], [ 8.6762994, 49.4154589 ], [ 8.6763802, 49.4154669 ], [ 8.6766424, 49.4155105 ], [ 8.6766455, 49.4155113 ], [ 8.6766363, 49.4153773 ], [ 8.6766419, 49.4153083 ], [ 8.6764478, 49.4154014 ] ], [ [ 8.6741368, 49.4121775 ], [ 8.6743996, 49.4121354 ], [ 8.6746674, 49.4121102 ], [ 8.6749377, 49.4121023 ], [ 8.6749755, 49.4121037 ], [ 8.674989, 49.4119388 ], [ 8.6750298, 49.4117643 ], [ 8.6750967, 49.4115932 ], [ 8.675189, 49.4114272 ], [ 8.6753057, 49.411268 ], [ 8.6754458, 49.4111169 ], [ 8.6756079, 49.4109756 ], [ 8.6757905, 49.4108453 ], [ 8.6759917, 49.4107273 ], [ 8.6762097, 49.4106227 ], [ 8.6764424, 49.4105326 ], [ 8.6766875, 49.4104578 ], [ 8.6769426, 49.4103991 ], [ 8.6771762, 49.4103616 ], [ 8.6771532, 49.4103363 ], [ 8.6770994, 49.4102612 ], [ 8.6770251, 49.4102783 ], [ 8.6767624, 49.4103205 ], [ 8.6764946, 49.4103457 ], [ 8.6762243, 49.4103536 ], [ 8.6759541, 49.4103441 ], [ 8.6756866, 49.4103175 ], [ 8.6754244, 49.4102739 ], [ 8.6751701, 49.4102137 ], [ 8.674926, 49.4101375 ], [ 8.6747603, 49.410072 ], [ 8.6746756, 49.4101048 ], [ 8.6744306, 49.4101796 ], [ 8.6741754, 49.4102384 ], [ 8.6739127, 49.4102805 ], [ 8.6737595, 49.4102949 ], [ 8.6737054, 49.4103531 ], [ 8.6735433, 49.4104945 ], [ 8.6733608, 49.4106248 ], [ 8.6731595, 49.4107428 ], [ 8.6729415, 49.4108473 ], [ 8.6727088, 49.4109374 ], [ 8.6724637, 49.4110122 ], [ 8.6722699, 49.4110569 ], [ 8.6724073, 49.4110997 ], [ 8.6726388, 49.4111912 ], [ 8.6728554, 49.4112969 ], [ 8.6730551, 49.4114161 ], [ 8.6732359, 49.4115474 ], [ 8.6733962, 49.4116896 ], [ 8.6735343, 49.4118415 ], [ 8.6736489, 49.4120014 ], [ 8.6737389, 49.4121679 ], [ 8.6737768, 49.4122683 ], [ 8.6738817, 49.4122363 ], [ 8.6741368, 49.4121775 ] ], [ [ 8.679463, 49.4065034 ], [ 8.6795768, 49.406586 ], [ 8.679737, 49.4067282 ], [ 8.6798751, 49.40688 ], [ 8.6799897, 49.4070399 ], [ 8.6800711, 49.4071904 ], [ 8.6801578, 49.4071396 ], [ 8.6803758, 49.407035 ], [ 8.6806085, 49.4069449 ], [ 8.6807062, 49.406915 ], [ 8.6807694, 49.4068906 ], [ 8.6810144, 49.4068158 ], [ 8.6811765, 49.4067784 ], [ 8.680929, 49.4067857 ], [ 8.6806589, 49.4067763 ], [ 8.6803914, 49.4067496 ], [ 8.6801293, 49.406706 ], [ 8.6798749, 49.4066458 ], [ 8.6796308, 49.4065697 ], [ 8.679463, 49.4065034 ] ], [ [ 8.6828818, 49.4062641 ], [ 8.6826806, 49.4063821 ], [ 8.6824626, 49.4064867 ], [ 8.68223, 49.4065768 ], [ 8.6819849, 49.4066516 ], [ 8.6818228, 49.406689 ], [ 8.6820703, 49.4066817 ], [ 8.6823405, 49.4066911 ], [ 8.6826079, 49.4067178 ], [ 8.6828701, 49.4067614 ], [ 8.6831244, 49.4068216 ], [ 8.6833685, 49.4068977 ], [ 8.6834338, 49.4069235 ], [ 8.6834634, 49.4069167 ], [ 8.6837261, 49.4068745 ], [ 8.6837553, 49.4068718 ], [ 8.683744, 49.4067084 ], [ 8.6837584, 49.4065321 ], [ 8.6837993, 49.4063576 ], [ 8.6838661, 49.4061865 ], [ 8.683953, 49.40603 ], [ 8.6836994, 49.4060047 ], [ 8.6834372, 49.4059611 ], [ 8.6832882, 49.4059259 ], [ 8.6832264, 49.4059925 ], [ 8.6830644, 49.4061338 ], [ 8.6828818, 49.4062641 ] ] ], [ [ [ 8.6632139, 49.4033786 ], [ 8.6633947, 49.40351 ], [ 8.6635549, 49.4036522 ], [ 8.6636929, 49.4038041 ], [ 8.6638075, 49.403964 ], [ 8.6638975, 49.4041305 ], [ 8.6639621, 49.4043019 ], [ 8.6640006, 49.4044767 ], [ 8.6640126, 49.404653 ], [ 8.6639982, 49.4048293 ], [ 8.6639573, 49.4050039 ], [ 8.6638904, 49.4051749 ], [ 8.6637981, 49.4053409 ], [ 8.6636813, 49.4055001 ], [ 8.6635412, 49.4056511 ], [ 8.6633791, 49.4057925 ], [ 8.6631965, 49.4059228 ], [ 8.6629952, 49.4060407 ], [ 8.6627772, 49.4061453 ], [ 8.6625445, 49.4062353 ], [ 8.6622995, 49.4063101 ], [ 8.6620443, 49.4063688 ], [ 8.6617816, 49.406411 ], [ 8.6615138, 49.4064361 ], [ 8.6612435, 49.406444 ], [ 8.6609734, 49.4064345 ], [ 8.6607059, 49.4064078 ], [ 8.6604438, 49.4063642 ], [ 8.6601895, 49.4063039 ], [ 8.66, 49.4062448 ], [ 8.66, 49.4030447 ], [ 8.6602124, 49.4029799 ], [ 8.6604675, 49.4029212 ], [ 8.6607302, 49.402879 ], [ 8.660998, 49.4028539 ], [ 8.6612683, 49.402846 ], [ 8.6615384, 49.4028555 ], [ 8.6618058, 49.4028822 ], [ 8.662068, 49.4029258 ], [ 8.6623223, 49.4029861 ], [ 8.6625663, 49.4030623 ], [ 8.6627977, 49.4031537 ], [ 8.6630143, 49.4032595 ], [ 8.6632139, 49.4033786 ] ] ], [ [ [ 8.6701361, 49.4162912 ], [ 8.6703358, 49.4164103 ], [ 8.6705167, 49.4165416 ], [ 8.6706769, 49.4166839 ], [ 8.670815, 49.4168357 ], [ 8.6709297, 49.4169956 ], [ 8.6710197, 49.4171621 ], [ 8.6710843, 49.4173336 ], [ 8.6711229, 49.4175083 ], [ 8.671135, 49.4176847 ], [ 8.6711205, 49.417861 ], [ 8.6710796, 49.4180355 ], [ 8.6710127, 49.4182065 ], [ 8.6709205, 49.4183725 ], [ 8.6708037, 49.4185318 ], [ 8.6706636, 49.4186828 ], [ 8.6705014, 49.4188241 ], [ 8.6703188, 49.4189544 ], [ 8.6701175, 49.4190724 ], [ 8.6698994, 49.419177 ], [ 8.6696667, 49.4192671 ], [ 8.6694216, 49.4193418 ], [ 8.6691664, 49.4194006 ], [ 8.6689036, 49.4194427 ], [ 8.6686357, 49.4194679 ], [ 8.6683654, 49.4194758 ], [ 8.6680951, 49.4194663 ], [ 8.6678276, 49.4194397 ], [ 8.6675654, 49.419396 ], [ 8.667311, 49.4193358 ], [ 8.6670669, 49.4192596 ], [ 8.6668354, 49.4191682 ], [ 8.6666188, 49.4190624 ], [ 8.6664191, 49.4189432 ], [ 8.6662382, 49.4188119 ], [ 8.666078, 49.4186697 ], [ 8.6659399, 49.4185178 ], [ 8.6658253, 49.4183579 ], [ 8.6657352, 49.4181914 ], [ 8.6656706, 49.41802 ], [ 8.6656321, 49.4178452 ], [ 8.66562, 49.4176689 ], [ 8.6656345, 49.4174926 ], [ 8.6656754, 49.4173181 ], [ 8.6657423, 49.417147 ], [ 8.6658346, 49.416981 ], [ 8.6659514, 49.4168218 ], [ 8.6660915, 49.4166708 ], [ 8.6662537, 49.4165294 ], [ 8.6664363, 49.4163991 ], [ 8.6666376, 49.4162812 ], [ 8.6668557, 49.4161766 ], [ 8.6670884, 49.4160865 ], [ 8.6673335, 49.4160117 ], [ 8.6675887, 49.415953 ], [ 8.6678515, 49.4159109 ], [ 8.6681193, 49.4158857 ], [ 8.6683896, 49.4158778 ], [ 8.6686598, 49.4158873 ], [ 8.6689273, 49.4159139 ], [ 8.6691895, 49.4159576 ], [ 8.6694439, 49.4160178 ], [ 8.669688, 49.416094 ], [ 8.6699195, 49.4161854 ], [ 8.6701361, 49.4162912 ] ] ], [ [ [ 8.6890684, 49.4122744 ], [ 8.6892851, 49.4123802 ], [ 8.6894848, 49.4124993 ], [ 8.6896196, 49.4125972 ], [ 8.6896205, 49.4125971 ], [ 8.6898908, 49.4125891 ], [ 8.690161, 49.4125985 ], [ 8.6904285, 49.4126251 ], [ 8.6906907, 49.4126687 ], [ 8.6907209, 49.4126759 ], [ 8.6907441, 49.4126797 ], [ 8.6909985, 49.4127399 ], [ 8.6912426, 49.412816 ], [ 8.6914741, 49.4129074 ], [ 8.6916908, 49.4130132 ], [ 8.6918906, 49.4131322 ], [ 8.6920715, 49.4132635 ], [ 8.6922318, 49.4134058 ], [ 8.6923699, 49.4135576 ], [ 8.6924846, 49.4137175 ], [ 8.6925747, 49.4138839 ], [ 8.6926394, 49.4140554 ], [ 8.692678, 49.4142301 ], [ 8.6926902, 49.4144065 ], [ 8.6926758, 49.4145828 ], [ 8.692635, 49.4147573 ], [ 8.6925682, 49.4149284 ], [ 8.692476, 49.4150943 ], [ 8.6923593, 49.4152536 ], [ 8.6922193, 49.4154047 ], [ 8.6920572, 49.415546 ], [ 8.6918746, 49.4156764 ], [ 8.6916734, 49.4157944 ], [ 8.6914554, 49.415899 ], [ 8.6912227, 49.4159891 ], [ 8.6909776, 49.416064 ], [ 8.6907225, 49.4161227 ], [ 8.6905911, 49.4161438 ], [ 8.6907312, 49.4161397 ], [ 8.6910014, 49.4161491 ], [ 8.6912689, 49.4161757 ], [ 8.6915311, 49.4162193 ], [ 8.6917856, 49.4162795 ], [ 8.6920297, 49.4163556 ], [ 8.6922612, 49.416447 ], [ 8.6924779, 49.4165527 ], [ 8.6926777, 49.4166718 ], [ 8.6928586, 49.4168031 ], [ 8.6930189, 49.4169454 ], [ 8.6931571, 49.4170972 ], [ 8.6932718, 49.4172571 ], [ 8.6933619, 49.4174235 ], [ 8.6934266, 49.4175949 ], [ 8.6934652, 49.4177697 ], [ 8.6934774, 49.417946 ], [ 8.693463, 49.4181223 ], [ 8.6934222, 49.4182969 ], [ 8.6933554, 49.4184679 ], [ 8.6932632, 49.4186339 ], [ 8.6931465, 49.4187932 ], [ 8.6930064, 49.4189443 ], [ 8.6928443, 49.4190856 ], [ 8.6926618, 49.419216 ], [ 8.6924605, 49.419334 ], [ 8.6922425, 49.4194386 ], [ 8.6920098, 49.4195287 ], [ 8.6918088, 49.4195901 ], [ 8.6918347, 49.4197076 ], [ 8.6918469, 49.419884 ], [ 8.6918465, 49.4198895 ], [ 8.6918527, 49.4199179 ], [ 8.6918649, 49.4200943 ], [ 8.6918505, 49.4202706 ], [ 8.6918097, 49.4204451 ], [ 8.6917429, 49.4206162 ], [ 8.6916507, 49.4207822 ], [ 8.691534, 49.4209414 ], [ 8.6913939, 49.4210925 ], [ 8.6912318, 49.4212339 ], [ 8.6910492, 49.4213642 ], [ 8.690848, 49.4214822 ], [ 8.6906299, 49.4215868 ], [ 8.6903972, 49.4216769 ], [ 8.6901521, 49.4217518 ], [ 8.6898969, 49.4218106 ], [ 8.6896342, 49.4218527 ], [ 8.6893663, 49.4218779 ], [ 8.6890959, 49.4218859 ], [ 8.6888257, 49.4218765 ], [ 8.6885582, 49.4218499 ], [ 8.6882959, 49.4218062 ], [ 8.6881155, 49.4217636 ], [ 8.6879468, 49.421829 ], [ 8.6877016, 49.4219038 ], [ 8.6874465, 49.4219626 ], [ 8.6871893, 49.4220039 ], [ 8.6861276, 49.4220038 ], [ 8.6861077, 49.4220018 ], [ 8.6858454, 49.4219582 ], [ 8.685591, 49.4218981 ], [ 8.6853468, 49.4218219 ], [ 8.6851153, 49.4217305 ], [ 8.6848986, 49.4216248 ], [ 8.6848628, 49.4216034 ], [ 8.6847996, 49.4216093 ], [ 8.6845293, 49.4216173 ], [ 8.684259, 49.4216079 ], [ 8.6839915, 49.4215812 ], [ 8.6837292, 49.4215376 ], [ 8.6834748, 49.4214774 ], [ 8.6832307, 49.4214013 ], [ 8.6829991, 49.4213099 ], [ 8.6827824, 49.4212041 ], [ 8.6825827, 49.421085 ], [ 8.6824018, 49.4209537 ], [ 8.6822431, 49.4208129 ], [ 8.6820596, 49.4207824 ], [ 8.6818052, 49.4207222 ], [ 8.681561, 49.4206461 ], [ 8.6813295, 49.4205547 ], [ 8.6811128, 49.4204489 ], [ 8.6809131, 49.4203298 ], [ 8.6807322, 49.4201985 ], [ 8.6805719, 49.4200562 ], [ 8.6804337, 49.4199044 ], [ 8.6803191, 49.4197445 ], [ 8.680229, 49.419578 ], [ 8.6801644, 49.4194066 ], [ 8.6801258, 49.4192319 ], [ 8.6801136, 49.4190555 ], [ 8.6801281, 49.4188792 ], [ 8.6801689, 49.4187047 ], [ 8.6802358, 49.4185336 ], [ 8.680328, 49.4183677 ], [ 8.6804448, 49.4182084 ], [ 8.6805849, 49.4180573 ], [ 8.680747, 49.417916 ], [ 8.6809296, 49.4177857 ], [ 8.6811308, 49.4176677 ], [ 8.6813489, 49.4175631 ], [ 8.6815816, 49.417473 ], [ 8.6818267, 49.4173982 ], [ 8.6820818, 49.4173394 ], [ 8.6823446, 49.4172972 ], [ 8.6826125, 49.4172721 ], [ 8.6828828, 49.4172641 ], [ 8.683153, 49.4172735 ], [ 8.6834205, 49.4173002 ], [ 8.6836827, 49.4173438 ], [ 8.6839371, 49.417404 ], [ 8.6841813, 49.4174801 ], [ 8.6843007, 49.4175272 ], [ 8.6843761, 49.4174459 ], [ 8.6845382, 49.4173046 ], [ 8.6847208, 49.4171742 ], [ 8.6849221, 49.4170562 ], [ 8.6851401, 49.4169517 ], [ 8.6853728, 49.4168615 ], [ 8.6856179, 49.4167867 ], [ 8.685873, 49.4167279 ], [ 8.6861358, 49.4166857 ], [ 8.6864036, 49.4166606 ], [ 8.686674, 49.4166526 ], [ 8.6869442, 49.416662 ], [ 8.6872117, 49.4166887 ], [ 8.6874739, 49.4167323 ], [ 8.6877283, 49.4167924 ], [ 8.6879724, 49.4168686 ], [ 8.688204, 49.41696 ], [ 8.6883448, 49.4170287 ], [ 8.6884335, 49.4169331 ], [ 8.6885956, 49.4167917 ], [ 8.6887781, 49.4166614 ], [ 8.6889794, 49.4165434 ], [ 8.6891974, 49.4164388 ], [ 8.68943, 49.4163487 ], [ 8.6896751, 49.4162738 ], [ 8.6899303, 49.4162151 ], [ 8.6900617, 49.416194 ], [ 8.6899216, 49.4161981 ], [ 8.6896513, 49.4161887 ], [ 8.6893838, 49.4161621 ], [ 8.6891216, 49.4161185 ], [ 8.6890914, 49.4161113 ], [ 8.6890682, 49.4161075 ], [ 8.6888138, 49.4160473 ], [ 8.6885697, 49.4159712 ], [ 8.6883382, 49.4158798 ], [ 8.6881215, 49.415774 ], [ 8.6879217, 49.4156549 ], [ 8.6877869, 49.415557 ], [ 8.687786, 49.4155571 ], [ 8.6875157, 49.4155651 ], [ 8.6872455, 49.4155557 ], [ 8.686978, 49.415529 ], [ 8.6867158, 49.4154854 ], [ 8.6864614, 49.4154253 ], [ 8.6862172, 49.4153491 ], [ 8.6859857, 49.4152577 ], [ 8.685769, 49.415152 ], [ 8.6855693, 49.4150329 ], [ 8.6853884, 49.4149016 ], [ 8.6852281, 49.4147593 ], [ 8.68509, 49.4146075 ], [ 8.6849753, 49.4144476 ], [ 8.6848852, 49.4142812 ], [ 8.6848206, 49.4141097 ], [ 8.684782, 49.413935 ], [ 8.6847698, 49.4137586 ], [ 8.6847842, 49.4135823 ], [ 8.6848251, 49.4134078 ], [ 8.6848919, 49.4132367 ], [ 8.6849841, 49.4130708 ], [ 8.6851008, 49.4129115 ], [ 8.6852409, 49.4127604 ], [ 8.685403, 49.4126191 ], [ 8.6855855, 49.4124888 ], [ 8.6857868, 49.4123707 ], [ 8.6860048, 49.4122662 ], [ 8.6862375, 49.412176 ], [ 8.6864825, 49.4121012 ], [ 8.6867377, 49.4120424 ], [ 8.6870004, 49.4120002 ], [ 8.6872682, 49.4119751 ], [ 8.6875385, 49.4119671 ], [ 8.6878087, 49.4119765 ], [ 8.6880762, 49.4120032 ], [ 8.6883384, 49.4120468 ], [ 8.6885928, 49.4121069 ], [ 8.6888369, 49.4121831 ], [ 8.6890684, 49.4122744 ] ] ], [ [ [ 8.6804061, 49.4206559 ], [ 8.6805869, 49.4207873 ], [ 8.6807472, 49.4209295 ], [ 8.6808854, 49.4210813 ], [ 8.6810001, 49.4212412 ], [ 8.6810902, 49.4214077 ], [ 8.6811548, 49.4215791 ], [ 8.6811934, 49.4217539 ], [ 8.6812055, 49.4219302 ], [ 8.6811995, 49.4220036 ], [ 8.6756961, 49.422003 ], [ 8.6756901, 49.4219149 ], [ 8.6757045, 49.4217386 ], [ 8.6757454, 49.4215641 ], [ 8.6758123, 49.421393 ], [ 8.6759045, 49.4212271 ], [ 8.6760213, 49.4210678 ], [ 8.6761614, 49.4209168 ], [ 8.6763236, 49.4207754 ], [ 8.6765062, 49.4206451 ], [ 8.6767075, 49.4205271 ], [ 8.6769255, 49.4204225 ], [ 8.6771582, 49.4203324 ], [ 8.6774034, 49.4202576 ], [ 8.6776586, 49.4201989 ], [ 8.6779213, 49.4201567 ], [ 8.6781892, 49.4201315 ], [ 8.6784596, 49.4201236 ], [ 8.6787298, 49.4201331 ], [ 8.6789973, 49.4201597 ], [ 8.6792595, 49.4202033 ], [ 8.679514, 49.4202635 ], [ 8.6797581, 49.4203397 ], [ 8.6799896, 49.4204311 ], [ 8.6802063, 49.4205368 ], [ 8.6804061, 49.4206559 ] ] ], [ [ [ 8.7108651, 49.4047011 ], [ 8.7110648, 49.4048201 ], [ 8.7112458, 49.4049514 ], [ 8.7114061, 49.4050936 ], [ 8.7115443, 49.4052454 ], [ 8.711659, 49.4054052 ], [ 8.7117492, 49.4055717 ], [ 8.7118139, 49.4057431 ], [ 8.7118526, 49.4059178 ], [ 8.7118648, 49.4060942 ], [ 8.7118505, 49.4062705 ], [ 8.7118098, 49.406445 ], [ 8.7117431, 49.4066161 ], [ 8.711651, 49.4067821 ], [ 8.7115343, 49.4069414 ], [ 8.7113944, 49.4070925 ], [ 8.7112324, 49.4072339 ], [ 8.7110499, 49.4073643 ], [ 8.7108488, 49.4074823 ], [ 8.7106308, 49.4075869 ], [ 8.7103982, 49.4076771 ], [ 8.7101532, 49.407752 ], [ 8.7098981, 49.4078108 ], [ 8.7096354, 49.4078531 ], [ 8.7093676, 49.4078783 ], [ 8.7090974, 49.4078863 ], [ 8.7088272, 49.4078769 ], [ 8.7085597, 49.4078504 ], [ 8.7082975, 49.4078068 ], [ 8.7080432, 49.4077467 ], [ 8.707799, 49.4076706 ], [ 8.7075675, 49.4075792 ], [ 8.7073508, 49.4074735 ], [ 8.7071511, 49.4073544 ], [ 8.7069701, 49.4072232 ], [ 8.7068098, 49.407081 ], [ 8.7066716, 49.4069292 ], [ 8.7065569, 49.4067693 ], [ 8.7064668, 49.4066028 ], [ 8.706402, 49.4064314 ], [ 8.7063634, 49.4062567 ], [ 8.7063512, 49.4060803 ], [ 8.7063655, 49.405904 ], [ 8.7064062, 49.4057295 ], [ 8.706473, 49.4055584 ], [ 8.7065651, 49.4053924 ], [ 8.7066817, 49.4052331 ], [ 8.7068217, 49.4050821 ], [ 8.7069837, 49.4049407 ], [ 8.7071662, 49.4048103 ], [ 8.7073673, 49.4046923 ], [ 8.7075853, 49.4045876 ], [ 8.7078179, 49.4044975 ], [ 8.7080629, 49.4044226 ], [ 8.7083179, 49.4043638 ], [ 8.7085806, 49.4043215 ], [ 8.7088484, 49.4042963 ], [ 8.7091186, 49.4042883 ], [ 8.7093888, 49.4042977 ], [ 8.7096562, 49.4043242 ], [ 8.7099184, 49.4043678 ], [ 8.7101728, 49.4044279 ], [ 8.7104169, 49.404504 ], [ 8.7106484, 49.4045954 ], [ 8.7108651, 49.4047011 ] ] ] ] } },
{ "type": "Feature", "properties": { "index": "1", "label": "Beyond 200 m", "color": "#d9d9d9" }, "geometry": { "type": "MultiPolygon", "coordinates": [ [ [ [ 8.6919491, 49.3980039 ], [ 8.72, 49.398 ], [ 8.72, 49.4093478 ], [ 8.719856, 49.409262 ], [ 8.7196393, 49.4091563 ], [ 8.7194077, 49.409065 ], [ 8.7191636, 49.4089889 ], [ 8.7189092, 49.4089288 ], [ 8.718647, 49.4088853 ], [ 8.7183795, 49.4088587 ], [ 8.7181093, 49.4088494 ], [ 8.717839, 49.4088574 ], [ 8.7175712, 49.4088827 ], [ 8.7173085, 49.4089249 ], [ 8.717168, 49.4089574 ], [ 8.7170616, 49.4088091 ], [ 8.7169233, 49.4086574 ], [ 8.716763, 49.4085152 ], [ 8.716582, 49.4083839 ], [ 8.7163823, 49.4082649 ], [ 8.7161656, 49.4081592 ], [ 8.715934, 49.4080678 ], [ 8.7156899, 49.4079918 ], [ 8.7154355, 49.4079317 ], [ 8.7151733, 49.4078881 ], [ 8.7149058, 49.4078616 ], [ 8.7146356, 49.4078522 ], [ 8.7143654, 49.4078602 ], [ 8.7140976, 49.4078855 ], [ 8.7138349, 49.4079277 ], [ 8.7135798, 49.4079866 ], [ 8.7133348, 49.4080614 ], [ 8.7131022, 49.4081516 ], [ 8.7128843, 49.4082562 ], [ 8.7126831, 49.4083743 ], [ 8.7125006, 49.4085047 ], [ 8.7123386, 49.4086461 ], [ 8.7121987, 49.4087971 ], [ 8.7120821, 49.4089564 ], [ 8.7120284, 49.4090531 ], [ 8.7119981, 49.4090796 ], [ 8.7119783, 49.409101 ], [ 8.7119644, 49.4090967 ], [ 8.71171, 49.4090366 ], [ 8.7114478, 49.408993 ], [ 8.7111803, 49.4089665 ], [ 8.7109102, 49.4089571 ], [ 8.7106399, 49.4089651 ], [ 8.7103721, 49.4089903 ], [ 8.7101094, 49.4090326 ], [ 8.7098543, 49.4090914 ], [ 8.709697, 49.4091395 ], [ 8.7095095, 49.4090655 ], [ 8.7092654, 49.4089894 ], [ 8.709011, 49.4089293 ], [ 8.7087488, 49.4088858 ], [ 8.7087228, 49.4088832 ], [ 8.7086951, 49.4088098 ], [ 8.7086049, 49.4086433 ], [ 8.7084902, 49.4084834 ], [ 8.708352, 49.4083316 ], [ 8.7081917, 49.4081894 ], [ 8.7080107, 49.4080582 ], [ 8.707811, 49.4079391 ], [ 8.7075943, 49.4078334 ], [ 8.7073628, 49.407742 ], [ 8.7071187, 49.4076659 ], [ 8.7068643, 49.4076058 ], [ 8.7066021, 49.4075623 ], [ 8.7063346, 49.4075357 ], [ 8.7060644, 49.4075263 ], [ 8.7057942, 49.4075343 ], [ 8.7055264, 49.4075595 ], [ 8.7052637, 49.4076018 ], [ 8.7050086, 49.4076606 ], [ 8.7047636, 49.4077354 ], [ 8.704531, 49.4078256 ], [ 8.704313, 49.4079302 ], [ 8.7041118, 49.4080483 ], [ 8.7039294, 49.4081786 ], [ 8.7038766, 49.4082246 ], [ 8.7037667, 49.4081271 ], [ 8.7035858, 49.4079958 ], [ 8.703386, 49.4078768 ], [ 8.7031693, 49.4077711 ], [ 8.7029378, 49.4076797 ], [ 8.7026937, 49.4076036 ], [ 8.7024393, 49.4075435 ], [ 8.7021771, 49.4074999 ], [ 8.7019097, 49.4074733 ], [ 8.7016395, 49.4074639 ], [ 8.7013692, 49.4074719 ], [ 8.7011014, 49.4074971 ], [ 8.7008387, 49.4075393 ], [ 8.7005836, 49.4075981 ], [ 8.7003386, 49.407673 ], [ 8.700243, 49.4077101 ], [ 8.6999973, 49.4077173 ], [ 8.6997295, 49.4077425 ], [ 8.6994668, 49.4077847 ], [ 8.6993197, 49.4078186 ], [ 8.6992437, 49.407735 ], [ 8.6990833, 49.4075928 ], [ 8.6989025, 49.4074615 ], [ 8.6987027, 49.4073424 ], [ 8.6984861, 49.4072367 ], [ 8.6982546, 49.4071453 ], [ 8.6980104, 49.4070692 ], [ 8.6977561, 49.4070091 ], [ 8.6976526, 49.4069919 ], [ 8.6976477, 49.4069694 ], [ 8.697583, 49.406798 ], [ 8.6974929, 49.4066316 ], [ 8.6973782, 49.4064717 ], [ 8.69724, 49.4063199 ], [ 8.6970797, 49.4061776 ], [ 8.6968989, 49.4060464 ], [ 8.6966991, 49.4059273 ], [ 8.6964825, 49.4058215 ], [ 8.696251, 49.4057302 ], [ 8.6960069, 49.405654 ], [ 8.6957525, 49.4055939 ], [ 8.6954904, 49.4055503 ], [ 8.6952229, 49.4055237 ], [ 8.6949527, 49.4055143 ], [ 8.6946825, 49.4055223 ], [ 8.6945383, 49.4055359 ], [ 8.6944362, 49.4055117 ], [ 8.694174, 49.4054681 ], [ 8.6939066, 49.4054415 ], [ 8.6936364, 49.4054321 ], [ 8.6933661, 49.4054401 ], [ 8.6930984, 49.4054653 ], [ 8.6930214, 49.4054776 ], [ 8.692935, 49.4054261 ], [ 8.6927184, 49.4053204 ], [ 8.6925349, 49.405248 ], [ 8.692602, 49.4051563 ], [ 8.6926942, 49.4049904 ], [ 8.692761, 49.4048193 ], [ 8.6928018, 49.4046448 ], [ 8.6928161, 49.4044685 ], [ 8.692804, 49.4042921 ], [ 8.6927654, 49.4041174 ], [ 8.6927007, 49.4039459 ], [ 8.6926106, 49.4037795 ], [ 8.6924959, 49.4036196 ], [ 8.6923578, 49.4034678 ], [ 8.6921975, 49.4033255 ], [ 8.6920167, 49.4031942 ], [ 8.691817, 49.4030752 ], [ 8.6916003, 49.4029694 ], [ 8.6913689, 49.402878 ], [ 8.6911248, 49.4028019 ], [ 8.6908704, 49.4027417 ], [ 8.6906083, 49.4026981 ], [ 8.6903409, 49.4026715 ], [ 8.6900707, 49.4026621 ], [ 8.6898005, 49.4026701 ], [ 8.6895327, 49.4026953 ], [ 8.6895245, 49.4026966 ], [ 8.6894763, 49.4026616 ], [ 8.6892766, 49.4025425 ], [ 8.68906, 49.4024367 ], [ 8.6888285, 49.4023454 ], [ 8.6885845, 49.4022692 ], [ 8.6883301, 49.4022091 ], [ 8.6881116, 49.4021727 ], [ 8.6881051, 49.402079 ], [ 8.6882352, 49.402049 ], [ 8.6884803, 49.4019742 ], [ 8.6887129, 49.401884 ], [ 8.6889308, 49.4017794 ], [ 8.689132, 49.4016614 ], [ 8.6893145, 49.4015311 ], [ 8.6894432, 49.4014188 ], [ 8.6895182, 49.4014635 ], [ 8.6897349, 49.4015693 ], [ 8.6899663, 49.4016607 ], [ 8.6902104, 49.4017368 ], [ 8.6904647, 49.401797 ], [ 8.6907269, 49.4018406 ], [ 8.6909943, 49.4018672 ], [ 8.6912644, 49.4018766 ], [ 8.6915347, 49.4018686 ], [ 8.6918024, 49.4018434 ], [ 8.6920651, 49.4018012 ], [ 8.6923202, 49.4017424 ], [ 8.6925652, 49.4016676 ], [ 8.6927978, 49.4015775 ], [ 8.6930157, 49.4014729 ], [ 8.6932169, 49.4013549 ], [ 8.6933994, 49.4012245 ], [ 8.6935614, 49.4010832 ], [ 8.6937014, 49.4009321 ], [ 8.6938181, 49.4007728 ], [ 8.6939103, 49.4006068 ], [ 8.693977, 49.4004357 ], [ 8.6940178, 49.4002612 ], [ 8.6940322, 49.4000849 ], [ 8.69402, 49.3999086 ], [ 8.6939814, 49.3997338 ], [ 8.6939167, 49.3995624 ], [ 8.6938266, 49.3993959 ], [ 8.693712, 49.399236 ], [ 8.6935739, 49.3990842 ], [ 8.6934136, 49.398942 ], [ 8.6932328, 49.3988107 ], [ 8.6930331, 49.3986916 ], [ 8.6928165, 49.3985859 ], [ 8.692585, 49.3984945 ], [ 8.6923409, 49.3984184 ], [ 8.6920866, 49.3983582 ], [ 8.6919087, 49.3983286 ], [ 8.6919367, 49.3982087 ], [ 8.6919511, 49.3980324 ], [ 8.6919491, 49.3980039 ] ], [ [ 8.7114061, 49.4050936 ], [ 8.7112458, 49.4049514 ], [ 8.7110648, 49.4048201 ], [ 8.7108651, 49.4047011 ], [ 8.7106484, 49.4045954 ], [ 8.7104169, 49.404504 ], [ 8.7101728, 49.4044279 ], [ 8.7099184, 49.4043678 ], [ 8.7096562, 49.4043242 ], [ 8.7093888, 49.4042977 ], [ 8.7091186, 49.4042883 ], [ 8.7088484, 49.4042963 ], [ 8.7085806, 49.4043215 ], [ 8.7083179, 49.4043638 ], [ 8.7080629, 49.4044226 ], [ 8.7078179, 49.4044975 ], [ 8.7075853, 49.4045876 ], [ 8.7073673, 49.4046923 ], [ 8.7071662, 49.4048103 ], [ 8.7069837, 49.4049407 ], [ 8.7068217, 49.4050821 ], [ 8.7066817, 49.4052331 ], [ 8.7065651, 49.4053924 ], [ 8.706473, 49.4055584 ], [ 8.7064062, 49.4057295 ], [ 8.7063655, 49.405904 ], [ 8.7063512, 49.4060803 ], [ 8.7063634, 49.4062567 ], [ 8.706402, 49.4064314 ], [ 8.7064668, 49.4066028 ], [ 8.7065569, 49.4067693 ], [ 8.7066716, 49.4069292 ], [ 8.7068098, 49.407081 ], [ 8.7069701, 49.4072232 ], [ 8.7071511, 49.4073544 ], [ 8.7073508, 49.4074735 ], [ 8.7075675, 49.4075792 ], [ 8.707799, 49.4076706 ], [ 8.7080432, 49.4077467 ], [ 8.7082975, 49.4078068 ], [ 8.7085597, 49.4078504 ], [ 8.7088272, 49.4078769 ], [ 8.7090974, 49.4078863 ], [ 8.7093676, 49.4078783 ], [ 8.7096354, 49.4078531 ], [ 8.7098981, 49.4078108 ], [ 8.7101532, 49.407752 ], [ 8.7103982, 49.4076771 ], [ 8.7106308, 49.4075869 ], [ 8.7108488, 49.4074823 ], [ 8.7110499, 49.4073643 ], [ 8.7112324, 49.4072339 ], [ 8.7113944, 49.4070925 ], [ 8.7115343, 49.4069414 ], [ 8.711651, 49.4067821 ], [ 8.7117431, 49.4066161 ], [ 8.7118098, 49.406445 ], [ 8.7118505, 49.4062705 ], [ 8.7118648, 49.4060942 ], [ 8.7118526, 49.4059178 ], [ 8.7118139, 49.4057431 ], [ 8.7117492, 49.4055717 ], [ 8.711659, 49.4054052 ], [ 8.7115443, 49.4052454 ], [ 8.7114061, 49.4050936 ] ] ], [ [ [ 8.7198402, 49.4120433 ], [ 8.72, 49.4119495 ], [ 8.72, 49.4129268 ], [ 8.7198824, 49.4128416 ], [ 8.7196826, 49.4127225 ], [ 8.7194659, 49.4126168 ], [ 8.7192343, 49.4125255 ], [ 8.7189902, 49.4124494 ], [ 8.718754, 49.4123937 ], [ 8.7188895, 49.4123719 ], [ 8.7191446, 49.412313 ], [ 8.7193896, 49.4122381 ], [ 8.7196222, 49.4121479 ], [ 8.7198402, 49.4120433 ] ] ], [ [ [ 8.72, 49.4152914 ], [ 8.72, 49.422 ], [ 8.6871893, 49.4220039 ], [ 8.6874465, 49.4219626 ], [ 8.6877016, 49.4219038 ], [ 8.6879468, 49.421829 ], [ 8.6881155, 49.4217636 ], [ 8.6882959, 49.4218062 ], [ 8.6885582, 49.4218499 ], [ 8.6888257, 49.4218765 ], [ 8.6890959, 49.4218859 ], [ 8.6893663, 49.4218779 ], [ 8.6896342, 49.4218527 ], [ 8.6898969, 49.4218106 ], [ 8.6901521, 49.4217518 ], [ 8.6903972, 49.4216769 ], [ 8.6906299, 49.4215868 ], [ 8.690848, 49.4214822 ], [ 8.6910492, 49.4213642 ], [ 8.6912318, 49.4212339 ], [ 8.6913939, 49.4210925 ], [ 8.691534, 49.4209414 ], [ 8.6916507, 49.4207822 ], [ 8.6917429, 49.4206162 ], [ 8.6918097, 49.4204451 ], [ 8.6918505, 49.4202706 ], [ 8.6918649, 49.4200943 ], [ 8.6918527, 49.4199179 ], [ 8.6918465, 49.4198895 ], [ 8.6918469, 49.419884 ], [ 8.6918347, 49.4197076 ], [ 8.6918088, 49.4195901 ], [ 8.6920098, 49.4195287 ], [ 8.6922425, 49.4194386 ], [ 8.6924605, 49.419334 ], [ 8.6926618, 49.419216 ], [ 8.6928443, 49.4190856 ], [ 8.6930064, 49.4189443 ], [ 8.6931465, 49.4187932 ], [ 8.6932632, 49.4186339 ], [ 8.6933554, 49.4184679 ], [ 8.6934222, 49.4182969 ], [ 8.693463, 49.4181223 ], [ 8.6934774, 49.417946 ], [ 8.6934652, 49.4177697 ], [ 8.6934266, 49.4175949 ], [ 8.6933619, 49.4174235 ], [ 8.6932718, 49.4172571 ], [ 8.6931571, 49.4170972 ], [ 8.6930189, 49.4169454 ], [ 8.6928586, 49.4168031 ], [ 8.6926777, 49.4166718 ], [ 8.6924779, 49.4165527 ], [ 8.6922612, 49.416447 ], [ 8.6920297, 49.4163556 ], [ 8.6917856, 49.4162795 ], [ 8.6915311, 49.4162193 ], [ 8.6912689, 49.4161757 ], [ 8.6910014, 49.4161491 ], [ 8.6907312, 49.4161397 ], [ 8.6905911, 49.4161438 ], [ 8.6907225, 49.4161227 ], [ 8.6909776, 49.416064 ], [ 8.6912227, 49.4159891 ], [ 8.6914554, 49.415899 ], [ 8.6916734, 49.4157944 ], [ 8.6918746, 49.4156764 ], [ 8.6920572, 49.415546 ], [ 8.6922193, 49.4154047 ], [ 8.6923593, 49.4152536 ], [ 8.692476, 49.4150943 ], [ 8.6925682, 49.4149284 ], [ 8.692635, 49.4147573 ], [ 8.6926758, 49.4145828 ], [ 8.6926902, 49.4144065 ], [ 8.692678, 49.4142301 ], [ 8.6926394, 49.4140554 ], [ 8.6925747, 49.4138839 ], [ 8.6924846, 49.4137175 ], [ 8.6923699, 49.4135576 ], [ 8.6922318, 49.4134058 ], [ 8.6920715, 49.4132635 ], [ 8.6918906, 49.4131322 ], [ 8.6916908, 49.4130132 ], [ 8.6914741, 49.4129074 ], [ 8.6912426, 49.412816 ], [ 8.6909985, 49.4127399 ], [ 8.6907441, 49.4126797 ], [ 8.6907209, 49.4126759 ], [ 8.6906907, 49.4126687 ], [ 8.6904285, 49.4126251 ], [ 8.690161, 49.4125985 ], [ 8.6898908, 49.4125891 ], [ 8.6896205, 49.4125971 ], [ 8.6896196, 49.4125972 ], [ 8.6894848, 49.4124993 ], [ 8.6892851, 49.4123802 ], [ 8.6890684, 49.4122744 ], [ 8.6888369, 49.4121831 ], [ 8.6885928, 49.4121069 ], [ 8.6883384, 49.4120468 ], [ 8.6880762, 49.4120032 ], [ 8.6878087, 49.4119765 ], [ 8.6875385, 49.4119671 ], [ 8.6872682, 49.4119751 ], [ 8.6870004, 49.4120002 ], [ 8.6867377, 49.4120424 ], [ 8.6864825, 49.4121012 ], [ 8.6862375, 49.412176 ], [ 8.6860048, 49.4122662 ], [ 8.6857868, 49.4123707 ], [ 8.6855855, 49.4124888 ], [ 8.685403, 49.4126191 ], [ 8.6852409, 49.4127604 ], [ 8.6851008, 49.4129115 ], [ 8.6849841, 49.4130708 ], [ 8.6848919, 49.4132367 ], [ 8.6848251, 49.4134078 ], [ 8.6847842, 49.4135823 ], [ 8.6847698, 49.4137586 ], [ 8.684782, 49.413935 ], [ 8.6848206, 49.4141097 ], [ 8.6848852, 49.4142812 ], [ 8.6849753, 49.4144476 ], [ 8.68509, 49.4146075 ], [ 8.6852281, 49.4147593 ], [ 8.6853884, 49.4149016 ], [ 8.6855693, 49.4150329 ], [ 8.685769, 49.415152 ], [ 8.6859857, 49.4152577 ], [ 8.6862172, 49.4153491 ], [ 8.6864614, 49.4154253 ], [ 8.6867158, 49.4154854 ], [ 8.686978, 49.415529 ], [ 8.6872455, 49.4155557 ], [ 8.6875157, 49.4155651 ], [ 8.687786, 49.4155571 ], [ 8.6877869, 49.415557 ], [ 8.6879217, 49.4156549 ], [ 8.6881215, 49.415774 ], [ 8.6883382, 49.4158798 ], [ 8.6885697, 49.4159712 ], [ 8.6888138, 49.4160473 ], [ 8.6890682, 49.4161075 ], [ 8.6890914, 49.4161113 ], [ 8.6891216, 49.4161185 ], [ 8.6893838, 49.4161621 ], [ 8.6896513, 49.4161887 ], [ 8.6899216, 49.4161981 ], [ 8.6900617, 49.416194 ], [ 8.6899303, 49.4162151 ], [ 8.6896751, 49.4162738 ], [ 8.68943, 49.4163487 ], [ 8.6891974, 49.4164388 ], [ 8.6889794, 49.4165434 ], [ 8.6887781, 49.4166614 ], [ 8.6885956, 49.4167917 ], [ 8.6884335, 49.4169331 ], [ 8.6883448, 49.4170287 ], [ 8.688204, 49.41696 ], [ 8.6879724, 49.4168686 ], [ 8.6877283, 49.4167924 ], [ 8.6874739, 49.4167323 ], [ 8.6872117, 49.4166887 ], [ 8.6869442, 49.416662 ], [ 8.686674, 49.4166526 ], [ 8.6864036, 49.4166606 ], [ 8.6861358, 49.4166857 ], [ 8.685873, 49.4167279 ], [ 8.6856179, 49.4167867 ], [ 8.6853728, 49.4168615 ], [ 8.6851401, 49.4169517 ], [ 8.6849221, 49.4170562 ], [ 8.6847208, 49.4171742 ], [ 8.6845382, 49.4173046 ], [ 8.6843761, 49.4174459 ], [ 8.6843007, 49.4175272 ], [ 8.6841813, 49.4174801 ], [ 8.6839371, 49.417404 ], [ 8.6836827, 49.4173438 ], [ 8.6834205, 49.4173002 ], [ 8.683153, 49.4172735 ], [ 8.6828828, 49.4172641 ], [ 8.6826125, 49.4172721 ], [ 8.6823446, 49.4172972 ], [ 8.6820818, 49.4173394 ], [ 8.6818267, 49.4173982 ], [ 8.6815816, 49.417473 ], [ 8.6813489, 49.4175631 ], [ 8.6811308, 49.4176677 ], [ 8.6809296, 49.4177857 ], [ 8.680747, 49.417916 ], [ 8.6805849, 49.4180573 ], [ 8.6804448, 49.4182084 ], [ 8.680328, 49.4183677 ], [ 8.6802358, 49.4185336 ], [ 8.6801689, 49.4187047 ], [ 8.6801281, 49.4188792 ], [ 8.6801136, 49.4190555 ], [ 8.6801258, 49.4192319 ], [ 8.6801644, 49.4194066 ], [ 8.680229, 49.419578 ], [ 8.6803191, 49.4197445 ], [ 8.6804337, 49.4199044 ], [ 8.6805719, 49.4200562 ], [ 8.6807322, 49.4201985 ], [ 8.6809131, 49.4203298 ], [ 8.6811128, 49.4204489 ], [ 8.6813295, 49.4205547 ], [ 8.681561, 49.4206461 ], [ 8.6818052, 49.4207222 ], [ 8.6820596, 49.4207824 ], [ 8.6822431, 49.4208129 ], [ 8.6824018, 49.4209537 ], [ 8.6825827, 49.421085 ], [ 8.6827824, 49.4212041 ], [ 8.6829991, 49.4213099 ], [ 8.6832307, 49.4214013 ], [ 8.6834748, 49.4214774 ], [ 8.6837292, 49.4215376 ], [ 8.6839915, 49.4215812 ], [ 8.684259, 49.4216079 ], [ 8.6845293, 49.4216173 ], [ 8.6847996, 49.4216093 ], [ 8.6848628, 49.4216034 ], [ 8.6848986, 49.4216248 ], [ 8.6851153, 49.4217305 ], [ 8.6853468, 49.4218219 ], [ 8.685591, 49.4218981 ], [ 8.6858454, 49.4219582 ], [ 8.6861077, 49.4220018 ], [ 8.6861276, 49.4220038 ], [ 8.6811995, 49.4220036 ], [ 8.6812055, 49.4219302 ], [ 8.6811934, 49.4217539 ], [ 8.6811548, 49.4215791 ], [ 8.6810902, 49.4214077 ], [ 8.6810001, 49.4212412 ], [ 8.6808854, 49.4210813 ], [ 8.6807472, 49.4209295 ], [ 8.6805869, 49.4207873 ], [ 8.6804061, 49.4206559 ], [ 8.6802063, 49.4205368 ], [ 8.6799896, 49.4204311 ], [ 8.6797581, 49.4203397 ], [ 8.679514, 49.4202635 ], [ 8.6792595, 49.4202033 ], [ 8.6789973, 49.4201597 ], [ 8.6787298, 49.4201331 ], [ 8.6784596, 49.4201236 ], [ 8.6781892, 49.4201315 ], [ 8.6779213, 49.4201567 ], [ 8.6776586, 49.4201989 ], [ 8.6774034, 49.4202576 ], [ 8.6771582, 49.4203324 ], [ 8.6769255, 49.4204225 ], [ 8.6767075, 49.4205271 ], [ 8.6765062, 49.4206451 ], [ 8.6763236, 49.4207754 ], [ 8.6761614, 49.4209168 ], [ 8.6760213, 49.4210678 ], [ 8.6759045, 49.4212271 ], [ 8.6758123, 49.421393 ], [ 8.6757454, 49.4215641 ], [ 8.6757045, 49.4217386 ], [ 8.6756901, 49.4219149 ], [ 8.6756961, 49.422003 ], [ 8.66, 49.422 ], [ 8.66, 49.4106232 ], [ 8.6602262, 49.4106609 ], [ 8.6604936, 49.4106876 ], [ 8.6607638, 49.4106971 ], [ 8.6610341, 49.4106892 ], [ 8.6613019, 49.4106641 ], [ 8.6615647, 49.4106219 ], [ 8.6618189, 49.4105634 ], [ 8.6617931, 49.4105986 ], [ 8.6617008, 49.4107646 ], [ 8.6616339, 49.4109357 ], [ 8.661593, 49.4111102 ], [ 8.6615785, 49.4112865 ], [ 8.6615906, 49.4114628 ], [ 8.6616291, 49.4116376 ], [ 8.6616936, 49.411809 ], [ 8.6617836, 49.4119755 ], [ 8.6618982, 49.4121354 ], [ 8.6620363, 49.4122873 ], [ 8.6621965, 49.4124295 ], [ 8.6623773, 49.4125609 ], [ 8.662577, 49.41268 ], [ 8.6627936, 49.4127858 ], [ 8.663025, 49.4128773 ], [ 8.6632691, 49.4129535 ], [ 8.6635235, 49.4130137 ], [ 8.6637857, 49.4130573 ], [ 8.6640531, 49.413084 ], [ 8.6643233, 49.4130935 ], [ 8.6645936, 49.4130856 ], [ 8.6648615, 49.4130605 ], [ 8.6651242, 49.4130183 ], [ 8.6653794, 49.4129596 ], [ 8.6656245, 49.4128848 ], [ 8.6658572, 49.4127947 ], [ 8.6660753, 49.4126902 ], [ 8.6661066, 49.4126718 ], [ 8.6661709, 49.4127615 ], [ 8.6663089, 49.4129134 ], [ 8.6664692, 49.4130556 ], [ 8.66665, 49.413187 ], [ 8.6668497, 49.4133061 ], [ 8.6670663, 49.4134119 ], [ 8.6672978, 49.4135033 ], [ 8.6675419, 49.4135795 ], [ 8.6677962, 49.4136397 ], [ 8.6680584, 49.4136834 ], [ 8.6683259, 49.41371 ], [ 8.6685961, 49.4137195 ], [ 8.6688393, 49.4137124 ], [ 8.668958, 49.4138178 ], [ 8.6691388, 49.4139491 ], [ 8.6693385, 49.4140682 ], [ 8.6695551, 49.414174 ], [ 8.6697866, 49.4142654 ], [ 8.6700307, 49.4143416 ], [ 8.6702851, 49.4144018 ], [ 8.6705473, 49.4144455 ], [ 8.6708148, 49.4144721 ], [ 8.671085, 49.4144816 ], [ 8.6713553, 49.4144737 ], [ 8.6716231, 49.4144485 ], [ 8.6718859, 49.4144064 ], [ 8.6721411, 49.4143476 ], [ 8.6722459, 49.4143156 ], [ 8.6722838, 49.4144161 ], [ 8.6723738, 49.4145825 ], [ 8.6724885, 49.4147425 ], [ 8.6726266, 49.4148943 ], [ 8.6727868, 49.4150365 ], [ 8.6729677, 49.4151679 ], [ 8.6731674, 49.415287 ], [ 8.673384, 49.4153928 ], [ 8.6736155, 49.4154842 ], [ 8.6738596, 49.4155604 ], [ 8.674114, 49.4156205 ], [ 8.6743762, 49.4156642 ], [ 8.674457, 49.4156722 ], [ 8.6743085, 49.4157297 ], [ 8.6740905, 49.4158343 ], [ 8.6738892, 49.4159523 ], [ 8.6737066, 49.4160826 ], [ 8.6736737, 49.4161113 ], [ 8.6735212, 49.4161357 ], [ 8.673266, 49.4161945 ], [ 8.6730209, 49.4162693 ], [ 8.6727882, 49.4163594 ], [ 8.6725701, 49.4164639 ], [ 8.6723688, 49.4165819 ], [ 8.6721862, 49.4167122 ], [ 8.6720241, 49.4168536 ], [ 8.671884, 49.4170046 ], [ 8.6717672, 49.4171639 ], [ 8.6716749, 49.4173298 ], [ 8.671608, 49.4175009 ], [ 8.6715672, 49.4176754 ], [ 8.6715527, 49.4178517 ], [ 8.6715617, 49.4179833 ], [ 8.6714039, 49.4180959 ], [ 8.6712417, 49.4182373 ], [ 8.6711016, 49.4183883 ], [ 8.6709848, 49.4185475 ], [ 8.6708926, 49.4187135 ], [ 8.6708257, 49.4188846 ], [ 8.6707848, 49.4190591 ], [ 8.6707703, 49.4192354 ], [ 8.6707824, 49.4194117 ], [ 8.670821, 49.4195865 ], [ 8.6708856, 49.4197579 ], [ 8.6709756, 49.4199244 ], [ 8.6710903, 49.4200843 ], [ 8.6712284, 49.4202362 ], [ 8.6713887, 49.4203784 ], [ 8.6715695, 49.4205097 ], [ 8.6717692, 49.4206289 ], [ 8.6719859, 49.4207346 ], [ 8.6722174, 49.4208261 ], [ 8.6724616, 49.4209022 ], [ 8.672716, 49.4209624 ], [ 8.6729782, 49.4210061 ], [ 8.6732457, 49.4210327 ], [ 8.673516, 49.4210422 ], [ 8.6737863, 49.4210343 ], [ 8.6740542, 49.4210091 ], [ 8.674317, 49.420967 ], [ 8.6745722, 49.4209082 ], [ 8.6748173, 49.4208334 ], [ 8.6749245, 49.4207919 ], [ 8.6749733, 49.4207873 ], [ 8.6752361, 49.4207452 ], [ 8.6754913, 49.4206864 ], [ 8.6757364, 49.4206116 ], [ 8.6759692, 49.4205215 ], [ 8.6761872, 49.4204169 ], [ 8.6763885, 49.4202989 ], [ 8.6765711, 49.4201686 ], [ 8.6767333, 49.4200273 ], [ 8.6768734, 49.4198762 ], [ 8.6769901, 49.419717 ], [ 8.6770824, 49.419551 ], [ 8.6771493, 49.4193799 ], [ 8.6771901, 49.4192054 ], [ 8.6772046, 49.4190291 ], [ 8.6771924, 49.4188528 ], [ 8.6771801, 49.4187967 ], [ 8.6773528, 49.4187299 ], [ 8.6775708, 49.4186253 ], [ 8.6777721, 49.4185073 ], [ 8.6779547, 49.418377 ], [ 8.6781168, 49.4182357 ], [ 8.6782569, 49.4180846 ], [ 8.6783737, 49.4179253 ], [ 8.6784659, 49.4177594 ], [ 8.6785328, 49.4175883 ], [ 8.6785736, 49.4174138 ], [ 8.6785881, 49.4172375 ], [ 8.6785788, 49.4171035 ], [ 8.6785819, 49.4171043 ], [ 8.6788442, 49.4171479 ], [ 8.6791117, 49.4171746 ], [ 8.6793819, 49.417184 ], [ 8.6796522, 49.4171761 ], [ 8.6799201, 49.4171509 ], [ 8.6801828, 49.4171087 ], [ 8.680438, 49.4170499 ], [ 8.6806831, 49.4169751 ], [ 8.6809158, 49.416885 ], [ 8.6811338, 49.4167805 ], [ 8.6813351, 49.4166624 ], [ 8.6815177, 49.4165321 ], [ 8.6816798, 49.4163908 ], [ 8.6818199, 49.4162397 ], [ 8.6819366, 49.4160805 ], [ 8.6819521, 49.4160526 ], [ 8.6820971, 49.4160192 ], [ 8.6823422, 49.4159444 ], [ 8.6825749, 49.4158543 ], [ 8.6827929, 49.4157497 ], [ 8.6829942, 49.4156317 ], [ 8.6831768, 49.4155014 ], [ 8.6833389, 49.4153601 ], [ 8.683479, 49.415209 ], [ 8.6835957, 49.4150497 ], [ 8.6836879, 49.4148838 ], [ 8.6837548, 49.4147127 ], [ 8.6837956, 49.4145382 ], [ 8.68381, 49.4143619 ], [ 8.6837978, 49.4141855 ], [ 8.6837593, 49.4140108 ], [ 8.6836946, 49.4138393 ], [ 8.6836045, 49.4136729 ], [ 8.6834899, 49.413513 ], [ 8.6833517, 49.4133611 ], [ 8.6831915, 49.4132189 ], [ 8.6830106, 49.4130876 ], [ 8.6828109, 49.4129685 ], [ 8.6825942, 49.4128627 ], [ 8.6823627, 49.4127713 ], [ 8.6821186, 49.4126952 ], [ 8.6818642, 49.412635 ], [ 8.681602, 49.4125914 ], [ 8.6813346, 49.4125647 ], [ 8.6813341, 49.4125647 ], [ 8.6812784, 49.4125427 ], [ 8.6810343, 49.4124666 ], [ 8.68078, 49.4124064 ], [ 8.6805178, 49.4123628 ], [ 8.6804626, 49.4123573 ], [ 8.6804744, 49.4123067 ], [ 8.6804889, 49.4121305 ], [ 8.6804767, 49.4119541 ], [ 8.6804382, 49.4117793 ], [ 8.6803735, 49.4116079 ], [ 8.6802835, 49.4114414 ], [ 8.6801688, 49.4112815 ], [ 8.6801458, 49.4112562 ], [ 8.6803793, 49.4112187 ], [ 8.6806345, 49.4111599 ], [ 8.6808796, 49.4110851 ], [ 8.6811122, 49.410995 ], [ 8.6813302, 49.4108905 ], [ 8.6815315, 49.4107724 ], [ 8.681714, 49.4106421 ], [ 8.6818761, 49.4105008 ], [ 8.6820162, 49.4103497 ], [ 8.6820309, 49.4103297 ], [ 8.6821565, 49.410326 ], [ 8.6824243, 49.4103009 ], [ 8.682687, 49.4102587 ], [ 8.682905, 49.4102085 ], [ 8.6829428, 49.4102234 ], [ 8.6831869, 49.4102995 ], [ 8.6834412, 49.4103597 ], [ 8.6837034, 49.4104033 ], [ 8.6839709, 49.41043 ], [ 8.6842411, 49.4104394 ], [ 8.6845114, 49.4104314 ], [ 8.6847792, 49.4104063 ], [ 8.6850419, 49.4103641 ], [ 8.685297, 49.4103053 ], [ 8.6855421, 49.4102305 ], [ 8.6857747, 49.4101404 ], [ 8.6859927, 49.4100358 ], [ 8.6860215, 49.4100189 ], [ 8.6860497, 49.4101467 ], [ 8.6861144, 49.4103181 ], [ 8.6862044, 49.4104846 ], [ 8.6863191, 49.4106445 ], [ 8.6864572, 49.4107963 ], [ 8.6866175, 49.4109385 ], [ 8.6867984, 49.4110698 ], [ 8.6869981, 49.4111889 ], [ 8.6872148, 49.4112947 ], [ 8.6874463, 49.411386 ], [ 8.6876904, 49.4114622 ], [ 8.6879448, 49.4115223 ], [ 8.688207, 49.411566 ], [ 8.6884744, 49.4115926 ], [ 8.6886677, 49.4115993 ], [ 8.6887659, 49.4116381 ], [ 8.68901, 49.4117142 ], [ 8.6892644, 49.4117744 ], [ 8.6895266, 49.411818 ], [ 8.6897941, 49.4118446 ], [ 8.6900643, 49.411854 ], [ 8.6903346, 49.411846 ], [ 8.6903691, 49.4118428 ], [ 8.6903989, 49.4118692 ], [ 8.6905797, 49.4120005 ], [ 8.6907795, 49.4121196 ], [ 8.6909962, 49.4122253 ], [ 8.6912277, 49.4123167 ], [ 8.6914718, 49.4123928 ], [ 8.6917262, 49.412453 ], [ 8.6919884, 49.4124966 ], [ 8.6922559, 49.4125232 ], [ 8.6925261, 49.4125326 ], [ 8.6927964, 49.4125246 ], [ 8.6930642, 49.4124994 ], [ 8.6933269, 49.4124572 ], [ 8.693582, 49.4123984 ], [ 8.6938271, 49.4123236 ], [ 8.6940598, 49.4122335 ], [ 8.6941061, 49.4122112 ], [ 8.6942389, 49.4122073 ], [ 8.6945067, 49.4121821 ], [ 8.6947695, 49.4121399 ], [ 8.6950246, 49.4120811 ], [ 8.6952697, 49.4120063 ], [ 8.6955023, 49.4119161 ], [ 8.6957203, 49.4118115 ], [ 8.6959215, 49.4116935 ], [ 8.6959378, 49.4116818 ], [ 8.6959865, 49.4116804 ], [ 8.6961819, 49.411662 ], [ 8.696145, 49.4117567 ], [ 8.6961042, 49.4119312 ], [ 8.6960898, 49.4121075 ], [ 8.696102, 49.4122839 ], [ 8.6961406, 49.4124586 ], [ 8.6962053, 49.41263 ], [ 8.6962955, 49.4127965 ], [ 8.6964102, 49.4129564 ], [ 8.6965483, 49.4131082 ], [ 8.6967086, 49.4132504 ], [ 8.6968896, 49.4133817 ], [ 8.6970893, 49.4135008 ], [ 8.697306, 49.4136065 ], [ 8.6975375, 49.4136979 ], [ 8.6977817, 49.413774 ], [ 8.6980361, 49.4138341 ], [ 8.6982983, 49.4138777 ], [ 8.6985658, 49.4139043 ], [ 8.698836, 49.4139137 ], [ 8.6991063, 49.4139057 ], [ 8.6993741, 49.4138805 ], [ 8.6994099, 49.4138748 ], [ 8.6994787, 49.4139083 ], [ 8.6997014, 49.4139962 ], [ 8.6996622, 49.4140025 ], [ 8.699407, 49.4140613 ], [ 8.699162, 49.4141362 ], [ 8.6989293, 49.4142263 ], [ 8.6987114, 49.4143309 ], [ 8.6985101, 49.414449 ], [ 8.6983276, 49.4145793 ], [ 8.6981656, 49.4147207 ], [ 8.6980255, 49.4148717 ], [ 8.6979088, 49.415031 ], [ 8.6978167, 49.415197 ], [ 8.6977499, 49.4153681 ], [ 8.6977091, 49.4155426 ], [ 8.6976947, 49.4157189 ], [ 8.6977069, 49.4158953 ], [ 8.6977456, 49.41607 ], [ 8.6978103, 49.4162414 ], [ 8.6979004, 49.4164079 ], [ 8.6980151, 49.4165678 ], [ 8.6981533, 49.4167196 ], [ 8.6983136, 49.4168618 ], [ 8.6984946, 49.4169931 ], [ 8.6986943, 49.4171122 ], [ 8.698911, 49.4172179 ], [ 8.6991426, 49.4173093 ], [ 8.6993867, 49.4173854 ], [ 8.6996412, 49.4174455 ], [ 8.6996749, 49.4174511 ], [ 8.6998289, 49.4174875 ], [ 8.7000911, 49.4175311 ], [ 8.7003586, 49.4175577 ], [ 8.7006289, 49.4175671 ], [ 8.7008992, 49.4175591 ], [ 8.701167, 49.4175339 ], [ 8.7014298, 49.4174917 ], [ 8.7016849, 49.4174329 ], [ 8.7017849, 49.4174023 ], [ 8.7020155, 49.4173492 ], [ 8.7022606, 49.4172743 ], [ 8.7024933, 49.4171841 ], [ 8.7027113, 49.4170795 ], [ 8.7029125, 49.4169615 ], [ 8.703095, 49.4168311 ], [ 8.703257, 49.4166898 ], [ 8.7033971, 49.4165387 ], [ 8.7035137, 49.4163794 ], [ 8.7036059, 49.4162134 ], [ 8.7036727, 49.4160423 ], [ 8.7037134, 49.4158678 ], [ 8.7037278, 49.4156915 ], [ 8.7037156, 49.4155151 ], [ 8.7036769, 49.4153404 ], [ 8.7036122, 49.415169 ], [ 8.703522, 49.4150025 ], [ 8.7034073, 49.4148426 ], [ 8.7032691, 49.4146909 ], [ 8.7031682, 49.4146013 ], [ 8.703325, 49.4146068 ], [ 8.7035953, 49.4145988 ], [ 8.7038631, 49.4145736 ], [ 8.7041258, 49.4145314 ], [ 8.704381, 49.4144725 ], [ 8.704626, 49.4143977 ], [ 8.7048587, 49.4143075 ], [ 8.7049325, 49.414272 ], [ 8.7050915, 49.4142571 ], [ 8.7053543, 49.4142148 ], [ 8.7056094, 49.414156 ], [ 8.7058545, 49.4140812 ], [ 8.7060871, 49.413991 ], [ 8.706305, 49.4138864 ], [ 8.7064518, 49.4138003 ], [ 8.7065593, 49.4138643 ], [ 8.706776, 49.41397 ], [ 8.7070075, 49.4140614 ], [ 8.707104, 49.4140914 ], [ 8.7071936, 49.4141448 ], [ 8.7074103, 49.4142505 ], [ 8.7076418, 49.4143419 ], [ 8.707886, 49.414418 ], [ 8.7081404, 49.4144781 ], [ 8.7084026, 49.4145216 ], [ 8.7086702, 49.4145482 ], [ 8.7089404, 49.4145576 ], [ 8.7092107, 49.4145496 ], [ 8.7094785, 49.4145244 ], [ 8.7097412, 49.4144821 ], [ 8.7099963, 49.4144233 ], [ 8.7102414, 49.4143484 ], [ 8.710474, 49.4142582 ], [ 8.710692, 49.4141536 ], [ 8.7108932, 49.4140356 ], [ 8.71099, 49.4139664 ], [ 8.7110682, 49.4140357 ], [ 8.7112492, 49.414167 ], [ 8.711449, 49.4142861 ], [ 8.7116657, 49.4143918 ], [ 8.7118973, 49.4144831 ], [ 8.7121414, 49.4145592 ], [ 8.7123959, 49.4146193 ], [ 8.7126581, 49.4146629 ], [ 8.7129256, 49.4146894 ], [ 8.7131958, 49.4146988 ], [ 8.7132524, 49.4146971 ], [ 8.7134298, 49.4147836 ], [ 8.7136613, 49.4148749 ], [ 8.7139055, 49.414951 ], [ 8.7141599, 49.4150111 ], [ 8.7144222, 49.4150547 ], [ 8.7146897, 49.4150812 ], [ 8.7149599, 49.4150906 ], [ 8.7152302, 49.4150826 ], [ 8.715498, 49.4150573 ], [ 8.7155746, 49.415045 ], [ 8.7156271, 49.4151027 ], [ 8.7157875, 49.4152449 ], [ 8.7159685, 49.4153762 ], [ 8.7161683, 49.4154952 ], [ 8.716385, 49.4156009 ], [ 8.7166166, 49.4156923 ], [ 8.7168608, 49.4157684 ], [ 8.7171152, 49.4158285 ], [ 8.7173774, 49.415872 ], [ 8.717645, 49.4158985 ], [ 8.7179152, 49.4159079 ], [ 8.7181855, 49.4158999 ], [ 8.7184533, 49.4158746 ], [ 8.7187161, 49.4158324 ], [ 8.7189712, 49.4157735 ], [ 8.7192162, 49.4156986 ], [ 8.7194488, 49.4156084 ], [ 8.7196668, 49.4155038 ], [ 8.719868, 49.4153857 ], [ 8.72, 49.4152914 ] ], [ [ 8.6706769, 49.4166839 ], [ 8.6705167, 49.4165416 ], [ 8.6703358, 49.4164103 ], [ 8.6701361, 49.4162912 ], [ 8.6699195, 49.4161854 ], [ 8.669688, 49.416094 ], [ 8.6694439, 49.4160178 ], [ 8.6691895, 49.4159576 ], [ 8.6689273, 49.4159139 ], [ 8.6686598, 49.4158873 ], [ 8.6683896, 49.4158778 ], [ 8.6681193, 49.4158857 ], [ 8.6678515, 49.4159109 ], [ 8.6675887, 49.415953 ], [ 8.6673335, 49.4160117 ], [ 8.6670884, 49.4160865 ], [ 8.6668557, 49.4161766 ], [ 8.6666376, 49.4162812 ], [ 8.6664363, 49.4163991 ], [ 8.6662537, 49.4165294 ], [ 8.6660915, 49.4166708 ], [ 8.6659514, 49.4168218 ], [ 8.6658346, 49.416981 ], [ 8.6657423, 49.417147 ], [ 8.6656754, 49.4173181 ], [ 8.6656345, 49.4174926 ], [ 8.66562, 49.4176689 ], [ 8.6656321, 49.4178452 ], [ 8.6656706, 49.41802 ], [ 8.6657352, 49.4181914 ], [ 8.6658253, 49.4183579 ], [ 8.6659399, 49.4185178 ], [ 8.666078, 49.4186697 ], [ 8.6662382, 49.4188119 ], [ 8.6664191, 49.4189432 ], [ 8.6666188, 49.4190624 ], [ 8.6668354, 49.4191682 ], [ 8.6670669, 49.4192596 ], [ 8.667311, 49.4193358 ], [ 8.6675654, 49.419396 ], [ 8.6678276, 49.4194397 ], [ 8.6680951, 49.4194663 ], [ 8.6683654, 49.4194758 ], [ 8.6686357, 49.4194679 ], [ 8.6689036, 49.4194427 ], [ 8.6691664, 49.4194006 ], [ 8.6694216, 49.4193418 ], [ 8.6696667, 49.4192671 ], [ 8.6698994, 49.419177 ], [ 8.6701175, 49.4190724 ], [ 8.6703188, 49.4189544 ], [ 8.6705014, 49.4188241 ], [ 8.6706636, 49.4186828 ], [ 8.6708037, 49.4185318 ], [ 8.6709205, 49.4183725 ], [ 8.6710127, 49.4182065 ], [ 8.6710796, 49.4180355 ], [ 8.6711205, 49.417861 ], [ 8.671135, 49.4176847 ], [ 8.6711229, 49.4175083 ], [ 8.6710843, 49.4173336 ], [ 8.6710197, 49.4171621 ], [ 8.6709297, 49.4169956 ], [ 8.670815, 49.4168357 ], [ 8.6706769, 49.4166839 ] ] ], [ [ [ 8.6602505, 49.4071321 ], [ 8.66, 49.4071723 ], [ 8.66, 49.4062448 ], [ 8.6601895, 49.4063039 ], [ 8.6604438, 49.4063642 ], [ 8.6607059, 49.4064078 ], [ 8.6609734, 49.4064345 ], [ 8.6612435, 49.406444 ], [ 8.6615138, 49.4064361 ], [ 8.6617816, 49.406411 ], [ 8.6620443, 49.4063688 ], [ 8.6622995, 49.4063101 ], [ 8.6625445, 49.4062353 ], [ 8.6627772, 49.4061453 ], [ 8.6629952, 49.4060407 ], [ 8.6631965, 49.4059228 ], [ 8.6633791, 49.4057925 ], [ 8.6635412, 49.4056511 ], [ 8.6636813, 49.4055001 ], [ 8.6637981, 49.4053409 ], [ 8.6638904, 49.4051749 ], [ 8.6639573, 49.4050039 ], [ 8.6639982, 49.4048293 ], [ 8.6640126, 49.404653 ], [ 8.6640006, 49.4044767 ], [ 8.6639621, 49.4043019 ], [ 8.6638975, 49.4041305 ], [ 8.6638075, 49.403964 ], [ 8.6636929, 49.4038041 ], [ 8.6635549, 49.4036522 ], [ 8.6633947, 49.40351 ], [ 8.6632139, 49.4033786 ], [ 8.6630143, 49.4032595 ], [ 8.6627977, 49.4031537 ], [ 8.6625663, 49.4030623 ], [ 8.6623223, 49.4029861 ], [ 8.662068, 49.4029258 ], [ 8.6618058, 49.4028822 ], [ 8.6615384, 49.4028555 ], [ 8.6612683, 49.402846 ], [ 8.660998, 49.4028539 ], [ 8.6607302, 49.402879 ], [ 8.6604675, 49.4029212 ], [ 8.6602124, 49.4029799 ], [ 8.66, 49.4030447 ], [ 8.66, 49.398 ], [ 8.6672232, 49.3980016 ], [ 8.6671839, 49.3980297 ], [ 8.6671694, 49.3980423 ], [ 8.6669995, 49.3980814 ], [ 8.6667544, 49.3981562 ], [ 8.6665218, 49.3982463 ], [ 8.6663038, 49.3983508 ], [ 8.6661026, 49.3984688 ], [ 8.6659953, 49.3985454 ], [ 8.6658918, 49.398595 ], [ 8.6656906, 49.398713 ], [ 8.6655081, 49.3988433 ], [ 8.665346, 49.3989846 ], [ 8.6652059, 49.3991357 ], [ 8.6650891, 49.3992949 ], [ 8.6649969, 49.3994609 ], [ 8.66493, 49.3996319 ], [ 8.6648891, 49.3998065 ], [ 8.6648746, 49.3999827 ], [ 8.6648867, 49.4001591 ], [ 8.6648893, 49.4001709 ], [ 8.6648918, 49.4002073 ], [ 8.6649303, 49.4003821 ], [ 8.6649949, 49.4005535 ], [ 8.6650849, 49.40072 ], [ 8.6651994, 49.4008799 ], [ 8.6653375, 49.4010317 ], [ 8.6654977, 49.401174 ], [ 8.6656784, 49.4013053 ], [ 8.6658781, 49.4014245 ], [ 8.6660946, 49.4015303 ], [ 8.6663261, 49.4016217 ], [ 8.6665701, 49.4016979 ], [ 8.6668244, 49.4017581 ], [ 8.6670865, 49.4018018 ], [ 8.6673539, 49.4018284 ], [ 8.6676241, 49.4018379 ], [ 8.6677333, 49.4018347 ], [ 8.6677329, 49.4018394 ], [ 8.667745, 49.4020158 ], [ 8.6677835, 49.4021905 ], [ 8.6678481, 49.402362 ], [ 8.6679381, 49.4025284 ], [ 8.6680527, 49.4026884 ], [ 8.6681907, 49.4028402 ], [ 8.6683509, 49.4029825 ], [ 8.6685317, 49.4031138 ], [ 8.6687314, 49.4032329 ], [ 8.668948, 49.4033387 ], [ 8.6691794, 49.4034301 ], [ 8.6694234, 49.4035063 ], [ 8.6696778, 49.4035665 ], [ 8.6699399, 49.4036102 ], [ 8.6702073, 49.4036368 ], [ 8.6704775, 49.4036463 ], [ 8.6707477, 49.4036384 ], [ 8.6710155, 49.4036132 ], [ 8.6711614, 49.4035898 ], [ 8.6712137, 49.4036864 ], [ 8.6713283, 49.4038463 ], [ 8.6714664, 49.4039982 ], [ 8.6716266, 49.4041404 ], [ 8.6718074, 49.4042717 ], [ 8.672007, 49.4043909 ], [ 8.6722236, 49.4044967 ], [ 8.6724551, 49.4045881 ], [ 8.6726991, 49.4046642 ], [ 8.6729535, 49.4047244 ], [ 8.6732156, 49.4047681 ], [ 8.673483, 49.4047947 ], [ 8.6737532, 49.4048042 ], [ 8.6740234, 49.4047963 ], [ 8.6742912, 49.4047711 ], [ 8.6745539, 49.404729 ], [ 8.674809, 49.4046702 ], [ 8.6750541, 49.4045954 ], [ 8.6752868, 49.4045053 ], [ 8.6755047, 49.4044007 ], [ 8.675706, 49.4042827 ], [ 8.6758885, 49.4041524 ], [ 8.6759354, 49.4041116 ], [ 8.6759609, 49.4042271 ], [ 8.6760255, 49.4043986 ], [ 8.6761155, 49.404565 ], [ 8.6762301, 49.4047249 ], [ 8.6763682, 49.4048768 ], [ 8.6765284, 49.405019 ], [ 8.6767093, 49.4051503 ], [ 8.6769089, 49.4052694 ], [ 8.6771256, 49.4053752 ], [ 8.677357, 49.4054666 ], [ 8.6776011, 49.4055428 ], [ 8.6778554, 49.405603 ], [ 8.6781176, 49.4056466 ], [ 8.678385, 49.4056733 ], [ 8.6783932, 49.4056735 ], [ 8.6785039, 49.405828 ], [ 8.678642, 49.4059798 ], [ 8.6788022, 49.4061221 ], [ 8.678916, 49.4062047 ], [ 8.6787482, 49.4061384 ], [ 8.6785041, 49.4060622 ], [ 8.6782497, 49.406002 ], [ 8.6779876, 49.4059584 ], [ 8.6777201, 49.4059317 ], [ 8.67745, 49.4059223 ], [ 8.6771797, 49.4059302 ], [ 8.6771291, 49.405935 ], [ 8.6770331, 49.4058881 ], [ 8.6768016, 49.4057967 ], [ 8.6765575, 49.4057205 ], [ 8.6763032, 49.4056603 ], [ 8.6760411, 49.4056167 ], [ 8.6757736, 49.4055901 ], [ 8.6755035, 49.4055806 ], [ 8.6753054, 49.4055864 ], [ 8.6752425, 49.4055842 ], [ 8.6749722, 49.4055921 ], [ 8.6747044, 49.4056173 ], [ 8.6744417, 49.4056594 ], [ 8.6741866, 49.4057182 ], [ 8.6739415, 49.405793 ], [ 8.6737089, 49.4058831 ], [ 8.6734909, 49.4059877 ], [ 8.6732896, 49.4061056 ], [ 8.6731071, 49.4062359 ], [ 8.672945, 49.4063773 ], [ 8.6728049, 49.4065283 ], [ 8.6727579, 49.4065924 ], [ 8.6727354, 49.4065611 ], [ 8.6725973, 49.4064093 ], [ 8.6724371, 49.406267 ], [ 8.6722563, 49.4061357 ], [ 8.6720566, 49.4060166 ], [ 8.67184, 49.4059108 ], [ 8.6716086, 49.4058194 ], [ 8.6713645, 49.4057432 ], [ 8.6711102, 49.405683 ], [ 8.670848, 49.4056393 ], [ 8.6705806, 49.4056127 ], [ 8.6703104, 49.4056032 ], [ 8.6700402, 49.4056111 ], [ 8.6697724, 49.4056363 ], [ 8.6695097, 49.4056784 ], [ 8.6692545, 49.4057372 ], [ 8.6690095, 49.4058119 ], [ 8.6687768, 49.405902 ], [ 8.6685588, 49.4060066 ], [ 8.6683575, 49.4061246 ], [ 8.668175, 49.4062549 ], [ 8.6680129, 49.4063962 ], [ 8.6678728, 49.4065472 ], [ 8.667756, 49.4067065 ], [ 8.6676637, 49.4068724 ], [ 8.6675968, 49.4070435 ], [ 8.667556, 49.407218 ], [ 8.6675415, 49.4073943 ], [ 8.6675536, 49.4075707 ], [ 8.6675921, 49.4077454 ], [ 8.6676567, 49.4079169 ], [ 8.6677467, 49.4080833 ], [ 8.6678613, 49.4082433 ], [ 8.6679994, 49.4083951 ], [ 8.6681596, 49.4085374 ], [ 8.6683404, 49.4086687 ], [ 8.6685401, 49.4087878 ], [ 8.6687554, 49.408893 ], [ 8.668718, 49.4089885 ], [ 8.6686772, 49.409163 ], [ 8.6686627, 49.4093393 ], [ 8.6686748, 49.4095157 ], [ 8.6687133, 49.4096904 ], [ 8.6687779, 49.4098619 ], [ 8.6688679, 49.4100284 ], [ 8.6689454, 49.4101364 ], [ 8.6688905, 49.410131 ], [ 8.6686203, 49.4101215 ], [ 8.66835, 49.4101294 ], [ 8.6680822, 49.4101546 ], [ 8.6678195, 49.4101967 ], [ 8.6675643, 49.4102554 ], [ 8.6673192, 49.4103302 ], [ 8.6670865, 49.4104203 ], [ 8.6668685, 49.4105249 ], [ 8.6668372, 49.4105432 ], [ 8.6667729, 49.4104535 ], [ 8.6666348, 49.4103017 ], [ 8.6664746, 49.4101594 ], [ 8.6662938, 49.4100281 ], [ 8.6660941, 49.4099089 ], [ 8.6658775, 49.4098032 ], [ 8.6656461, 49.4097117 ], [ 8.665402, 49.4096355 ], [ 8.6651477, 49.4095753 ], [ 8.6648855, 49.4095317 ], [ 8.664618, 49.409505 ], [ 8.6643479, 49.4094955 ], [ 8.6640776, 49.4095034 ], [ 8.6638098, 49.4095285 ], [ 8.663547, 49.4095707 ], [ 8.6632928, 49.4096292 ], [ 8.6633186, 49.409594 ], [ 8.6634109, 49.409428 ], [ 8.6634778, 49.409257 ], [ 8.6635187, 49.4090824 ], [ 8.6635332, 49.4089062 ], [ 8.6635211, 49.4087298 ], [ 8.6634826, 49.408555 ], [ 8.663418, 49.4083836 ], [ 8.663328, 49.4082171 ], [ 8.6632134, 49.4080572 ], [ 8.6630754, 49.4079054 ], [ 8.6629152, 49.4077631 ], [ 8.6627344, 49.4076317 ], [ 8.6625347, 49.4075126 ], [ 8.6623182, 49.4074068 ], [ 8.6620867, 49.4073154 ], [ 8.6618427, 49.4072392 ], [ 8.6615883, 49.4071789 ], [ 8.6613262, 49.4071353 ], [ 8.6610588, 49.4071086 ], [ 8.6607886, 49.4070991 ], [ 8.6605183, 49.407107 ], [ 8.6602505, 49.4071321 ] ] ], [ [ [ 8.6719021, 49.3980412 ], [ 8.6718586, 49.3980025 ], [ 8.6832159, 49.3980037 ], [ 8.6831598, 49.3981472 ], [ 8.683119, 49.3983217 ], [ 8.6831046, 49.398498 ], [ 8.6831167, 49.3986743 ], [ 8.6831553, 49.3988491 ], [ 8.6832199, 49.3990205 ], [ 8.68331, 49.399187 ], [ 8.6834246, 49.3993469 ], [ 8.6835627, 49.3994987 ], [ 8.6837229, 49.3996409 ], [ 8.6839038, 49.3997723 ], [ 8.6841034, 49.3998914 ], [ 8.6841933, 49.3999352 ], [ 8.6839379, 49.3999263 ], [ 8.6836677, 49.3999343 ], [ 8.6834, 49.3999594 ], [ 8.6831373, 49.4000016 ], [ 8.6828822, 49.4000604 ], [ 8.6826372, 49.4001352 ], [ 8.6824046, 49.4002253 ], [ 8.6821866, 49.4003299 ], [ 8.6819854, 49.4004479 ], [ 8.6818029, 49.4005782 ], [ 8.6816408, 49.4007196 ], [ 8.6815008, 49.4008706 ], [ 8.6813841, 49.4010299 ], [ 8.6812919, 49.4011958 ], [ 8.6812251, 49.4013669 ], [ 8.6811842, 49.4015414 ], [ 8.6811698, 49.4017177 ], [ 8.6811819, 49.4018941 ], [ 8.6812205, 49.4020688 ], [ 8.6812851, 49.4022403 ], [ 8.6813752, 49.4024067 ], [ 8.6814898, 49.4025667 ], [ 8.6816279, 49.4027185 ], [ 8.6817882, 49.4028607 ], [ 8.681969, 49.402992 ], [ 8.6821323, 49.4030894 ], [ 8.6821249, 49.4030947 ], [ 8.6819628, 49.4032361 ], [ 8.6819011, 49.4033027 ], [ 8.6817521, 49.4032674 ], [ 8.6814899, 49.4032238 ], [ 8.6812225, 49.4031971 ], [ 8.6812143, 49.4031969 ], [ 8.6811036, 49.4030424 ], [ 8.6809655, 49.4028906 ], [ 8.6808053, 49.4027483 ], [ 8.6806244, 49.402617 ], [ 8.6804248, 49.4024979 ], [ 8.6802082, 49.4023922 ], [ 8.6799767, 49.4023008 ], [ 8.6797327, 49.4022246 ], [ 8.6794783, 49.4021644 ], [ 8.6792162, 49.4021208 ], [ 8.6789488, 49.4020941 ], [ 8.6786786, 49.4020847 ], [ 8.6784084, 49.4020926 ], [ 8.6781406, 49.4021178 ], [ 8.6778779, 49.40216 ], [ 8.6776228, 49.4022187 ], [ 8.6773778, 49.4022935 ], [ 8.6771452, 49.4023836 ], [ 8.6769272, 49.4024882 ], [ 8.676726, 49.4026062 ], [ 8.6765434, 49.4027365 ], [ 8.6764966, 49.4027774 ], [ 8.6764711, 49.4026618 ], [ 8.6764065, 49.4024904 ], [ 8.6763164, 49.4023239 ], [ 8.6762018, 49.402164 ], [ 8.6760637, 49.4020122 ], [ 8.6759035, 49.4018699 ], [ 8.6757227, 49.4017386 ], [ 8.6755231, 49.4016195 ], [ 8.6753065, 49.4015137 ], [ 8.675075, 49.4014223 ], [ 8.674831, 49.4013461 ], [ 8.6745767, 49.4012859 ], [ 8.6743146, 49.4012423 ], [ 8.6740471, 49.4012157 ], [ 8.673777, 49.4012062 ], [ 8.6735068, 49.4012141 ], [ 8.673239, 49.4012393 ], [ 8.6730931, 49.4012627 ], [ 8.6730408, 49.4011661 ], [ 8.6729262, 49.4010062 ], [ 8.6727882, 49.4008544 ], [ 8.672628, 49.4007121 ], [ 8.6724472, 49.4005808 ], [ 8.6722475, 49.4004616 ], [ 8.6720309, 49.4003559 ], [ 8.6717995, 49.4002644 ], [ 8.6717157, 49.4002383 ], [ 8.6718756, 49.4000988 ], [ 8.6720157, 49.3999477 ], [ 8.6721324, 49.3997885 ], [ 8.6722247, 49.3996225 ], [ 8.6722915, 49.3994515 ], [ 8.6723324, 49.3992769 ], [ 8.6723327, 49.3992734 ], [ 8.6723456, 49.3992182 ], [ 8.67236, 49.3990419 ], [ 8.6723479, 49.3988656 ], [ 8.6723094, 49.3986908 ], [ 8.6722448, 49.3985194 ], [ 8.6721548, 49.3983529 ], [ 8.6720402, 49.398193 ], [ 8.6719021, 49.3980412 ] ] ], [ [ [ 8.6766424, 49.4155105 ], [ 8.6763802, 49.4154669 ], [ 8.6762994, 49.4154589 ], [ 8.6764478, 49.4154014 ], [ 8.6766419, 49.4153083 ], [ 8.6766363, 49.4153773 ], [ 8.6766455, 49.4155113 ], [ 8.6766424, 49.4155105 ] ] ], [ [ [ 8.6749377, 49.4121023 ], [ 8.6746674, 49.4121102 ], [ 8.6743996, 49.4121354 ], [ 8.6741368, 49.4121775 ], [ 8.6738817, 49.4122363 ], [ 8.6737768, 49.4122683 ], [ 8.6737389, 49.4121679 ], [ 8.6736489, 49.4120014 ], [ 8.6735343, 49.4118415 ], [ 8.6733962, 49.4116896 ], [ 8.6732359, 49.4115474 ], [ 8.6730551, 49.4114161 ], [ 8.6728554, 49.4112969 ], [ 8.6726388, 49.4111912 ], [ 8.6724073, 49.4110997 ], [ 8.6722699, 49.4110569 ], [ 8.6724637, 49.4110122 ], [ 8.6727088, 49.4109374 ], [ 8.6729415, 49.4108473 ], [ 8.6731595, 49.4107428 ], [ 8.6733608, 49.4106248 ], [ 8.6735433, 49.4104945 ], [ 8.6737054, 49.4103531 ], [ 8.6737595, 49.4102949 ], [ 8.6739127, 49.4102805 ], [ 8.6741754, 49.4102384 ], [ 8.6744306, 49.4101796 ], [ 8.6746756, 49.4101048 ], [ 8.6747603, 49.410072 ], [ 8.674926, 49.4101375 ], [ 8.6751701, 49.4102137 ], [ 8.6754244, 49.4102739 ], [ 8.6756866, 49.4103175 ], [ 8.6759541, 49.4103441 ], [ 8.6762243, 49.4103536 ], [ 8.6764946, 49.4103457 ], [ 8.6767624, 49.4103205 ], [ 8.6770251, 49.4102783 ], [ 8.6770994, 49.4102612 ], [ 8.6771532, 49.4103363 ], [ 8.6771762, 49.4103616 ], [ 8.6769426, 49.4103991 ], [ 8.6766875, 49.4104578 ], [ 8.6764424, 49.4105326 ], [ 8.6762097, 49.4106227 ], [ 8.6759917, 49.4107273 ], [ 8.6757905, 49.4108453 ], [ 8.6756079, 49.4109756 ], [ 8.6754458, 49.4111169 ], [ 8.6753057, 49.411268 ], [ 8.675189, 49.4114272 ], [ 8.6750967, 49.4115932 ], [ 8.6750298, 49.4117643 ], [ 8.674989, 49.4119388 ], [ 8.6749755, 49.4121037 ], [ 8.6749377, 49.4121023 ] ] ], [ [ [ 8.6798751, 49.40688 ], [ 8.679737, 49.4067282 ], [ 8.6795768, 49.406586 ], [ 8.679463, 49.4065034 ], [ 8.6796308, 49.4065697 ], [ 8.6798749, 49.4066458 ], [ 8.6801293, 49.406706 ], [ 8.6803914, 49.4067496 ], [ 8.6806589, 49.4067763 ], [ 8.680929, 49.4067857 ], [ 8.6811765, 49.4067784 ], [ 8.6810144, 49.4068158 ], [ 8.6807694, 49.4068906 ], [ 8.6807062, 49.406915 ], [ 8.6806085, 49.4069449 ], [ 8.6803758, 49.407035 ], [ 8.6801578, 49.4071396 ], [ 8.6800711, 49.4071904 ], [ 8.6799897, 49.4070399 ], [ 8.6798751, 49.40688 ] ] ], [ [ [ 8.68223, 49.4065768 ], [ 8.6824626, 49.4064867 ], [ 8.6826806, 49.4063821 ], [ 8.6828818, 49.4062641 ], [ 8.6830644, 49.4061338 ], [ 8.6832264, 49.4059925 ], [ 8.6832882, 49.4059259 ], [ 8.6834372, 49.4059611 ], [ 8.6836994, 49.4060047 ], [ 8.683953, 49.40603 ], [ 8.6838661, 49.4061865 ], [ 8.6837993, 49.4063576 ], [ 8.6837584, 49.4065321 ], [ 8.683744, 49.4067084 ], [ 8.6837553, 49.4068718 ], [ 8.6837261, 49.4068745 ], [ 8.6834634, 49.4069167 ], [ 8.6834338, 49.4069235 ], [ 8.6833685, 49.4068977 ], [ 8.6831244, 49.4068216 ], [ 8.6828701, 49.4067614 ], [ 8.6826079, 49.4067178 ], [ 8.6823405, 49.4066911 ], [ 8.6820703, 49.4066817 ], [ 8.6818228, 49.406689 ], [ 8.6819849, 49.4066516 ], [ 8.68223, 49.4065768 ] ] ] ] } }
]
}
