{
"type": "FeatureCollection",
"features": [
{ "type": "Feature", "properties": { "index": "0", "label": "Within 800 m on foot", "color": "#2b8cbe" }, "geometry": { "type": "Polygon", "coordinates": [ [ [ 8.7079344, 49.4212648 ], [ 8.7070624, 49.4216832 ], [ 8.706238, 49.4220028 ], [ 8.66, 49.422 ], [ 8.66, 49.398 ], [ 8.7018324, 49.3980033 ], [ 8.7018396, 49.3980164 ], [ 8.7020983, 49.3987021 ], [ 8.7022529, 49.3994011 ], [ 8.7023017, 49.4001065 ], [ 8.7022741, 49.4004455 ], [ 8.7030176, 49.4000886 ], [ 8.7039479, 49.3997279 ], [ 8.7049279, 49.3994285 ], [ 8.7059481, 49.3991932 ], [ 8.7069987, 49.3990242 ], [ 8.7080696, 49.3989233 ], [ 8.7091505, 49.3988914 ], [ 8.710231, 49.3989288 ], [ 8.7113007, 49.3990351 ], [ 8.7123493, 49.3992093 ], [ 8.7133667, 49.3994497 ], [ 8.7143431, 49.399754 ], [ 8.7152691, 49.4001194 ], [ 8.7161357, 49.4005422 ], [ 8.7169348, 49.4010184 ], [ 8.7176584, 49.4015434 ], [ 8.7182998, 49.4021122 ], [ 8.7188526, 49.4027192 ], [ 8.7191157, 49.4030858 ], [ 8.7198599, 49.4033177 ], [ 8.72, 49.4033729 ], [ 8.72, 49.4211752 ], [ 8.7189657, 49.4212728 ], [ 8.7178843, 49.4213048 ], [ 8.7168033, 49.4212675 ], [ 8.7157331, 49.4211612 ], [ 8.714684, 49.4209871 ], [ 8.7136662, 49.4207467 ], [ 8.7126894, 49.4204423 ], [ 8.7121943, 49.4202471 ], [ 8.7117284, 49.4201697 ], [ 8.7107106, 49.4199292 ], [ 8.7105268, 49.419872 ], [ 8.7099898, 49.4199225 ], [ 8.7098646, 49.4199262 ], [ 8.7094694, 49.4202711 ], [ 8.7087393, 49.4207926 ], [ 8.7079344, 49.4212648 ] ] ] } },
{ "type": "Feature", "properties": { "index": "1", "label": "Beyond 800 m", "color": "#d9d9d9" }, "geometry": { "type": "MultiPolygon", "coordinates": [ [ [ [ 8.7020983, 49.3987021 ], [ 8.7018396, 49.3980164 ], [ 8.7018324, 49.3980033 ], [ 8.72, 49.398 ], [ 8.72, 49.4033729 ], [ 8.7198599, 49.4033177 ], [ 8.7191157, 49.4030858 ], [ 8.7188526, 49.4027192 ], [ 8.7182998, 49.4021122 ], [ 8.7176584, 49.4015434 ], [ 8.7169348, 49.4010184 ], [ 8.7161357, 49.4005422 ], [ 8.7152691, 49.4001194 ], [ 8.7143431, 49.399754 ], [ 8.7133667, 49.3994497 ], [ 8.7123493, 49.3992093 ], [ 8.7113007, 49.3990351 ], [ 8.710231, 49.3989288 ], [ 8.7091505, 49.3988914 ], [ 8.7080696, 49.3989233 ], [ 8.7069987, 49.3990242 ], [ 8.7059481, 49.3991932 ], [ 8.7049279, 49.3994285 ], [ 8.7039479, 49.3997279 ], [ 8.7030176, 49.4000886 ], [ 8.7022741, 49.4004455 ], [ 8.7023017, 49.4001065 ], [ 8.7022529, 49.3994011 ], [ 8.7020983, 49.3987021 ] ] ], [ [ [ 8.7168033, 49.4212675 ], [ 8.7178843, 49.4213048 ], [ 8.7189657, 49.4212728 ], [ 8.72, 49.4211752 ], [ 8.72, 49.422 ], [ 8.7062451, 49.422 ], [ 8.7070624, 49.4216832 ], [ 8.7079344, 49.4212648 ], [ 8.7087393, 49.4207926 ], [ 8.7094694, 49.4202711 ], [ 8.7098646, 49.4199262 ], [ 8.7099898, 49.4199225 ], [ 8.7105268, 49.419872 ], [ 8.7107106, 49.4199292 ], [ 8.7117284, 49.4201697 ], [ 8.7121943, 49.4202471 ], [ 8.7126894, 49.4204423 ], [ 8.7136662, 49.4207467 ], [ 8.714684, 49.4209871 ], [ 8.7157331, 49.4211612 ], [ 8.7168033, 49.4212675 ] ] ], [ [ [ 8.66, 49.422 ], [ 8.7062451, 49.422 ], [ 8.706238, 49.4220028 ], [ 8.66, 49.422 ] ] ] ] } }
]
}
