{
"type": "FeatureCollection",
"features": [
{ "type": "Feature", "properties": { "index": "0", "last_edit_year": 2024, "years_since_edit": 2, "label": "1.5–6.5 yr", "color": "#67a9cf" }, "geometry": { "type": "Point", "coordinates": [ 8.6809407, 49.4049867 ] } },
{ "type": "Feature", "properties": { "index": "1", "last_edit_year": 2026, "years_since_edit": 0, "label": "0.0–1.5 yr", "color": "#f6eff7" }, "geometry": { "type": "Point", "coordinates": [ 8.698847, 49.4121147 ] } },
{ "type": "Feature", "properties": { "index": "2", "last_edit_year": 2026, "years_since_edit": 0, "label": "0.0–1.5 yr", "color": "#f6eff7" }, "geometry": { "type": "Point", "coordinates": [ 8.6865009, 49.4067159 ] } },
{ "type": "Feature", "properties": { "index": "3", "last_edit_year": 2011, "years_since_edit": 15, "label": "6.5–15.0 yr", "color": "#016c59" }, "geometry": { "type": "Point", "coordinates": [ 8.6949416, 49.4073133 ] } },
{ "type": "Feature", "properties": { "index": "4", "last_edit_year": 2026, "years_since_edit": 0, "label": "0.0–1.5 yr", "color": "#f6eff7" }, "geometry": { "type": "Point", "coordinates": [ 8.688756, 49.409803 ] } },
{ "type": "Feature", "properties": { "index": "5", "last_edit_year": 2025, "years_since_edit": 1, "label": "0.0–1.5 yr", "color": "#f6eff7" }, "geometry": { "type": "Point", "coordinates": [ 8.6873585, 49.4068013 ] } },
{ "type": "Feature", "properties": { "index": "6", "last_edit_year": 2025, "years_since_edit": 1, "label": "0.0–1.5 yr", "color": "#f6eff7" }, "geometry": { "type": "Point", "coordinates": [ 8.6936252, 49.4072311 ] } },
{ "type": "Feature", "properties": { "index": "7", "last_edit_year": 2025, "years_since_edit": 1, "label": "0.0–1.5 yr", "color": "#f6eff7" }, "geometry": { "type": "Point", "coordinates": [ 8.6918668, 49.40771 ] } },
{ "type": "Feature", "properties": { "index": "8", "last_edit_year": 2026, "years_since_edit": 0, "label": "0.0–1.5 yr", "color": "#f6eff7" }, "geometry": { "type": "Point", "coordinates": [ 8.6900594, 49.4044611 ] } },
{ "type": "Feature", "properties": { "index": "9", "last_edit_year": 2025, "years_since_edit": 1, "label": "0.0–1.5 yr", "color": "#f6eff7" }, "geometry": { "type": "Point", "coordinates": [ 8.6875271, 49.4137661 ] } },
{ "type": "Feature", "properties": { "index": "10", "last_edit_year": 2025, "years_since_edit": 1, "label": "0.0–1.5 yr", "color": "#f6eff7" }, "geometry": { "type": "Point", "coordinates": [ 8.6793936, 49.415385 ] } },
{ "type": "Feature", "properties": { "index": "11", "last_edit_year": 2025, "years_since_edit": 1, "label": "0.0–1.5 yr", "color": "#f6eff7" }, "geometry": { "type": "Point", "coordinates": [ 8.687519, 49.4039284 ] } },
{ "type": "Feature", "properties": { "index": "12", "last_edit_year": 2023, "years_since_edit": 3, "label": "1.5–6.5 yr", "color": "#67a9cf" }, "geometry": { "type": "Point", "coordinates": [ 8.6820587, 49.4084807 ] } },
{ "type": "Feature", "properties": { "index": "13", "last_edit_year": 2026, "years_since_edit": 0, "label": "0.0–1.5 yr", "color": "#f6eff7" }, "geometry": { "type": "Point", "coordinates": [ 8.6853562, 49.4021829 ] } },
{ "type": "Feature", "properties": { "index": "14", "last_edit_year": 2026, "years_since_edit": 0, "label": "0.0–1.5 yr", "color": "#f6eff7" }, "geometry": { "type": "Point", "coordinates": [ 8.6893521, 49.3990592 ] } },
{ "type": "Feature", "properties": { "index": "15", "last_edit_year": 2025, "years_since_edit": 1, "label": "0.0–1.5 yr", "color": "#f6eff7" }, "geometry": { "type": "Point", "coordinates": [ 8.6925373, 49.4107336 ] } },
{ "type": "Feature", "properties": { "index": "16", "last_edit_year": 2025, "years_since_edit": 1, "label": "0.0–1.5 yr", "color": "#f6eff7" }, "geometry": { "type": "Point", "coordinates": [ 8.6956616, 49.4087265 ] } },
{ "type": "Feature", "properties": { "index": "17", "last_edit_year": 2026, "years_since_edit": 0, "label": "0.0–1.5 yr", "color": "#f6eff7" }, "geometry": { "type": "Point", "coordinates": [ 8.685861, 49.3985055 ] } },
{ "type": "Feature", "properties": { "index": "18", "last_edit_year": 2026, "years_since_edit": 0, "label": "0.0–1.5 yr", "color": "#f6eff7" }, "geometry": { "type": "Point", "coordinates": [ 8.6974298, 49.4094237 ] } },
{ "type": "Feature", "properties": { "index": "19", "last_edit_year": 2017, "years_since_edit": 9, "label": "6.5–15.0 yr", "color": "#016c59" }, "geometry": { "type": "Point", "coordinates": [ 8.6891947, 49.398025 ] } },
{ "type": "Feature", "properties": { "index": "20", "last_edit_year": 2025, "years_since_edit": 1, "label": "0.0–1.5 yr", "color": "#f6eff7" }, "geometry": { "type": "Point", "coordinates": [ 8.6810527, 49.4143543 ] } },
{ "type": "Feature", "properties": { "index": "21", "last_edit_year": 2019, "years_since_edit": 7, "label": "6.5–15.0 yr", "color": "#016c59" }, "geometry": { "type": "Point", "coordinates": [ 8.6912757, 49.4000776 ] } },
{ "type": "Feature", "properties": { "index": "22", "last_edit_year": 2025, "years_since_edit": 1, "label": "0.0–1.5 yr", "color": "#f6eff7" }, "geometry": { "type": "Point", "coordinates": [ 8.6939798, 49.4104163 ] } },
{ "type": "Feature", "properties": { "index": "23", "last_edit_year": 2023, "years_since_edit": 3, "label": "1.5–6.5 yr", "color": "#67a9cf" }, "geometry": { "type": "Point", "coordinates": [ 8.6851106, 49.4016754 ] } },
{ "type": "Feature", "properties": { "index": "24", "last_edit_year": 2024, "years_since_edit": 2, "label": "1.5–6.5 yr", "color": "#67a9cf" }, "geometry": { "type": "Point", "coordinates": [ 8.6871909, 49.4003841 ] } },
{ "type": "Feature", "properties": { "index": "25", "last_edit_year": 2023, "years_since_edit": 3, "label": "1.5–6.5 yr", "color": "#67a9cf" }, "geometry": { "type": "Point", "coordinates": [ 8.6839264, 49.4017253 ] } },
{ "type": "Feature", "properties": { "index": "26", "last_edit_year": 2026, "years_since_edit": 0, "label": "0.0–1.5 yr", "color": "#f6eff7" }, "geometry": { "type": "Point", "coordinates": [ 8.6643356, 49.4112945 ] } },
{ "type": "Feature", "properties": { "index": "27", "last_edit_year": 2025, "years_since_edit": 1, "label": "0.0–1.5 yr", "color": "#f6eff7" }, "geometry": { "type": "Point", "coordinates": [ 8.6612559, 49.404645 ] } },
{ "type": "Feature", "properties": { "index": "28", "last_edit_year": 2026, "years_since_edit": 0, "label": "0.0–1.5 yr", "color": "#f6eff7" }, "geometry": { "type": "Point", "coordinates": [ 8.7010196, 49.4124165 ] } },
{ "type": "Feature", "properties": { "index": "29", "last_edit_year": 2026, "years_since_edit": 0, "label": "0.0–1.5 yr", "color": "#f6eff7" }, "geometry": { "type": "Point", "coordinates": [ 8.6866569, 49.4202389 ] } },
{ "type": "Feature", "properties": { "index": "30", "last_edit_year": 2026, "years_since_edit": 0, "label": "0.0–1.5 yr", "color": "#f6eff7" }, "geometry": { "type": "Point", "coordinates": [ 8.6777317, 49.4121228 ] } },
{ "type": "Feature", "properties": { "index": "31", "last_edit_year": 2025, "years_since_edit": 1, "label": "0.0–1.5 yr", "color": "#f6eff7" }, "geometry": { "type": "Point", "coordinates": [ 8.6845408, 49.4198183 ] } },
{ "type": "Feature", "properties": { "index": "32", "last_edit_year": 2025, "years_since_edit": 1, "label": "0.0–1.5 yr", "color": "#f6eff7" }, "geometry": { "type": "Point", "coordinates": [ 8.6762361, 49.4085546 ] } },
{ "type": "Feature", "properties": { "index": "33", "last_edit_year": 2025, "years_since_edit": 1, "label": "0.0–1.5 yr", "color": "#f6eff7" }, "geometry": { "type": "Point", "coordinates": [ 8.6866625, 49.4184516 ] } },
{ "type": "Feature", "properties": { "index": "34", "last_edit_year": 2026, "years_since_edit": 0, "label": "0.0–1.5 yr", "color": "#f6eff7" }, "geometry": { "type": "Point", "coordinates": [ 8.6907199, 49.4179387 ] } },
{ "type": "Feature", "properties": { "index": "35", "last_edit_year": 2026, "years_since_edit": 0, "label": "0.0–1.5 yr", "color": "#f6eff7" }, "geometry": { "type": "Point", "coordinates": [ 8.6733865, 49.4085146 ] } },
{ "type": "Feature", "properties": { "index": "36", "last_edit_year": 2025, "years_since_edit": 1, "label": "0.0–1.5 yr", "color": "#f6eff7" }, "geometry": { "type": "Point", "coordinates": [ 8.7009704, 49.4156844 ] } },
{ "type": "Feature", "properties": { "index": "37", "last_edit_year": 2026, "years_since_edit": 0, "label": "0.0–1.5 yr", "color": "#f6eff7" }, "geometry": { "type": "Point", "coordinates": [ 8.6786669, 49.4038837 ] } },
{ "type": "Feature", "properties": { "index": "38", "last_edit_year": 2026, "years_since_edit": 0, "label": "0.0–1.5 yr", "color": "#f6eff7" }, "geometry": { "type": "Point", "coordinates": [ 8.6714197, 49.4093472 ] } },
{ "type": "Feature", "properties": { "index": "39", "last_edit_year": 2025, "years_since_edit": 1, "label": "0.0–1.5 yr", "color": "#f6eff7" }, "geometry": { "type": "Point", "coordinates": [ 8.6828712, 49.4190631 ] } },
{ "type": "Feature", "properties": { "index": "40", "last_edit_year": 2025, "years_since_edit": 1, "label": "0.0–1.5 yr", "color": "#f6eff7" }, "geometry": { "type": "Point", "coordinates": [ 8.6686082, 49.4119205 ] } },
{ "type": "Feature", "properties": { "index": "41", "last_edit_year": 2024, "years_since_edit": 2, "label": "1.5–6.5 yr", "color": "#67a9cf" }, "geometry": { "type": "Point", "coordinates": [ 8.6607762, 49.4088981 ] } },
{ "type": "Feature", "properties": { "index": "42", "last_edit_year": 2025, "years_since_edit": 1, "label": "0.0–1.5 yr", "color": "#f6eff7" }, "geometry": { "type": "Point", "coordinates": [ 8.6704895, 49.4018473 ] } },
{ "type": "Feature", "properties": { "index": "43", "last_edit_year": 2015, "years_since_edit": 11, "label": "6.5–15.0 yr", "color": "#016c59" }, "geometry": { "type": "Point", "coordinates": [ 8.6891073, 49.4200869 ] } },
{ "type": "Feature", "properties": { "index": "44", "last_edit_year": 2015, "years_since_edit": 11, "label": "6.5–15.0 yr", "color": "#016c59" }, "geometry": { "type": "Point", "coordinates": [ 8.6890893, 49.4198766 ] } },
{ "type": "Feature", "properties": { "index": "45", "last_edit_year": 2016, "years_since_edit": 10, "label": "6.5–15.0 yr", "color": "#016c59" }, "geometry": { "type": "Point", "coordinates": [ 8.6696036, 49.3990341 ] } },
{ "type": "Feature", "properties": { "index": "46", "last_edit_year": 2016, "years_since_edit": 10, "label": "6.5–15.0 yr", "color": "#016c59" }, "geometry": { "type": "Point", "coordinates": [ 8.6695904, 49.3990928 ] } },
{ "type": "Feature", "properties": { "index": "47", "last_edit_year": 2016, "years_since_edit": 10, "label": "6.5–15.0 yr", "color": "#016c59" }, "geometry": { "type": "Point", "coordinates": [ 8.6695013, 49.399133 ] } },
{ "type": "Feature", "properties": { "index": "48", "last_edit_year": 2016, "years_since_edit": 10, "label": "6.5–15.0 yr", "color": "#016c59" }, "geometry": { "type": "Point", "coordinates": [ 8.6693069, 49.3991771 ] } },
{ "type": "Feature", "properties": { "index": "49", "last_edit_year": 2016, "years_since_edit": 10, "label": "6.5–15.0 yr", "color": "#016c59" }, "geometry": { "type": "Point", "coordinates": [ 8.6693964, 49.3991328 ] } },
{ "type": "Feature", "properties": { "index": "50", "last_edit_year": 2016, "years_since_edit": 10, "label": "6.5–15.0 yr", "color": "#016c59" }, "geometry": { "type": "Point", "coordinates": [ 8.6677646, 49.3999763 ] } },
{ "type": "Feature", "properties": { "index": "51", "last_edit_year": 2016, "years_since_edit": 10, "label": "6.5–15.0 yr", "color": "#016c59" }, "geometry": { "type": "Point", "coordinates": [ 8.6693874, 49.3991866 ] } },
{ "type": "Feature", "properties": { "index": "52", "last_edit_year": 2016, "years_since_edit": 10, "label": "6.5–15.0 yr", "color": "#016c59" }, "geometry": { "type": "Point", "coordinates": [ 8.6694921, 49.3990904 ] } },
{ "type": "Feature", "properties": { "index": "53", "last_edit_year": 2016, "years_since_edit": 10, "label": "6.5–15.0 yr", "color": "#016c59" }, "geometry": { "type": "Point", "coordinates": [ 8.6676362, 49.4000389 ] } },
{ "type": "Feature", "properties": { "index": "54", "last_edit_year": 2016, "years_since_edit": 10, "label": "6.5–15.0 yr", "color": "#016c59" }, "geometry": { "type": "Point", "coordinates": [ 8.6677731, 49.3999207 ] } },
{ "type": "Feature", "properties": { "index": "55", "last_edit_year": 2016, "years_since_edit": 10, "label": "6.5–15.0 yr", "color": "#016c59" }, "geometry": { "type": "Point", "coordinates": [ 8.6676311, 49.3999907 ] } },
{ "type": "Feature", "properties": { "index": "56", "last_edit_year": 2023, "years_since_edit": 3, "label": "1.5–6.5 yr", "color": "#67a9cf" }, "geometry": { "type": "Point", "coordinates": [ 8.6680431, 49.3997465 ] } },
{ "type": "Feature", "properties": { "index": "57", "last_edit_year": 2021, "years_since_edit": 5, "label": "1.5–6.5 yr", "color": "#67a9cf" }, "geometry": { "type": "Point", "coordinates": [ 8.6784478, 49.4219226 ] } },
{ "type": "Feature", "properties": { "index": "58", "last_edit_year": 2023, "years_since_edit": 3, "label": "1.5–6.5 yr", "color": "#67a9cf" }, "geometry": { "type": "Point", "coordinates": [ 8.6702984, 49.4074022 ] } },
{ "type": "Feature", "properties": { "index": "59", "last_edit_year": 2025, "years_since_edit": 1, "label": "0.0–1.5 yr", "color": "#f6eff7" }, "geometry": { "type": "Point", "coordinates": [ 8.6735279, 49.4192432 ] } },
{ "type": "Feature", "properties": { "index": "60", "last_edit_year": 2026, "years_since_edit": 0, "label": "0.0–1.5 yr", "color": "#f6eff7" }, "geometry": { "type": "Point", "coordinates": [ 8.7058285, 49.409921 ] } },
{ "type": "Feature", "properties": { "index": "61", "last_edit_year": 2025, "years_since_edit": 1, "label": "0.0–1.5 yr", "color": "#f6eff7" }, "geometry": { "type": "Point", "coordinates": [ 8.7028127, 49.4118525 ] } },
{ "type": "Feature", "properties": { "index": "62", "last_edit_year": 2025, "years_since_edit": 1, "label": "0.0–1.5 yr", "color": "#f6eff7" }, "geometry": { "type": "Point", "coordinates": [ 8.7033358, 49.4128078 ] } },
{ "type": "Feature", "properties": { "index": "63", "last_edit_year": 2026, "years_since_edit": 0, "label": "0.0–1.5 yr", "color": "#f6eff7" }, "geometry": { "type": "Point", "coordinates": [ 8.7063954, 49.4112809 ] } },
{ "type": "Feature", "properties": { "index": "64", "last_edit_year": 2026, "years_since_edit": 0, "label": "0.0–1.5 yr", "color": "#f6eff7" }, "geometry": { "type": "Point", "coordinates": [ 8.7063427, 49.4112645 ] } },
{ "type": "Feature", "properties": { "index": "65", "last_edit_year": 2026, "years_since_edit": 0, "label": "0.0–1.5 yr", "color": "#f6eff7" }, "geometry": { "type": "Point", "coordinates": [ 8.718099, 49.4106484 ] } },
{ "type": "Feature", "properties": { "index": "66", "last_edit_year": 2013, "years_since_edit": 13, "label": "6.5–15.0 yr", "color": "#016c59" }, "geometry": { "type": "Point", "coordinates": [ 8.7179255, 49.4141089 ] } },
{ "type": "Feature", "properties": { "index": "67", "last_edit_year": 2012, "years_since_edit": 14, "label": "6.5–15.0 yr", "color": "#016c59" }, "geometry": { "type": "Point", "coordinates": [ 8.709108, 49.4060873 ] } },
{ "type": "Feature", "properties": { "index": "68", "last_edit_year": 2021, "years_since_edit": 5, "label": "1.5–6.5 yr", "color": "#67a9cf" }, "geometry": { "type": "Point", "coordinates": [ 8.7025897, 49.4117744 ] } },
{ "type": "Feature", "properties": { "index": "69", "last_edit_year": 2024, "years_since_edit": 2, "label": "1.5–6.5 yr", "color": "#67a9cf" }, "geometry": { "type": "Point", "coordinates": [ 8.7108996, 49.4107561 ] } },
{ "type": "Feature", "properties": { "index": "70", "last_edit_year": 2026, "years_since_edit": 0, "label": "0.0–1.5 yr", "color": "#f6eff7" }, "geometry": { "type": "Point", "coordinates": [ 8.7158117, 49.4109036 ] } },
{ "type": "Feature", "properties": { "index": "71", "last_edit_year": 2025, "years_since_edit": 1, "label": "0.0–1.5 yr", "color": "#f6eff7" }, "geometry": { "type": "Point", "coordinates": [ 8.7146252, 49.4096512 ] } },
{ "type": "Feature", "properties": { "index": "72", "last_edit_year": 2020, "years_since_edit": 6, "label": "1.5–6.5 yr", "color": "#67a9cf" }, "geometry": { "type": "Point", "coordinates": [ 8.7016286, 49.4092629 ] } },
{ "type": "Feature", "properties": { "index": "73", "last_edit_year": 2025, "years_since_edit": 1, "label": "0.0–1.5 yr", "color": "#f6eff7" }, "geometry": { "type": "Point", "coordinates": [ 8.702, 49.4109022 ] } },
{ "type": "Feature", "properties": { "index": "74", "last_edit_year": 2023, "years_since_edit": 3, "label": "1.5–6.5 yr", "color": "#67a9cf" }, "geometry": { "type": "Point", "coordinates": [ 8.7024973, 49.4105279 ] } },
{ "type": "Feature", "properties": { "index": "75", "last_edit_year": 2026, "years_since_edit": 0, "label": "0.0–1.5 yr", "color": "#f6eff7" }, "geometry": { "type": "Point", "coordinates": [ 8.7060537, 49.4093253 ] } },
{ "type": "Feature", "properties": { "index": "76", "last_edit_year": 2026, "years_since_edit": 0, "label": "0.0–1.5 yr", "color": "#f6eff7" }, "geometry": { "type": "Point", "coordinates": [ 8.7096605, 49.4121036 ] } },
{ "type": "Feature", "properties": { "index": "77", "last_edit_year": 2025, "years_since_edit": 1, "label": "0.0–1.5 yr", "color": "#f6eff7" }, "geometry": { "type": "Point", "coordinates": [ 8.7149703, 49.4132916 ] } },
{ "type": "Feature", "properties": { "index": "78", "last_edit_year": 2026, "years_since_edit": 0, "label": "0.0–1.5 yr", "color": "#f6eff7" }, "geometry": { "type": "Point", "coordinates": [ 8.7077054, 49.4108182 ] } },
{ "type": "Feature", "properties": { "index": "79", "last_edit_year": 2024, "years_since_edit": 2, "label": "1.5–6.5 yr", "color": "#67a9cf" }, "geometry": { "type": "Point", "coordinates": [ 8.7082005, 49.4106488 ] } },
{ "type": "Feature", "properties": { "index": "80", "last_edit_year": 2025, "years_since_edit": 1, "label": "0.0–1.5 yr", "color": "#f6eff7" }, "geometry": { "type": "Point", "coordinates": [ 8.7142847, 49.4100847 ] } },
{ "type": "Feature", "properties": { "index": "81", "last_edit_year": 2026, "years_since_edit": 0, "label": "0.0–1.5 yr", "color": "#f6eff7" }, "geometry": { "type": "Point", "coordinates": [ 8.7028964, 49.4113671 ] } },
{ "type": "Feature", "properties": { "index": "82", "last_edit_year": 2024, "years_since_edit": 2, "label": "1.5–6.5 yr", "color": "#67a9cf" }, "geometry": { "type": "Point", "coordinates": [ 8.6683775, 49.4176768 ] } },
{ "type": "Feature", "properties": { "index": "83", "last_edit_year": 2025, "years_since_edit": 1, "label": "0.0–1.5 yr", "color": "#f6eff7" }, "geometry": { "type": "Point", "coordinates": [ 8.7004521, 49.4157261 ] } },
{ "type": "Feature", "properties": { "index": "84", "last_edit_year": 2024, "years_since_edit": 2, "label": "1.5–6.5 yr", "color": "#67a9cf" }, "geometry": { "type": "Point", "coordinates": [ 8.6901583, 49.4093101 ] } },
{ "type": "Feature", "properties": { "index": "85", "last_edit_year": 2025, "years_since_edit": 1, "label": "0.0–1.5 yr", "color": "#f6eff7" }, "geometry": { "type": "Point", "coordinates": [ 8.6899329, 49.4143991 ] } },
{ "type": "Feature", "properties": { "index": "86", "last_edit_year": 2025, "years_since_edit": 1, "label": "0.0–1.5 yr", "color": "#f6eff7" }, "geometry": { "type": "Point", "coordinates": [ 8.7006398, 49.4157681 ] } },
{ "type": "Feature", "properties": { "index": "87", "last_edit_year": 2023, "years_since_edit": 3, "label": "1.5–6.5 yr", "color": "#67a9cf" }, "geometry": { "type": "Point", "coordinates": [ 8.6749258, 49.4139013 ] } },
{ "type": "Feature", "properties": { "index": "88", "last_edit_year": 2025, "years_since_edit": 1, "label": "0.0–1.5 yr", "color": "#f6eff7" }, "geometry": { "type": "Point", "coordinates": [ 8.674447, 49.4190214 ] } },
{ "type": "Feature", "properties": { "index": "89", "last_edit_year": 2024, "years_since_edit": 2, "label": "1.5–6.5 yr", "color": "#67a9cf" }, "geometry": { "type": "Point", "coordinates": [ 8.7066904, 49.4113863 ] } },
{ "type": "Feature", "properties": { "index": "90", "last_edit_year": 2024, "years_since_edit": 2, "label": "1.5–6.5 yr", "color": "#67a9cf" }, "geometry": { "type": "Point", "coordinates": [ 8.6743102, 49.4178595 ] } },
{ "type": "Feature", "properties": { "index": "91", "last_edit_year": 2024, "years_since_edit": 2, "label": "1.5–6.5 yr", "color": "#67a9cf" }, "geometry": { "type": "Point", "coordinates": [ 8.7052085, 49.4105445 ] } },
{ "type": "Feature", "properties": { "index": "92", "last_edit_year": 2025, "years_since_edit": 1, "label": "0.0–1.5 yr", "color": "#f6eff7" }, "geometry": { "type": "Point", "coordinates": [ 8.6842485, 49.4042418 ] } },
{ "type": "Feature", "properties": { "index": "93", "last_edit_year": 2025, "years_since_edit": 1, "label": "0.0–1.5 yr", "color": "#f6eff7" }, "geometry": { "type": "Point", "coordinates": [ 8.7002566, 49.4095083 ] } },
{ "type": "Feature", "properties": { "index": "94", "last_edit_year": 2025, "years_since_edit": 1, "label": "0.0–1.5 yr", "color": "#f6eff7" }, "geometry": { "type": "Point", "coordinates": [ 8.7018271, 49.4109969 ] } },
{ "type": "Feature", "properties": { "index": "95", "last_edit_year": 2025, "years_since_edit": 1, "label": "0.0–1.5 yr", "color": "#f6eff7" }, "geometry": { "type": "Point", "coordinates": [ 8.6887219, 49.4079846 ] } },
{ "type": "Feature", "properties": { "index": "96", "last_edit_year": 2025, "years_since_edit": 1, "label": "0.0–1.5 yr", "color": "#f6eff7" }, "geometry": { "type": "Point", "coordinates": [ 8.708951, 49.4127586 ] } },
{ "type": "Feature", "properties": { "index": "97", "last_edit_year": 2025, "years_since_edit": 1, "label": "0.0–1.5 yr", "color": "#f6eff7" }, "geometry": { "type": "Point", "coordinates": [ 8.671097, 49.4126826 ] } },
{ "type": "Feature", "properties": { "index": "98", "last_edit_year": 2024, "years_since_edit": 2, "label": "1.5–6.5 yr", "color": "#67a9cf" }, "geometry": { "type": "Point", "coordinates": [ 8.6957273, 49.4098894 ] } },
{ "type": "Feature", "properties": { "index": "99", "last_edit_year": 2026, "years_since_edit": 0, "label": "0.0–1.5 yr", "color": "#f6eff7" }, "geometry": { "type": "Point", "coordinates": [ 8.6758306, 49.4172298 ] } },
{ "type": "Feature", "properties": { "index": "100", "last_edit_year": 2026, "years_since_edit": 0, "label": "0.0–1.5 yr", "color": "#f6eff7" }, "geometry": { "type": "Point", "coordinates": [ 8.6842526, 49.4086404 ] } },
{ "type": "Feature", "properties": { "index": "101", "last_edit_year": 2024, "years_since_edit": 2, "label": "1.5–6.5 yr", "color": "#67a9cf" }, "geometry": { "type": "Point", "coordinates": [ 8.6799684, 49.4141257 ] } },
{ "type": "Feature", "properties": { "index": "102", "last_edit_year": 2025, "years_since_edit": 1, "label": "0.0–1.5 yr", "color": "#f6eff7" }, "geometry": { "type": "Point", "coordinates": [ 8.7058892, 49.4097516 ] } },
{ "type": "Feature", "properties": { "index": "103", "last_edit_year": 2024, "years_since_edit": 2, "label": "1.5–6.5 yr", "color": "#67a9cf" }, "geometry": { "type": "Point", "coordinates": [ 8.7132063, 49.4128998 ] } },
{ "type": "Feature", "properties": { "index": "104", "last_edit_year": 2025, "years_since_edit": 1, "label": "0.0–1.5 yr", "color": "#f6eff7" }, "geometry": { "type": "Point", "coordinates": [ 8.7083167, 49.4124781 ] } },
{ "type": "Feature", "properties": { "index": "105", "last_edit_year": 2025, "years_since_edit": 1, "label": "0.0–1.5 yr", "color": "#f6eff7" }, "geometry": { "type": "Point", "coordinates": [ 8.6795902, 49.409495 ] } },
{ "type": "Feature", "properties": { "index": "106", "last_edit_year": 2024, "years_since_edit": 2, "label": "1.5–6.5 yr", "color": "#67a9cf" }, "geometry": { "type": "Point", "coordinates": [ 8.7042745, 49.4117 ] } },
{ "type": "Feature", "properties": { "index": "107", "last_edit_year": 2024, "years_since_edit": 2, "label": "1.5–6.5 yr", "color": "#67a9cf" }, "geometry": { "type": "Point", "coordinates": [ 8.7078944, 49.4110783 ] } },
{ "type": "Feature", "properties": { "index": "108", "last_edit_year": 2024, "years_since_edit": 2, "label": "1.5–6.5 yr", "color": "#67a9cf" }, "geometry": { "type": "Point", "coordinates": [ 8.6969452, 49.4087285 ] } },
{ "type": "Feature", "properties": { "index": "109", "last_edit_year": 2025, "years_since_edit": 1, "label": "0.0–1.5 yr", "color": "#f6eff7" }, "geometry": { "type": "Point", "coordinates": [ 8.6900756, 49.410055 ] } },
{ "type": "Feature", "properties": { "index": "110", "last_edit_year": 2026, "years_since_edit": 0, "label": "0.0–1.5 yr", "color": "#f6eff7" }, "geometry": { "type": "Point", "coordinates": [ 8.6911774, 49.4068121 ] } },
{ "type": "Feature", "properties": { "index": "111", "last_edit_year": 2026, "years_since_edit": 0, "label": "0.0–1.5 yr", "color": "#f6eff7" }, "geometry": { "type": "Point", "coordinates": [ 8.6774382, 49.4077213 ] } },
{ "type": "Feature", "properties": { "index": "112", "last_edit_year": 2024, "years_since_edit": 2, "label": "1.5–6.5 yr", "color": "#67a9cf" }, "geometry": { "type": "Point", "coordinates": [ 8.6737651, 49.4030052 ] } },
{ "type": "Feature", "properties": { "index": "113", "last_edit_year": 2026, "years_since_edit": 0, "label": "0.0–1.5 yr", "color": "#f6eff7" }, "geometry": { "type": "Point", "coordinates": [ 8.7045642, 49.4124913 ] } },
{ "type": "Feature", "properties": { "index": "114", "last_edit_year": 2026, "years_since_edit": 0, "label": "0.0–1.5 yr", "color": "#f6eff7" }, "geometry": { "type": "Point", "coordinates": [ 8.6754916, 49.4073796 ] } },
{ "type": "Feature", "properties": { "index": "115", "last_edit_year": 2026, "years_since_edit": 0, "label": "0.0–1.5 yr", "color": "#f6eff7" }, "geometry": { "type": "Point", "coordinates": [ 8.6752306, 49.4073832 ] } },
{ "type": "Feature", "properties": { "index": "116", "last_edit_year": 2026, "years_since_edit": 0, "label": "0.0–1.5 yr", "color": "#f6eff7" }, "geometry": { "type": "Point", "coordinates": [ 8.6898795, 49.4143881 ] } },
{ "type": "Feature", "properties": { "index": "117", "last_edit_year": 2026, "years_since_edit": 0, "label": "0.0–1.5 yr", "color": "#f6eff7" }, "geometry": { "type": "Point", "coordinates": [ 8.6818978, 49.408535 ] } }
]
}
