{
"type": "FeatureCollection",
"features": [
{ "type": "Feature", "properties": { "index": "0", "@osmId": "relation/162528", "name": "Universitätsbibliothek", "opening_hours": "Mo-Fr 08:30-01:00; Sa,Su 09:00-01:00", "label": "Cool places", "color": "#3182bd" }, "geometry": { "type": "Polygon", "coordinates": [ [ [ 8.7062567, 49.4097357 ], [ 8.7062457, 49.409742 ], [ 8.7062572, 49.4097521 ], [ 8.7062539, 49.4097629 ], [ 8.7062573, 49.4097634 ], [ 8.7061768, 49.4099836 ], [ 8.7061714, 49.4099828 ], [ 8.7060843, 49.4102254 ], [ 8.7060662, 49.4102734 ], [ 8.7060562, 49.4102978 ], [ 8.7060324, 49.4102943 ], [ 8.7053026, 49.4101768 ], [ 8.7056015, 49.4096384 ], [ 8.7056396, 49.4096228 ], [ 8.7056512, 49.4096288 ], [ 8.7058027, 49.4096386 ], [ 8.7058025, 49.4096336 ], [ 8.7058475, 49.4096367 ], [ 8.7058471, 49.4096396 ], [ 8.7058533, 49.40964 ], [ 8.7058525, 49.4096456 ], [ 8.7058765, 49.4096471 ], [ 8.7058774, 49.4096416 ], [ 8.7058835, 49.409642 ], [ 8.7058839, 49.409639 ], [ 8.7058939, 49.4096397 ], [ 8.7058979, 49.4096485 ], [ 8.7059072, 49.4096491 ], [ 8.7059164, 49.4096497 ], [ 8.7059212, 49.4096414 ], [ 8.7059338, 49.4096423 ], [ 8.7059333, 49.4096452 ], [ 8.7059396, 49.4096456 ], [ 8.7059388, 49.4096511 ], [ 8.7059634, 49.4096527 ], [ 8.7059642, 49.4096472 ], [ 8.7059702, 49.4096475 ], [ 8.7059706, 49.4096446 ], [ 8.7060128, 49.4096475 ], [ 8.7060123, 49.4096528 ], [ 8.7061654, 49.4096626 ], [ 8.7061706, 49.4096707 ], [ 8.706185, 49.4096661 ], [ 8.7061992, 49.4096639 ], [ 8.7062139, 49.4096637 ], [ 8.7062283, 49.4096656 ], [ 8.7062416, 49.4096696 ], [ 8.7062533, 49.4096753 ], [ 8.7062628, 49.4096826 ], [ 8.7062696, 49.4096911 ], [ 8.7062733, 49.4097003 ], [ 8.7062739, 49.4097099 ], [ 8.7062712, 49.4097192 ], [ 8.7062654, 49.409728 ], [ 8.7062567, 49.4097357 ] ], [ [ 8.7056461, 49.4099359 ], [ 8.7055245, 49.4101537 ], [ 8.7058787, 49.4102177 ], [ 8.7058907, 49.4102198 ], [ 8.7058996, 49.4101959 ], [ 8.7059914, 49.4099478 ], [ 8.7060526, 49.4099576 ], [ 8.7060624, 49.4099275 ], [ 8.7060528, 49.4099232 ], [ 8.7060473, 49.4099163 ], [ 8.7060454, 49.4099087 ], [ 8.7060452, 49.4099011 ], [ 8.7060501, 49.4098936 ], [ 8.7059771, 49.4098888 ], [ 8.705976, 49.4099017 ], [ 8.7057719, 49.4098883 ], [ 8.7057727, 49.4098757 ], [ 8.7056991, 49.4098706 ], [ 8.7057031, 49.4098824 ], [ 8.7057, 49.4098935 ], [ 8.7056924, 49.4099029 ], [ 8.7056801, 49.4099093 ], [ 8.7056639, 49.4099127 ], [ 8.7056491, 49.4099118 ], [ 8.7056312, 49.4099066 ], [ 8.7056237, 49.4099023 ], [ 8.70561, 49.4099273 ], [ 8.7056461, 49.4099359 ] ] ] } },
{ "type": "Feature", "properties": { "index": "1", "@osmId": "relation/18092541", "name": "Bella Park", "opening_hours": null, "label": "Cool places", "color": "#3182bd" }, "geometry": { "type": "MultiPolygon", "coordinates": [ [ [ [ 8.6839851, 49.4056288 ], [ 8.684003, 49.4056493 ], [ 8.6837127, 49.4055881 ], [ 8.683452, 49.4055374 ], [ 8.6831832, 49.4054867 ], [ 8.6825919, 49.4053765 ], [ 8.6822399, 49.40531 ], [ 8.6822091, 49.4053217 ], [ 8.6819756, 49.4052795 ], [ 8.6812437, 49.4051524 ], [ 8.6812629, 49.4051032 ], [ 8.6812072, 49.4050922 ], [ 8.6812666, 49.4049411 ], [ 8.681826, 49.4050438 ], [ 8.6821938, 49.4051036 ], [ 8.6821999, 49.4050833 ], [ 8.6829921, 49.405225 ], [ 8.6835488, 49.405324 ], [ 8.683831, 49.4053852 ], [ 8.6838535, 49.4053899 ], [ 8.6838818, 49.4054707 ], [ 8.6839018, 49.4055179 ], [ 8.6839259, 49.4055637 ], [ 8.6839851, 49.4056288 ] ] ], [ [ [ 8.6775358, 49.4045301 ], [ 8.6774511, 49.4045342 ], [ 8.6774481, 49.4045159 ], [ 8.6775658, 49.4044977 ], [ 8.6777306, 49.4044808 ], [ 8.6778838, 49.4044706 ], [ 8.6781364, 49.4044593 ], [ 8.6782816, 49.4044592 ], [ 8.678415, 49.4044629 ], [ 8.6785714, 49.4044748 ], [ 8.6787186, 49.4044878 ], [ 8.678866, 49.4045068 ], [ 8.6789954, 49.4045257 ], [ 8.6791155, 49.4045446 ], [ 8.6793973, 49.4045944 ], [ 8.6796981, 49.4046471 ], [ 8.6800865, 49.4047123 ], [ 8.6806147, 49.4048068 ], [ 8.6810701, 49.404885 ], [ 8.6809784, 49.4051051 ], [ 8.6808037, 49.405073 ], [ 8.6802068, 49.4049677 ], [ 8.6798045, 49.4048991 ], [ 8.6793923, 49.4048261 ], [ 8.6790177, 49.4047573 ], [ 8.6787438, 49.4047117 ], [ 8.6787509, 49.4047003 ], [ 8.6784798, 49.404652 ], [ 8.6782399, 49.4046136 ], [ 8.6781997, 49.4046104 ], [ 8.678015, 49.4045797 ], [ 8.6778364, 49.4045539 ], [ 8.6777519, 49.4045437 ], [ 8.6776481, 49.4045329 ], [ 8.6775912, 49.4045304 ], [ 8.6775358, 49.4045301 ] ] ] ] } },
{ "type": "Feature", "properties": { "index": "2", "@osmId": "relation/14976574", "name": "Kurpfäzisches Museum Heidelberg", "opening_hours": "Tu-Su 10:00-18:00", "label": "Cool places", "color": "#3182bd" }, "geometry": { "type": "MultiPolygon", "coordinates": [ [ [ [ 8.7031694, 49.4116975 ], [ 8.7031647, 49.4117196 ], [ 8.7031454, 49.4117868 ], [ 8.7031228, 49.4118674 ], [ 8.7031542, 49.4118733 ], [ 8.7031458, 49.4119033 ], [ 8.7033086, 49.4119238 ], [ 8.7033036, 49.4119383 ], [ 8.7033771, 49.4119476 ], [ 8.7033851, 49.4119304 ], [ 8.7033944, 49.4119325 ], [ 8.7033885, 49.4119733 ], [ 8.7033906, 49.4120102 ], [ 8.7033271, 49.4120056 ], [ 8.7032868, 49.4119863 ], [ 8.7032835, 49.4119953 ], [ 8.7032538, 49.4119908 ], [ 8.7032127, 49.4119861 ], [ 8.7031971, 49.4120438 ], [ 8.7031563, 49.4121028 ], [ 8.7030159, 49.4120877 ], [ 8.7030177, 49.4120739 ], [ 8.7029959, 49.4120716 ], [ 8.7029877, 49.4121153 ], [ 8.7029042, 49.4121061 ], [ 8.70286, 49.4122606 ], [ 8.7027871, 49.412252 ], [ 8.7027805, 49.4122631 ], [ 8.7027458, 49.412258 ], [ 8.7027445, 49.4122464 ], [ 8.7026836, 49.4122399 ], [ 8.7026901, 49.4121944 ], [ 8.7025967, 49.4121836 ], [ 8.7025887, 49.4122056 ], [ 8.7024564, 49.4121866 ], [ 8.7024472, 49.4122102 ], [ 8.7023831, 49.4122007 ], [ 8.7023808, 49.4122115 ], [ 8.7023391, 49.4122066 ], [ 8.7023419, 49.4121947 ], [ 8.7023159, 49.4121899 ], [ 8.7022773, 49.4121828 ], [ 8.702302, 49.4120751 ], [ 8.7022251, 49.4120639 ], [ 8.7022356, 49.4119962 ], [ 8.7022998, 49.4120013 ], [ 8.7023079, 49.411961 ], [ 8.702378, 49.4119682 ], [ 8.7023846, 49.411945 ], [ 8.7025178, 49.4119647 ], [ 8.7025212, 49.4119511 ], [ 8.7025252, 49.4119352 ], [ 8.7026497, 49.4119517 ], [ 8.7027664, 49.4119672 ], [ 8.7027588, 49.4119945 ], [ 8.7028219, 49.4120022 ], [ 8.7028242, 49.4119927 ], [ 8.7028623, 49.4119969 ], [ 8.702859, 49.4120072 ], [ 8.7029277, 49.4120156 ], [ 8.7029975, 49.4117631 ], [ 8.7029685, 49.4117591 ], [ 8.7029714, 49.4116708 ], [ 8.7029721, 49.4116425 ], [ 8.7028807, 49.4116178 ], [ 8.7029203, 49.4114974 ], [ 8.7029539, 49.4115025 ], [ 8.7029685, 49.4114663 ], [ 8.7028926, 49.411454 ], [ 8.7027558, 49.4114317 ], [ 8.7027499, 49.4114452 ], [ 8.7027684, 49.4114485 ], [ 8.7027788, 49.4114567 ], [ 8.7027792, 49.4114669 ], [ 8.7027723, 49.4114751 ], [ 8.7027554, 49.4114814 ], [ 8.7026965, 49.4114714 ], [ 8.7026582, 49.4115603 ], [ 8.7026667, 49.4115631 ], [ 8.7026649, 49.4115742 ], [ 8.7026547, 49.4116335 ], [ 8.7024729, 49.4116216 ], [ 8.7024779, 49.411589 ], [ 8.7024312, 49.4115874 ], [ 8.7024234, 49.4115872 ], [ 8.7024247, 49.4115703 ], [ 8.7022953, 49.4115667 ], [ 8.7022973, 49.4114933 ], [ 8.7024275, 49.411496 ], [ 8.7025028, 49.4114996 ], [ 8.7024852, 49.4115511 ], [ 8.7025618, 49.411554 ], [ 8.7026034, 49.4114584 ], [ 8.7026164, 49.4114249 ], [ 8.7026558, 49.411431 ], [ 8.7027021, 49.4114395 ], [ 8.7027238, 49.4113944 ], [ 8.7027652, 49.4113027 ], [ 8.7029381, 49.4113309 ], [ 8.7031086, 49.4113585 ], [ 8.7030692, 49.4114876 ], [ 8.7030076, 49.4116571 ], [ 8.7031004, 49.4116887 ], [ 8.7031381, 49.4116948 ], [ 8.7031694, 49.4116975 ] ] ], [ [ [ 8.7032255, 49.4117334 ], [ 8.7032349, 49.4117126 ], [ 8.7032607, 49.4117168 ], [ 8.7033337, 49.4117271 ], [ 8.703471, 49.4117472 ], [ 8.7035185, 49.4117541 ], [ 8.7034969, 49.4118101 ], [ 8.7032146, 49.4117738 ], [ 8.7032255, 49.4117334 ] ] ] ] } },
{ "type": "Feature", "properties": { "index": "3", "@osmId": "way/213504501", "name": "Unterer Neckar: Altneckar Heidelberg-Wieblingen", "opening_hours": null, "label": "Cool places", "color": "#3182bd" }, "geometry": { "type": "Polygon", "coordinates": [ [ [ 8.6679273, 49.4099013 ], [ 8.6681104, 49.4114029 ], [ 8.6676098, 49.4114307 ], [ 8.6674327, 49.4114347 ], [ 8.6671702, 49.4114267 ], [ 8.6669321, 49.4114228 ], [ 8.6666634, 49.4114267 ], [ 8.6661139, 49.4114744 ], [ 8.6651126, 49.4115976 ], [ 8.6640319, 49.4117803 ], [ 8.6631772, 49.411971 ], [ 8.6619316, 49.4123166 ], [ 8.6611929, 49.4125589 ], [ 8.6600634, 49.4132977 ], [ 8.66, 49.4133431 ], [ 8.66, 49.4122205 ], [ 8.6603503, 49.4120544 ], [ 8.6614066, 49.4116095 ], [ 8.6616142, 49.4115141 ], [ 8.6617851, 49.411391 ], [ 8.6618706, 49.4113195 ], [ 8.6619378, 49.4112917 ], [ 8.6620171, 49.4112917 ], [ 8.6621209, 49.4112996 ], [ 8.6622186, 49.4112758 ], [ 8.6622736, 49.4112043 ], [ 8.6623651, 49.4111288 ], [ 8.6624995, 49.4111209 ], [ 8.6629879, 49.4109858 ], [ 8.6629391, 49.4109381 ], [ 8.6629452, 49.4108944 ], [ 8.6630001, 49.4108706 ], [ 8.6631283, 49.4108388 ], [ 8.6631894, 49.4107872 ], [ 8.6632321, 49.4107554 ], [ 8.6633542, 49.4107355 ], [ 8.6634947, 49.4107395 ], [ 8.6637694, 49.4107236 ], [ 8.6643616, 49.4105528 ], [ 8.665137, 49.4103383 ], [ 8.6661445, 49.4101516 ], [ 8.6679273, 49.4099013 ] ] ] } },
{ "type": "Feature", "properties": { "index": "4", "@osmId": "way/787508363", "name": "Spitzes Eck", "opening_hours": null, "label": "Cool places", "color": "#3182bd" }, "geometry": { "type": "Polygon", "coordinates": [ [ [ 8.661979, 49.4046461 ], [ 8.6603327, 49.4049995 ], [ 8.6602523, 49.4049199 ], [ 8.6617433, 49.4042523 ], [ 8.6618681, 49.4043727 ], [ 8.661979, 49.4046461 ] ] ] } },
{ "type": "Feature", "properties": { "index": "5", "@osmId": "way/14195511", "name": "Jubiläumsplatz", "opening_hours": null, "label": "Cool places", "color": "#3182bd" }, "geometry": { "type": "Polygon", "coordinates": [ [ [ 8.6992373, 49.4122518 ], [ 8.6991867, 49.4122939 ], [ 8.6988138, 49.4122253 ], [ 8.6985878, 49.4121717 ], [ 8.6982484, 49.4120916 ], [ 8.6982398, 49.4120723 ], [ 8.6983963, 49.4119927 ], [ 8.6984511, 49.4119938 ], [ 8.6986142, 49.4119972 ], [ 8.6991224, 49.4120175 ], [ 8.6993138, 49.4120412 ], [ 8.6992373, 49.4122518 ] ] ] } },
{ "type": "Feature", "properties": { "index": "6", "@osmId": "way/27620764", "name": "Stadtbücherei", "opening_hours": "Tu-Fr 10:00-20:00; Sa 10:00-16:00; Su,Mo off", "label": "Cool places", "color": "#3182bd" }, "geometry": { "type": "Polygon", "coordinates": [ [ [ 8.6862061, 49.4068413 ], [ 8.686071, 49.4068177 ], [ 8.6862122, 49.4064752 ], [ 8.6864718, 49.4065198 ], [ 8.6865234, 49.4065292 ], [ 8.6865573, 49.4065349 ], [ 8.6865902, 49.4065411 ], [ 8.6869362, 49.406602 ], [ 8.6867952, 49.4069441 ], [ 8.6866241, 49.4069143 ], [ 8.6865219, 49.4068964 ], [ 8.6865002, 49.406949 ], [ 8.6863625, 49.406925 ], [ 8.6863842, 49.4068724 ], [ 8.6863333, 49.406863 ], [ 8.6862822, 49.406854 ], [ 8.6862707, 49.4068821 ], [ 8.6862518, 49.4068788 ], [ 8.6862332, 49.4068756 ], [ 8.6862446, 49.406848 ], [ 8.6862061, 49.4068413 ] ] ] } },
{ "type": "Feature", "properties": { "index": "7", "@osmId": "way/33610969", "name": "Stadtgarten", "opening_hours": null, "label": "Cool places", "color": "#3182bd" }, "geometry": { "type": "Polygon", "coordinates": [ [ [ 8.694568, 49.4075447 ], [ 8.6944735, 49.4074879 ], [ 8.694391, 49.4069419 ], [ 8.6952866, 49.4069416 ], [ 8.695216, 49.4071534 ], [ 8.6952172, 49.4071878 ], [ 8.6954422, 49.4074903 ], [ 8.6956103, 49.407675 ], [ 8.6957371, 49.4077202 ], [ 8.6957129, 49.4077605 ], [ 8.6949489, 49.4076276 ], [ 8.694568, 49.4075447 ] ] ] } },
{ "type": "Feature", "properties": { "index": "8", "@osmId": "way/35866606", "name": "Sammlung Prinzhorn", "opening_hours": "Mo off; Tu,Th-Su,PH 11:00-17:00; We 11:00-20:00", "label": "Cool places", "color": "#3182bd" }, "geometry": { "type": "Polygon", "coordinates": [ [ [ 8.6886477, 49.4098741 ], [ 8.6885743, 49.4098609 ], [ 8.6886407, 49.4097041 ], [ 8.688706, 49.4097158 ], [ 8.6887084, 49.4097101 ], [ 8.6887295, 49.4097139 ], [ 8.6887308, 49.4097106 ], [ 8.6888508, 49.4097321 ], [ 8.6888494, 49.4097353 ], [ 8.688868, 49.4097386 ], [ 8.6888655, 49.4097443 ], [ 8.6889332, 49.4097564 ], [ 8.6888669, 49.4099129 ], [ 8.6887944, 49.4098999 ], [ 8.6888007, 49.409885 ], [ 8.6887525, 49.4098764 ], [ 8.6887506, 49.4098807 ], [ 8.688727, 49.4098765 ], [ 8.6887035, 49.4098722 ], [ 8.6887053, 49.4098681 ], [ 8.6886541, 49.4098589 ], [ 8.6886477, 49.4098741 ] ] ] } },
{ "type": "Feature", "properties": { "index": "9", "@osmId": "way/35982105", "name": "Schwanenteichanlage", "opening_hours": null, "label": "Cool places", "color": "#3182bd" }, "geometry": { "type": "Polygon", "coordinates": [ [ [ 8.6855404, 49.4068036 ], [ 8.6854665, 49.4065259 ], [ 8.6856075, 49.4062079 ], [ 8.6884597, 49.4066989 ], [ 8.6895827, 49.4068922 ], [ 8.6894184, 49.4072594 ], [ 8.6884157, 49.4070814 ], [ 8.6883053, 49.4073384 ], [ 8.6868875, 49.4070554 ], [ 8.6865143, 49.4069809 ], [ 8.6855404, 49.4068036 ] ] ] } },
{ "type": "Feature", "properties": { "index": "10", "@osmId": "way/36822132", "name": "Adenauerplatz", "opening_hours": null, "label": "Cool places", "color": "#3182bd" }, "geometry": { "type": "Polygon", "coordinates": [ [ [ 8.6941376, 49.4075215 ], [ 8.6939215, 49.4074879 ], [ 8.6929589, 49.40732 ], [ 8.6929026, 49.4072948 ], [ 8.6928674, 49.4072713 ], [ 8.6928413, 49.4072402 ], [ 8.6928325, 49.4072027 ], [ 8.6928398, 49.4071706 ], [ 8.6928597, 49.4071385 ], [ 8.6928879, 49.4071157 ], [ 8.6929299, 49.4070947 ], [ 8.6929817, 49.4070785 ], [ 8.6931018, 49.4070574 ], [ 8.6933861, 49.4070147 ], [ 8.6935422, 49.4069984 ], [ 8.6936893, 49.4069888 ], [ 8.693842, 49.4069833 ], [ 8.6939598, 49.4069957 ], [ 8.6940329, 49.4070192 ], [ 8.6940784, 49.4070402 ], [ 8.6941287, 49.4070699 ], [ 8.6941784, 49.4071223 ], [ 8.6942097, 49.4071808 ], [ 8.6942604, 49.4074682 ], [ 8.6942436, 49.4074994 ], [ 8.6942173, 49.4075164 ], [ 8.6941788, 49.4075234 ], [ 8.6941376, 49.4075215 ] ] ] } },
{ "type": "Feature", "properties": { "index": "11", "@osmId": "way/43060855", "name": "Das Carré", "opening_hours": null, "label": "Cool places", "color": "#3182bd" }, "geometry": { "type": "Polygon", "coordinates": [ [ [ 8.6914347, 49.4080123 ], [ 8.69132, 49.4079922 ], [ 8.6914457, 49.4076851 ], [ 8.691523, 49.4074963 ], [ 8.6916171, 49.4072684 ], [ 8.691921, 49.4073292 ], [ 8.6923753, 49.40742 ], [ 8.6923187, 49.4075589 ], [ 8.6923711, 49.4075678 ], [ 8.6923821, 49.4075697 ], [ 8.6923576, 49.4076285 ], [ 8.692338, 49.4076758 ], [ 8.6923102, 49.4076714 ], [ 8.6922739, 49.4076655 ], [ 8.6922485, 49.4078381 ], [ 8.69221, 49.4080998 ], [ 8.6920941, 49.4080899 ], [ 8.6920801, 49.4081251 ], [ 8.6916878, 49.4080565 ], [ 8.6915623, 49.4080346 ], [ 8.6914347, 49.4080123 ] ] ] } },
{ "type": "Feature", "properties": { "index": "12", "@osmId": "way/49501404", "name": "Neue Synagoge Heidelberg", "opening_hours": null, "label": "Cool places", "color": "#3182bd" }, "geometry": { "type": "Polygon", "coordinates": [ [ [ 8.6903582, 49.4046089 ], [ 8.6899344, 49.4046705 ], [ 8.6899156, 49.4046156 ], [ 8.689941, 49.4046124 ], [ 8.689934, 49.4045916 ], [ 8.6899087, 49.4045948 ], [ 8.6899031, 49.4045787 ], [ 8.6898457, 49.4044106 ], [ 8.6898363, 49.4043793 ], [ 8.6898598, 49.4043766 ], [ 8.6898539, 49.4043551 ], [ 8.6898275, 49.4043585 ], [ 8.6898101, 49.4043062 ], [ 8.6902353, 49.4042444 ], [ 8.6901706, 49.4043116 ], [ 8.69015, 49.4043138 ], [ 8.6901614, 49.4043505 ], [ 8.6901713, 49.4043784 ], [ 8.6902104, 49.4043778 ], [ 8.6902343, 49.4043831 ], [ 8.6902627, 49.4043965 ], [ 8.6902803, 49.4044124 ], [ 8.6902999, 49.4044092 ], [ 8.6903116, 49.4044431 ], [ 8.6902913, 49.4044446 ], [ 8.6902878, 49.4044602 ], [ 8.6902727, 49.4044809 ], [ 8.6902476, 49.4044969 ], [ 8.6902155, 49.4045063 ], [ 8.6902278, 49.4045384 ], [ 8.6902364, 49.4045698 ], [ 8.6902587, 49.4045669 ], [ 8.6903582, 49.4046089 ] ] ] } },
{ "type": "Feature", "properties": { "index": "13", "@osmId": "way/90867330", "name": "Neuapostolische Kirche", "opening_hours": null, "label": "Cool places", "color": "#3182bd" }, "geometry": { "type": "Polygon", "coordinates": [ [ [ 8.6873708, 49.4138235 ], [ 8.6873175, 49.4138195 ], [ 8.6873417, 49.4136841 ], [ 8.6873783, 49.4136869 ], [ 8.6873809, 49.4136724 ], [ 8.6873435, 49.4136695 ], [ 8.6873446, 49.4136637 ], [ 8.6877266, 49.4136926 ], [ 8.687726, 49.4136961 ], [ 8.6877172, 49.4136954 ], [ 8.6877144, 49.4137109 ], [ 8.6877388, 49.4137128 ], [ 8.6877382, 49.4137165 ], [ 8.6877301, 49.4137159 ], [ 8.6877204, 49.4137703 ], [ 8.6877757, 49.4137745 ], [ 8.6877675, 49.4138208 ], [ 8.6877103, 49.4138164 ], [ 8.6877087, 49.4138251 ], [ 8.687718, 49.4138258 ], [ 8.6877171, 49.4138307 ], [ 8.6876911, 49.4138287 ], [ 8.6876872, 49.4138504 ], [ 8.6876749, 49.4138495 ], [ 8.6876754, 49.4138473 ], [ 8.687531, 49.4138342 ], [ 8.6875228, 49.4138721 ], [ 8.6873642, 49.4138601 ], [ 8.6873708, 49.4138235 ] ] ] } },
{ "type": "Feature", "properties": { "index": "14", "@osmId": "way/91083997", "name": "Jakobuskirche", "opening_hours": null, "label": "Cool places", "color": "#3182bd" }, "geometry": { "type": "Polygon", "coordinates": [ [ [ 8.6795162, 49.4153384 ], [ 8.6795112, 49.4154678 ], [ 8.6793094, 49.4154644 ], [ 8.679311, 49.4154217 ], [ 8.6792629, 49.4154209 ], [ 8.6792651, 49.4153653 ], [ 8.6792426, 49.415365 ], [ 8.6792433, 49.4153464 ], [ 8.6792802, 49.415347 ], [ 8.6792812, 49.4153204 ], [ 8.6792817, 49.4153081 ], [ 8.6793303, 49.4153089 ], [ 8.6793301, 49.4153146 ], [ 8.6793546, 49.415315 ], [ 8.6793551, 49.415302 ], [ 8.6794843, 49.4153041 ], [ 8.679483, 49.4153379 ], [ 8.6795162, 49.4153384 ] ] ] } },
{ "type": "Feature", "properties": { "index": "15", "@osmId": "way/92838836", "name": "St. Bonifatius", "opening_hours": null, "label": "Cool places", "color": "#3182bd" }, "geometry": { "type": "Polygon", "coordinates": [ [ [ 8.6873729, 49.403716 ], [ 8.6873724, 49.4036617 ], [ 8.6874552, 49.4036614 ], [ 8.6874553, 49.4036657 ], [ 8.6875768, 49.4036653 ], [ 8.6875768, 49.4036606 ], [ 8.6876595, 49.4036604 ], [ 8.68766, 49.4037149 ], [ 8.6876621, 49.403972 ], [ 8.6877218, 49.4039718 ], [ 8.6877225, 49.4040643 ], [ 8.6877004, 49.4040644 ], [ 8.6876925, 49.4040812 ], [ 8.687669, 49.404093 ], [ 8.6876549, 49.4040934 ], [ 8.6876542, 49.4041102 ], [ 8.6877162, 49.4041102 ], [ 8.6877193, 49.4041659 ], [ 8.6876187, 49.4041668 ], [ 8.6876193, 49.4041604 ], [ 8.6875912, 49.4041602 ], [ 8.6875751, 49.4041473 ], [ 8.6875439, 49.4041626 ], [ 8.687499, 49.4041626 ], [ 8.6874681, 49.4041476 ], [ 8.6874473, 49.4041622 ], [ 8.6874235, 49.4041622 ], [ 8.6874239, 49.4041674 ], [ 8.6873273, 49.404167 ], [ 8.687327, 49.4041131 ], [ 8.687389, 49.4041131 ], [ 8.687389, 49.4040963 ], [ 8.6873702, 49.4040963 ], [ 8.6873501, 49.4040834 ], [ 8.6873453, 49.4040684 ], [ 8.6873192, 49.4040685 ], [ 8.6873185, 49.4039733 ], [ 8.687375, 49.4039731 ], [ 8.6873729, 49.403716 ] ] ] } },
{ "type": "Feature", "properties": { "index": "16", "@osmId": "way/96690335", "name": "Lutherkirche", "opening_hours": null, "label": "Cool places", "color": "#3182bd" }, "geometry": { "type": "Polygon", "coordinates": [ [ [ 8.6819817, 49.4085724 ], [ 8.6819011, 49.4085434 ], [ 8.6818969, 49.4084271 ], [ 8.6818968, 49.4084223 ], [ 8.6819689, 49.4083936 ], [ 8.6820542, 49.4083599 ], [ 8.6821481, 49.4083934 ], [ 8.6822172, 49.4084185 ], [ 8.6822171, 49.408449 ], [ 8.682221, 49.4085395 ], [ 8.6821416, 49.4085705 ], [ 8.6820622, 49.4086015 ], [ 8.6819817, 49.4085724 ] ] ] } },
{ "type": "Feature", "properties": { "index": "17", "@osmId": "way/108668052", "name": "Christuskirche", "opening_hours": null, "label": "Cool places", "color": "#3182bd" }, "geometry": { "type": "Polygon", "coordinates": [ [ [ 8.6856038, 49.4023423 ], [ 8.685594, 49.4023483 ], [ 8.6855875, 49.4023431 ], [ 8.6855486, 49.4023417 ], [ 8.6855482, 49.4023463 ], [ 8.6855359, 49.4023458 ], [ 8.6855366, 49.4023412 ], [ 8.685475, 49.402339 ], [ 8.6854628, 49.4023452 ], [ 8.6854481, 49.4023383 ], [ 8.6854424, 49.4023378 ], [ 8.6854065, 49.4023653 ], [ 8.6854107, 49.4023772 ], [ 8.6853971, 49.4023802 ], [ 8.6853918, 49.4023675 ], [ 8.6853338, 49.4023646 ], [ 8.6853195, 49.4023783 ], [ 8.6853059, 49.4023716 ], [ 8.685318, 49.4023603 ], [ 8.6852825, 49.4023317 ], [ 8.6852761, 49.4023318 ], [ 8.685263, 49.4023375 ], [ 8.6852555, 49.4023311 ], [ 8.6851705, 49.4023281 ], [ 8.6851739, 49.4022871 ], [ 8.68512, 49.4022852 ], [ 8.685121, 49.4022727 ], [ 8.6851309, 49.4022731 ], [ 8.6851346, 49.4022292 ], [ 8.6851272, 49.4022289 ], [ 8.6851283, 49.4022167 ], [ 8.6851353, 49.402217 ], [ 8.6851391, 49.4021714 ], [ 8.6851316, 49.4021711 ], [ 8.6851326, 49.4021598 ], [ 8.6851413, 49.4021601 ], [ 8.685145, 49.4021159 ], [ 8.6851365, 49.4021156 ], [ 8.6851374, 49.4021047 ], [ 8.6851476, 49.4021051 ], [ 8.6851515, 49.4020586 ], [ 8.6851426, 49.4020581 ], [ 8.6851442, 49.4020479 ], [ 8.6851855, 49.40205 ], [ 8.6851859, 49.4020464 ], [ 8.6851983, 49.4020474 ], [ 8.6852029, 49.4019897 ], [ 8.6852243, 49.4019904 ], [ 8.6852252, 49.4019801 ], [ 8.6852181, 49.4019757 ], [ 8.6852253, 49.4019703 ], [ 8.68523, 49.4019729 ], [ 8.6852429, 49.4019647 ], [ 8.6852414, 49.4019615 ], [ 8.6852511, 49.401959 ], [ 8.6852543, 49.4019639 ], [ 8.6852689, 49.401964 ], [ 8.6852731, 49.401959 ], [ 8.6852835, 49.4019647 ], [ 8.6852798, 49.401968 ], [ 8.6852878, 49.4019754 ], [ 8.6852945, 49.4019731 ], [ 8.6853009, 49.4019792 ], [ 8.6852932, 49.4019825 ], [ 8.6852924, 49.4019927 ], [ 8.685314, 49.4019934 ], [ 8.6853137, 49.4019972 ], [ 8.6853528, 49.4019986 ], [ 8.6853528, 49.4019912 ], [ 8.6853673, 49.4019917 ], [ 8.6853665, 49.401999 ], [ 8.6853751, 49.4019993 ], [ 8.6853801, 49.4020066 ], [ 8.6853933, 49.4020066 ], [ 8.6854064, 49.4020067 ], [ 8.6854106, 49.4020005 ], [ 8.6854243, 49.402001 ], [ 8.685424, 49.401994 ], [ 8.6854388, 49.4019941 ], [ 8.6854385, 49.4020015 ], [ 8.6854762, 49.4020028 ], [ 8.6854767, 49.4019983 ], [ 8.6854852, 49.4019933 ], [ 8.6855038, 49.4019938 ], [ 8.6855117, 49.4019988 ], [ 8.6855118, 49.4020054 ], [ 8.6855192, 49.4020056 ], [ 8.6855188, 49.4020171 ], [ 8.6854933, 49.402016 ], [ 8.6854919, 49.4020333 ], [ 8.6854983, 49.4020335 ], [ 8.685496, 49.4020618 ], [ 8.685514, 49.4020624 ], [ 8.6855131, 49.4020738 ], [ 8.6854951, 49.4020732 ], [ 8.6854914, 49.402119 ], [ 8.6855084, 49.4021196 ], [ 8.6855079, 49.4021308 ], [ 8.6854905, 49.4021302 ], [ 8.6854884, 49.4021554 ], [ 8.6855005, 49.4021559 ], [ 8.6855042, 49.4021518 ], [ 8.6855139, 49.4021554 ], [ 8.6855095, 49.402159 ], [ 8.685515, 49.4021625 ], [ 8.6855212, 49.4021617 ], [ 8.6855246, 49.4021689 ], [ 8.6855208, 49.4021701 ], [ 8.6855202, 49.4021785 ], [ 8.6856029, 49.4021828 ], [ 8.6856104, 49.402178 ], [ 8.6856188, 49.4021831 ], [ 8.6856116, 49.4021868 ], [ 8.6856075, 49.4022412 ], [ 8.6856261, 49.4022561 ], [ 8.6856362, 49.4022551 ], [ 8.6856381, 49.4022622 ], [ 8.68563, 49.4022633 ], [ 8.6856279, 49.4022813 ], [ 8.6856362, 49.4022833 ], [ 8.6856331, 49.4022902 ], [ 8.685623, 49.402288 ], [ 8.6856, 49.4023034 ], [ 8.6855966, 49.4023371 ], [ 8.6856038, 49.4023423 ] ] ] } },
{ "type": "Feature", "properties": { "index": "18", "@osmId": "way/109508570", "name": null, "opening_hours": null, "label": "Cool places", "color": "#3182bd" }, "geometry": { "type": "Polygon", "coordinates": [ [ [ 8.689287, 49.3989361 ], [ 8.6893051, 49.3989272 ], [ 8.6893333, 49.3989244 ], [ 8.6893669, 49.3989292 ], [ 8.6894889, 49.3989944 ], [ 8.6895958, 49.3990613 ], [ 8.6896223, 49.3990885 ], [ 8.6896175, 49.3991068 ], [ 8.6895576, 49.3991614 ], [ 8.6895275, 49.3991633 ], [ 8.6894118, 49.3991503 ], [ 8.6891217, 49.3991119 ], [ 8.6889894, 49.3990919 ], [ 8.6891184, 49.399045 ], [ 8.6892177, 49.398992 ], [ 8.6892539, 49.3989704 ], [ 8.6892717, 49.3989493 ], [ 8.689287, 49.3989361 ] ] ] } },
{ "type": "Feature", "properties": { "index": "19", "@osmId": "way/131478144", "name": null, "opening_hours": null, "label": "Cool places", "color": "#3182bd" }, "geometry": { "type": "Polygon", "coordinates": [ [ [ 8.6929909, 49.4103222 ], [ 8.6930102, 49.4103247 ], [ 8.6929601, 49.4104324 ], [ 8.6928684, 49.4106285 ], [ 8.6928, 49.4107907 ], [ 8.6926861, 49.4110553 ], [ 8.6926609, 49.4111445 ], [ 8.6926146, 49.4111819 ], [ 8.6926052, 49.4112012 ], [ 8.6926101, 49.4112367 ], [ 8.6926233, 49.4112622 ], [ 8.6925915, 49.4112607 ], [ 8.6925167, 49.4112518 ], [ 8.6923958, 49.4112294 ], [ 8.6922955, 49.4112064 ], [ 8.6922249, 49.4111835 ], [ 8.6921727, 49.4111593 ], [ 8.6921176, 49.411129 ], [ 8.6920881, 49.4110828 ], [ 8.6920679, 49.4110339 ], [ 8.692094, 49.4110301 ], [ 8.692116, 49.411073 ], [ 8.6921495, 49.4111084 ], [ 8.6921924, 49.4111392 ], [ 8.6922568, 49.4111695 ], [ 8.6923335, 49.4111932 ], [ 8.6924171, 49.4112071 ], [ 8.6924575, 49.4112115 ], [ 8.692518, 49.411205 ], [ 8.6925817, 49.4111824 ], [ 8.6926167, 49.4111631 ], [ 8.6926435, 49.4111418 ], [ 8.6926508, 49.4111224 ], [ 8.6926433, 49.4111102 ], [ 8.6926222, 49.4111069 ], [ 8.6925852, 49.4111256 ], [ 8.6925481, 49.4111476 ], [ 8.6924896, 49.4111668 ], [ 8.692429, 49.411172 ], [ 8.6923768, 49.4111638 ], [ 8.6923133, 49.4111422 ], [ 8.6922509, 49.4111187 ], [ 8.6921917, 49.4110817 ], [ 8.6921448, 49.4110307 ], [ 8.6921277, 49.4109805 ], [ 8.6921321, 49.4109297 ], [ 8.6921587, 49.4108711 ], [ 8.6925074, 49.4102499 ], [ 8.6925177, 49.4102509 ], [ 8.6925625, 49.4102614 ], [ 8.6926344, 49.4102036 ], [ 8.6927323, 49.410221 ], [ 8.6927082, 49.4102939 ], [ 8.6927159, 49.4103001 ], [ 8.692739, 49.4103188 ], [ 8.6929474, 49.4103608 ], [ 8.6929909, 49.4103222 ] ] ] } },
{ "type": "Feature", "properties": { "index": "20", "@osmId": "way/140317953", "name": "Sankt Anna", "opening_hours": null, "label": "Cool places", "color": "#3182bd" }, "geometry": { "type": "Polygon", "coordinates": [ [ [ 8.6957487, 49.4087135 ], [ 8.6957328, 49.408848 ], [ 8.6956954, 49.4088461 ], [ 8.6956948, 49.4088507 ], [ 8.6956469, 49.4088483 ], [ 8.6956027, 49.408846 ], [ 8.6956031, 49.4088425 ], [ 8.6955551, 49.4088401 ], [ 8.6955768, 49.4086453 ], [ 8.6956049, 49.4086469 ], [ 8.6956092, 49.4086145 ], [ 8.6956411, 49.4085974 ], [ 8.6956907, 49.408599 ], [ 8.6957049, 49.4086071 ], [ 8.6957689, 49.4086103 ], [ 8.6957566, 49.4087139 ], [ 8.6957487, 49.4087135 ] ] ] } },
{ "type": "Feature", "properties": { "index": "21", "@osmId": "way/367010021", "name": null, "opening_hours": null, "label": "Cool places", "color": "#3182bd" }, "geometry": { "type": "Polygon", "coordinates": [ [ [ 8.6855058, 49.3984019 ], [ 8.6861398, 49.3983142 ], [ 8.6861116, 49.3986937 ], [ 8.6859063, 49.3986834 ], [ 8.6856754, 49.3986435 ], [ 8.6855439, 49.3985422 ], [ 8.6855197, 49.3984925 ], [ 8.6855058, 49.3984019 ] ] ] } },
{ "type": "Feature", "properties": { "index": "22", "@osmId": "way/445177089", "name": null, "opening_hours": null, "label": "Cool places", "color": "#3182bd" }, "geometry": { "type": "Polygon", "coordinates": [ [ [ 8.6974501, 49.4095584 ], [ 8.6974485, 49.4095625 ], [ 8.6973036, 49.4095407 ], [ 8.6973, 49.4095404 ], [ 8.6973012, 49.4095356 ], [ 8.6973034, 49.4095358 ], [ 8.6973104, 49.4095154 ], [ 8.6973075, 49.4095149 ], [ 8.6973098, 49.4095098 ], [ 8.6973127, 49.4095102 ], [ 8.697323, 49.4094829 ], [ 8.6973201, 49.4094823 ], [ 8.697322, 49.4094768 ], [ 8.6973247, 49.4094774 ], [ 8.6973351, 49.4094496 ], [ 8.6973324, 49.4094492 ], [ 8.6973343, 49.4094438 ], [ 8.697337, 49.4094443 ], [ 8.697345, 49.4094243 ], [ 8.6973477, 49.4094169 ], [ 8.6973445, 49.4094162 ], [ 8.6973467, 49.4094108 ], [ 8.6973497, 49.4094112 ], [ 8.6973602, 49.4093842 ], [ 8.697357, 49.4093837 ], [ 8.6973589, 49.4093783 ], [ 8.6973619, 49.4093788 ], [ 8.6973699, 49.4093568 ], [ 8.6973551, 49.4093536 ], [ 8.6973542, 49.409356 ], [ 8.6973428, 49.4093542 ], [ 8.6973451, 49.4093482 ], [ 8.6973484, 49.4093488 ], [ 8.6973653, 49.4093056 ], [ 8.697363, 49.4093052 ], [ 8.6973652, 49.4092997 ], [ 8.6973736, 49.4093012 ], [ 8.6973732, 49.4093027 ], [ 8.6974197, 49.4093099 ], [ 8.6974219, 49.409304 ], [ 8.6974304, 49.4093054 ], [ 8.69743, 49.4093068 ], [ 8.6974629, 49.409312 ], [ 8.6974958, 49.4093172 ], [ 8.6974965, 49.4093156 ], [ 8.6975053, 49.409317 ], [ 8.6975029, 49.4093232 ], [ 8.6975665, 49.4093324 ], [ 8.6975564, 49.4093585 ], [ 8.6975935, 49.409365 ], [ 8.6975743, 49.409411 ], [ 8.6975069, 49.4093992 ], [ 8.6975059, 49.4094012 ], [ 8.6975094, 49.4094018 ], [ 8.6975076, 49.4094067 ], [ 8.6975048, 49.4094064 ], [ 8.6974944, 49.4094338 ], [ 8.6974981, 49.4094344 ], [ 8.6974959, 49.4094399 ], [ 8.6974925, 49.4094393 ], [ 8.6974821, 49.4094663 ], [ 8.6974859, 49.4094669 ], [ 8.6974838, 49.4094728 ], [ 8.6974805, 49.4094723 ], [ 8.6974702, 49.409499 ], [ 8.6974736, 49.4094996 ], [ 8.6974713, 49.4095053 ], [ 8.6974682, 49.4095048 ], [ 8.6974583, 49.4095318 ], [ 8.6974613, 49.4095323 ], [ 8.697459, 49.4095385 ], [ 8.6974565, 49.409538 ], [ 8.6974484, 49.4095581 ], [ 8.6974501, 49.4095584 ] ] ] } },
{ "type": "Feature", "properties": { "index": "23", "@osmId": "way/488810534", "name": null, "opening_hours": null, "label": "Cool places", "color": "#3182bd" }, "geometry": { "type": "Polygon", "coordinates": [ [ [ 8.6891891, 49.3980711 ], [ 8.6891223, 49.398 ], [ 8.6892568, 49.398 ], [ 8.6892468, 49.398031 ], [ 8.6891891, 49.3980711 ] ] ] } },
{ "type": "Feature", "properties": { "index": "24", "@osmId": "way/692214547", "name": "Gerhart-Hauptmann-Platz", "opening_hours": null, "label": "Cool places", "color": "#3182bd" }, "geometry": { "type": "Polygon", "coordinates": [ [ [ 8.6809196, 49.4141765 ], [ 8.6811315, 49.4141329 ], [ 8.6813112, 49.414515 ], [ 8.6812603, 49.414529 ], [ 8.680846, 49.4144849 ], [ 8.6808069, 49.4144671 ], [ 8.6808212, 49.4144224 ], [ 8.6809196, 49.4141765 ] ] ] } },
{ "type": "Feature", "properties": { "index": "25", "@osmId": "way/704764162", "name": null, "opening_hours": null, "label": "Cool places", "color": "#3182bd" }, "geometry": { "type": "Polygon", "coordinates": [ [ [ 8.6913677, 49.4000186 ], [ 8.6914059, 49.400132 ], [ 8.6912003, 49.4001663 ], [ 8.6911902, 49.4001327 ], [ 8.6911654, 49.4001042 ], [ 8.691116, 49.4000698 ], [ 8.6913205, 49.3999725 ], [ 8.6913677, 49.4000186 ] ] ] } },
{ "type": "Feature", "properties": { "index": "26", "@osmId": "way/711985308", "name": "Sofienquartier", "opening_hours": "Mo-Sa 08:00-21:30", "label": "Cool places", "color": "#3182bd" }, "geometry": { "type": "Polygon", "coordinates": [ [ [ 8.6933836, 49.4109036 ], [ 8.6931867, 49.4108709 ], [ 8.6932664, 49.4106744 ], [ 8.6932855, 49.410678 ], [ 8.6933048, 49.4106291 ], [ 8.6932845, 49.4106263 ], [ 8.6933065, 49.4105713 ], [ 8.6933147, 49.4105508 ], [ 8.6933237, 49.4105283 ], [ 8.6933752, 49.4103995 ], [ 8.6934036, 49.4103288 ], [ 8.6934365, 49.4102466 ], [ 8.6936171, 49.4102775 ], [ 8.693608, 49.4103002 ], [ 8.6937816, 49.4103304 ], [ 8.6937352, 49.410451 ], [ 8.6938122, 49.4104612 ], [ 8.6938002, 49.4105098 ], [ 8.6938272, 49.4105127 ], [ 8.6938714, 49.4103398 ], [ 8.693888, 49.4102792 ], [ 8.6938598, 49.410277 ], [ 8.6936314, 49.4102379 ], [ 8.6936245, 49.4102548 ], [ 8.6935717, 49.410246 ], [ 8.6935812, 49.4102211 ], [ 8.693533, 49.4102115 ], [ 8.6935201, 49.4102001 ], [ 8.6935098, 49.410191 ], [ 8.6934872, 49.4101711 ], [ 8.6934719, 49.4101576 ], [ 8.6935925, 49.4098524 ], [ 8.6936333, 49.4097468 ], [ 8.693636, 49.4097411 ], [ 8.693638, 49.4097381 ], [ 8.6936425, 49.4097341 ], [ 8.6936483, 49.4097314 ], [ 8.6936462, 49.4097272 ], [ 8.6937065, 49.4097116 ], [ 8.6937076, 49.4097165 ], [ 8.6937179, 49.4097178 ], [ 8.6937265, 49.4097199 ], [ 8.6937345, 49.4097241 ], [ 8.6937418, 49.4097289 ], [ 8.693745, 49.4097272 ], [ 8.6938673, 49.4097794 ], [ 8.6939888, 49.4098326 ], [ 8.6941237, 49.4098936 ], [ 8.6941443, 49.4099028 ], [ 8.6941665, 49.4099129 ], [ 8.6942413, 49.4099458 ], [ 8.6942565, 49.4099517 ], [ 8.6943449, 49.4099811 ], [ 8.6944333, 49.4100105 ], [ 8.6946972, 49.410074 ], [ 8.6946371, 49.4105872 ], [ 8.6946333, 49.4106191 ], [ 8.6945813, 49.4106138 ], [ 8.6945779, 49.4106274 ], [ 8.694575, 49.4106389 ], [ 8.6945687, 49.410664 ], [ 8.6945736, 49.4106646 ], [ 8.6945981, 49.4106872 ], [ 8.6945922, 49.4107111 ], [ 8.6945998, 49.4107123 ], [ 8.694552, 49.410902 ], [ 8.6945435, 49.4109015 ], [ 8.6945425, 49.410907 ], [ 8.6939741, 49.410849 ], [ 8.6939394, 49.410989 ], [ 8.6938766, 49.4109783 ], [ 8.6935474, 49.4109224 ], [ 8.6935442, 49.4109302 ], [ 8.6933836, 49.4109036 ] ] ] } },
{ "type": "Feature", "properties": { "index": "27", "@osmId": "way/1192036406", "name": null, "opening_hours": null, "label": "Cool places", "color": "#3182bd" }, "geometry": { "type": "Polygon", "coordinates": [ [ [ 8.6847593, 49.4018458 ], [ 8.6845549, 49.4018437 ], [ 8.6845693, 49.4017822 ], [ 8.6846313, 49.401704 ], [ 8.6847174, 49.4016647 ], [ 8.6848973, 49.4016118 ], [ 8.6848429, 49.4014771 ], [ 8.6848431, 49.4013885 ], [ 8.6850528, 49.4013942 ], [ 8.6853488, 49.4014702 ], [ 8.6853084, 49.4015214 ], [ 8.6854351, 49.401601 ], [ 8.6855819, 49.4017626 ], [ 8.6855782, 49.4018919 ], [ 8.6850986, 49.4018865 ], [ 8.6850993, 49.4018438 ], [ 8.6849568, 49.4017979 ], [ 8.684879, 49.4018048 ], [ 8.6848504, 49.4018193 ], [ 8.6848267, 49.4018465 ], [ 8.6847593, 49.4018458 ] ] ] } },
{ "type": "Feature", "properties": { "index": "28", "@osmId": "way/1192040746", "name": null, "opening_hours": null, "label": "Cool places", "color": "#3182bd" }, "geometry": { "type": "Polygon", "coordinates": [ [ [ 8.687355, 49.400491 ], [ 8.6868704, 49.400499 ], [ 8.6872454, 49.4002156 ], [ 8.6873763, 49.400235 ], [ 8.687355, 49.400491 ] ] ] } },
{ "type": "Feature", "properties": { "index": "29", "@osmId": "way/1195015744", "name": null, "opening_hours": null, "label": "Cool places", "color": "#3182bd" }, "geometry": { "type": "Polygon", "coordinates": [ [ [ 8.6842343, 49.4018052 ], [ 8.683604, 49.401778 ], [ 8.6836044, 49.4016457 ], [ 8.6838706, 49.4016524 ], [ 8.6839775, 49.4016839 ], [ 8.6840616, 49.4016793 ], [ 8.6840687, 49.401658 ], [ 8.6842597, 49.4016663 ], [ 8.6842343, 49.4018052 ] ] ] } },
{ "type": "Feature", "properties": { "index": "30", "@osmId": "way/14324273", "name": "Krahnenplatz", "opening_hours": null, "label": "Cool places", "color": "#3182bd" }, "geometry": { "type": "Polygon", "coordinates": [ [ [ 8.7035515, 49.4129486 ], [ 8.7030659, 49.4128835 ], [ 8.7030789, 49.412845 ], [ 8.7031294, 49.412696 ], [ 8.7031424, 49.4126574 ], [ 8.7031871, 49.4126672 ], [ 8.7035134, 49.4127211 ], [ 8.7035622, 49.4127302 ], [ 8.7035698, 49.4127378 ], [ 8.7035902, 49.4127616 ], [ 8.7035752, 49.412861 ], [ 8.7035515, 49.4129486 ] ] ] } },
{ "type": "Feature", "properties": { "index": "31", "@osmId": "way/35464541", "name": "Historischer Studentenkarzer", "opening_hours": "Mo-Su 10:00-13:45,14:15-18:00", "label": "Cool places", "color": "#3182bd" }, "geometry": { "type": "Polygon", "coordinates": [ [ [ 8.706478, 49.4112607 ], [ 8.706457, 49.4113217 ], [ 8.7063082, 49.4112967 ], [ 8.7063332, 49.411243 ], [ 8.706478, 49.4112607 ] ] ] } },
{ "type": "Feature", "properties": { "index": "32", "@osmId": "way/35465057", "name": "Alte Universität, Rektorat", "opening_hours": null, "label": "Cool places", "color": "#3182bd" }, "geometry": { "type": "Polygon", "coordinates": [ [ [ 8.70677, 49.4111751 ], [ 8.7067356, 49.4112936 ], [ 8.706478, 49.4112607 ], [ 8.7063332, 49.411243 ], [ 8.7063082, 49.4112967 ], [ 8.7062385, 49.4114442 ], [ 8.7062147, 49.4114958 ], [ 8.7061837, 49.4114925 ], [ 8.706073, 49.4114806 ], [ 8.7060251, 49.4114754 ], [ 8.7061228, 49.4112578 ], [ 8.7061951, 49.4111029 ], [ 8.70677, 49.4111751 ] ] ] } },
{ "type": "Feature", "properties": { "index": "33", "@osmId": "way/75246883", "name": "Schlossgarten", "opening_hours": null, "label": "Cool places", "color": "#3182bd" }, "geometry": { "type": "Polygon", "coordinates": [ [ [ 8.7168086, 49.4108806 ], [ 8.7167446, 49.4108782 ], [ 8.716773, 49.4105708 ], [ 8.7167884, 49.4101854 ], [ 8.716789, 49.4101698 ], [ 8.7167882, 49.4101513 ], [ 8.7167821, 49.4101362 ], [ 8.7167684, 49.4101178 ], [ 8.716748, 49.4101022 ], [ 8.7167246, 49.4100881 ], [ 8.7167037, 49.4100782 ], [ 8.7166832, 49.4100712 ], [ 8.7165065, 49.4100239 ], [ 8.7165213, 49.4099844 ], [ 8.7165917, 49.4098743 ], [ 8.7166279, 49.4096472 ], [ 8.7155234, 49.4095617 ], [ 8.7155577, 49.4093905 ], [ 8.71727, 49.4095597 ], [ 8.7194027, 49.4097751 ], [ 8.7195692, 49.4098986 ], [ 8.7197014, 49.4100497 ], [ 8.7197396, 49.410133 ], [ 8.719768, 49.4103 ], [ 8.719698, 49.4105206 ], [ 8.7193531, 49.4110196 ], [ 8.7190189, 49.4112137 ], [ 8.7185612, 49.4111745 ], [ 8.7184062, 49.4119407 ], [ 8.7185844, 49.4119908 ], [ 8.7187296, 49.412125 ], [ 8.7187717, 49.4122922 ], [ 8.7184495, 49.4128478 ], [ 8.717827, 49.4128 ], [ 8.7180899, 49.4113942 ], [ 8.7180017, 49.4113055 ], [ 8.7179751, 49.4112759 ], [ 8.7179621, 49.4112539 ], [ 8.7179538, 49.4112293 ], [ 8.7179485, 49.4111958 ], [ 8.717939, 49.4111643 ], [ 8.7179236, 49.4111408 ], [ 8.717887, 49.4111116 ], [ 8.7178771, 49.4110977 ], [ 8.7178618, 49.4111029 ], [ 8.7178335, 49.4111121 ], [ 8.7177572, 49.4110555 ], [ 8.717707, 49.4110372 ], [ 8.7174391, 49.4110036 ], [ 8.7170397, 49.4109739 ], [ 8.7169864, 49.4109648 ], [ 8.7168432, 49.4108901 ], [ 8.7168086, 49.4108806 ] ] ] } },
{ "type": "Feature", "properties": { "index": "34", "@osmId": "way/123815173", "name": null, "opening_hours": null, "label": "Cool places", "color": "#3182bd" }, "geometry": { "type": "Polygon", "coordinates": [ [ [ 8.7180385, 49.4142802 ], [ 8.7179753, 49.4142888 ], [ 8.7179345, 49.4142915 ], [ 8.7178916, 49.4142908 ], [ 8.7178539, 49.4142868 ], [ 8.7178192, 49.4142809 ], [ 8.7177845, 49.4142722 ], [ 8.7177478, 49.4142596 ], [ 8.7177202, 49.414247 ], [ 8.7176907, 49.4142284 ], [ 8.7176631, 49.4142072 ], [ 8.7176366, 49.414174 ], [ 8.7176244, 49.4141461 ], [ 8.7176172, 49.4141136 ], [ 8.7176203, 49.4140871 ], [ 8.7176244, 49.4140632 ], [ 8.7176325, 49.414034 ], [ 8.7176427, 49.4140127 ], [ 8.7176575, 49.4139964 ], [ 8.7176723, 49.4139802 ], [ 8.7176896, 49.4139663 ], [ 8.7177315, 49.4139464 ], [ 8.71776, 49.4139351 ], [ 8.7177957, 49.4139271 ], [ 8.7178427, 49.4139218 ], [ 8.7178916, 49.4139178 ], [ 8.7179498, 49.4139205 ], [ 8.7179844, 49.4139265 ], [ 8.7180263, 49.4139364 ], [ 8.7180752, 49.4139537 ], [ 8.7181069, 49.4139709 ], [ 8.7181385, 49.4139889 ], [ 8.718163, 49.4140061 ], [ 8.7181885, 49.41403 ], [ 8.7182068, 49.4140566 ], [ 8.7182272, 49.4140877 ], [ 8.7182405, 49.4141143 ], [ 8.7182476, 49.4141342 ], [ 8.7182487, 49.4141548 ], [ 8.7182456, 49.4141747 ], [ 8.7182334, 49.4141932 ], [ 8.7182211, 49.4142118 ], [ 8.7182109, 49.4142238 ], [ 8.7181885, 49.4142444 ], [ 8.7181517, 49.4142576 ], [ 8.7180997, 49.4142696 ], [ 8.7180385, 49.4142802 ] ] ] } },
{ "type": "Feature", "properties": { "index": "35", "@osmId": "way/179552527", "name": null, "opening_hours": null, "label": "Cool places", "color": "#3182bd" }, "geometry": { "type": "Polygon", "coordinates": [ [ [ 8.7098109, 49.4059063 ], [ 8.7099306, 49.4059578 ], [ 8.7095731, 49.4061598 ], [ 8.7093686, 49.4061319 ], [ 8.7090996, 49.4061605 ], [ 8.7087992, 49.4063299 ], [ 8.7084742, 49.4065746 ], [ 8.7083601, 49.4065218 ], [ 8.708612, 49.4062503 ], [ 8.7089138, 49.4058103 ], [ 8.7098109, 49.4059063 ] ] ] } },
{ "type": "Feature", "properties": { "index": "36", "@osmId": "way/233164326", "name": "Museumsgarten", "opening_hours": null, "label": "Cool places", "color": "#3182bd" }, "geometry": { "type": "Polygon", "coordinates": [ [ [ 8.7029082, 49.411785 ], [ 8.7028584, 49.4119681 ], [ 8.7026694, 49.4119453 ], [ 8.7026059, 49.4119372 ], [ 8.7025208, 49.4119293 ], [ 8.7025138, 49.4119569 ], [ 8.7022416, 49.4119278 ], [ 8.702244, 49.4119011 ], [ 8.7022851, 49.4116412 ], [ 8.7022958, 49.4115693 ], [ 8.702421, 49.4115749 ], [ 8.7024216, 49.4115925 ], [ 8.7024681, 49.4115948 ], [ 8.7024654, 49.4116265 ], [ 8.7026593, 49.4116382 ], [ 8.7026684, 49.4115899 ], [ 8.7028181, 49.4116127 ], [ 8.702869, 49.4116269 ], [ 8.7029644, 49.4116495 ], [ 8.7029503, 49.4117911 ], [ 8.7029082, 49.411785 ] ] ] } },
{ "type": "Feature", "properties": { "index": "37", "@osmId": "way/247530260", "name": "Dokumentations- und Kulturzentrum Deutscher Sinti und Roma", "opening_hours": "Tu 09:30-19:45; We-Fr 09:30-16:30; Sa,Su 11:00-16:30", "label": "Cool places", "color": "#3182bd" }, "geometry": { "type": "Polygon", "coordinates": [ [ [ 8.7108904, 49.4106638 ], [ 8.7108899, 49.41064 ], [ 8.7108517, 49.4106288 ], [ 8.7107734, 49.4107212 ], [ 8.7108076, 49.4107335 ], [ 8.7108056, 49.410736 ], [ 8.7109962, 49.4108035 ], [ 8.7110121, 49.4107851 ], [ 8.7111427, 49.4108252 ], [ 8.7111326, 49.4108399 ], [ 8.7111484, 49.4108455 ], [ 8.711151, 49.4108426 ], [ 8.7111976, 49.4108569 ], [ 8.7112043, 49.4108691 ], [ 8.7111895, 49.4108895 ], [ 8.7111684, 49.4108953 ], [ 8.711131, 49.4109483 ], [ 8.7111473, 49.4109764 ], [ 8.7111259, 49.4110058 ], [ 8.7107653, 49.4108966 ], [ 8.7108351, 49.4108127 ], [ 8.7107687, 49.4107896 ], [ 8.7107801, 49.4107751 ], [ 8.7107011, 49.4107469 ], [ 8.710704, 49.4107438 ], [ 8.7105864, 49.4107038 ], [ 8.7105997, 49.4106882 ], [ 8.7107616, 49.4105001 ], [ 8.7108915, 49.4105508 ], [ 8.7108911, 49.4105556 ], [ 8.7110353, 49.4106042 ], [ 8.7111027, 49.4106481 ], [ 8.7110344, 49.4106915 ], [ 8.7110055, 49.410673 ], [ 8.7109933, 49.4106688 ], [ 8.7109743, 49.4106716 ], [ 8.7109557, 49.4106726 ], [ 8.7109387, 49.4106723 ], [ 8.7109203, 49.4106708 ], [ 8.7109146, 49.4106753 ], [ 8.7109059, 49.4106769 ], [ 8.7108961, 49.4106741 ], [ 8.7108918, 49.4106696 ], [ 8.7108904, 49.4106638 ] ] ] } },
{ "type": "Feature", "properties": { "index": "38", "@osmId": "way/254154166", "name": "Deutsches Apotheken-Museum", "opening_hours": "Apr-Oct Mo-Su 10:00-18:00; Nov-Mar Mo-Su 10:00-17:00", "label": "Cool places", "color": "#3182bd" }, "geometry": { "type": "Polygon", "coordinates": [ [ [ 8.7157094, 49.410822 ], [ 8.7157151, 49.4108242 ], [ 8.7157332, 49.4108038 ], [ 8.7157645, 49.4107575 ], [ 8.7157851, 49.4107605 ], [ 8.7158019, 49.4107551 ], [ 8.7158134, 49.4107405 ], [ 8.715804, 49.4107264 ], [ 8.7157935, 49.4107229 ], [ 8.7158004, 49.4107092 ], [ 8.7158031, 49.4107016 ], [ 8.7158059, 49.4106938 ], [ 8.7160472, 49.4107374 ], [ 8.7160209, 49.4108422 ], [ 8.7160286, 49.4108495 ], [ 8.7160384, 49.410858 ], [ 8.7158129, 49.4111136 ], [ 8.7155482, 49.4110354 ], [ 8.7155611, 49.4110284 ], [ 8.7155683, 49.41102 ], [ 8.7155682, 49.4110118 ], [ 8.7155594, 49.411001 ], [ 8.715613, 49.4109396 ], [ 8.7156072, 49.4109375 ], [ 8.7155961, 49.4109333 ], [ 8.7156282, 49.4108979 ], [ 8.7156126, 49.4108929 ], [ 8.715627, 49.4108762 ], [ 8.7156322, 49.41087 ], [ 8.7156391, 49.410862 ], [ 8.7156518, 49.4108471 ], [ 8.7156674, 49.4108531 ], [ 8.7156982, 49.4108178 ], [ 8.7157094, 49.410822 ] ] ] } },
{ "type": "Feature", "properties": { "index": "39", "@osmId": "way/254154173", "name": null, "opening_hours": null, "label": "Cool places", "color": "#3182bd" }, "geometry": { "type": "Polygon", "coordinates": [ [ [ 8.7145296, 49.4097496 ], [ 8.7144527, 49.4097438 ], [ 8.714118, 49.4097206 ], [ 8.7141389, 49.4094235 ], [ 8.7145671, 49.4095128 ], [ 8.7150211, 49.4096107 ], [ 8.7150984, 49.4096377 ], [ 8.7151775, 49.4096699 ], [ 8.7152467, 49.4097205 ], [ 8.7152644, 49.4097711 ], [ 8.7151564, 49.4097612 ], [ 8.7151436, 49.4098346 ], [ 8.7146008, 49.4097874 ], [ 8.7146053, 49.4097649 ], [ 8.714607, 49.4097553 ], [ 8.7145296, 49.4097496 ] ] ] } },
{ "type": "Feature", "properties": { "index": "40", "@osmId": "way/293836248", "name": "Erlöserkirche", "opening_hours": null, "label": "Cool places", "color": "#3182bd" }, "geometry": { "type": "Polygon", "coordinates": [ [ [ 8.7017045, 49.4093765 ], [ 8.7015418, 49.4093713 ], [ 8.7015478, 49.4092918 ], [ 8.7015679, 49.4092925 ], [ 8.7015733, 49.4092094 ], [ 8.7015223, 49.4092084 ], [ 8.7015257, 49.409153 ], [ 8.7015462, 49.4091544 ], [ 8.7017156, 49.4091608 ], [ 8.7017045, 49.4093765 ] ] ] } },
{ "type": "Feature", "properties": { "index": "41", "@osmId": "way/432542429", "name": "Providenzkirche", "opening_hours": null, "label": "Cool places", "color": "#3182bd" }, "geometry": { "type": "Polygon", "coordinates": [ [ [ 8.7020879, 49.410739 ], [ 8.7021057, 49.4107412 ], [ 8.7021432, 49.4108153 ], [ 8.7021133, 49.4109305 ], [ 8.7020826, 49.4110484 ], [ 8.7020148, 49.4110402 ], [ 8.7020077, 49.4110627 ], [ 8.7020005, 49.411085 ], [ 8.7019031, 49.411072 ], [ 8.7019092, 49.4110511 ], [ 8.7019153, 49.4110302 ], [ 8.7018468, 49.4110204 ], [ 8.7019107, 49.410785 ], [ 8.7019935, 49.4107266 ], [ 8.7020018, 49.4107281 ], [ 8.7020879, 49.410739 ] ] ] } },
{ "type": "Feature", "properties": { "index": "42", "@osmId": "way/918164562", "name": "Providenzgarten", "opening_hours": "24/7", "label": "Cool places", "color": "#3182bd" }, "geometry": { "type": "Polygon", "coordinates": [ [ [ 8.7027872, 49.4104037 ], [ 8.7026806, 49.4107167 ], [ 8.7025093, 49.4106911 ], [ 8.7025029, 49.4107084 ], [ 8.7022568, 49.4106709 ], [ 8.7022642, 49.4106499 ], [ 8.7022264, 49.4106432 ], [ 8.7022126, 49.4106408 ], [ 8.7023258, 49.4103275 ], [ 8.7027872, 49.4104037 ] ] ] } },
{ "type": "Feature", "properties": { "index": "43", "@osmId": "way/1186032662", "name": "Peterskirche", "opening_hours": "easter-Oct 31: Mo-Fr 14:00-17:00", "label": "Cool places", "color": "#3182bd" }, "geometry": { "type": "Polygon", "coordinates": [ [ [ 8.7057137, 49.4092264 ], [ 8.7057308, 49.409236 ], [ 8.7058191, 49.4092402 ], [ 8.7058199, 49.4092327 ], [ 8.7058333, 49.4092333 ], [ 8.7058324, 49.4092408 ], [ 8.7058673, 49.4092424 ], [ 8.705871, 49.4092094 ], [ 8.7059855, 49.4092148 ], [ 8.7059818, 49.4092478 ], [ 8.7060405, 49.4092506 ], [ 8.7060453, 49.4092072 ], [ 8.7060337, 49.4091996 ], [ 8.7060429, 49.4091931 ], [ 8.7060581, 49.4092025 ], [ 8.7061151, 49.4092052 ], [ 8.7061158, 49.4091958 ], [ 8.7061294, 49.4091966 ], [ 8.7061288, 49.4092058 ], [ 8.706186, 49.4092085 ], [ 8.7061962, 49.4092013 ], [ 8.7062066, 49.4092072 ], [ 8.7061959, 49.4092148 ], [ 8.7061922, 49.4092479 ], [ 8.7062026, 49.4092484 ], [ 8.7062124, 49.4092559 ], [ 8.7062124, 49.4092635 ], [ 8.7062501, 49.4092653 ], [ 8.7062527, 49.4092427 ], [ 8.7062373, 49.409236 ], [ 8.7062466, 49.4092301 ], [ 8.7062615, 49.4092392 ], [ 8.7063067, 49.4092413 ], [ 8.7063143, 49.4092369 ], [ 8.7063208, 49.409242 ], [ 8.7063748, 49.4092445 ], [ 8.7063882, 49.4092377 ], [ 8.7063965, 49.4092448 ], [ 8.7063849, 49.4092513 ], [ 8.7063814, 49.4092824 ], [ 8.7063793, 49.4093016 ], [ 8.7064276, 49.4093039 ], [ 8.7064403, 49.409295 ], [ 8.7064514, 49.4093018 ], [ 8.7064421, 49.4093077 ], [ 8.7064818, 49.409334 ], [ 8.7064898, 49.4093323 ], [ 8.7064935, 49.4093412 ], [ 8.7064798, 49.4093442 ], [ 8.7064754, 49.409369 ], [ 8.7064881, 49.4093768 ], [ 8.7064785, 49.4093845 ], [ 8.7064671, 49.4093793 ], [ 8.7064259, 49.4094035 ], [ 8.7064309, 49.4094087 ], [ 8.706418, 49.4094132 ], [ 8.7064098, 49.4094027 ], [ 8.7063694, 49.4094008 ], [ 8.7063682, 49.4094116 ], [ 8.7063516, 49.4094108 ], [ 8.7063528, 49.4094001 ], [ 8.7063152, 49.4093983 ], [ 8.7063141, 49.4094084 ], [ 8.7062963, 49.4094076 ], [ 8.7062974, 49.4093975 ], [ 8.7062358, 49.4093946 ], [ 8.7062336, 49.4094142 ], [ 8.7062483, 49.4094232 ], [ 8.7062337, 49.4094331 ], [ 8.7062213, 49.4094235 ], [ 8.7061726, 49.4094212 ], [ 8.7061712, 49.409434 ], [ 8.7061556, 49.4094333 ], [ 8.706157, 49.4094205 ], [ 8.7060972, 49.4094177 ], [ 8.7060936, 49.4094499 ], [ 8.706013, 49.4094461 ], [ 8.7060166, 49.4094139 ], [ 8.7059517, 49.4094109 ], [ 8.7059477, 49.4094468 ], [ 8.7059295, 49.409446 ], [ 8.7059216, 49.4094517 ], [ 8.7059162, 49.4094453 ], [ 8.7059011, 49.4094446 ], [ 8.7058942, 49.4094502 ], [ 8.7058881, 49.409444 ], [ 8.7058686, 49.4094431 ], [ 8.7058726, 49.4094071 ], [ 8.7058058, 49.409404 ], [ 8.7058048, 49.4094134 ], [ 8.7057916, 49.4094128 ], [ 8.7057927, 49.4094034 ], [ 8.7057031, 49.4093992 ], [ 8.7056879, 49.4094062 ], [ 8.705678, 49.4093981 ], [ 8.7056981, 49.4093878 ], [ 8.7057022, 49.4093508 ], [ 8.7056675, 49.4093493 ], [ 8.7056498, 49.4093591 ], [ 8.7056372, 49.4093502 ], [ 8.7056601, 49.4093382 ], [ 8.7056605, 49.4093344 ], [ 8.7056541, 49.4093303 ], [ 8.7056575, 49.409295 ], [ 8.705665, 49.4092912 ], [ 8.7056656, 49.4092852 ], [ 8.7056491, 49.4092741 ], [ 8.7056632, 49.4092666 ], [ 8.7056808, 49.4092782 ], [ 8.7057102, 49.4092795 ], [ 8.7057148, 49.4092375 ], [ 8.7057055, 49.4092328 ], [ 8.7057137, 49.4092264 ] ] ] } },
{ "type": "Feature", "properties": { "index": "44", "@osmId": "way/1186298822", "name": "Heiliggeistkirche", "opening_hours": "Mo-Sa 11:00-17:00; PH,Su 12:30-17:00", "label": "Cool places", "color": "#3182bd" }, "geometry": { "type": "Polygon", "coordinates": [ [ [ 8.7093407, 49.4121879 ], [ 8.709241, 49.4121847 ], [ 8.709244, 49.4121442 ], [ 8.7092221, 49.4121433 ], [ 8.7092233, 49.4121301 ], [ 8.7092024, 49.4121302 ], [ 8.7092037, 49.4121135 ], [ 8.7092056, 49.4120876 ], [ 8.7092078, 49.4120601 ], [ 8.7092092, 49.4120441 ], [ 8.7092212, 49.4120445 ], [ 8.70921, 49.412036 ], [ 8.7092112, 49.4120244 ], [ 8.7092339, 49.4120149 ], [ 8.7092343, 49.4120025 ], [ 8.7092545, 49.4120025 ], [ 8.7092553, 49.4119918 ], [ 8.7092556, 49.4119885 ], [ 8.7092634, 49.4119887 ], [ 8.7093507, 49.4119915 ], [ 8.709351, 49.4119738 ], [ 8.7093744, 49.4119753 ], [ 8.7093738, 49.4119922 ], [ 8.7094289, 49.4119939 ], [ 8.7094293, 49.411982 ], [ 8.7094416, 49.411982 ], [ 8.7094412, 49.4119943 ], [ 8.7094964, 49.4119961 ], [ 8.709497, 49.4119842 ], [ 8.7095077, 49.4119848 ], [ 8.7095071, 49.4119964 ], [ 8.7095584, 49.411998 ], [ 8.7095592, 49.4119871 ], [ 8.7095705, 49.4119875 ], [ 8.7095691, 49.4119983 ], [ 8.7096213, 49.412 ], [ 8.7096218, 49.4119894 ], [ 8.7096336, 49.41199 ], [ 8.7096322, 49.4120003 ], [ 8.7096834, 49.4120019 ], [ 8.7096838, 49.4119919 ], [ 8.7096971, 49.4119919 ], [ 8.7096961, 49.4120023 ], [ 8.7097487, 49.412004 ], [ 8.7097495, 49.4119944 ], [ 8.7097596, 49.4119945 ], [ 8.7097597, 49.4120043 ], [ 8.7098131, 49.412006 ], [ 8.7098129, 49.4119972 ], [ 8.7098244, 49.4119977 ], [ 8.7098233, 49.4120063 ], [ 8.7098728, 49.4120079 ], [ 8.7098733, 49.412 ], [ 8.7098846, 49.4120005 ], [ 8.7098838, 49.4120082 ], [ 8.7099349, 49.4120098 ], [ 8.7099353, 49.412002 ], [ 8.7099458, 49.4120024 ], [ 8.7099459, 49.4120102 ], [ 8.7100203, 49.4120125 ], [ 8.710025, 49.4120065 ], [ 8.710035, 49.4120063 ], [ 8.7100387, 49.4120092 ], [ 8.7100322, 49.4120162 ], [ 8.7100652, 49.4120388 ], [ 8.7100779, 49.4120312 ], [ 8.7100869, 49.4120379 ], [ 8.7100743, 49.4120454 ], [ 8.7101074, 49.4120732 ], [ 8.7101204, 49.4120694 ], [ 8.7101271, 49.4120765 ], [ 8.7101104, 49.412082 ], [ 8.7101105, 49.4121121 ], [ 8.7101273, 49.4121125 ], [ 8.710127, 49.4121227 ], [ 8.71011, 49.4121224 ], [ 8.7101037, 49.4121531 ], [ 8.7101203, 49.4121593 ], [ 8.7101155, 49.4121643 ], [ 8.7101006, 49.4121589 ], [ 8.7100659, 49.4121833 ], [ 8.7100774, 49.4121921 ], [ 8.7100687, 49.4121972 ], [ 8.7100565, 49.4121889 ], [ 8.7100186, 49.4122067 ], [ 8.7100267, 49.4122195 ], [ 8.7100161, 49.4122215 ], [ 8.7100088, 49.4122088 ], [ 8.7099437, 49.4122068 ], [ 8.7099372, 49.4122466 ], [ 8.7097897, 49.4122423 ], [ 8.7097896, 49.412202 ], [ 8.7097515, 49.4122008 ], [ 8.7097507, 49.4122123 ], [ 8.709736, 49.4122118 ], [ 8.7097367, 49.4122003 ], [ 8.7096809, 49.4121986 ], [ 8.709681, 49.4122124 ], [ 8.7096695, 49.4122122 ], [ 8.7096708, 49.4121982 ], [ 8.7096188, 49.4121966 ], [ 8.7096174, 49.4122099 ], [ 8.7096068, 49.4122097 ], [ 8.7096069, 49.4121962 ], [ 8.7095619, 49.4121948 ], [ 8.709561, 49.412208 ], [ 8.7095461, 49.4122079 ], [ 8.7095463, 49.4121943 ], [ 8.7095008, 49.4121929 ], [ 8.7095009, 49.4122086 ], [ 8.7094872, 49.4122079 ], [ 8.7094879, 49.4121925 ], [ 8.7094621, 49.4121917 ], [ 8.7094617, 49.4121976 ], [ 8.7094485, 49.4122056 ], [ 8.7094304, 49.4122051 ], [ 8.7094183, 49.4121966 ], [ 8.7094186, 49.4121903 ], [ 8.7093586, 49.4121884 ], [ 8.7093572, 49.4122074 ], [ 8.7093395, 49.4122073 ], [ 8.7093407, 49.4121879 ] ] ] } },
{ "type": "Feature", "properties": { "index": "45", "@osmId": "way/1186801516", "name": "Völkerkundemuseum", "opening_hours": "We-Sa 14:00-18:00; Su,PH 11:00-18:00", "label": "Cool places", "color": "#3182bd" }, "geometry": { "type": "Polygon", "coordinates": [ [ [ 8.715167, 49.4134515 ], [ 8.7147494, 49.4133732 ], [ 8.7147925, 49.4132758 ], [ 8.7146541, 49.4132494 ], [ 8.7147223, 49.4131022 ], [ 8.7149164, 49.4131386 ], [ 8.7148624, 49.4132605 ], [ 8.7151617, 49.4133166 ], [ 8.7152157, 49.4131948 ], [ 8.7153319, 49.4132165 ], [ 8.7152992, 49.4132904 ], [ 8.7152658, 49.4133656 ], [ 8.7152098, 49.413355 ], [ 8.715167, 49.4134515 ] ] ] } },
{ "type": "Feature", "properties": { "index": "46", "@osmId": "way/1187911604", "name": "Jesuitenkirche", "opening_hours": "May-Sep: 09:30-18:00; Oct-Apr: 09:30-17:00", "label": "Cool places", "color": "#3182bd" }, "geometry": { "type": "Polygon", "coordinates": [ [ [ 8.7075299, 49.4110939 ], [ 8.7074857, 49.4110923 ], [ 8.7075189, 49.4106161 ], [ 8.7075241, 49.4105926 ], [ 8.7075408, 49.4105725 ], [ 8.7075661, 49.4105531 ], [ 8.7075821, 49.4105447 ], [ 8.7075998, 49.4105377 ], [ 8.7076195, 49.4105318 ], [ 8.7076388, 49.4105283 ], [ 8.7076506, 49.4105265 ], [ 8.7076653, 49.4105258 ], [ 8.707669, 49.4104849 ], [ 8.7077844, 49.4104893 ], [ 8.7077841, 49.4104933 ], [ 8.7077807, 49.4105305 ], [ 8.7077985, 49.4105322 ], [ 8.7078239, 49.4105366 ], [ 8.7078368, 49.4105417 ], [ 8.707851, 49.4105472 ], [ 8.7078643, 49.4105533 ], [ 8.7078714, 49.4105585 ], [ 8.7078803, 49.4105644 ], [ 8.7078874, 49.4105717 ], [ 8.7079051, 49.4105953 ], [ 8.7079101, 49.4106118 ], [ 8.7079096, 49.4106273 ], [ 8.7079049, 49.4107942 ], [ 8.7078982, 49.411028 ], [ 8.7079037, 49.4110282 ], [ 8.7079027, 49.4110437 ], [ 8.7078997, 49.411102 ], [ 8.7078753, 49.4111012 ], [ 8.7078753, 49.4111063 ], [ 8.7078281, 49.4111046 ], [ 8.7078045, 49.4111037 ], [ 8.7077809, 49.4111028 ], [ 8.7077691, 49.4111024 ], [ 8.7077686, 49.411107 ], [ 8.7076765, 49.4111036 ], [ 8.7075844, 49.4111001 ], [ 8.707585, 49.4110959 ], [ 8.707574, 49.4110955 ], [ 8.7075519, 49.4110947 ], [ 8.7075299, 49.4110939 ] ] ] } },
{ "type": "Feature", "properties": { "index": "47", "@osmId": "way/1293738324", "name": "Barockgarten", "opening_hours": null, "label": "Cool places", "color": "#3182bd" }, "geometry": { "type": "Polygon", "coordinates": [ [ [ 8.7080432, 49.4102838 ], [ 8.7080625, 49.4102121 ], [ 8.708215, 49.4102392 ], [ 8.7083755, 49.410267 ], [ 8.7084549, 49.4102787 ], [ 8.7084705, 49.4102952 ], [ 8.7084935, 49.4103116 ], [ 8.7085182, 49.4103231 ], [ 8.7085458, 49.4103324 ], [ 8.7085506, 49.4103428 ], [ 8.708395, 49.4103435 ], [ 8.7083953, 49.4105418 ], [ 8.7083528, 49.4105423 ], [ 8.7083475, 49.4108359 ], [ 8.7083979, 49.4108361 ], [ 8.7083942, 49.4110568 ], [ 8.7083541, 49.4110552 ], [ 8.708305, 49.4110532 ], [ 8.707979, 49.4110451 ], [ 8.7079795, 49.4110379 ], [ 8.7080106, 49.4106586 ], [ 8.7080111, 49.4106529 ], [ 8.7080234, 49.4105239 ], [ 8.7080253, 49.410502 ], [ 8.7080432, 49.4102838 ] ] ] } },
{ "type": "Feature", "properties": { "index": "48", "@osmId": "way/1349245433", "name": "Stückgarten", "opening_hours": null, "label": "Cool places", "color": "#3182bd" }, "geometry": { "type": "Polygon", "coordinates": [ [ [ 8.714118, 49.4097206 ], [ 8.7144527, 49.4097438 ], [ 8.714451, 49.4097534 ], [ 8.7146053, 49.4097649 ], [ 8.7146008, 49.4097874 ], [ 8.7145961, 49.4098123 ], [ 8.7144344, 49.4097987 ], [ 8.7144319, 49.4098512 ], [ 8.7145284, 49.4098605 ], [ 8.7143339, 49.4105325 ], [ 8.714109, 49.4105011 ], [ 8.714125, 49.4102418 ], [ 8.7141298, 49.4101015 ], [ 8.7140981, 49.4101005 ], [ 8.7141022, 49.4099457 ], [ 8.714118, 49.4097206 ] ] ] } },
{ "type": "Feature", "properties": { "index": "49", "@osmId": "way/14195520", "name": "Montpellierplatz", "opening_hours": null, "label": "Cool places", "color": "#3182bd" }, "geometry": { "type": "Polygon", "coordinates": [ [ [ 8.7012292, 49.4126169 ], [ 8.7011655, 49.412614 ], [ 8.7006542, 49.4125466 ], [ 8.7006646, 49.4125167 ], [ 8.7006878, 49.41245 ], [ 8.7006655, 49.4124467 ], [ 8.7006675, 49.4124415 ], [ 8.7006925, 49.4123697 ], [ 8.7007149, 49.4123051 ], [ 8.7007194, 49.4122928 ], [ 8.700741, 49.4122969 ], [ 8.7007653, 49.412227 ], [ 8.7007798, 49.4121906 ], [ 8.7013491, 49.4122971 ], [ 8.7013791, 49.4123117 ], [ 8.7013904, 49.4123304 ], [ 8.7013191, 49.4125718 ], [ 8.7012985, 49.412594 ], [ 8.7012704, 49.4126079 ], [ 8.7012292, 49.4126169 ] ] ] } },
{ "type": "Feature", "properties": { "index": "50", "@osmId": "way/24853955", "name": "Werderplatz", "opening_hours": null, "label": "Cool places", "color": "#3182bd" }, "geometry": { "type": "Polygon", "coordinates": [ [ [ 8.6867935, 49.4210287 ], [ 8.686233, 49.4209626 ], [ 8.6864992, 49.4194954 ], [ 8.6865268, 49.4194509 ], [ 8.6870589, 49.4195034 ], [ 8.6870723, 49.4195405 ], [ 8.6868141, 49.421001 ], [ 8.6867935, 49.4210287 ] ] ] } },
{ "type": "Feature", "properties": { "index": "51", "@osmId": "way/26937875", "name": null, "opening_hours": null, "label": "Cool places", "color": "#3182bd" }, "geometry": { "type": "Polygon", "coordinates": [ [ [ 8.6769404, 49.4124401 ], [ 8.6769129, 49.4123769 ], [ 8.6769399, 49.4120093 ], [ 8.6769234, 49.4119074 ], [ 8.6768782, 49.4117695 ], [ 8.6768826, 49.411718 ], [ 8.6773101, 49.4117211 ], [ 8.6773306, 49.4116687 ], [ 8.677495, 49.4116435 ], [ 8.678007, 49.4116856 ], [ 8.6785231, 49.4117286 ], [ 8.678565, 49.4117447 ], [ 8.678447, 49.4126036 ], [ 8.6781065, 49.412599 ], [ 8.6779236, 49.4125955 ], [ 8.6771355, 49.4125319 ], [ 8.6770429, 49.4124981 ], [ 8.6769404, 49.4124401 ] ] ] } },
{ "type": "Feature", "properties": { "index": "52", "@osmId": "way/48396293", "name": "Bibliothek Pädagogische Hochschule", "opening_hours": "Mo-Fr 10:00-15:00", "label": "Cool places", "color": "#3182bd" }, "geometry": { "type": "Polygon", "coordinates": [ [ [ 8.6847016, 49.419951 ], [ 8.6843024, 49.4198854 ], [ 8.68438, 49.4196856 ], [ 8.6847792, 49.4197512 ], [ 8.6847397, 49.4198528 ], [ 8.6847016, 49.419951 ] ] ] } },
{ "type": "Feature", "properties": { "index": "53", "@osmId": "way/89332498", "name": "St. Albert", "opening_hours": null, "label": "Cool places", "color": "#3182bd" }, "geometry": { "type": "Polygon", "coordinates": [ [ [ 8.6759324, 49.4086276 ], [ 8.6759391, 49.4084731 ], [ 8.676048, 49.4084745 ], [ 8.6760479, 49.4084534 ], [ 8.6761701, 49.4084562 ], [ 8.6761701, 49.4084502 ], [ 8.6762146, 49.4084507 ], [ 8.6762147, 49.4084572 ], [ 8.6763953, 49.4084598 ], [ 8.6763953, 49.4084535 ], [ 8.6764406, 49.4084544 ], [ 8.6764404, 49.4084606 ], [ 8.6764519, 49.4084607 ], [ 8.6764516, 49.4084309 ], [ 8.6765606, 49.4084318 ], [ 8.6765525, 49.4086373 ], [ 8.6764333, 49.4086354 ], [ 8.6764333, 49.4086413 ], [ 8.6763875, 49.4086413 ], [ 8.6763877, 49.4086344 ], [ 8.6762087, 49.4086311 ], [ 8.6762085, 49.4086375 ], [ 8.676164, 49.4086369 ], [ 8.6761642, 49.4086311 ], [ 8.6760482, 49.4086293 ], [ 8.6760443, 49.4087188 ], [ 8.6759295, 49.4087171 ], [ 8.6759324, 49.4086276 ] ] ] } },
{ "type": "Feature", "properties": { "index": "54", "@osmId": "way/90234435", "name": "St. Raphael", "opening_hours": null, "label": "Cool places", "color": "#3182bd" }, "geometry": { "type": "Polygon", "coordinates": [ [ [ 8.6865333, 49.4183514 ], [ 8.686959, 49.4183781 ], [ 8.68693, 49.4185596 ], [ 8.686502, 49.4185283 ], [ 8.6864953, 49.4185558 ], [ 8.6863926, 49.4185477 ], [ 8.6864049, 49.418494 ], [ 8.6864238, 49.4184956 ], [ 8.6864274, 49.4184828 ], [ 8.68641, 49.4184799 ], [ 8.6863978, 49.418477 ], [ 8.6863859, 49.418471 ], [ 8.6863736, 49.4184626 ], [ 8.6863649, 49.4184529 ], [ 8.6863573, 49.4184398 ], [ 8.686356, 49.4184256 ], [ 8.6863607, 49.4184146 ], [ 8.6863726, 49.4184007 ], [ 8.6863949, 49.4183875 ], [ 8.6864135, 49.4183843 ], [ 8.6864366, 49.4183844 ], [ 8.6864435, 49.4183327 ], [ 8.6865339, 49.4183388 ], [ 8.6865333, 49.4183514 ] ] ] } },
{ "type": "Feature", "properties": { "index": "55", "@osmId": "way/91237845", "name": "Johanneskirche", "opening_hours": null, "label": "Cool places", "color": "#3182bd" }, "geometry": { "type": "Polygon", "coordinates": [ [ [ 8.6905183, 49.4179758 ], [ 8.6905348, 49.4179645 ], [ 8.6905571, 49.4178704 ], [ 8.6905445, 49.417861 ], [ 8.6905595, 49.4178517 ], [ 8.690576, 49.4178632 ], [ 8.6905944, 49.4178651 ], [ 8.6906068, 49.4178124 ], [ 8.690644, 49.4178162 ], [ 8.6906372, 49.417811 ], [ 8.6906521, 49.417801 ], [ 8.6906672, 49.4178125 ], [ 8.6906796, 49.4178137 ], [ 8.6906846, 49.4177928 ], [ 8.6906686, 49.4177818 ], [ 8.690686, 49.4177717 ], [ 8.6907068, 49.4177862 ], [ 8.6908042, 49.4177959 ], [ 8.6908258, 49.4177851 ], [ 8.6908394, 49.417795 ], [ 8.6908198, 49.4178052 ], [ 8.6908143, 49.4178284 ], [ 8.6908303, 49.41783 ], [ 8.6908451, 49.4178207 ], [ 8.6908572, 49.4178307 ], [ 8.6908459, 49.4178375 ], [ 8.6908859, 49.4178415 ], [ 8.6908732, 49.4178949 ], [ 8.6908961, 49.4178972 ], [ 8.6909105, 49.4178875 ], [ 8.6909221, 49.4178965 ], [ 8.690906, 49.4179062 ], [ 8.6908833, 49.418002 ], [ 8.6908961, 49.4180136 ], [ 8.6908799, 49.4180223 ], [ 8.6908659, 49.4180094 ], [ 8.6908027, 49.4180031 ], [ 8.6907918, 49.4180492 ], [ 8.6907981, 49.4180449 ], [ 8.6908089, 49.4180515 ], [ 8.6908003, 49.4180576 ], [ 8.6907974, 49.4180697 ], [ 8.6907945, 49.4180818 ], [ 8.6908042, 49.4180887 ], [ 8.6907913, 49.4180952 ], [ 8.6907847, 49.4180897 ], [ 8.6907361, 49.4180848 ], [ 8.6907329, 49.4180983 ], [ 8.6907434, 49.4181075 ], [ 8.6907304, 49.418114 ], [ 8.6907243, 49.4181093 ], [ 8.6906797, 49.4181049 ], [ 8.6906411, 49.418101 ], [ 8.690634, 49.418105 ], [ 8.6906208, 49.4180959 ], [ 8.6906374, 49.4180862 ], [ 8.6906402, 49.4180744 ], [ 8.6905915, 49.4180696 ], [ 8.6905832, 49.4180738 ], [ 8.6905731, 49.4180663 ], [ 8.6905836, 49.4180615 ], [ 8.6905896, 49.4180359 ], [ 8.6905812, 49.4180309 ], [ 8.6905919, 49.4180241 ], [ 8.6906026, 49.4180297 ], [ 8.6906138, 49.4179823 ], [ 8.6905478, 49.4179757 ], [ 8.6905319, 49.4179855 ], [ 8.6905183, 49.4179758 ] ] ] } },
{ "type": "Feature", "properties": { "index": "56", "@osmId": "way/92154827", "name": "Calvary Chapel Heidelberg", "opening_hours": null, "label": "Cool places", "color": "#3182bd" }, "geometry": { "type": "Polygon", "coordinates": [ [ [ 8.6735933, 49.408515 ], [ 8.6735887, 49.4086219 ], [ 8.6732677, 49.4086193 ], [ 8.6732712, 49.4084848 ], [ 8.6731674, 49.4084838 ], [ 8.673168, 49.4084045 ], [ 8.6733216, 49.4084075 ], [ 8.673492, 49.4084106 ], [ 8.6734893, 49.408514 ], [ 8.6735933, 49.408515 ] ] ] } },
{ "type": "Feature", "properties": { "index": "57", "@osmId": "way/101041870", "name": null, "opening_hours": null, "label": "Cool places", "color": "#3182bd" }, "geometry": { "type": "Polygon", "coordinates": [ [ [ 8.6998485, 49.4149052 ], [ 8.6998432, 49.4148911 ], [ 8.6997858, 49.4148362 ], [ 8.6997539, 49.414818 ], [ 8.6997113, 49.4148021 ], [ 8.6996781, 49.4147927 ], [ 8.6996442, 49.4147884 ], [ 8.6996451, 49.4147725 ], [ 8.6996471, 49.4147266 ], [ 8.6997334, 49.4147283 ], [ 8.6998322, 49.4147511 ], [ 8.6998748, 49.4147807 ], [ 8.6999614, 49.4148389 ], [ 8.6999964, 49.4148721 ], [ 8.700033, 49.4148799 ], [ 8.7001321, 49.414926 ], [ 8.7002319, 49.4149698 ], [ 8.7002992, 49.4149942 ], [ 8.700384, 49.4150088 ], [ 8.7005295, 49.4150256 ], [ 8.7007076, 49.4150335 ], [ 8.7008442, 49.4150335 ], [ 8.7010586, 49.415037 ], [ 8.7009874, 49.415265 ], [ 8.7010274, 49.4152742 ], [ 8.7010738, 49.4152792 ], [ 8.7011819, 49.4152882 ], [ 8.7013728, 49.4153397 ], [ 8.7014641, 49.4153625 ], [ 8.7020848, 49.4155778 ], [ 8.7021536, 49.415564 ], [ 8.7022075, 49.4155569 ], [ 8.7022487, 49.4155602 ], [ 8.7022733, 49.4155693 ], [ 8.702298, 49.4155826 ], [ 8.7023147, 49.4156019 ], [ 8.7023226, 49.4156264 ], [ 8.7023439, 49.41566 ], [ 8.7024556, 49.4157189 ], [ 8.7028556, 49.4158862 ], [ 8.7027939, 49.415931 ], [ 8.7025796, 49.4160231 ], [ 8.7024783, 49.4160476 ], [ 8.7023472, 49.4160518 ], [ 8.7022173, 49.4159504 ], [ 8.7021751, 49.4158793 ], [ 8.7021494, 49.4158672 ], [ 8.7021631, 49.4159097 ], [ 8.7021809, 49.4159834 ], [ 8.7021757, 49.4161025 ], [ 8.7021478, 49.4161397 ], [ 8.7020451, 49.4161087 ], [ 8.7019861, 49.4161431 ], [ 8.7018394, 49.4161887 ], [ 8.7015341, 49.4162428 ], [ 8.7011237, 49.4162538 ], [ 8.7007536, 49.4162538 ], [ 8.7006017, 49.416236 ], [ 8.7005575, 49.4160256 ], [ 8.7005549, 49.4159327 ], [ 8.7004809, 49.4159234 ], [ 8.7002367, 49.4159276 ], [ 8.7002224, 49.416127 ], [ 8.7001172, 49.4161938 ], [ 8.6999484, 49.4162183 ], [ 8.6997912, 49.4162081 ], [ 8.6997008, 49.416126 ], [ 8.6996945, 49.4159014 ], [ 8.6997419, 49.4158769 ], [ 8.6997591, 49.415856 ], [ 8.6997773, 49.4158406 ], [ 8.6998046, 49.4158321 ], [ 8.6998854, 49.415615 ], [ 8.6998218, 49.4156091 ], [ 8.6998294, 49.4155066 ], [ 8.6998291, 49.415504 ], [ 8.6998627, 49.4154274 ], [ 8.6998763, 49.4154038 ], [ 8.699899, 49.4152851 ], [ 8.6999166, 49.4152462 ], [ 8.6999568, 49.4151275 ], [ 8.6999796, 49.4150776 ], [ 8.7000029, 49.41505 ], [ 8.6999475, 49.4149526 ], [ 8.6999043, 49.4148883 ], [ 8.6998485, 49.4149052 ] ] ] } },
{ "type": "Feature", "properties": { "index": "58", "@osmId": "way/113581136", "name": null, "opening_hours": null, "label": "Cool places", "color": "#3182bd" }, "geometry": { "type": "Polygon", "coordinates": [ [ [ 8.6795881, 49.4038791 ], [ 8.6798313, 49.4040754 ], [ 8.6793593, 49.4043305 ], [ 8.6792974, 49.4043372 ], [ 8.6782283, 49.4041345 ], [ 8.6783188, 49.4040341 ], [ 8.6777616, 49.403932 ], [ 8.678019, 49.4035925 ], [ 8.678247, 49.4033534 ], [ 8.6784817, 49.403157 ], [ 8.678632, 49.40311 ], [ 8.6787588, 49.4032771 ], [ 8.6782084, 49.4035571 ], [ 8.6782338, 49.4035783 ], [ 8.6788856, 49.4041042 ], [ 8.678947, 49.4040734 ], [ 8.6789917, 49.4040958 ], [ 8.6790398, 49.4041069 ], [ 8.6791257, 49.4041092 ], [ 8.6791944, 49.4040756 ], [ 8.6793799, 49.4039862 ], [ 8.6795881, 49.4038791 ] ] ] } },
{ "type": "Feature", "properties": { "index": "59", "@osmId": "way/140104672", "name": "Penta-Park", "opening_hours": null, "label": "Cool places", "color": "#3182bd" }, "geometry": { "type": "Polygon", "coordinates": [ [ [ 8.670874, 49.4091569 ], [ 8.6709312, 49.4090779 ], [ 8.6717173, 49.4089465 ], [ 8.6717939, 49.4089429 ], [ 8.6718152, 49.4093695 ], [ 8.6720694, 49.4093834 ], [ 8.6720728, 49.4096046 ], [ 8.6717105, 49.4096372 ], [ 8.6713939, 49.409659 ], [ 8.6709286, 49.4096833 ], [ 8.670874, 49.4091569 ] ] ] } },
{ "type": "Feature", "properties": { "index": "60", "@osmId": "way/172091898", "name": "Kapelle", "opening_hours": null, "label": "Cool places", "color": "#3182bd" }, "geometry": { "type": "Polygon", "coordinates": [ [ [ 8.6828778, 49.4190351 ], [ 8.6829878, 49.4190485 ], [ 8.6829815, 49.4190704 ], [ 8.6829729, 49.4191003 ], [ 8.6828642, 49.4190871 ], [ 8.6828553, 49.4191181 ], [ 8.6828064, 49.4191122 ], [ 8.6828093, 49.4191018 ], [ 8.6827777, 49.419098 ], [ 8.6828025, 49.4190114 ], [ 8.6828392, 49.4190158 ], [ 8.6828427, 49.4190035 ], [ 8.6828854, 49.4190087 ], [ 8.6828778, 49.4190351 ] ] ] } },
{ "type": "Feature", "properties": { "index": "61", "@osmId": "way/242164833", "name": null, "opening_hours": null, "label": "Cool places", "color": "#3182bd" }, "geometry": { "type": "Polygon", "coordinates": [ [ [ 8.6686234, 49.4118613 ], [ 8.668379, 49.4118704 ], [ 8.6683772, 49.4118497 ], [ 8.668804, 49.4118338 ], [ 8.6688106, 49.4119095 ], [ 8.6688164, 49.4119754 ], [ 8.6683339, 49.4119934 ], [ 8.6683084, 49.411948 ], [ 8.6683856, 49.4119452 ], [ 8.668384, 49.4119271 ], [ 8.6685639, 49.4119205 ], [ 8.6685667, 49.4119526 ], [ 8.6686312, 49.4119502 ], [ 8.6686234, 49.4118613 ] ] ] } },
{ "type": "Feature", "properties": { "index": "62", "@osmId": "way/268515366", "name": "Kirche Jesu Christi der Heiligen der Letzten Tage", "opening_hours": null, "label": "Cool places", "color": "#3182bd" }, "geometry": { "type": "Polygon", "coordinates": [ [ [ 8.660738, 49.4090905 ], [ 8.6606377, 49.4091034 ], [ 8.660613, 49.4090218 ], [ 8.6605697, 49.4090274 ], [ 8.6605569, 49.4089849 ], [ 8.6605446, 49.4089444 ], [ 8.6605918, 49.4089383 ], [ 8.6605621, 49.4088402 ], [ 8.6605455, 49.4088423 ], [ 8.660534, 49.4088043 ], [ 8.6605506, 49.4088021 ], [ 8.6605271, 49.4087247 ], [ 8.6606215, 49.4087126 ], [ 8.6606168, 49.408697 ], [ 8.6608077, 49.4086725 ], [ 8.6608124, 49.4086881 ], [ 8.6609063, 49.4086761 ], [ 8.6609298, 49.4087535 ], [ 8.6609471, 49.4087513 ], [ 8.6609587, 49.4087894 ], [ 8.6609413, 49.4087916 ], [ 8.660971, 49.4088897 ], [ 8.6610183, 49.4088837 ], [ 8.6610435, 49.4089667 ], [ 8.6609954, 49.4089728 ], [ 8.6610201, 49.4090544 ], [ 8.6609227, 49.4090669 ], [ 8.6609349, 49.409107 ], [ 8.6607502, 49.4091306 ], [ 8.660738, 49.4090905 ] ] ] } },
{ "type": "Feature", "properties": { "index": "63", "@osmId": "way/311477426", "name": "Zollhofgarten", "opening_hours": null, "label": "Cool places", "color": "#3182bd" }, "geometry": { "type": "Polygon", "coordinates": [ [ [ 8.6700015, 49.4020831 ], [ 8.6686063, 49.4023852 ], [ 8.6685154, 49.4022074 ], [ 8.6684846, 49.402139 ], [ 8.6723709, 49.4013142 ], [ 8.6724179, 49.4013888 ], [ 8.6725246, 49.4015479 ], [ 8.6700015, 49.4020831 ] ] ] } },
{ "type": "Feature", "properties": { "index": "64", "@osmId": "way/331375200", "name": null, "opening_hours": null, "label": "Cool places", "color": "#3182bd" }, "geometry": { "type": "Polygon", "coordinates": [ [ [ 8.6889995, 49.420085 ], [ 8.689026, 49.4199563 ], [ 8.6890325, 49.4199569 ], [ 8.6892576, 49.4199774 ], [ 8.6892093, 49.4201778 ], [ 8.6891575, 49.4201724 ], [ 8.6891461, 49.4202192 ], [ 8.688947, 49.4201987 ], [ 8.6889585, 49.4201396 ], [ 8.688986, 49.4201435 ], [ 8.6889995, 49.420085 ] ] ] } },
{ "type": "Feature", "properties": { "index": "65", "@osmId": "way/331375201", "name": null, "opening_hours": null, "label": "Cool places", "color": "#3182bd" }, "geometry": { "type": "Polygon", "coordinates": [ [ [ 8.6888407, 49.4199136 ], [ 8.6888441, 49.4198998 ], [ 8.6888667, 49.4197922 ], [ 8.6893207, 49.4198135 ], [ 8.6892773, 49.419976 ], [ 8.6890325, 49.4199569 ], [ 8.6890374, 49.4199356 ], [ 8.6888407, 49.4199136 ] ] ] } },
{ "type": "Feature", "properties": { "index": "66", "@osmId": "way/448184453", "name": null, "opening_hours": null, "label": "Cool places", "color": "#3182bd" }, "geometry": { "type": "Polygon", "coordinates": [ [ [ 8.6696378, 49.3990338 ], [ 8.6695932, 49.3990552 ], [ 8.6695694, 49.3990344 ], [ 8.669614, 49.3990129 ], [ 8.6696378, 49.3990338 ] ] ] } },
{ "type": "Feature", "properties": { "index": "67", "@osmId": "way/448184455", "name": null, "opening_hours": null, "label": "Cool places", "color": "#3182bd" }, "geometry": { "type": "Polygon", "coordinates": [ [ [ 8.6696199, 49.3990933 ], [ 8.6695827, 49.3991113 ], [ 8.6695608, 49.3990923 ], [ 8.669598, 49.3990742 ], [ 8.6696199, 49.3990933 ] ] ] } },
{ "type": "Feature", "properties": { "index": "68", "@osmId": "way/448184456", "name": null, "opening_hours": null, "label": "Cool places", "color": "#3182bd" }, "geometry": { "type": "Polygon", "coordinates": [ [ [ 8.6695365, 49.3991336 ], [ 8.6694905, 49.3991549 ], [ 8.6694661, 49.3991325 ], [ 8.6695122, 49.3991112 ], [ 8.6695365, 49.3991336 ] ] ] } },
{ "type": "Feature", "properties": { "index": "69", "@osmId": "way/448184457", "name": null, "opening_hours": null, "label": "Cool places", "color": "#3182bd" }, "geometry": { "type": "Polygon", "coordinates": [ [ [ 8.6693481, 49.3991716 ], [ 8.669288, 49.3992016 ], [ 8.6692657, 49.3991826 ], [ 8.6693257, 49.3991527 ], [ 8.6693481, 49.3991716 ] ] ] } },
{ "type": "Feature", "properties": { "index": "70", "@osmId": "way/448184458", "name": null, "opening_hours": null, "label": "Cool places", "color": "#3182bd" }, "geometry": { "type": "Polygon", "coordinates": [ [ [ 8.6694147, 49.3991085 ], [ 8.6694377, 49.3991294 ], [ 8.6693781, 49.3991572 ], [ 8.669355, 49.3991362 ], [ 8.6694147, 49.3991085 ] ] ] } },
{ "type": "Feature", "properties": { "index": "71", "@osmId": "way/448184460", "name": null, "opening_hours": null, "label": "Cool places", "color": "#3182bd" }, "geometry": { "type": "Polygon", "coordinates": [ [ [ 8.6677991, 49.3999748 ], [ 8.6677512, 49.399997 ], [ 8.6677301, 49.3999778 ], [ 8.6677779, 49.3999555 ], [ 8.6677991, 49.3999748 ] ] ] } },
{ "type": "Feature", "properties": { "index": "72", "@osmId": "way/448184461", "name": null, "opening_hours": null, "label": "Cool places", "color": "#3182bd" }, "geometry": { "type": "Polygon", "coordinates": [ [ [ 8.6694219, 49.3991857 ], [ 8.6693766, 49.399208 ], [ 8.6693528, 49.3991875 ], [ 8.6693981, 49.3991652 ], [ 8.6694219, 49.3991857 ] ] ] } },
{ "type": "Feature", "properties": { "index": "73", "@osmId": "way/448184462", "name": null, "opening_hours": null, "label": "Cool places", "color": "#3182bd" }, "geometry": { "type": "Polygon", "coordinates": [ [ [ 8.6695213, 49.3990918 ], [ 8.6694851, 49.3991089 ], [ 8.669463, 49.399089 ], [ 8.6694991, 49.3990719 ], [ 8.6695213, 49.3990918 ] ] ] } },
{ "type": "Feature", "properties": { "index": "74", "@osmId": "way/448184463", "name": null, "opening_hours": null, "label": "Cool places", "color": "#3182bd" }, "geometry": { "type": "Polygon", "coordinates": [ [ [ 8.6675955, 49.400046 ], [ 8.6676555, 49.4000145 ], [ 8.6676769, 49.4000318 ], [ 8.6676169, 49.4000632 ], [ 8.6675955, 49.400046 ] ] ] } },
{ "type": "Feature", "properties": { "index": "75", "@osmId": "way/448184464", "name": null, "opening_hours": null, "label": "Cool places", "color": "#3182bd" }, "geometry": { "type": "Polygon", "coordinates": [ [ [ 8.6678072, 49.3999211 ], [ 8.6677643, 49.3999421 ], [ 8.667739, 49.3999203 ], [ 8.6677819, 49.3998993 ], [ 8.6678072, 49.3999211 ] ] ] } },
{ "type": "Feature", "properties": { "index": "76", "@osmId": "way/448184466", "name": null, "opening_hours": null, "label": "Cool places", "color": "#3182bd" }, "geometry": { "type": "Polygon", "coordinates": [ [ [ 8.66764, 49.3999696 ], [ 8.6676647, 49.3999889 ], [ 8.6676222, 49.4000119 ], [ 8.6675975, 49.3999925 ], [ 8.66764, 49.3999696 ] ] ] } },
{ "type": "Feature", "properties": { "index": "77", "@osmId": "way/484616560", "name": "Bahnstadt Promenade", "opening_hours": null, "label": "Cool places", "color": "#3182bd" }, "geometry": { "type": "Polygon", "coordinates": [ [ [ 8.6652138, 49.4011692 ], [ 8.6651484, 49.4011014 ], [ 8.665728, 49.4008091 ], [ 8.6656957, 49.4007845 ], [ 8.6704488, 49.3984116 ], [ 8.6704864, 49.3984637 ], [ 8.670611, 49.3986359 ], [ 8.6679967, 49.3998952 ], [ 8.6663218, 49.4007104 ], [ 8.6653393, 49.4011941 ], [ 8.6652138, 49.4011692 ] ] ] } },
{ "type": "Feature", "properties": { "index": "78", "@osmId": "way/907564724", "name": null, "opening_hours": null, "label": "Cool places", "color": "#3182bd" }, "geometry": { "type": "Polygon", "coordinates": [ [ [ 8.6775326, 49.422 ], [ 8.6775336, 49.4218424 ], [ 8.6794024, 49.4218502 ], [ 8.6794044, 49.4219091 ], [ 8.6793494, 49.421947 ], [ 8.6793487, 49.422 ], [ 8.6775326, 49.422 ] ] ] } },
{ "type": "Feature", "properties": { "index": "79", "@osmId": "way/1164236957", "name": null, "opening_hours": null, "label": "Cool places", "color": "#3182bd" }, "geometry": { "type": "Polygon", "coordinates": [ [ [ 8.6704096, 49.4072383 ], [ 8.6704292, 49.4075598 ], [ 8.6701871, 49.407566 ], [ 8.6701676, 49.4072445 ], [ 8.6704096, 49.4072383 ] ] ] } },
{ "type": "Feature", "properties": { "index": "80", "@osmId": "way/1289413086", "name": "Tertiärgarten", "opening_hours": "24/7", "label": "Cool places", "color": "#3182bd" }, "geometry": { "type": "Polygon", "coordinates": [ [ [ 8.6730515, 49.4195595 ], [ 8.6730442, 49.418935 ], [ 8.6731792, 49.4189351 ], [ 8.6733158, 49.4189349 ], [ 8.6736352, 49.4189343 ], [ 8.6737415, 49.4189346 ], [ 8.6737805, 49.4188688 ], [ 8.6738509, 49.4188937 ], [ 8.6741017, 49.4190542 ], [ 8.6741298, 49.4191105 ], [ 8.6739689, 49.4191165 ], [ 8.6739864, 49.4195715 ], [ 8.6730515, 49.4195595 ] ] ] } },
{ "type": "Feature", "properties": { "index": "81", "@osmId": "node/267889562", "name": "Kurpfälzisches Museum", "opening_hours": "Tu-Su 10:00-18:00", "label": "Cool places", "color": "#3182bd" }, "geometry": { "type": "Point", "coordinates": [ 8.7028964, 49.4113671 ] } },
{ "type": "Feature", "properties": { "index": "82", "@osmId": "node/316328702", "name": "Zentralbibliothek INF 368", "opening_hours": "Mo-Fr 09:00-18:00; Sa 13:00-17:00", "label": "Cool places", "color": "#3182bd" }, "geometry": { "type": "Point", "coordinates": [ 8.6683775, 49.4176768 ] } },
{ "type": "Feature", "properties": { "index": "83", "@osmId": "node/360855606", "name": null, "opening_hours": null, "label": "Cool places", "color": "#3182bd" }, "geometry": { "type": "Point", "coordinates": [ 8.6901583, 49.4093101 ] } },
{ "type": "Feature", "properties": { "index": "84", "@osmId": "node/415441489", "name": "Kirche am Markt", "opening_hours": null, "label": "Cool places", "color": "#3182bd" }, "geometry": { "type": "Point", "coordinates": [ 8.6899329, 49.4143991 ] } },
{ "type": "Feature", "properties": { "index": "85", "@osmId": "node/482802959", "name": "Angehörigen Kapelle", "opening_hours": null, "label": "Cool places", "color": "#3182bd" }, "geometry": { "type": "Point", "coordinates": [ 8.6749258, 49.4139013 ] } },
{ "type": "Feature", "properties": { "index": "86", "@osmId": "node/1300163591", "name": "Museum Geowissenschaften", "opening_hours": "Mo-Fr 08:00-17:00 || \"Am Wochenende auf Anfrage\"", "label": "Cool places", "color": "#3182bd" }, "geometry": { "type": "Point", "coordinates": [ 8.674447, 49.4190214 ] } },
{ "type": "Feature", "properties": { "index": "87", "@osmId": "node/1324802486", "name": "Unimuseum", "opening_hours": "Tu-Su 10:00-18:00", "label": "Cool places", "color": "#3182bd" }, "geometry": { "type": "Point", "coordinates": [ 8.7066904, 49.4113863 ] } },
{ "type": "Feature", "properties": { "index": "88", "@osmId": "node/1412648912", "name": "Zoologisches Museum", "opening_hours": "Mo-Fr 08:00-18:00; Sa,Su,PH off", "label": "Cool places", "color": "#3182bd" }, "geometry": { "type": "Point", "coordinates": [ 8.6743102, 49.4178595 ] } },
{ "type": "Feature", "properties": { "index": "89", "@osmId": "node/1657964075", "name": "Studentenbücherei des Studentenwerks Heidelberg", "opening_hours": null, "label": "Cool places", "color": "#3182bd" }, "geometry": { "type": "Point", "coordinates": [ 8.7052085, 49.4105445 ] } },
{ "type": "Feature", "properties": { "index": "90", "@osmId": "node/1818817917", "name": "Buddhistisches Zentrum Heidelberg", "opening_hours": null, "label": "Cool places", "color": "#3182bd" }, "geometry": { "type": "Point", "coordinates": [ 8.6842485, 49.4042418 ] } },
{ "type": "Feature", "properties": { "index": "91", "@osmId": "node/2421161970", "name": "Körperwelten", "opening_hours": "Mo-Su,PH 10:00-18:00; Dec 24 off", "label": "Cool places", "color": "#3182bd" }, "geometry": { "type": "Point", "coordinates": [ 8.6887219, 49.4079846 ] } },
{ "type": "Feature", "properties": { "index": "92", "@osmId": "node/2501670073", "name": "Haus Cajeth", "opening_hours": "Mo-Sa 11:00-17:00", "label": "Cool places", "color": "#3182bd" }, "geometry": { "type": "Point", "coordinates": [ 8.708951, 49.4127586 ] } },
{ "type": "Feature", "properties": { "index": "93", "@osmId": "node/4241246284", "name": "+punkt Kirche INF 130", "opening_hours": null, "label": "Cool places", "color": "#3182bd" }, "geometry": { "type": "Point", "coordinates": [ 8.671097, 49.4126826 ] } },
{ "type": "Feature", "properties": { "index": "94", "@osmId": "node/4294013709", "name": "Deutsches Verpackungsmuseum", "opening_hours": "We-Fr 13:00-18:00;Sa,Su 11:00-18:00;Mo,Tu off", "label": "Cool places", "color": "#3182bd" }, "geometry": { "type": "Point", "coordinates": [ 8.6957273, 49.4098894 ] } },
{ "type": "Feature", "properties": { "index": "95", "@osmId": "node/4385104373", "name": "Bereichsbibliothek Mathematik und Informatik", "opening_hours": "Mo-Fr 09:00-21:00", "label": "Cool places", "color": "#3182bd" }, "geometry": { "type": "Point", "coordinates": [ 8.6758306, 49.4172298 ] } },
{ "type": "Feature", "properties": { "index": "96", "@osmId": "node/4423417426", "name": "Campus-Bibliothek Bergheim", "opening_hours": "Mo-Fr 09:00-22:00; Sa 10:00-20:00", "label": "Cool places", "color": "#3182bd" }, "geometry": { "type": "Point", "coordinates": [ 8.6842526, 49.4086404 ] } },
{ "type": "Feature", "properties": { "index": "97", "@osmId": "node/4515124089", "name": "Herz-Jesu-Kapelle", "opening_hours": null, "label": "Cool places", "color": "#3182bd" }, "geometry": { "type": "Point", "coordinates": [ 8.6799684, 49.4141257 ] } },
{ "type": "Feature", "properties": { "index": "98", "@osmId": "node/4857343885", "name": "Universitätsbibliothek Heidelberg", "opening_hours": "Mo-Fr 08:30-01:00; Sa-Su 09:00-01:00; PH off", "label": "Cool places", "color": "#3182bd" }, "geometry": { "type": "Point", "coordinates": [ 8.7058892, 49.4097516 ] } },
{ "type": "Feature", "properties": { "index": "99", "@osmId": "node/4872984638", "name": "Forum für Kunst", "opening_hours": "Tu-Su 14:00-18:00", "label": "Cool places", "color": "#3182bd" }, "geometry": { "type": "Point", "coordinates": [ 8.7132063, 49.4128998 ] } },
{ "type": "Feature", "properties": { "index": "100", "@osmId": "node/5100400111", "name": "Reichspräsident-Friedrich-Ebert-Gedenkstätte", "opening_hours": "Mo-Fr 09:00-18:00; Sa,Su 10:00-18:00", "label": "Cool places", "color": "#3182bd" }, "geometry": { "type": "Point", "coordinates": [ 8.7083167, 49.4124781 ] } },
{ "type": "Feature", "properties": { "index": "101", "@osmId": "node/5435115531", "name": "Museum für sakrale Kunst und Liturgie SCHATZKAMMER", "opening_hours": "Jun-Oct: Tu-Sa 10:00-17:00; Jun-Oct: Su,PH 13:00-17:00; Nov-May: Sa 10:00-17:00; Nov-May: Su 13:00-17:00", "label": "Cool places", "color": "#3182bd" }, "geometry": { "type": "Point", "coordinates": [ 8.7078944, 49.4110783 ] } },
{ "type": "Feature", "properties": { "index": "102", "@osmId": "node/5588276714", "name": "Heidelberger Stuhlmuseum", "opening_hours": null, "label": "Cool places", "color": "#3182bd" }, "geometry": { "type": "Point", "coordinates": [ 8.6969452, 49.4087285 ] } },
{ "type": "Feature", "properties": { "index": "103", "@osmId": "node/7003610134", "name": "CATS Bibliothek", "opening_hours": "Mo-Fr 09:00-20:00; Sa 12:00-20:00", "label": "Cool places", "color": "#3182bd" }, "geometry": { "type": "Point", "coordinates": [ 8.6900756, 49.410055 ] } },
{ "type": "Feature", "properties": { "index": "104", "@osmId": "node/12072131804", "name": "3D TrickArt", "opening_hours": "Mo-Su 10:00-18:00", "label": "Cool places", "color": "#3182bd" }, "geometry": { "type": "Point", "coordinates": [ 8.6911774, 49.4068121 ] } },
{ "type": "Feature", "properties": { "index": "105", "@osmId": "node/12299694218", "name": "LIFE Church", "opening_hours": null, "label": "Cool places", "color": "#3182bd" }, "geometry": { "type": "Point", "coordinates": [ 8.6774382, 49.4077213 ] } },
{ "type": "Feature", "properties": { "index": "106", "@osmId": "node/13448358823", "name": "Antikensammlung der Universität Heidelberg", "opening_hours": "\"Besuch eingechränkt auf Anfrage möglich wegen Sanierung\"", "label": "Cool places", "color": "#3182bd" }, "geometry": { "type": "Point", "coordinates": [ 8.7045642, 49.4124913 ] } },
{ "type": "Feature", "properties": { "index": "107", "@osmId": "node/13806047146", "name": "Mathematik-Informatik-Station (MAINS)", "opening_hours": null, "label": "Cool places", "color": "#3182bd" }, "geometry": { "type": "Point", "coordinates": [ 8.6754916, 49.4073796 ] } },
{ "type": "Feature", "properties": { "index": "108", "@osmId": "node/13821639864", "name": "Universitätsbibliothek: Magazin", "opening_hours": null, "label": "Cool places", "color": "#3182bd" }, "geometry": { "type": "Point", "coordinates": [ 8.6752306, 49.4073832 ] } },
{ "type": "Feature", "properties": { "index": "109", "@osmId": "node/13870921187", "name": "EC + Liebenzeller Gemeinde Heidelberg", "opening_hours": null, "label": "Cool places", "color": "#3182bd" }, "geometry": { "type": "Point", "coordinates": [ 8.6898795, 49.4143881 ] } },
{ "type": "Feature", "properties": { "index": "110", "@osmId": "node/13870921188", "name": "Hosanna-Gemeinde", "opening_hours": null, "label": "Cool places", "color": "#3182bd" }, "geometry": { "type": "Point", "coordinates": [ 8.6818978, 49.408535 ] } },
{ "type": "Feature", "properties": { "index": "111", "@osmId": "node/346451313", "name": null, "opening_hours": null, "label": "Drinking water", "color": "#31a354" }, "geometry": { "type": "Point", "coordinates": [ 8.7004521, 49.4157261 ] } },
{ "type": "Feature", "properties": { "index": "112", "@osmId": "node/419294001", "name": null, "opening_hours": null, "label": "Drinking water", "color": "#31a354" }, "geometry": { "type": "Point", "coordinates": [ 8.7006398, 49.4157681 ] } },
{ "type": "Feature", "properties": { "index": "113", "@osmId": "node/2018074954", "name": null, "opening_hours": null, "label": "Drinking water", "color": "#31a354" }, "geometry": { "type": "Point", "coordinates": [ 8.7002566, 49.4095083 ] } },
{ "type": "Feature", "properties": { "index": "114", "@osmId": "node/2280283474", "name": null, "opening_hours": null, "label": "Drinking water", "color": "#31a354" }, "geometry": { "type": "Point", "coordinates": [ 8.7018271, 49.4109969 ] } },
{ "type": "Feature", "properties": { "index": "115", "@osmId": "node/5115143358", "name": null, "opening_hours": null, "label": "Drinking water", "color": "#31a354" }, "geometry": { "type": "Point", "coordinates": [ 8.6795902, 49.409495 ] } },
{ "type": "Feature", "properties": { "index": "116", "@osmId": "node/5139365929", "name": null, "opening_hours": "Mo-Fr 10:30-19:00; Sa 11:00-18:00; PH off", "label": "Drinking water", "color": "#31a354" }, "geometry": { "type": "Point", "coordinates": [ 8.7042745, 49.4117 ] } },
{ "type": "Feature", "properties": { "index": "117", "@osmId": "node/12369571055", "name": null, "opening_hours": null, "label": "Drinking water", "color": "#31a354" }, "geometry": { "type": "Point", "coordinates": [ 8.6737651, 49.4030052 ] } }
]
}
