{
"type": "FeatureCollection",
"features": [
{ "type": "Feature", "properties": { "index": "0", "label": "Within 300 m on foot", "color": "#2b8cbe" }, "geometry": { "type": "Polygon", "coordinates": [ [ [ 8.6673032, 49.4006551 ], [ 8.6676858, 49.400567 ], [ 8.6680798, 49.4005038 ], [ 8.6684815, 49.4004661 ], [ 8.6688868, 49.4004542 ], [ 8.6692204, 49.4004659 ], [ 8.6693368, 49.4004101 ], [ 8.6696858, 49.4002749 ], [ 8.6700533, 49.4001628 ], [ 8.670436, 49.4000746 ], [ 8.6706917, 49.4000336 ], [ 8.6704389, 49.3998499 ], [ 8.6701986, 49.3996365 ], [ 8.6699915, 49.3994088 ], [ 8.6699537, 49.399356 ], [ 8.6698861, 49.3992817 ], [ 8.6697142, 49.3990418 ], [ 8.6695792, 49.3987921 ], [ 8.6694824, 49.3985349 ], [ 8.6694246, 49.3982728 ], [ 8.6694064, 49.3980083 ], [ 8.6694069, 49.3980021 ], [ 8.6805727, 49.3980035 ], [ 8.680599, 49.3980139 ], [ 8.6809239, 49.3981725 ], [ 8.6812234, 49.3983512 ], [ 8.6814946, 49.3985482 ], [ 8.6817349, 49.3987615 ], [ 8.681942, 49.3989892 ], [ 8.682114, 49.3992291 ], [ 8.6822491, 49.3994788 ], [ 8.6822511, 49.3994841 ], [ 8.6822625, 49.3995053 ], [ 8.6823162, 49.399522 ], [ 8.6826634, 49.3996591 ], [ 8.6829883, 49.3998178 ], [ 8.6832878, 49.3999964 ], [ 8.683559, 49.4001934 ], [ 8.6837994, 49.4004068 ], [ 8.6840065, 49.4006345 ], [ 8.6841785, 49.4008743 ], [ 8.6843136, 49.4011241 ], [ 8.6843212, 49.4011443 ], [ 8.6843953, 49.4011805 ], [ 8.6846948, 49.4013591 ], [ 8.6849661, 49.4015561 ], [ 8.6852064, 49.4017694 ], [ 8.6853712, 49.4019506 ], [ 8.6855442, 49.4020762 ], [ 8.6857845, 49.4022895 ], [ 8.6859917, 49.4025172 ], [ 8.6860764, 49.4026354 ], [ 8.686256, 49.4026914 ], [ 8.6866032, 49.4028285 ], [ 8.6869281, 49.4029871 ], [ 8.6872276, 49.4031658 ], [ 8.6874989, 49.4033627 ], [ 8.6876004, 49.4034528 ], [ 8.6879272, 49.4034854 ], [ 8.688164, 49.4035248 ], [ 8.687931, 49.403318 ], [ 8.6877238, 49.4030903 ], [ 8.6875518, 49.4028504 ], [ 8.6874167, 49.4026007 ], [ 8.6873197, 49.4023435 ], [ 8.6872618, 49.4020814 ], [ 8.6872571, 49.4020122 ], [ 8.6870453, 49.4018242 ], [ 8.6868819, 49.4016446 ], [ 8.6866472, 49.4015714 ], [ 8.6863, 49.4014343 ], [ 8.6862399, 49.4014049 ], [ 8.6862205, 49.4013973 ], [ 8.6858956, 49.4012386 ], [ 8.6855961, 49.40106 ], [ 8.6853248, 49.400863 ], [ 8.6850845, 49.4006497 ], [ 8.6848773, 49.400422 ], [ 8.6847054, 49.4001821 ], [ 8.6845703, 49.3999324 ], [ 8.6844733, 49.3996752 ], [ 8.6844603, 49.3996162 ], [ 8.6844524, 49.3995953 ], [ 8.6843946, 49.3993332 ], [ 8.6843763, 49.3990687 ], [ 8.684398, 49.3988042 ], [ 8.6844592, 49.3985425 ], [ 8.6845594, 49.3982859 ], [ 8.6846977, 49.3980369 ], [ 8.684722, 49.3980038 ], [ 8.6936583, 49.3980038 ], [ 8.6936696, 49.3981665 ], [ 8.6938122, 49.3982516 ], [ 8.6940834, 49.3984485 ], [ 8.6943238, 49.3986619 ], [ 8.694531, 49.3988895 ], [ 8.694703, 49.3991294 ], [ 8.6948382, 49.3993791 ], [ 8.6949352, 49.3996362 ], [ 8.6949496, 49.3997017 ], [ 8.6949677, 49.3997495 ], [ 8.6950256, 49.4000116 ], [ 8.6950439, 49.4002762 ], [ 8.6950223, 49.4005406 ], [ 8.6950198, 49.4005512 ], [ 8.695033, 49.4005656 ], [ 8.695205, 49.4008055 ], [ 8.6953402, 49.4010552 ], [ 8.6954372, 49.4013123 ], [ 8.6954951, 49.4015744 ], [ 8.6955134, 49.401839 ], [ 8.6954918, 49.4021034 ], [ 8.6954307, 49.4023652 ], [ 8.6953305, 49.4026218 ], [ 8.6951922, 49.4028708 ], [ 8.6950909, 49.4030092 ], [ 8.6951275, 49.4030271 ], [ 8.6954271, 49.4032057 ], [ 8.6956984, 49.4034027 ], [ 8.6959388, 49.403616 ], [ 8.696146, 49.4038437 ], [ 8.6963181, 49.4040835 ], [ 8.6964532, 49.4043332 ], [ 8.6965503, 49.4045904 ], [ 8.6965585, 49.4046279 ], [ 8.696613, 49.4046494 ], [ 8.696938, 49.404808 ], [ 8.6972375, 49.4049866 ], [ 8.6975089, 49.4051835 ], [ 8.6977493, 49.4053969 ], [ 8.6979565, 49.4056245 ], [ 8.6981286, 49.4058644 ], [ 8.6982637, 49.4061141 ], [ 8.6983608, 49.4063712 ], [ 8.6984187, 49.4066333 ], [ 8.698437, 49.4068979 ], [ 8.6984349, 49.4069237 ], [ 8.6984966, 49.4070873 ], [ 8.6985546, 49.4073494 ], [ 8.6985729, 49.407614 ], [ 8.6985513, 49.4078784 ], [ 8.6984902, 49.4081402 ], [ 8.69839, 49.4083968 ], [ 8.6982518, 49.4086458 ], [ 8.6980768, 49.4088847 ], [ 8.6979584, 49.4090125 ], [ 8.6979497, 49.4091185 ], [ 8.6978886, 49.4093803 ], [ 8.6977884, 49.4096369 ], [ 8.6976984, 49.4097989 ], [ 8.6977076, 49.4097961 ], [ 8.6980903, 49.4097079 ], [ 8.6984844, 49.4096446 ], [ 8.6988861, 49.4096068 ], [ 8.6992915, 49.4095948 ], [ 8.6996968, 49.4096089 ], [ 8.700098, 49.4096488 ], [ 8.7004913, 49.4097142 ], [ 8.700596, 49.4097389 ], [ 8.7006402, 49.4097463 ], [ 8.7010217, 49.4098365 ], [ 8.701057, 49.4098475 ], [ 8.7010064, 49.4097541 ], [ 8.7009094, 49.4094969 ], [ 8.7008852, 49.4093878 ], [ 8.7008516, 49.4092986 ], [ 8.7007936, 49.4090365 ], [ 8.7007753, 49.408772 ], [ 8.7007968, 49.4085075 ], [ 8.700858, 49.4082457 ], [ 8.7009582, 49.4079891 ], [ 8.7010964, 49.4077401 ], [ 8.7012714, 49.4075012 ], [ 8.7014814, 49.4072746 ], [ 8.7017244, 49.4070625 ], [ 8.7019981, 49.406867 ], [ 8.7022999, 49.4066899 ], [ 8.7026268, 49.406533 ], [ 8.7029757, 49.4063978 ], [ 8.7033432, 49.4062855 ], [ 8.7037259, 49.4061973 ], [ 8.7041199, 49.4061339 ], [ 8.7045216, 49.4060961 ], [ 8.704927, 49.4060841 ], [ 8.7053322, 49.4060982 ], [ 8.7057334, 49.406138 ], [ 8.7061267, 49.4062034 ], [ 8.7065082, 49.4062936 ], [ 8.7068291, 49.4063936 ], [ 8.7070137, 49.4063881 ], [ 8.7074189, 49.4064022 ], [ 8.7078201, 49.406442 ], [ 8.7082134, 49.4065074 ], [ 8.7085949, 49.4065975 ], [ 8.7089611, 49.4067117 ], [ 8.7093084, 49.4068487 ], [ 8.7096334, 49.4070073 ], [ 8.7099331, 49.4071859 ], [ 8.7102045, 49.4073828 ], [ 8.710445, 49.4075961 ], [ 8.7106523, 49.4078237 ], [ 8.7108244, 49.4080636 ], [ 8.7109596, 49.4083132 ], [ 8.7110567, 49.4085704 ], [ 8.7111147, 49.4088325 ], [ 8.7111331, 49.409097 ], [ 8.7111116, 49.4093615 ], [ 8.7111017, 49.4094042 ], [ 8.7110987, 49.4094402 ], [ 8.7110377, 49.409702 ], [ 8.7109375, 49.4099586 ], [ 8.7107993, 49.4102076 ], [ 8.7106244, 49.4104465 ], [ 8.7104144, 49.4106731 ], [ 8.7101732, 49.4108837 ], [ 8.7105566, 49.4108723 ], [ 8.7109619, 49.4108864 ], [ 8.7113631, 49.4109262 ], [ 8.7117564, 49.4109915 ], [ 8.712138, 49.4110817 ], [ 8.7125042, 49.4111958 ], [ 8.7128516, 49.4113328 ], [ 8.7131766, 49.4114914 ], [ 8.7134763, 49.41167 ], [ 8.7137477, 49.4118669 ], [ 8.7139883, 49.4120802 ], [ 8.7141956, 49.4123078 ], [ 8.714265, 49.4124045 ], [ 8.7144289, 49.4122615 ], [ 8.7147026, 49.4120659 ], [ 8.7150044, 49.4118888 ], [ 8.7153313, 49.4117319 ], [ 8.7156802, 49.4115966 ], [ 8.7160477, 49.4114843 ], [ 8.7164304, 49.411396 ], [ 8.7168244, 49.4113326 ], [ 8.7172261, 49.4112947 ], [ 8.7176316, 49.4112827 ], [ 8.7180369, 49.4112967 ], [ 8.7184381, 49.4113366 ], [ 8.7188314, 49.4114019 ], [ 8.7192131, 49.411492 ], [ 8.7195793, 49.4116061 ], [ 8.7198327, 49.411706 ], [ 8.72, 49.4117456 ], [ 8.72, 49.4171041 ], [ 8.7198399, 49.4173228 ], [ 8.7196299, 49.4175495 ], [ 8.7193869, 49.4177616 ], [ 8.7191132, 49.4179571 ], [ 8.7188114, 49.4181342 ], [ 8.7184845, 49.4182912 ], [ 8.7181355, 49.4184265 ], [ 8.7177679, 49.4185388 ], [ 8.7173852, 49.4186271 ], [ 8.7169911, 49.4186905 ], [ 8.7165893, 49.4187284 ], [ 8.7161838, 49.4187404 ], [ 8.7157785, 49.4187264 ], [ 8.7153772, 49.4186865 ], [ 8.7149838, 49.4186212 ], [ 8.7146021, 49.4185311 ], [ 8.7142358, 49.4184169 ], [ 8.7138885, 49.4182799 ], [ 8.7135634, 49.4181214 ], [ 8.7132636, 49.4179428 ], [ 8.7129922, 49.4177459 ], [ 8.7127516, 49.4175326 ], [ 8.7125443, 49.4173049 ], [ 8.7123721, 49.4170651 ], [ 8.7123578, 49.4170388 ], [ 8.7121782, 49.4171671 ], [ 8.7118764, 49.4173442 ], [ 8.7115494, 49.4175011 ], [ 8.7112004, 49.4176364 ], [ 8.7108328, 49.4177487 ], [ 8.7104501, 49.417837 ], [ 8.710056, 49.4179003 ], [ 8.7096543, 49.4179382 ], [ 8.7092488, 49.4179502 ], [ 8.7088434, 49.4179361 ], [ 8.7084421, 49.4178963 ], [ 8.7080488, 49.4178309 ], [ 8.7076671, 49.4177408 ], [ 8.7073008, 49.4176266 ], [ 8.7071103, 49.4175514 ], [ 8.7068222, 49.4175978 ], [ 8.7064205, 49.4176356 ], [ 8.706015, 49.4176476 ], [ 8.7056096, 49.4176335 ], [ 8.7052084, 49.4175936 ], [ 8.704815, 49.4175283 ], [ 8.7044334, 49.4174381 ], [ 8.7040671, 49.417324 ], [ 8.7037198, 49.4171869 ], [ 8.7033947, 49.4170283 ], [ 8.703095, 49.4168497 ], [ 8.7028236, 49.4166528 ], [ 8.7025831, 49.4164395 ], [ 8.7023758, 49.4162118 ], [ 8.7022037, 49.415972 ], [ 8.7020685, 49.4157223 ], [ 8.7019738, 49.4154715 ], [ 8.7016714, 49.415461 ], [ 8.7012702, 49.4154211 ], [ 8.7008768, 49.4153558 ], [ 8.7008086, 49.4153396 ], [ 8.7005117, 49.4153101 ], [ 8.7004734, 49.4153038 ], [ 8.7003614, 49.4152926 ], [ 8.6999681, 49.4152273 ], [ 8.6995865, 49.415137 ], [ 8.6994925, 49.4151077 ], [ 8.6993155, 49.415113 ], [ 8.6989413, 49.4151 ], [ 8.6988133, 49.4152117 ], [ 8.6985395, 49.4154072 ], [ 8.6982377, 49.4155842 ], [ 8.6979107, 49.4157411 ], [ 8.6975617, 49.4158763 ], [ 8.6971941, 49.4159886 ], [ 8.6968114, 49.4160768 ], [ 8.6964172, 49.4161401 ], [ 8.6960255, 49.416177 ], [ 8.6961433, 49.4163946 ], [ 8.6962404, 49.4166518 ], [ 8.6962983, 49.4169139 ], [ 8.6963166, 49.4171784 ], [ 8.696295, 49.4174429 ], [ 8.6962339, 49.4177047 ], [ 8.6961336, 49.4179613 ], [ 8.6959954, 49.4182103 ], [ 8.6958203, 49.4184492 ], [ 8.6956102, 49.4186758 ], [ 8.6953671, 49.4188878 ], [ 8.6950933, 49.4190833 ], [ 8.6947914, 49.4192604 ], [ 8.694743, 49.4192836 ], [ 8.694736, 49.4193702 ], [ 8.6946748, 49.419632 ], [ 8.6945746, 49.4198886 ], [ 8.6944363, 49.4201376 ], [ 8.6942612, 49.4203765 ], [ 8.6940511, 49.4206031 ], [ 8.693808, 49.4208152 ], [ 8.6935342, 49.4210107 ], [ 8.6932844, 49.4211572 ], [ 8.6932973, 49.4212155 ], [ 8.6933155, 49.42148 ], [ 8.693294, 49.4217445 ], [ 8.6932333, 49.4220038 ], [ 8.6851259, 49.4220038 ], [ 8.6851186, 49.4219845 ], [ 8.6850607, 49.4217224 ], [ 8.6850425, 49.4214578 ], [ 8.6850641, 49.4211934 ], [ 8.6851253, 49.4209316 ], [ 8.6852256, 49.420675 ], [ 8.6853639, 49.420426 ], [ 8.685539, 49.4201871 ], [ 8.685741, 49.4199693 ], [ 8.6855891, 49.4199441 ], [ 8.6852075, 49.4198538 ], [ 8.6848413, 49.4197396 ], [ 8.684494, 49.4196025 ], [ 8.6841689, 49.4194439 ], [ 8.6838693, 49.4192652 ], [ 8.683598, 49.4190683 ], [ 8.6833575, 49.4188549 ], [ 8.6831503, 49.4186272 ], [ 8.6829783, 49.4183873 ], [ 8.6828432, 49.4181376 ], [ 8.6827462, 49.4178805 ], [ 8.6826883, 49.4176184 ], [ 8.6826701, 49.4173538 ], [ 8.6826917, 49.4170894 ], [ 8.682753, 49.4168276 ], [ 8.6828533, 49.416571 ], [ 8.6829916, 49.416322 ], [ 8.6831667, 49.4160831 ], [ 8.6833768, 49.4158566 ], [ 8.68362, 49.4156445 ], [ 8.6838938, 49.4154491 ], [ 8.6841957, 49.415272 ], [ 8.6845227, 49.4151152 ], [ 8.6848718, 49.41498 ], [ 8.6852394, 49.4148678 ], [ 8.6856221, 49.4147796 ], [ 8.6860163, 49.4147163 ], [ 8.686418, 49.4146785 ], [ 8.6868235, 49.4146667 ], [ 8.6872288, 49.4146807 ], [ 8.68763, 49.4147207 ], [ 8.6880089, 49.4147837 ], [ 8.6880102, 49.4147687 ], [ 8.68801, 49.4147667 ], [ 8.6880169, 49.4146822 ], [ 8.6880153, 49.4146591 ], [ 8.6880342, 49.4144282 ], [ 8.688009, 49.4143616 ], [ 8.6879511, 49.4140995 ], [ 8.6879329, 49.4138349 ], [ 8.6879545, 49.4135705 ], [ 8.6880157, 49.4133087 ], [ 8.6881019, 49.413088 ], [ 8.6880993, 49.4130864 ], [ 8.6878864, 49.4129319 ], [ 8.6877455, 49.4129545 ], [ 8.6873438, 49.4129923 ], [ 8.6869383, 49.4130042 ], [ 8.686533, 49.4129901 ], [ 8.6861318, 49.4129501 ], [ 8.6857385, 49.4128847 ], [ 8.6853569, 49.4127944 ], [ 8.6849908, 49.4126802 ], [ 8.6846435, 49.4125431 ], [ 8.6843185, 49.4123845 ], [ 8.6840189, 49.4122058 ], [ 8.6837476, 49.4120089 ], [ 8.6835072, 49.4117955 ], [ 8.6833, 49.4115678 ], [ 8.6831281, 49.4113279 ], [ 8.6829929, 49.4110782 ], [ 8.682896, 49.4108211 ], [ 8.6828381, 49.410559 ], [ 8.6828199, 49.4102944 ], [ 8.6828415, 49.41003 ], [ 8.6829028, 49.4097682 ], [ 8.683003, 49.4095116 ], [ 8.6831414, 49.4092626 ], [ 8.6833164, 49.4090237 ], [ 8.6835265, 49.4087972 ], [ 8.683715, 49.4086328 ], [ 8.6833673, 49.408575 ], [ 8.6829858, 49.4084847 ], [ 8.6826196, 49.4083705 ], [ 8.6822724, 49.4082334 ], [ 8.6819475, 49.4080747 ], [ 8.6818089, 49.4079921 ], [ 8.6817174, 49.407956 ], [ 8.6815606, 49.4078795 ], [ 8.6814229, 49.4078835 ], [ 8.6814241, 49.4079014 ], [ 8.681423, 49.4079147 ], [ 8.6814268, 49.4079699 ], [ 8.6814052, 49.4082343 ], [ 8.6813439, 49.4084961 ], [ 8.6812437, 49.4087527 ], [ 8.6811053, 49.4090017 ], [ 8.6809303, 49.4092406 ], [ 8.6807267, 49.4094601 ], [ 8.6806717, 49.4096007 ], [ 8.6805334, 49.4098497 ], [ 8.6803583, 49.4100886 ], [ 8.6801482, 49.4103151 ], [ 8.679905, 49.4105272 ], [ 8.6797765, 49.4106189 ], [ 8.6798733, 49.4106767 ], [ 8.6801446, 49.4108737 ], [ 8.680385, 49.4110871 ], [ 8.6805922, 49.4113148 ], [ 8.6807642, 49.4115547 ], [ 8.6808993, 49.4118044 ], [ 8.6809962, 49.4120615 ], [ 8.6810541, 49.4123236 ], [ 8.6810723, 49.4125882 ], [ 8.6810507, 49.4128526 ], [ 8.6810397, 49.4128993 ], [ 8.6810364, 49.4129405 ], [ 8.6809751, 49.4132023 ], [ 8.6808748, 49.4134589 ], [ 8.6807365, 49.4137079 ], [ 8.6805614, 49.4139468 ], [ 8.6803513, 49.4141733 ], [ 8.6801081, 49.4143854 ], [ 8.6798342, 49.4145808 ], [ 8.6795323, 49.4147578 ], [ 8.6792802, 49.4148787 ], [ 8.6793827, 49.4149399 ], [ 8.679654, 49.4151368 ], [ 8.6798944, 49.4153502 ], [ 8.6798952, 49.4153511 ], [ 8.6799715, 49.4154188 ], [ 8.6801787, 49.4156465 ], [ 8.6803507, 49.4158864 ], [ 8.6804858, 49.4161361 ], [ 8.6805828, 49.4163932 ], [ 8.6806406, 49.4166553 ], [ 8.6806588, 49.4169199 ], [ 8.6806372, 49.4171843 ], [ 8.6806345, 49.4171958 ], [ 8.6806274, 49.4172827 ], [ 8.6805662, 49.4175445 ], [ 8.6804659, 49.4178011 ], [ 8.6803275, 49.4180501 ], [ 8.680167, 49.418269 ], [ 8.6802984, 49.4184523 ], [ 8.6804335, 49.418702 ], [ 8.6805305, 49.4189591 ], [ 8.6805884, 49.4192212 ], [ 8.6806066, 49.4194858 ], [ 8.6806022, 49.419539 ], [ 8.6806163, 49.4197436 ], [ 8.6805947, 49.420008 ], [ 8.6805334, 49.4202698 ], [ 8.6804331, 49.4205264 ], [ 8.6802947, 49.4207754 ], [ 8.6801196, 49.4210143 ], [ 8.6799094, 49.4212408 ], [ 8.6796662, 49.4214529 ], [ 8.6793923, 49.4216483 ], [ 8.6790904, 49.4218253 ], [ 8.6787633, 49.4219822 ], [ 8.6787087, 49.4220033 ], [ 8.6690056, 49.422002 ], [ 8.6687511, 49.4219015 ], [ 8.6686304, 49.4219208 ], [ 8.6682286, 49.4219585 ], [ 8.6678231, 49.4219703 ], [ 8.6674177, 49.4219562 ], [ 8.6670164, 49.4219162 ], [ 8.6666231, 49.4218507 ], [ 8.6665266, 49.4218279 ], [ 8.6663762, 49.4218322 ], [ 8.6659708, 49.4218181 ], [ 8.6655696, 49.4217781 ], [ 8.6651762, 49.4217126 ], [ 8.6647946, 49.4216223 ], [ 8.6644284, 49.421508 ], [ 8.6640812, 49.4213708 ], [ 8.6637562, 49.4212121 ], [ 8.6634566, 49.4210334 ], [ 8.6631854, 49.4208364 ], [ 8.662945, 49.420623 ], [ 8.6627379, 49.4203953 ], [ 8.6625659, 49.4201554 ], [ 8.6624309, 49.4199056 ], [ 8.662334, 49.4196485 ], [ 8.6622763, 49.4193863 ], [ 8.6622582, 49.4191218 ], [ 8.6622604, 49.4190943 ], [ 8.6622576, 49.4190526 ], [ 8.6622793, 49.4187882 ], [ 8.6623407, 49.4185264 ], [ 8.6624411, 49.4182698 ], [ 8.6625795, 49.4180209 ], [ 8.6627547, 49.417782 ], [ 8.6629649, 49.4175555 ], [ 8.6632082, 49.4173435 ], [ 8.6634821, 49.417148 ], [ 8.6637841, 49.4169711 ], [ 8.6641112, 49.4168143 ], [ 8.6644603, 49.4166791 ], [ 8.664828, 49.416567 ], [ 8.6652108, 49.4164789 ], [ 8.6656049, 49.4164157 ], [ 8.6660067, 49.416378 ], [ 8.6664122, 49.4163662 ], [ 8.6667383, 49.4163776 ], [ 8.6669901, 49.4163372 ], [ 8.6673918, 49.4162995 ], [ 8.6677973, 49.4162877 ], [ 8.6678842, 49.4162907 ], [ 8.667906, 49.4162901 ], [ 8.667995, 49.4162932 ], [ 8.6680091, 49.4162928 ], [ 8.6684144, 49.4163069 ], [ 8.6688157, 49.4163469 ], [ 8.669209, 49.4164124 ], [ 8.6695905, 49.4165027 ], [ 8.6699567, 49.416617 ], [ 8.6703039, 49.4167541 ], [ 8.6706289, 49.4169128 ], [ 8.6706872, 49.4169475 ], [ 8.6710117, 49.4169381 ], [ 8.6714171, 49.4169522 ], [ 8.6718183, 49.4169922 ], [ 8.6719722, 49.4170178 ], [ 8.6719709, 49.4169998 ], [ 8.6719926, 49.4167354 ], [ 8.6720083, 49.4166684 ], [ 8.6720105, 49.4166413 ], [ 8.6720718, 49.4163795 ], [ 8.6721722, 49.4161229 ], [ 8.6723106, 49.415874 ], [ 8.6724857, 49.4156351 ], [ 8.6725448, 49.4155714 ], [ 8.6725566, 49.4155553 ], [ 8.6727668, 49.4153287 ], [ 8.67301, 49.4151167 ], [ 8.6732839, 49.4149213 ], [ 8.6735858, 49.4147443 ], [ 8.6737652, 49.4146583 ], [ 8.6734831, 49.41449 ], [ 8.6732118, 49.414293 ], [ 8.6729715, 49.4140796 ], [ 8.6727643, 49.4138519 ], [ 8.6725924, 49.413612 ], [ 8.6724573, 49.4133623 ], [ 8.6723604, 49.4131051 ], [ 8.6723026, 49.412843 ], [ 8.6722844, 49.4125785 ], [ 8.6723061, 49.412314 ], [ 8.6723674, 49.4120522 ], [ 8.6724677, 49.4117956 ], [ 8.6726061, 49.4115467 ], [ 8.6726166, 49.4115324 ], [ 8.6724071, 49.4115385 ], [ 8.6720232, 49.4115251 ], [ 8.6718039, 49.4116101 ], [ 8.6714362, 49.4117222 ], [ 8.6710535, 49.4118104 ], [ 8.6706594, 49.4118736 ], [ 8.6702577, 49.4119113 ], [ 8.6701388, 49.4119148 ], [ 8.6699083, 49.4119364 ], [ 8.6695029, 49.4119482 ], [ 8.6690976, 49.4119341 ], [ 8.6686964, 49.4118941 ], [ 8.6683031, 49.4118286 ], [ 8.6679216, 49.4117383 ], [ 8.6675555, 49.411624 ], [ 8.6672083, 49.4114869 ], [ 8.6668834, 49.4113282 ], [ 8.6665838, 49.4111495 ], [ 8.6663126, 49.4109525 ], [ 8.6660723, 49.4107391 ], [ 8.6658652, 49.4105114 ], [ 8.6656933, 49.4102715 ], [ 8.6655583, 49.4100217 ], [ 8.6655397, 49.4099726 ], [ 8.665478, 49.4098583 ], [ 8.6653811, 49.4096012 ], [ 8.6653233, 49.4093391 ], [ 8.6653052, 49.4090745 ], [ 8.6653269, 49.4088101 ], [ 8.6653883, 49.4085483 ], [ 8.6654886, 49.4082917 ], [ 8.665627, 49.4080428 ], [ 8.665722, 49.4079133 ], [ 8.6655744, 49.4078887 ], [ 8.6651929, 49.4077984 ], [ 8.6648268, 49.4076841 ], [ 8.6644796, 49.4075469 ], [ 8.6641547, 49.4073882 ], [ 8.6638976, 49.4072348 ], [ 8.6637099, 49.4072921 ], [ 8.6633272, 49.4073802 ], [ 8.6629331, 49.4074434 ], [ 8.6625314, 49.407481 ], [ 8.662126, 49.4074928 ], [ 8.6620996, 49.4074919 ], [ 8.6619594, 49.4075462 ], [ 8.6615917, 49.4076584 ], [ 8.661209, 49.4077465 ], [ 8.6608149, 49.4078097 ], [ 8.6604132, 49.4078473 ], [ 8.6600078, 49.4078591 ], [ 8.66, 49.4078589 ], [ 8.66, 49.4022562 ], [ 8.6601383, 49.4022027 ], [ 8.6605059, 49.4020905 ], [ 8.6608885, 49.4020024 ], [ 8.6612826, 49.4019392 ], [ 8.6616842, 49.4019016 ], [ 8.6620896, 49.4018898 ], [ 8.6624948, 49.4019039 ], [ 8.6628959, 49.401944 ], [ 8.662902, 49.401945 ], [ 8.6629755, 49.4019523 ], [ 8.6630077, 49.4019293 ], [ 8.6631243, 49.401861 ], [ 8.6631636, 49.4018329 ], [ 8.6634655, 49.401656 ], [ 8.6637925, 49.4014992 ], [ 8.6641415, 49.401364 ], [ 8.6645091, 49.4012519 ], [ 8.6648917, 49.4011638 ], [ 8.6652858, 49.4011006 ], [ 8.6656874, 49.4010629 ], [ 8.6660928, 49.401051 ], [ 8.6662642, 49.401057 ], [ 8.6665866, 49.4009024 ], [ 8.6669356, 49.4007673 ], [ 8.6673032, 49.4006551 ] ] ] } },
{ "type": "Feature", "properties": { "index": "1", "label": "Beyond 300 m", "color": "#d9d9d9" }, "geometry": { "type": "MultiPolygon", "coordinates": [ [ [ [ 8.6936583, 49.3980038 ], [ 8.72, 49.398 ], [ 8.72, 49.4117456 ], [ 8.7198327, 49.411706 ], [ 8.7195793, 49.4116061 ], [ 8.7192131, 49.411492 ], [ 8.7188314, 49.4114019 ], [ 8.7184381, 49.4113366 ], [ 8.7180369, 49.4112967 ], [ 8.7176316, 49.4112827 ], [ 8.7172261, 49.4112947 ], [ 8.7168244, 49.4113326 ], [ 8.7164304, 49.411396 ], [ 8.7160477, 49.4114843 ], [ 8.7156802, 49.4115966 ], [ 8.7153313, 49.4117319 ], [ 8.7150044, 49.4118888 ], [ 8.7147026, 49.4120659 ], [ 8.7144289, 49.4122615 ], [ 8.714265, 49.4124045 ], [ 8.7141956, 49.4123078 ], [ 8.7139883, 49.4120802 ], [ 8.7137477, 49.4118669 ], [ 8.7134763, 49.41167 ], [ 8.7131766, 49.4114914 ], [ 8.7128516, 49.4113328 ], [ 8.7125042, 49.4111958 ], [ 8.712138, 49.4110817 ], [ 8.7117564, 49.4109915 ], [ 8.7113631, 49.4109262 ], [ 8.7109619, 49.4108864 ], [ 8.7105566, 49.4108723 ], [ 8.7101732, 49.4108837 ], [ 8.7104144, 49.4106731 ], [ 8.7106244, 49.4104465 ], [ 8.7107993, 49.4102076 ], [ 8.7109375, 49.4099586 ], [ 8.7110377, 49.409702 ], [ 8.7110987, 49.4094402 ], [ 8.7111017, 49.4094042 ], [ 8.7111116, 49.4093615 ], [ 8.7111331, 49.409097 ], [ 8.7111147, 49.4088325 ], [ 8.7110567, 49.4085704 ], [ 8.7109596, 49.4083132 ], [ 8.7108244, 49.4080636 ], [ 8.7106523, 49.4078237 ], [ 8.710445, 49.4075961 ], [ 8.7102045, 49.4073828 ], [ 8.7099331, 49.4071859 ], [ 8.7096334, 49.4070073 ], [ 8.7093084, 49.4068487 ], [ 8.7089611, 49.4067117 ], [ 8.7085949, 49.4065975 ], [ 8.7082134, 49.4065074 ], [ 8.7078201, 49.406442 ], [ 8.7074189, 49.4064022 ], [ 8.7070137, 49.4063881 ], [ 8.7068291, 49.4063936 ], [ 8.7065082, 49.4062936 ], [ 8.7061267, 49.4062034 ], [ 8.7057334, 49.406138 ], [ 8.7053322, 49.4060982 ], [ 8.704927, 49.4060841 ], [ 8.7045216, 49.4060961 ], [ 8.7041199, 49.4061339 ], [ 8.7037259, 49.4061973 ], [ 8.7033432, 49.4062855 ], [ 8.7029757, 49.4063978 ], [ 8.7026268, 49.406533 ], [ 8.7022999, 49.4066899 ], [ 8.7019981, 49.406867 ], [ 8.7017244, 49.4070625 ], [ 8.7014814, 49.4072746 ], [ 8.7012714, 49.4075012 ], [ 8.7010964, 49.4077401 ], [ 8.7009582, 49.4079891 ], [ 8.700858, 49.4082457 ], [ 8.7007968, 49.4085075 ], [ 8.7007753, 49.408772 ], [ 8.7007936, 49.4090365 ], [ 8.7008516, 49.4092986 ], [ 8.7008852, 49.4093878 ], [ 8.7009094, 49.4094969 ], [ 8.7010064, 49.4097541 ], [ 8.701057, 49.4098475 ], [ 8.7010217, 49.4098365 ], [ 8.7006402, 49.4097463 ], [ 8.700596, 49.4097389 ], [ 8.7004913, 49.4097142 ], [ 8.700098, 49.4096488 ], [ 8.6996968, 49.4096089 ], [ 8.6992915, 49.4095948 ], [ 8.6988861, 49.4096068 ], [ 8.6984844, 49.4096446 ], [ 8.6980903, 49.4097079 ], [ 8.6977076, 49.4097961 ], [ 8.6976984, 49.4097989 ], [ 8.6977884, 49.4096369 ], [ 8.6978886, 49.4093803 ], [ 8.6979497, 49.4091185 ], [ 8.6979584, 49.4090125 ], [ 8.6980768, 49.4088847 ], [ 8.6982518, 49.4086458 ], [ 8.69839, 49.4083968 ], [ 8.6984902, 49.4081402 ], [ 8.6985513, 49.4078784 ], [ 8.6985729, 49.407614 ], [ 8.6985546, 49.4073494 ], [ 8.6984966, 49.4070873 ], [ 8.6984349, 49.4069237 ], [ 8.698437, 49.4068979 ], [ 8.6984187, 49.4066333 ], [ 8.6983608, 49.4063712 ], [ 8.6982637, 49.4061141 ], [ 8.6981286, 49.4058644 ], [ 8.6979565, 49.4056245 ], [ 8.6977493, 49.4053969 ], [ 8.6975089, 49.4051835 ], [ 8.6972375, 49.4049866 ], [ 8.696938, 49.404808 ], [ 8.696613, 49.4046494 ], [ 8.6965585, 49.4046279 ], [ 8.6965503, 49.4045904 ], [ 8.6964532, 49.4043332 ], [ 8.6963181, 49.4040835 ], [ 8.696146, 49.4038437 ], [ 8.6959388, 49.403616 ], [ 8.6956984, 49.4034027 ], [ 8.6954271, 49.4032057 ], [ 8.6951275, 49.4030271 ], [ 8.6950909, 49.4030092 ], [ 8.6951922, 49.4028708 ], [ 8.6953305, 49.4026218 ], [ 8.6954307, 49.4023652 ], [ 8.6954918, 49.4021034 ], [ 8.6955134, 49.401839 ], [ 8.6954951, 49.4015744 ], [ 8.6954372, 49.4013123 ], [ 8.6953402, 49.4010552 ], [ 8.695205, 49.4008055 ], [ 8.695033, 49.4005656 ], [ 8.6950198, 49.4005512 ], [ 8.6950223, 49.4005406 ], [ 8.6950439, 49.4002762 ], [ 8.6950256, 49.4000116 ], [ 8.6949677, 49.3997495 ], [ 8.6949496, 49.3997017 ], [ 8.6949352, 49.3996362 ], [ 8.6948382, 49.3993791 ], [ 8.694703, 49.3991294 ], [ 8.694531, 49.3988895 ], [ 8.6943238, 49.3986619 ], [ 8.6940834, 49.3984485 ], [ 8.6938122, 49.3982516 ], [ 8.6936696, 49.3981665 ], [ 8.6936583, 49.3980038 ] ] ], [ [ [ 8.72, 49.4171041 ], [ 8.72, 49.422 ], [ 8.6932333, 49.4220038 ], [ 8.693294, 49.4217445 ], [ 8.6933155, 49.42148 ], [ 8.6932973, 49.4212155 ], [ 8.6932844, 49.4211572 ], [ 8.6935342, 49.4210107 ], [ 8.693808, 49.4208152 ], [ 8.6940511, 49.4206031 ], [ 8.6942612, 49.4203765 ], [ 8.6944363, 49.4201376 ], [ 8.6945746, 49.4198886 ], [ 8.6946748, 49.419632 ], [ 8.694736, 49.4193702 ], [ 8.694743, 49.4192836 ], [ 8.6947914, 49.4192604 ], [ 8.6950933, 49.4190833 ], [ 8.6953671, 49.4188878 ], [ 8.6956102, 49.4186758 ], [ 8.6958203, 49.4184492 ], [ 8.6959954, 49.4182103 ], [ 8.6961336, 49.4179613 ], [ 8.6962339, 49.4177047 ], [ 8.696295, 49.4174429 ], [ 8.6963166, 49.4171784 ], [ 8.6962983, 49.4169139 ], [ 8.6962404, 49.4166518 ], [ 8.6961433, 49.4163946 ], [ 8.6960255, 49.416177 ], [ 8.6964172, 49.4161401 ], [ 8.6968114, 49.4160768 ], [ 8.6971941, 49.4159886 ], [ 8.6975617, 49.4158763 ], [ 8.6979107, 49.4157411 ], [ 8.6982377, 49.4155842 ], [ 8.6985395, 49.4154072 ], [ 8.6988133, 49.4152117 ], [ 8.6989413, 49.4151 ], [ 8.6993155, 49.415113 ], [ 8.6994925, 49.4151077 ], [ 8.6995865, 49.415137 ], [ 8.6999681, 49.4152273 ], [ 8.7003614, 49.4152926 ], [ 8.7004734, 49.4153038 ], [ 8.7005117, 49.4153101 ], [ 8.7008086, 49.4153396 ], [ 8.7008768, 49.4153558 ], [ 8.7012702, 49.4154211 ], [ 8.7016714, 49.415461 ], [ 8.7019738, 49.4154715 ], [ 8.7020685, 49.4157223 ], [ 8.7022037, 49.415972 ], [ 8.7023758, 49.4162118 ], [ 8.7025831, 49.4164395 ], [ 8.7028236, 49.4166528 ], [ 8.703095, 49.4168497 ], [ 8.7033947, 49.4170283 ], [ 8.7037198, 49.4171869 ], [ 8.7040671, 49.417324 ], [ 8.7044334, 49.4174381 ], [ 8.704815, 49.4175283 ], [ 8.7052084, 49.4175936 ], [ 8.7056096, 49.4176335 ], [ 8.706015, 49.4176476 ], [ 8.7064205, 49.4176356 ], [ 8.7068222, 49.4175978 ], [ 8.7071103, 49.4175514 ], [ 8.7073008, 49.4176266 ], [ 8.7076671, 49.4177408 ], [ 8.7080488, 49.4178309 ], [ 8.7084421, 49.4178963 ], [ 8.7088434, 49.4179361 ], [ 8.7092488, 49.4179502 ], [ 8.7096543, 49.4179382 ], [ 8.710056, 49.4179003 ], [ 8.7104501, 49.417837 ], [ 8.7108328, 49.4177487 ], [ 8.7112004, 49.4176364 ], [ 8.7115494, 49.4175011 ], [ 8.7118764, 49.4173442 ], [ 8.7121782, 49.4171671 ], [ 8.7123578, 49.4170388 ], [ 8.7123721, 49.4170651 ], [ 8.7125443, 49.4173049 ], [ 8.7127516, 49.4175326 ], [ 8.7129922, 49.4177459 ], [ 8.7132636, 49.4179428 ], [ 8.7135634, 49.4181214 ], [ 8.7138885, 49.4182799 ], [ 8.7142358, 49.4184169 ], [ 8.7146021, 49.4185311 ], [ 8.7149838, 49.4186212 ], [ 8.7153772, 49.4186865 ], [ 8.7157785, 49.4187264 ], [ 8.7161838, 49.4187404 ], [ 8.7165893, 49.4187284 ], [ 8.7169911, 49.4186905 ], [ 8.7173852, 49.4186271 ], [ 8.7177679, 49.4185388 ], [ 8.7181355, 49.4184265 ], [ 8.7184845, 49.4182912 ], [ 8.7188114, 49.4181342 ], [ 8.7191132, 49.4179571 ], [ 8.7193869, 49.4177616 ], [ 8.7196299, 49.4175495 ], [ 8.7198399, 49.4173228 ], [ 8.72, 49.4171041 ] ] ], [ [ [ 8.6851186, 49.4219845 ], [ 8.6851259, 49.4220038 ], [ 8.6787087, 49.4220033 ], [ 8.6787633, 49.4219822 ], [ 8.6790904, 49.4218253 ], [ 8.6793923, 49.4216483 ], [ 8.6796662, 49.4214529 ], [ 8.6799094, 49.4212408 ], [ 8.6801196, 49.4210143 ], [ 8.6802947, 49.4207754 ], [ 8.6804331, 49.4205264 ], [ 8.6805334, 49.4202698 ], [ 8.6805947, 49.420008 ], [ 8.6806163, 49.4197436 ], [ 8.6806022, 49.419539 ], [ 8.6806066, 49.4194858 ], [ 8.6805884, 49.4192212 ], [ 8.6805305, 49.4189591 ], [ 8.6804335, 49.418702 ], [ 8.6802984, 49.4184523 ], [ 8.680167, 49.418269 ], [ 8.6803275, 49.4180501 ], [ 8.6804659, 49.4178011 ], [ 8.6805662, 49.4175445 ], [ 8.6806274, 49.4172827 ], [ 8.6806345, 49.4171958 ], [ 8.6806372, 49.4171843 ], [ 8.6806588, 49.4169199 ], [ 8.6806406, 49.4166553 ], [ 8.6805828, 49.4163932 ], [ 8.6804858, 49.4161361 ], [ 8.6803507, 49.4158864 ], [ 8.6801787, 49.4156465 ], [ 8.6799715, 49.4154188 ], [ 8.6798952, 49.4153511 ], [ 8.6798944, 49.4153502 ], [ 8.679654, 49.4151368 ], [ 8.6793827, 49.4149399 ], [ 8.6792802, 49.4148787 ], [ 8.6795323, 49.4147578 ], [ 8.6798342, 49.4145808 ], [ 8.6801081, 49.4143854 ], [ 8.6803513, 49.4141733 ], [ 8.6805614, 49.4139468 ], [ 8.6807365, 49.4137079 ], [ 8.6808748, 49.4134589 ], [ 8.6809751, 49.4132023 ], [ 8.6810364, 49.4129405 ], [ 8.6810397, 49.4128993 ], [ 8.6810507, 49.4128526 ], [ 8.6810723, 49.4125882 ], [ 8.6810541, 49.4123236 ], [ 8.6809962, 49.4120615 ], [ 8.6808993, 49.4118044 ], [ 8.6807642, 49.4115547 ], [ 8.6805922, 49.4113148 ], [ 8.680385, 49.4110871 ], [ 8.6801446, 49.4108737 ], [ 8.6798733, 49.4106767 ], [ 8.6797765, 49.4106189 ], [ 8.679905, 49.4105272 ], [ 8.6801482, 49.4103151 ], [ 8.6803583, 49.4100886 ], [ 8.6805334, 49.4098497 ], [ 8.6806717, 49.4096007 ], [ 8.6807267, 49.4094601 ], [ 8.6809303, 49.4092406 ], [ 8.6811053, 49.4090017 ], [ 8.6812437, 49.4087527 ], [ 8.6813439, 49.4084961 ], [ 8.6814052, 49.4082343 ], [ 8.6814268, 49.4079699 ], [ 8.681423, 49.4079147 ], [ 8.6814241, 49.4079014 ], [ 8.6814229, 49.4078835 ], [ 8.6815606, 49.4078795 ], [ 8.6817174, 49.407956 ], [ 8.6818089, 49.4079921 ], [ 8.6819475, 49.4080747 ], [ 8.6822724, 49.4082334 ], [ 8.6826196, 49.4083705 ], [ 8.6829858, 49.4084847 ], [ 8.6833673, 49.408575 ], [ 8.683715, 49.4086328 ], [ 8.6835265, 49.4087972 ], [ 8.6833164, 49.4090237 ], [ 8.6831414, 49.4092626 ], [ 8.683003, 49.4095116 ], [ 8.6829028, 49.4097682 ], [ 8.6828415, 49.41003 ], [ 8.6828199, 49.4102944 ], [ 8.6828381, 49.410559 ], [ 8.682896, 49.4108211 ], [ 8.6829929, 49.4110782 ], [ 8.6831281, 49.4113279 ], [ 8.6833, 49.4115678 ], [ 8.6835072, 49.4117955 ], [ 8.6837476, 49.4120089 ], [ 8.6840189, 49.4122058 ], [ 8.6843185, 49.4123845 ], [ 8.6846435, 49.4125431 ], [ 8.6849908, 49.4126802 ], [ 8.6853569, 49.4127944 ], [ 8.6857385, 49.4128847 ], [ 8.6861318, 49.4129501 ], [ 8.686533, 49.4129901 ], [ 8.6869383, 49.4130042 ], [ 8.6873438, 49.4129923 ], [ 8.6877455, 49.4129545 ], [ 8.6878864, 49.4129319 ], [ 8.6880993, 49.4130864 ], [ 8.6881019, 49.413088 ], [ 8.6880157, 49.4133087 ], [ 8.6879545, 49.4135705 ], [ 8.6879329, 49.4138349 ], [ 8.6879511, 49.4140995 ], [ 8.688009, 49.4143616 ], [ 8.6880342, 49.4144282 ], [ 8.6880153, 49.4146591 ], [ 8.6880169, 49.4146822 ], [ 8.68801, 49.4147667 ], [ 8.6880102, 49.4147687 ], [ 8.6880089, 49.4147837 ], [ 8.68763, 49.4147207 ], [ 8.6872288, 49.4146807 ], [ 8.6868235, 49.4146667 ], [ 8.686418, 49.4146785 ], [ 8.6860163, 49.4147163 ], [ 8.6856221, 49.4147796 ], [ 8.6852394, 49.4148678 ], [ 8.6848718, 49.41498 ], [ 8.6845227, 49.4151152 ], [ 8.6841957, 49.415272 ], [ 8.6838938, 49.4154491 ], [ 8.68362, 49.4156445 ], [ 8.6833768, 49.4158566 ], [ 8.6831667, 49.4160831 ], [ 8.6829916, 49.416322 ], [ 8.6828533, 49.416571 ], [ 8.682753, 49.4168276 ], [ 8.6826917, 49.4170894 ], [ 8.6826701, 49.4173538 ], [ 8.6826883, 49.4176184 ], [ 8.6827462, 49.4178805 ], [ 8.6828432, 49.4181376 ], [ 8.6829783, 49.4183873 ], [ 8.6831503, 49.4186272 ], [ 8.6833575, 49.4188549 ], [ 8.683598, 49.4190683 ], [ 8.6838693, 49.4192652 ], [ 8.6841689, 49.4194439 ], [ 8.684494, 49.4196025 ], [ 8.6848413, 49.4197396 ], [ 8.6852075, 49.4198538 ], [ 8.6855891, 49.4199441 ], [ 8.685741, 49.4199693 ], [ 8.685539, 49.4201871 ], [ 8.6853639, 49.420426 ], [ 8.6852256, 49.420675 ], [ 8.6851253, 49.4209316 ], [ 8.6850641, 49.4211934 ], [ 8.6850425, 49.4214578 ], [ 8.6850607, 49.4217224 ], [ 8.6851186, 49.4219845 ] ] ], [ [ [ 8.6690056, 49.422002 ], [ 8.66, 49.422 ], [ 8.66, 49.4078589 ], [ 8.6600078, 49.4078591 ], [ 8.6604132, 49.4078473 ], [ 8.6608149, 49.4078097 ], [ 8.661209, 49.4077465 ], [ 8.6615917, 49.4076584 ], [ 8.6619594, 49.4075462 ], [ 8.6620996, 49.4074919 ], [ 8.662126, 49.4074928 ], [ 8.6625314, 49.407481 ], [ 8.6629331, 49.4074434 ], [ 8.6633272, 49.4073802 ], [ 8.6637099, 49.4072921 ], [ 8.6638976, 49.4072348 ], [ 8.6641547, 49.4073882 ], [ 8.6644796, 49.4075469 ], [ 8.6648268, 49.4076841 ], [ 8.6651929, 49.4077984 ], [ 8.6655744, 49.4078887 ], [ 8.665722, 49.4079133 ], [ 8.665627, 49.4080428 ], [ 8.6654886, 49.4082917 ], [ 8.6653883, 49.4085483 ], [ 8.6653269, 49.4088101 ], [ 8.6653052, 49.4090745 ], [ 8.6653233, 49.4093391 ], [ 8.6653811, 49.4096012 ], [ 8.665478, 49.4098583 ], [ 8.6655397, 49.4099726 ], [ 8.6655583, 49.4100217 ], [ 8.6656933, 49.4102715 ], [ 8.6658652, 49.4105114 ], [ 8.6660723, 49.4107391 ], [ 8.6663126, 49.4109525 ], [ 8.6665838, 49.4111495 ], [ 8.6668834, 49.4113282 ], [ 8.6672083, 49.4114869 ], [ 8.6675555, 49.411624 ], [ 8.6679216, 49.4117383 ], [ 8.6683031, 49.4118286 ], [ 8.6686964, 49.4118941 ], [ 8.6690976, 49.4119341 ], [ 8.6695029, 49.4119482 ], [ 8.6699083, 49.4119364 ], [ 8.6701388, 49.4119148 ], [ 8.6702577, 49.4119113 ], [ 8.6706594, 49.4118736 ], [ 8.6710535, 49.4118104 ], [ 8.6714362, 49.4117222 ], [ 8.6718039, 49.4116101 ], [ 8.6720232, 49.4115251 ], [ 8.6724071, 49.4115385 ], [ 8.6726166, 49.4115324 ], [ 8.6726061, 49.4115467 ], [ 8.6724677, 49.4117956 ], [ 8.6723674, 49.4120522 ], [ 8.6723061, 49.412314 ], [ 8.6722844, 49.4125785 ], [ 8.6723026, 49.412843 ], [ 8.6723604, 49.4131051 ], [ 8.6724573, 49.4133623 ], [ 8.6725924, 49.413612 ], [ 8.6727643, 49.4138519 ], [ 8.6729715, 49.4140796 ], [ 8.6732118, 49.414293 ], [ 8.6734831, 49.41449 ], [ 8.6737652, 49.4146583 ], [ 8.6735858, 49.4147443 ], [ 8.6732839, 49.4149213 ], [ 8.67301, 49.4151167 ], [ 8.6727668, 49.4153287 ], [ 8.6725566, 49.4155553 ], [ 8.6725448, 49.4155714 ], [ 8.6724857, 49.4156351 ], [ 8.6723106, 49.415874 ], [ 8.6721722, 49.4161229 ], [ 8.6720718, 49.4163795 ], [ 8.6720105, 49.4166413 ], [ 8.6720083, 49.4166684 ], [ 8.6719926, 49.4167354 ], [ 8.6719709, 49.4169998 ], [ 8.6719722, 49.4170178 ], [ 8.6718183, 49.4169922 ], [ 8.6714171, 49.4169522 ], [ 8.6710117, 49.4169381 ], [ 8.6706872, 49.4169475 ], [ 8.6706289, 49.4169128 ], [ 8.6703039, 49.4167541 ], [ 8.6699567, 49.416617 ], [ 8.6695905, 49.4165027 ], [ 8.669209, 49.4164124 ], [ 8.6688157, 49.4163469 ], [ 8.6684144, 49.4163069 ], [ 8.6680091, 49.4162928 ], [ 8.667995, 49.4162932 ], [ 8.667906, 49.4162901 ], [ 8.6678842, 49.4162907 ], [ 8.6677973, 49.4162877 ], [ 8.6673918, 49.4162995 ], [ 8.6669901, 49.4163372 ], [ 8.6667383, 49.4163776 ], [ 8.6664122, 49.4163662 ], [ 8.6660067, 49.416378 ], [ 8.6656049, 49.4164157 ], [ 8.6652108, 49.4164789 ], [ 8.664828, 49.416567 ], [ 8.6644603, 49.4166791 ], [ 8.6641112, 49.4168143 ], [ 8.6637841, 49.4169711 ], [ 8.6634821, 49.417148 ], [ 8.6632082, 49.4173435 ], [ 8.6629649, 49.4175555 ], [ 8.6627547, 49.417782 ], [ 8.6625795, 49.4180209 ], [ 8.6624411, 49.4182698 ], [ 8.6623407, 49.4185264 ], [ 8.6622793, 49.4187882 ], [ 8.6622576, 49.4190526 ], [ 8.6622604, 49.4190943 ], [ 8.6622582, 49.4191218 ], [ 8.6622763, 49.4193863 ], [ 8.662334, 49.4196485 ], [ 8.6624309, 49.4199056 ], [ 8.6625659, 49.4201554 ], [ 8.6627379, 49.4203953 ], [ 8.662945, 49.420623 ], [ 8.6631854, 49.4208364 ], [ 8.6634566, 49.4210334 ], [ 8.6637562, 49.4212121 ], [ 8.6640812, 49.4213708 ], [ 8.6644284, 49.421508 ], [ 8.6647946, 49.4216223 ], [ 8.6651762, 49.4217126 ], [ 8.6655696, 49.4217781 ], [ 8.6659708, 49.4218181 ], [ 8.6663762, 49.4218322 ], [ 8.6665266, 49.4218279 ], [ 8.6666231, 49.4218507 ], [ 8.6670164, 49.4219162 ], [ 8.6674177, 49.4219562 ], [ 8.6678231, 49.4219703 ], [ 8.6682286, 49.4219585 ], [ 8.6686304, 49.4219208 ], [ 8.6687511, 49.4219015 ], [ 8.6690056, 49.422002 ] ] ], [ [ [ 8.66, 49.4022562 ], [ 8.66, 49.398 ], [ 8.6694069, 49.3980021 ], [ 8.6694064, 49.3980083 ], [ 8.6694246, 49.3982728 ], [ 8.6694824, 49.3985349 ], [ 8.6695792, 49.3987921 ], [ 8.6697142, 49.3990418 ], [ 8.6698861, 49.3992817 ], [ 8.6699537, 49.399356 ], [ 8.6699915, 49.3994088 ], [ 8.6701986, 49.3996365 ], [ 8.6704389, 49.3998499 ], [ 8.6706917, 49.4000336 ], [ 8.670436, 49.4000746 ], [ 8.6700533, 49.4001628 ], [ 8.6696858, 49.4002749 ], [ 8.6693368, 49.4004101 ], [ 8.6692204, 49.4004659 ], [ 8.6688868, 49.4004542 ], [ 8.6684815, 49.4004661 ], [ 8.6680798, 49.4005038 ], [ 8.6676858, 49.400567 ], [ 8.6673032, 49.4006551 ], [ 8.6669356, 49.4007673 ], [ 8.6665866, 49.4009024 ], [ 8.6662642, 49.401057 ], [ 8.6660928, 49.401051 ], [ 8.6656874, 49.4010629 ], [ 8.6652858, 49.4011006 ], [ 8.6648917, 49.4011638 ], [ 8.6645091, 49.4012519 ], [ 8.6641415, 49.401364 ], [ 8.6637925, 49.4014992 ], [ 8.6634655, 49.401656 ], [ 8.6631636, 49.4018329 ], [ 8.6631243, 49.401861 ], [ 8.6630077, 49.4019293 ], [ 8.6629755, 49.4019523 ], [ 8.662902, 49.401945 ], [ 8.6628959, 49.401944 ], [ 8.6624948, 49.4019039 ], [ 8.6620896, 49.4018898 ], [ 8.6616842, 49.4019016 ], [ 8.6612826, 49.4019392 ], [ 8.6608885, 49.4020024 ], [ 8.6605059, 49.4020905 ], [ 8.6601383, 49.4022027 ], [ 8.66, 49.4022562 ] ] ], [ [ [ 8.680599, 49.3980139 ], [ 8.6805727, 49.3980035 ], [ 8.684722, 49.3980038 ], [ 8.6846977, 49.3980369 ], [ 8.6845594, 49.3982859 ], [ 8.6844592, 49.3985425 ], [ 8.684398, 49.3988042 ], [ 8.6843763, 49.3990687 ], [ 8.6843946, 49.3993332 ], [ 8.6844524, 49.3995953 ], [ 8.6844603, 49.3996162 ], [ 8.6844733, 49.3996752 ], [ 8.6845703, 49.3999324 ], [ 8.6847054, 49.4001821 ], [ 8.6848773, 49.400422 ], [ 8.6850845, 49.4006497 ], [ 8.6853248, 49.400863 ], [ 8.6855961, 49.40106 ], [ 8.6858956, 49.4012386 ], [ 8.6862205, 49.4013973 ], [ 8.6862399, 49.4014049 ], [ 8.6863, 49.4014343 ], [ 8.6866472, 49.4015714 ], [ 8.6868819, 49.4016446 ], [ 8.6870453, 49.4018242 ], [ 8.6872571, 49.4020122 ], [ 8.6872618, 49.4020814 ], [ 8.6873197, 49.4023435 ], [ 8.6874167, 49.4026007 ], [ 8.6875518, 49.4028504 ], [ 8.6877238, 49.4030903 ], [ 8.687931, 49.403318 ], [ 8.688164, 49.4035248 ], [ 8.6879272, 49.4034854 ], [ 8.6876004, 49.4034528 ], [ 8.6874989, 49.4033627 ], [ 8.6872276, 49.4031658 ], [ 8.6869281, 49.4029871 ], [ 8.6866032, 49.4028285 ], [ 8.686256, 49.4026914 ], [ 8.6860764, 49.4026354 ], [ 8.6859917, 49.4025172 ], [ 8.6857845, 49.4022895 ], [ 8.6855442, 49.4020762 ], [ 8.6853712, 49.4019506 ], [ 8.6852064, 49.4017694 ], [ 8.6849661, 49.4015561 ], [ 8.6846948, 49.4013591 ], [ 8.6843953, 49.4011805 ], [ 8.6843212, 49.4011443 ], [ 8.6843136, 49.4011241 ], [ 8.6841785, 49.4008743 ], [ 8.6840065, 49.4006345 ], [ 8.6837994, 49.4004068 ], [ 8.683559, 49.4001934 ], [ 8.6832878, 49.3999964 ], [ 8.6829883, 49.3998178 ], [ 8.6826634, 49.3996591 ], [ 8.6823162, 49.399522 ], [ 8.6822625, 49.3995053 ], [ 8.6822511, 49.3994841 ], [ 8.6822491, 49.3994788 ], [ 8.682114, 49.3992291 ], [ 8.681942, 49.3989892 ], [ 8.6817349, 49.3987615 ], [ 8.6814946, 49.3985482 ], [ 8.6812234, 49.3983512 ], [ 8.6809239, 49.3981725 ], [ 8.680599, 49.3980139 ] ] ] ] } }
]
}
