{
"type": "FeatureCollection",
"features": [
{ "type": "Feature", "properties": { "index": "0", "last_edit_year": 2025, "years_since_edit": 1, "label": "1.0–2.0 yr", "color": "#a9db8e" }, "geometry": { "type": "Point", "coordinates": [ 8.7068472, 49.4092015 ] } },
{ "type": "Feature", "properties": { "index": "1", "last_edit_year": 2026, "years_since_edit": 0, "label": "0.0–1.0 yr", "color": "#ffc" }, "geometry": { "type": "Point", "coordinates": [ 8.6720893, 49.4030509 ] } },
{ "type": "Feature", "properties": { "index": "2", "last_edit_year": 2025, "years_since_edit": 1, "label": "1.0–2.0 yr", "color": "#a9db8e" }, "geometry": { "type": "Point", "coordinates": [ 8.6935587, 49.4096042 ] } },
{ "type": "Feature", "properties": { "index": "3", "last_edit_year": 2021, "years_since_edit": 5, "label": "4.0–5.0 yr", "color": "#006837" }, "geometry": { "type": "Point", "coordinates": [ 8.692728, 49.409761 ] } },
{ "type": "Feature", "properties": { "index": "4", "last_edit_year": 2022, "years_since_edit": 4, "label": "4.0–5.0 yr", "color": "#006837" }, "geometry": { "type": "Point", "coordinates": [ 8.6924098, 49.4088043 ] } },
{ "type": "Feature", "properties": { "index": "5", "last_edit_year": 2022, "years_since_edit": 4, "label": "4.0–5.0 yr", "color": "#006837" }, "geometry": { "type": "Point", "coordinates": [ 8.6925549, 49.4092056 ] } },
{ "type": "Feature", "properties": { "index": "6", "last_edit_year": 2025, "years_since_edit": 1, "label": "1.0–2.0 yr", "color": "#a9db8e" }, "geometry": { "type": "Point", "coordinates": [ 8.7013347, 49.4126656 ] } },
{ "type": "Feature", "properties": { "index": "7", "last_edit_year": 2025, "years_since_edit": 1, "label": "1.0–2.0 yr", "color": "#a9db8e" }, "geometry": { "type": "Point", "coordinates": [ 8.7020931, 49.4127766 ] } },
{ "type": "Feature", "properties": { "index": "8", "last_edit_year": 2022, "years_since_edit": 4, "label": "4.0–5.0 yr", "color": "#006837" }, "geometry": { "type": "Point", "coordinates": [ 8.6919797, 49.4171209 ] } },
{ "type": "Feature", "properties": { "index": "9", "last_edit_year": 2023, "years_since_edit": 3, "label": "2.0–4.0 yr", "color": "#49af60" }, "geometry": { "type": "Point", "coordinates": [ 8.6943017, 49.406887 ] } },
{ "type": "Feature", "properties": { "index": "10", "last_edit_year": 2023, "years_since_edit": 3, "label": "2.0–4.0 yr", "color": "#49af60" }, "geometry": { "type": "Point", "coordinates": [ 8.6694347, 49.4051539 ] } },
{ "type": "Feature", "properties": { "index": "11", "last_edit_year": 2021, "years_since_edit": 5, "label": "4.0–5.0 yr", "color": "#006837" }, "geometry": { "type": "Point", "coordinates": [ 8.6769365, 49.4125767 ] } },
{ "type": "Feature", "properties": { "index": "12", "last_edit_year": 2024, "years_since_edit": 2, "label": "2.0–4.0 yr", "color": "#49af60" }, "geometry": { "type": "Point", "coordinates": [ 8.6767194, 49.4088064 ] } },
{ "type": "Feature", "properties": { "index": "13", "last_edit_year": 2021, "years_since_edit": 5, "label": "4.0–5.0 yr", "color": "#006837" }, "geometry": { "type": "Point", "coordinates": [ 8.6765129, 49.4170068 ] } },
{ "type": "Feature", "properties": { "index": "14", "last_edit_year": 2021, "years_since_edit": 5, "label": "4.0–5.0 yr", "color": "#006837" }, "geometry": { "type": "Point", "coordinates": [ 8.6904208, 49.4190488 ] } },
{ "type": "Feature", "properties": { "index": "15", "last_edit_year": 2021, "years_since_edit": 5, "label": "4.0–5.0 yr", "color": "#006837" }, "geometry": { "type": "Point", "coordinates": [ 8.6845843, 49.405996 ] } },
{ "type": "Feature", "properties": { "index": "16", "last_edit_year": 2024, "years_since_edit": 2, "label": "2.0–4.0 yr", "color": "#49af60" }, "geometry": { "type": "Point", "coordinates": [ 8.6839225, 49.405141 ] } },
{ "type": "Feature", "properties": { "index": "17", "last_edit_year": 2026, "years_since_edit": 0, "label": "0.0–1.0 yr", "color": "#ffc" }, "geometry": { "type": "Point", "coordinates": [ 8.6764202, 49.4125901 ] } },
{ "type": "Feature", "properties": { "index": "18", "last_edit_year": 2026, "years_since_edit": 0, "label": "0.0–1.0 yr", "color": "#ffc" }, "geometry": { "type": "Point", "coordinates": [ 8.6761071, 49.4170115 ] } },
{ "type": "Feature", "properties": { "index": "19", "last_edit_year": 2026, "years_since_edit": 0, "label": "0.0–1.0 yr", "color": "#ffc" }, "geometry": { "type": "Point", "coordinates": [ 8.6759548, 49.4194654 ] } },
{ "type": "Feature", "properties": { "index": "20", "last_edit_year": 2026, "years_since_edit": 0, "label": "0.0–1.0 yr", "color": "#ffc" }, "geometry": { "type": "Point", "coordinates": [ 8.6698685, 49.4090125 ] } },
{ "type": "Feature", "properties": { "index": "21", "last_edit_year": 2026, "years_since_edit": 0, "label": "0.0–1.0 yr", "color": "#ffc" }, "geometry": { "type": "Point", "coordinates": [ 8.6694407, 49.4090864 ] } },
{ "type": "Feature", "properties": { "index": "22", "last_edit_year": 2023, "years_since_edit": 3, "label": "2.0–4.0 yr", "color": "#49af60" }, "geometry": { "type": "Point", "coordinates": [ 8.6698703, 49.4092247 ] } },
{ "type": "Feature", "properties": { "index": "23", "last_edit_year": 2026, "years_since_edit": 0, "label": "0.0–1.0 yr", "color": "#ffc" }, "geometry": { "type": "Point", "coordinates": [ 8.6696477, 49.4090688 ] } },
{ "type": "Feature", "properties": { "index": "24", "last_edit_year": 2024, "years_since_edit": 2, "label": "2.0–4.0 yr", "color": "#49af60" }, "geometry": { "type": "Point", "coordinates": [ 8.6749603, 49.4195109 ] } },
{ "type": "Feature", "properties": { "index": "25", "last_edit_year": 2023, "years_since_edit": 3, "label": "2.0–4.0 yr", "color": "#49af60" }, "geometry": { "type": "Point", "coordinates": [ 8.6678878, 49.4189885 ] } },
{ "type": "Feature", "properties": { "index": "26", "last_edit_year": 2022, "years_since_edit": 4, "label": "4.0–5.0 yr", "color": "#006837" }, "geometry": { "type": "Point", "coordinates": [ 8.6709937, 49.4196365 ] } },
{ "type": "Feature", "properties": { "index": "27", "last_edit_year": 2024, "years_since_edit": 2, "label": "2.0–4.0 yr", "color": "#49af60" }, "geometry": { "type": "Point", "coordinates": [ 8.6678413, 49.4192719 ] } },
{ "type": "Feature", "properties": { "index": "28", "last_edit_year": 2021, "years_since_edit": 5, "label": "4.0–5.0 yr", "color": "#006837" }, "geometry": { "type": "Point", "coordinates": [ 8.6704022, 49.4081349 ] } },
{ "type": "Feature", "properties": { "index": "29", "last_edit_year": 2021, "years_since_edit": 5, "label": "4.0–5.0 yr", "color": "#006837" }, "geometry": { "type": "Point", "coordinates": [ 8.6765227, 49.4169084 ] } },
{ "type": "Feature", "properties": { "index": "30", "last_edit_year": 2026, "years_since_edit": 0, "label": "0.0–1.0 yr", "color": "#ffc" }, "geometry": { "type": "Point", "coordinates": [ 8.676125, 49.4169174 ] } },
{ "type": "Feature", "properties": { "index": "31", "last_edit_year": 2026, "years_since_edit": 0, "label": "0.0–1.0 yr", "color": "#ffc" }, "geometry": { "type": "Point", "coordinates": [ 8.6760112, 49.4195951 ] } },
{ "type": "Feature", "properties": { "index": "32", "last_edit_year": 2026, "years_since_edit": 0, "label": "0.0–1.0 yr", "color": "#ffc" }, "geometry": { "type": "Point", "coordinates": [ 8.6760142, 49.4196719 ] } },
{ "type": "Feature", "properties": { "index": "33", "last_edit_year": 2026, "years_since_edit": 0, "label": "0.0–1.0 yr", "color": "#ffc" }, "geometry": { "type": "Point", "coordinates": [ 8.6761307, 49.4194808 ] } },
{ "type": "Feature", "properties": { "index": "34", "last_edit_year": 2026, "years_since_edit": 0, "label": "0.0–1.0 yr", "color": "#ffc" }, "geometry": { "type": "Point", "coordinates": [ 8.6764702, 49.4194743 ] } },
{ "type": "Feature", "properties": { "index": "35", "last_edit_year": 2021, "years_since_edit": 5, "label": "4.0–5.0 yr", "color": "#006837" }, "geometry": { "type": "Point", "coordinates": [ 8.6761303, 49.4197341 ] } },
{ "type": "Feature", "properties": { "index": "36", "last_edit_year": 2026, "years_since_edit": 0, "label": "0.0–1.0 yr", "color": "#ffc" }, "geometry": { "type": "Point", "coordinates": [ 8.6761666, 49.4170631 ] } },
{ "type": "Feature", "properties": { "index": "37", "last_edit_year": 2026, "years_since_edit": 0, "label": "0.0–1.0 yr", "color": "#ffc" }, "geometry": { "type": "Point", "coordinates": [ 8.6764442, 49.4170666 ] } },
{ "type": "Feature", "properties": { "index": "38", "last_edit_year": 2025, "years_since_edit": 1, "label": "1.0–2.0 yr", "color": "#a9db8e" }, "geometry": { "type": "Point", "coordinates": [ 8.6761959, 49.4168376 ] } },
{ "type": "Feature", "properties": { "index": "39", "last_edit_year": 2025, "years_since_edit": 1, "label": "1.0–2.0 yr", "color": "#a9db8e" }, "geometry": { "type": "Point", "coordinates": [ 8.6764456, 49.4168398 ] } },
{ "type": "Feature", "properties": { "index": "40", "last_edit_year": 2021, "years_since_edit": 5, "label": "4.0–5.0 yr", "color": "#006837" }, "geometry": { "type": "Point", "coordinates": [ 8.6769222, 49.4126646 ] } },
{ "type": "Feature", "properties": { "index": "41", "last_edit_year": 2026, "years_since_edit": 0, "label": "0.0–1.0 yr", "color": "#ffc" }, "geometry": { "type": "Point", "coordinates": [ 8.6697831, 49.4090456 ] } },
{ "type": "Feature", "properties": { "index": "42", "last_edit_year": 2024, "years_since_edit": 2, "label": "2.0–4.0 yr", "color": "#49af60" }, "geometry": { "type": "Point", "coordinates": [ 8.6676014, 49.4191421 ] } },
{ "type": "Feature", "properties": { "index": "43", "last_edit_year": 2024, "years_since_edit": 2, "label": "2.0–4.0 yr", "color": "#49af60" }, "geometry": { "type": "Point", "coordinates": [ 8.6676028, 49.4190902 ] } },
{ "type": "Feature", "properties": { "index": "44", "last_edit_year": 2023, "years_since_edit": 3, "label": "2.0–4.0 yr", "color": "#49af60" }, "geometry": { "type": "Point", "coordinates": [ 8.6679909, 49.4189912 ] } },
{ "type": "Feature", "properties": { "index": "45", "last_edit_year": 2026, "years_since_edit": 0, "label": "0.0–1.0 yr", "color": "#ffc" }, "geometry": { "type": "Point", "coordinates": [ 8.675735, 49.4051351 ] } },
{ "type": "Feature", "properties": { "index": "46", "last_edit_year": 2022, "years_since_edit": 4, "label": "4.0–5.0 yr", "color": "#006837" }, "geometry": { "type": "Point", "coordinates": [ 8.6722467, 49.4080271 ] } },
{ "type": "Feature", "properties": { "index": "47", "last_edit_year": 2022, "years_since_edit": 4, "label": "4.0–5.0 yr", "color": "#006837" }, "geometry": { "type": "Point", "coordinates": [ 8.6721653, 49.4079173 ] } },
{ "type": "Feature", "properties": { "index": "48", "last_edit_year": 2023, "years_since_edit": 3, "label": "2.0–4.0 yr", "color": "#49af60" }, "geometry": { "type": "Point", "coordinates": [ 8.7161994, 49.4160419 ] } },
{ "type": "Feature", "properties": { "index": "49", "last_edit_year": 2025, "years_since_edit": 1, "label": "1.0–2.0 yr", "color": "#a9db8e" }, "geometry": { "type": "Point", "coordinates": [ 8.6896286, 49.4068716 ] } },
{ "type": "Feature", "properties": { "index": "50", "last_edit_year": 2026, "years_since_edit": 0, "label": "0.0–1.0 yr", "color": "#ffc" }, "geometry": { "type": "Point", "coordinates": [ 8.6857752, 49.4061325 ] } },
{ "type": "Feature", "properties": { "index": "51", "last_edit_year": 2024, "years_since_edit": 2, "label": "2.0–4.0 yr", "color": "#49af60" }, "geometry": { "type": "Point", "coordinates": [ 8.6768602, 49.4077743 ] } },
{ "type": "Feature", "properties": { "index": "52", "last_edit_year": 2025, "years_since_edit": 1, "label": "1.0–2.0 yr", "color": "#a9db8e" }, "geometry": { "type": "Point", "coordinates": [ 8.7176161, 49.4139812 ] } },
{ "type": "Feature", "properties": { "index": "53", "last_edit_year": 2025, "years_since_edit": 1, "label": "1.0–2.0 yr", "color": "#a9db8e" }, "geometry": { "type": "Point", "coordinates": [ 8.718277, 49.4142149 ] } },
{ "type": "Feature", "properties": { "index": "54", "last_edit_year": 2025, "years_since_edit": 1, "label": "1.0–2.0 yr", "color": "#a9db8e" }, "geometry": { "type": "Point", "coordinates": [ 8.6944375, 49.4076031 ] } },
{ "type": "Feature", "properties": { "index": "55", "last_edit_year": 2024, "years_since_edit": 2, "label": "2.0–4.0 yr", "color": "#49af60" }, "geometry": { "type": "Point", "coordinates": [ 8.6924913, 49.4051061 ] } },
{ "type": "Feature", "properties": { "index": "56", "last_edit_year": 2021, "years_since_edit": 5, "label": "4.0–5.0 yr", "color": "#006837" }, "geometry": { "type": "Point", "coordinates": [ 8.676078, 49.4193575 ] } },
{ "type": "Feature", "properties": { "index": "57", "last_edit_year": 2021, "years_since_edit": 5, "label": "4.0–5.0 yr", "color": "#006837" }, "geometry": { "type": "Point", "coordinates": [ 8.6760776, 49.4197349 ] } },
{ "type": "Feature", "properties": { "index": "58", "last_edit_year": 2026, "years_since_edit": 0, "label": "0.0–1.0 yr", "color": "#ffc" }, "geometry": { "type": "Point", "coordinates": [ 8.6760801, 49.4194818 ] } },
{ "type": "Feature", "properties": { "index": "59", "last_edit_year": 2025, "years_since_edit": 1, "label": "1.0–2.0 yr", "color": "#a9db8e" }, "geometry": { "type": "Point", "coordinates": [ 8.7105407, 49.4135708 ] } },
{ "type": "Feature", "properties": { "index": "60", "last_edit_year": 2021, "years_since_edit": 5, "label": "4.0–5.0 yr", "color": "#006837" }, "geometry": { "type": "Point", "coordinates": [ 8.699332, 49.4124145 ] } },
{ "type": "Feature", "properties": { "index": "61", "last_edit_year": 2021, "years_since_edit": 5, "label": "4.0–5.0 yr", "color": "#006837" }, "geometry": { "type": "Point", "coordinates": [ 8.6840293, 49.4057186 ] } },
{ "type": "Feature", "properties": { "index": "62", "last_edit_year": 2024, "years_since_edit": 2, "label": "2.0–4.0 yr", "color": "#49af60" }, "geometry": { "type": "Point", "coordinates": [ 8.6842915, 49.4050659 ] } },
{ "type": "Feature", "properties": { "index": "63", "last_edit_year": 2022, "years_since_edit": 4, "label": "4.0–5.0 yr", "color": "#006837" }, "geometry": { "type": "Point", "coordinates": [ 8.6775496, 49.4041568 ] } },
{ "type": "Feature", "properties": { "index": "64", "last_edit_year": 2024, "years_since_edit": 2, "label": "2.0–4.0 yr", "color": "#49af60" }, "geometry": { "type": "Point", "coordinates": [ 8.6770147, 49.4049678 ] } },
{ "type": "Feature", "properties": { "index": "65", "last_edit_year": 2025, "years_since_edit": 1, "label": "1.0–2.0 yr", "color": "#a9db8e" }, "geometry": { "type": "Point", "coordinates": [ 8.6768601, 49.4050109 ] } },
{ "type": "Feature", "properties": { "index": "66", "last_edit_year": 2026, "years_since_edit": 0, "label": "0.0–1.0 yr", "color": "#ffc" }, "geometry": { "type": "Point", "coordinates": [ 8.6768401, 49.4060893 ] } },
{ "type": "Feature", "properties": { "index": "67", "last_edit_year": 2026, "years_since_edit": 0, "label": "0.0–1.0 yr", "color": "#ffc" }, "geometry": { "type": "Point", "coordinates": [ 8.6711578, 49.4066263 ] } },
{ "type": "Feature", "properties": { "index": "68", "last_edit_year": 2023, "years_since_edit": 3, "label": "2.0–4.0 yr", "color": "#49af60" }, "geometry": { "type": "Point", "coordinates": [ 8.688511, 49.3990799 ] } },
{ "type": "Feature", "properties": { "index": "69", "last_edit_year": 2022, "years_since_edit": 4, "label": "4.0–5.0 yr", "color": "#006837" }, "geometry": { "type": "Point", "coordinates": [ 8.6925392, 49.4070553 ] } },
{ "type": "Feature", "properties": { "index": "70", "last_edit_year": 2021, "years_since_edit": 5, "label": "4.0–5.0 yr", "color": "#006837" }, "geometry": { "type": "Point", "coordinates": [ 8.6868063, 49.4173651 ] } },
{ "type": "Feature", "properties": { "index": "71", "last_edit_year": 2026, "years_since_edit": 0, "label": "0.0–1.0 yr", "color": "#ffc" }, "geometry": { "type": "Point", "coordinates": [ 8.6906245, 49.4001049 ] } },
{ "type": "Feature", "properties": { "index": "72", "last_edit_year": 2025, "years_since_edit": 1, "label": "1.0–2.0 yr", "color": "#a9db8e" }, "geometry": { "type": "Point", "coordinates": [ 8.7058023, 49.413319 ] } },
{ "type": "Feature", "properties": { "index": "73", "last_edit_year": 2022, "years_since_edit": 4, "label": "4.0–5.0 yr", "color": "#006837" }, "geometry": { "type": "Point", "coordinates": [ 8.6923883, 49.4073107 ] } },
{ "type": "Feature", "properties": { "index": "74", "last_edit_year": 2021, "years_since_edit": 5, "label": "4.0–5.0 yr", "color": "#006837" }, "geometry": { "type": "Point", "coordinates": [ 8.6920761, 49.4091129 ] } },
{ "type": "Feature", "properties": { "index": "75", "last_edit_year": 2021, "years_since_edit": 5, "label": "4.0–5.0 yr", "color": "#006837" }, "geometry": { "type": "Point", "coordinates": [ 8.6921251, 49.4089706 ] } },
{ "type": "Feature", "properties": { "index": "76", "last_edit_year": 2024, "years_since_edit": 2, "label": "2.0–4.0 yr", "color": "#49af60" }, "geometry": { "type": "Point", "coordinates": [ 8.6748319, 49.4049462 ] } },
{ "type": "Feature", "properties": { "index": "77", "last_edit_year": 2024, "years_since_edit": 2, "label": "2.0–4.0 yr", "color": "#49af60" }, "geometry": { "type": "Point", "coordinates": [ 8.6888779, 49.3991305 ] } },
{ "type": "Feature", "properties": { "index": "78", "last_edit_year": 2024, "years_since_edit": 2, "label": "2.0–4.0 yr", "color": "#49af60" }, "geometry": { "type": "Point", "coordinates": [ 8.6774377, 49.4046103 ] } },
{ "type": "Feature", "properties": { "index": "79", "last_edit_year": 2025, "years_since_edit": 1, "label": "1.0–2.0 yr", "color": "#a9db8e" }, "geometry": { "type": "Point", "coordinates": [ 8.6709742, 49.4067131 ] } },
{ "type": "Feature", "properties": { "index": "80", "last_edit_year": 2022, "years_since_edit": 4, "label": "4.0–5.0 yr", "color": "#006837" }, "geometry": { "type": "Point", "coordinates": [ 8.6943212, 49.4074815 ] } },
{ "type": "Feature", "properties": { "index": "81", "last_edit_year": 2026, "years_since_edit": 0, "label": "0.0–1.0 yr", "color": "#ffc" }, "geometry": { "type": "Point", "coordinates": [ 8.6695009, 49.4091746 ] } },
{ "type": "Feature", "properties": { "index": "82", "last_edit_year": 2021, "years_since_edit": 5, "label": "4.0–5.0 yr", "color": "#006837" }, "geometry": { "type": "Point", "coordinates": [ 8.6812922, 49.4047927 ] } },
{ "type": "Feature", "properties": { "index": "83", "last_edit_year": 2021, "years_since_edit": 5, "label": "4.0–5.0 yr", "color": "#006837" }, "geometry": { "type": "Point", "coordinates": [ 8.6811958, 49.4051922 ] } },
{ "type": "Feature", "properties": { "index": "84", "last_edit_year": 2021, "years_since_edit": 5, "label": "4.0–5.0 yr", "color": "#006837" }, "geometry": { "type": "Point", "coordinates": [ 8.681245, 49.4049037 ] } },
{ "type": "Feature", "properties": { "index": "85", "last_edit_year": 2022, "years_since_edit": 4, "label": "4.0–5.0 yr", "color": "#006837" }, "geometry": { "type": "Point", "coordinates": [ 8.6755254, 49.4078125 ] } },
{ "type": "Feature", "properties": { "index": "86", "last_edit_year": 2025, "years_since_edit": 1, "label": "1.0–2.0 yr", "color": "#a9db8e" }, "geometry": { "type": "Point", "coordinates": [ 8.675522, 49.4079601 ] } },
{ "type": "Feature", "properties": { "index": "87", "last_edit_year": 2025, "years_since_edit": 1, "label": "1.0–2.0 yr", "color": "#a9db8e" }, "geometry": { "type": "Point", "coordinates": [ 8.71841, 49.4142364 ] } },
{ "type": "Feature", "properties": { "index": "88", "last_edit_year": 2025, "years_since_edit": 1, "label": "1.0–2.0 yr", "color": "#a9db8e" }, "geometry": { "type": "Point", "coordinates": [ 8.7185607, 49.4145136 ] } },
{ "type": "Feature", "properties": { "index": "89", "last_edit_year": 2026, "years_since_edit": 0, "label": "0.0–1.0 yr", "color": "#ffc" }, "geometry": { "type": "Point", "coordinates": [ 8.6748666, 49.4017674 ] } },
{ "type": "Feature", "properties": { "index": "90", "last_edit_year": 2021, "years_since_edit": 5, "label": "4.0–5.0 yr", "color": "#006837" }, "geometry": { "type": "Point", "coordinates": [ 8.6926799, 49.4093453 ] } },
{ "type": "Feature", "properties": { "index": "91", "last_edit_year": 2021, "years_since_edit": 5, "label": "4.0–5.0 yr", "color": "#006837" }, "geometry": { "type": "Point", "coordinates": [ 8.6924003, 49.4103329 ] } },
{ "type": "Feature", "properties": { "index": "92", "last_edit_year": 2023, "years_since_edit": 3, "label": "2.0–4.0 yr", "color": "#49af60" }, "geometry": { "type": "Point", "coordinates": [ 8.7049108, 49.4087826 ] } },
{ "type": "Feature", "properties": { "index": "93", "last_edit_year": 2023, "years_since_edit": 3, "label": "2.0–4.0 yr", "color": "#49af60" }, "geometry": { "type": "Point", "coordinates": [ 8.7049611, 49.4088298 ] } },
{ "type": "Feature", "properties": { "index": "94", "last_edit_year": 2025, "years_since_edit": 1, "label": "1.0–2.0 yr", "color": "#a9db8e" }, "geometry": { "type": "Point", "coordinates": [ 8.7049782, 49.4088976 ] } },
{ "type": "Feature", "properties": { "index": "95", "last_edit_year": 2023, "years_since_edit": 3, "label": "2.0–4.0 yr", "color": "#49af60" }, "geometry": { "type": "Point", "coordinates": [ 8.7049686, 49.4089809 ] } },
{ "type": "Feature", "properties": { "index": "96", "last_edit_year": 2025, "years_since_edit": 1, "label": "1.0–2.0 yr", "color": "#a9db8e" }, "geometry": { "type": "Point", "coordinates": [ 8.7069847, 49.4091653 ] } },
{ "type": "Feature", "properties": { "index": "97", "last_edit_year": 2025, "years_since_edit": 1, "label": "1.0–2.0 yr", "color": "#a9db8e" }, "geometry": { "type": "Point", "coordinates": [ 8.6772877, 49.4078267 ] } },
{ "type": "Feature", "properties": { "index": "98", "last_edit_year": 2025, "years_since_edit": 1, "label": "1.0–2.0 yr", "color": "#a9db8e" }, "geometry": { "type": "Point", "coordinates": [ 8.6772914, 49.4079584 ] } },
{ "type": "Feature", "properties": { "index": "99", "last_edit_year": 2021, "years_since_edit": 5, "label": "4.0–5.0 yr", "color": "#006837" }, "geometry": { "type": "Point", "coordinates": [ 8.7060311, 49.4149491 ] } },
{ "type": "Feature", "properties": { "index": "100", "last_edit_year": 2021, "years_since_edit": 5, "label": "4.0–5.0 yr", "color": "#006837" }, "geometry": { "type": "Point", "coordinates": [ 8.7092647, 49.4152517 ] } },
{ "type": "Feature", "properties": { "index": "101", "last_edit_year": 2022, "years_since_edit": 4, "label": "4.0–5.0 yr", "color": "#006837" }, "geometry": { "type": "Point", "coordinates": [ 8.6956267, 49.4134914 ] } },
{ "type": "Feature", "properties": { "index": "102", "last_edit_year": 2024, "years_since_edit": 2, "label": "2.0–4.0 yr", "color": "#49af60" }, "geometry": { "type": "Point", "coordinates": [ 8.674528, 49.405243 ] } },
{ "type": "Feature", "properties": { "index": "103", "last_edit_year": 2024, "years_since_edit": 2, "label": "2.0–4.0 yr", "color": "#49af60" }, "geometry": { "type": "Point", "coordinates": [ 8.6913785, 49.401828 ] } },
{ "type": "Feature", "properties": { "index": "104", "last_edit_year": 2021, "years_since_edit": 5, "label": "4.0–5.0 yr", "color": "#006837" }, "geometry": { "type": "Point", "coordinates": [ 8.6812581, 49.4048731 ] } },
{ "type": "Feature", "properties": { "index": "105", "last_edit_year": 2021, "years_since_edit": 5, "label": "4.0–5.0 yr", "color": "#006837" }, "geometry": { "type": "Point", "coordinates": [ 8.689179, 49.421469 ] } },
{ "type": "Feature", "properties": { "index": "106", "last_edit_year": 2026, "years_since_edit": 0, "label": "0.0–1.0 yr", "color": "#ffc" }, "geometry": { "type": "Point", "coordinates": [ 8.689206, 49.3988463 ] } },
{ "type": "Feature", "properties": { "index": "107", "last_edit_year": 2026, "years_since_edit": 0, "label": "0.0–1.0 yr", "color": "#ffc" }, "geometry": { "type": "Point", "coordinates": [ 8.689233, 49.3988809 ] } },
{ "type": "Feature", "properties": { "index": "108", "last_edit_year": 2026, "years_since_edit": 0, "label": "0.0–1.0 yr", "color": "#ffc" }, "geometry": { "type": "Point", "coordinates": [ 8.6895024, 49.3981375 ] } },
{ "type": "Feature", "properties": { "index": "109", "last_edit_year": 2026, "years_since_edit": 0, "label": "0.0–1.0 yr", "color": "#ffc" }, "geometry": { "type": "Point", "coordinates": [ 8.6736464, 49.3981471 ] } },
{ "type": "Feature", "properties": { "index": "110", "last_edit_year": 2026, "years_since_edit": 0, "label": "0.0–1.0 yr", "color": "#ffc" }, "geometry": { "type": "Point", "coordinates": [ 8.6777971, 49.4003989 ] } },
{ "type": "Feature", "properties": { "index": "111", "last_edit_year": 2022, "years_since_edit": 4, "label": "4.0–5.0 yr", "color": "#006837" }, "geometry": { "type": "Point", "coordinates": [ 8.6773126, 49.4001088 ] } },
{ "type": "Feature", "properties": { "index": "112", "last_edit_year": 2022, "years_since_edit": 4, "label": "4.0–5.0 yr", "color": "#006837" }, "geometry": { "type": "Point", "coordinates": [ 8.6771476, 49.4000292 ] } },
{ "type": "Feature", "properties": { "index": "113", "last_edit_year": 2022, "years_since_edit": 4, "label": "4.0–5.0 yr", "color": "#006837" }, "geometry": { "type": "Point", "coordinates": [ 8.6803517, 49.4018965 ] } },
{ "type": "Feature", "properties": { "index": "114", "last_edit_year": 2025, "years_since_edit": 1, "label": "1.0–2.0 yr", "color": "#a9db8e" }, "geometry": { "type": "Point", "coordinates": [ 8.6738686, 49.3980019 ] } },
{ "type": "Feature", "properties": { "index": "115", "last_edit_year": 2026, "years_since_edit": 0, "label": "0.0–1.0 yr", "color": "#ffc" }, "geometry": { "type": "Point", "coordinates": [ 8.6817587, 49.4032592 ] } },
{ "type": "Feature", "properties": { "index": "116", "last_edit_year": 2022, "years_since_edit": 4, "label": "4.0–5.0 yr", "color": "#006837" }, "geometry": { "type": "Point", "coordinates": [ 8.6776194, 49.3998968 ] } },
{ "type": "Feature", "properties": { "index": "117", "last_edit_year": 2022, "years_since_edit": 4, "label": "4.0–5.0 yr", "color": "#006837" }, "geometry": { "type": "Point", "coordinates": [ 8.6782873, 49.4002512 ] } },
{ "type": "Feature", "properties": { "index": "118", "last_edit_year": 2026, "years_since_edit": 0, "label": "0.0–1.0 yr", "color": "#ffc" }, "geometry": { "type": "Point", "coordinates": [ 8.680028, 49.4020936 ] } },
{ "type": "Feature", "properties": { "index": "119", "last_edit_year": 2026, "years_since_edit": 0, "label": "0.0–1.0 yr", "color": "#ffc" }, "geometry": { "type": "Point", "coordinates": [ 8.6795974, 49.4017604 ] } },
{ "type": "Feature", "properties": { "index": "120", "last_edit_year": 2025, "years_since_edit": 1, "label": "1.0–2.0 yr", "color": "#a9db8e" }, "geometry": { "type": "Point", "coordinates": [ 8.6993528, 49.4123588 ] } },
{ "type": "Feature", "properties": { "index": "121", "last_edit_year": 2021, "years_since_edit": 5, "label": "4.0–5.0 yr", "color": "#006837" }, "geometry": { "type": "Point", "coordinates": [ 8.6663939, 49.4190646 ] } },
{ "type": "Feature", "properties": { "index": "122", "last_edit_year": 2021, "years_since_edit": 5, "label": "4.0–5.0 yr", "color": "#006837" }, "geometry": { "type": "Point", "coordinates": [ 8.6663945, 49.4191338 ] } },
{ "type": "Feature", "properties": { "index": "123", "last_edit_year": 2021, "years_since_edit": 5, "label": "4.0–5.0 yr", "color": "#006837" }, "geometry": { "type": "Point", "coordinates": [ 8.699275, 49.4122933 ] } },
{ "type": "Feature", "properties": { "index": "124", "last_edit_year": 2021, "years_since_edit": 5, "label": "4.0–5.0 yr", "color": "#006837" }, "geometry": { "type": "Point", "coordinates": [ 8.6994239, 49.4123254 ] } },
{ "type": "Feature", "properties": { "index": "125", "last_edit_year": 2025, "years_since_edit": 1, "label": "1.0–2.0 yr", "color": "#a9db8e" }, "geometry": { "type": "Point", "coordinates": [ 8.681402, 49.4033734 ] } },
{ "type": "Feature", "properties": { "index": "126", "last_edit_year": 2025, "years_since_edit": 1, "label": "1.0–2.0 yr", "color": "#a9db8e" }, "geometry": { "type": "Point", "coordinates": [ 8.6898776, 49.4066891 ] } },
{ "type": "Feature", "properties": { "index": "127", "last_edit_year": 2025, "years_since_edit": 1, "label": "1.0–2.0 yr", "color": "#a9db8e" }, "geometry": { "type": "Point", "coordinates": [ 8.6898062, 49.4068434 ] } },
{ "type": "Feature", "properties": { "index": "128", "last_edit_year": 2025, "years_since_edit": 1, "label": "1.0–2.0 yr", "color": "#a9db8e" }, "geometry": { "type": "Point", "coordinates": [ 8.6930521, 49.4073665 ] } },
{ "type": "Feature", "properties": { "index": "129", "last_edit_year": 2025, "years_since_edit": 1, "label": "1.0–2.0 yr", "color": "#a9db8e" }, "geometry": { "type": "Point", "coordinates": [ 8.6930292, 49.4074207 ] } },
{ "type": "Feature", "properties": { "index": "130", "last_edit_year": 2026, "years_since_edit": 0, "label": "0.0–1.0 yr", "color": "#ffc" }, "geometry": { "type": "Point", "coordinates": [ 8.6925565, 49.4075162 ] } },
{ "type": "Feature", "properties": { "index": "131", "last_edit_year": 2022, "years_since_edit": 4, "label": "4.0–5.0 yr", "color": "#006837" }, "geometry": { "type": "Point", "coordinates": [ 8.6906212, 49.4190948 ] } },
{ "type": "Feature", "properties": { "index": "132", "last_edit_year": 2023, "years_since_edit": 3, "label": "2.0–4.0 yr", "color": "#49af60" }, "geometry": { "type": "Point", "coordinates": [ 8.6887097, 49.3990434 ] } },
{ "type": "Feature", "properties": { "index": "133", "last_edit_year": 2023, "years_since_edit": 3, "label": "2.0–4.0 yr", "color": "#49af60" }, "geometry": { "type": "Point", "coordinates": [ 8.6888504, 49.3990589 ] } },
{ "type": "Feature", "properties": { "index": "134", "last_edit_year": 2026, "years_since_edit": 0, "label": "0.0–1.0 yr", "color": "#ffc" }, "geometry": { "type": "Point", "coordinates": [ 8.6889093, 49.3990671 ] } },
{ "type": "Feature", "properties": { "index": "135", "last_edit_year": 2023, "years_since_edit": 3, "label": "2.0–4.0 yr", "color": "#49af60" }, "geometry": { "type": "Point", "coordinates": [ 8.6886114, 49.3991968 ] } },
{ "type": "Feature", "properties": { "index": "136", "last_edit_year": 2024, "years_since_edit": 2, "label": "2.0–4.0 yr", "color": "#49af60" }, "geometry": { "type": "Point", "coordinates": [ 8.6908766, 49.4001519 ] } },
{ "type": "Feature", "properties": { "index": "137", "last_edit_year": 2024, "years_since_edit": 2, "label": "2.0–4.0 yr", "color": "#49af60" }, "geometry": { "type": "Point", "coordinates": [ 8.6909091, 49.4002652 ] } },
{ "type": "Feature", "properties": { "index": "138", "last_edit_year": 2026, "years_since_edit": 0, "label": "0.0–1.0 yr", "color": "#ffc" }, "geometry": { "type": "Point", "coordinates": [ 8.6803671, 49.4020257 ] } },
{ "type": "Feature", "properties": { "index": "139", "last_edit_year": 2026, "years_since_edit": 0, "label": "0.0–1.0 yr", "color": "#ffc" }, "geometry": { "type": "Point", "coordinates": [ 8.6801798, 49.4021236 ] } },
{ "type": "Feature", "properties": { "index": "140", "last_edit_year": 2021, "years_since_edit": 5, "label": "4.0–5.0 yr", "color": "#006837" }, "geometry": { "type": "Point", "coordinates": [ 8.6815373, 49.4031581 ] } },
{ "type": "Feature", "properties": { "index": "141", "last_edit_year": 2022, "years_since_edit": 4, "label": "4.0–5.0 yr", "color": "#006837" }, "geometry": { "type": "Point", "coordinates": [ 8.6813067, 49.4032272 ] } },
{ "type": "Feature", "properties": { "index": "142", "last_edit_year": 2021, "years_since_edit": 5, "label": "4.0–5.0 yr", "color": "#006837" }, "geometry": { "type": "Point", "coordinates": [ 8.6818523, 49.4034074 ] } },
{ "type": "Feature", "properties": { "index": "143", "last_edit_year": 2024, "years_since_edit": 2, "label": "2.0–4.0 yr", "color": "#49af60" }, "geometry": { "type": "Point", "coordinates": [ 8.6816065, 49.4034939 ] } },
{ "type": "Feature", "properties": { "index": "144", "last_edit_year": 2026, "years_since_edit": 0, "label": "0.0–1.0 yr", "color": "#ffc" }, "geometry": { "type": "Point", "coordinates": [ 8.6770906, 49.404113 ] } },
{ "type": "Feature", "properties": { "index": "145", "last_edit_year": 2026, "years_since_edit": 0, "label": "0.0–1.0 yr", "color": "#ffc" }, "geometry": { "type": "Point", "coordinates": [ 8.6774148, 49.4044584 ] } },
{ "type": "Feature", "properties": { "index": "146", "last_edit_year": 2025, "years_since_edit": 1, "label": "1.0–2.0 yr", "color": "#a9db8e" }, "geometry": { "type": "Point", "coordinates": [ 8.6745733, 49.4017842 ] } },
{ "type": "Feature", "properties": { "index": "147", "last_edit_year": 2024, "years_since_edit": 2, "label": "2.0–4.0 yr", "color": "#49af60" }, "geometry": { "type": "Point", "coordinates": [ 8.6749651, 49.4053425 ] } },
{ "type": "Feature", "properties": { "index": "148", "last_edit_year": 2022, "years_since_edit": 4, "label": "4.0–5.0 yr", "color": "#006837" }, "geometry": { "type": "Point", "coordinates": [ 8.6823368, 49.4037793 ] } },
{ "type": "Feature", "properties": { "index": "149", "last_edit_year": 2026, "years_since_edit": 0, "label": "0.0–1.0 yr", "color": "#ffc" }, "geometry": { "type": "Point", "coordinates": [ 8.6773969, 49.3998987 ] } },
{ "type": "Feature", "properties": { "index": "150", "last_edit_year": 2026, "years_since_edit": 0, "label": "0.0–1.0 yr", "color": "#ffc" }, "geometry": { "type": "Point", "coordinates": [ 8.6772781, 49.3999799 ] } },
{ "type": "Feature", "properties": { "index": "151", "last_edit_year": 2021, "years_since_edit": 5, "label": "4.0–5.0 yr", "color": "#006837" }, "geometry": { "type": "Point", "coordinates": [ 8.673541, 49.39802 ] } },
{ "type": "Feature", "properties": { "index": "152", "last_edit_year": 2026, "years_since_edit": 0, "label": "0.0–1.0 yr", "color": "#ffc" }, "geometry": { "type": "Point", "coordinates": [ 8.6739715, 49.3981185 ] } },
{ "type": "Feature", "properties": { "index": "153", "last_edit_year": 2023, "years_since_edit": 3, "label": "2.0–4.0 yr", "color": "#49af60" }, "geometry": { "type": "Point", "coordinates": [ 8.673874, 49.3982031 ] } },
{ "type": "Feature", "properties": { "index": "154", "last_edit_year": 2026, "years_since_edit": 0, "label": "0.0–1.0 yr", "color": "#ffc" }, "geometry": { "type": "Point", "coordinates": [ 8.669521, 49.4092498 ] } },
{ "type": "Feature", "properties": { "index": "155", "last_edit_year": 2021, "years_since_edit": 5, "label": "4.0–5.0 yr", "color": "#006837" }, "geometry": { "type": "Point", "coordinates": [ 8.7180436, 49.4144442 ] } },
{ "type": "Feature", "properties": { "index": "156", "last_edit_year": 2026, "years_since_edit": 0, "label": "0.0–1.0 yr", "color": "#ffc" }, "geometry": { "type": "Point", "coordinates": [ 8.6895354, 49.3981616 ] } },
{ "type": "Feature", "properties": { "index": "157", "last_edit_year": 2025, "years_since_edit": 1, "label": "1.0–2.0 yr", "color": "#a9db8e" }, "geometry": { "type": "Point", "coordinates": [ 8.6702572, 49.4079811 ] } },
{ "type": "Feature", "properties": { "index": "158", "last_edit_year": 2025, "years_since_edit": 1, "label": "1.0–2.0 yr", "color": "#a9db8e" }, "geometry": { "type": "Point", "coordinates": [ 8.6702623, 49.4080678 ] } },
{ "type": "Feature", "properties": { "index": "159", "last_edit_year": 2025, "years_since_edit": 1, "label": "1.0–2.0 yr", "color": "#a9db8e" }, "geometry": { "type": "Point", "coordinates": [ 8.6871037, 49.4061298 ] } },
{ "type": "Feature", "properties": { "index": "160", "last_edit_year": 2021, "years_since_edit": 5, "label": "4.0–5.0 yr", "color": "#006837" }, "geometry": { "type": "Point", "coordinates": [ 8.6764799, 49.4197321 ] } },
{ "type": "Feature", "properties": { "index": "161", "last_edit_year": 2021, "years_since_edit": 5, "label": "4.0–5.0 yr", "color": "#006837" }, "geometry": { "type": "Point", "coordinates": [ 8.6749553, 49.4197727 ] } },
{ "type": "Feature", "properties": { "index": "162", "last_edit_year": 2025, "years_since_edit": 1, "label": "1.0–2.0 yr", "color": "#a9db8e" }, "geometry": { "type": "Point", "coordinates": [ 8.6942847, 49.4077233 ] } },
{ "type": "Feature", "properties": { "index": "163", "last_edit_year": 2024, "years_since_edit": 2, "label": "2.0–4.0 yr", "color": "#49af60" }, "geometry": { "type": "Point", "coordinates": [ 8.6927613, 49.4062002 ] } },
{ "type": "Feature", "properties": { "index": "164", "last_edit_year": 2024, "years_since_edit": 2, "label": "2.0–4.0 yr", "color": "#49af60" }, "geometry": { "type": "Point", "coordinates": [ 8.6772887, 49.4078899 ] } },
{ "type": "Feature", "properties": { "index": "165", "last_edit_year": 2025, "years_since_edit": 1, "label": "1.0–2.0 yr", "color": "#a9db8e" }, "geometry": { "type": "Point", "coordinates": [ 8.6724251, 49.4088401 ] } },
{ "type": "Feature", "properties": { "index": "166", "last_edit_year": 2026, "years_since_edit": 0, "label": "0.0–1.0 yr", "color": "#ffc" }, "geometry": { "type": "Point", "coordinates": [ 8.6858834, 49.4059666 ] } },
{ "type": "Feature", "properties": { "index": "167", "last_edit_year": 2026, "years_since_edit": 0, "label": "0.0–1.0 yr", "color": "#ffc" }, "geometry": { "type": "Point", "coordinates": [ 8.6869327, 49.4061666 ] } },
{ "type": "Feature", "properties": { "index": "168", "last_edit_year": 2026, "years_since_edit": 0, "label": "0.0–1.0 yr", "color": "#ffc" }, "geometry": { "type": "Point", "coordinates": [ 8.6868584, 49.4063233 ] } },
{ "type": "Feature", "properties": { "index": "169", "last_edit_year": 2022, "years_since_edit": 4, "label": "4.0–5.0 yr", "color": "#006837" }, "geometry": { "type": "Point", "coordinates": [ 8.6910358, 49.4111862 ] } },
{ "type": "Feature", "properties": { "index": "170", "last_edit_year": 2024, "years_since_edit": 2, "label": "2.0–4.0 yr", "color": "#49af60" }, "geometry": { "type": "Point", "coordinates": [ 8.6869555, 49.4103057 ] } },
{ "type": "Feature", "properties": { "index": "171", "last_edit_year": 2023, "years_since_edit": 3, "label": "2.0–4.0 yr", "color": "#49af60" }, "geometry": { "type": "Point", "coordinates": [ 8.6677791, 49.4189861 ] } },
{ "type": "Feature", "properties": { "index": "172", "last_edit_year": 2022, "years_since_edit": 4, "label": "4.0–5.0 yr", "color": "#006837" }, "geometry": { "type": "Point", "coordinates": [ 8.6782796, 49.4003489 ] } },
{ "type": "Feature", "properties": { "index": "173", "last_edit_year": 2022, "years_since_edit": 4, "label": "4.0–5.0 yr", "color": "#006837" }, "geometry": { "type": "Point", "coordinates": [ 8.6780545, 49.4004453 ] } },
{ "type": "Feature", "properties": { "index": "174", "last_edit_year": 2021, "years_since_edit": 5, "label": "4.0–5.0 yr", "color": "#006837" }, "geometry": { "type": "Point", "coordinates": [ 8.6921513, 49.4146702 ] } },
{ "type": "Feature", "properties": { "index": "175", "last_edit_year": 2021, "years_since_edit": 5, "label": "4.0–5.0 yr", "color": "#006837" }, "geometry": { "type": "Point", "coordinates": [ 8.692146, 49.4147778 ] } },
{ "type": "Feature", "properties": { "index": "176", "last_edit_year": 2024, "years_since_edit": 2, "label": "2.0–4.0 yr", "color": "#49af60" }, "geometry": { "type": "Point", "coordinates": [ 8.6747911, 49.4196375 ] } },
{ "type": "Feature", "properties": { "index": "177", "last_edit_year": 2025, "years_since_edit": 1, "label": "1.0–2.0 yr", "color": "#a9db8e" }, "geometry": { "type": "Point", "coordinates": [ 8.6689588, 49.4033463 ] } },
{ "type": "Feature", "properties": { "index": "178", "last_edit_year": 2025, "years_since_edit": 1, "label": "1.0–2.0 yr", "color": "#a9db8e" }, "geometry": { "type": "Point", "coordinates": [ 8.6660745, 49.4037495 ] } },
{ "type": "Feature", "properties": { "index": "179", "last_edit_year": 2022, "years_since_edit": 4, "label": "4.0–5.0 yr", "color": "#006837" }, "geometry": { "type": "Point", "coordinates": [ 8.6870969, 49.4102613 ] } },
{ "type": "Feature", "properties": { "index": "180", "last_edit_year": 2025, "years_since_edit": 1, "label": "1.0–2.0 yr", "color": "#a9db8e" }, "geometry": { "type": "Point", "coordinates": [ 8.6690532, 49.4051593 ] } },
{ "type": "Feature", "properties": { "index": "181", "last_edit_year": 2025, "years_since_edit": 1, "label": "1.0–2.0 yr", "color": "#a9db8e" }, "geometry": { "type": "Point", "coordinates": [ 8.669031, 49.4050489 ] } },
{ "type": "Feature", "properties": { "index": "182", "last_edit_year": 2022, "years_since_edit": 4, "label": "4.0–5.0 yr", "color": "#006837" }, "geometry": { "type": "Point", "coordinates": [ 8.6620711, 49.4045882 ] } },
{ "type": "Feature", "properties": { "index": "183", "last_edit_year": 2025, "years_since_edit": 1, "label": "1.0–2.0 yr", "color": "#a9db8e" }, "geometry": { "type": "Point", "coordinates": [ 8.6621445, 49.4047944 ] } },
{ "type": "Feature", "properties": { "index": "184", "last_edit_year": 2024, "years_since_edit": 2, "label": "2.0–4.0 yr", "color": "#49af60" }, "geometry": { "type": "Point", "coordinates": [ 8.6766721, 49.4049404 ] } },
{ "type": "Feature", "properties": { "index": "185", "last_edit_year": 2025, "years_since_edit": 1, "label": "1.0–2.0 yr", "color": "#a9db8e" }, "geometry": { "type": "Point", "coordinates": [ 8.6718734, 49.4030524 ] } },
{ "type": "Feature", "properties": { "index": "186", "last_edit_year": 2026, "years_since_edit": 0, "label": "0.0–1.0 yr", "color": "#ffc" }, "geometry": { "type": "Point", "coordinates": [ 8.6745579, 49.4015494 ] } },
{ "type": "Feature", "properties": { "index": "187", "last_edit_year": 2022, "years_since_edit": 4, "label": "4.0–5.0 yr", "color": "#006837" }, "geometry": { "type": "Point", "coordinates": [ 8.6731499, 49.4022476 ] } },
{ "type": "Feature", "properties": { "index": "188", "last_edit_year": 2022, "years_since_edit": 4, "label": "4.0–5.0 yr", "color": "#006837" }, "geometry": { "type": "Point", "coordinates": [ 8.6688687, 49.4031527 ] } },
{ "type": "Feature", "properties": { "index": "189", "last_edit_year": 2025, "years_since_edit": 1, "label": "1.0–2.0 yr", "color": "#a9db8e" }, "geometry": { "type": "Point", "coordinates": [ 8.6700785, 49.4031129 ] } },
{ "type": "Feature", "properties": { "index": "190", "last_edit_year": 2026, "years_since_edit": 0, "label": "0.0–1.0 yr", "color": "#ffc" }, "geometry": { "type": "Point", "coordinates": [ 8.6600109, 49.4051374 ] } },
{ "type": "Feature", "properties": { "index": "191", "last_edit_year": 2026, "years_since_edit": 0, "label": "0.0–1.0 yr", "color": "#ffc" }, "geometry": { "type": "Point", "coordinates": [ 8.6600264, 49.4051607 ] } },
{ "type": "Feature", "properties": { "index": "192", "last_edit_year": 2021, "years_since_edit": 5, "label": "4.0–5.0 yr", "color": "#006837" }, "geometry": { "type": "Point", "coordinates": [ 8.6921804, 49.4171675 ] } },
{ "type": "Feature", "properties": { "index": "193", "last_edit_year": 2026, "years_since_edit": 0, "label": "0.0–1.0 yr", "color": "#ffc" }, "geometry": { "type": "Point", "coordinates": [ 8.6918254, 49.4170933 ] } },
{ "type": "Feature", "properties": { "index": "194", "last_edit_year": 2021, "years_since_edit": 5, "label": "4.0–5.0 yr", "color": "#006837" }, "geometry": { "type": "Point", "coordinates": [ 8.692423, 49.4138621 ] } },
{ "type": "Feature", "properties": { "index": "195", "last_edit_year": 2025, "years_since_edit": 1, "label": "1.0–2.0 yr", "color": "#a9db8e" }, "geometry": { "type": "Point", "coordinates": [ 8.6920688, 49.413846 ] } },
{ "type": "Feature", "properties": { "index": "196", "last_edit_year": 2023, "years_since_edit": 3, "label": "2.0–4.0 yr", "color": "#49af60" }, "geometry": { "type": "Point", "coordinates": [ 8.6922085, 49.4139833 ] } },
{ "type": "Feature", "properties": { "index": "197", "last_edit_year": 2021, "years_since_edit": 5, "label": "4.0–5.0 yr", "color": "#006837" }, "geometry": { "type": "Point", "coordinates": [ 8.692157, 49.4146079 ] } },
{ "type": "Feature", "properties": { "index": "198", "last_edit_year": 2021, "years_since_edit": 5, "label": "4.0–5.0 yr", "color": "#006837" }, "geometry": { "type": "Point", "coordinates": [ 8.6921445, 49.4147999 ] } },
{ "type": "Feature", "properties": { "index": "199", "last_edit_year": 2021, "years_since_edit": 5, "label": "4.0–5.0 yr", "color": "#006837" }, "geometry": { "type": "Point", "coordinates": [ 8.6920042, 49.4169459 ] } },
{ "type": "Feature", "properties": { "index": "200", "last_edit_year": 2021, "years_since_edit": 5, "label": "4.0–5.0 yr", "color": "#006837" }, "geometry": { "type": "Point", "coordinates": [ 8.6919307, 49.4172347 ] } },
{ "type": "Feature", "properties": { "index": "201", "last_edit_year": 2026, "years_since_edit": 0, "label": "0.0–1.0 yr", "color": "#ffc" }, "geometry": { "type": "Point", "coordinates": [ 8.6756997, 49.4050667 ] } },
{ "type": "Feature", "properties": { "index": "202", "last_edit_year": 2021, "years_since_edit": 5, "label": "4.0–5.0 yr", "color": "#006837" }, "geometry": { "type": "Point", "coordinates": [ 8.6774844, 49.404024 ] } },
{ "type": "Feature", "properties": { "index": "203", "last_edit_year": 2021, "years_since_edit": 5, "label": "4.0–5.0 yr", "color": "#006837" }, "geometry": { "type": "Point", "coordinates": [ 8.6772841, 49.4039852 ] } },
{ "type": "Feature", "properties": { "index": "204", "last_edit_year": 2024, "years_since_edit": 2, "label": "2.0–4.0 yr", "color": "#49af60" }, "geometry": { "type": "Point", "coordinates": [ 8.6766641, 49.4048704 ] } },
{ "type": "Feature", "properties": { "index": "205", "last_edit_year": 2026, "years_since_edit": 0, "label": "0.0–1.0 yr", "color": "#ffc" }, "geometry": { "type": "Point", "coordinates": [ 8.6755781, 49.4048309 ] } },
{ "type": "Feature", "properties": { "index": "206", "last_edit_year": 2026, "years_since_edit": 0, "label": "0.0–1.0 yr", "color": "#ffc" }, "geometry": { "type": "Point", "coordinates": [ 8.6756095, 49.4048919 ] } },
{ "type": "Feature", "properties": { "index": "207", "last_edit_year": 2026, "years_since_edit": 0, "label": "0.0–1.0 yr", "color": "#ffc" }, "geometry": { "type": "Point", "coordinates": [ 8.675627, 49.4049258 ] } },
{ "type": "Feature", "properties": { "index": "208", "last_edit_year": 2026, "years_since_edit": 0, "label": "0.0–1.0 yr", "color": "#ffc" }, "geometry": { "type": "Point", "coordinates": [ 8.67566, 49.4049898 ] } },
{ "type": "Feature", "properties": { "index": "209", "last_edit_year": 2026, "years_since_edit": 0, "label": "0.0–1.0 yr", "color": "#ffc" }, "geometry": { "type": "Point", "coordinates": [ 8.6766556, 49.4047821 ] } },
{ "type": "Feature", "properties": { "index": "210", "last_edit_year": 2026, "years_since_edit": 0, "label": "0.0–1.0 yr", "color": "#ffc" }, "geometry": { "type": "Point", "coordinates": [ 8.6765772, 49.404621 ] } },
{ "type": "Feature", "properties": { "index": "211", "last_edit_year": 2026, "years_since_edit": 0, "label": "0.0–1.0 yr", "color": "#ffc" }, "geometry": { "type": "Point", "coordinates": [ 8.6766096, 49.4046874 ] } },
{ "type": "Feature", "properties": { "index": "212", "last_edit_year": 2026, "years_since_edit": 0, "label": "0.0–1.0 yr", "color": "#ffc" }, "geometry": { "type": "Point", "coordinates": [ 8.6766229, 49.4047152 ] } },
{ "type": "Feature", "properties": { "index": "213", "last_edit_year": 2024, "years_since_edit": 2, "label": "2.0–4.0 yr", "color": "#49af60" }, "geometry": { "type": "Point", "coordinates": [ 8.6749005, 49.4053468 ] } },
{ "type": "Feature", "properties": { "index": "214", "last_edit_year": 2025, "years_since_edit": 1, "label": "1.0–2.0 yr", "color": "#a9db8e" }, "geometry": { "type": "Point", "coordinates": [ 8.676808, 49.4042423 ] } },
{ "type": "Feature", "properties": { "index": "215", "last_edit_year": 2025, "years_since_edit": 1, "label": "1.0–2.0 yr", "color": "#a9db8e" }, "geometry": { "type": "Point", "coordinates": [ 8.6938358, 49.4088432 ] } },
{ "type": "Feature", "properties": { "index": "216", "last_edit_year": 2025, "years_since_edit": 1, "label": "1.0–2.0 yr", "color": "#a9db8e" }, "geometry": { "type": "Point", "coordinates": [ 8.692998, 49.4114052 ] } },
{ "type": "Feature", "properties": { "index": "217", "last_edit_year": 2025, "years_since_edit": 1, "label": "1.0–2.0 yr", "color": "#a9db8e" }, "geometry": { "type": "Point", "coordinates": [ 8.672021, 49.4032547 ] } },
{ "type": "Feature", "properties": { "index": "218", "last_edit_year": 2022, "years_since_edit": 4, "label": "4.0–5.0 yr", "color": "#006837" }, "geometry": { "type": "Point", "coordinates": [ 8.6717515, 49.403274 ] } },
{ "type": "Feature", "properties": { "index": "219", "last_edit_year": 2026, "years_since_edit": 0, "label": "0.0–1.0 yr", "color": "#ffc" }, "geometry": { "type": "Point", "coordinates": [ 8.6737944, 49.4021688 ] } },
{ "type": "Feature", "properties": { "index": "220", "last_edit_year": 2024, "years_since_edit": 2, "label": "2.0–4.0 yr", "color": "#49af60" }, "geometry": { "type": "Point", "coordinates": [ 8.6904928, 49.4003343 ] } },
{ "type": "Feature", "properties": { "index": "221", "last_edit_year": 2025, "years_since_edit": 1, "label": "1.0–2.0 yr", "color": "#a9db8e" }, "geometry": { "type": "Point", "coordinates": [ 8.671619, 49.4026603 ] } },
{ "type": "Feature", "properties": { "index": "222", "last_edit_year": 2025, "years_since_edit": 1, "label": "1.0–2.0 yr", "color": "#a9db8e" }, "geometry": { "type": "Point", "coordinates": [ 8.6716332, 49.4026833 ] } },
{ "type": "Feature", "properties": { "index": "223", "last_edit_year": 2023, "years_since_edit": 3, "label": "2.0–4.0 yr", "color": "#49af60" }, "geometry": { "type": "Point", "coordinates": [ 8.6692839, 49.4052196 ] } },
{ "type": "Feature", "properties": { "index": "224", "last_edit_year": 2023, "years_since_edit": 3, "label": "2.0–4.0 yr", "color": "#49af60" }, "geometry": { "type": "Point", "coordinates": [ 8.6694789, 49.405139 ] } },
{ "type": "Feature", "properties": { "index": "225", "last_edit_year": 2023, "years_since_edit": 3, "label": "2.0–4.0 yr", "color": "#49af60" }, "geometry": { "type": "Point", "coordinates": [ 8.6696258, 49.4051068 ] } },
{ "type": "Feature", "properties": { "index": "226", "last_edit_year": 2022, "years_since_edit": 4, "label": "4.0–5.0 yr", "color": "#006837" }, "geometry": { "type": "Point", "coordinates": [ 8.6695711, 49.4049175 ] } },
{ "type": "Feature", "properties": { "index": "227", "last_edit_year": 2023, "years_since_edit": 3, "label": "2.0–4.0 yr", "color": "#49af60" }, "geometry": { "type": "Point", "coordinates": [ 8.669681, 49.404973 ] } },
{ "type": "Feature", "properties": { "index": "228", "last_edit_year": 2025, "years_since_edit": 1, "label": "1.0–2.0 yr", "color": "#a9db8e" }, "geometry": { "type": "Point", "coordinates": [ 8.682434, 49.404987 ] } },
{ "type": "Feature", "properties": { "index": "229", "last_edit_year": 2025, "years_since_edit": 1, "label": "1.0–2.0 yr", "color": "#a9db8e" }, "geometry": { "type": "Point", "coordinates": [ 8.662319, 49.4047022 ] } },
{ "type": "Feature", "properties": { "index": "230", "last_edit_year": 2022, "years_since_edit": 4, "label": "4.0–5.0 yr", "color": "#006837" }, "geometry": { "type": "Point", "coordinates": [ 8.6783323, 49.400336 ] } },
{ "type": "Feature", "properties": { "index": "231", "last_edit_year": 2023, "years_since_edit": 3, "label": "2.0–4.0 yr", "color": "#49af60" }, "geometry": { "type": "Point", "coordinates": [ 8.6768197, 49.4050229 ] } },
{ "type": "Feature", "properties": { "index": "232", "last_edit_year": 2025, "years_since_edit": 1, "label": "1.0–2.0 yr", "color": "#a9db8e" }, "geometry": { "type": "Point", "coordinates": [ 8.6930431, 49.4073877 ] } },
{ "type": "Feature", "properties": { "index": "233", "last_edit_year": 2024, "years_since_edit": 2, "label": "2.0–4.0 yr", "color": "#49af60" }, "geometry": { "type": "Point", "coordinates": [ 8.7069976, 49.4090866 ] } },
{ "type": "Feature", "properties": { "index": "234", "last_edit_year": 2024, "years_since_edit": 2, "label": "2.0–4.0 yr", "color": "#49af60" }, "geometry": { "type": "Point", "coordinates": [ 8.6885319, 49.3991598 ] } },
{ "type": "Feature", "properties": { "index": "235", "last_edit_year": 2026, "years_since_edit": 0, "label": "0.0–1.0 yr", "color": "#ffc" }, "geometry": { "type": "Point", "coordinates": [ 8.6671467, 49.4052031 ] } },
{ "type": "Feature", "properties": { "index": "236", "last_edit_year": 2024, "years_since_edit": 2, "label": "2.0–4.0 yr", "color": "#49af60" }, "geometry": { "type": "Point", "coordinates": [ 8.6749668, 49.4194843 ] } },
{ "type": "Feature", "properties": { "index": "237", "last_edit_year": 2025, "years_since_edit": 1, "label": "1.0–2.0 yr", "color": "#a9db8e" }, "geometry": { "type": "Point", "coordinates": [ 8.6663147, 49.4038675 ] } },
{ "type": "Feature", "properties": { "index": "238", "last_edit_year": 2025, "years_since_edit": 1, "label": "1.0–2.0 yr", "color": "#a9db8e" }, "geometry": { "type": "Point", "coordinates": [ 8.666267, 49.4037727 ] } },
{ "type": "Feature", "properties": { "index": "239", "last_edit_year": 2025, "years_since_edit": 1, "label": "1.0–2.0 yr", "color": "#a9db8e" }, "geometry": { "type": "Point", "coordinates": [ 8.665959, 49.40393 ] } },
{ "type": "Feature", "properties": { "index": "240", "last_edit_year": 2025, "years_since_edit": 1, "label": "1.0–2.0 yr", "color": "#a9db8e" }, "geometry": { "type": "Point", "coordinates": [ 8.6659186, 49.4038459 ] } },
{ "type": "Feature", "properties": { "index": "241", "last_edit_year": 2025, "years_since_edit": 1, "label": "1.0–2.0 yr", "color": "#a9db8e" }, "geometry": { "type": "Point", "coordinates": [ 8.6622705, 49.4046085 ] } },
{ "type": "Feature", "properties": { "index": "242", "last_edit_year": 2025, "years_since_edit": 1, "label": "1.0–2.0 yr", "color": "#a9db8e" }, "geometry": { "type": "Point", "coordinates": [ 8.6620204, 49.4047675 ] } },
{ "type": "Feature", "properties": { "index": "243", "last_edit_year": 2025, "years_since_edit": 1, "label": "1.0–2.0 yr", "color": "#a9db8e" }, "geometry": { "type": "Point", "coordinates": [ 8.6619837, 49.4046707 ] } },
{ "type": "Feature", "properties": { "index": "244", "last_edit_year": 2024, "years_since_edit": 2, "label": "2.0–4.0 yr", "color": "#49af60" }, "geometry": { "type": "Point", "coordinates": [ 8.6749326, 49.4049157 ] } },
{ "type": "Feature", "properties": { "index": "245", "last_edit_year": 2026, "years_since_edit": 0, "label": "0.0–1.0 yr", "color": "#ffc" }, "geometry": { "type": "Point", "coordinates": [ 8.6671532, 49.4052649 ] } },
{ "type": "Feature", "properties": { "index": "246", "last_edit_year": 2025, "years_since_edit": 1, "label": "1.0–2.0 yr", "color": "#a9db8e" }, "geometry": { "type": "Point", "coordinates": [ 8.6661881, 49.403945 ] } },
{ "type": "Feature", "properties": { "index": "247", "last_edit_year": 2026, "years_since_edit": 0, "label": "0.0–1.0 yr", "color": "#ffc" }, "geometry": { "type": "Point", "coordinates": [ 8.6667729, 49.4052405 ] } },
{ "type": "Feature", "properties": { "index": "248", "last_edit_year": 2026, "years_since_edit": 0, "label": "0.0–1.0 yr", "color": "#ffc" }, "geometry": { "type": "Point", "coordinates": [ 8.6667923, 49.4053099 ] } },
{ "type": "Feature", "properties": { "index": "249", "last_edit_year": 2025, "years_since_edit": 1, "label": "1.0–2.0 yr", "color": "#a9db8e" }, "geometry": { "type": "Point", "coordinates": [ 8.6718034, 49.4031027 ] } },
{ "type": "Feature", "properties": { "index": "250", "last_edit_year": 2026, "years_since_edit": 0, "label": "0.0–1.0 yr", "color": "#ffc" }, "geometry": { "type": "Point", "coordinates": [ 8.7011844, 49.4126481 ] } },
{ "type": "Feature", "properties": { "index": "251", "last_edit_year": 2026, "years_since_edit": 0, "label": "0.0–1.0 yr", "color": "#ffc" }, "geometry": { "type": "Point", "coordinates": [ 8.6769377, 49.4059957 ] } }
]
}
