{
"type": "FeatureCollection",
"features": [
{ "type": "Feature", "properties": { "index": "0", "@osmId": "node/17392238", "name": null, "opening_hours": null, "label": "Signalised crossings with acoustic guidance", "color": "#e6550d" }, "geometry": { "type": "Point", "coordinates": [ 8.7068472, 49.4092015 ] } },
{ "type": "Feature", "properties": { "index": "1", "@osmId": "node/25733433", "name": null, "opening_hours": null, "label": "Signalised crossings with acoustic guidance", "color": "#e6550d" }, "geometry": { "type": "Point", "coordinates": [ 8.6720893, 49.4030509 ] } },
{ "type": "Feature", "properties": { "index": "2", "@osmId": "node/135742806", "name": null, "opening_hours": null, "label": "Signalised crossings with acoustic guidance", "color": "#e6550d" }, "geometry": { "type": "Point", "coordinates": [ 8.7013347, 49.4126656 ] } },
{ "type": "Feature", "properties": { "index": "3", "@osmId": "node/269228296", "name": null, "opening_hours": null, "label": "Signalised crossings with acoustic guidance", "color": "#e6550d" }, "geometry": { "type": "Point", "coordinates": [ 8.6694347, 49.4051539 ] } },
{ "type": "Feature", "properties": { "index": "4", "@osmId": "node/269416264", "name": null, "opening_hours": null, "label": "Signalised crossings with acoustic guidance", "color": "#e6550d" }, "geometry": { "type": "Point", "coordinates": [ 8.6769365, 49.4125767 ] } },
{ "type": "Feature", "properties": { "index": "5", "@osmId": "node/269726708", "name": null, "opening_hours": null, "label": "Signalised crossings with acoustic guidance", "color": "#e6550d" }, "geometry": { "type": "Point", "coordinates": [ 8.6765129, 49.4170068 ] } },
{ "type": "Feature", "properties": { "index": "6", "@osmId": "node/269876450", "name": null, "opening_hours": null, "label": "Signalised crossings with acoustic guidance", "color": "#e6550d" }, "geometry": { "type": "Point", "coordinates": [ 8.6904208, 49.4190488 ] } },
{ "type": "Feature", "properties": { "index": "7", "@osmId": "node/269903796", "name": null, "opening_hours": null, "label": "Signalised crossings with acoustic guidance", "color": "#e6550d" }, "geometry": { "type": "Point", "coordinates": [ 8.6845843, 49.405996 ] } },
{ "type": "Feature", "properties": { "index": "8", "@osmId": "node/269904801", "name": null, "opening_hours": null, "label": "Signalised crossings with acoustic guidance", "color": "#e6550d" }, "geometry": { "type": "Point", "coordinates": [ 8.6839225, 49.405141 ] } },
{ "type": "Feature", "properties": { "index": "9", "@osmId": "node/270233519", "name": null, "opening_hours": null, "label": "Signalised crossings with acoustic guidance", "color": "#e6550d" }, "geometry": { "type": "Point", "coordinates": [ 8.6764202, 49.4125901 ] } },
{ "type": "Feature", "properties": { "index": "10", "@osmId": "node/270233522", "name": null, "opening_hours": null, "label": "Signalised crossings with acoustic guidance", "color": "#e6550d" }, "geometry": { "type": "Point", "coordinates": [ 8.6761071, 49.4170115 ] } },
{ "type": "Feature", "properties": { "index": "11", "@osmId": "node/270418050", "name": null, "opening_hours": null, "label": "Signalised crossings with acoustic guidance", "color": "#e6550d" }, "geometry": { "type": "Point", "coordinates": [ 8.6759548, 49.4194654 ] } },
{ "type": "Feature", "properties": { "index": "12", "@osmId": "node/270427593", "name": null, "opening_hours": null, "label": "Signalised crossings with acoustic guidance", "color": "#e6550d" }, "geometry": { "type": "Point", "coordinates": [ 8.6698685, 49.4090125 ] } },
{ "type": "Feature", "properties": { "index": "13", "@osmId": "node/270427594", "name": null, "opening_hours": null, "label": "Signalised crossings with acoustic guidance", "color": "#e6550d" }, "geometry": { "type": "Point", "coordinates": [ 8.6694407, 49.4090864 ] } },
{ "type": "Feature", "properties": { "index": "14", "@osmId": "node/270429979", "name": null, "opening_hours": null, "label": "Signalised crossings with acoustic guidance", "color": "#e6550d" }, "geometry": { "type": "Point", "coordinates": [ 8.6698703, 49.4092247 ] } },
{ "type": "Feature", "properties": { "index": "15", "@osmId": "node/270429986", "name": null, "opening_hours": null, "label": "Signalised crossings with acoustic guidance", "color": "#e6550d" }, "geometry": { "type": "Point", "coordinates": [ 8.6696477, 49.4090688 ] } },
{ "type": "Feature", "properties": { "index": "16", "@osmId": "node/271325387", "name": null, "opening_hours": null, "label": "Signalised crossings with acoustic guidance", "color": "#e6550d" }, "geometry": { "type": "Point", "coordinates": [ 8.6749603, 49.4195109 ] } },
{ "type": "Feature", "properties": { "index": "17", "@osmId": "node/271325395", "name": null, "opening_hours": null, "label": "Signalised crossings with acoustic guidance", "color": "#e6550d" }, "geometry": { "type": "Point", "coordinates": [ 8.6678878, 49.4189885 ] } },
{ "type": "Feature", "properties": { "index": "18", "@osmId": "node/271724470", "name": null, "opening_hours": null, "label": "Signalised crossings with acoustic guidance", "color": "#e6550d" }, "geometry": { "type": "Point", "coordinates": [ 8.6704022, 49.4081349 ] } },
{ "type": "Feature", "properties": { "index": "19", "@osmId": "node/274089747", "name": null, "opening_hours": null, "label": "Signalised crossings with acoustic guidance", "color": "#e6550d" }, "geometry": { "type": "Point", "coordinates": [ 8.6765227, 49.4169084 ] } },
{ "type": "Feature", "properties": { "index": "20", "@osmId": "node/274089757", "name": null, "opening_hours": null, "label": "Signalised crossings with acoustic guidance", "color": "#e6550d" }, "geometry": { "type": "Point", "coordinates": [ 8.676125, 49.4169174 ] } },
{ "type": "Feature", "properties": { "index": "21", "@osmId": "node/274248074", "name": null, "opening_hours": null, "label": "Signalised crossings with acoustic guidance", "color": "#e6550d" }, "geometry": { "type": "Point", "coordinates": [ 8.6760112, 49.4195951 ] } },
{ "type": "Feature", "properties": { "index": "22", "@osmId": "node/274248075", "name": null, "opening_hours": null, "label": "Signalised crossings with acoustic guidance", "color": "#e6550d" }, "geometry": { "type": "Point", "coordinates": [ 8.6760142, 49.4196719 ] } },
{ "type": "Feature", "properties": { "index": "23", "@osmId": "node/274248100", "name": null, "opening_hours": null, "label": "Signalised crossings with acoustic guidance", "color": "#e6550d" }, "geometry": { "type": "Point", "coordinates": [ 8.6761307, 49.4194808 ] } },
{ "type": "Feature", "properties": { "index": "24", "@osmId": "node/274248108", "name": null, "opening_hours": null, "label": "Signalised crossings with acoustic guidance", "color": "#e6550d" }, "geometry": { "type": "Point", "coordinates": [ 8.6764702, 49.4194743 ] } },
{ "type": "Feature", "properties": { "index": "25", "@osmId": "node/274248131", "name": null, "opening_hours": null, "label": "Signalised crossings with acoustic guidance", "color": "#e6550d" }, "geometry": { "type": "Point", "coordinates": [ 8.6761303, 49.4197341 ] } },
{ "type": "Feature", "properties": { "index": "26", "@osmId": "node/274248195", "name": null, "opening_hours": null, "label": "Signalised crossings with acoustic guidance", "color": "#e6550d" }, "geometry": { "type": "Point", "coordinates": [ 8.6761666, 49.4170631 ] } },
{ "type": "Feature", "properties": { "index": "27", "@osmId": "node/274248214", "name": null, "opening_hours": null, "label": "Signalised crossings with acoustic guidance", "color": "#e6550d" }, "geometry": { "type": "Point", "coordinates": [ 8.6764442, 49.4170666 ] } },
{ "type": "Feature", "properties": { "index": "28", "@osmId": "node/274248282", "name": null, "opening_hours": null, "label": "Signalised crossings with acoustic guidance", "color": "#e6550d" }, "geometry": { "type": "Point", "coordinates": [ 8.6761959, 49.4168376 ] } },
{ "type": "Feature", "properties": { "index": "29", "@osmId": "node/274248285", "name": null, "opening_hours": null, "label": "Signalised crossings with acoustic guidance", "color": "#e6550d" }, "geometry": { "type": "Point", "coordinates": [ 8.6764456, 49.4168398 ] } },
{ "type": "Feature", "properties": { "index": "30", "@osmId": "node/274248292", "name": null, "opening_hours": null, "label": "Signalised crossings with acoustic guidance", "color": "#e6550d" }, "geometry": { "type": "Point", "coordinates": [ 8.6769222, 49.4126646 ] } },
{ "type": "Feature", "properties": { "index": "31", "@osmId": "node/275517795", "name": null, "opening_hours": null, "label": "Signalised crossings with acoustic guidance", "color": "#e6550d" }, "geometry": { "type": "Point", "coordinates": [ 8.6697831, 49.4090456 ] } },
{ "type": "Feature", "properties": { "index": "32", "@osmId": "node/276109558", "name": null, "opening_hours": null, "label": "Signalised crossings with acoustic guidance", "color": "#e6550d" }, "geometry": { "type": "Point", "coordinates": [ 8.6676014, 49.4191421 ] } },
{ "type": "Feature", "properties": { "index": "33", "@osmId": "node/276109562", "name": null, "opening_hours": null, "label": "Signalised crossings with acoustic guidance", "color": "#e6550d" }, "geometry": { "type": "Point", "coordinates": [ 8.6676028, 49.4190902 ] } },
{ "type": "Feature", "properties": { "index": "34", "@osmId": "node/276109595", "name": null, "opening_hours": null, "label": "Signalised crossings with acoustic guidance", "color": "#e6550d" }, "geometry": { "type": "Point", "coordinates": [ 8.6679909, 49.4189912 ] } },
{ "type": "Feature", "properties": { "index": "35", "@osmId": "node/285841626", "name": null, "opening_hours": null, "label": "Signalised crossings with acoustic guidance", "color": "#e6550d" }, "geometry": { "type": "Point", "coordinates": [ 8.675735, 49.4051351 ] } },
{ "type": "Feature", "properties": { "index": "36", "@osmId": "node/298040972", "name": null, "opening_hours": null, "label": "Signalised crossings with acoustic guidance", "color": "#e6550d" }, "geometry": { "type": "Point", "coordinates": [ 8.7161994, 49.4160419 ] } },
{ "type": "Feature", "properties": { "index": "37", "@osmId": "node/303315920", "name": null, "opening_hours": null, "label": "Signalised crossings with acoustic guidance", "color": "#e6550d" }, "geometry": { "type": "Point", "coordinates": [ 8.6896286, 49.4068716 ] } },
{ "type": "Feature", "properties": { "index": "38", "@osmId": "node/303475648", "name": null, "opening_hours": null, "label": "Signalised crossings with acoustic guidance", "color": "#e6550d" }, "geometry": { "type": "Point", "coordinates": [ 8.6857752, 49.4061325 ] } },
{ "type": "Feature", "properties": { "index": "39", "@osmId": "node/308265152", "name": null, "opening_hours": null, "label": "Signalised crossings with acoustic guidance", "color": "#e6550d" }, "geometry": { "type": "Point", "coordinates": [ 8.6768602, 49.4077743 ] } },
{ "type": "Feature", "properties": { "index": "40", "@osmId": "node/333273018", "name": null, "opening_hours": null, "label": "Signalised crossings with acoustic guidance", "color": "#e6550d" }, "geometry": { "type": "Point", "coordinates": [ 8.718277, 49.4142149 ] } },
{ "type": "Feature", "properties": { "index": "41", "@osmId": "node/371486584", "name": null, "opening_hours": null, "label": "Signalised crossings with acoustic guidance", "color": "#e6550d" }, "geometry": { "type": "Point", "coordinates": [ 8.6944375, 49.4076031 ] } },
{ "type": "Feature", "properties": { "index": "42", "@osmId": "node/411092144", "name": null, "opening_hours": null, "label": "Signalised crossings with acoustic guidance", "color": "#e6550d" }, "geometry": { "type": "Point", "coordinates": [ 8.676078, 49.4193575 ] } },
{ "type": "Feature", "properties": { "index": "43", "@osmId": "node/411092147", "name": null, "opening_hours": null, "label": "Signalised crossings with acoustic guidance", "color": "#e6550d" }, "geometry": { "type": "Point", "coordinates": [ 8.6760776, 49.4197349 ] } },
{ "type": "Feature", "properties": { "index": "44", "@osmId": "node/441577403", "name": null, "opening_hours": null, "label": "Signalised crossings with acoustic guidance", "color": "#e6550d" }, "geometry": { "type": "Point", "coordinates": [ 8.6760801, 49.4194818 ] } },
{ "type": "Feature", "properties": { "index": "45", "@osmId": "node/441682268", "name": null, "opening_hours": null, "label": "Signalised crossings with acoustic guidance", "color": "#e6550d" }, "geometry": { "type": "Point", "coordinates": [ 8.7105407, 49.4135708 ] } },
{ "type": "Feature", "properties": { "index": "46", "@osmId": "node/441682286", "name": null, "opening_hours": null, "label": "Signalised crossings with acoustic guidance", "color": "#e6550d" }, "geometry": { "type": "Point", "coordinates": [ 8.699332, 49.4124145 ] } },
{ "type": "Feature", "properties": { "index": "47", "@osmId": "node/461228142", "name": null, "opening_hours": null, "label": "Signalised crossings with acoustic guidance", "color": "#e6550d" }, "geometry": { "type": "Point", "coordinates": [ 8.6775496, 49.4041568 ] } },
{ "type": "Feature", "properties": { "index": "48", "@osmId": "node/461228206", "name": null, "opening_hours": null, "label": "Signalised crossings with acoustic guidance", "color": "#e6550d" }, "geometry": { "type": "Point", "coordinates": [ 8.6770147, 49.4049678 ] } },
{ "type": "Feature", "properties": { "index": "49", "@osmId": "node/461232633", "name": null, "opening_hours": null, "label": "Signalised crossings with acoustic guidance", "color": "#e6550d" }, "geometry": { "type": "Point", "coordinates": [ 8.6768401, 49.4060893 ] } },
{ "type": "Feature", "properties": { "index": "50", "@osmId": "node/465589315", "name": null, "opening_hours": null, "label": "Signalised crossings with acoustic guidance", "color": "#e6550d" }, "geometry": { "type": "Point", "coordinates": [ 8.6711578, 49.4066263 ] } },
{ "type": "Feature", "properties": { "index": "51", "@osmId": "node/529721987", "name": null, "opening_hours": null, "label": "Signalised crossings with acoustic guidance", "color": "#e6550d" }, "geometry": { "type": "Point", "coordinates": [ 8.688511, 49.3990799 ] } },
{ "type": "Feature", "properties": { "index": "52", "@osmId": "node/540221764", "name": null, "opening_hours": null, "label": "Signalised crossings with acoustic guidance", "color": "#e6550d" }, "geometry": { "type": "Point", "coordinates": [ 8.6868063, 49.4173651 ] } },
{ "type": "Feature", "properties": { "index": "53", "@osmId": "node/572102677", "name": null, "opening_hours": null, "label": "Signalised crossings with acoustic guidance", "color": "#e6550d" }, "geometry": { "type": "Point", "coordinates": [ 8.7058023, 49.413319 ] } },
{ "type": "Feature", "properties": { "index": "54", "@osmId": "node/618283129", "name": null, "opening_hours": null, "label": "Signalised crossings with acoustic guidance", "color": "#e6550d" }, "geometry": { "type": "Point", "coordinates": [ 8.6923883, 49.4073107 ] } },
{ "type": "Feature", "properties": { "index": "55", "@osmId": "node/645759115", "name": null, "opening_hours": null, "label": "Signalised crossings with acoustic guidance", "color": "#e6550d" }, "geometry": { "type": "Point", "coordinates": [ 8.6748319, 49.4049462 ] } },
{ "type": "Feature", "properties": { "index": "56", "@osmId": "node/798432632", "name": null, "opening_hours": null, "label": "Signalised crossings with acoustic guidance", "color": "#e6550d" }, "geometry": { "type": "Point", "coordinates": [ 8.6888779, 49.3991305 ] } },
{ "type": "Feature", "properties": { "index": "57", "@osmId": "node/1183227584", "name": null, "opening_hours": null, "label": "Signalised crossings with acoustic guidance", "color": "#e6550d" }, "geometry": { "type": "Point", "coordinates": [ 8.6709742, 49.4067131 ] } },
{ "type": "Feature", "properties": { "index": "58", "@osmId": "node/1232924592", "name": null, "opening_hours": null, "label": "Signalised crossings with acoustic guidance", "color": "#e6550d" }, "geometry": { "type": "Point", "coordinates": [ 8.6695009, 49.4091746 ] } },
{ "type": "Feature", "properties": { "index": "59", "@osmId": "node/1339993355", "name": null, "opening_hours": null, "label": "Signalised crossings with acoustic guidance", "color": "#e6550d" }, "geometry": { "type": "Point", "coordinates": [ 8.6812922, 49.4047927 ] } },
{ "type": "Feature", "properties": { "index": "60", "@osmId": "node/1339993467", "name": null, "opening_hours": null, "label": "Signalised crossings with acoustic guidance", "color": "#e6550d" }, "geometry": { "type": "Point", "coordinates": [ 8.681245, 49.4049037 ] } },
{ "type": "Feature", "properties": { "index": "61", "@osmId": "node/1379443289", "name": null, "opening_hours": null, "label": "Signalised crossings with acoustic guidance", "color": "#e6550d" }, "geometry": { "type": "Point", "coordinates": [ 8.71841, 49.4142364 ] } },
{ "type": "Feature", "properties": { "index": "62", "@osmId": "node/1379460874", "name": null, "opening_hours": null, "label": "Signalised crossings with acoustic guidance", "color": "#e6550d" }, "geometry": { "type": "Point", "coordinates": [ 8.7185607, 49.4145136 ] } },
{ "type": "Feature", "properties": { "index": "63", "@osmId": "node/1470714689", "name": null, "opening_hours": null, "label": "Signalised crossings with acoustic guidance", "color": "#e6550d" }, "geometry": { "type": "Point", "coordinates": [ 8.7049108, 49.4087826 ] } },
{ "type": "Feature", "properties": { "index": "64", "@osmId": "node/1470714693", "name": null, "opening_hours": null, "label": "Signalised crossings with acoustic guidance", "color": "#e6550d" }, "geometry": { "type": "Point", "coordinates": [ 8.7049611, 49.4088298 ] } },
{ "type": "Feature", "properties": { "index": "65", "@osmId": "node/1470714697", "name": null, "opening_hours": null, "label": "Signalised crossings with acoustic guidance", "color": "#e6550d" }, "geometry": { "type": "Point", "coordinates": [ 8.7049782, 49.4088976 ] } },
{ "type": "Feature", "properties": { "index": "66", "@osmId": "node/1470714705", "name": null, "opening_hours": null, "label": "Signalised crossings with acoustic guidance", "color": "#e6550d" }, "geometry": { "type": "Point", "coordinates": [ 8.7049686, 49.4089809 ] } },
{ "type": "Feature", "properties": { "index": "67", "@osmId": "node/1470714721", "name": null, "opening_hours": null, "label": "Signalised crossings with acoustic guidance", "color": "#e6550d" }, "geometry": { "type": "Point", "coordinates": [ 8.7069847, 49.4091653 ] } },
{ "type": "Feature", "properties": { "index": "68", "@osmId": "node/1727214058", "name": null, "opening_hours": null, "label": "Signalised crossings with acoustic guidance", "color": "#e6550d" }, "geometry": { "type": "Point", "coordinates": [ 8.6772877, 49.4078267 ] } },
{ "type": "Feature", "properties": { "index": "69", "@osmId": "node/1727214062", "name": null, "opening_hours": null, "label": "Signalised crossings with acoustic guidance", "color": "#e6550d" }, "geometry": { "type": "Point", "coordinates": [ 8.6772914, 49.4079584 ] } },
{ "type": "Feature", "properties": { "index": "70", "@osmId": "node/1779583830", "name": null, "opening_hours": null, "label": "Signalised crossings with acoustic guidance", "color": "#e6550d" }, "geometry": { "type": "Point", "coordinates": [ 8.6956267, 49.4134914 ] } },
{ "type": "Feature", "properties": { "index": "71", "@osmId": "node/1854905221", "name": null, "opening_hours": null, "label": "Signalised crossings with acoustic guidance", "color": "#e6550d" }, "geometry": { "type": "Point", "coordinates": [ 8.674528, 49.405243 ] } },
{ "type": "Feature", "properties": { "index": "72", "@osmId": "node/1995029928", "name": null, "opening_hours": null, "label": "Signalised crossings with acoustic guidance", "color": "#e6550d" }, "geometry": { "type": "Point", "coordinates": [ 8.6812581, 49.4048731 ] } },
{ "type": "Feature", "properties": { "index": "73", "@osmId": "node/1995271044", "name": null, "opening_hours": null, "label": "Signalised crossings with acoustic guidance", "color": "#e6550d" }, "geometry": { "type": "Point", "coordinates": [ 8.689179, 49.421469 ] } },
{ "type": "Feature", "properties": { "index": "74", "@osmId": "node/2073152808", "name": null, "opening_hours": null, "label": "Signalised crossings with acoustic guidance", "color": "#e6550d" }, "geometry": { "type": "Point", "coordinates": [ 8.6895024, 49.3981375 ] } },
{ "type": "Feature", "properties": { "index": "75", "@osmId": "node/2085229013", "name": null, "opening_hours": null, "label": "Signalised crossings with acoustic guidance", "color": "#e6550d" }, "geometry": { "type": "Point", "coordinates": [ 8.6736464, 49.3981471 ] } },
{ "type": "Feature", "properties": { "index": "76", "@osmId": "node/2085229016", "name": null, "opening_hours": null, "label": "Signalised crossings with acoustic guidance", "color": "#e6550d" }, "geometry": { "type": "Point", "coordinates": [ 8.6777971, 49.4003989 ] } },
{ "type": "Feature", "properties": { "index": "77", "@osmId": "node/2085229020", "name": null, "opening_hours": null, "label": "Signalised crossings with acoustic guidance", "color": "#e6550d" }, "geometry": { "type": "Point", "coordinates": [ 8.6773126, 49.4001088 ] } },
{ "type": "Feature", "properties": { "index": "78", "@osmId": "node/2085229021", "name": null, "opening_hours": null, "label": "Signalised crossings with acoustic guidance", "color": "#e6550d" }, "geometry": { "type": "Point", "coordinates": [ 8.6771476, 49.4000292 ] } },
{ "type": "Feature", "properties": { "index": "79", "@osmId": "node/2108088837", "name": null, "opening_hours": null, "label": "Signalised crossings with acoustic guidance", "color": "#e6550d" }, "geometry": { "type": "Point", "coordinates": [ 8.6803517, 49.4018965 ] } },
{ "type": "Feature", "properties": { "index": "80", "@osmId": "node/2108088839", "name": null, "opening_hours": null, "label": "Signalised crossings with acoustic guidance", "color": "#e6550d" }, "geometry": { "type": "Point", "coordinates": [ 8.6738686, 49.3980019 ] } },
{ "type": "Feature", "properties": { "index": "81", "@osmId": "node/2108088840", "name": null, "opening_hours": null, "label": "Signalised crossings with acoustic guidance", "color": "#e6550d" }, "geometry": { "type": "Point", "coordinates": [ 8.6817587, 49.4032592 ] } },
{ "type": "Feature", "properties": { "index": "82", "@osmId": "node/2108088848", "name": null, "opening_hours": null, "label": "Signalised crossings with acoustic guidance", "color": "#e6550d" }, "geometry": { "type": "Point", "coordinates": [ 8.6776194, 49.3998968 ] } },
{ "type": "Feature", "properties": { "index": "83", "@osmId": "node/2108088849", "name": null, "opening_hours": null, "label": "Signalised crossings with acoustic guidance", "color": "#e6550d" }, "geometry": { "type": "Point", "coordinates": [ 8.6782873, 49.4002512 ] } },
{ "type": "Feature", "properties": { "index": "84", "@osmId": "node/2108091479", "name": null, "opening_hours": null, "label": "Signalised crossings with acoustic guidance", "color": "#e6550d" }, "geometry": { "type": "Point", "coordinates": [ 8.680028, 49.4020936 ] } },
{ "type": "Feature", "properties": { "index": "85", "@osmId": "node/2108091481", "name": null, "opening_hours": null, "label": "Signalised crossings with acoustic guidance", "color": "#e6550d" }, "geometry": { "type": "Point", "coordinates": [ 8.6795974, 49.4017604 ] } },
{ "type": "Feature", "properties": { "index": "86", "@osmId": "node/2184899914", "name": null, "opening_hours": null, "label": "Signalised crossings with acoustic guidance", "color": "#e6550d" }, "geometry": { "type": "Point", "coordinates": [ 8.6993528, 49.4123588 ] } },
{ "type": "Feature", "properties": { "index": "87", "@osmId": "node/2235112753", "name": null, "opening_hours": null, "label": "Signalised crossings with acoustic guidance", "color": "#e6550d" }, "geometry": { "type": "Point", "coordinates": [ 8.6663939, 49.4190646 ] } },
{ "type": "Feature", "properties": { "index": "88", "@osmId": "node/2235112765", "name": null, "opening_hours": null, "label": "Signalised crossings with acoustic guidance", "color": "#e6550d" }, "geometry": { "type": "Point", "coordinates": [ 8.6663945, 49.4191338 ] } },
{ "type": "Feature", "properties": { "index": "89", "@osmId": "node/2280283612", "name": null, "opening_hours": null, "label": "Signalised crossings with acoustic guidance", "color": "#e6550d" }, "geometry": { "type": "Point", "coordinates": [ 8.699275, 49.4122933 ] } },
{ "type": "Feature", "properties": { "index": "90", "@osmId": "node/2280283618", "name": null, "opening_hours": null, "label": "Signalised crossings with acoustic guidance", "color": "#e6550d" }, "geometry": { "type": "Point", "coordinates": [ 8.6994239, 49.4123254 ] } },
{ "type": "Feature", "properties": { "index": "91", "@osmId": "node/2288314034", "name": null, "opening_hours": null, "label": "Signalised crossings with acoustic guidance", "color": "#e6550d" }, "geometry": { "type": "Point", "coordinates": [ 8.681402, 49.4033734 ] } },
{ "type": "Feature", "properties": { "index": "92", "@osmId": "node/2302357006", "name": null, "opening_hours": null, "label": "Signalised crossings with acoustic guidance", "color": "#e6550d" }, "geometry": { "type": "Point", "coordinates": [ 8.6898776, 49.4066891 ] } },
{ "type": "Feature", "properties": { "index": "93", "@osmId": "node/2302357029", "name": null, "opening_hours": null, "label": "Signalised crossings with acoustic guidance", "color": "#e6550d" }, "geometry": { "type": "Point", "coordinates": [ 8.6898062, 49.4068434 ] } },
{ "type": "Feature", "properties": { "index": "94", "@osmId": "node/2302357103", "name": null, "opening_hours": null, "label": "Signalised crossings with acoustic guidance", "color": "#e6550d" }, "geometry": { "type": "Point", "coordinates": [ 8.6930521, 49.4073665 ] } },
{ "type": "Feature", "properties": { "index": "95", "@osmId": "node/2302357120", "name": null, "opening_hours": null, "label": "Signalised crossings with acoustic guidance", "color": "#e6550d" }, "geometry": { "type": "Point", "coordinates": [ 8.6930292, 49.4074207 ] } },
{ "type": "Feature", "properties": { "index": "96", "@osmId": "node/2302357155", "name": null, "opening_hours": null, "label": "Signalised crossings with acoustic guidance", "color": "#e6550d" }, "geometry": { "type": "Point", "coordinates": [ 8.6925565, 49.4075162 ] } },
{ "type": "Feature", "properties": { "index": "97", "@osmId": "node/2308341575", "name": null, "opening_hours": null, "label": "Signalised crossings with acoustic guidance", "color": "#e6550d" }, "geometry": { "type": "Point", "coordinates": [ 8.6906212, 49.4190948 ] } },
{ "type": "Feature", "properties": { "index": "98", "@osmId": "node/2319092893", "name": null, "opening_hours": null, "label": "Signalised crossings with acoustic guidance", "color": "#e6550d" }, "geometry": { "type": "Point", "coordinates": [ 8.6887097, 49.3990434 ] } },
{ "type": "Feature", "properties": { "index": "99", "@osmId": "node/2319092914", "name": null, "opening_hours": null, "label": "Signalised crossings with acoustic guidance", "color": "#e6550d" }, "geometry": { "type": "Point", "coordinates": [ 8.6886114, 49.3991968 ] } },
{ "type": "Feature", "properties": { "index": "100", "@osmId": "node/2381850977", "name": null, "opening_hours": null, "label": "Signalised crossings with acoustic guidance", "color": "#e6550d" }, "geometry": { "type": "Point", "coordinates": [ 8.6908766, 49.4001519 ] } },
{ "type": "Feature", "properties": { "index": "101", "@osmId": "node/2381850998", "name": null, "opening_hours": null, "label": "Signalised crossings with acoustic guidance", "color": "#e6550d" }, "geometry": { "type": "Point", "coordinates": [ 8.6909091, 49.4002652 ] } },
{ "type": "Feature", "properties": { "index": "102", "@osmId": "node/2391363180", "name": null, "opening_hours": null, "label": "Signalised crossings with acoustic guidance", "color": "#e6550d" }, "geometry": { "type": "Point", "coordinates": [ 8.6803671, 49.4020257 ] } },
{ "type": "Feature", "properties": { "index": "103", "@osmId": "node/2391363188", "name": null, "opening_hours": null, "label": "Signalised crossings with acoustic guidance", "color": "#e6550d" }, "geometry": { "type": "Point", "coordinates": [ 8.6815373, 49.4031581 ] } },
{ "type": "Feature", "properties": { "index": "104", "@osmId": "node/2391363191", "name": null, "opening_hours": null, "label": "Signalised crossings with acoustic guidance", "color": "#e6550d" }, "geometry": { "type": "Point", "coordinates": [ 8.6813067, 49.4032272 ] } },
{ "type": "Feature", "properties": { "index": "105", "@osmId": "node/2391363194", "name": null, "opening_hours": null, "label": "Signalised crossings with acoustic guidance", "color": "#e6550d" }, "geometry": { "type": "Point", "coordinates": [ 8.6818523, 49.4034074 ] } },
{ "type": "Feature", "properties": { "index": "106", "@osmId": "node/2391363197", "name": null, "opening_hours": null, "label": "Signalised crossings with acoustic guidance", "color": "#e6550d" }, "geometry": { "type": "Point", "coordinates": [ 8.6816065, 49.4034939 ] } },
{ "type": "Feature", "properties": { "index": "107", "@osmId": "node/2391363205", "name": null, "opening_hours": null, "label": "Signalised crossings with acoustic guidance", "color": "#e6550d" }, "geometry": { "type": "Point", "coordinates": [ 8.6774148, 49.4044584 ] } },
{ "type": "Feature", "properties": { "index": "108", "@osmId": "node/2407305254", "name": null, "opening_hours": null, "label": "Signalised crossings with acoustic guidance", "color": "#e6550d" }, "geometry": { "type": "Point", "coordinates": [ 8.6745733, 49.4017842 ] } },
{ "type": "Feature", "properties": { "index": "109", "@osmId": "node/2500011810", "name": null, "opening_hours": null, "label": "Signalised crossings with acoustic guidance", "color": "#e6550d" }, "geometry": { "type": "Point", "coordinates": [ 8.6749651, 49.4053425 ] } },
{ "type": "Feature", "properties": { "index": "110", "@osmId": "node/2501377950", "name": null, "opening_hours": null, "label": "Signalised crossings with acoustic guidance", "color": "#e6550d" }, "geometry": { "type": "Point", "coordinates": [ 8.6823368, 49.4037793 ] } },
{ "type": "Feature", "properties": { "index": "111", "@osmId": "node/2537836261", "name": null, "opening_hours": null, "label": "Signalised crossings with acoustic guidance", "color": "#e6550d" }, "geometry": { "type": "Point", "coordinates": [ 8.6773969, 49.3998987 ] } },
{ "type": "Feature", "properties": { "index": "112", "@osmId": "node/2537836302", "name": null, "opening_hours": null, "label": "Signalised crossings with acoustic guidance", "color": "#e6550d" }, "geometry": { "type": "Point", "coordinates": [ 8.6772781, 49.3999799 ] } },
{ "type": "Feature", "properties": { "index": "113", "@osmId": "node/2592025304", "name": null, "opening_hours": null, "label": "Signalised crossings with acoustic guidance", "color": "#e6550d" }, "geometry": { "type": "Point", "coordinates": [ 8.673541, 49.39802 ] } },
{ "type": "Feature", "properties": { "index": "114", "@osmId": "node/2592025306", "name": null, "opening_hours": null, "label": "Signalised crossings with acoustic guidance", "color": "#e6550d" }, "geometry": { "type": "Point", "coordinates": [ 8.6739715, 49.3981185 ] } },
{ "type": "Feature", "properties": { "index": "115", "@osmId": "node/2592025308", "name": null, "opening_hours": null, "label": "Signalised crossings with acoustic guidance", "color": "#e6550d" }, "geometry": { "type": "Point", "coordinates": [ 8.673874, 49.3982031 ] } },
{ "type": "Feature", "properties": { "index": "116", "@osmId": "node/2593930979", "name": null, "opening_hours": null, "label": "Signalised crossings with acoustic guidance", "color": "#e6550d" }, "geometry": { "type": "Point", "coordinates": [ 8.669521, 49.4092498 ] } },
{ "type": "Feature", "properties": { "index": "117", "@osmId": "node/2598311818", "name": null, "opening_hours": null, "label": "Signalised crossings with acoustic guidance", "color": "#e6550d" }, "geometry": { "type": "Point", "coordinates": [ 8.7180436, 49.4144442 ] } },
{ "type": "Feature", "properties": { "index": "118", "@osmId": "node/2640446048", "name": null, "opening_hours": null, "label": "Signalised crossings with acoustic guidance", "color": "#e6550d" }, "geometry": { "type": "Point", "coordinates": [ 8.6895354, 49.3981616 ] } },
{ "type": "Feature", "properties": { "index": "119", "@osmId": "node/2793896127", "name": null, "opening_hours": null, "label": "Signalised crossings with acoustic guidance", "color": "#e6550d" }, "geometry": { "type": "Point", "coordinates": [ 8.6702572, 49.4079811 ] } },
{ "type": "Feature", "properties": { "index": "120", "@osmId": "node/2793896128", "name": null, "opening_hours": null, "label": "Signalised crossings with acoustic guidance", "color": "#e6550d" }, "geometry": { "type": "Point", "coordinates": [ 8.6702623, 49.4080678 ] } },
{ "type": "Feature", "properties": { "index": "121", "@osmId": "node/2865556819", "name": null, "opening_hours": null, "label": "Signalised crossings with acoustic guidance", "color": "#e6550d" }, "geometry": { "type": "Point", "coordinates": [ 8.6871037, 49.4061298 ] } },
{ "type": "Feature", "properties": { "index": "122", "@osmId": "node/2980068528", "name": null, "opening_hours": null, "label": "Signalised crossings with acoustic guidance", "color": "#e6550d" }, "geometry": { "type": "Point", "coordinates": [ 8.6764799, 49.4197321 ] } },
{ "type": "Feature", "properties": { "index": "123", "@osmId": "node/2980083957", "name": null, "opening_hours": null, "label": "Signalised crossings with acoustic guidance", "color": "#e6550d" }, "geometry": { "type": "Point", "coordinates": [ 8.6749553, 49.4197727 ] } },
{ "type": "Feature", "properties": { "index": "124", "@osmId": "node/3201003003", "name": null, "opening_hours": null, "label": "Signalised crossings with acoustic guidance", "color": "#e6550d" }, "geometry": { "type": "Point", "coordinates": [ 8.6942847, 49.4077233 ] } },
{ "type": "Feature", "properties": { "index": "125", "@osmId": "node/3201003656", "name": null, "opening_hours": null, "label": "Signalised crossings with acoustic guidance", "color": "#e6550d" }, "geometry": { "type": "Point", "coordinates": [ 8.6927613, 49.4062002 ] } },
{ "type": "Feature", "properties": { "index": "126", "@osmId": "node/3265115701", "name": null, "opening_hours": null, "label": "Signalised crossings with acoustic guidance", "color": "#e6550d" }, "geometry": { "type": "Point", "coordinates": [ 8.6772887, 49.4078899 ] } },
{ "type": "Feature", "properties": { "index": "127", "@osmId": "node/3710948938", "name": null, "opening_hours": null, "label": "Signalised crossings with acoustic guidance", "color": "#e6550d" }, "geometry": { "type": "Point", "coordinates": [ 8.6724251, 49.4088401 ] } },
{ "type": "Feature", "properties": { "index": "128", "@osmId": "node/3712759949", "name": null, "opening_hours": null, "label": "Signalised crossings with acoustic guidance", "color": "#e6550d" }, "geometry": { "type": "Point", "coordinates": [ 8.6858834, 49.4059666 ] } },
{ "type": "Feature", "properties": { "index": "129", "@osmId": "node/3763267910", "name": null, "opening_hours": null, "label": "Signalised crossings with acoustic guidance", "color": "#e6550d" }, "geometry": { "type": "Point", "coordinates": [ 8.6869327, 49.4061666 ] } },
{ "type": "Feature", "properties": { "index": "130", "@osmId": "node/3763267915", "name": null, "opening_hours": null, "label": "Signalised crossings with acoustic guidance", "color": "#e6550d" }, "geometry": { "type": "Point", "coordinates": [ 8.6868584, 49.4063233 ] } },
{ "type": "Feature", "properties": { "index": "131", "@osmId": "node/3879053797", "name": null, "opening_hours": null, "label": "Signalised crossings with acoustic guidance", "color": "#e6550d" }, "geometry": { "type": "Point", "coordinates": [ 8.6869555, 49.4103057 ] } },
{ "type": "Feature", "properties": { "index": "132", "@osmId": "node/3935549773", "name": null, "opening_hours": null, "label": "Signalised crossings with acoustic guidance", "color": "#e6550d" }, "geometry": { "type": "Point", "coordinates": [ 8.6677791, 49.4189861 ] } },
{ "type": "Feature", "properties": { "index": "133", "@osmId": "node/3962606285", "name": null, "opening_hours": null, "label": "Signalised crossings with acoustic guidance", "color": "#e6550d" }, "geometry": { "type": "Point", "coordinates": [ 8.6782796, 49.4003489 ] } },
{ "type": "Feature", "properties": { "index": "134", "@osmId": "node/3962606290", "name": null, "opening_hours": null, "label": "Signalised crossings with acoustic guidance", "color": "#e6550d" }, "geometry": { "type": "Point", "coordinates": [ 8.6780545, 49.4004453 ] } },
{ "type": "Feature", "properties": { "index": "135", "@osmId": "node/4210475345", "name": null, "opening_hours": null, "label": "Signalised crossings with acoustic guidance", "color": "#e6550d" }, "geometry": { "type": "Point", "coordinates": [ 8.6921513, 49.4146702 ] } },
{ "type": "Feature", "properties": { "index": "136", "@osmId": "node/4210475348", "name": null, "opening_hours": null, "label": "Signalised crossings with acoustic guidance", "color": "#e6550d" }, "geometry": { "type": "Point", "coordinates": [ 8.692146, 49.4147778 ] } },
{ "type": "Feature", "properties": { "index": "137", "@osmId": "node/4523881764", "name": null, "opening_hours": null, "label": "Signalised crossings with acoustic guidance", "color": "#e6550d" }, "geometry": { "type": "Point", "coordinates": [ 8.6747911, 49.4196375 ] } },
{ "type": "Feature", "properties": { "index": "138", "@osmId": "node/4909158089", "name": null, "opening_hours": null, "label": "Signalised crossings with acoustic guidance", "color": "#e6550d" }, "geometry": { "type": "Point", "coordinates": [ 8.6689588, 49.4033463 ] } },
{ "type": "Feature", "properties": { "index": "139", "@osmId": "node/5094269050", "name": null, "opening_hours": null, "label": "Signalised crossings with acoustic guidance", "color": "#e6550d" }, "geometry": { "type": "Point", "coordinates": [ 8.6660745, 49.4037495 ] } },
{ "type": "Feature", "properties": { "index": "140", "@osmId": "node/5181212457", "name": null, "opening_hours": null, "label": "Signalised crossings with acoustic guidance", "color": "#e6550d" }, "geometry": { "type": "Point", "coordinates": [ 8.6870969, 49.4102613 ] } },
{ "type": "Feature", "properties": { "index": "141", "@osmId": "node/5290673229", "name": null, "opening_hours": null, "label": "Signalised crossings with acoustic guidance", "color": "#e6550d" }, "geometry": { "type": "Point", "coordinates": [ 8.6690532, 49.4051593 ] } },
{ "type": "Feature", "properties": { "index": "142", "@osmId": "node/5290673230", "name": null, "opening_hours": null, "label": "Signalised crossings with acoustic guidance", "color": "#e6550d" }, "geometry": { "type": "Point", "coordinates": [ 8.669031, 49.4050489 ] } },
{ "type": "Feature", "properties": { "index": "143", "@osmId": "node/5328295060", "name": null, "opening_hours": null, "label": "Signalised crossings with acoustic guidance", "color": "#e6550d" }, "geometry": { "type": "Point", "coordinates": [ 8.6621445, 49.4047944 ] } },
{ "type": "Feature", "properties": { "index": "144", "@osmId": "node/6127351325", "name": null, "opening_hours": null, "label": "Signalised crossings with acoustic guidance", "color": "#e6550d" }, "geometry": { "type": "Point", "coordinates": [ 8.6766721, 49.4049404 ] } },
{ "type": "Feature", "properties": { "index": "145", "@osmId": "node/6222512454", "name": null, "opening_hours": null, "label": "Signalised crossings with acoustic guidance", "color": "#e6550d" }, "geometry": { "type": "Point", "coordinates": [ 8.6718734, 49.4030524 ] } },
{ "type": "Feature", "properties": { "index": "146", "@osmId": "node/6222512455", "name": null, "opening_hours": null, "label": "Signalised crossings with acoustic guidance", "color": "#e6550d" }, "geometry": { "type": "Point", "coordinates": [ 8.6745579, 49.4015494 ] } },
{ "type": "Feature", "properties": { "index": "147", "@osmId": "node/6222512471", "name": null, "opening_hours": null, "label": "Signalised crossings with acoustic guidance", "color": "#e6550d" }, "geometry": { "type": "Point", "coordinates": [ 8.6731499, 49.4022476 ] } },
{ "type": "Feature", "properties": { "index": "148", "@osmId": "node/6222512972", "name": null, "opening_hours": null, "label": "Signalised crossings with acoustic guidance", "color": "#e6550d" }, "geometry": { "type": "Point", "coordinates": [ 8.6688687, 49.4031527 ] } },
{ "type": "Feature", "properties": { "index": "149", "@osmId": "node/6583593502", "name": null, "opening_hours": null, "label": "Signalised crossings with acoustic guidance", "color": "#e6550d" }, "geometry": { "type": "Point", "coordinates": [ 8.6921804, 49.4171675 ] } },
{ "type": "Feature", "properties": { "index": "150", "@osmId": "node/6583593507", "name": null, "opening_hours": null, "label": "Signalised crossings with acoustic guidance", "color": "#e6550d" }, "geometry": { "type": "Point", "coordinates": [ 8.6918254, 49.4170933 ] } },
{ "type": "Feature", "properties": { "index": "151", "@osmId": "node/6583605533", "name": null, "opening_hours": null, "label": "Signalised crossings with acoustic guidance", "color": "#e6550d" }, "geometry": { "type": "Point", "coordinates": [ 8.692423, 49.4138621 ] } },
{ "type": "Feature", "properties": { "index": "152", "@osmId": "node/6583605536", "name": null, "opening_hours": null, "label": "Signalised crossings with acoustic guidance", "color": "#e6550d" }, "geometry": { "type": "Point", "coordinates": [ 8.6920688, 49.413846 ] } },
{ "type": "Feature", "properties": { "index": "153", "@osmId": "node/6584088380", "name": null, "opening_hours": null, "label": "Signalised crossings with acoustic guidance", "color": "#e6550d" }, "geometry": { "type": "Point", "coordinates": [ 8.6922085, 49.4139833 ] } },
{ "type": "Feature", "properties": { "index": "154", "@osmId": "node/6584088381", "name": null, "opening_hours": null, "label": "Signalised crossings with acoustic guidance", "color": "#e6550d" }, "geometry": { "type": "Point", "coordinates": [ 8.692157, 49.4146079 ] } },
{ "type": "Feature", "properties": { "index": "155", "@osmId": "node/6584088382", "name": null, "opening_hours": null, "label": "Signalised crossings with acoustic guidance", "color": "#e6550d" }, "geometry": { "type": "Point", "coordinates": [ 8.6921445, 49.4147999 ] } },
{ "type": "Feature", "properties": { "index": "156", "@osmId": "node/6584121889", "name": null, "opening_hours": null, "label": "Signalised crossings with acoustic guidance", "color": "#e6550d" }, "geometry": { "type": "Point", "coordinates": [ 8.6920042, 49.4169459 ] } },
{ "type": "Feature", "properties": { "index": "157", "@osmId": "node/6584121890", "name": null, "opening_hours": null, "label": "Signalised crossings with acoustic guidance", "color": "#e6550d" }, "geometry": { "type": "Point", "coordinates": [ 8.6919307, 49.4172347 ] } },
{ "type": "Feature", "properties": { "index": "158", "@osmId": "node/6766284692", "name": null, "opening_hours": null, "label": "Signalised crossings with acoustic guidance", "color": "#e6550d" }, "geometry": { "type": "Point", "coordinates": [ 8.6756997, 49.4050667 ] } },
{ "type": "Feature", "properties": { "index": "159", "@osmId": "node/6771696320", "name": null, "opening_hours": null, "label": "Signalised crossings with acoustic guidance", "color": "#e6550d" }, "geometry": { "type": "Point", "coordinates": [ 8.6774844, 49.404024 ] } },
{ "type": "Feature", "properties": { "index": "160", "@osmId": "node/6771696321", "name": null, "opening_hours": null, "label": "Signalised crossings with acoustic guidance", "color": "#e6550d" }, "geometry": { "type": "Point", "coordinates": [ 8.6772841, 49.4039852 ] } },
{ "type": "Feature", "properties": { "index": "161", "@osmId": "node/6771696325", "name": null, "opening_hours": null, "label": "Signalised crossings with acoustic guidance", "color": "#e6550d" }, "geometry": { "type": "Point", "coordinates": [ 8.6755781, 49.4048309 ] } },
{ "type": "Feature", "properties": { "index": "162", "@osmId": "node/6771696326", "name": null, "opening_hours": null, "label": "Signalised crossings with acoustic guidance", "color": "#e6550d" }, "geometry": { "type": "Point", "coordinates": [ 8.6756095, 49.4048919 ] } },
{ "type": "Feature", "properties": { "index": "163", "@osmId": "node/6771696327", "name": null, "opening_hours": null, "label": "Signalised crossings with acoustic guidance", "color": "#e6550d" }, "geometry": { "type": "Point", "coordinates": [ 8.675627, 49.4049258 ] } },
{ "type": "Feature", "properties": { "index": "164", "@osmId": "node/6771696328", "name": null, "opening_hours": null, "label": "Signalised crossings with acoustic guidance", "color": "#e6550d" }, "geometry": { "type": "Point", "coordinates": [ 8.67566, 49.4049898 ] } },
{ "type": "Feature", "properties": { "index": "165", "@osmId": "node/6771696329", "name": null, "opening_hours": null, "label": "Signalised crossings with acoustic guidance", "color": "#e6550d" }, "geometry": { "type": "Point", "coordinates": [ 8.6766556, 49.4047821 ] } },
{ "type": "Feature", "properties": { "index": "166", "@osmId": "node/6771701771", "name": null, "opening_hours": null, "label": "Signalised crossings with acoustic guidance", "color": "#e6550d" }, "geometry": { "type": "Point", "coordinates": [ 8.6765772, 49.404621 ] } },
{ "type": "Feature", "properties": { "index": "167", "@osmId": "node/6771701772", "name": null, "opening_hours": null, "label": "Signalised crossings with acoustic guidance", "color": "#e6550d" }, "geometry": { "type": "Point", "coordinates": [ 8.6766096, 49.4046874 ] } },
{ "type": "Feature", "properties": { "index": "168", "@osmId": "node/6771701773", "name": null, "opening_hours": null, "label": "Signalised crossings with acoustic guidance", "color": "#e6550d" }, "geometry": { "type": "Point", "coordinates": [ 8.6766229, 49.4047152 ] } },
{ "type": "Feature", "properties": { "index": "169", "@osmId": "node/6787829751", "name": null, "opening_hours": null, "label": "Signalised crossings with acoustic guidance", "color": "#e6550d" }, "geometry": { "type": "Point", "coordinates": [ 8.6749005, 49.4053468 ] } },
{ "type": "Feature", "properties": { "index": "170", "@osmId": "node/6795041023", "name": null, "opening_hours": null, "label": "Signalised crossings with acoustic guidance", "color": "#e6550d" }, "geometry": { "type": "Point", "coordinates": [ 8.676808, 49.4042423 ] } },
{ "type": "Feature", "properties": { "index": "171", "@osmId": "node/6902288609", "name": null, "opening_hours": null, "label": "Signalised crossings with acoustic guidance", "color": "#e6550d" }, "geometry": { "type": "Point", "coordinates": [ 8.692998, 49.4114052 ] } },
{ "type": "Feature", "properties": { "index": "172", "@osmId": "node/7110970011", "name": null, "opening_hours": null, "label": "Signalised crossings with acoustic guidance", "color": "#e6550d" }, "geometry": { "type": "Point", "coordinates": [ 8.672021, 49.4032547 ] } },
{ "type": "Feature", "properties": { "index": "173", "@osmId": "node/7110970014", "name": null, "opening_hours": null, "label": "Signalised crossings with acoustic guidance", "color": "#e6550d" }, "geometry": { "type": "Point", "coordinates": [ 8.6717515, 49.403274 ] } },
{ "type": "Feature", "properties": { "index": "174", "@osmId": "node/7278463006", "name": null, "opening_hours": null, "label": "Signalised crossings with acoustic guidance", "color": "#e6550d" }, "geometry": { "type": "Point", "coordinates": [ 8.6737944, 49.4021688 ] } },
{ "type": "Feature", "properties": { "index": "175", "@osmId": "node/8081327789", "name": null, "opening_hours": null, "label": "Signalised crossings with acoustic guidance", "color": "#e6550d" }, "geometry": { "type": "Point", "coordinates": [ 8.6692839, 49.4052196 ] } },
{ "type": "Feature", "properties": { "index": "176", "@osmId": "node/8081327792", "name": null, "opening_hours": null, "label": "Signalised crossings with acoustic guidance", "color": "#e6550d" }, "geometry": { "type": "Point", "coordinates": [ 8.6694789, 49.405139 ] } },
{ "type": "Feature", "properties": { "index": "177", "@osmId": "node/8081327793", "name": null, "opening_hours": null, "label": "Signalised crossings with acoustic guidance", "color": "#e6550d" }, "geometry": { "type": "Point", "coordinates": [ 8.6696258, 49.4051068 ] } },
{ "type": "Feature", "properties": { "index": "178", "@osmId": "node/8081327802", "name": null, "opening_hours": null, "label": "Signalised crossings with acoustic guidance", "color": "#e6550d" }, "geometry": { "type": "Point", "coordinates": [ 8.6695711, 49.4049175 ] } },
{ "type": "Feature", "properties": { "index": "179", "@osmId": "node/8081327804", "name": null, "opening_hours": null, "label": "Signalised crossings with acoustic guidance", "color": "#e6550d" }, "geometry": { "type": "Point", "coordinates": [ 8.669681, 49.404973 ] } },
{ "type": "Feature", "properties": { "index": "180", "@osmId": "node/8973918661", "name": null, "opening_hours": null, "label": "Signalised crossings with acoustic guidance", "color": "#e6550d" }, "geometry": { "type": "Point", "coordinates": [ 8.662319, 49.4047022 ] } },
{ "type": "Feature", "properties": { "index": "181", "@osmId": "node/9412613633", "name": null, "opening_hours": null, "label": "Signalised crossings with acoustic guidance", "color": "#e6550d" }, "geometry": { "type": "Point", "coordinates": [ 8.6783323, 49.400336 ] } },
{ "type": "Feature", "properties": { "index": "182", "@osmId": "node/9425492057", "name": null, "opening_hours": null, "label": "Signalised crossings with acoustic guidance", "color": "#e6550d" }, "geometry": { "type": "Point", "coordinates": [ 8.6768197, 49.4050229 ] } },
{ "type": "Feature", "properties": { "index": "183", "@osmId": "node/9434060599", "name": null, "opening_hours": null, "label": "Signalised crossings with acoustic guidance", "color": "#e6550d" }, "geometry": { "type": "Point", "coordinates": [ 8.6930431, 49.4073877 ] } },
{ "type": "Feature", "properties": { "index": "184", "@osmId": "node/10704229380", "name": null, "opening_hours": null, "label": "Signalised crossings with acoustic guidance", "color": "#e6550d" }, "geometry": { "type": "Point", "coordinates": [ 8.6885319, 49.3991598 ] } },
{ "type": "Feature", "properties": { "index": "185", "@osmId": "node/11335818817", "name": null, "opening_hours": null, "label": "Signalised crossings with acoustic guidance", "color": "#e6550d" }, "geometry": { "type": "Point", "coordinates": [ 8.6671467, 49.4052031 ] } },
{ "type": "Feature", "properties": { "index": "186", "@osmId": "node/12123734950", "name": null, "opening_hours": null, "label": "Signalised crossings with acoustic guidance", "color": "#e6550d" }, "geometry": { "type": "Point", "coordinates": [ 8.6663147, 49.4038675 ] } },
{ "type": "Feature", "properties": { "index": "187", "@osmId": "node/12123734951", "name": null, "opening_hours": null, "label": "Signalised crossings with acoustic guidance", "color": "#e6550d" }, "geometry": { "type": "Point", "coordinates": [ 8.666267, 49.4037727 ] } },
{ "type": "Feature", "properties": { "index": "188", "@osmId": "node/12123734967", "name": null, "opening_hours": null, "label": "Signalised crossings with acoustic guidance", "color": "#e6550d" }, "geometry": { "type": "Point", "coordinates": [ 8.665959, 49.40393 ] } },
{ "type": "Feature", "properties": { "index": "189", "@osmId": "node/12123734968", "name": null, "opening_hours": null, "label": "Signalised crossings with acoustic guidance", "color": "#e6550d" }, "geometry": { "type": "Point", "coordinates": [ 8.6659186, 49.4038459 ] } },
{ "type": "Feature", "properties": { "index": "190", "@osmId": "node/12123734973", "name": null, "opening_hours": null, "label": "Signalised crossings with acoustic guidance", "color": "#e6550d" }, "geometry": { "type": "Point", "coordinates": [ 8.6622705, 49.4046085 ] } },
{ "type": "Feature", "properties": { "index": "191", "@osmId": "node/12123734990", "name": null, "opening_hours": null, "label": "Signalised crossings with acoustic guidance", "color": "#e6550d" }, "geometry": { "type": "Point", "coordinates": [ 8.6620204, 49.4047675 ] } },
{ "type": "Feature", "properties": { "index": "192", "@osmId": "node/12123734991", "name": null, "opening_hours": null, "label": "Signalised crossings with acoustic guidance", "color": "#e6550d" }, "geometry": { "type": "Point", "coordinates": [ 8.6619837, 49.4046707 ] } },
{ "type": "Feature", "properties": { "index": "193", "@osmId": "node/12291632134", "name": null, "opening_hours": null, "label": "Signalised crossings with acoustic guidance", "color": "#e6550d" }, "geometry": { "type": "Point", "coordinates": [ 8.6749326, 49.4049157 ] } },
{ "type": "Feature", "properties": { "index": "194", "@osmId": "node/13135159767", "name": null, "opening_hours": null, "label": "Signalised crossings with acoustic guidance", "color": "#e6550d" }, "geometry": { "type": "Point", "coordinates": [ 8.6671532, 49.4052649 ] } },
{ "type": "Feature", "properties": { "index": "195", "@osmId": "node/13135178977", "name": null, "opening_hours": null, "label": "Signalised crossings with acoustic guidance", "color": "#e6550d" }, "geometry": { "type": "Point", "coordinates": [ 8.6661881, 49.403945 ] } },
{ "type": "Feature", "properties": { "index": "196", "@osmId": "node/13386851414", "name": null, "opening_hours": null, "label": "Signalised crossings with acoustic guidance", "color": "#e6550d" }, "geometry": { "type": "Point", "coordinates": [ 8.6667729, 49.4052405 ] } },
{ "type": "Feature", "properties": { "index": "197", "@osmId": "node/13386851415", "name": null, "opening_hours": null, "label": "Signalised crossings with acoustic guidance", "color": "#e6550d" }, "geometry": { "type": "Point", "coordinates": [ 8.6667923, 49.4053099 ] } },
{ "type": "Feature", "properties": { "index": "198", "@osmId": "node/13389794793", "name": null, "opening_hours": null, "label": "Signalised crossings with acoustic guidance", "color": "#e6550d" }, "geometry": { "type": "Point", "coordinates": [ 8.6718034, 49.4031027 ] } },
{ "type": "Feature", "properties": { "index": "199", "@osmId": "node/13649411435", "name": null, "opening_hours": null, "label": "Signalised crossings with acoustic guidance", "color": "#e6550d" }, "geometry": { "type": "Point", "coordinates": [ 8.7011844, 49.4126481 ] } },
{ "type": "Feature", "properties": { "index": "200", "@osmId": "node/13686841474", "name": null, "opening_hours": null, "label": "Signalised crossings with acoustic guidance", "color": "#e6550d" }, "geometry": { "type": "Point", "coordinates": [ 8.6769377, 49.4059957 ] } },
{ "type": "Feature", "properties": { "index": "201", "@osmId": "node/33810924", "name": null, "opening_hours": null, "label": "Any signal with acoustic guidance", "color": "#fd8d3c" }, "geometry": { "type": "Point", "coordinates": [ 8.6935587, 49.4096042 ] } },
{ "type": "Feature", "properties": { "index": "202", "@osmId": "node/60697821", "name": null, "opening_hours": null, "label": "Any signal with acoustic guidance", "color": "#fd8d3c" }, "geometry": { "type": "Point", "coordinates": [ 8.692728, 49.409761 ] } },
{ "type": "Feature", "properties": { "index": "203", "@osmId": "node/60697824", "name": null, "opening_hours": null, "label": "Any signal with acoustic guidance", "color": "#fd8d3c" }, "geometry": { "type": "Point", "coordinates": [ 8.6924098, 49.4088043 ] } },
{ "type": "Feature", "properties": { "index": "204", "@osmId": "node/60698389", "name": null, "opening_hours": null, "label": "Any signal with acoustic guidance", "color": "#fd8d3c" }, "geometry": { "type": "Point", "coordinates": [ 8.6925549, 49.4092056 ] } },
{ "type": "Feature", "properties": { "index": "205", "@osmId": "node/135755571", "name": null, "opening_hours": null, "label": "Any signal with acoustic guidance", "color": "#fd8d3c" }, "geometry": { "type": "Point", "coordinates": [ 8.7020931, 49.4127766 ] } },
{ "type": "Feature", "properties": { "index": "206", "@osmId": "node/145994144", "name": null, "opening_hours": null, "label": "Any signal with acoustic guidance", "color": "#fd8d3c" }, "geometry": { "type": "Point", "coordinates": [ 8.6919797, 49.4171209 ] } },
{ "type": "Feature", "properties": { "index": "207", "@osmId": "node/267797885", "name": null, "opening_hours": null, "label": "Any signal with acoustic guidance", "color": "#fd8d3c" }, "geometry": { "type": "Point", "coordinates": [ 8.6943017, 49.406887 ] } },
{ "type": "Feature", "properties": { "index": "208", "@osmId": "node/271383668", "name": null, "opening_hours": null, "label": "Any signal with acoustic guidance", "color": "#fd8d3c" }, "geometry": { "type": "Point", "coordinates": [ 8.6709937, 49.4196365 ] } },
{ "type": "Feature", "properties": { "index": "209", "@osmId": "node/333273006", "name": null, "opening_hours": null, "label": "Any signal with acoustic guidance", "color": "#fd8d3c" }, "geometry": { "type": "Point", "coordinates": [ 8.7176161, 49.4139812 ] } },
{ "type": "Feature", "properties": { "index": "210", "@osmId": "node/410654157", "name": null, "opening_hours": null, "label": "Any signal with acoustic guidance", "color": "#fd8d3c" }, "geometry": { "type": "Point", "coordinates": [ 8.6924913, 49.4051061 ] } },
{ "type": "Feature", "properties": { "index": "211", "@osmId": "node/454576654", "name": null, "opening_hours": null, "label": "Any signal with acoustic guidance", "color": "#fd8d3c" }, "geometry": { "type": "Point", "coordinates": [ 8.6840293, 49.4057186 ] } },
{ "type": "Feature", "properties": { "index": "212", "@osmId": "node/454576657", "name": null, "opening_hours": null, "label": "Any signal with acoustic guidance", "color": "#fd8d3c" }, "geometry": { "type": "Point", "coordinates": [ 8.6842915, 49.4050659 ] } },
{ "type": "Feature", "properties": { "index": "213", "@osmId": "node/461228208", "name": null, "opening_hours": null, "label": "Any signal with acoustic guidance", "color": "#fd8d3c" }, "geometry": { "type": "Point", "coordinates": [ 8.6768601, 49.4050109 ] } },
{ "type": "Feature", "properties": { "index": "214", "@osmId": "node/538874359", "name": null, "opening_hours": null, "label": "Any signal with acoustic guidance", "color": "#fd8d3c" }, "geometry": { "type": "Point", "coordinates": [ 8.6925392, 49.4070553 ] } },
{ "type": "Feature", "properties": { "index": "215", "@osmId": "node/568443071", "name": null, "opening_hours": null, "label": "Any signal with acoustic guidance", "color": "#fd8d3c" }, "geometry": { "type": "Point", "coordinates": [ 8.6906245, 49.4001049 ] } },
{ "type": "Feature", "properties": { "index": "216", "@osmId": "node/634982887", "name": null, "opening_hours": null, "label": "Any signal with acoustic guidance", "color": "#fd8d3c" }, "geometry": { "type": "Point", "coordinates": [ 8.6920761, 49.4091129 ] } },
{ "type": "Feature", "properties": { "index": "217", "@osmId": "node/634982888", "name": null, "opening_hours": null, "label": "Any signal with acoustic guidance", "color": "#fd8d3c" }, "geometry": { "type": "Point", "coordinates": [ 8.6921251, 49.4089706 ] } },
{ "type": "Feature", "properties": { "index": "218", "@osmId": "node/1019329416", "name": null, "opening_hours": null, "label": "Any signal with acoustic guidance", "color": "#fd8d3c" }, "geometry": { "type": "Point", "coordinates": [ 8.6774377, 49.4046103 ] } },
{ "type": "Feature", "properties": { "index": "219", "@osmId": "node/1339993421", "name": null, "opening_hours": null, "label": "Any signal with acoustic guidance", "color": "#fd8d3c" }, "geometry": { "type": "Point", "coordinates": [ 8.6811958, 49.4051922 ] } },
{ "type": "Feature", "properties": { "index": "220", "@osmId": "node/1341408226", "name": null, "opening_hours": null, "label": "Any signal with acoustic guidance", "color": "#fd8d3c" }, "geometry": { "type": "Point", "coordinates": [ 8.6755254, 49.4078125 ] } },
{ "type": "Feature", "properties": { "index": "221", "@osmId": "node/1341408259", "name": null, "opening_hours": null, "label": "Any signal with acoustic guidance", "color": "#fd8d3c" }, "geometry": { "type": "Point", "coordinates": [ 8.675522, 49.4079601 ] } },
{ "type": "Feature", "properties": { "index": "222", "@osmId": "node/1402517962", "name": null, "opening_hours": null, "label": "Any signal with acoustic guidance", "color": "#fd8d3c" }, "geometry": { "type": "Point", "coordinates": [ 8.6748666, 49.4017674 ] } },
{ "type": "Feature", "properties": { "index": "223", "@osmId": "node/1446890306", "name": null, "opening_hours": null, "label": "Any signal with acoustic guidance", "color": "#fd8d3c" }, "geometry": { "type": "Point", "coordinates": [ 8.6926799, 49.4093453 ] } },
{ "type": "Feature", "properties": { "index": "224", "@osmId": "node/1446890341", "name": null, "opening_hours": null, "label": "Any signal with acoustic guidance", "color": "#fd8d3c" }, "geometry": { "type": "Point", "coordinates": [ 8.6924003, 49.4103329 ] } },
{ "type": "Feature", "properties": { "index": "225", "@osmId": "node/1779442110", "name": null, "opening_hours": null, "label": "Any signal with acoustic guidance", "color": "#fd8d3c" }, "geometry": { "type": "Point", "coordinates": [ 8.7060311, 49.4149491 ] } },
{ "type": "Feature", "properties": { "index": "226", "@osmId": "node/1779442728", "name": null, "opening_hours": null, "label": "Any signal with acoustic guidance", "color": "#fd8d3c" }, "geometry": { "type": "Point", "coordinates": [ 8.7092647, 49.4152517 ] } },
{ "type": "Feature", "properties": { "index": "227", "@osmId": "node/1912123301", "name": null, "opening_hours": null, "label": "Any signal with acoustic guidance", "color": "#fd8d3c" }, "geometry": { "type": "Point", "coordinates": [ 8.6913785, 49.401828 ] } },
{ "type": "Feature", "properties": { "index": "228", "@osmId": "node/1995904832", "name": null, "opening_hours": null, "label": "Any signal with acoustic guidance", "color": "#fd8d3c" }, "geometry": { "type": "Point", "coordinates": [ 8.689206, 49.3988463 ] } },
{ "type": "Feature", "properties": { "index": "229", "@osmId": "node/1995904836", "name": null, "opening_hours": null, "label": "Any signal with acoustic guidance", "color": "#fd8d3c" }, "geometry": { "type": "Point", "coordinates": [ 8.689233, 49.3988809 ] } },
{ "type": "Feature", "properties": { "index": "230", "@osmId": "node/2319092897", "name": null, "opening_hours": null, "label": "Any signal with acoustic guidance", "color": "#fd8d3c" }, "geometry": { "type": "Point", "coordinates": [ 8.6888504, 49.3990589 ] } },
{ "type": "Feature", "properties": { "index": "231", "@osmId": "node/2319092900", "name": null, "opening_hours": null, "label": "Any signal with acoustic guidance", "color": "#fd8d3c" }, "geometry": { "type": "Point", "coordinates": [ 8.6889093, 49.3990671 ] } },
{ "type": "Feature", "properties": { "index": "232", "@osmId": "node/2391363202", "name": null, "opening_hours": null, "label": "Any signal with acoustic guidance", "color": "#fd8d3c" }, "geometry": { "type": "Point", "coordinates": [ 8.6770906, 49.404113 ] } },
{ "type": "Feature", "properties": { "index": "233", "@osmId": "node/5328295059", "name": null, "opening_hours": null, "label": "Any signal with acoustic guidance", "color": "#fd8d3c" }, "geometry": { "type": "Point", "coordinates": [ 8.6620711, 49.4045882 ] } },
{ "type": "Feature", "properties": { "index": "234", "@osmId": "node/6222512975", "name": null, "opening_hours": null, "label": "Any signal with acoustic guidance", "color": "#fd8d3c" }, "geometry": { "type": "Point", "coordinates": [ 8.6700785, 49.4031129 ] } },
{ "type": "Feature", "properties": { "index": "235", "@osmId": "node/6489515676", "name": null, "opening_hours": null, "label": "Any signal with acoustic guidance", "color": "#fd8d3c" }, "geometry": { "type": "Point", "coordinates": [ 8.6600109, 49.4051374 ] } },
{ "type": "Feature", "properties": { "index": "236", "@osmId": "node/6489515677", "name": null, "opening_hours": null, "label": "Any signal with acoustic guidance", "color": "#fd8d3c" }, "geometry": { "type": "Point", "coordinates": [ 8.6600264, 49.4051607 ] } },
{ "type": "Feature", "properties": { "index": "237", "@osmId": "node/6771696324", "name": null, "opening_hours": null, "label": "Any signal with acoustic guidance", "color": "#fd8d3c" }, "geometry": { "type": "Point", "coordinates": [ 8.6766641, 49.4048704 ] } },
{ "type": "Feature", "properties": { "index": "238", "@osmId": "node/6808321201", "name": null, "opening_hours": null, "label": "Any signal with acoustic guidance", "color": "#fd8d3c" }, "geometry": { "type": "Point", "coordinates": [ 8.6938358, 49.4088432 ] } },
{ "type": "Feature", "properties": { "index": "239", "@osmId": "node/7303997697", "name": null, "opening_hours": null, "label": "Any signal with acoustic guidance", "color": "#fd8d3c" }, "geometry": { "type": "Point", "coordinates": [ 8.6904928, 49.4003343 ] } },
{ "type": "Feature", "properties": { "index": "240", "@osmId": "node/7360178736", "name": null, "opening_hours": null, "label": "Any signal with acoustic guidance", "color": "#fd8d3c" }, "geometry": { "type": "Point", "coordinates": [ 8.671619, 49.4026603 ] } },
{ "type": "Feature", "properties": { "index": "241", "@osmId": "node/7360178737", "name": null, "opening_hours": null, "label": "Any signal with acoustic guidance", "color": "#fd8d3c" }, "geometry": { "type": "Point", "coordinates": [ 8.6716332, 49.4026833 ] } },
{ "type": "Feature", "properties": { "index": "242", "@osmId": "node/8243864134", "name": null, "opening_hours": null, "label": "Any signal with acoustic guidance", "color": "#fd8d3c" }, "geometry": { "type": "Point", "coordinates": [ 8.682434, 49.404987 ] } },
{ "type": "Feature", "properties": { "index": "243", "@osmId": "node/10584675047", "name": null, "opening_hours": null, "label": "Any signal with acoustic guidance", "color": "#fd8d3c" }, "geometry": { "type": "Point", "coordinates": [ 8.7069976, 49.4090866 ] } },
{ "type": "Feature", "properties": { "index": "244", "@osmId": "node/12114170214", "name": null, "opening_hours": null, "label": "Any signal with acoustic guidance", "color": "#fd8d3c" }, "geometry": { "type": "Point", "coordinates": [ 8.6749668, 49.4194843 ] } },
{ "type": "Feature", "properties": { "index": "245", "@osmId": "node/269603383", "name": null, "opening_hours": null, "label": "Signals with tactile/vibration", "color": "#fdae6b" }, "geometry": { "type": "Point", "coordinates": [ 8.6767194, 49.4088064 ] } },
{ "type": "Feature", "properties": { "index": "246", "@osmId": "node/271383671", "name": null, "opening_hours": null, "label": "Signals with tactile/vibration", "color": "#fdae6b" }, "geometry": { "type": "Point", "coordinates": [ 8.6678413, 49.4192719 ] } },
{ "type": "Feature", "properties": { "index": "247", "@osmId": "node/297958768", "name": null, "opening_hours": null, "label": "Signals with tactile/vibration", "color": "#fdae6b" }, "geometry": { "type": "Point", "coordinates": [ 8.6722467, 49.4080271 ] } },
{ "type": "Feature", "properties": { "index": "248", "@osmId": "node/297958790", "name": null, "opening_hours": null, "label": "Signals with tactile/vibration", "color": "#fdae6b" }, "geometry": { "type": "Point", "coordinates": [ 8.6721653, 49.4079173 ] } },
{ "type": "Feature", "properties": { "index": "249", "@osmId": "node/1224927000", "name": null, "opening_hours": null, "label": "Signals with tactile/vibration", "color": "#fdae6b" }, "geometry": { "type": "Point", "coordinates": [ 8.6943212, 49.4074815 ] } },
{ "type": "Feature", "properties": { "index": "250", "@osmId": "node/2391363185", "name": null, "opening_hours": null, "label": "Signals with tactile/vibration", "color": "#fdae6b" }, "geometry": { "type": "Point", "coordinates": [ 8.6801798, 49.4021236 ] } },
{ "type": "Feature", "properties": { "index": "251", "@osmId": "node/3879053708", "name": null, "opening_hours": null, "label": "Signals with tactile/vibration", "color": "#fdae6b" }, "geometry": { "type": "Point", "coordinates": [ 8.6910358, 49.4111862 ] } }
]
}
