{
"type": "FeatureCollection",
"features": [
{ "type": "Feature", "properties": { "index": "0", "label": "Within 255 m by wheelchair", "color": "#2b8cbe" }, "geometry": { "type": "MultiPolygon", "coordinates": [ [ [ [ 39.2327468, -6.842441 ], [ 39.2328631, -6.8422468 ], [ 39.2329599, -6.8420421 ], [ 39.2330361, -6.8418289 ], [ 39.233091, -6.8416093 ], [ 39.2331241, -6.8413854 ], [ 39.2331351, -6.8411593 ], [ 39.2331239, -6.8409332 ], [ 39.2330906, -6.8407093 ], [ 39.2330354, -6.8404897 ], [ 39.232959, -6.8402766 ], [ 39.2328621, -6.840072 ], [ 39.2327455, -6.8398779 ], [ 39.2326105, -6.8396962 ], [ 39.2324584, -6.8395285 ], [ 39.2322905, -6.8393766 ], [ 39.2321085, -6.8392418 ], [ 39.2319142, -6.8391255 ], [ 39.2317094, -6.8390288 ], [ 39.2314961, -6.8389527 ], [ 39.2312764, -6.8388978 ], [ 39.2310523, -6.8388647 ], [ 39.2308261, -6.8388537 ], [ 39.2305999, -6.8388649 ], [ 39.2303759, -6.8388982 ], [ 39.2301562, -6.8389533 ], [ 39.229943, -6.8390297 ], [ 39.2297383, -6.8391266 ], [ 39.2295441, -6.839243 ], [ 39.2293622, -6.839378 ], [ 39.2291945, -6.8395301 ], [ 39.2290425, -6.8396979 ], [ 39.2289076, -6.8398798 ], [ 39.2287913, -6.840074 ], [ 39.2286945, -6.8402787 ], [ 39.2286183, -6.8404918 ], [ 39.2285634, -6.8407115 ], [ 39.2285303, -6.8409354 ], [ 39.2285193, -6.8411615 ], [ 39.2285305, -6.8413876 ], [ 39.2285638, -6.8416115 ], [ 39.228619, -6.8418311 ], [ 39.2286954, -6.8420442 ], [ 39.2287923, -6.8422488 ], [ 39.2289088, -6.8424429 ], [ 39.2290438, -6.8426246 ], [ 39.229196, -6.8427923 ], [ 39.2293639, -6.8429442 ], [ 39.2295459, -6.843079 ], [ 39.2297402, -6.8431953 ], [ 39.229945, -6.843292 ], [ 39.2301583, -6.8433681 ], [ 39.230378, -6.843423 ], [ 39.2306021, -6.8434561 ], [ 39.2308283, -6.8434671 ], [ 39.2310545, -6.8434559 ], [ 39.2312785, -6.8434226 ], [ 39.2314982, -6.8433675 ], [ 39.2317114, -6.8432911 ], [ 39.2319161, -6.8431942 ], [ 39.2321103, -6.8430777 ], [ 39.2322922, -6.8429428 ], [ 39.2324599, -6.8427907 ], [ 39.232612, -6.8426229 ], [ 39.2327468, -6.842441 ] ] ], [ [ [ 39.2408331, -6.836737 ], [ 39.2409494, -6.8365428 ], [ 39.2410462, -6.8363381 ], [ 39.2411224, -6.8361249 ], [ 39.2411773, -6.8359053 ], [ 39.2412104, -6.8356814 ], [ 39.2412214, -6.8354552 ], [ 39.2412102, -6.8352292 ], [ 39.2411768, -6.8350053 ], [ 39.2411217, -6.8347857 ], [ 39.2410453, -6.8345726 ], [ 39.2409483, -6.834368 ], [ 39.2408318, -6.8341739 ], [ 39.2406968, -6.8339921 ], [ 39.2405446, -6.8338245 ], [ 39.2403767, -6.8336726 ], [ 39.2401947, -6.8335378 ], [ 39.2400004, -6.8334215 ], [ 39.2397956, -6.8333248 ], [ 39.2395823, -6.8332487 ], [ 39.2393626, -6.8331938 ], [ 39.2391386, -6.8331607 ], [ 39.2389124, -6.8331497 ], [ 39.2386861, -6.8331609 ], [ 39.2384621, -6.8331942 ], [ 39.2382425, -6.8332493 ], [ 39.2380293, -6.8333257 ], [ 39.2378246, -6.8334226 ], [ 39.2376304, -6.8335391 ], [ 39.2374485, -6.833674 ], [ 39.2372808, -6.8338261 ], [ 39.2371288, -6.8339939 ], [ 39.2369939, -6.8341758 ], [ 39.2368776, -6.83437 ], [ 39.2367808, -6.8345747 ], [ 39.2367047, -6.8347879 ], [ 39.2366497, -6.8350075 ], [ 39.2366166, -6.8352314 ], [ 39.2366056, -6.8354575 ], [ 39.2366168, -6.8356836 ], [ 39.2366502, -6.8359075 ], [ 39.2367053, -6.8361271 ], [ 39.2367817, -6.8363402 ], [ 39.2368787, -6.8365448 ], [ 39.2369952, -6.8367389 ], [ 39.2371302, -6.8369206 ], [ 39.2372824, -6.8370883 ], [ 39.2374503, -6.8372402 ], [ 39.2376322, -6.837375 ], [ 39.2378266, -6.8374913 ], [ 39.2380314, -6.837588 ], [ 39.2382446, -6.8376641 ], [ 39.2384644, -6.837719 ], [ 39.2386884, -6.8377521 ], [ 39.2389146, -6.8377631 ], [ 39.2391409, -6.8377519 ], [ 39.2393649, -6.8377186 ], [ 39.2395845, -6.8376635 ], [ 39.2397978, -6.8375871 ], [ 39.2400024, -6.8374902 ], [ 39.2401967, -6.8373737 ], [ 39.2403785, -6.8372388 ], [ 39.2405462, -6.8370867 ], [ 39.2406983, -6.8369189 ], [ 39.2408331, -6.836737 ] ] ], [ [ [ 39.2463421, -6.8284469 ], [ 39.2464584, -6.8282526 ], [ 39.2465551, -6.828048 ], [ 39.2466313, -6.8278348 ], [ 39.2466862, -6.8276152 ], [ 39.2467194, -6.8273912 ], [ 39.2467304, -6.8271651 ], [ 39.2467191, -6.826939 ], [ 39.2466858, -6.8267151 ], [ 39.2466306, -6.8264956 ], [ 39.2465542, -6.8262825 ], [ 39.2464573, -6.8260779 ], [ 39.2463408, -6.8258838 ], [ 39.2462057, -6.825702 ], [ 39.2460536, -6.8255344 ], [ 39.2458857, -6.8253824 ], [ 39.2457037, -6.8252477 ], [ 39.2455094, -6.8251314 ], [ 39.2453046, -6.8250347 ], [ 39.2450913, -6.8249586 ], [ 39.2448716, -6.8249037 ], [ 39.2446475, -6.8248706 ], [ 39.2444213, -6.8248596 ], [ 39.2441951, -6.8248708 ], [ 39.2439711, -6.8249041 ], [ 39.2437514, -6.8249592 ], [ 39.2435382, -6.8250356 ], [ 39.2433336, -6.8251325 ], [ 39.2431394, -6.825249 ], [ 39.2429575, -6.8253839 ], [ 39.2427898, -6.825536 ], [ 39.2426378, -6.8257038 ], [ 39.2425029, -6.8258857 ], [ 39.2423866, -6.8260799 ], [ 39.2422899, -6.8262846 ], [ 39.2422137, -6.8264978 ], [ 39.2421588, -6.8267174 ], [ 39.2421256, -6.8269414 ], [ 39.2421146, -6.8271675 ], [ 39.2421259, -6.8273936 ], [ 39.2421592, -6.8276175 ], [ 39.2422144, -6.827837 ], [ 39.2422908, -6.8280501 ], [ 39.2423877, -6.8282547 ], [ 39.2425042, -6.8284488 ], [ 39.2426392, -6.8286306 ], [ 39.2427914, -6.8287982 ], [ 39.2429593, -6.8289502 ], [ 39.2431413, -6.8290849 ], [ 39.2433356, -6.8292012 ], [ 39.2435404, -6.8292979 ], [ 39.2437537, -6.829374 ], [ 39.2439734, -6.8294289 ], [ 39.2441975, -6.829462 ], [ 39.2444237, -6.829473 ], [ 39.2446499, -6.8294618 ], [ 39.2448739, -6.8294285 ], [ 39.2450936, -6.8293733 ], [ 39.2453068, -6.829297 ], [ 39.2455115, -6.8292001 ], [ 39.2457057, -6.8290836 ], [ 39.2458875, -6.8289487 ], [ 39.2460552, -6.8287966 ], [ 39.2462072, -6.8286288 ], [ 39.2463421, -6.8284469 ] ] ], [ [ [ 39.2258978, -6.8073888 ], [ 39.2260326, -6.807207 ], [ 39.226149, -6.8070127 ], [ 39.2262457, -6.8068081 ], [ 39.2263219, -6.8065949 ], [ 39.2263768, -6.8063753 ], [ 39.22641, -6.8061513 ], [ 39.226421, -6.8059252 ], [ 39.2264097, -6.8056991 ], [ 39.2263764, -6.8054752 ], [ 39.2263213, -6.8052557 ], [ 39.2262449, -6.8050426 ], [ 39.226148, -6.804838 ], [ 39.2260314, -6.8046439 ], [ 39.2258964, -6.8044621 ], [ 39.2257443, -6.8042944 ], [ 39.2255764, -6.8041425 ], [ 39.2253944, -6.8040077 ], [ 39.2252001, -6.8038914 ], [ 39.2249953, -6.8037948 ], [ 39.2247821, -6.8037186 ], [ 39.2245624, -6.8036637 ], [ 39.2243383, -6.8036306 ], [ 39.2241121, -6.8036196 ], [ 39.2238859, -6.8036308 ], [ 39.2236619, -6.8036641 ], [ 39.2234423, -6.8037192 ], [ 39.2232291, -6.8037956 ], [ 39.2230244, -6.8038925 ], [ 39.2228302, -6.8040089 ], [ 39.2226484, -6.8041439 ], [ 39.2224806, -6.804296 ], [ 39.2223286, -6.8044638 ], [ 39.2221938, -6.8046456 ], [ 39.2220774, -6.8048399 ], [ 39.2219807, -6.8050445 ], [ 39.2219045, -6.8052577 ], [ 39.2218496, -6.8054773 ], [ 39.2218165, -6.8057013 ], [ 39.2218054, -6.8059274 ], [ 39.2218167, -6.8061535 ], [ 39.22185, -6.8063774 ], [ 39.2219051, -6.8065969 ], [ 39.2219815, -6.80681 ], [ 39.2220784, -6.8070146 ], [ 39.222195, -6.8072087 ], [ 39.22233, -6.8073905 ], [ 39.2224821, -6.8075582 ], [ 39.22265, -6.8077101 ], [ 39.222832, -6.8078449 ], [ 39.2230263, -6.8079611 ], [ 39.223231, -6.8080578 ], [ 39.2234443, -6.808134 ], [ 39.223664, -6.8081889 ], [ 39.2238881, -6.808222 ], [ 39.2241143, -6.808233 ], [ 39.2243405, -6.8082218 ], [ 39.2245645, -6.8081885 ], [ 39.2247841, -6.8081334 ], [ 39.2249973, -6.808057 ], [ 39.225202, -6.8079601 ], [ 39.2253962, -6.8078437 ], [ 39.2255781, -6.8077087 ], [ 39.2257458, -6.8075566 ], [ 39.2258978, -6.8073888 ] ] ], [ [ [ 39.2382533, -6.8023574 ], [ 39.2383881, -6.8021755 ], [ 39.2385045, -6.8019813 ], [ 39.2386012, -6.8017766 ], [ 39.2386774, -6.8015634 ], [ 39.2387323, -6.8013438 ], [ 39.2387654, -6.8011199 ], [ 39.2387764, -6.8008938 ], [ 39.2387652, -6.8006677 ], [ 39.2387319, -6.8004438 ], [ 39.2386767, -6.8002242 ], [ 39.2386003, -6.8000111 ], [ 39.2385034, -6.7998065 ], [ 39.2383869, -6.7996124 ], [ 39.2382519, -6.7994307 ], [ 39.2382101, -6.7993846 ], [ 39.2383493, -6.7993777 ], [ 39.2385733, -6.7993444 ], [ 39.238793, -6.7992893 ], [ 39.2390062, -6.7992129 ], [ 39.2392109, -6.799116 ], [ 39.239405, -6.7989995 ], [ 39.2395869, -6.7988646 ], [ 39.2397546, -6.7987125 ], [ 39.2399066, -6.7985447 ], [ 39.2400414, -6.7983628 ], [ 39.2401578, -6.7981686 ], [ 39.2402545, -6.7979639 ], [ 39.2403307, -6.7977507 ], [ 39.2403856, -6.7975311 ], [ 39.2404187, -6.7973072 ], [ 39.2404297, -6.7970811 ], [ 39.2404185, -6.796855 ], [ 39.2403851, -6.7966311 ], [ 39.24033, -6.7964115 ], [ 39.2402536, -6.7961984 ], [ 39.2401567, -6.7959938 ], [ 39.2400402, -6.7957997 ], [ 39.2399052, -6.795618 ], [ 39.239753, -6.7954503 ], [ 39.2395851, -6.7952984 ], [ 39.2394031, -6.7951636 ], [ 39.2392088, -6.7950473 ], [ 39.2390041, -6.7949506 ], [ 39.2387908, -6.7948745 ], [ 39.2385711, -6.7948196 ], [ 39.2385067, -6.7948101 ], [ 39.2383456, -6.7946907 ], [ 39.2381512, -6.7945744 ], [ 39.2379465, -6.7944777 ], [ 39.2377332, -6.7944016 ], [ 39.2375135, -6.7943467 ], [ 39.2372895, -6.7943136 ], [ 39.2370633, -6.7943026 ], [ 39.2368371, -6.7943138 ], [ 39.2366131, -6.7943471 ], [ 39.2363934, -6.7944022 ], [ 39.2361802, -6.7944786 ], [ 39.2359756, -6.7945755 ], [ 39.2357814, -6.794692 ], [ 39.2355995, -6.7948269 ], [ 39.2354318, -6.794979 ], [ 39.2352798, -6.7951468 ], [ 39.235145, -6.7953287 ], [ 39.2350287, -6.7955229 ], [ 39.2349319, -6.7957276 ], [ 39.2348557, -6.7959408 ], [ 39.2348008, -6.7961604 ], [ 39.2347677, -6.7963843 ], [ 39.2347567, -6.7966104 ], [ 39.2347679, -6.7968365 ], [ 39.2348012, -6.7970604 ], [ 39.2348564, -6.79728 ], [ 39.2349328, -6.7974931 ], [ 39.2350297, -6.7976977 ], [ 39.2351462, -6.7978918 ], [ 39.2352812, -6.7980735 ], [ 39.2354334, -6.7982412 ], [ 39.2356013, -6.7983931 ], [ 39.2357832, -6.7985279 ], [ 39.2359758, -6.7986431 ], [ 39.2357977, -6.7986878 ], [ 39.2355845, -6.7987642 ], [ 39.2353799, -6.7988611 ], [ 39.2351857, -6.7989776 ], [ 39.2350038, -6.7991125 ], [ 39.2348361, -6.7992646 ], [ 39.2346841, -6.7994324 ], [ 39.2345493, -6.7996143 ], [ 39.2344329, -6.7998085 ], [ 39.2343362, -6.8000132 ], [ 39.23426, -6.8002264 ], [ 39.2342051, -6.800446 ], [ 39.234172, -6.8006699 ], [ 39.234161, -6.800896 ], [ 39.2341722, -6.8011221 ], [ 39.2342055, -6.801346 ], [ 39.2342607, -6.8015656 ], [ 39.2343371, -6.8017787 ], [ 39.234434, -6.8019833 ], [ 39.2345505, -6.8021774 ], [ 39.2346855, -6.8023591 ], [ 39.2348377, -6.8025268 ], [ 39.2350056, -6.8026787 ], [ 39.2351875, -6.8028135 ], [ 39.2353818, -6.8029298 ], [ 39.2355866, -6.8030265 ], [ 39.2357999, -6.8031026 ], [ 39.2360196, -6.8031575 ], [ 39.2362436, -6.8031906 ], [ 39.2364698, -6.8032016 ], [ 39.236696, -6.8031904 ], [ 39.23692, -6.8031571 ], [ 39.2371397, -6.803102 ], [ 39.2373529, -6.8030256 ], [ 39.2375576, -6.8029287 ], [ 39.2377517, -6.8028122 ], [ 39.2379336, -6.8026773 ], [ 39.2381013, -6.8025252 ], [ 39.2382533, -6.8023574 ] ] ], [ [ [ 39.2444073, -6.8001658 ], [ 39.2446121, -6.8002625 ], [ 39.2448253, -6.8003386 ], [ 39.2448816, -6.8003527 ], [ 39.2448619, -6.8004859 ], [ 39.2448509, -6.800712 ], [ 39.2448621, -6.8009381 ], [ 39.2448954, -6.801162 ], [ 39.2449506, -6.8013815 ], [ 39.245027, -6.8015946 ], [ 39.2451239, -6.8017992 ], [ 39.2452404, -6.8019933 ], [ 39.2453754, -6.8021751 ], [ 39.2455276, -6.8023427 ], [ 39.2456955, -6.8024947 ], [ 39.2458775, -6.8026294 ], [ 39.2460718, -6.8027457 ], [ 39.2462766, -6.8028424 ], [ 39.2464898, -6.8029185 ], [ 39.2467095, -6.8029734 ], [ 39.2469336, -6.8030065 ], [ 39.2471598, -6.8030175 ], [ 39.247386, -6.8030063 ], [ 39.24761, -6.802973 ], [ 39.2478296, -6.8029178 ], [ 39.2480428, -6.8028415 ], [ 39.2482475, -6.8027446 ], [ 39.2484417, -6.8026281 ], [ 39.2484685, -6.8026082 ], [ 39.248509, -6.8027694 ], [ 39.2485854, -6.8029825 ], [ 39.2486823, -6.8031871 ], [ 39.2487988, -6.8033812 ], [ 39.2489339, -6.803563 ], [ 39.249086, -6.8037306 ], [ 39.2492539, -6.8038826 ], [ 39.2494359, -6.8040173 ], [ 39.2496302, -6.8041336 ], [ 39.249835, -6.8042303 ], [ 39.2500482, -6.8043064 ], [ 39.250268, -6.8043613 ], [ 39.250492, -6.8043944 ], [ 39.2507182, -6.8044054 ], [ 39.2509444, -6.8043942 ], [ 39.2511684, -6.8043609 ], [ 39.251388, -6.8043057 ], [ 39.2516012, -6.8042294 ], [ 39.2518059, -6.8041325 ], [ 39.2520001, -6.804016 ], [ 39.2521819, -6.8038811 ], [ 39.2523497, -6.8037289 ], [ 39.2525017, -6.8035611 ], [ 39.2526365, -6.8033792 ], [ 39.2527528, -6.803185 ], [ 39.2528495, -6.8029803 ], [ 39.2529257, -6.8027672 ], [ 39.2529806, -6.8025475 ], [ 39.2530137, -6.8023236 ], [ 39.2530247, -6.8020975 ], [ 39.2530135, -6.8018714 ], [ 39.2529802, -6.8016475 ], [ 39.252925, -6.8014279 ], [ 39.2528486, -6.8012148 ], [ 39.2527517, -6.8010103 ], [ 39.2526351, -6.8008162 ], [ 39.2525001, -6.8006344 ], [ 39.252348, -6.8004668 ], [ 39.2521801, -6.8003148 ], [ 39.2519981, -6.8001801 ], [ 39.2518038, -6.8000638 ], [ 39.251599, -6.7999671 ], [ 39.2513858, -6.799891 ], [ 39.251166, -6.7998361 ], [ 39.250942, -6.799803 ], [ 39.2507158, -6.799792 ], [ 39.2504896, -6.7998032 ], [ 39.2502656, -6.7998365 ], [ 39.250046, -6.7998917 ], [ 39.2498328, -6.799968 ], [ 39.2496281, -6.8000649 ], [ 39.2494339, -6.8001814 ], [ 39.2494071, -6.8002013 ], [ 39.2493666, -6.8000401 ], [ 39.2492902, -6.799827 ], [ 39.2491933, -6.7996224 ], [ 39.2490767, -6.7994283 ], [ 39.2489417, -6.7992465 ], [ 39.2487896, -6.7990789 ], [ 39.2486217, -6.7989269 ], [ 39.2484397, -6.7987922 ], [ 39.2482454, -6.7986759 ], [ 39.2480406, -6.7985792 ], [ 39.2478274, -6.7985031 ], [ 39.2477711, -6.798489 ], [ 39.2477908, -6.7983558 ], [ 39.2478018, -6.7981297 ], [ 39.2477906, -6.7979036 ], [ 39.2477572, -6.7976797 ], [ 39.2477021, -6.7974602 ], [ 39.2476257, -6.7972471 ], [ 39.2475288, -6.7970425 ], [ 39.2474122, -6.7968484 ], [ 39.2472772, -6.7966666 ], [ 39.2471251, -6.796499 ], [ 39.2469572, -6.796347 ], [ 39.2467752, -6.7962123 ], [ 39.2466581, -6.7961422 ], [ 39.2467866, -6.7961231 ], [ 39.2470062, -6.796068 ], [ 39.2472194, -6.7959916 ], [ 39.2474241, -6.7958947 ], [ 39.2476183, -6.7957782 ], [ 39.2478001, -6.7956433 ], [ 39.2479678, -6.7954912 ], [ 39.2481198, -6.7953234 ], [ 39.2482546, -6.7951415 ], [ 39.248371, -6.7949472 ], [ 39.2484677, -6.7947426 ], [ 39.2485439, -6.7945294 ], [ 39.2485988, -6.7943098 ], [ 39.2486319, -6.7940858 ], [ 39.2486429, -6.7938597 ], [ 39.2486317, -6.7936336 ], [ 39.2485983, -6.7934097 ], [ 39.2485432, -6.7931902 ], [ 39.2484668, -6.7929771 ], [ 39.2483698, -6.7927725 ], [ 39.2483466, -6.7927338 ], [ 39.248435, -6.7925863 ], [ 39.2485317, -6.7923817 ], [ 39.2486079, -6.7921685 ], [ 39.2486628, -6.7919489 ], [ 39.2486959, -6.7917249 ], [ 39.2487069, -6.7914988 ], [ 39.2486957, -6.7912727 ], [ 39.2486623, -6.7910488 ], [ 39.2486072, -6.7908293 ], [ 39.2485308, -6.7906162 ], [ 39.2484338, -6.7904116 ], [ 39.2483173, -6.7902175 ], [ 39.2481823, -6.7900357 ], [ 39.2480301, -6.7898681 ], [ 39.2478623, -6.7897161 ], [ 39.2476803, -6.7895814 ], [ 39.247486, -6.7894651 ], [ 39.2472812, -6.7893684 ], [ 39.247068, -6.7892923 ], [ 39.2468483, -6.7892374 ], [ 39.2466242, -6.7892043 ], [ 39.246398, -6.7891933 ], [ 39.2461718, -6.7892045 ], [ 39.2459478, -6.7892378 ], [ 39.2457282, -6.7892929 ], [ 39.245515, -6.7893693 ], [ 39.2453103, -6.7894662 ], [ 39.2451161, -6.7895827 ], [ 39.2449343, -6.7897176 ], [ 39.2447666, -6.7898697 ], [ 39.2446146, -6.7900375 ], [ 39.2444798, -6.7902194 ], [ 39.2443635, -6.7904137 ], [ 39.2442667, -6.7906183 ], [ 39.2441905, -6.7908315 ], [ 39.2441356, -6.7910511 ], [ 39.2441025, -6.7912751 ], [ 39.2440915, -6.7915012 ], [ 39.2441027, -6.7917273 ], [ 39.2441361, -6.7919512 ], [ 39.2441912, -6.7921707 ], [ 39.2442676, -6.7923838 ], [ 39.2443646, -6.7925884 ], [ 39.2443878, -6.7926271 ], [ 39.2442994, -6.7927746 ], [ 39.2442027, -6.7929792 ], [ 39.2441265, -6.7931924 ], [ 39.2440716, -6.793412 ], [ 39.2440385, -6.793636 ], [ 39.2440275, -6.7938621 ], [ 39.2440387, -6.7940882 ], [ 39.2440721, -6.7943121 ], [ 39.2441272, -6.7945316 ], [ 39.2442036, -6.7947447 ], [ 39.2443005, -6.7949493 ], [ 39.2444171, -6.7951434 ], [ 39.2445521, -6.7953252 ], [ 39.2447042, -6.7954928 ], [ 39.2448721, -6.7956448 ], [ 39.2450541, -6.7957795 ], [ 39.2451712, -6.7958496 ], [ 39.2450427, -6.7958687 ], [ 39.2448231, -6.7959238 ], [ 39.2446099, -6.7960002 ], [ 39.2444052, -6.7960971 ], [ 39.244211, -6.7962136 ], [ 39.2440292, -6.7963485 ], [ 39.2438615, -6.7965006 ], [ 39.2437095, -6.7966684 ], [ 39.2435747, -6.7968503 ], [ 39.2434583, -6.7970445 ], [ 39.2433616, -6.7972492 ], [ 39.2432854, -6.7974624 ], [ 39.2432305, -6.797682 ], [ 39.2431974, -6.797906 ], [ 39.2431864, -6.7981321 ], [ 39.2431976, -6.7983582 ], [ 39.243231, -6.7985821 ], [ 39.2432861, -6.7988016 ], [ 39.2433625, -6.7990147 ], [ 39.2434594, -6.7992193 ], [ 39.2435759, -6.7994134 ], [ 39.2437109, -6.7995952 ], [ 39.2438631, -6.7997628 ], [ 39.244031, -6.7999148 ], [ 39.244213, -6.8000495 ], [ 39.2444073, -6.8001658 ] ] ], [ [ [ 39.2264824, -6.7979148 ], [ 39.2266172, -6.797733 ], [ 39.2267335, -6.7975387 ], [ 39.2268303, -6.7973341 ], [ 39.2269065, -6.7971209 ], [ 39.2269614, -6.7969013 ], [ 39.2269945, -6.7966773 ], [ 39.2270055, -6.7964512 ], [ 39.2269943, -6.7962251 ], [ 39.226961, -6.7960012 ], [ 39.2269058, -6.7957817 ], [ 39.2268294, -6.7955686 ], [ 39.2267325, -6.795364 ], [ 39.226616, -6.7951699 ], [ 39.226481, -6.7949881 ], [ 39.2263288, -6.7948204 ], [ 39.226161, -6.7946685 ], [ 39.225979, -6.7945337 ], [ 39.2257847, -6.7944174 ], [ 39.2255799, -6.7943208 ], [ 39.2253667, -6.7942446 ], [ 39.225147, -6.7941897 ], [ 39.2249229, -6.7941566 ], [ 39.2246967, -6.7941456 ], [ 39.2244705, -6.7941568 ], [ 39.2242642, -6.7941875 ], [ 39.2242206, -6.7940954 ], [ 39.2241041, -6.7939013 ], [ 39.2239691, -6.7937195 ], [ 39.2238169, -6.7935518 ], [ 39.2236491, -6.7933999 ], [ 39.2234671, -6.7932651 ], [ 39.2232728, -6.7931489 ], [ 39.223068, -6.7930522 ], [ 39.2228548, -6.792976 ], [ 39.2226351, -6.7929211 ], [ 39.222411, -6.792888 ], [ 39.2221848, -6.792877 ], [ 39.2219587, -6.7928882 ], [ 39.2217347, -6.7929215 ], [ 39.221515, -6.7929766 ], [ 39.2213018, -6.793053 ], [ 39.2210971, -6.7931498 ], [ 39.2209029, -6.7932663 ], [ 39.2207211, -6.7934012 ], [ 39.2205534, -6.7935533 ], [ 39.2204014, -6.7937211 ], [ 39.2202665, -6.793903 ], [ 39.2201502, -6.7940972 ], [ 39.2200535, -6.7943019 ], [ 39.22, -6.7944516 ], [ 39.22, -6.795916 ], [ 39.2200543, -6.7960674 ], [ 39.2201512, -6.796272 ], [ 39.2202677, -6.7964661 ], [ 39.2204027, -6.7966479 ], [ 39.2205548, -6.7968155 ], [ 39.2207227, -6.7969675 ], [ 39.2209047, -6.7971023 ], [ 39.221099, -6.7972185 ], [ 39.2213038, -6.7973152 ], [ 39.221517, -6.7973914 ], [ 39.2217367, -6.7974463 ], [ 39.2219608, -6.7974794 ], [ 39.222187, -6.7974904 ], [ 39.2224131, -6.7974792 ], [ 39.2226195, -6.7974485 ], [ 39.2226631, -6.7975406 ], [ 39.2227796, -6.7977347 ], [ 39.2229146, -6.7979165 ], [ 39.2230668, -6.7980842 ], [ 39.2232346, -6.7982361 ], [ 39.2234166, -6.7983709 ], [ 39.2236109, -6.7984872 ], [ 39.2238157, -6.7985838 ], [ 39.2240289, -6.79866 ], [ 39.2242486, -6.7987149 ], [ 39.2244727, -6.798748 ], [ 39.2246989, -6.798759 ], [ 39.2249251, -6.7987478 ], [ 39.2251491, -6.7987145 ], [ 39.2253687, -6.7986594 ], [ 39.2255819, -6.798583 ], [ 39.2257866, -6.7984861 ], [ 39.2259808, -6.7983697 ], [ 39.2261626, -6.7982347 ], [ 39.2263304, -6.7980826 ], [ 39.2264824, -6.7979148 ] ] ], [ [ [ 39.2745789, -6.8404399 ], [ 39.2746952, -6.8402457 ], [ 39.2747919, -6.840041 ], [ 39.2748681, -6.8398278 ], [ 39.274923, -6.8396082 ], [ 39.2749561, -6.8393843 ], [ 39.2749671, -6.8391582 ], [ 39.2749559, -6.8389321 ], [ 39.2749225, -6.8387082 ], [ 39.2748673, -6.8384886 ], [ 39.2747909, -6.8382755 ], [ 39.274694, -6.838071 ], [ 39.2745774, -6.8378769 ], [ 39.2744424, -6.8376951 ], [ 39.2742902, -6.8375275 ], [ 39.2741223, -6.8373756 ], [ 39.2739403, -6.8372408 ], [ 39.273746, -6.8371245 ], [ 39.2735412, -6.8370279 ], [ 39.2733279, -6.8369517 ], [ 39.2731082, -6.8368969 ], [ 39.2728841, -6.8368638 ], [ 39.2726579, -6.8368528 ], [ 39.2724317, -6.836864 ], [ 39.2722077, -6.8368974 ], [ 39.271988, -6.8369525 ], [ 39.2717748, -6.8370289 ], [ 39.2715701, -6.8371258 ], [ 39.2713759, -6.8372423 ], [ 39.2711941, -6.8373772 ], [ 39.2710263, -6.8375293 ], [ 39.2708743, -6.8376971 ], [ 39.2707395, -6.837879 ], [ 39.2706232, -6.8380733 ], [ 39.2705265, -6.838278 ], [ 39.2704503, -6.8384911 ], [ 39.2703954, -6.8387108 ], [ 39.2703623, -6.8389347 ], [ 39.2703513, -6.8391608 ], [ 39.2703625, -6.8393869 ], [ 39.2703959, -6.8396108 ], [ 39.270451, -6.8398303 ], [ 39.2705275, -6.8400434 ], [ 39.2706244, -6.840248 ], [ 39.270741, -6.8404421 ], [ 39.270876, -6.8406239 ], [ 39.2710282, -6.8407915 ], [ 39.2711961, -6.8409434 ], [ 39.2713781, -6.8410782 ], [ 39.2715724, -6.8411945 ], [ 39.2717772, -6.8412911 ], [ 39.2719905, -6.8413673 ], [ 39.2722102, -6.8414221 ], [ 39.2724343, -6.8414552 ], [ 39.2726605, -6.8414662 ], [ 39.2728867, -6.841455 ], [ 39.2731107, -6.8414216 ], [ 39.2733304, -6.8413665 ], [ 39.2735436, -6.8412901 ], [ 39.2737483, -6.8411932 ], [ 39.2739425, -6.8410767 ], [ 39.2741243, -6.8409418 ], [ 39.2742921, -6.8407897 ], [ 39.2744441, -6.8406218 ], [ 39.2745789, -6.8404399 ] ] ], [ [ [ 39.2725941, -6.8343477 ], [ 39.2727104, -6.8341534 ], [ 39.2728071, -6.8339487 ], [ 39.2728833, -6.8337356 ], [ 39.2729382, -6.8335159 ], [ 39.2729713, -6.833292 ], [ 39.2729823, -6.8330659 ], [ 39.272971, -6.8328398 ], [ 39.2729377, -6.8326159 ], [ 39.2728825, -6.8323964 ], [ 39.2728061, -6.8321833 ], [ 39.2727092, -6.8319787 ], [ 39.2725926, -6.8317846 ], [ 39.2724576, -6.8316028 ], [ 39.2723054, -6.8314352 ], [ 39.2721375, -6.8312833 ], [ 39.2719555, -6.8311485 ], [ 39.2717612, -6.8310323 ], [ 39.2715564, -6.8309356 ], [ 39.2713431, -6.8308594 ], [ 39.2711234, -6.8308046 ], [ 39.2708993, -6.8307715 ], [ 39.2706731, -6.8307605 ], [ 39.2704469, -6.8307717 ], [ 39.2702229, -6.8308051 ], [ 39.2700032, -6.8308602 ], [ 39.26979, -6.8309366 ], [ 39.2695853, -6.8310335 ], [ 39.2693911, -6.83115 ], [ 39.2692093, -6.8312849 ], [ 39.2690416, -6.831437 ], [ 39.2688896, -6.8316048 ], [ 39.2687548, -6.8317867 ], [ 39.2686384, -6.831981 ], [ 39.2685417, -6.8321857 ], [ 39.2684655, -6.8323988 ], [ 39.2684106, -6.8326184 ], [ 39.2683775, -6.8328424 ], [ 39.2683665, -6.8330685 ], [ 39.2683778, -6.8332946 ], [ 39.2684111, -6.8335185 ], [ 39.2684663, -6.833738 ], [ 39.2685427, -6.8339511 ], [ 39.2686396, -6.8341557 ], [ 39.2687562, -6.8343498 ], [ 39.2688912, -6.8345316 ], [ 39.2690434, -6.8346992 ], [ 39.2692113, -6.8348511 ], [ 39.2693933, -6.8349859 ], [ 39.2695876, -6.8351021 ], [ 39.2697924, -6.8351988 ], [ 39.2700057, -6.835275 ], [ 39.2702254, -6.8353298 ], [ 39.2704495, -6.8353629 ], [ 39.2706757, -6.8353739 ], [ 39.2709019, -6.8353627 ], [ 39.2711259, -6.8353293 ], [ 39.2713456, -6.8352742 ], [ 39.2715588, -6.8351978 ], [ 39.2717635, -6.8351009 ], [ 39.2719577, -6.8349844 ], [ 39.2721395, -6.8348495 ], [ 39.2723072, -6.8346974 ], [ 39.2724592, -6.8345296 ], [ 39.2725941, -6.8343477 ] ] ], [ [ [ 39.2961203, -6.8130174 ], [ 39.2962551, -6.8128355 ], [ 39.2963714, -6.8126412 ], [ 39.2964681, -6.8124365 ], [ 39.2965443, -6.8122234 ], [ 39.2965992, -6.8120037 ], [ 39.2966323, -6.8117798 ], [ 39.2966433, -6.8115537 ], [ 39.296632, -6.8113276 ], [ 39.2965987, -6.8111037 ], [ 39.2965435, -6.8108841 ], [ 39.2964671, -6.8106711 ], [ 39.2964137, -6.8105584 ], [ 39.2964545, -6.8105523 ], [ 39.2966742, -6.8104972 ], [ 39.2968873, -6.8104208 ], [ 39.297092, -6.8103239 ], [ 39.2972862, -6.8102074 ], [ 39.297468, -6.8100724 ], [ 39.2976357, -6.8099203 ], [ 39.2977877, -6.8097525 ], [ 39.2979225, -6.8095706 ], [ 39.2980388, -6.8093763 ], [ 39.2981355, -6.8091716 ], [ 39.2982117, -6.8089584 ], [ 39.2982666, -6.8087388 ], [ 39.2982997, -6.8085149 ], [ 39.2983107, -6.8082888 ], [ 39.2982994, -6.8080627 ], [ 39.298266, -6.8078388 ], [ 39.2982109, -6.8076192 ], [ 39.2981344, -6.8074062 ], [ 39.2980375, -6.8072016 ], [ 39.2979209, -6.8070075 ], [ 39.2977859, -6.8068257 ], [ 39.2976337, -6.8066581 ], [ 39.2974658, -6.8065062 ], [ 39.2972838, -6.8063715 ], [ 39.2970895, -6.8062552 ], [ 39.2968847, -6.8061585 ], [ 39.2966715, -6.8060824 ], [ 39.2964517, -6.8060275 ], [ 39.2962277, -6.8059945 ], [ 39.2960015, -6.8059835 ], [ 39.2957753, -6.8059947 ], [ 39.2955513, -6.8060281 ], [ 39.2953316, -6.8060832 ], [ 39.2951185, -6.8061596 ], [ 39.2949138, -6.8062565 ], [ 39.2947196, -6.806373 ], [ 39.2945378, -6.806508 ], [ 39.2943701, -6.8066601 ], [ 39.2942181, -6.8068279 ], [ 39.2940833, -6.8070098 ], [ 39.293967, -6.8072041 ], [ 39.2938703, -6.8074088 ], [ 39.2937941, -6.8076219 ], [ 39.2937392, -6.8078416 ], [ 39.2937061, -6.8080655 ], [ 39.2936951, -6.8082916 ], [ 39.2937064, -6.8085177 ], [ 39.2937398, -6.8087416 ], [ 39.2937949, -6.8089611 ], [ 39.2938713, -6.8091742 ], [ 39.2939247, -6.8092869 ], [ 39.2938839, -6.809293 ], [ 39.2936642, -6.8093481 ], [ 39.2934511, -6.8094245 ], [ 39.2932464, -6.8095214 ], [ 39.2930522, -6.8096379 ], [ 39.2928704, -6.8097729 ], [ 39.2927027, -6.809925 ], [ 39.2925507, -6.8100928 ], [ 39.2924159, -6.8102747 ], [ 39.2922996, -6.810469 ], [ 39.2922029, -6.8106737 ], [ 39.2921267, -6.8108868 ], [ 39.2920718, -6.8111065 ], [ 39.2920387, -6.8113304 ], [ 39.2920277, -6.8115565 ], [ 39.292039, -6.8117826 ], [ 39.2920723, -6.8120065 ], [ 39.2921275, -6.812226 ], [ 39.2922039, -6.8124391 ], [ 39.2923009, -6.8126437 ], [ 39.2924174, -6.8128378 ], [ 39.2925525, -6.8130195 ], [ 39.2927046, -6.8131872 ], [ 39.2928725, -6.8133391 ], [ 39.2930545, -6.8134738 ], [ 39.2932489, -6.8135901 ], [ 39.2934536, -6.8136868 ], [ 39.2936669, -6.8137629 ], [ 39.2938867, -6.8138178 ], [ 39.2941107, -6.8138508 ], [ 39.2943369, -6.8138618 ], [ 39.2945631, -6.8138506 ], [ 39.2947871, -6.8138172 ], [ 39.2950068, -6.8137621 ], [ 39.2952199, -6.8136857 ], [ 39.2954246, -6.8135888 ], [ 39.2956188, -6.8134723 ], [ 39.2958006, -6.8133373 ], [ 39.2959683, -6.8131852 ], [ 39.2961203, -6.8130174 ] ] ], [ [ [ 39.2651496, -6.80144 ], [ 39.2652844, -6.8012581 ], [ 39.2654007, -6.8010639 ], [ 39.2654974, -6.8008592 ], [ 39.2655736, -6.800646 ], [ 39.2656285, -6.8004264 ], [ 39.2656616, -6.8002024 ], [ 39.2656726, -6.7999763 ], [ 39.2656614, -6.7997502 ], [ 39.2656549, -6.7997068 ], [ 39.2656583, -6.7996367 ], [ 39.2656471, -6.7994106 ], [ 39.2656137, -6.7991867 ], [ 39.2655586, -6.7989672 ], [ 39.2655288, -6.7988842 ], [ 39.2655264, -6.7988745 ], [ 39.26545, -6.7986614 ], [ 39.265353, -6.7984568 ], [ 39.2652365, -6.7982627 ], [ 39.2651015, -6.798081 ], [ 39.2649493, -6.7979133 ], [ 39.2647814, -6.7977614 ], [ 39.2645995, -6.7976266 ], [ 39.2644051, -6.7975104 ], [ 39.2642004, -6.7974137 ], [ 39.2639871, -6.7973375 ], [ 39.2637674, -6.7972827 ], [ 39.2635433, -6.7972496 ], [ 39.2633171, -6.7972386 ], [ 39.263091, -6.7972498 ], [ 39.262867, -6.7972832 ], [ 39.2626473, -6.7973383 ], [ 39.2624341, -6.7974147 ], [ 39.2622294, -6.7975115 ], [ 39.2620353, -6.797628 ], [ 39.2618534, -6.797763 ], [ 39.2616857, -6.7979151 ], [ 39.2615337, -6.7980829 ], [ 39.2613989, -6.7982648 ], [ 39.2612826, -6.798459 ], [ 39.2611859, -6.7986637 ], [ 39.2611097, -6.7988769 ], [ 39.2610548, -6.7990965 ], [ 39.2610217, -6.7993204 ], [ 39.2610107, -6.7995465 ], [ 39.2610219, -6.7997726 ], [ 39.2610553, -6.7999965 ], [ 39.2610587, -6.8000104 ], [ 39.2610684, -6.8002049 ], [ 39.2611018, -6.8004288 ], [ 39.2611569, -6.8006484 ], [ 39.2612333, -6.8008615 ], [ 39.2613303, -6.8010661 ], [ 39.2614468, -6.8012602 ], [ 39.2615818, -6.8014419 ], [ 39.261734, -6.8016096 ], [ 39.2619019, -6.8017615 ], [ 39.2620838, -6.8018963 ], [ 39.2622782, -6.8020125 ], [ 39.2624829, -6.8021092 ], [ 39.2626962, -6.8021854 ], [ 39.2629159, -6.8022402 ], [ 39.26314, -6.8022733 ], [ 39.2633662, -6.8022843 ], [ 39.2635923, -6.8022731 ], [ 39.2638163, -6.8022397 ], [ 39.264036, -6.8021846 ], [ 39.2642492, -6.8021082 ], [ 39.2644539, -6.8020113 ], [ 39.2646481, -6.8018949 ], [ 39.2648299, -6.8017599 ], [ 39.2649976, -6.8016078 ], [ 39.2651496, -6.80144 ] ] ] ] } },
{ "type": "Feature", "properties": { "index": "1", "label": "Beyond 255 m", "color": "#d9d9d9" }, "geometry": { "type": "Polygon", "coordinates": [ [ [ 39.3, -6.78 ], [ 39.22, -6.78 ], [ 39.22, -6.7944516 ], [ 39.2200535, -6.7943019 ], [ 39.2201502, -6.7940972 ], [ 39.2202665, -6.793903 ], [ 39.2204014, -6.7937211 ], [ 39.2205534, -6.7935533 ], [ 39.2207211, -6.7934012 ], [ 39.2209029, -6.7932663 ], [ 39.2210971, -6.7931498 ], [ 39.2213018, -6.793053 ], [ 39.221515, -6.7929766 ], [ 39.2217347, -6.7929215 ], [ 39.2219587, -6.7928882 ], [ 39.2221848, -6.792877 ], [ 39.222411, -6.792888 ], [ 39.2226351, -6.7929211 ], [ 39.2228548, -6.792976 ], [ 39.223068, -6.7930522 ], [ 39.2232728, -6.7931489 ], [ 39.2234671, -6.7932651 ], [ 39.2236491, -6.7933999 ], [ 39.2238169, -6.7935518 ], [ 39.2239691, -6.7937195 ], [ 39.2241041, -6.7939013 ], [ 39.2242206, -6.7940954 ], [ 39.2242642, -6.7941875 ], [ 39.2244705, -6.7941568 ], [ 39.2246967, -6.7941456 ], [ 39.2249229, -6.7941566 ], [ 39.225147, -6.7941897 ], [ 39.2253667, -6.7942446 ], [ 39.2255799, -6.7943208 ], [ 39.2257847, -6.7944174 ], [ 39.225979, -6.7945337 ], [ 39.226161, -6.7946685 ], [ 39.2263288, -6.7948204 ], [ 39.226481, -6.7949881 ], [ 39.226616, -6.7951699 ], [ 39.2267325, -6.795364 ], [ 39.2268294, -6.7955686 ], [ 39.2269058, -6.7957817 ], [ 39.226961, -6.7960012 ], [ 39.2269943, -6.7962251 ], [ 39.2270055, -6.7964512 ], [ 39.2269945, -6.7966773 ], [ 39.2269614, -6.7969013 ], [ 39.2269065, -6.7971209 ], [ 39.2268303, -6.7973341 ], [ 39.2267335, -6.7975387 ], [ 39.2266172, -6.797733 ], [ 39.2264824, -6.7979148 ], [ 39.2263304, -6.7980826 ], [ 39.2261626, -6.7982347 ], [ 39.2259808, -6.7983697 ], [ 39.2257866, -6.7984861 ], [ 39.2255819, -6.798583 ], [ 39.2253687, -6.7986594 ], [ 39.2251491, -6.7987145 ], [ 39.2249251, -6.7987478 ], [ 39.2246989, -6.798759 ], [ 39.2244727, -6.798748 ], [ 39.2242486, -6.7987149 ], [ 39.2240289, -6.79866 ], [ 39.2238157, -6.7985838 ], [ 39.2236109, -6.7984872 ], [ 39.2234166, -6.7983709 ], [ 39.2232346, -6.7982361 ], [ 39.2230668, -6.7980842 ], [ 39.2229146, -6.7979165 ], [ 39.2227796, -6.7977347 ], [ 39.2226631, -6.7975406 ], [ 39.2226195, -6.7974485 ], [ 39.2224131, -6.7974792 ], [ 39.222187, -6.7974904 ], [ 39.2219608, -6.7974794 ], [ 39.2217367, -6.7974463 ], [ 39.221517, -6.7973914 ], [ 39.2213038, -6.7973152 ], [ 39.221099, -6.7972185 ], [ 39.2209047, -6.7971023 ], [ 39.2207227, -6.7969675 ], [ 39.2205548, -6.7968155 ], [ 39.2204027, -6.7966479 ], [ 39.2202677, -6.7964661 ], [ 39.2201512, -6.796272 ], [ 39.2200543, -6.7960674 ], [ 39.22, -6.795916 ], [ 39.22, -6.85 ], [ 39.3, -6.85 ], [ 39.3, -6.78 ] ], [ [ 39.2330361, -6.8418289 ], [ 39.2329599, -6.8420421 ], [ 39.2328631, -6.8422468 ], [ 39.2327468, -6.842441 ], [ 39.232612, -6.8426229 ], [ 39.2324599, -6.8427907 ], [ 39.2322922, -6.8429428 ], [ 39.2321103, -6.8430777 ], [ 39.2319161, -6.8431942 ], [ 39.2317114, -6.8432911 ], [ 39.2314982, -6.8433675 ], [ 39.2312785, -6.8434226 ], [ 39.2310545, -6.8434559 ], [ 39.2308283, -6.8434671 ], [ 39.2306021, -6.8434561 ], [ 39.230378, -6.843423 ], [ 39.2301583, -6.8433681 ], [ 39.229945, -6.843292 ], [ 39.2297402, -6.8431953 ], [ 39.2295459, -6.843079 ], [ 39.2293639, -6.8429442 ], [ 39.229196, -6.8427923 ], [ 39.2290438, -6.8426246 ], [ 39.2289088, -6.8424429 ], [ 39.2287923, -6.8422488 ], [ 39.2286954, -6.8420442 ], [ 39.228619, -6.8418311 ], [ 39.2285638, -6.8416115 ], [ 39.2285305, -6.8413876 ], [ 39.2285193, -6.8411615 ], [ 39.2285303, -6.8409354 ], [ 39.2285634, -6.8407115 ], [ 39.2286183, -6.8404918 ], [ 39.2286945, -6.8402787 ], [ 39.2287913, -6.840074 ], [ 39.2289076, -6.8398798 ], [ 39.2290425, -6.8396979 ], [ 39.2291945, -6.8395301 ], [ 39.2293622, -6.839378 ], [ 39.2295441, -6.839243 ], [ 39.2297383, -6.8391266 ], [ 39.229943, -6.8390297 ], [ 39.2301562, -6.8389533 ], [ 39.2303759, -6.8388982 ], [ 39.2305999, -6.8388649 ], [ 39.2308261, -6.8388537 ], [ 39.2310523, -6.8388647 ], [ 39.2312764, -6.8388978 ], [ 39.2314961, -6.8389527 ], [ 39.2317094, -6.8390288 ], [ 39.2319142, -6.8391255 ], [ 39.2321085, -6.8392418 ], [ 39.2322905, -6.8393766 ], [ 39.2324584, -6.8395285 ], [ 39.2326105, -6.8396962 ], [ 39.2327455, -6.8398779 ], [ 39.2328621, -6.840072 ], [ 39.232959, -6.8402766 ], [ 39.2330354, -6.8404897 ], [ 39.2330906, -6.8407093 ], [ 39.2331239, -6.8409332 ], [ 39.2331351, -6.8411593 ], [ 39.2331241, -6.8413854 ], [ 39.233091, -6.8416093 ], [ 39.2330361, -6.8418289 ] ], [ [ 39.2411224, -6.8361249 ], [ 39.2410462, -6.8363381 ], [ 39.2409494, -6.8365428 ], [ 39.2408331, -6.836737 ], [ 39.2406983, -6.8369189 ], [ 39.2405462, -6.8370867 ], [ 39.2403785, -6.8372388 ], [ 39.2401967, -6.8373737 ], [ 39.2400024, -6.8374902 ], [ 39.2397978, -6.8375871 ], [ 39.2395845, -6.8376635 ], [ 39.2393649, -6.8377186 ], [ 39.2391409, -6.8377519 ], [ 39.2389146, -6.8377631 ], [ 39.2386884, -6.8377521 ], [ 39.2384644, -6.837719 ], [ 39.2382446, -6.8376641 ], [ 39.2380314, -6.837588 ], [ 39.2378266, -6.8374913 ], [ 39.2376322, -6.837375 ], [ 39.2374503, -6.8372402 ], [ 39.2372824, -6.8370883 ], [ 39.2371302, -6.8369206 ], [ 39.2369952, -6.8367389 ], [ 39.2368787, -6.8365448 ], [ 39.2367817, -6.8363402 ], [ 39.2367053, -6.8361271 ], [ 39.2366502, -6.8359075 ], [ 39.2366168, -6.8356836 ], [ 39.2366056, -6.8354575 ], [ 39.2366166, -6.8352314 ], [ 39.2366497, -6.8350075 ], [ 39.2367047, -6.8347879 ], [ 39.2367808, -6.8345747 ], [ 39.2368776, -6.83437 ], [ 39.2369939, -6.8341758 ], [ 39.2371288, -6.8339939 ], [ 39.2372808, -6.8338261 ], [ 39.2374485, -6.833674 ], [ 39.2376304, -6.8335391 ], [ 39.2378246, -6.8334226 ], [ 39.2380293, -6.8333257 ], [ 39.2382425, -6.8332493 ], [ 39.2384621, -6.8331942 ], [ 39.2386861, -6.8331609 ], [ 39.2389124, -6.8331497 ], [ 39.2391386, -6.8331607 ], [ 39.2393626, -6.8331938 ], [ 39.2395823, -6.8332487 ], [ 39.2397956, -6.8333248 ], [ 39.2400004, -6.8334215 ], [ 39.2401947, -6.8335378 ], [ 39.2403767, -6.8336726 ], [ 39.2405446, -6.8338245 ], [ 39.2406968, -6.8339921 ], [ 39.2408318, -6.8341739 ], [ 39.2409483, -6.834368 ], [ 39.2410453, -6.8345726 ], [ 39.2411217, -6.8347857 ], [ 39.2411768, -6.8350053 ], [ 39.2412102, -6.8352292 ], [ 39.2412214, -6.8354552 ], [ 39.2412104, -6.8356814 ], [ 39.2411773, -6.8359053 ], [ 39.2411224, -6.8361249 ] ], [ [ 39.2466313, -6.8278348 ], [ 39.2465551, -6.828048 ], [ 39.2464584, -6.8282526 ], [ 39.2463421, -6.8284469 ], [ 39.2462072, -6.8286288 ], [ 39.2460552, -6.8287966 ], [ 39.2458875, -6.8289487 ], [ 39.2457057, -6.8290836 ], [ 39.2455115, -6.8292001 ], [ 39.2453068, -6.829297 ], [ 39.2450936, -6.8293733 ], [ 39.2448739, -6.8294285 ], [ 39.2446499, -6.8294618 ], [ 39.2444237, -6.829473 ], [ 39.2441975, -6.829462 ], [ 39.2439734, -6.8294289 ], [ 39.2437537, -6.829374 ], [ 39.2435404, -6.8292979 ], [ 39.2433356, -6.8292012 ], [ 39.2431413, -6.8290849 ], [ 39.2429593, -6.8289502 ], [ 39.2427914, -6.8287982 ], [ 39.2426392, -6.8286306 ], [ 39.2425042, -6.8284488 ], [ 39.2423877, -6.8282547 ], [ 39.2422908, -6.8280501 ], [ 39.2422144, -6.827837 ], [ 39.2421592, -6.8276175 ], [ 39.2421259, -6.8273936 ], [ 39.2421146, -6.8271675 ], [ 39.2421256, -6.8269414 ], [ 39.2421588, -6.8267174 ], [ 39.2422137, -6.8264978 ], [ 39.2422899, -6.8262846 ], [ 39.2423866, -6.8260799 ], [ 39.2425029, -6.8258857 ], [ 39.2426378, -6.8257038 ], [ 39.2427898, -6.825536 ], [ 39.2429575, -6.8253839 ], [ 39.2431394, -6.825249 ], [ 39.2433336, -6.8251325 ], [ 39.2435382, -6.8250356 ], [ 39.2437514, -6.8249592 ], [ 39.2439711, -6.8249041 ], [ 39.2441951, -6.8248708 ], [ 39.2444213, -6.8248596 ], [ 39.2446475, -6.8248706 ], [ 39.2448716, -6.8249037 ], [ 39.2450913, -6.8249586 ], [ 39.2453046, -6.8250347 ], [ 39.2455094, -6.8251314 ], [ 39.2457037, -6.8252477 ], [ 39.2458857, -6.8253824 ], [ 39.2460536, -6.8255344 ], [ 39.2462057, -6.825702 ], [ 39.2463408, -6.8258838 ], [ 39.2464573, -6.8260779 ], [ 39.2465542, -6.8262825 ], [ 39.2466306, -6.8264956 ], [ 39.2466858, -6.8267151 ], [ 39.2467191, -6.826939 ], [ 39.2467304, -6.8271651 ], [ 39.2467194, -6.8273912 ], [ 39.2466862, -6.8276152 ], [ 39.2466313, -6.8278348 ] ], [ [ 39.2262457, -6.8068081 ], [ 39.226149, -6.8070127 ], [ 39.2260326, -6.807207 ], [ 39.2258978, -6.8073888 ], [ 39.2257458, -6.8075566 ], [ 39.2255781, -6.8077087 ], [ 39.2253962, -6.8078437 ], [ 39.225202, -6.8079601 ], [ 39.2249973, -6.808057 ], [ 39.2247841, -6.8081334 ], [ 39.2245645, -6.8081885 ], [ 39.2243405, -6.8082218 ], [ 39.2241143, -6.808233 ], [ 39.2238881, -6.808222 ], [ 39.223664, -6.8081889 ], [ 39.2234443, -6.808134 ], [ 39.223231, -6.8080578 ], [ 39.2230263, -6.8079611 ], [ 39.222832, -6.8078449 ], [ 39.22265, -6.8077101 ], [ 39.2224821, -6.8075582 ], [ 39.22233, -6.8073905 ], [ 39.222195, -6.8072087 ], [ 39.2220784, -6.8070146 ], [ 39.2219815, -6.80681 ], [ 39.2219051, -6.8065969 ], [ 39.22185, -6.8063774 ], [ 39.2218167, -6.8061535 ], [ 39.2218054, -6.8059274 ], [ 39.2218165, -6.8057013 ], [ 39.2218496, -6.8054773 ], [ 39.2219045, -6.8052577 ], [ 39.2219807, -6.8050445 ], [ 39.2220774, -6.8048399 ], [ 39.2221938, -6.8046456 ], [ 39.2223286, -6.8044638 ], [ 39.2224806, -6.804296 ], [ 39.2226484, -6.8041439 ], [ 39.2228302, -6.8040089 ], [ 39.2230244, -6.8038925 ], [ 39.2232291, -6.8037956 ], [ 39.2234423, -6.8037192 ], [ 39.2236619, -6.8036641 ], [ 39.2238859, -6.8036308 ], [ 39.2241121, -6.8036196 ], [ 39.2243383, -6.8036306 ], [ 39.2245624, -6.8036637 ], [ 39.2247821, -6.8037186 ], [ 39.2249953, -6.8037948 ], [ 39.2252001, -6.8038914 ], [ 39.2253944, -6.8040077 ], [ 39.2255764, -6.8041425 ], [ 39.2257443, -6.8042944 ], [ 39.2258964, -6.8044621 ], [ 39.2260314, -6.8046439 ], [ 39.226148, -6.804838 ], [ 39.2262449, -6.8050426 ], [ 39.2263213, -6.8052557 ], [ 39.2263764, -6.8054752 ], [ 39.2264097, -6.8056991 ], [ 39.226421, -6.8059252 ], [ 39.22641, -6.8061513 ], [ 39.2263768, -6.8063753 ], [ 39.2263219, -6.8065949 ], [ 39.2262457, -6.8068081 ] ], [ [ 39.2386012, -6.8017766 ], [ 39.2385045, -6.8019813 ], [ 39.2383881, -6.8021755 ], [ 39.2382533, -6.8023574 ], [ 39.2381013, -6.8025252 ], [ 39.2379336, -6.8026773 ], [ 39.2377517, -6.8028122 ], [ 39.2375576, -6.8029287 ], [ 39.2373529, -6.8030256 ], [ 39.2371397, -6.803102 ], [ 39.23692, -6.8031571 ], [ 39.236696, -6.8031904 ], [ 39.2364698, -6.8032016 ], [ 39.2362436, -6.8031906 ], [ 39.2360196, -6.8031575 ], [ 39.2357999, -6.8031026 ], [ 39.2355866, -6.8030265 ], [ 39.2353818, -6.8029298 ], [ 39.2351875, -6.8028135 ], [ 39.2350056, -6.8026787 ], [ 39.2348377, -6.8025268 ], [ 39.2346855, -6.8023591 ], [ 39.2345505, -6.8021774 ], [ 39.234434, -6.8019833 ], [ 39.2343371, -6.8017787 ], [ 39.2342607, -6.8015656 ], [ 39.2342055, -6.801346 ], [ 39.2341722, -6.8011221 ], [ 39.234161, -6.800896 ], [ 39.234172, -6.8006699 ], [ 39.2342051, -6.800446 ], [ 39.23426, -6.8002264 ], [ 39.2343362, -6.8000132 ], [ 39.2344329, -6.7998085 ], [ 39.2345493, -6.7996143 ], [ 39.2346841, -6.7994324 ], [ 39.2348361, -6.7992646 ], [ 39.2350038, -6.7991125 ], [ 39.2351857, -6.7989776 ], [ 39.2353799, -6.7988611 ], [ 39.2355845, -6.7987642 ], [ 39.2357977, -6.7986878 ], [ 39.2359758, -6.7986431 ], [ 39.2357832, -6.7985279 ], [ 39.2356013, -6.7983931 ], [ 39.2354334, -6.7982412 ], [ 39.2352812, -6.7980735 ], [ 39.2351462, -6.7978918 ], [ 39.2350297, -6.7976977 ], [ 39.2349328, -6.7974931 ], [ 39.2348564, -6.79728 ], [ 39.2348012, -6.7970604 ], [ 39.2347679, -6.7968365 ], [ 39.2347567, -6.7966104 ], [ 39.2347677, -6.7963843 ], [ 39.2348008, -6.7961604 ], [ 39.2348557, -6.7959408 ], [ 39.2349319, -6.7957276 ], [ 39.2350287, -6.7955229 ], [ 39.235145, -6.7953287 ], [ 39.2352798, -6.7951468 ], [ 39.2354318, -6.794979 ], [ 39.2355995, -6.7948269 ], [ 39.2357814, -6.794692 ], [ 39.2359756, -6.7945755 ], [ 39.2361802, -6.7944786 ], [ 39.2363934, -6.7944022 ], [ 39.2366131, -6.7943471 ], [ 39.2368371, -6.7943138 ], [ 39.2370633, -6.7943026 ], [ 39.2372895, -6.7943136 ], [ 39.2375135, -6.7943467 ], [ 39.2377332, -6.7944016 ], [ 39.2379465, -6.7944777 ], [ 39.2381512, -6.7945744 ], [ 39.2383456, -6.7946907 ], [ 39.2385067, -6.7948101 ], [ 39.2385711, -6.7948196 ], [ 39.2387908, -6.7948745 ], [ 39.2390041, -6.7949506 ], [ 39.2392088, -6.7950473 ], [ 39.2394031, -6.7951636 ], [ 39.2395851, -6.7952984 ], [ 39.239753, -6.7954503 ], [ 39.2399052, -6.795618 ], [ 39.2400402, -6.7957997 ], [ 39.2401567, -6.7959938 ], [ 39.2402536, -6.7961984 ], [ 39.24033, -6.7964115 ], [ 39.2403851, -6.7966311 ], [ 39.2404185, -6.796855 ], [ 39.2404297, -6.7970811 ], [ 39.2404187, -6.7973072 ], [ 39.2403856, -6.7975311 ], [ 39.2403307, -6.7977507 ], [ 39.2402545, -6.7979639 ], [ 39.2401578, -6.7981686 ], [ 39.2400414, -6.7983628 ], [ 39.2399066, -6.7985447 ], [ 39.2397546, -6.7987125 ], [ 39.2395869, -6.7988646 ], [ 39.239405, -6.7989995 ], [ 39.2392109, -6.799116 ], [ 39.2390062, -6.7992129 ], [ 39.238793, -6.7992893 ], [ 39.2385733, -6.7993444 ], [ 39.2383493, -6.7993777 ], [ 39.2382101, -6.7993846 ], [ 39.2382519, -6.7994307 ], [ 39.2383869, -6.7996124 ], [ 39.2385034, -6.7998065 ], [ 39.2386003, -6.8000111 ], [ 39.2386767, -6.8002242 ], [ 39.2387319, -6.8004438 ], [ 39.2387652, -6.8006677 ], [ 39.2387764, -6.8008938 ], [ 39.2387654, -6.8011199 ], [ 39.2387323, -6.8013438 ], [ 39.2386774, -6.8015634 ], [ 39.2386012, -6.8017766 ] ], [ [ 39.2448816, -6.8003527 ], [ 39.2448253, -6.8003386 ], [ 39.2446121, -6.8002625 ], [ 39.2444073, -6.8001658 ], [ 39.244213, -6.8000495 ], [ 39.244031, -6.7999148 ], [ 39.2438631, -6.7997628 ], [ 39.2437109, -6.7995952 ], [ 39.2435759, -6.7994134 ], [ 39.2434594, -6.7992193 ], [ 39.2433625, -6.7990147 ], [ 39.2432861, -6.7988016 ], [ 39.243231, -6.7985821 ], [ 39.2431976, -6.7983582 ], [ 39.2431864, -6.7981321 ], [ 39.2431974, -6.797906 ], [ 39.2432305, -6.797682 ], [ 39.2432854, -6.7974624 ], [ 39.2433616, -6.7972492 ], [ 39.2434583, -6.7970445 ], [ 39.2435747, -6.7968503 ], [ 39.2437095, -6.7966684 ], [ 39.2438615, -6.7965006 ], [ 39.2440292, -6.7963485 ], [ 39.244211, -6.7962136 ], [ 39.2444052, -6.7960971 ], [ 39.2446099, -6.7960002 ], [ 39.2448231, -6.7959238 ], [ 39.2450427, -6.7958687 ], [ 39.2451712, -6.7958496 ], [ 39.2450541, -6.7957795 ], [ 39.2448721, -6.7956448 ], [ 39.2447042, -6.7954928 ], [ 39.2445521, -6.7953252 ], [ 39.2444171, -6.7951434 ], [ 39.2443005, -6.7949493 ], [ 39.2442036, -6.7947447 ], [ 39.2441272, -6.7945316 ], [ 39.2440721, -6.7943121 ], [ 39.2440387, -6.7940882 ], [ 39.2440275, -6.7938621 ], [ 39.2440385, -6.793636 ], [ 39.2440716, -6.793412 ], [ 39.2441265, -6.7931924 ], [ 39.2442027, -6.7929792 ], [ 39.2442994, -6.7927746 ], [ 39.2443878, -6.7926271 ], [ 39.2443646, -6.7925884 ], [ 39.2442676, -6.7923838 ], [ 39.2441912, -6.7921707 ], [ 39.2441361, -6.7919512 ], [ 39.2441027, -6.7917273 ], [ 39.2440915, -6.7915012 ], [ 39.2441025, -6.7912751 ], [ 39.2441356, -6.7910511 ], [ 39.2441905, -6.7908315 ], [ 39.2442667, -6.7906183 ], [ 39.2443635, -6.7904137 ], [ 39.2444798, -6.7902194 ], [ 39.2446146, -6.7900375 ], [ 39.2447666, -6.7898697 ], [ 39.2449343, -6.7897176 ], [ 39.2451161, -6.7895827 ], [ 39.2453103, -6.7894662 ], [ 39.245515, -6.7893693 ], [ 39.2457282, -6.7892929 ], [ 39.2459478, -6.7892378 ], [ 39.2461718, -6.7892045 ], [ 39.246398, -6.7891933 ], [ 39.2466242, -6.7892043 ], [ 39.2468483, -6.7892374 ], [ 39.247068, -6.7892923 ], [ 39.2472812, -6.7893684 ], [ 39.247486, -6.7894651 ], [ 39.2476803, -6.7895814 ], [ 39.2478623, -6.7897161 ], [ 39.2480301, -6.7898681 ], [ 39.2481823, -6.7900357 ], [ 39.2483173, -6.7902175 ], [ 39.2484338, -6.7904116 ], [ 39.2485308, -6.7906162 ], [ 39.2486072, -6.7908293 ], [ 39.2486623, -6.7910488 ], [ 39.2486957, -6.7912727 ], [ 39.2487069, -6.7914988 ], [ 39.2486959, -6.7917249 ], [ 39.2486628, -6.7919489 ], [ 39.2486079, -6.7921685 ], [ 39.2485317, -6.7923817 ], [ 39.248435, -6.7925863 ], [ 39.2483466, -6.7927338 ], [ 39.2483698, -6.7927725 ], [ 39.2484668, -6.7929771 ], [ 39.2485432, -6.7931902 ], [ 39.2485983, -6.7934097 ], [ 39.2486317, -6.7936336 ], [ 39.2486429, -6.7938597 ], [ 39.2486319, -6.7940858 ], [ 39.2485988, -6.7943098 ], [ 39.2485439, -6.7945294 ], [ 39.2484677, -6.7947426 ], [ 39.248371, -6.7949472 ], [ 39.2482546, -6.7951415 ], [ 39.2481198, -6.7953234 ], [ 39.2479678, -6.7954912 ], [ 39.2478001, -6.7956433 ], [ 39.2476183, -6.7957782 ], [ 39.2474241, -6.7958947 ], [ 39.2472194, -6.7959916 ], [ 39.2470062, -6.796068 ], [ 39.2467866, -6.7961231 ], [ 39.2466581, -6.7961422 ], [ 39.2467752, -6.7962123 ], [ 39.2469572, -6.796347 ], [ 39.2471251, -6.796499 ], [ 39.2472772, -6.7966666 ], [ 39.2474122, -6.7968484 ], [ 39.2475288, -6.7970425 ], [ 39.2476257, -6.7972471 ], [ 39.2477021, -6.7974602 ], [ 39.2477572, -6.7976797 ], [ 39.2477906, -6.7979036 ], [ 39.2478018, -6.7981297 ], [ 39.2477908, -6.7983558 ], [ 39.2477711, -6.798489 ], [ 39.2478274, -6.7985031 ], [ 39.2480406, -6.7985792 ], [ 39.2482454, -6.7986759 ], [ 39.2484397, -6.7987922 ], [ 39.2486217, -6.7989269 ], [ 39.2487896, -6.7990789 ], [ 39.2489417, -6.7992465 ], [ 39.2490767, -6.7994283 ], [ 39.2491933, -6.7996224 ], [ 39.2492902, -6.799827 ], [ 39.2493666, -6.8000401 ], [ 39.2494071, -6.8002013 ], [ 39.2494339, -6.8001814 ], [ 39.2496281, -6.8000649 ], [ 39.2498328, -6.799968 ], [ 39.250046, -6.7998917 ], [ 39.2502656, -6.7998365 ], [ 39.2504896, -6.7998032 ], [ 39.2507158, -6.799792 ], [ 39.250942, -6.799803 ], [ 39.251166, -6.7998361 ], [ 39.2513858, -6.799891 ], [ 39.251599, -6.7999671 ], [ 39.2518038, -6.8000638 ], [ 39.2519981, -6.8001801 ], [ 39.2521801, -6.8003148 ], [ 39.252348, -6.8004668 ], [ 39.2525001, -6.8006344 ], [ 39.2526351, -6.8008162 ], [ 39.2527517, -6.8010103 ], [ 39.2528486, -6.8012148 ], [ 39.252925, -6.8014279 ], [ 39.2529802, -6.8016475 ], [ 39.2530135, -6.8018714 ], [ 39.2530247, -6.8020975 ], [ 39.2530137, -6.8023236 ], [ 39.2529806, -6.8025475 ], [ 39.2529257, -6.8027672 ], [ 39.2528495, -6.8029803 ], [ 39.2527528, -6.803185 ], [ 39.2526365, -6.8033792 ], [ 39.2525017, -6.8035611 ], [ 39.2523497, -6.8037289 ], [ 39.2521819, -6.8038811 ], [ 39.2520001, -6.804016 ], [ 39.2518059, -6.8041325 ], [ 39.2516012, -6.8042294 ], [ 39.251388, -6.8043057 ], [ 39.2511684, -6.8043609 ], [ 39.2509444, -6.8043942 ], [ 39.2507182, -6.8044054 ], [ 39.250492, -6.8043944 ], [ 39.250268, -6.8043613 ], [ 39.2500482, -6.8043064 ], [ 39.249835, -6.8042303 ], [ 39.2496302, -6.8041336 ], [ 39.2494359, -6.8040173 ], [ 39.2492539, -6.8038826 ], [ 39.249086, -6.8037306 ], [ 39.2489339, -6.803563 ], [ 39.2487988, -6.8033812 ], [ 39.2486823, -6.8031871 ], [ 39.2485854, -6.8029825 ], [ 39.248509, -6.8027694 ], [ 39.2484685, -6.8026082 ], [ 39.2484417, -6.8026281 ], [ 39.2482475, -6.8027446 ], [ 39.2480428, -6.8028415 ], [ 39.2478296, -6.8029178 ], [ 39.24761, -6.802973 ], [ 39.247386, -6.8030063 ], [ 39.2471598, -6.8030175 ], [ 39.2469336, -6.8030065 ], [ 39.2467095, -6.8029734 ], [ 39.2464898, -6.8029185 ], [ 39.2462766, -6.8028424 ], [ 39.2460718, -6.8027457 ], [ 39.2458775, -6.8026294 ], [ 39.2456955, -6.8024947 ], [ 39.2455276, -6.8023427 ], [ 39.2453754, -6.8021751 ], [ 39.2452404, -6.8019933 ], [ 39.2451239, -6.8017992 ], [ 39.245027, -6.8015946 ], [ 39.2449506, -6.8013815 ], [ 39.2448954, -6.801162 ], [ 39.2448621, -6.8009381 ], [ 39.2448509, -6.800712 ], [ 39.2448619, -6.8004859 ], [ 39.2448816, -6.8003527 ] ], [ [ 39.2748681, -6.8398278 ], [ 39.2747919, -6.840041 ], [ 39.2746952, -6.8402457 ], [ 39.2745789, -6.8404399 ], [ 39.2744441, -6.8406218 ], [ 39.2742921, -6.8407897 ], [ 39.2741243, -6.8409418 ], [ 39.2739425, -6.8410767 ], [ 39.2737483, -6.8411932 ], [ 39.2735436, -6.8412901 ], [ 39.2733304, -6.8413665 ], [ 39.2731107, -6.8414216 ], [ 39.2728867, -6.841455 ], [ 39.2726605, -6.8414662 ], [ 39.2724343, -6.8414552 ], [ 39.2722102, -6.8414221 ], [ 39.2719905, -6.8413673 ], [ 39.2717772, -6.8412911 ], [ 39.2715724, -6.8411945 ], [ 39.2713781, -6.8410782 ], [ 39.2711961, -6.8409434 ], [ 39.2710282, -6.8407915 ], [ 39.270876, -6.8406239 ], [ 39.270741, -6.8404421 ], [ 39.2706244, -6.840248 ], [ 39.2705275, -6.8400434 ], [ 39.270451, -6.8398303 ], [ 39.2703959, -6.8396108 ], [ 39.2703625, -6.8393869 ], [ 39.2703513, -6.8391608 ], [ 39.2703623, -6.8389347 ], [ 39.2703954, -6.8387108 ], [ 39.2704503, -6.8384911 ], [ 39.2705265, -6.838278 ], [ 39.2706232, -6.8380733 ], [ 39.2707395, -6.837879 ], [ 39.2708743, -6.8376971 ], [ 39.2710263, -6.8375293 ], [ 39.2711941, -6.8373772 ], [ 39.2713759, -6.8372423 ], [ 39.2715701, -6.8371258 ], [ 39.2717748, -6.8370289 ], [ 39.271988, -6.8369525 ], [ 39.2722077, -6.8368974 ], [ 39.2724317, -6.836864 ], [ 39.2726579, -6.8368528 ], [ 39.2728841, -6.8368638 ], [ 39.2731082, -6.8368969 ], [ 39.2733279, -6.8369517 ], [ 39.2735412, -6.8370279 ], [ 39.273746, -6.8371245 ], [ 39.2739403, -6.8372408 ], [ 39.2741223, -6.8373756 ], [ 39.2742902, -6.8375275 ], [ 39.2744424, -6.8376951 ], [ 39.2745774, -6.8378769 ], [ 39.274694, -6.838071 ], [ 39.2747909, -6.8382755 ], [ 39.2748673, -6.8384886 ], [ 39.2749225, -6.8387082 ], [ 39.2749559, -6.8389321 ], [ 39.2749671, -6.8391582 ], [ 39.2749561, -6.8393843 ], [ 39.274923, -6.8396082 ], [ 39.2748681, -6.8398278 ] ], [ [ 39.2728833, -6.8337356 ], [ 39.2728071, -6.8339487 ], [ 39.2727104, -6.8341534 ], [ 39.2725941, -6.8343477 ], [ 39.2724592, -6.8345296 ], [ 39.2723072, -6.8346974 ], [ 39.2721395, -6.8348495 ], [ 39.2719577, -6.8349844 ], [ 39.2717635, -6.8351009 ], [ 39.2715588, -6.8351978 ], [ 39.2713456, -6.8352742 ], [ 39.2711259, -6.8353293 ], [ 39.2709019, -6.8353627 ], [ 39.2706757, -6.8353739 ], [ 39.2704495, -6.8353629 ], [ 39.2702254, -6.8353298 ], [ 39.2700057, -6.835275 ], [ 39.2697924, -6.8351988 ], [ 39.2695876, -6.8351021 ], [ 39.2693933, -6.8349859 ], [ 39.2692113, -6.8348511 ], [ 39.2690434, -6.8346992 ], [ 39.2688912, -6.8345316 ], [ 39.2687562, -6.8343498 ], [ 39.2686396, -6.8341557 ], [ 39.2685427, -6.8339511 ], [ 39.2684663, -6.833738 ], [ 39.2684111, -6.8335185 ], [ 39.2683778, -6.8332946 ], [ 39.2683665, -6.8330685 ], [ 39.2683775, -6.8328424 ], [ 39.2684106, -6.8326184 ], [ 39.2684655, -6.8323988 ], [ 39.2685417, -6.8321857 ], [ 39.2686384, -6.831981 ], [ 39.2687548, -6.8317867 ], [ 39.2688896, -6.8316048 ], [ 39.2690416, -6.831437 ], [ 39.2692093, -6.8312849 ], [ 39.2693911, -6.83115 ], [ 39.2695853, -6.8310335 ], [ 39.26979, -6.8309366 ], [ 39.2700032, -6.8308602 ], [ 39.2702229, -6.8308051 ], [ 39.2704469, -6.8307717 ], [ 39.2706731, -6.8307605 ], [ 39.2708993, -6.8307715 ], [ 39.2711234, -6.8308046 ], [ 39.2713431, -6.8308594 ], [ 39.2715564, -6.8309356 ], [ 39.2717612, -6.8310323 ], [ 39.2719555, -6.8311485 ], [ 39.2721375, -6.8312833 ], [ 39.2723054, -6.8314352 ], [ 39.2724576, -6.8316028 ], [ 39.2725926, -6.8317846 ], [ 39.2727092, -6.8319787 ], [ 39.2728061, -6.8321833 ], [ 39.2728825, -6.8323964 ], [ 39.2729377, -6.8326159 ], [ 39.272971, -6.8328398 ], [ 39.2729823, -6.8330659 ], [ 39.2729713, -6.833292 ], [ 39.2729382, -6.8335159 ], [ 39.2728833, -6.8337356 ] ], [ [ 39.2964681, -6.8124365 ], [ 39.2963714, -6.8126412 ], [ 39.2962551, -6.8128355 ], [ 39.2961203, -6.8130174 ], [ 39.2959683, -6.8131852 ], [ 39.2958006, -6.8133373 ], [ 39.2956188, -6.8134723 ], [ 39.2954246, -6.8135888 ], [ 39.2952199, -6.8136857 ], [ 39.2950068, -6.8137621 ], [ 39.2947871, -6.8138172 ], [ 39.2945631, -6.8138506 ], [ 39.2943369, -6.8138618 ], [ 39.2941107, -6.8138508 ], [ 39.2938867, -6.8138178 ], [ 39.2936669, -6.8137629 ], [ 39.2934536, -6.8136868 ], [ 39.2932489, -6.8135901 ], [ 39.2930545, -6.8134738 ], [ 39.2928725, -6.8133391 ], [ 39.2927046, -6.8131872 ], [ 39.2925525, -6.8130195 ], [ 39.2924174, -6.8128378 ], [ 39.2923009, -6.8126437 ], [ 39.2922039, -6.8124391 ], [ 39.2921275, -6.812226 ], [ 39.2920723, -6.8120065 ], [ 39.292039, -6.8117826 ], [ 39.2920277, -6.8115565 ], [ 39.2920387, -6.8113304 ], [ 39.2920718, -6.8111065 ], [ 39.2921267, -6.8108868 ], [ 39.2922029, -6.8106737 ], [ 39.2922996, -6.810469 ], [ 39.2924159, -6.8102747 ], [ 39.2925507, -6.8100928 ], [ 39.2927027, -6.809925 ], [ 39.2928704, -6.8097729 ], [ 39.2930522, -6.8096379 ], [ 39.2932464, -6.8095214 ], [ 39.2934511, -6.8094245 ], [ 39.2936642, -6.8093481 ], [ 39.2938839, -6.809293 ], [ 39.2939247, -6.8092869 ], [ 39.2938713, -6.8091742 ], [ 39.2937949, -6.8089611 ], [ 39.2937398, -6.8087416 ], [ 39.2937064, -6.8085177 ], [ 39.2936951, -6.8082916 ], [ 39.2937061, -6.8080655 ], [ 39.2937392, -6.8078416 ], [ 39.2937941, -6.8076219 ], [ 39.2938703, -6.8074088 ], [ 39.293967, -6.8072041 ], [ 39.2940833, -6.8070098 ], [ 39.2942181, -6.8068279 ], [ 39.2943701, -6.8066601 ], [ 39.2945378, -6.806508 ], [ 39.2947196, -6.806373 ], [ 39.2949138, -6.8062565 ], [ 39.2951185, -6.8061596 ], [ 39.2953316, -6.8060832 ], [ 39.2955513, -6.8060281 ], [ 39.2957753, -6.8059947 ], [ 39.2960015, -6.8059835 ], [ 39.2962277, -6.8059945 ], [ 39.2964517, -6.8060275 ], [ 39.2966715, -6.8060824 ], [ 39.2968847, -6.8061585 ], [ 39.2970895, -6.8062552 ], [ 39.2972838, -6.8063715 ], [ 39.2974658, -6.8065062 ], [ 39.2976337, -6.8066581 ], [ 39.2977859, -6.8068257 ], [ 39.2979209, -6.8070075 ], [ 39.2980375, -6.8072016 ], [ 39.2981344, -6.8074062 ], [ 39.2982109, -6.8076192 ], [ 39.298266, -6.8078388 ], [ 39.2982994, -6.8080627 ], [ 39.2983107, -6.8082888 ], [ 39.2982997, -6.8085149 ], [ 39.2982666, -6.8087388 ], [ 39.2982117, -6.8089584 ], [ 39.2981355, -6.8091716 ], [ 39.2980388, -6.8093763 ], [ 39.2979225, -6.8095706 ], [ 39.2977877, -6.8097525 ], [ 39.2976357, -6.8099203 ], [ 39.297468, -6.8100724 ], [ 39.2972862, -6.8102074 ], [ 39.297092, -6.8103239 ], [ 39.2968873, -6.8104208 ], [ 39.2966742, -6.8104972 ], [ 39.2964545, -6.8105523 ], [ 39.2964137, -6.8105584 ], [ 39.2964671, -6.8106711 ], [ 39.2965435, -6.8108841 ], [ 39.2965987, -6.8111037 ], [ 39.296632, -6.8113276 ], [ 39.2966433, -6.8115537 ], [ 39.2966323, -6.8117798 ], [ 39.2965992, -6.8120037 ], [ 39.2965443, -6.8122234 ], [ 39.2964681, -6.8124365 ] ], [ [ 39.2654974, -6.8008592 ], [ 39.2654007, -6.8010639 ], [ 39.2652844, -6.8012581 ], [ 39.2651496, -6.80144 ], [ 39.2649976, -6.8016078 ], [ 39.2648299, -6.8017599 ], [ 39.2646481, -6.8018949 ], [ 39.2644539, -6.8020113 ], [ 39.2642492, -6.8021082 ], [ 39.264036, -6.8021846 ], [ 39.2638163, -6.8022397 ], [ 39.2635923, -6.8022731 ], [ 39.2633662, -6.8022843 ], [ 39.26314, -6.8022733 ], [ 39.2629159, -6.8022402 ], [ 39.2626962, -6.8021854 ], [ 39.2624829, -6.8021092 ], [ 39.2622782, -6.8020125 ], [ 39.2620838, -6.8018963 ], [ 39.2619019, -6.8017615 ], [ 39.261734, -6.8016096 ], [ 39.2615818, -6.8014419 ], [ 39.2614468, -6.8012602 ], [ 39.2613303, -6.8010661 ], [ 39.2612333, -6.8008615 ], [ 39.2611569, -6.8006484 ], [ 39.2611018, -6.8004288 ], [ 39.2610684, -6.8002049 ], [ 39.2610587, -6.8000104 ], [ 39.2610553, -6.7999965 ], [ 39.2610219, -6.7997726 ], [ 39.2610107, -6.7995465 ], [ 39.2610217, -6.7993204 ], [ 39.2610548, -6.7990965 ], [ 39.2611097, -6.7988769 ], [ 39.2611859, -6.7986637 ], [ 39.2612826, -6.798459 ], [ 39.2613989, -6.7982648 ], [ 39.2615337, -6.7980829 ], [ 39.2616857, -6.7979151 ], [ 39.2618534, -6.797763 ], [ 39.2620353, -6.797628 ], [ 39.2622294, -6.7975115 ], [ 39.2624341, -6.7974147 ], [ 39.2626473, -6.7973383 ], [ 39.262867, -6.7972832 ], [ 39.263091, -6.7972498 ], [ 39.2633171, -6.7972386 ], [ 39.2635433, -6.7972496 ], [ 39.2637674, -6.7972827 ], [ 39.2639871, -6.7973375 ], [ 39.2642004, -6.7974137 ], [ 39.2644051, -6.7975104 ], [ 39.2645995, -6.7976266 ], [ 39.2647814, -6.7977614 ], [ 39.2649493, -6.7979133 ], [ 39.2651015, -6.798081 ], [ 39.2652365, -6.7982627 ], [ 39.265353, -6.7984568 ], [ 39.26545, -6.7986614 ], [ 39.2655264, -6.7988745 ], [ 39.2655288, -6.7988842 ], [ 39.2655586, -6.7989672 ], [ 39.2656137, -6.7991867 ], [ 39.2656471, -6.7994106 ], [ 39.2656583, -6.7996367 ], [ 39.2656549, -6.7997068 ], [ 39.2656614, -6.7997502 ], [ 39.2656726, -6.7999763 ], [ 39.2656616, -6.8002024 ], [ 39.2656285, -6.8004264 ], [ 39.2655736, -6.800646 ], [ 39.2654974, -6.8008592 ] ] ] } }
]
}
