{
"type": "FeatureCollection",
"features": [
{ "type": "Feature", "properties": { "index": "0", "label": "Within 300 m on foot", "color": "#2b8cbe" }, "geometry": { "type": "MultiPolygon", "coordinates": [ [ [ [ 39.2330855, -6.842667 ], [ 39.2332224, -6.8424385 ], [ 39.2333362, -6.8421977 ], [ 39.2334259, -6.8419469 ], [ 39.2334905, -6.8416885 ], [ 39.2335295, -6.8414251 ], [ 39.2335424, -6.8411591 ], [ 39.2335292, -6.8408931 ], [ 39.23349, -6.8406297 ], [ 39.2334251, -6.8403714 ], [ 39.2333352, -6.8401207 ], [ 39.2332212, -6.83988 ], [ 39.2330841, -6.8396516 ], [ 39.2329252, -6.8394378 ], [ 39.2327462, -6.8392405 ], [ 39.2325487, -6.8390618 ], [ 39.2323346, -6.8389032 ], [ 39.232106, -6.8387664 ], [ 39.2318651, -6.8386527 ], [ 39.2316141, -6.8385631 ], [ 39.2313556, -6.8384985 ], [ 39.231092, -6.8384596 ], [ 39.2308259, -6.8384466 ], [ 39.2305598, -6.8384598 ], [ 39.2302962, -6.838499 ], [ 39.2300378, -6.8385638 ], [ 39.2297869, -6.8386537 ], [ 39.2295461, -6.8387677 ], [ 39.2293176, -6.8389047 ], [ 39.2291037, -6.8390634 ], [ 39.2289063, -6.8392424 ], [ 39.2287275, -6.8394398 ], [ 39.2285689, -6.8396538 ], [ 39.228432, -6.8398823 ], [ 39.2283182, -6.8401231 ], [ 39.2282285, -6.8403739 ], [ 39.2281639, -6.8406322 ], [ 39.2281249, -6.8408957 ], [ 39.228112, -6.8411617 ], [ 39.2281252, -6.8414277 ], [ 39.2281644, -6.8416911 ], [ 39.2282293, -6.8419494 ], [ 39.2283192, -6.8422001 ], [ 39.2284332, -6.8424408 ], [ 39.2285703, -6.8426692 ], [ 39.2287291, -6.842883 ], [ 39.2289082, -6.8430803 ], [ 39.2291057, -6.843259 ], [ 39.2293198, -6.8434176 ], [ 39.2295484, -6.8435544 ], [ 39.2297893, -6.8436681 ], [ 39.2300403, -6.8437577 ], [ 39.2302988, -6.8438223 ], [ 39.2305624, -6.8438612 ], [ 39.2308285, -6.8438742 ], [ 39.2310946, -6.843861 ], [ 39.2313582, -6.8438218 ], [ 39.2316166, -6.843757 ], [ 39.2318675, -6.8436671 ], [ 39.2321083, -6.8435531 ], [ 39.2323368, -6.8434161 ], [ 39.2325507, -6.8432574 ], [ 39.2327481, -6.8430784 ], [ 39.2329269, -6.842881 ], [ 39.2330855, -6.842667 ] ] ], [ [ [ 39.2411718, -6.836963 ], [ 39.2413087, -6.8367345 ], [ 39.2414225, -6.8364937 ], [ 39.2415122, -6.8362429 ], [ 39.2415768, -6.8359845 ], [ 39.2416157, -6.835721 ], [ 39.2416287, -6.835455 ], [ 39.2416155, -6.8351891 ], [ 39.2415762, -6.8349256 ], [ 39.2415114, -6.8346673 ], [ 39.2414215, -6.8344166 ], [ 39.2413074, -6.8341759 ], [ 39.2411703, -6.8339476 ], [ 39.2410115, -6.8337337 ], [ 39.2408325, -6.8335365 ], [ 39.2406349, -6.8333578 ], [ 39.2404208, -6.8331992 ], [ 39.2401922, -6.8330624 ], [ 39.2399513, -6.8329487 ], [ 39.2397004, -6.8328591 ], [ 39.2394419, -6.8327945 ], [ 39.2391783, -6.8327556 ], [ 39.2389122, -6.8327426 ], [ 39.238646, -6.8327558 ], [ 39.2383825, -6.832795 ], [ 39.238124, -6.8328599 ], [ 39.2378732, -6.8329497 ], [ 39.2376324, -6.8330637 ], [ 39.2374039, -6.8332007 ], [ 39.23719, -6.8333595 ], [ 39.2369926, -6.8335384 ], [ 39.2368138, -6.8337358 ], [ 39.2366552, -6.8339498 ], [ 39.2365183, -6.8341783 ], [ 39.2364045, -6.8344191 ], [ 39.2363149, -6.8346699 ], [ 39.2362502, -6.8349283 ], [ 39.2362113, -6.8351917 ], [ 39.2361983, -6.8354577 ], [ 39.2362115, -6.8357237 ], [ 39.2362508, -6.8359871 ], [ 39.2363156, -6.8362455 ], [ 39.2364055, -6.8364962 ], [ 39.2365196, -6.8367369 ], [ 39.2366567, -6.8369652 ], [ 39.2368155, -6.837179 ], [ 39.2369945, -6.8373763 ], [ 39.237192, -6.837555 ], [ 39.2374061, -6.8377136 ], [ 39.2376348, -6.8378504 ], [ 39.2378757, -6.8379641 ], [ 39.2381266, -6.8380537 ], [ 39.2383851, -6.8381183 ], [ 39.2386487, -6.8381572 ], [ 39.2389148, -6.8381702 ], [ 39.239181, -6.838157 ], [ 39.2394445, -6.8381178 ], [ 39.239703, -6.8380529 ], [ 39.2399538, -6.8379631 ], [ 39.2401946, -6.8378491 ], [ 39.2404231, -6.8377121 ], [ 39.240637, -6.8375533 ], [ 39.2408344, -6.8373744 ], [ 39.2410132, -6.837177 ], [ 39.2411718, -6.836963 ] ] ], [ [ [ 39.2466808, -6.8286728 ], [ 39.2468177, -6.8284443 ], [ 39.2469315, -6.8282035 ], [ 39.2470211, -6.8279527 ], [ 39.2470857, -6.8276944 ], [ 39.2471247, -6.8274309 ], [ 39.2471376, -6.8271649 ], [ 39.2471244, -6.8268989 ], [ 39.2470852, -6.8266355 ], [ 39.2470203, -6.8263772 ], [ 39.2469304, -6.8261265 ], [ 39.2468164, -6.8258858 ], [ 39.2466793, -6.8256575 ], [ 39.2465204, -6.8254436 ], [ 39.2463414, -6.8252464 ], [ 39.2461439, -6.8250676 ], [ 39.2459298, -6.8249091 ], [ 39.2457012, -6.8247723 ], [ 39.2454603, -6.8246586 ], [ 39.2452093, -6.824569 ], [ 39.2449508, -6.8245044 ], [ 39.2446873, -6.8244654 ], [ 39.2444211, -6.8244525 ], [ 39.244155, -6.8244657 ], [ 39.2438915, -6.8245049 ], [ 39.243633, -6.8245698 ], [ 39.2433822, -6.8246596 ], [ 39.2431414, -6.8247736 ], [ 39.2429129, -6.8249106 ], [ 39.242699, -6.8250694 ], [ 39.2425017, -6.8252483 ], [ 39.2423228, -6.8254458 ], [ 39.2421642, -6.8256597 ], [ 39.2420273, -6.8258882 ], [ 39.2419135, -6.826129 ], [ 39.2418239, -6.8263798 ], [ 39.2417593, -6.8266382 ], [ 39.2417203, -6.8269017 ], [ 39.2417074, -6.8271677 ], [ 39.2417206, -6.8274337 ], [ 39.2417598, -6.8276971 ], [ 39.2418247, -6.8279554 ], [ 39.2419146, -6.8282061 ], [ 39.2420286, -6.8284468 ], [ 39.2421657, -6.8286751 ], [ 39.2423245, -6.828889 ], [ 39.2425036, -6.8290862 ], [ 39.2427011, -6.829265 ], [ 39.2429152, -6.8294235 ], [ 39.2431438, -6.8295603 ], [ 39.2433847, -6.829674 ], [ 39.2436357, -6.8297636 ], [ 39.2438942, -6.8298282 ], [ 39.2441577, -6.8298672 ], [ 39.2444239, -6.8298801 ], [ 39.24469, -6.8298669 ], [ 39.2449535, -6.8298277 ], [ 39.245212, -6.8297628 ], [ 39.2454628, -6.829673 ], [ 39.2457036, -6.829559 ], [ 39.2459321, -6.829422 ], [ 39.246146, -6.8292632 ], [ 39.2463434, -6.8290843 ], [ 39.2465222, -6.8288868 ], [ 39.2466808, -6.8286728 ] ] ], [ [ [ 39.2262127, -6.8076469 ], [ 39.2263714, -6.8074329 ], [ 39.2265082, -6.8072045 ], [ 39.226622, -6.8069637 ], [ 39.2267117, -6.8067129 ], [ 39.2267763, -6.8064545 ], [ 39.2268153, -6.806191 ], [ 39.2268282, -6.805925 ], [ 39.226815, -6.805659 ], [ 39.2267758, -6.8053956 ], [ 39.2267109, -6.8051373 ], [ 39.2266211, -6.8048866 ], [ 39.226507, -6.8046459 ], [ 39.2263699, -6.8044175 ], [ 39.2262111, -6.8042037 ], [ 39.2260321, -6.8040065 ], [ 39.2258346, -6.8038277 ], [ 39.2256205, -6.8036692 ], [ 39.2253919, -6.8035324 ], [ 39.225151, -6.8034186 ], [ 39.2249001, -6.803329 ], [ 39.2246416, -6.8032644 ], [ 39.2243781, -6.8032255 ], [ 39.2241119, -6.8032125 ], [ 39.2238458, -6.8032257 ], [ 39.2235823, -6.8032649 ], [ 39.2233239, -6.8033297 ], [ 39.2230731, -6.8034196 ], [ 39.2228323, -6.8035335 ], [ 39.2226038, -6.8036706 ], [ 39.2223899, -6.8038293 ], [ 39.2221925, -6.8040082 ], [ 39.2220137, -6.8042057 ], [ 39.2218551, -6.8044196 ], [ 39.2217182, -6.8046481 ], [ 39.2216044, -6.8048889 ], [ 39.2215147, -6.8051397 ], [ 39.2214501, -6.8053981 ], [ 39.2214111, -6.8056615 ], [ 39.2213982, -6.8059276 ], [ 39.2214114, -6.8061935 ], [ 39.2214506, -6.806457 ], [ 39.2215155, -6.8067153 ], [ 39.2216053, -6.806966 ], [ 39.2217194, -6.8072067 ], [ 39.2218564, -6.807435 ], [ 39.2220153, -6.8076489 ], [ 39.2221943, -6.8078461 ], [ 39.2223918, -6.8080249 ], [ 39.2226059, -6.8081834 ], [ 39.2228345, -6.8083202 ], [ 39.2230754, -6.808434 ], [ 39.2233263, -6.8085236 ], [ 39.2235848, -6.8085882 ], [ 39.2238483, -6.8086271 ], [ 39.2241145, -6.8086401 ], [ 39.2243806, -6.8086269 ], [ 39.2246441, -6.8085877 ], [ 39.2249025, -6.8085229 ], [ 39.2251534, -6.808433 ], [ 39.2253942, -6.8083191 ], [ 39.2256226, -6.808182 ], [ 39.2258366, -6.8080233 ], [ 39.2260339, -6.8078443 ], [ 39.2262127, -6.8076469 ] ] ], [ [ [ 39.2385683, -6.8026155 ], [ 39.2387269, -6.8024015 ], [ 39.2388637, -6.802173 ], [ 39.2389775, -6.8019322 ], [ 39.2390672, -6.8016814 ], [ 39.2391318, -6.801423 ], [ 39.2391707, -6.8011596 ], [ 39.2391837, -6.8008936 ], [ 39.2391705, -6.8006276 ], [ 39.2391312, -6.8003642 ], [ 39.2390664, -6.8001059 ], [ 39.2389765, -6.7998551 ], [ 39.2388949, -6.7996829 ], [ 39.2389114, -6.7996787 ], [ 39.2391622, -6.7995889 ], [ 39.239403, -6.7994749 ], [ 39.2396315, -6.7993379 ], [ 39.2398454, -6.7991791 ], [ 39.2400427, -6.7990002 ], [ 39.2402215, -6.7988028 ], [ 39.2403802, -6.7985888 ], [ 39.240517, -6.7983603 ], [ 39.2406308, -6.7981195 ], [ 39.2407204, -6.7978687 ], [ 39.2407851, -6.7976103 ], [ 39.240824, -6.7973469 ], [ 39.240837, -6.7970809 ], [ 39.2408238, -6.7968149 ], [ 39.2407845, -6.7965514 ], [ 39.2407197, -6.7962931 ], [ 39.2406298, -6.7960424 ], [ 39.2405157, -6.7958017 ], [ 39.2403787, -6.7955734 ], [ 39.2402198, -6.7953596 ], [ 39.2400408, -6.7951623 ], [ 39.2398433, -6.7949836 ], [ 39.2396292, -6.794825 ], [ 39.2394006, -6.7946882 ], [ 39.2391597, -6.7945745 ], [ 39.2389088, -6.7944849 ], [ 39.2386705, -6.7944253 ], [ 39.2385716, -6.7943521 ], [ 39.238343, -6.7942153 ], [ 39.2381021, -6.7941016 ], [ 39.2378512, -6.794012 ], [ 39.2375928, -6.7939474 ], [ 39.2373292, -6.7939084 ], [ 39.2370631, -6.7938955 ], [ 39.236797, -6.7939087 ], [ 39.2365334, -6.7939479 ], [ 39.236275, -6.7940128 ], [ 39.2360242, -6.7941026 ], [ 39.2357834, -6.7942166 ], [ 39.235555, -6.7943536 ], [ 39.235341, -6.7945124 ], [ 39.2351437, -6.7946913 ], [ 39.2349649, -6.7948887 ], [ 39.2348063, -6.7951027 ], [ 39.2346694, -6.7953312 ], [ 39.2345556, -6.795572 ], [ 39.234466, -6.7958228 ], [ 39.2344014, -6.7960812 ], [ 39.2343624, -6.7963446 ], [ 39.2343494, -6.7966106 ], [ 39.2343626, -6.7968766 ], [ 39.2344019, -6.79714 ], [ 39.2344667, -6.7973983 ], [ 39.2345566, -6.797649 ], [ 39.2346706, -6.7978897 ], [ 39.2348077, -6.7981181 ], [ 39.2349665, -6.7983319 ], [ 39.2351446, -6.7985281 ], [ 39.2349592, -6.7986392 ], [ 39.2347453, -6.798798 ], [ 39.234548, -6.7989769 ], [ 39.2343692, -6.7991743 ], [ 39.2342105, -6.7993883 ], [ 39.2340737, -6.7996168 ], [ 39.2339599, -6.7998576 ], [ 39.2338702, -6.8001084 ], [ 39.2338056, -6.8003668 ], [ 39.2337667, -6.8006302 ], [ 39.2337537, -6.8008962 ], [ 39.2337669, -6.8011622 ], [ 39.2338061, -6.8014256 ], [ 39.233871, -6.8016839 ], [ 39.2339609, -6.8019346 ], [ 39.2340749, -6.8021753 ], [ 39.234212, -6.8024037 ], [ 39.2343708, -6.8026175 ], [ 39.2345499, -6.8028148 ], [ 39.2347474, -6.8029935 ], [ 39.2349614, -6.8031521 ], [ 39.23519, -6.8032889 ], [ 39.2354309, -6.8034026 ], [ 39.2356818, -6.8034922 ], [ 39.2359403, -6.8035568 ], [ 39.2362039, -6.8035958 ], [ 39.23647, -6.8036087 ], [ 39.2367361, -6.8035955 ], [ 39.2369997, -6.8035563 ], [ 39.2372581, -6.8034914 ], [ 39.2375089, -6.8034016 ], [ 39.2377497, -6.8032876 ], [ 39.2379782, -6.8031506 ], [ 39.2381921, -6.8029918 ], [ 39.2383894, -6.8028129 ], [ 39.2385683, -6.8026155 ] ] ], [ [ [ 39.2437728, -6.8002296 ], [ 39.2439869, -6.8003881 ], [ 39.2442155, -6.8005249 ], [ 39.2444474, -6.8006344 ], [ 39.2444436, -6.8007122 ], [ 39.2444568, -6.8009782 ], [ 39.2444961, -6.8012416 ], [ 39.2445609, -6.8014999 ], [ 39.2446508, -6.8017506 ], [ 39.2447649, -6.8019913 ], [ 39.2449019, -6.8022196 ], [ 39.2450608, -6.8024335 ], [ 39.2452398, -6.8026307 ], [ 39.2454373, -6.8028095 ], [ 39.2456514, -6.802968 ], [ 39.24588, -6.8031048 ], [ 39.2461209, -6.8032185 ], [ 39.2463718, -6.8033081 ], [ 39.2466303, -6.8033727 ], [ 39.2468939, -6.8034117 ], [ 39.24716, -6.8034246 ], [ 39.2474261, -6.8034114 ], [ 39.2476896, -6.8033722 ], [ 39.247948, -6.8033073 ], [ 39.2481989, -6.8032175 ], [ 39.2482379, -6.803199 ], [ 39.2483233, -6.8033792 ], [ 39.2484603, -6.8036076 ], [ 39.2486192, -6.8038214 ], [ 39.2487982, -6.8040186 ], [ 39.2489957, -6.8041974 ], [ 39.2492098, -6.8043559 ], [ 39.2494384, -6.8044927 ], [ 39.2496793, -6.8046064 ], [ 39.2499302, -6.804696 ], [ 39.2501887, -6.8047606 ], [ 39.2504523, -6.8047996 ], [ 39.2507184, -6.8048125 ], [ 39.2509845, -6.8047993 ], [ 39.251248, -6.8047601 ], [ 39.2515065, -6.8046952 ], [ 39.2517573, -6.8046054 ], [ 39.2519981, -6.8044914 ], [ 39.2522265, -6.8043543 ], [ 39.2524405, -6.8041956 ], [ 39.2526378, -6.8040166 ], [ 39.2528166, -6.8038192 ], [ 39.2529752, -6.8036052 ], [ 39.2531121, -6.8033767 ], [ 39.2532259, -6.8031359 ], [ 39.2533155, -6.8028851 ], [ 39.2533801, -6.8026267 ], [ 39.253419, -6.8023633 ], [ 39.253432, -6.8020973 ], [ 39.2534188, -6.8018313 ], [ 39.2533795, -6.8015679 ], [ 39.2533147, -6.8013096 ], [ 39.2532248, -6.8010589 ], [ 39.2531107, -6.8008182 ], [ 39.2529736, -6.8005898 ], [ 39.2528148, -6.800376 ], [ 39.2526358, -6.8001788 ], [ 39.2524383, -6.8 ], [ 39.2522242, -6.7998415 ], [ 39.2519956, -6.7997047 ], [ 39.2517547, -6.7995909 ], [ 39.2515038, -6.7995014 ], [ 39.2512453, -6.7994368 ], [ 39.2509817, -6.7993978 ], [ 39.2507156, -6.7993849 ], [ 39.2504495, -6.7993981 ], [ 39.250186, -6.7994373 ], [ 39.2499275, -6.7995022 ], [ 39.2496767, -6.799592 ], [ 39.2496377, -6.7996105 ], [ 39.2495523, -6.7994303 ], [ 39.2494152, -6.7992019 ], [ 39.2492564, -6.7989881 ], [ 39.2490774, -6.7987909 ], [ 39.2488799, -6.7986121 ], [ 39.2486658, -6.7984536 ], [ 39.2484372, -6.7983168 ], [ 39.2482053, -6.7982073 ], [ 39.2482091, -6.7981295 ], [ 39.2481959, -6.7978635 ], [ 39.2481566, -6.7976001 ], [ 39.2480918, -6.7973418 ], [ 39.2480019, -6.7970911 ], [ 39.2478878, -6.7968504 ], [ 39.2477507, -6.7966221 ], [ 39.2475919, -6.7964082 ], [ 39.2475011, -6.7963081 ], [ 39.2476162, -6.7962536 ], [ 39.2478447, -6.7961166 ], [ 39.2480586, -6.7959578 ], [ 39.2482559, -6.7957789 ], [ 39.2484348, -6.7955814 ], [ 39.2485934, -6.7953674 ], [ 39.2487302, -6.7951389 ], [ 39.248844, -6.7948981 ], [ 39.2489336, -6.7946473 ], [ 39.2489982, -6.794389 ], [ 39.2490372, -6.7941255 ], [ 39.2490501, -6.7938595 ], [ 39.2490369, -6.7935935 ], [ 39.2489977, -6.7933301 ], [ 39.2489328, -6.7930718 ], [ 39.2488429, -6.7928211 ], [ 39.2488084, -6.7927481 ], [ 39.248908, -6.7925372 ], [ 39.2489976, -6.7922864 ], [ 39.2490622, -6.7920281 ], [ 39.2491012, -6.7917646 ], [ 39.2491141, -6.7914986 ], [ 39.2491009, -6.7912326 ], [ 39.2490617, -6.7909692 ], [ 39.2489968, -6.7907109 ], [ 39.2489069, -6.7904602 ], [ 39.2487929, -6.7902195 ], [ 39.2486558, -6.7899911 ], [ 39.248497, -6.7897773 ], [ 39.248318, -6.7895801 ], [ 39.2481205, -6.7894013 ], [ 39.2479064, -6.7892428 ], [ 39.2476778, -6.789106 ], [ 39.2474369, -6.7889923 ], [ 39.247186, -6.7889027 ], [ 39.2469275, -6.7888381 ], [ 39.2466639, -6.7887991 ], [ 39.2463978, -6.7887862 ], [ 39.2461317, -6.7887994 ], [ 39.2458682, -6.7888386 ], [ 39.2456098, -6.7889035 ], [ 39.245359, -6.7889933 ], [ 39.2451182, -6.7891073 ], [ 39.2448897, -6.7892443 ], [ 39.2446758, -6.7894031 ], [ 39.2444785, -6.789582 ], [ 39.2442997, -6.7897795 ], [ 39.2441411, -6.7899934 ], [ 39.2440042, -6.7902219 ], [ 39.2438904, -6.7904627 ], [ 39.2438008, -6.7907135 ], [ 39.2437362, -6.7909719 ], [ 39.2436972, -6.7912354 ], [ 39.2436843, -6.7915014 ], [ 39.2436975, -6.7917674 ], [ 39.2437367, -6.7920308 ], [ 39.2438016, -6.7922891 ], [ 39.2438915, -6.7925398 ], [ 39.243926, -6.7926128 ], [ 39.2438264, -6.7928236 ], [ 39.2437368, -6.7930744 ], [ 39.2436722, -6.7933328 ], [ 39.2436332, -6.7935963 ], [ 39.2436203, -6.7938623 ], [ 39.2436335, -6.7941283 ], [ 39.2436727, -6.7943917 ], [ 39.2437376, -6.79465 ], [ 39.2438274, -6.7949007 ], [ 39.2439415, -6.7951414 ], [ 39.2440786, -6.7953697 ], [ 39.2442374, -6.7955836 ], [ 39.2443283, -6.7956837 ], [ 39.2442131, -6.7957382 ], [ 39.2439846, -6.7958752 ], [ 39.2437707, -6.796034 ], [ 39.2435734, -6.7962129 ], [ 39.2433945, -6.7964104 ], [ 39.2432359, -6.7966243 ], [ 39.2430991, -6.7968528 ], [ 39.2429853, -6.7970936 ], [ 39.2428956, -6.7973444 ], [ 39.242831, -6.7976028 ], [ 39.2427921, -6.7978663 ], [ 39.2427791, -6.7981323 ], [ 39.2427923, -6.7983983 ], [ 39.2428316, -6.7986617 ], [ 39.2428964, -6.79892 ], [ 39.2429863, -6.7991707 ], [ 39.2431004, -6.7994114 ], [ 39.2432375, -6.7996397 ], [ 39.2433963, -6.7998536 ], [ 39.2435753, -6.8000508 ], [ 39.2437728, -6.8002296 ] ] ], [ [ [ 39.2267973, -6.7981729 ], [ 39.2269559, -6.7979589 ], [ 39.2270928, -6.7977305 ], [ 39.2272066, -6.7974897 ], [ 39.2272962, -6.7972389 ], [ 39.2273608, -6.7969805 ], [ 39.2273998, -6.796717 ], [ 39.2274128, -6.796451 ], [ 39.2273996, -6.796185 ], [ 39.2273603, -6.7959216 ], [ 39.2272955, -6.7956633 ], [ 39.2272056, -6.7954126 ], [ 39.2270916, -6.7951719 ], [ 39.2269545, -6.7949435 ], [ 39.2267957, -6.7947297 ], [ 39.2266167, -6.7945325 ], [ 39.2264192, -6.7943537 ], [ 39.2262051, -6.7941952 ], [ 39.2259765, -6.7940584 ], [ 39.2257356, -6.7939446 ], [ 39.2254847, -6.793855 ], [ 39.2252262, -6.7937904 ], [ 39.2249627, -6.7937515 ], [ 39.2246965, -6.7937385 ], [ 39.224487, -6.7937489 ], [ 39.2244426, -6.793675 ], [ 39.2242838, -6.7934611 ], [ 39.2241048, -6.7932639 ], [ 39.2239073, -6.7930851 ], [ 39.2236932, -6.7929266 ], [ 39.2234646, -6.7927898 ], [ 39.2232237, -6.792676 ], [ 39.2229728, -6.7925864 ], [ 39.2227143, -6.7925218 ], [ 39.2224508, -6.7924829 ], [ 39.2221847, -6.7924699 ], [ 39.2219186, -6.7924831 ], [ 39.221655, -6.7925223 ], [ 39.2213966, -6.7925871 ], [ 39.2211458, -6.792677 ], [ 39.220905, -6.7927909 ], [ 39.2206765, -6.792928 ], [ 39.2204626, -6.7930867 ], [ 39.2202653, -6.7932656 ], [ 39.2200864, -6.793463 ], [ 39.22, -6.7935797 ], [ 39.22, -6.7967877 ], [ 39.220088, -6.7969063 ], [ 39.220267, -6.7971035 ], [ 39.2204645, -6.7972823 ], [ 39.2206786, -6.7974408 ], [ 39.2209072, -6.7975776 ], [ 39.2211481, -6.7976914 ], [ 39.221399, -6.797781 ], [ 39.2216575, -6.7978456 ], [ 39.221921, -6.7978845 ], [ 39.2221871, -6.7978975 ], [ 39.2223967, -6.7978871 ], [ 39.2224411, -6.797961 ], [ 39.2225999, -6.7981749 ], [ 39.2227789, -6.7983721 ], [ 39.2229764, -6.7985509 ], [ 39.2231905, -6.7987094 ], [ 39.2234191, -6.7988462 ], [ 39.22366, -6.79896 ], [ 39.2239109, -6.7990496 ], [ 39.2241694, -6.7991142 ], [ 39.2244329, -6.7991531 ], [ 39.2246991, -6.7991661 ], [ 39.2249652, -6.7991529 ], [ 39.2252287, -6.7991137 ], [ 39.2254871, -6.7990489 ], [ 39.2257379, -6.798959 ], [ 39.2259787, -6.7988451 ], [ 39.2262072, -6.798708 ], [ 39.2264211, -6.7985493 ], [ 39.2266185, -6.7983703 ], [ 39.2267973, -6.7981729 ] ] ], [ [ [ 39.2749177, -6.8406659 ], [ 39.2750545, -6.8404374 ], [ 39.2751683, -6.8401966 ], [ 39.2752579, -6.8399458 ], [ 39.2753225, -6.8396874 ], [ 39.2753615, -6.839424 ], [ 39.2753744, -6.839158 ], [ 39.2753612, -6.838892 ], [ 39.2753219, -6.8386286 ], [ 39.275257, -6.8383703 ], [ 39.2751671, -6.8381196 ], [ 39.275053, -6.8378789 ], [ 39.2749159, -6.8376505 ], [ 39.2747571, -6.8374367 ], [ 39.274578, -6.8372395 ], [ 39.2743805, -6.8370607 ], [ 39.2741664, -6.8369022 ], [ 39.2739378, -6.8367654 ], [ 39.2736968, -6.8366517 ], [ 39.2734459, -6.8365621 ], [ 39.2731874, -6.8364976 ], [ 39.2729238, -6.8364586 ], [ 39.2726577, -6.8364457 ], [ 39.2723915, -6.8364589 ], [ 39.272128, -6.8364982 ], [ 39.2718696, -6.836563 ], [ 39.2716187, -6.8366529 ], [ 39.2713779, -6.8367669 ], [ 39.2711495, -6.8369039 ], [ 39.2709355, -6.8370627 ], [ 39.2707382, -6.8372417 ], [ 39.2705594, -6.8374391 ], [ 39.2704008, -6.8376531 ], [ 39.2702639, -6.8378816 ], [ 39.2701501, -6.8381224 ], [ 39.2700605, -6.8383732 ], [ 39.2699959, -6.8386316 ], [ 39.2699569, -6.838895 ], [ 39.269944, -6.839161 ], [ 39.2699572, -6.839427 ], [ 39.2699965, -6.8396904 ], [ 39.2700614, -6.8399487 ], [ 39.2701513, -6.8401994 ], [ 39.2702653, -6.8404401 ], [ 39.2704025, -6.8406685 ], [ 39.2705613, -6.8408823 ], [ 39.2707404, -6.8410795 ], [ 39.2709379, -6.8412583 ], [ 39.271152, -6.8414168 ], [ 39.2713806, -6.8415536 ], [ 39.2716216, -6.8416673 ], [ 39.2718725, -6.8417569 ], [ 39.272131, -6.8418214 ], [ 39.2723946, -6.8418604 ], [ 39.2726607, -6.8418733 ], [ 39.2729269, -6.8418601 ], [ 39.2731904, -6.8418208 ], [ 39.2734489, -6.841756 ], [ 39.2736997, -6.8416661 ], [ 39.2739405, -6.8415521 ], [ 39.274169, -6.8414151 ], [ 39.2743829, -6.8412563 ], [ 39.2745802, -6.8410773 ], [ 39.2747591, -6.8408799 ], [ 39.2749177, -6.8406659 ] ] ], [ [ [ 39.2729328, -6.8345736 ], [ 39.2730697, -6.8343451 ], [ 39.2731835, -6.8341043 ], [ 39.2732731, -6.8338535 ], [ 39.2733377, -6.8335951 ], [ 39.2733766, -6.8333317 ], [ 39.2733896, -6.8330657 ], [ 39.2733763, -6.8327997 ], [ 39.2733371, -6.8325363 ], [ 39.2732722, -6.832278 ], [ 39.2731823, -6.8320273 ], [ 39.2730682, -6.8317866 ], [ 39.2729311, -6.8315582 ], [ 39.2727723, -6.8313444 ], [ 39.2725932, -6.8311472 ], [ 39.2723957, -6.8309685 ], [ 39.2721816, -6.8308099 ], [ 39.271953, -6.8306731 ], [ 39.271712, -6.8305594 ], [ 39.2714611, -6.8304698 ], [ 39.2712026, -6.8304053 ], [ 39.270939, -6.8303663 ], [ 39.2706729, -6.8303534 ], [ 39.2704068, -6.8303666 ], [ 39.2701432, -6.8304059 ], [ 39.2698848, -6.8304707 ], [ 39.269634, -6.8305606 ], [ 39.2693931, -6.8306746 ], [ 39.2691647, -6.8308116 ], [ 39.2689508, -6.8309704 ], [ 39.2687534, -6.8311493 ], [ 39.2685746, -6.8313468 ], [ 39.268416, -6.8315608 ], [ 39.2682791, -6.8317893 ], [ 39.2681653, -6.8320301 ], [ 39.2680757, -6.8322809 ], [ 39.2680111, -6.8325393 ], [ 39.2679722, -6.8328027 ], [ 39.2679592, -6.8330687 ], [ 39.2679725, -6.8333347 ], [ 39.2680117, -6.8335981 ], [ 39.2680766, -6.8338564 ], [ 39.2681665, -6.8341071 ], [ 39.2682806, -6.8343478 ], [ 39.2684177, -6.8345762 ], [ 39.2685765, -6.83479 ], [ 39.2687556, -6.8349872 ], [ 39.2689531, -6.8351659 ], [ 39.2691672, -6.8353245 ], [ 39.2693958, -6.8354613 ], [ 39.2696368, -6.835575 ], [ 39.2698877, -6.8356646 ], [ 39.2701462, -6.8357291 ], [ 39.2704098, -6.8357681 ], [ 39.2706759, -6.835781 ], [ 39.2709421, -6.8357678 ], [ 39.2712056, -6.8357285 ], [ 39.271464, -6.8356637 ], [ 39.2717149, -6.8355738 ], [ 39.2719557, -6.8354598 ], [ 39.2721841, -6.8353228 ], [ 39.2723981, -6.835164 ], [ 39.2725954, -6.834985 ], [ 39.2727742, -6.8347876 ], [ 39.2729328, -6.8345736 ] ] ], [ [ [ 39.2964353, -6.8132754 ], [ 39.2965939, -6.8130614 ], [ 39.2967307, -6.8128329 ], [ 39.2968445, -6.8125921 ], [ 39.2969341, -6.8123413 ], [ 39.2969987, -6.8120829 ], [ 39.2970376, -6.8118194 ], [ 39.2970505, -6.8115534 ], [ 39.2970373, -6.8112875 ], [ 39.296998, -6.811024 ], [ 39.2969494, -6.8108305 ], [ 39.2970434, -6.8107968 ], [ 39.2972842, -6.8106827 ], [ 39.2975127, -6.8105457 ], [ 39.2977266, -6.8103869 ], [ 39.2979239, -6.8102079 ], [ 39.2981027, -6.8100105 ], [ 39.2982613, -6.8097965 ], [ 39.2983981, -6.809568 ], [ 39.2985119, -6.8093272 ], [ 39.2986015, -6.8090764 ], [ 39.2986661, -6.808818 ], [ 39.298705, -6.8085545 ], [ 39.2987179, -6.8082885 ], [ 39.2987047, -6.8080225 ], [ 39.2986654, -6.8077591 ], [ 39.2986005, -6.8075008 ], [ 39.2985106, -6.8072501 ], [ 39.2983965, -6.8070095 ], [ 39.2982594, -6.8067811 ], [ 39.2981006, -6.8065673 ], [ 39.2979215, -6.8063701 ], [ 39.297724, -6.8061914 ], [ 39.2975099, -6.8060329 ], [ 39.2972813, -6.8058961 ], [ 39.2970403, -6.8057824 ], [ 39.2967894, -6.8056928 ], [ 39.2965309, -6.8056282 ], [ 39.2962674, -6.8055893 ], [ 39.2960012, -6.8055764 ], [ 39.2957351, -6.8055897 ], [ 39.2954716, -6.8056289 ], [ 39.2952132, -6.8056938 ], [ 39.2949624, -6.8057836 ], [ 39.2947216, -6.8058976 ], [ 39.2944931, -6.8060347 ], [ 39.2942792, -6.8061935 ], [ 39.2940819, -6.8063724 ], [ 39.2939031, -6.8065699 ], [ 39.2937445, -6.8067839 ], [ 39.2936077, -6.8070124 ], [ 39.2934939, -6.8072532 ], [ 39.2934043, -6.807504 ], [ 39.2933397, -6.8077624 ], [ 39.2933008, -6.8080259 ], [ 39.2932879, -6.8082919 ], [ 39.2933011, -6.8085578 ], [ 39.2933404, -6.8088213 ], [ 39.293389, -6.8090148 ], [ 39.293295, -6.8090485 ], [ 39.2930542, -6.8091625 ], [ 39.2928257, -6.8092996 ], [ 39.2926118, -6.8094584 ], [ 39.2924145, -6.8096373 ], [ 39.2922357, -6.8098348 ], [ 39.2920771, -6.8100488 ], [ 39.2919403, -6.8102773 ], [ 39.2918265, -6.8105181 ], [ 39.2917369, -6.8107689 ], [ 39.2916723, -6.8110273 ], [ 39.2916334, -6.8112907 ], [ 39.2916205, -6.8115567 ], [ 39.2916337, -6.8118227 ], [ 39.291673, -6.8120861 ], [ 39.2917379, -6.8123444 ], [ 39.2918278, -6.8125951 ], [ 39.2919418, -6.8128358 ], [ 39.292079, -6.8130642 ], [ 39.2922378, -6.813278 ], [ 39.2924168, -6.8134752 ], [ 39.2926144, -6.8136539 ], [ 39.2928285, -6.8138124 ], [ 39.2930571, -6.8139492 ], [ 39.293298, -6.8140629 ], [ 39.2935489, -6.8141525 ], [ 39.2938074, -6.8142171 ], [ 39.294071, -6.814256 ], [ 39.2943372, -6.8142689 ], [ 39.2946033, -6.8142556 ], [ 39.2948668, -6.8142164 ], [ 39.2951252, -6.8141515 ], [ 39.295376, -6.8140617 ], [ 39.2956168, -6.8139477 ], [ 39.2958453, -6.8138106 ], [ 39.2960592, -6.8136518 ], [ 39.2962565, -6.8134729 ], [ 39.2964353, -6.8132754 ] ] ], [ [ [ 39.2654645, -6.8016981 ], [ 39.2656231, -6.8014841 ], [ 39.26576, -6.8012556 ], [ 39.2658738, -6.8010147 ], [ 39.2659634, -6.8007639 ], [ 39.266028, -6.8005056 ], [ 39.2660669, -6.8002421 ], [ 39.2660799, -6.7999761 ], [ 39.2660666, -6.7997101 ], [ 39.2660631, -6.7996865 ], [ 39.2660656, -6.7996365 ], [ 39.2660523, -6.7993705 ], [ 39.2660131, -6.7991071 ], [ 39.2659482, -6.7988488 ], [ 39.2659185, -6.7987658 ], [ 39.265916, -6.7987561 ], [ 39.2658261, -6.7985054 ], [ 39.2657121, -6.7982647 ], [ 39.265575, -6.7980364 ], [ 39.2654162, -6.7978225 ], [ 39.2652371, -6.7976253 ], [ 39.2650396, -6.7974466 ], [ 39.2648255, -6.797288 ], [ 39.2645969, -6.7971513 ], [ 39.264356, -6.7970375 ], [ 39.2641051, -6.7969479 ], [ 39.2638466, -6.7968834 ], [ 39.263583, -6.7968444 ], [ 39.2633169, -6.7968315 ], [ 39.2630508, -6.7968447 ], [ 39.2627873, -6.7968839 ], [ 39.2625289, -6.7969488 ], [ 39.2622781, -6.7970387 ], [ 39.2620373, -6.7971527 ], [ 39.2618088, -6.7972897 ], [ 39.2615949, -6.7974485 ], [ 39.2613976, -6.7976274 ], [ 39.2612188, -6.7978248 ], [ 39.2610602, -6.7980388 ], [ 39.2609233, -6.7982673 ], [ 39.2608095, -6.7985081 ], [ 39.2607199, -6.7987589 ], [ 39.2606553, -6.7990173 ], [ 39.2606164, -6.7992808 ], [ 39.2606034, -6.7995468 ], [ 39.2606167, -6.7998128 ], [ 39.2606542, -6.8000648 ], [ 39.2606631, -6.8002451 ], [ 39.2607024, -6.8005085 ], [ 39.2607673, -6.8007668 ], [ 39.2608572, -6.8010175 ], [ 39.2609712, -6.8012582 ], [ 39.2611083, -6.8014865 ], [ 39.2612671, -6.8017003 ], [ 39.2614462, -6.8018976 ], [ 39.2616437, -6.8020763 ], [ 39.2618578, -6.8022348 ], [ 39.2620864, -6.8023716 ], [ 39.2623273, -6.8024854 ], [ 39.2625782, -6.802575 ], [ 39.2628367, -6.8026395 ], [ 39.2631003, -6.8026785 ], [ 39.2633664, -6.8026914 ], [ 39.2636325, -6.8026782 ], [ 39.263896, -6.8026389 ], [ 39.2641544, -6.8025741 ], [ 39.2644052, -6.8024842 ], [ 39.264646, -6.8023702 ], [ 39.2648745, -6.8022332 ], [ 39.2650884, -6.8020744 ], [ 39.2652857, -6.8018955 ], [ 39.2654645, -6.8016981 ] ] ] ] } },
{ "type": "Feature", "properties": { "index": "1", "label": "Beyond 300 m", "color": "#d9d9d9" }, "geometry": { "type": "MultiPolygon", "coordinates": [ [ [ [ 39.22, -6.85 ], [ 39.3, -6.85 ], [ 39.3, -6.78 ], [ 39.22, -6.78 ], [ 39.22, -6.7935797 ], [ 39.2200864, -6.793463 ], [ 39.2202653, -6.7932656 ], [ 39.2204626, -6.7930867 ], [ 39.2206765, -6.792928 ], [ 39.220905, -6.7927909 ], [ 39.2211458, -6.792677 ], [ 39.2213966, -6.7925871 ], [ 39.221655, -6.7925223 ], [ 39.2219186, -6.7924831 ], [ 39.2221847, -6.7924699 ], [ 39.2224508, -6.7924829 ], [ 39.2227143, -6.7925218 ], [ 39.2229728, -6.7925864 ], [ 39.2232237, -6.792676 ], [ 39.2234646, -6.7927898 ], [ 39.2236932, -6.7929266 ], [ 39.2239073, -6.7930851 ], [ 39.2241048, -6.7932639 ], [ 39.2242838, -6.7934611 ], [ 39.2244426, -6.793675 ], [ 39.224487, -6.7937489 ], [ 39.2246965, -6.7937385 ], [ 39.2249627, -6.7937515 ], [ 39.2252262, -6.7937904 ], [ 39.2254847, -6.793855 ], [ 39.2257356, -6.7939446 ], [ 39.2259765, -6.7940584 ], [ 39.2262051, -6.7941952 ], [ 39.2264192, -6.7943537 ], [ 39.2266167, -6.7945325 ], [ 39.2267957, -6.7947297 ], [ 39.2269545, -6.7949435 ], [ 39.2270916, -6.7951719 ], [ 39.2272056, -6.7954126 ], [ 39.2272955, -6.7956633 ], [ 39.2273603, -6.7959216 ], [ 39.2273996, -6.796185 ], [ 39.2274128, -6.796451 ], [ 39.2273998, -6.796717 ], [ 39.2273608, -6.7969805 ], [ 39.2272962, -6.7972389 ], [ 39.2272066, -6.7974897 ], [ 39.2270928, -6.7977305 ], [ 39.2269559, -6.7979589 ], [ 39.2267973, -6.7981729 ], [ 39.2266185, -6.7983703 ], [ 39.2264211, -6.7985493 ], [ 39.2262072, -6.798708 ], [ 39.2259787, -6.7988451 ], [ 39.2257379, -6.798959 ], [ 39.2254871, -6.7990489 ], [ 39.2252287, -6.7991137 ], [ 39.2249652, -6.7991529 ], [ 39.2246991, -6.7991661 ], [ 39.2244329, -6.7991531 ], [ 39.2241694, -6.7991142 ], [ 39.2239109, -6.7990496 ], [ 39.22366, -6.79896 ], [ 39.2234191, -6.7988462 ], [ 39.2231905, -6.7987094 ], [ 39.2229764, -6.7985509 ], [ 39.2227789, -6.7983721 ], [ 39.2225999, -6.7981749 ], [ 39.2224411, -6.797961 ], [ 39.2223967, -6.7978871 ], [ 39.2221871, -6.7978975 ], [ 39.221921, -6.7978845 ], [ 39.2216575, -6.7978456 ], [ 39.221399, -6.797781 ], [ 39.2211481, -6.7976914 ], [ 39.2209072, -6.7975776 ], [ 39.2206786, -6.7974408 ], [ 39.2204645, -6.7972823 ], [ 39.220267, -6.7971035 ], [ 39.220088, -6.7969063 ], [ 39.22, -6.7967877 ], [ 39.22, -6.85 ] ], [ [ 39.2335295, -6.8414251 ], [ 39.2334905, -6.8416885 ], [ 39.2334259, -6.8419469 ], [ 39.2333362, -6.8421977 ], [ 39.2332224, -6.8424385 ], [ 39.2330855, -6.842667 ], [ 39.2329269, -6.842881 ], [ 39.2327481, -6.8430784 ], [ 39.2325507, -6.8432574 ], [ 39.2323368, -6.8434161 ], [ 39.2321083, -6.8435531 ], [ 39.2318675, -6.8436671 ], [ 39.2316166, -6.843757 ], [ 39.2313582, -6.8438218 ], [ 39.2310946, -6.843861 ], [ 39.2308285, -6.8438742 ], [ 39.2305624, -6.8438612 ], [ 39.2302988, -6.8438223 ], [ 39.2300403, -6.8437577 ], [ 39.2297893, -6.8436681 ], [ 39.2295484, -6.8435544 ], [ 39.2293198, -6.8434176 ], [ 39.2291057, -6.843259 ], [ 39.2289082, -6.8430803 ], [ 39.2287291, -6.842883 ], [ 39.2285703, -6.8426692 ], [ 39.2284332, -6.8424408 ], [ 39.2283192, -6.8422001 ], [ 39.2282293, -6.8419494 ], [ 39.2281644, -6.8416911 ], [ 39.2281252, -6.8414277 ], [ 39.228112, -6.8411617 ], [ 39.2281249, -6.8408957 ], [ 39.2281639, -6.8406322 ], [ 39.2282285, -6.8403739 ], [ 39.2283182, -6.8401231 ], [ 39.228432, -6.8398823 ], [ 39.2285689, -6.8396538 ], [ 39.2287275, -6.8394398 ], [ 39.2289063, -6.8392424 ], [ 39.2291037, -6.8390634 ], [ 39.2293176, -6.8389047 ], [ 39.2295461, -6.8387677 ], [ 39.2297869, -6.8386537 ], [ 39.2300378, -6.8385638 ], [ 39.2302962, -6.838499 ], [ 39.2305598, -6.8384598 ], [ 39.2308259, -6.8384466 ], [ 39.231092, -6.8384596 ], [ 39.2313556, -6.8384985 ], [ 39.2316141, -6.8385631 ], [ 39.2318651, -6.8386527 ], [ 39.232106, -6.8387664 ], [ 39.2323346, -6.8389032 ], [ 39.2325487, -6.8390618 ], [ 39.2327462, -6.8392405 ], [ 39.2329252, -6.8394378 ], [ 39.2330841, -6.8396516 ], [ 39.2332212, -6.83988 ], [ 39.2333352, -6.8401207 ], [ 39.2334251, -6.8403714 ], [ 39.23349, -6.8406297 ], [ 39.2335292, -6.8408931 ], [ 39.2335424, -6.8411591 ], [ 39.2335295, -6.8414251 ] ], [ [ 39.2416157, -6.835721 ], [ 39.2415768, -6.8359845 ], [ 39.2415122, -6.8362429 ], [ 39.2414225, -6.8364937 ], [ 39.2413087, -6.8367345 ], [ 39.2411718, -6.836963 ], [ 39.2410132, -6.837177 ], [ 39.2408344, -6.8373744 ], [ 39.240637, -6.8375533 ], [ 39.2404231, -6.8377121 ], [ 39.2401946, -6.8378491 ], [ 39.2399538, -6.8379631 ], [ 39.239703, -6.8380529 ], [ 39.2394445, -6.8381178 ], [ 39.239181, -6.838157 ], [ 39.2389148, -6.8381702 ], [ 39.2386487, -6.8381572 ], [ 39.2383851, -6.8381183 ], [ 39.2381266, -6.8380537 ], [ 39.2378757, -6.8379641 ], [ 39.2376348, -6.8378504 ], [ 39.2374061, -6.8377136 ], [ 39.237192, -6.837555 ], [ 39.2369945, -6.8373763 ], [ 39.2368155, -6.837179 ], [ 39.2366567, -6.8369652 ], [ 39.2365196, -6.8367369 ], [ 39.2364055, -6.8364962 ], [ 39.2363156, -6.8362455 ], [ 39.2362508, -6.8359871 ], [ 39.2362115, -6.8357237 ], [ 39.2361983, -6.8354577 ], [ 39.2362113, -6.8351917 ], [ 39.2362502, -6.8349283 ], [ 39.2363149, -6.8346699 ], [ 39.2364045, -6.8344191 ], [ 39.2365183, -6.8341783 ], [ 39.2366552, -6.8339498 ], [ 39.2368138, -6.8337358 ], [ 39.2369926, -6.8335384 ], [ 39.23719, -6.8333595 ], [ 39.2374039, -6.8332007 ], [ 39.2376324, -6.8330637 ], [ 39.2378732, -6.8329497 ], [ 39.238124, -6.8328599 ], [ 39.2383825, -6.832795 ], [ 39.238646, -6.8327558 ], [ 39.2389122, -6.8327426 ], [ 39.2391783, -6.8327556 ], [ 39.2394419, -6.8327945 ], [ 39.2397004, -6.8328591 ], [ 39.2399513, -6.8329487 ], [ 39.2401922, -6.8330624 ], [ 39.2404208, -6.8331992 ], [ 39.2406349, -6.8333578 ], [ 39.2408325, -6.8335365 ], [ 39.2410115, -6.8337337 ], [ 39.2411703, -6.8339476 ], [ 39.2413074, -6.8341759 ], [ 39.2414215, -6.8344166 ], [ 39.2415114, -6.8346673 ], [ 39.2415762, -6.8349256 ], [ 39.2416155, -6.8351891 ], [ 39.2416287, -6.835455 ], [ 39.2416157, -6.835721 ] ], [ [ 39.2471247, -6.8274309 ], [ 39.2470857, -6.8276944 ], [ 39.2470211, -6.8279527 ], [ 39.2469315, -6.8282035 ], [ 39.2468177, -6.8284443 ], [ 39.2466808, -6.8286728 ], [ 39.2465222, -6.8288868 ], [ 39.2463434, -6.8290843 ], [ 39.246146, -6.8292632 ], [ 39.2459321, -6.829422 ], [ 39.2457036, -6.829559 ], [ 39.2454628, -6.829673 ], [ 39.245212, -6.8297628 ], [ 39.2449535, -6.8298277 ], [ 39.24469, -6.8298669 ], [ 39.2444239, -6.8298801 ], [ 39.2441577, -6.8298672 ], [ 39.2438942, -6.8298282 ], [ 39.2436357, -6.8297636 ], [ 39.2433847, -6.829674 ], [ 39.2431438, -6.8295603 ], [ 39.2429152, -6.8294235 ], [ 39.2427011, -6.829265 ], [ 39.2425036, -6.8290862 ], [ 39.2423245, -6.828889 ], [ 39.2421657, -6.8286751 ], [ 39.2420286, -6.8284468 ], [ 39.2419146, -6.8282061 ], [ 39.2418247, -6.8279554 ], [ 39.2417598, -6.8276971 ], [ 39.2417206, -6.8274337 ], [ 39.2417074, -6.8271677 ], [ 39.2417203, -6.8269017 ], [ 39.2417593, -6.8266382 ], [ 39.2418239, -6.8263798 ], [ 39.2419135, -6.826129 ], [ 39.2420273, -6.8258882 ], [ 39.2421642, -6.8256597 ], [ 39.2423228, -6.8254458 ], [ 39.2425017, -6.8252483 ], [ 39.242699, -6.8250694 ], [ 39.2429129, -6.8249106 ], [ 39.2431414, -6.8247736 ], [ 39.2433822, -6.8246596 ], [ 39.243633, -6.8245698 ], [ 39.2438915, -6.8245049 ], [ 39.244155, -6.8244657 ], [ 39.2444211, -6.8244525 ], [ 39.2446873, -6.8244654 ], [ 39.2449508, -6.8245044 ], [ 39.2452093, -6.824569 ], [ 39.2454603, -6.8246586 ], [ 39.2457012, -6.8247723 ], [ 39.2459298, -6.8249091 ], [ 39.2461439, -6.8250676 ], [ 39.2463414, -6.8252464 ], [ 39.2465204, -6.8254436 ], [ 39.2466793, -6.8256575 ], [ 39.2468164, -6.8258858 ], [ 39.2469304, -6.8261265 ], [ 39.2470203, -6.8263772 ], [ 39.2470852, -6.8266355 ], [ 39.2471244, -6.8268989 ], [ 39.2471376, -6.8271649 ], [ 39.2471247, -6.8274309 ] ], [ [ 39.2267763, -6.8064545 ], [ 39.2267117, -6.8067129 ], [ 39.226622, -6.8069637 ], [ 39.2265082, -6.8072045 ], [ 39.2263714, -6.8074329 ], [ 39.2262127, -6.8076469 ], [ 39.2260339, -6.8078443 ], [ 39.2258366, -6.8080233 ], [ 39.2256226, -6.808182 ], [ 39.2253942, -6.8083191 ], [ 39.2251534, -6.808433 ], [ 39.2249025, -6.8085229 ], [ 39.2246441, -6.8085877 ], [ 39.2243806, -6.8086269 ], [ 39.2241145, -6.8086401 ], [ 39.2238483, -6.8086271 ], [ 39.2235848, -6.8085882 ], [ 39.2233263, -6.8085236 ], [ 39.2230754, -6.808434 ], [ 39.2228345, -6.8083202 ], [ 39.2226059, -6.8081834 ], [ 39.2223918, -6.8080249 ], [ 39.2221943, -6.8078461 ], [ 39.2220153, -6.8076489 ], [ 39.2218564, -6.807435 ], [ 39.2217194, -6.8072067 ], [ 39.2216053, -6.806966 ], [ 39.2215155, -6.8067153 ], [ 39.2214506, -6.806457 ], [ 39.2214114, -6.8061935 ], [ 39.2213982, -6.8059276 ], [ 39.2214111, -6.8056615 ], [ 39.2214501, -6.8053981 ], [ 39.2215147, -6.8051397 ], [ 39.2216044, -6.8048889 ], [ 39.2217182, -6.8046481 ], [ 39.2218551, -6.8044196 ], [ 39.2220137, -6.8042057 ], [ 39.2221925, -6.8040082 ], [ 39.2223899, -6.8038293 ], [ 39.2226038, -6.8036706 ], [ 39.2228323, -6.8035335 ], [ 39.2230731, -6.8034196 ], [ 39.2233239, -6.8033297 ], [ 39.2235823, -6.8032649 ], [ 39.2238458, -6.8032257 ], [ 39.2241119, -6.8032125 ], [ 39.2243781, -6.8032255 ], [ 39.2246416, -6.8032644 ], [ 39.2249001, -6.803329 ], [ 39.225151, -6.8034186 ], [ 39.2253919, -6.8035324 ], [ 39.2256205, -6.8036692 ], [ 39.2258346, -6.8038277 ], [ 39.2260321, -6.8040065 ], [ 39.2262111, -6.8042037 ], [ 39.2263699, -6.8044175 ], [ 39.226507, -6.8046459 ], [ 39.2266211, -6.8048866 ], [ 39.2267109, -6.8051373 ], [ 39.2267758, -6.8053956 ], [ 39.226815, -6.805659 ], [ 39.2268282, -6.805925 ], [ 39.2268153, -6.806191 ], [ 39.2267763, -6.8064545 ] ], [ [ 39.2391318, -6.801423 ], [ 39.2390672, -6.8016814 ], [ 39.2389775, -6.8019322 ], [ 39.2388637, -6.802173 ], [ 39.2387269, -6.8024015 ], [ 39.2385683, -6.8026155 ], [ 39.2383894, -6.8028129 ], [ 39.2381921, -6.8029918 ], [ 39.2379782, -6.8031506 ], [ 39.2377497, -6.8032876 ], [ 39.2375089, -6.8034016 ], [ 39.2372581, -6.8034914 ], [ 39.2369997, -6.8035563 ], [ 39.2367361, -6.8035955 ], [ 39.23647, -6.8036087 ], [ 39.2362039, -6.8035958 ], [ 39.2359403, -6.8035568 ], [ 39.2356818, -6.8034922 ], [ 39.2354309, -6.8034026 ], [ 39.23519, -6.8032889 ], [ 39.2349614, -6.8031521 ], [ 39.2347474, -6.8029935 ], [ 39.2345499, -6.8028148 ], [ 39.2343708, -6.8026175 ], [ 39.234212, -6.8024037 ], [ 39.2340749, -6.8021753 ], [ 39.2339609, -6.8019346 ], [ 39.233871, -6.8016839 ], [ 39.2338061, -6.8014256 ], [ 39.2337669, -6.8011622 ], [ 39.2337537, -6.8008962 ], [ 39.2337667, -6.8006302 ], [ 39.2338056, -6.8003668 ], [ 39.2338702, -6.8001084 ], [ 39.2339599, -6.7998576 ], [ 39.2340737, -6.7996168 ], [ 39.2342105, -6.7993883 ], [ 39.2343692, -6.7991743 ], [ 39.234548, -6.7989769 ], [ 39.2347453, -6.798798 ], [ 39.2349592, -6.7986392 ], [ 39.2351446, -6.7985281 ], [ 39.2349665, -6.7983319 ], [ 39.2348077, -6.7981181 ], [ 39.2346706, -6.7978897 ], [ 39.2345566, -6.797649 ], [ 39.2344667, -6.7973983 ], [ 39.2344019, -6.79714 ], [ 39.2343626, -6.7968766 ], [ 39.2343494, -6.7966106 ], [ 39.2343624, -6.7963446 ], [ 39.2344014, -6.7960812 ], [ 39.234466, -6.7958228 ], [ 39.2345556, -6.795572 ], [ 39.2346694, -6.7953312 ], [ 39.2348063, -6.7951027 ], [ 39.2349649, -6.7948887 ], [ 39.2351437, -6.7946913 ], [ 39.235341, -6.7945124 ], [ 39.235555, -6.7943536 ], [ 39.2357834, -6.7942166 ], [ 39.2360242, -6.7941026 ], [ 39.236275, -6.7940128 ], [ 39.2365334, -6.7939479 ], [ 39.236797, -6.7939087 ], [ 39.2370631, -6.7938955 ], [ 39.2373292, -6.7939084 ], [ 39.2375928, -6.7939474 ], [ 39.2378512, -6.794012 ], [ 39.2381021, -6.7941016 ], [ 39.238343, -6.7942153 ], [ 39.2385716, -6.7943521 ], [ 39.2386705, -6.7944253 ], [ 39.2389088, -6.7944849 ], [ 39.2391597, -6.7945745 ], [ 39.2394006, -6.7946882 ], [ 39.2396292, -6.794825 ], [ 39.2398433, -6.7949836 ], [ 39.2400408, -6.7951623 ], [ 39.2402198, -6.7953596 ], [ 39.2403787, -6.7955734 ], [ 39.2405157, -6.7958017 ], [ 39.2406298, -6.7960424 ], [ 39.2407197, -6.7962931 ], [ 39.2407845, -6.7965514 ], [ 39.2408238, -6.7968149 ], [ 39.240837, -6.7970809 ], [ 39.240824, -6.7973469 ], [ 39.2407851, -6.7976103 ], [ 39.2407204, -6.7978687 ], [ 39.2406308, -6.7981195 ], [ 39.240517, -6.7983603 ], [ 39.2403802, -6.7985888 ], [ 39.2402215, -6.7988028 ], [ 39.2400427, -6.7990002 ], [ 39.2398454, -6.7991791 ], [ 39.2396315, -6.7993379 ], [ 39.239403, -6.7994749 ], [ 39.2391622, -6.7995889 ], [ 39.2389114, -6.7996787 ], [ 39.2388949, -6.7996829 ], [ 39.2389765, -6.7998551 ], [ 39.2390664, -6.8001059 ], [ 39.2391312, -6.8003642 ], [ 39.2391705, -6.8006276 ], [ 39.2391837, -6.8008936 ], [ 39.2391707, -6.8011596 ], [ 39.2391318, -6.801423 ] ], [ [ 39.2444568, -6.8009782 ], [ 39.2444436, -6.8007122 ], [ 39.2444474, -6.8006344 ], [ 39.2442155, -6.8005249 ], [ 39.2439869, -6.8003881 ], [ 39.2437728, -6.8002296 ], [ 39.2435753, -6.8000508 ], [ 39.2433963, -6.7998536 ], [ 39.2432375, -6.7996397 ], [ 39.2431004, -6.7994114 ], [ 39.2429863, -6.7991707 ], [ 39.2428964, -6.79892 ], [ 39.2428316, -6.7986617 ], [ 39.2427923, -6.7983983 ], [ 39.2427791, -6.7981323 ], [ 39.2427921, -6.7978663 ], [ 39.242831, -6.7976028 ], [ 39.2428956, -6.7973444 ], [ 39.2429853, -6.7970936 ], [ 39.2430991, -6.7968528 ], [ 39.2432359, -6.7966243 ], [ 39.2433945, -6.7964104 ], [ 39.2435734, -6.7962129 ], [ 39.2437707, -6.796034 ], [ 39.2439846, -6.7958752 ], [ 39.2442131, -6.7957382 ], [ 39.2443283, -6.7956837 ], [ 39.2442374, -6.7955836 ], [ 39.2440786, -6.7953697 ], [ 39.2439415, -6.7951414 ], [ 39.2438274, -6.7949007 ], [ 39.2437376, -6.79465 ], [ 39.2436727, -6.7943917 ], [ 39.2436335, -6.7941283 ], [ 39.2436203, -6.7938623 ], [ 39.2436332, -6.7935963 ], [ 39.2436722, -6.7933328 ], [ 39.2437368, -6.7930744 ], [ 39.2438264, -6.7928236 ], [ 39.243926, -6.7926128 ], [ 39.2438915, -6.7925398 ], [ 39.2438016, -6.7922891 ], [ 39.2437367, -6.7920308 ], [ 39.2436975, -6.7917674 ], [ 39.2436843, -6.7915014 ], [ 39.2436972, -6.7912354 ], [ 39.2437362, -6.7909719 ], [ 39.2438008, -6.7907135 ], [ 39.2438904, -6.7904627 ], [ 39.2440042, -6.7902219 ], [ 39.2441411, -6.7899934 ], [ 39.2442997, -6.7897795 ], [ 39.2444785, -6.789582 ], [ 39.2446758, -6.7894031 ], [ 39.2448897, -6.7892443 ], [ 39.2451182, -6.7891073 ], [ 39.245359, -6.7889933 ], [ 39.2456098, -6.7889035 ], [ 39.2458682, -6.7888386 ], [ 39.2461317, -6.7887994 ], [ 39.2463978, -6.7887862 ], [ 39.2466639, -6.7887991 ], [ 39.2469275, -6.7888381 ], [ 39.247186, -6.7889027 ], [ 39.2474369, -6.7889923 ], [ 39.2476778, -6.789106 ], [ 39.2479064, -6.7892428 ], [ 39.2481205, -6.7894013 ], [ 39.248318, -6.7895801 ], [ 39.248497, -6.7897773 ], [ 39.2486558, -6.7899911 ], [ 39.2487929, -6.7902195 ], [ 39.2489069, -6.7904602 ], [ 39.2489968, -6.7907109 ], [ 39.2490617, -6.7909692 ], [ 39.2491009, -6.7912326 ], [ 39.2491141, -6.7914986 ], [ 39.2491012, -6.7917646 ], [ 39.2490622, -6.7920281 ], [ 39.2489976, -6.7922864 ], [ 39.248908, -6.7925372 ], [ 39.2488084, -6.7927481 ], [ 39.2488429, -6.7928211 ], [ 39.2489328, -6.7930718 ], [ 39.2489977, -6.7933301 ], [ 39.2490369, -6.7935935 ], [ 39.2490501, -6.7938595 ], [ 39.2490372, -6.7941255 ], [ 39.2489982, -6.794389 ], [ 39.2489336, -6.7946473 ], [ 39.248844, -6.7948981 ], [ 39.2487302, -6.7951389 ], [ 39.2485934, -6.7953674 ], [ 39.2484348, -6.7955814 ], [ 39.2482559, -6.7957789 ], [ 39.2480586, -6.7959578 ], [ 39.2478447, -6.7961166 ], [ 39.2476162, -6.7962536 ], [ 39.2475011, -6.7963081 ], [ 39.2475919, -6.7964082 ], [ 39.2477507, -6.7966221 ], [ 39.2478878, -6.7968504 ], [ 39.2480019, -6.7970911 ], [ 39.2480918, -6.7973418 ], [ 39.2481566, -6.7976001 ], [ 39.2481959, -6.7978635 ], [ 39.2482091, -6.7981295 ], [ 39.2482053, -6.7982073 ], [ 39.2484372, -6.7983168 ], [ 39.2486658, -6.7984536 ], [ 39.2488799, -6.7986121 ], [ 39.2490774, -6.7987909 ], [ 39.2492564, -6.7989881 ], [ 39.2494152, -6.7992019 ], [ 39.2495523, -6.7994303 ], [ 39.2496377, -6.7996105 ], [ 39.2496767, -6.799592 ], [ 39.2499275, -6.7995022 ], [ 39.250186, -6.7994373 ], [ 39.2504495, -6.7993981 ], [ 39.2507156, -6.7993849 ], [ 39.2509817, -6.7993978 ], [ 39.2512453, -6.7994368 ], [ 39.2515038, -6.7995014 ], [ 39.2517547, -6.7995909 ], [ 39.2519956, -6.7997047 ], [ 39.2522242, -6.7998415 ], [ 39.2524383, -6.8 ], [ 39.2526358, -6.8001788 ], [ 39.2528148, -6.800376 ], [ 39.2529736, -6.8005898 ], [ 39.2531107, -6.8008182 ], [ 39.2532248, -6.8010589 ], [ 39.2533147, -6.8013096 ], [ 39.2533795, -6.8015679 ], [ 39.2534188, -6.8018313 ], [ 39.253432, -6.8020973 ], [ 39.253419, -6.8023633 ], [ 39.2533801, -6.8026267 ], [ 39.2533155, -6.8028851 ], [ 39.2532259, -6.8031359 ], [ 39.2531121, -6.8033767 ], [ 39.2529752, -6.8036052 ], [ 39.2528166, -6.8038192 ], [ 39.2526378, -6.8040166 ], [ 39.2524405, -6.8041956 ], [ 39.2522265, -6.8043543 ], [ 39.2519981, -6.8044914 ], [ 39.2517573, -6.8046054 ], [ 39.2515065, -6.8046952 ], [ 39.251248, -6.8047601 ], [ 39.2509845, -6.8047993 ], [ 39.2507184, -6.8048125 ], [ 39.2504523, -6.8047996 ], [ 39.2501887, -6.8047606 ], [ 39.2499302, -6.804696 ], [ 39.2496793, -6.8046064 ], [ 39.2494384, -6.8044927 ], [ 39.2492098, -6.8043559 ], [ 39.2489957, -6.8041974 ], [ 39.2487982, -6.8040186 ], [ 39.2486192, -6.8038214 ], [ 39.2484603, -6.8036076 ], [ 39.2483233, -6.8033792 ], [ 39.2482379, -6.803199 ], [ 39.2481989, -6.8032175 ], [ 39.247948, -6.8033073 ], [ 39.2476896, -6.8033722 ], [ 39.2474261, -6.8034114 ], [ 39.24716, -6.8034246 ], [ 39.2468939, -6.8034117 ], [ 39.2466303, -6.8033727 ], [ 39.2463718, -6.8033081 ], [ 39.2461209, -6.8032185 ], [ 39.24588, -6.8031048 ], [ 39.2456514, -6.802968 ], [ 39.2454373, -6.8028095 ], [ 39.2452398, -6.8026307 ], [ 39.2450608, -6.8024335 ], [ 39.2449019, -6.8022196 ], [ 39.2447649, -6.8019913 ], [ 39.2446508, -6.8017506 ], [ 39.2445609, -6.8014999 ], [ 39.2444961, -6.8012416 ], [ 39.2444568, -6.8009782 ] ], [ [ 39.2753615, -6.839424 ], [ 39.2753225, -6.8396874 ], [ 39.2752579, -6.8399458 ], [ 39.2751683, -6.8401966 ], [ 39.2750545, -6.8404374 ], [ 39.2749177, -6.8406659 ], [ 39.2747591, -6.8408799 ], [ 39.2745802, -6.8410773 ], [ 39.2743829, -6.8412563 ], [ 39.274169, -6.8414151 ], [ 39.2739405, -6.8415521 ], [ 39.2736997, -6.8416661 ], [ 39.2734489, -6.841756 ], [ 39.2731904, -6.8418208 ], [ 39.2729269, -6.8418601 ], [ 39.2726607, -6.8418733 ], [ 39.2723946, -6.8418604 ], [ 39.272131, -6.8418214 ], [ 39.2718725, -6.8417569 ], [ 39.2716216, -6.8416673 ], [ 39.2713806, -6.8415536 ], [ 39.271152, -6.8414168 ], [ 39.2709379, -6.8412583 ], [ 39.2707404, -6.8410795 ], [ 39.2705613, -6.8408823 ], [ 39.2704025, -6.8406685 ], [ 39.2702653, -6.8404401 ], [ 39.2701513, -6.8401994 ], [ 39.2700614, -6.8399487 ], [ 39.2699965, -6.8396904 ], [ 39.2699572, -6.839427 ], [ 39.269944, -6.839161 ], [ 39.2699569, -6.838895 ], [ 39.2699959, -6.8386316 ], [ 39.2700605, -6.8383732 ], [ 39.2701501, -6.8381224 ], [ 39.2702639, -6.8378816 ], [ 39.2704008, -6.8376531 ], [ 39.2705594, -6.8374391 ], [ 39.2707382, -6.8372417 ], [ 39.2709355, -6.8370627 ], [ 39.2711495, -6.8369039 ], [ 39.2713779, -6.8367669 ], [ 39.2716187, -6.8366529 ], [ 39.2718696, -6.836563 ], [ 39.272128, -6.8364982 ], [ 39.2723915, -6.8364589 ], [ 39.2726577, -6.8364457 ], [ 39.2729238, -6.8364586 ], [ 39.2731874, -6.8364976 ], [ 39.2734459, -6.8365621 ], [ 39.2736968, -6.8366517 ], [ 39.2739378, -6.8367654 ], [ 39.2741664, -6.8369022 ], [ 39.2743805, -6.8370607 ], [ 39.274578, -6.8372395 ], [ 39.2747571, -6.8374367 ], [ 39.2749159, -6.8376505 ], [ 39.275053, -6.8378789 ], [ 39.2751671, -6.8381196 ], [ 39.275257, -6.8383703 ], [ 39.2753219, -6.8386286 ], [ 39.2753612, -6.838892 ], [ 39.2753744, -6.839158 ], [ 39.2753615, -6.839424 ] ], [ [ 39.2733766, -6.8333317 ], [ 39.2733377, -6.8335951 ], [ 39.2732731, -6.8338535 ], [ 39.2731835, -6.8341043 ], [ 39.2730697, -6.8343451 ], [ 39.2729328, -6.8345736 ], [ 39.2727742, -6.8347876 ], [ 39.2725954, -6.834985 ], [ 39.2723981, -6.835164 ], [ 39.2721841, -6.8353228 ], [ 39.2719557, -6.8354598 ], [ 39.2717149, -6.8355738 ], [ 39.271464, -6.8356637 ], [ 39.2712056, -6.8357285 ], [ 39.2709421, -6.8357678 ], [ 39.2706759, -6.835781 ], [ 39.2704098, -6.8357681 ], [ 39.2701462, -6.8357291 ], [ 39.2698877, -6.8356646 ], [ 39.2696368, -6.835575 ], [ 39.2693958, -6.8354613 ], [ 39.2691672, -6.8353245 ], [ 39.2689531, -6.8351659 ], [ 39.2687556, -6.8349872 ], [ 39.2685765, -6.83479 ], [ 39.2684177, -6.8345762 ], [ 39.2682806, -6.8343478 ], [ 39.2681665, -6.8341071 ], [ 39.2680766, -6.8338564 ], [ 39.2680117, -6.8335981 ], [ 39.2679725, -6.8333347 ], [ 39.2679592, -6.8330687 ], [ 39.2679722, -6.8328027 ], [ 39.2680111, -6.8325393 ], [ 39.2680757, -6.8322809 ], [ 39.2681653, -6.8320301 ], [ 39.2682791, -6.8317893 ], [ 39.268416, -6.8315608 ], [ 39.2685746, -6.8313468 ], [ 39.2687534, -6.8311493 ], [ 39.2689508, -6.8309704 ], [ 39.2691647, -6.8308116 ], [ 39.2693931, -6.8306746 ], [ 39.269634, -6.8305606 ], [ 39.2698848, -6.8304707 ], [ 39.2701432, -6.8304059 ], [ 39.2704068, -6.8303666 ], [ 39.2706729, -6.8303534 ], [ 39.270939, -6.8303663 ], [ 39.2712026, -6.8304053 ], [ 39.2714611, -6.8304698 ], [ 39.271712, -6.8305594 ], [ 39.271953, -6.8306731 ], [ 39.2721816, -6.8308099 ], [ 39.2723957, -6.8309685 ], [ 39.2725932, -6.8311472 ], [ 39.2727723, -6.8313444 ], [ 39.2729311, -6.8315582 ], [ 39.2730682, -6.8317866 ], [ 39.2731823, -6.8320273 ], [ 39.2732722, -6.832278 ], [ 39.2733371, -6.8325363 ], [ 39.2733763, -6.8327997 ], [ 39.2733896, -6.8330657 ], [ 39.2733766, -6.8333317 ] ], [ [ 39.2969987, -6.8120829 ], [ 39.2969341, -6.8123413 ], [ 39.2968445, -6.8125921 ], [ 39.2967307, -6.8128329 ], [ 39.2965939, -6.8130614 ], [ 39.2964353, -6.8132754 ], [ 39.2962565, -6.8134729 ], [ 39.2960592, -6.8136518 ], [ 39.2958453, -6.8138106 ], [ 39.2956168, -6.8139477 ], [ 39.295376, -6.8140617 ], [ 39.2951252, -6.8141515 ], [ 39.2948668, -6.8142164 ], [ 39.2946033, -6.8142556 ], [ 39.2943372, -6.8142689 ], [ 39.294071, -6.814256 ], [ 39.2938074, -6.8142171 ], [ 39.2935489, -6.8141525 ], [ 39.293298, -6.8140629 ], [ 39.2930571, -6.8139492 ], [ 39.2928285, -6.8138124 ], [ 39.2926144, -6.8136539 ], [ 39.2924168, -6.8134752 ], [ 39.2922378, -6.813278 ], [ 39.292079, -6.8130642 ], [ 39.2919418, -6.8128358 ], [ 39.2918278, -6.8125951 ], [ 39.2917379, -6.8123444 ], [ 39.291673, -6.8120861 ], [ 39.2916337, -6.8118227 ], [ 39.2916205, -6.8115567 ], [ 39.2916334, -6.8112907 ], [ 39.2916723, -6.8110273 ], [ 39.2917369, -6.8107689 ], [ 39.2918265, -6.8105181 ], [ 39.2919403, -6.8102773 ], [ 39.2920771, -6.8100488 ], [ 39.2922357, -6.8098348 ], [ 39.2924145, -6.8096373 ], [ 39.2926118, -6.8094584 ], [ 39.2928257, -6.8092996 ], [ 39.2930542, -6.8091625 ], [ 39.293295, -6.8090485 ], [ 39.293389, -6.8090148 ], [ 39.2933404, -6.8088213 ], [ 39.2933011, -6.8085578 ], [ 39.2932879, -6.8082919 ], [ 39.2933008, -6.8080259 ], [ 39.2933397, -6.8077624 ], [ 39.2934043, -6.807504 ], [ 39.2934939, -6.8072532 ], [ 39.2936077, -6.8070124 ], [ 39.2937445, -6.8067839 ], [ 39.2939031, -6.8065699 ], [ 39.2940819, -6.8063724 ], [ 39.2942792, -6.8061935 ], [ 39.2944931, -6.8060347 ], [ 39.2947216, -6.8058976 ], [ 39.2949624, -6.8057836 ], [ 39.2952132, -6.8056938 ], [ 39.2954716, -6.8056289 ], [ 39.2957351, -6.8055897 ], [ 39.2960012, -6.8055764 ], [ 39.2962674, -6.8055893 ], [ 39.2965309, -6.8056282 ], [ 39.2967894, -6.8056928 ], [ 39.2970403, -6.8057824 ], [ 39.2972813, -6.8058961 ], [ 39.2975099, -6.8060329 ], [ 39.297724, -6.8061914 ], [ 39.2979215, -6.8063701 ], [ 39.2981006, -6.8065673 ], [ 39.2982594, -6.8067811 ], [ 39.2983965, -6.8070095 ], [ 39.2985106, -6.8072501 ], [ 39.2986005, -6.8075008 ], [ 39.2986654, -6.8077591 ], [ 39.2987047, -6.8080225 ], [ 39.2987179, -6.8082885 ], [ 39.298705, -6.8085545 ], [ 39.2986661, -6.808818 ], [ 39.2986015, -6.8090764 ], [ 39.2985119, -6.8093272 ], [ 39.2983981, -6.809568 ], [ 39.2982613, -6.8097965 ], [ 39.2981027, -6.8100105 ], [ 39.2979239, -6.8102079 ], [ 39.2977266, -6.8103869 ], [ 39.2975127, -6.8105457 ], [ 39.2972842, -6.8106827 ], [ 39.2970434, -6.8107968 ], [ 39.2969494, -6.8108305 ], [ 39.296998, -6.811024 ], [ 39.2970373, -6.8112875 ], [ 39.2970505, -6.8115534 ], [ 39.2970376, -6.8118194 ], [ 39.2969987, -6.8120829 ] ], [ [ 39.266028, -6.8005056 ], [ 39.2659634, -6.8007639 ], [ 39.2658738, -6.8010147 ], [ 39.26576, -6.8012556 ], [ 39.2656231, -6.8014841 ], [ 39.2654645, -6.8016981 ], [ 39.2652857, -6.8018955 ], [ 39.2650884, -6.8020744 ], [ 39.2648745, -6.8022332 ], [ 39.264646, -6.8023702 ], [ 39.2644052, -6.8024842 ], [ 39.2641544, -6.8025741 ], [ 39.263896, -6.8026389 ], [ 39.2636325, -6.8026782 ], [ 39.2633664, -6.8026914 ], [ 39.2631003, -6.8026785 ], [ 39.2628367, -6.8026395 ], [ 39.2625782, -6.802575 ], [ 39.2623273, -6.8024854 ], [ 39.2620864, -6.8023716 ], [ 39.2618578, -6.8022348 ], [ 39.2616437, -6.8020763 ], [ 39.2614462, -6.8018976 ], [ 39.2612671, -6.8017003 ], [ 39.2611083, -6.8014865 ], [ 39.2609712, -6.8012582 ], [ 39.2608572, -6.8010175 ], [ 39.2607673, -6.8007668 ], [ 39.2607024, -6.8005085 ], [ 39.2606631, -6.8002451 ], [ 39.2606542, -6.8000648 ], [ 39.2606167, -6.7998128 ], [ 39.2606034, -6.7995468 ], [ 39.2606164, -6.7992808 ], [ 39.2606553, -6.7990173 ], [ 39.2607199, -6.7987589 ], [ 39.2608095, -6.7985081 ], [ 39.2609233, -6.7982673 ], [ 39.2610602, -6.7980388 ], [ 39.2612188, -6.7978248 ], [ 39.2613976, -6.7976274 ], [ 39.2615949, -6.7974485 ], [ 39.2618088, -6.7972897 ], [ 39.2620373, -6.7971527 ], [ 39.2622781, -6.7970387 ], [ 39.2625289, -6.7969488 ], [ 39.2627873, -6.7968839 ], [ 39.2630508, -6.7968447 ], [ 39.2633169, -6.7968315 ], [ 39.263583, -6.7968444 ], [ 39.2638466, -6.7968834 ], [ 39.2641051, -6.7969479 ], [ 39.264356, -6.7970375 ], [ 39.2645969, -6.7971513 ], [ 39.2648255, -6.797288 ], [ 39.2650396, -6.7974466 ], [ 39.2652371, -6.7976253 ], [ 39.2654162, -6.7978225 ], [ 39.265575, -6.7980364 ], [ 39.2657121, -6.7982647 ], [ 39.2658261, -6.7985054 ], [ 39.265916, -6.7987561 ], [ 39.2659185, -6.7987658 ], [ 39.2659482, -6.7988488 ], [ 39.2660131, -6.7991071 ], [ 39.2660523, -6.7993705 ], [ 39.2660656, -6.7996365 ], [ 39.2660631, -6.7996865 ], [ 39.2660666, -6.7997101 ], [ 39.2660799, -6.7999761 ], [ 39.2660669, -6.8002421 ], [ 39.266028, -6.8005056 ] ] ] ] } }
]
}
