{
"type": "FeatureCollection",
"features": [
{ "type": "Feature", "properties": { "index": "0", "label": "Within 1500 m by bike", "color": "#2b8cbe" }, "geometry": { "type": "Polygon", "coordinates": [ [ [ 39.298177, -6.7814437 ], [ 39.2981108, -6.7801137 ], [ 39.2980939, -6.7800002 ], [ 39.22, -6.78 ], [ 39.22, -6.85 ], [ 39.293105, -6.8500005 ], [ 39.293948, -6.8490698 ], [ 39.294741, -6.8479998 ], [ 39.2954252, -6.8468572 ], [ 39.2959941, -6.8456531 ], [ 39.2964422, -6.8443991 ], [ 39.2967651, -6.8431072 ], [ 39.2969598, -6.8417899 ], [ 39.2970243, -6.8404599 ], [ 39.2969582, -6.83913 ], [ 39.2967619, -6.8378129 ], [ 39.2964373, -6.8365214 ], [ 39.2959877, -6.835268 ], [ 39.2954174, -6.8340646 ], [ 39.2947806, -6.8330042 ], [ 39.2951977, -6.8321215 ], [ 39.2955257, -6.8312033 ], [ 39.2958196, -6.8309852 ], [ 39.2970183, -6.8304176 ], [ 39.2973809, -6.8302001 ], [ 39.2977111, -6.8302161 ], [ 39.2990417, -6.8301499 ], [ 39.3, -6.8300072 ], [ 39.3, -6.7946572 ], [ 39.2999638, -6.7946305 ], [ 39.2988208, -6.7939466 ], [ 39.2976162, -6.793378 ], [ 39.2963616, -6.7929302 ], [ 39.2951699, -6.7926326 ], [ 39.2952901, -6.792432 ], [ 39.2958589, -6.7912279 ], [ 39.2963069, -6.7899739 ], [ 39.2966298, -6.788682 ], [ 39.2968245, -6.7873647 ], [ 39.2968269, -6.7873142 ], [ 39.2971469, -6.7866369 ], [ 39.2975949, -6.7853828 ], [ 39.2979178, -6.784091 ], [ 39.2981124, -6.7827737 ], [ 39.298177, -6.7814437 ] ] ] } },
{ "type": "Feature", "properties": { "index": "1", "label": "Beyond 1500 m", "color": "#d9d9d9" }, "geometry": { "type": "MultiPolygon", "coordinates": [ [ [ [ 39.293105, -6.8500005 ], [ 39.2931055, -6.85 ], [ 39.22, -6.85 ], [ 39.293105, -6.8500005 ] ] ], [ [ [ 39.294741, -6.8479998 ], [ 39.293948, -6.8490698 ], [ 39.2931055, -6.85 ], [ 39.3, -6.85 ], [ 39.3, -6.8300072 ], [ 39.2990417, -6.8301499 ], [ 39.2977111, -6.8302161 ], [ 39.2973809, -6.8302001 ], [ 39.2970183, -6.8304176 ], [ 39.2958196, -6.8309852 ], [ 39.2955257, -6.8312033 ], [ 39.2951977, -6.8321215 ], [ 39.2947806, -6.8330042 ], [ 39.2954174, -6.8340646 ], [ 39.2959877, -6.835268 ], [ 39.2964373, -6.8365214 ], [ 39.2967619, -6.8378129 ], [ 39.2969582, -6.83913 ], [ 39.2970243, -6.8404599 ], [ 39.2969598, -6.8417899 ], [ 39.2967651, -6.8431072 ], [ 39.2964422, -6.8443991 ], [ 39.2959941, -6.8456531 ], [ 39.2954252, -6.8468572 ], [ 39.294741, -6.8479998 ] ] ], [ [ [ 39.2999638, -6.7946305 ], [ 39.3, -6.7946572 ], [ 39.3, -6.78 ], [ 39.2980939, -6.7800002 ], [ 39.2981108, -6.7801137 ], [ 39.298177, -6.7814437 ], [ 39.2981124, -6.7827737 ], [ 39.2979178, -6.784091 ], [ 39.2975949, -6.7853828 ], [ 39.2971469, -6.7866369 ], [ 39.2968269, -6.7873142 ], [ 39.2968245, -6.7873647 ], [ 39.2966298, -6.788682 ], [ 39.2963069, -6.7899739 ], [ 39.2958589, -6.7912279 ], [ 39.2952901, -6.792432 ], [ 39.2951699, -6.7926326 ], [ 39.2963616, -6.7929302 ], [ 39.2976162, -6.793378 ], [ 39.2988208, -6.7939466 ], [ 39.2999638, -6.7946305 ] ] ] ] } }
]
}
