{
"type": "FeatureCollection",
"features": [
{ "type": "Feature", "properties": { "index": "0", "@osmId": "node/1732258303", "name": null, "opening_hours": null, "label": "Drinking water points", "color": "#2b8cbe" }, "geometry": { "type": "Point", "coordinates": [ 3.8632206, 43.6172973 ] } },
{ "type": "Feature", "properties": { "index": "1", "@osmId": "node/4322996564", "name": null, "opening_hours": null, "label": "Drinking water points", "color": "#2b8cbe" }, "geometry": { "type": "Point", "coordinates": [ 3.8584426, 43.611069 ] } },
{ "type": "Feature", "properties": { "index": "2", "@osmId": "node/4325169935", "name": null, "opening_hours": null, "label": "Drinking water points", "color": "#2b8cbe" }, "geometry": { "type": "Point", "coordinates": [ 3.8660775, 43.6069015 ] } },
{ "type": "Feature", "properties": { "index": "3", "@osmId": "node/4821413624", "name": null, "opening_hours": null, "label": "Drinking water points", "color": "#2b8cbe" }, "geometry": { "type": "Point", "coordinates": [ 3.8624323, 43.6219895 ] } },
{ "type": "Feature", "properties": { "index": "4", "@osmId": "node/7899529886", "name": null, "opening_hours": null, "label": "Drinking water points", "color": "#2b8cbe" }, "geometry": { "type": "Point", "coordinates": [ 3.8612791, 43.6120295 ] } },
{ "type": "Feature", "properties": { "index": "5", "@osmId": "node/9842769523", "name": null, "opening_hours": null, "label": "Drinking water points", "color": "#2b8cbe" }, "geometry": { "type": "Point", "coordinates": [ 3.8618612, 43.6117881 ] } },
{ "type": "Feature", "properties": { "index": "6", "@osmId": "node/12071300546", "name": null, "opening_hours": null, "label": "Drinking water points", "color": "#2b8cbe" }, "geometry": { "type": "Point", "coordinates": [ 3.8670227, 43.621895 ] } },
{ "type": "Feature", "properties": { "index": "7", "@osmId": "node/500956862", "name": null, "opening_hours": null, "label": "Drinking water points", "color": "#2b8cbe" }, "geometry": { "type": "Point", "coordinates": [ 3.8719821, 43.6041743 ] } },
{ "type": "Feature", "properties": { "index": "8", "@osmId": "node/1732258061", "name": null, "opening_hours": null, "label": "Drinking water points", "color": "#2b8cbe" }, "geometry": { "type": "Point", "coordinates": [ 3.88948, 43.6076035 ] } },
{ "type": "Feature", "properties": { "index": "9", "@osmId": "node/1732258183", "name": null, "opening_hours": null, "label": "Drinking water points", "color": "#2b8cbe" }, "geometry": { "type": "Point", "coordinates": [ 3.8937304, 43.6016 ] } },
{ "type": "Feature", "properties": { "index": "10", "@osmId": "node/1732258193", "name": null, "opening_hours": null, "label": "Drinking water points", "color": "#2b8cbe" }, "geometry": { "type": "Point", "coordinates": [ 3.8891991, 43.6040261 ] } },
{ "type": "Feature", "properties": { "index": "11", "@osmId": "node/1732258244", "name": null, "opening_hours": null, "label": "Drinking water points", "color": "#2b8cbe" }, "geometry": { "type": "Point", "coordinates": [ 3.8772545, 43.6063976 ] } },
{ "type": "Feature", "properties": { "index": "12", "@osmId": "node/1732258255", "name": null, "opening_hours": null, "label": "Drinking water points", "color": "#2b8cbe" }, "geometry": { "type": "Point", "coordinates": [ 3.8825895, 43.6102849 ] } },
{ "type": "Feature", "properties": { "index": "13", "@osmId": "node/1732286148", "name": null, "opening_hours": null, "label": "Drinking water points", "color": "#2b8cbe" }, "geometry": { "type": "Point", "coordinates": [ 3.8706599, 43.6108055 ] } },
{ "type": "Feature", "properties": { "index": "14", "@osmId": "node/1732286186", "name": null, "opening_hours": null, "label": "Drinking water points", "color": "#2b8cbe" }, "geometry": { "type": "Point", "coordinates": [ 3.8737843, 43.6140054 ] } },
{ "type": "Feature", "properties": { "index": "15", "@osmId": "node/1732286190", "name": null, "opening_hours": null, "label": "Drinking water points", "color": "#2b8cbe" }, "geometry": { "type": "Point", "coordinates": [ 3.8756478, 43.6149999 ] } },
{ "type": "Feature", "properties": { "index": "16", "@osmId": "node/1732286222", "name": null, "opening_hours": null, "label": "Drinking water points", "color": "#2b8cbe" }, "geometry": { "type": "Point", "coordinates": [ 3.8786293, 43.6170992 ] } },
{ "type": "Feature", "properties": { "index": "17", "@osmId": "node/1732286244", "name": null, "opening_hours": null, "label": "Drinking water points", "color": "#2b8cbe" }, "geometry": { "type": "Point", "coordinates": [ 3.8994416, 43.6208997 ] } },
{ "type": "Feature", "properties": { "index": "18", "@osmId": "node/1732286246", "name": null, "opening_hours": null, "label": "Drinking water points", "color": "#2b8cbe" }, "geometry": { "type": "Point", "coordinates": [ 3.8885295, 43.6222997 ] } },
{ "type": "Feature", "properties": { "index": "19", "@osmId": "node/1732286250", "name": null, "opening_hours": null, "label": "Drinking water points", "color": "#2b8cbe" }, "geometry": { "type": "Point", "coordinates": [ 3.8722725, 43.6242055 ] } },
{ "type": "Feature", "properties": { "index": "20", "@osmId": "node/1794779701", "name": "Rue Brumaire", "opening_hours": null, "label": "Drinking water points", "color": "#2b8cbe" }, "geometry": { "type": "Point", "coordinates": [ 3.8969844, 43.6024338 ] } },
{ "type": "Feature", "properties": { "index": "21", "@osmId": "node/4296501262", "name": null, "opening_hours": null, "label": "Drinking water points", "color": "#2b8cbe" }, "geometry": { "type": "Point", "coordinates": [ 3.8735831, 43.6196022 ] } },
{ "type": "Feature", "properties": { "index": "22", "@osmId": "node/4322996561", "name": null, "opening_hours": null, "label": "Drinking water points", "color": "#2b8cbe" }, "geometry": { "type": "Point", "coordinates": [ 3.8819538, 43.6168714 ] } },
{ "type": "Feature", "properties": { "index": "23", "@osmId": "node/4323023603", "name": null, "opening_hours": null, "label": "Drinking water points", "color": "#2b8cbe" }, "geometry": { "type": "Point", "coordinates": [ 3.8707813, 43.6116951 ] } },
{ "type": "Feature", "properties": { "index": "24", "@osmId": "node/4324814907", "name": null, "opening_hours": null, "label": "Drinking water points", "color": "#2b8cbe" }, "geometry": { "type": "Point", "coordinates": [ 3.8751716, 43.6126312 ] } },
{ "type": "Feature", "properties": { "index": "25", "@osmId": "node/4860020778", "name": null, "opening_hours": null, "label": "Drinking water points", "color": "#2b8cbe" }, "geometry": { "type": "Point", "coordinates": [ 3.8942664, 43.617777 ] } },
{ "type": "Feature", "properties": { "index": "26", "@osmId": "node/5046472468", "name": null, "opening_hours": null, "label": "Drinking water points", "color": "#2b8cbe" }, "geometry": { "type": "Point", "coordinates": [ 3.8765754, 43.6088244 ] } },
{ "type": "Feature", "properties": { "index": "27", "@osmId": "node/5612120076", "name": null, "opening_hours": null, "label": "Drinking water points", "color": "#2b8cbe" }, "geometry": { "type": "Point", "coordinates": [ 3.8887276, 43.6037904 ] } },
{ "type": "Feature", "properties": { "index": "28", "@osmId": "node/5614597787", "name": null, "opening_hours": null, "label": "Drinking water points", "color": "#2b8cbe" }, "geometry": { "type": "Point", "coordinates": [ 3.8783515, 43.6074525 ] } },
{ "type": "Feature", "properties": { "index": "29", "@osmId": "node/5768610520", "name": "Place de Thessalie", "opening_hours": null, "label": "Drinking water points", "color": "#2b8cbe" }, "geometry": { "type": "Point", "coordinates": [ 3.8919167, 43.6078055 ] } },
{ "type": "Feature", "properties": { "index": "30", "@osmId": "node/5768610521", "name": "Place du Nombre d'Or", "opening_hours": null, "label": "Drinking water points", "color": "#2b8cbe" }, "geometry": { "type": "Point", "coordinates": [ 3.8878889, 43.6079722 ] } },
{ "type": "Feature", "properties": { "index": "31", "@osmId": "node/6516443100", "name": "Rue Fructidor", "opening_hours": null, "label": "Drinking water points", "color": "#2b8cbe" }, "geometry": { "type": "Point", "coordinates": [ 3.8971394, 43.6018018 ] } },
{ "type": "Feature", "properties": { "index": "32", "@osmId": "node/6588269362", "name": "Avenue du Pirée - Chemin de Moularès", "opening_hours": null, "label": "Drinking water points", "color": "#2b8cbe" }, "geometry": { "type": "Point", "coordinates": [ 3.8951123, 43.6020006 ] } },
{ "type": "Feature", "properties": { "index": "33", "@osmId": "node/9124197596", "name": "Esplanade Charles de Gaule", "opening_hours": null, "label": "Drinking water points", "color": "#2b8cbe" }, "geometry": { "type": "Point", "coordinates": [ 3.8812224, 43.6097226 ] } },
{ "type": "Feature", "properties": { "index": "34", "@osmId": "node/9466854293", "name": null, "opening_hours": null, "label": "Drinking water points", "color": "#2b8cbe" }, "geometry": { "type": "Point", "coordinates": [ 3.8730292, 43.6138891 ] } },
{ "type": "Feature", "properties": { "index": "35", "@osmId": "node/9979516455", "name": null, "opening_hours": null, "label": "Drinking water points", "color": "#2b8cbe" }, "geometry": { "type": "Point", "coordinates": [ 3.8765288, 43.6022205 ] } },
{ "type": "Feature", "properties": { "index": "36", "@osmId": "node/9979516456", "name": null, "opening_hours": null, "label": "Drinking water points", "color": "#2b8cbe" }, "geometry": { "type": "Point", "coordinates": [ 3.8754644, 43.601488 ] } },
{ "type": "Feature", "properties": { "index": "37", "@osmId": "node/11143083745", "name": null, "opening_hours": null, "label": "Drinking water points", "color": "#2b8cbe" }, "geometry": { "type": "Point", "coordinates": [ 3.8797954, 43.6033591 ] } },
{ "type": "Feature", "properties": { "index": "38", "@osmId": "node/11230764670", "name": null, "opening_hours": null, "label": "Drinking water points", "color": "#2b8cbe" }, "geometry": { "type": "Point", "coordinates": [ 3.8741418, 43.6152979 ] } },
{ "type": "Feature", "properties": { "index": "39", "@osmId": "node/11231121337", "name": null, "opening_hours": null, "label": "Drinking water points", "color": "#2b8cbe" }, "geometry": { "type": "Point", "coordinates": [ 3.880166, 43.6051685 ] } },
{ "type": "Feature", "properties": { "index": "40", "@osmId": "node/11366291336", "name": null, "opening_hours": null, "label": "Drinking water points", "color": "#2b8cbe" }, "geometry": { "type": "Point", "coordinates": [ 3.9033585, 43.6014722 ] } },
{ "type": "Feature", "properties": { "index": "41", "@osmId": "node/11367104721", "name": "Avenue du Pirée", "opening_hours": null, "label": "Drinking water points", "color": "#2b8cbe" }, "geometry": { "type": "Point", "coordinates": [ 3.8964516, 43.6041268 ] } },
{ "type": "Feature", "properties": { "index": "42", "@osmId": "node/11641428607", "name": "Rue Vendémiaire", "opening_hours": null, "label": "Drinking water points", "color": "#2b8cbe" }, "geometry": { "type": "Point", "coordinates": [ 3.8982793, 43.6046939 ] } },
{ "type": "Feature", "properties": { "index": "43", "@osmId": "node/11641428608", "name": "Place Emilie Combes", "opening_hours": null, "label": "Drinking water points", "color": "#2b8cbe" }, "geometry": { "type": "Point", "coordinates": [ 3.8804158, 43.6164199 ] } },
{ "type": "Feature", "properties": { "index": "44", "@osmId": "node/12071300545", "name": null, "opening_hours": null, "label": "Drinking water points", "color": "#2b8cbe" }, "geometry": { "type": "Point", "coordinates": [ 3.8673321, 43.6214352 ] } },
{ "type": "Feature", "properties": { "index": "45", "@osmId": "node/12097698435", "name": null, "opening_hours": null, "label": "Drinking water points", "color": "#2b8cbe" }, "geometry": { "type": "Point", "coordinates": [ 3.8808358, 43.6047974 ] } },
{ "type": "Feature", "properties": { "index": "46", "@osmId": "node/12367429455", "name": null, "opening_hours": null, "label": "Drinking water points", "color": "#2b8cbe" }, "geometry": { "type": "Point", "coordinates": [ 3.8675405, 43.6177665 ] } },
{ "type": "Feature", "properties": { "index": "47", "@osmId": "node/12532746284", "name": null, "opening_hours": null, "label": "Drinking water points", "color": "#2b8cbe" }, "geometry": { "type": "Point", "coordinates": [ 3.8814149, 43.6112145 ] } },
{ "type": "Feature", "properties": { "index": "48", "@osmId": "node/12657031301", "name": null, "opening_hours": null, "label": "Drinking water points", "color": "#2b8cbe" }, "geometry": { "type": "Point", "coordinates": [ 3.8672085, 43.6068657 ] } },
{ "type": "Feature", "properties": { "index": "49", "@osmId": "node/12730489933", "name": null, "opening_hours": null, "label": "Drinking water points", "color": "#2b8cbe" }, "geometry": { "type": "Point", "coordinates": [ 3.8811065, 43.6158712 ] } },
{ "type": "Feature", "properties": { "index": "50", "@osmId": "node/12748795543", "name": null, "opening_hours": null, "label": "Drinking water points", "color": "#2b8cbe" }, "geometry": { "type": "Point", "coordinates": [ 3.8805775, 43.6042951 ] } }
]
}
