{
"type": "FeatureCollection",
"features": [
{ "type": "Feature", "properties": { "index": "0", "label": "Within 1000 m by bike", "color": "#2b8cbe" }, "geometry": { "type": "Polygon", "coordinates": [ [ [ 3.8572261, 43.6006014 ], [ 3.8581185, 43.6000013 ], [ 3.8581196, 43.6000006 ], [ 3.905, 43.6 ], [ 3.905, 43.612248 ], [ 3.9043378, 43.6125435 ], [ 3.9044885, 43.6126879 ], [ 3.905, 43.6128588 ], [ 3.905, 43.625 ], [ 3.855, 43.625 ], [ 3.855, 43.602428 ], [ 3.8554033, 43.6023514 ], [ 3.8557047, 43.6019772 ], [ 3.8564189, 43.6012621 ], [ 3.8572261, 43.6006014 ] ] ] } },
{ "type": "Feature", "properties": { "index": "1", "label": "Beyond 1000 m", "color": "#d9d9d9" }, "geometry": { "type": "MultiPolygon", "coordinates": [ [ [ [ 3.9043378, 43.6125435 ], [ 3.905, 43.612248 ], [ 3.905, 43.6128588 ], [ 3.9044885, 43.6126879 ], [ 3.9043378, 43.6125435 ] ] ], [ [ [ 3.855, 43.602428 ], [ 3.855, 43.6 ], [ 3.8581196, 43.6000006 ], [ 3.8581185, 43.6000013 ], [ 3.8572261, 43.6006014 ], [ 3.8564189, 43.6012621 ], [ 3.8557047, 43.6019772 ], [ 3.8554033, 43.6023514 ], [ 3.855, 43.602428 ] ] ] ] } }
]
}
