{
"type": "FeatureCollection",
"features": [
{ "type": "Feature", "properties": { "index": "0", "label": "Within 400 m on foot", "color": "#2b8cbe" }, "geometry": { "type": "MultiPolygon", "coordinates": [ [ [ [ 3.8691857, 43.6012009 ], [ 3.8696002, 43.6010161 ], [ 3.8700377, 43.6008616 ], [ 3.8704938, 43.6007391 ], [ 3.87063, 43.6007132 ], [ 3.8707072, 43.6004788 ], [ 3.8708662, 43.6001448 ], [ 3.8709564, 43.6000024 ], [ 3.8815849, 43.6000027 ], [ 3.8816433, 43.6000174 ], [ 3.8820851, 43.6001651 ], [ 3.8825048, 43.6003436 ], [ 3.8828985, 43.6005511 ], [ 3.8832623, 43.6007856 ], [ 3.8835927, 43.601045 ], [ 3.8838866, 43.6013266 ], [ 3.884141, 43.6016278 ], [ 3.8843536, 43.6019456 ], [ 3.8843694, 43.6019767 ], [ 3.8843749, 43.6019809 ], [ 3.884417, 43.6020213 ], [ 3.8845778, 43.6018216 ], [ 3.8848633, 43.6015355 ], [ 3.8851861, 43.6012711 ], [ 3.8855429, 43.601031 ], [ 3.8859304, 43.6008175 ], [ 3.8863449, 43.6006325 ], [ 3.8867823, 43.600478 ], [ 3.8872384, 43.6003554 ], [ 3.8877089, 43.6002659 ], [ 3.8881891, 43.6002103 ], [ 3.8886746, 43.6001892 ], [ 3.8891606, 43.6002027 ], [ 3.8891662, 43.6002033 ], [ 3.8892933, 43.6000024 ], [ 3.905, 43.6 ], [ 3.905, 43.6048663 ], [ 3.9048486, 43.604907 ], [ 3.9043782, 43.6049966 ], [ 3.9038979, 43.6050522 ], [ 3.9034124, 43.6050734 ], [ 3.9032052, 43.6050677 ], [ 3.9031503, 43.6053582 ], [ 3.9030373, 43.6057019 ], [ 3.9028784, 43.606036 ], [ 3.9026753, 43.6063571 ], [ 3.9024298, 43.6066622 ], [ 3.9021443, 43.6069483 ], [ 3.9018216, 43.6072127 ], [ 3.9014648, 43.6074529 ], [ 3.9010773, 43.6076665 ], [ 3.9006628, 43.6078515 ], [ 3.9002254, 43.6080061 ], [ 3.8997692, 43.6081287 ], [ 3.8992987, 43.6082183 ], [ 3.8988184, 43.608274 ], [ 3.8983329, 43.6082951 ], [ 3.8978469, 43.6082816 ], [ 3.897365, 43.6082335 ], [ 3.8968919, 43.6081513 ], [ 3.8968501, 43.6081408 ], [ 3.8967879, 43.60847 ], [ 3.8966748, 43.6088138 ], [ 3.8965159, 43.6091478 ], [ 3.8963127, 43.6094689 ], [ 3.8960672, 43.609774 ], [ 3.8957816, 43.6100601 ], [ 3.8954589, 43.6103245 ], [ 3.895102, 43.6105647 ], [ 3.8947145, 43.6107783 ], [ 3.8943, 43.6109632 ], [ 3.8938626, 43.6111178 ], [ 3.8934064, 43.6112404 ], [ 3.8929358, 43.61133 ], [ 3.8924555, 43.6113856 ], [ 3.8919699, 43.6114067 ], [ 3.8914839, 43.6113932 ], [ 3.891002, 43.6113451 ], [ 3.8905289, 43.6112629 ], [ 3.890159, 43.6111699 ], [ 3.8898345, 43.6112845 ], [ 3.8893783, 43.6114072 ], [ 3.8889078, 43.6114967 ], [ 3.8884274, 43.6115523 ], [ 3.8879419, 43.6115734 ], [ 3.8874558, 43.6115598 ], [ 3.8872316, 43.6115375 ], [ 3.8871887, 43.6116276 ], [ 3.8869854, 43.6119487 ], [ 3.8867398, 43.6122537 ], [ 3.8864543, 43.6125398 ], [ 3.8861315, 43.6128042 ], [ 3.8857746, 43.6130444 ], [ 3.8855996, 43.6131408 ], [ 3.8855653, 43.6131834 ], [ 3.8852797, 43.6134695 ], [ 3.8850282, 43.6136755 ], [ 3.8851985, 43.6138386 ], [ 3.885453, 43.6141398 ], [ 3.8856656, 43.6144577 ], [ 3.8856926, 43.6145107 ], [ 3.8857519, 43.6145572 ], [ 3.8860458, 43.6148388 ], [ 3.8863003, 43.61514 ], [ 3.886513, 43.6154579 ], [ 3.8866818, 43.6157893 ], [ 3.886805, 43.6161312 ], [ 3.8868815, 43.6164803 ], [ 3.8869106, 43.616833 ], [ 3.8868919, 43.6171862 ], [ 3.8868256, 43.6175364 ], [ 3.8867125, 43.6178801 ], [ 3.8865535, 43.6182141 ], [ 3.8863502, 43.6185352 ], [ 3.8861046, 43.6188403 ], [ 3.885819, 43.6191264 ], [ 3.8854961, 43.6193907 ], [ 3.8851392, 43.6196309 ], [ 3.8847515, 43.6198444 ], [ 3.884337, 43.6200293 ], [ 3.8838994, 43.6201838 ], [ 3.8834431, 43.6203064 ], [ 3.8829725, 43.620396 ], [ 3.8824921, 43.6204515 ], [ 3.8820064, 43.6204726 ], [ 3.8815203, 43.620459 ], [ 3.8810384, 43.6204109 ], [ 3.8807292, 43.6203572 ], [ 3.8805747, 43.6204117 ], [ 3.8801184, 43.6205343 ], [ 3.8796478, 43.6206238 ], [ 3.8791674, 43.6206793 ], [ 3.8786817, 43.6207004 ], [ 3.8783044, 43.6206899 ], [ 3.8781828, 43.6209452 ], [ 3.8779795, 43.6212663 ], [ 3.8777338, 43.6215714 ], [ 3.8774481, 43.6218574 ], [ 3.8771252, 43.6221218 ], [ 3.8767682, 43.6223619 ], [ 3.8766021, 43.6224534 ], [ 3.8766198, 43.6224745 ], [ 3.8768325, 43.6227923 ], [ 3.8770012, 43.6231238 ], [ 3.8771244, 43.6234657 ], [ 3.8772009, 43.6238148 ], [ 3.8772299, 43.6241676 ], [ 3.8772111, 43.6245207 ], [ 3.8771448, 43.6248709 ], [ 3.8771014, 43.6250027 ], [ 3.859714, 43.6250009 ], [ 3.8593271, 43.624797 ], [ 3.8589633, 43.6245624 ], [ 3.8586328, 43.6243029 ], [ 3.858339, 43.6240213 ], [ 3.8580846, 43.62372 ], [ 3.857872, 43.6234021 ], [ 3.8577034, 43.6230706 ], [ 3.8575803, 43.6227286 ], [ 3.857504, 43.6223796 ], [ 3.8574751, 43.6220268 ], [ 3.8574939, 43.6216736 ], [ 3.8575603, 43.6213235 ], [ 3.8576737, 43.6209798 ], [ 3.8578328, 43.6206458 ], [ 3.8580363, 43.6203248 ], [ 3.8582821, 43.6200198 ], [ 3.8585678, 43.6197337 ], [ 3.8588908, 43.6194694 ], [ 3.8591175, 43.619317 ], [ 3.8588732, 43.6190278 ], [ 3.8586607, 43.6187099 ], [ 3.8584921, 43.6183784 ], [ 3.858369, 43.6180365 ], [ 3.8582927, 43.6176874 ], [ 3.8582638, 43.6173346 ], [ 3.8582826, 43.6169815 ], [ 3.858349, 43.6166313 ], [ 3.8584623, 43.6162876 ], [ 3.8586215, 43.6159537 ], [ 3.8588249, 43.6156326 ], [ 3.8590707, 43.6153276 ], [ 3.8591282, 43.61527 ], [ 3.8589879, 43.6152231 ], [ 3.8585681, 43.6150445 ], [ 3.8581744, 43.6148369 ], [ 3.8578739, 43.6146432 ], [ 3.8575259, 43.6146083 ], [ 3.8570528, 43.614526 ], [ 3.8565931, 43.6144103 ], [ 3.8561513, 43.6142625 ], [ 3.8557315, 43.614084 ], [ 3.8553378, 43.6138764 ], [ 3.855, 43.6136585 ], [ 3.855, 43.6084828 ], [ 3.8552589, 43.6083088 ], [ 3.8556466, 43.6080953 ], [ 3.8560612, 43.6079105 ], [ 3.8564987, 43.6077561 ], [ 3.8569549, 43.6076336 ], [ 3.8574255, 43.6075442 ], [ 3.8579059, 43.6074887 ], [ 3.8583914, 43.6074678 ], [ 3.8588774, 43.6074814 ], [ 3.8593592, 43.6075297 ], [ 3.8598322, 43.607612 ], [ 3.8602919, 43.6077276 ], [ 3.8607337, 43.6078754 ], [ 3.8611535, 43.608054 ], [ 3.8614361, 43.608203 ], [ 3.8614613, 43.6082019 ], [ 3.8613498, 43.6079827 ], [ 3.8612268, 43.6076408 ], [ 3.8611504, 43.6072917 ], [ 3.8611215, 43.6069389 ], [ 3.8611404, 43.6065858 ], [ 3.8612067, 43.6062357 ], [ 3.86132, 43.6058919 ], [ 3.8614791, 43.605558 ], [ 3.8616825, 43.6052369 ], [ 3.8619282, 43.6049319 ], [ 3.8622138, 43.6046459 ], [ 3.8625367, 43.6043815 ], [ 3.8628937, 43.6041415 ], [ 3.8632813, 43.603928 ], [ 3.8636958, 43.6037432 ], [ 3.8641333, 43.6035887 ], [ 3.8645895, 43.6034662 ], [ 3.86506, 43.6033768 ], [ 3.8655403, 43.6033213 ], [ 3.8660258, 43.6033003 ], [ 3.8664421, 43.603312 ], [ 3.8666713, 43.6032855 ], [ 3.8671568, 43.6032645 ], [ 3.8671916, 43.6032654 ], [ 3.8672247, 43.603165 ], [ 3.8673838, 43.602831 ], [ 3.8675871, 43.6025099 ], [ 3.8678328, 43.6022049 ], [ 3.8681184, 43.6019189 ], [ 3.8684412, 43.6016545 ], [ 3.8687981, 43.6014144 ], [ 3.8691857, 43.6012009 ] ], [ [ 3.8670031, 43.6141863 ], [ 3.8671981, 43.6141779 ], [ 3.8669828, 43.6140088 ], [ 3.866689, 43.6137272 ], [ 3.8664346, 43.6134259 ], [ 3.8663519, 43.6133023 ], [ 3.8662567, 43.6134527 ], [ 3.866011, 43.6137577 ], [ 3.8657253, 43.6140438 ], [ 3.8656041, 43.6141429 ], [ 3.8659315, 43.6142822 ], [ 3.8660339, 43.6143361 ], [ 3.8660521, 43.6143312 ], [ 3.8665227, 43.6142418 ], [ 3.8670031, 43.6141863 ] ] ], [ [ [ 3.8977335, 43.6152031 ], [ 3.8980641, 43.6154624 ], [ 3.8983581, 43.615744 ], [ 3.8986126, 43.6160451 ], [ 3.8988254, 43.616363 ], [ 3.8989942, 43.6166944 ], [ 3.8991175, 43.6170363 ], [ 3.8991771, 43.6173077 ], [ 3.8993879, 43.6172985 ], [ 3.899874, 43.617312 ], [ 3.900356, 43.6173601 ], [ 3.9008291, 43.6174422 ], [ 3.9012889, 43.6175577 ], [ 3.9017309, 43.6177053 ], [ 3.9021508, 43.6178837 ], [ 3.9025447, 43.6180911 ], [ 3.9029087, 43.6183256 ], [ 3.9032393, 43.6185849 ], [ 3.9035333, 43.6188665 ], [ 3.9037879, 43.6191676 ], [ 3.9040007, 43.6194855 ], [ 3.9041696, 43.6198169 ], [ 3.9042929, 43.6201588 ], [ 3.9043695, 43.6205078 ], [ 3.9043987, 43.6208606 ], [ 3.9043801, 43.6212138 ], [ 3.9043139, 43.6215639 ], [ 3.9042009, 43.6219076 ], [ 3.904042, 43.6222417 ], [ 3.9038388, 43.6225628 ], [ 3.9035932, 43.6228679 ], [ 3.9033077, 43.6231541 ], [ 3.9029849, 43.6234185 ], [ 3.902628, 43.6236587 ], [ 3.9022404, 43.6238723 ], [ 3.9018258, 43.6240573 ], [ 3.9013883, 43.6242118 ], [ 3.900932, 43.6243345 ], [ 3.9004614, 43.6244241 ], [ 3.8999809, 43.6244797 ], [ 3.8994953, 43.6245009 ], [ 3.8990091, 43.6244874 ], [ 3.8985271, 43.6244393 ], [ 3.8980539, 43.6243571 ], [ 3.8975941, 43.6242417 ], [ 3.8971521, 43.624094 ], [ 3.8967321, 43.6239156 ], [ 3.8963382, 43.6237082 ], [ 3.8959742, 43.6234737 ], [ 3.8956436, 43.6232144 ], [ 3.8953496, 43.6229328 ], [ 3.895095, 43.6226316 ], [ 3.8948823, 43.6223138 ], [ 3.8947135, 43.6219823 ], [ 3.8945902, 43.6216404 ], [ 3.8945307, 43.621369 ], [ 3.8943198, 43.6213782 ], [ 3.8938336, 43.6213647 ], [ 3.8933517, 43.6213166 ], [ 3.8932897, 43.6213058 ], [ 3.893381, 43.6215592 ], [ 3.8934576, 43.6219083 ], [ 3.8934867, 43.6222611 ], [ 3.8934681, 43.6226142 ], [ 3.8934019, 43.6229644 ], [ 3.8932887, 43.6233081 ], [ 3.8931298, 43.6236421 ], [ 3.8929265, 43.6239632 ], [ 3.8926809, 43.6242683 ], [ 3.8923953, 43.6245544 ], [ 3.8920724, 43.6248188 ], [ 3.8918, 43.6250021 ], [ 3.8852622, 43.6250026 ], [ 3.8850616, 43.6248733 ], [ 3.884731, 43.624614 ], [ 3.8844371, 43.6243324 ], [ 3.8841825, 43.6240312 ], [ 3.8839698, 43.6237133 ], [ 3.8838011, 43.6233819 ], [ 3.8836778, 43.6230399 ], [ 3.8836013, 43.6226909 ], [ 3.8835723, 43.6223381 ], [ 3.883591, 43.621985 ], [ 3.8836573, 43.6216348 ], [ 3.8837704, 43.6212911 ], [ 3.8839294, 43.6209571 ], [ 3.8841328, 43.620636 ], [ 3.8843784, 43.6203309 ], [ 3.884664, 43.6200448 ], [ 3.8849869, 43.6197805 ], [ 3.8853438, 43.6195403 ], [ 3.8857315, 43.6193268 ], [ 3.886146, 43.6191419 ], [ 3.8865836, 43.6189873 ], [ 3.8870398, 43.6188647 ], [ 3.8875104, 43.6187752 ], [ 3.8879909, 43.6187196 ], [ 3.8884765, 43.6186985 ], [ 3.8889626, 43.6187121 ], [ 3.8894445, 43.6187602 ], [ 3.8895065, 43.6187709 ], [ 3.8894152, 43.6185175 ], [ 3.8893386, 43.6181685 ], [ 3.8893096, 43.6178157 ], [ 3.8893282, 43.6174625 ], [ 3.8893945, 43.6171124 ], [ 3.8895076, 43.6167686 ], [ 3.8896666, 43.6164346 ], [ 3.8898698, 43.6161135 ], [ 3.8901154, 43.6158084 ], [ 3.890401, 43.6155223 ], [ 3.8907238, 43.6152579 ], [ 3.8910807, 43.6150178 ], [ 3.8914683, 43.6148042 ], [ 3.8918828, 43.6146193 ], [ 3.8923203, 43.6144647 ], [ 3.8927765, 43.6143421 ], [ 3.8932471, 43.6142525 ], [ 3.8937275, 43.6141969 ], [ 3.894213, 43.6141758 ], [ 3.8946991, 43.6141893 ], [ 3.895181, 43.6142374 ], [ 3.8956541, 43.6143196 ], [ 3.8961139, 43.6144351 ], [ 3.8965558, 43.6145827 ], [ 3.8969757, 43.6147611 ], [ 3.8973696, 43.6149686 ], [ 3.8977335, 43.6152031 ] ] ] ] } },
{ "type": "Feature", "properties": { "index": "1", "label": "Beyond 400 m", "color": "#d9d9d9" }, "geometry": { "type": "MultiPolygon", "coordinates": [ [ [ [ 3.8560612, 43.6079105 ], [ 3.8556466, 43.6080953 ], [ 3.8552589, 43.6083088 ], [ 3.855, 43.6084828 ], [ 3.855, 43.6 ], [ 3.905, 43.6 ], [ 3.8892933, 43.6000024 ], [ 3.8891662, 43.6002033 ], [ 3.8891606, 43.6002027 ], [ 3.8886746, 43.6001892 ], [ 3.8881891, 43.6002103 ], [ 3.8877089, 43.6002659 ], [ 3.8872384, 43.6003554 ], [ 3.8867823, 43.600478 ], [ 3.8863449, 43.6006325 ], [ 3.8859304, 43.6008175 ], [ 3.8855429, 43.601031 ], [ 3.8851861, 43.6012711 ], [ 3.8848633, 43.6015355 ], [ 3.8845778, 43.6018216 ], [ 3.884417, 43.6020213 ], [ 3.8843749, 43.6019809 ], [ 3.8843694, 43.6019767 ], [ 3.8843536, 43.6019456 ], [ 3.884141, 43.6016278 ], [ 3.8838866, 43.6013266 ], [ 3.8835927, 43.601045 ], [ 3.8832623, 43.6007856 ], [ 3.8828985, 43.6005511 ], [ 3.8825048, 43.6003436 ], [ 3.8820851, 43.6001651 ], [ 3.8816433, 43.6000174 ], [ 3.8815849, 43.6000027 ], [ 3.8709564, 43.6000024 ], [ 3.8708662, 43.6001448 ], [ 3.8707072, 43.6004788 ], [ 3.87063, 43.6007132 ], [ 3.8704938, 43.6007391 ], [ 3.8700377, 43.6008616 ], [ 3.8696002, 43.6010161 ], [ 3.8691857, 43.6012009 ], [ 3.8687981, 43.6014144 ], [ 3.8684412, 43.6016545 ], [ 3.8681184, 43.6019189 ], [ 3.8678328, 43.6022049 ], [ 3.8675871, 43.6025099 ], [ 3.8673838, 43.602831 ], [ 3.8672247, 43.603165 ], [ 3.8671916, 43.6032654 ], [ 3.8671568, 43.6032645 ], [ 3.8666713, 43.6032855 ], [ 3.8664421, 43.603312 ], [ 3.8660258, 43.6033003 ], [ 3.8655403, 43.6033213 ], [ 3.86506, 43.6033768 ], [ 3.8645895, 43.6034662 ], [ 3.8641333, 43.6035887 ], [ 3.8636958, 43.6037432 ], [ 3.8632813, 43.603928 ], [ 3.8628937, 43.6041415 ], [ 3.8625367, 43.6043815 ], [ 3.8622138, 43.6046459 ], [ 3.8619282, 43.6049319 ], [ 3.8616825, 43.6052369 ], [ 3.8614791, 43.605558 ], [ 3.86132, 43.6058919 ], [ 3.8612067, 43.6062357 ], [ 3.8611404, 43.6065858 ], [ 3.8611215, 43.6069389 ], [ 3.8611504, 43.6072917 ], [ 3.8612268, 43.6076408 ], [ 3.8613498, 43.6079827 ], [ 3.8614613, 43.6082019 ], [ 3.8614361, 43.608203 ], [ 3.8611535, 43.608054 ], [ 3.8607337, 43.6078754 ], [ 3.8602919, 43.6077276 ], [ 3.8598322, 43.607612 ], [ 3.8593592, 43.6075297 ], [ 3.8588774, 43.6074814 ], [ 3.8583914, 43.6074678 ], [ 3.8579059, 43.6074887 ], [ 3.8574255, 43.6075442 ], [ 3.8569549, 43.6076336 ], [ 3.8564987, 43.6077561 ], [ 3.8560612, 43.6079105 ] ] ], [ [ [ 3.866011, 43.6137577 ], [ 3.8662567, 43.6134527 ], [ 3.8663519, 43.6133023 ], [ 3.8664346, 43.6134259 ], [ 3.866689, 43.6137272 ], [ 3.8669828, 43.6140088 ], [ 3.8671981, 43.6141779 ], [ 3.8670031, 43.6141863 ], [ 3.8665227, 43.6142418 ], [ 3.8660521, 43.6143312 ], [ 3.8660339, 43.6143361 ], [ 3.8659315, 43.6142822 ], [ 3.8656041, 43.6141429 ], [ 3.8657253, 43.6140438 ], [ 3.866011, 43.6137577 ] ] ], [ [ [ 3.9034124, 43.6050734 ], [ 3.9038979, 43.6050522 ], [ 3.9043782, 43.6049966 ], [ 3.9048486, 43.604907 ], [ 3.905, 43.6048663 ], [ 3.905, 43.625 ], [ 3.8918, 43.6250021 ], [ 3.8920724, 43.6248188 ], [ 3.8923953, 43.6245544 ], [ 3.8926809, 43.6242683 ], [ 3.8929265, 43.6239632 ], [ 3.8931298, 43.6236421 ], [ 3.8932887, 43.6233081 ], [ 3.8934019, 43.6229644 ], [ 3.8934681, 43.6226142 ], [ 3.8934867, 43.6222611 ], [ 3.8934576, 43.6219083 ], [ 3.893381, 43.6215592 ], [ 3.8932897, 43.6213058 ], [ 3.8933517, 43.6213166 ], [ 3.8938336, 43.6213647 ], [ 3.8943198, 43.6213782 ], [ 3.8945307, 43.621369 ], [ 3.8945902, 43.6216404 ], [ 3.8947135, 43.6219823 ], [ 3.8948823, 43.6223138 ], [ 3.895095, 43.6226316 ], [ 3.8953496, 43.6229328 ], [ 3.8956436, 43.6232144 ], [ 3.8959742, 43.6234737 ], [ 3.8963382, 43.6237082 ], [ 3.8967321, 43.6239156 ], [ 3.8971521, 43.624094 ], [ 3.8975941, 43.6242417 ], [ 3.8980539, 43.6243571 ], [ 3.8985271, 43.6244393 ], [ 3.8990091, 43.6244874 ], [ 3.8994953, 43.6245009 ], [ 3.8999809, 43.6244797 ], [ 3.9004614, 43.6244241 ], [ 3.900932, 43.6243345 ], [ 3.9013883, 43.6242118 ], [ 3.9018258, 43.6240573 ], [ 3.9022404, 43.6238723 ], [ 3.902628, 43.6236587 ], [ 3.9029849, 43.6234185 ], [ 3.9033077, 43.6231541 ], [ 3.9035932, 43.6228679 ], [ 3.9038388, 43.6225628 ], [ 3.904042, 43.6222417 ], [ 3.9042009, 43.6219076 ], [ 3.9043139, 43.6215639 ], [ 3.9043801, 43.6212138 ], [ 3.9043987, 43.6208606 ], [ 3.9043695, 43.6205078 ], [ 3.9042929, 43.6201588 ], [ 3.9041696, 43.6198169 ], [ 3.9040007, 43.6194855 ], [ 3.9037879, 43.6191676 ], [ 3.9035333, 43.6188665 ], [ 3.9032393, 43.6185849 ], [ 3.9029087, 43.6183256 ], [ 3.9025447, 43.6180911 ], [ 3.9021508, 43.6178837 ], [ 3.9017309, 43.6177053 ], [ 3.9012889, 43.6175577 ], [ 3.9008291, 43.6174422 ], [ 3.900356, 43.6173601 ], [ 3.899874, 43.617312 ], [ 3.8993879, 43.6172985 ], [ 3.8991771, 43.6173077 ], [ 3.8991175, 43.6170363 ], [ 3.8989942, 43.6166944 ], [ 3.8988254, 43.616363 ], [ 3.8986126, 43.6160451 ], [ 3.8983581, 43.615744 ], [ 3.8980641, 43.6154624 ], [ 3.8977335, 43.6152031 ], [ 3.8973696, 43.6149686 ], [ 3.8969757, 43.6147611 ], [ 3.8965558, 43.6145827 ], [ 3.8961139, 43.6144351 ], [ 3.8956541, 43.6143196 ], [ 3.895181, 43.6142374 ], [ 3.8946991, 43.6141893 ], [ 3.894213, 43.6141758 ], [ 3.8937275, 43.6141969 ], [ 3.8932471, 43.6142525 ], [ 3.8927765, 43.6143421 ], [ 3.8923203, 43.6144647 ], [ 3.8918828, 43.6146193 ], [ 3.8914683, 43.6148042 ], [ 3.8910807, 43.6150178 ], [ 3.8907238, 43.6152579 ], [ 3.890401, 43.6155223 ], [ 3.8901154, 43.6158084 ], [ 3.8898698, 43.6161135 ], [ 3.8896666, 43.6164346 ], [ 3.8895076, 43.6167686 ], [ 3.8893945, 43.6171124 ], [ 3.8893282, 43.6174625 ], [ 3.8893096, 43.6178157 ], [ 3.8893386, 43.6181685 ], [ 3.8894152, 43.6185175 ], [ 3.8895065, 43.6187709 ], [ 3.8894445, 43.6187602 ], [ 3.8889626, 43.6187121 ], [ 3.8884765, 43.6186985 ], [ 3.8879909, 43.6187196 ], [ 3.8875104, 43.6187752 ], [ 3.8870398, 43.6188647 ], [ 3.8865836, 43.6189873 ], [ 3.886146, 43.6191419 ], [ 3.8857315, 43.6193268 ], [ 3.8853438, 43.6195403 ], [ 3.8849869, 43.6197805 ], [ 3.884664, 43.6200448 ], [ 3.8843784, 43.6203309 ], [ 3.8841328, 43.620636 ], [ 3.8839294, 43.6209571 ], [ 3.8837704, 43.6212911 ], [ 3.8836573, 43.6216348 ], [ 3.883591, 43.621985 ], [ 3.8835723, 43.6223381 ], [ 3.8836013, 43.6226909 ], [ 3.8836778, 43.6230399 ], [ 3.8838011, 43.6233819 ], [ 3.8839698, 43.6237133 ], [ 3.8841825, 43.6240312 ], [ 3.8844371, 43.6243324 ], [ 3.884731, 43.624614 ], [ 3.8850616, 43.6248733 ], [ 3.885262, 43.6250025 ], [ 3.8771014, 43.6250027 ], [ 3.8771448, 43.6248709 ], [ 3.8772111, 43.6245207 ], [ 3.8772299, 43.6241676 ], [ 3.8772009, 43.6238148 ], [ 3.8771244, 43.6234657 ], [ 3.8770012, 43.6231238 ], [ 3.8768325, 43.6227923 ], [ 3.8766198, 43.6224745 ], [ 3.8766021, 43.6224534 ], [ 3.8767682, 43.6223619 ], [ 3.8771252, 43.6221218 ], [ 3.8774481, 43.6218574 ], [ 3.8777338, 43.6215714 ], [ 3.8779795, 43.6212663 ], [ 3.8781828, 43.6209452 ], [ 3.8783044, 43.6206899 ], [ 3.8786817, 43.6207004 ], [ 3.8791674, 43.6206793 ], [ 3.8796478, 43.6206238 ], [ 3.8801184, 43.6205343 ], [ 3.8805747, 43.6204117 ], [ 3.8807292, 43.6203572 ], [ 3.8810384, 43.6204109 ], [ 3.8815203, 43.620459 ], [ 3.8820064, 43.6204726 ], [ 3.8824921, 43.6204515 ], [ 3.8829725, 43.620396 ], [ 3.8834431, 43.6203064 ], [ 3.8838994, 43.6201838 ], [ 3.884337, 43.6200293 ], [ 3.8847515, 43.6198444 ], [ 3.8851392, 43.6196309 ], [ 3.8854961, 43.6193907 ], [ 3.885819, 43.6191264 ], [ 3.8861046, 43.6188403 ], [ 3.8863502, 43.6185352 ], [ 3.8865535, 43.6182141 ], [ 3.8867125, 43.6178801 ], [ 3.8868256, 43.6175364 ], [ 3.8868919, 43.6171862 ], [ 3.8869106, 43.616833 ], [ 3.8868815, 43.6164803 ], [ 3.886805, 43.6161312 ], [ 3.8866818, 43.6157893 ], [ 3.886513, 43.6154579 ], [ 3.8863003, 43.61514 ], [ 3.8860458, 43.6148388 ], [ 3.8857519, 43.6145572 ], [ 3.8856926, 43.6145107 ], [ 3.8856656, 43.6144577 ], [ 3.885453, 43.6141398 ], [ 3.8851985, 43.6138386 ], [ 3.8850282, 43.6136755 ], [ 3.8852797, 43.6134695 ], [ 3.8855653, 43.6131834 ], [ 3.8855996, 43.6131408 ], [ 3.8857746, 43.6130444 ], [ 3.8861315, 43.6128042 ], [ 3.8864543, 43.6125398 ], [ 3.8867398, 43.6122537 ], [ 3.8869854, 43.6119487 ], [ 3.8871887, 43.6116276 ], [ 3.8872316, 43.6115375 ], [ 3.8874558, 43.6115598 ], [ 3.8879419, 43.6115734 ], [ 3.8884274, 43.6115523 ], [ 3.8889078, 43.6114967 ], [ 3.8893783, 43.6114072 ], [ 3.8898345, 43.6112845 ], [ 3.890159, 43.6111699 ], [ 3.8905289, 43.6112629 ], [ 3.891002, 43.6113451 ], [ 3.8914839, 43.6113932 ], [ 3.8919699, 43.6114067 ], [ 3.8924555, 43.6113856 ], [ 3.8929358, 43.61133 ], [ 3.8934064, 43.6112404 ], [ 3.8938626, 43.6111178 ], [ 3.8943, 43.6109632 ], [ 3.8947145, 43.6107783 ], [ 3.895102, 43.6105647 ], [ 3.8954589, 43.6103245 ], [ 3.8957816, 43.6100601 ], [ 3.8960672, 43.609774 ], [ 3.8963127, 43.6094689 ], [ 3.8965159, 43.6091478 ], [ 3.8966748, 43.6088138 ], [ 3.8967879, 43.60847 ], [ 3.8968501, 43.6081408 ], [ 3.8968919, 43.6081513 ], [ 3.897365, 43.6082335 ], [ 3.8978469, 43.6082816 ], [ 3.8983329, 43.6082951 ], [ 3.8988184, 43.608274 ], [ 3.8992987, 43.6082183 ], [ 3.8997692, 43.6081287 ], [ 3.9002254, 43.6080061 ], [ 3.9006628, 43.6078515 ], [ 3.9010773, 43.6076665 ], [ 3.9014648, 43.6074529 ], [ 3.9018216, 43.6072127 ], [ 3.9021443, 43.6069483 ], [ 3.9024298, 43.6066622 ], [ 3.9026753, 43.6063571 ], [ 3.9028784, 43.606036 ], [ 3.9030373, 43.6057019 ], [ 3.9031503, 43.6053582 ], [ 3.9032052, 43.6050677 ], [ 3.9034124, 43.6050734 ] ] ], [ [ [ 3.858339, 43.6240213 ], [ 3.8586328, 43.6243029 ], [ 3.8589633, 43.6245624 ], [ 3.8593271, 43.624797 ], [ 3.859714, 43.6250009 ], [ 3.855, 43.625 ], [ 3.855, 43.6136585 ], [ 3.8553378, 43.6138764 ], [ 3.8557315, 43.614084 ], [ 3.8561513, 43.6142625 ], [ 3.8565931, 43.6144103 ], [ 3.8570528, 43.614526 ], [ 3.8575259, 43.6146083 ], [ 3.8578739, 43.6146432 ], [ 3.8581744, 43.6148369 ], [ 3.8585681, 43.6150445 ], [ 3.8589879, 43.6152231 ], [ 3.8591282, 43.61527 ], [ 3.8590707, 43.6153276 ], [ 3.8588249, 43.6156326 ], [ 3.8586215, 43.6159537 ], [ 3.8584623, 43.6162876 ], [ 3.858349, 43.6166313 ], [ 3.8582826, 43.6169815 ], [ 3.8582638, 43.6173346 ], [ 3.8582927, 43.6176874 ], [ 3.858369, 43.6180365 ], [ 3.8584921, 43.6183784 ], [ 3.8586607, 43.6187099 ], [ 3.8588732, 43.6190278 ], [ 3.8591175, 43.619317 ], [ 3.8588908, 43.6194694 ], [ 3.8585678, 43.6197337 ], [ 3.8582821, 43.6200198 ], [ 3.8580363, 43.6203248 ], [ 3.8578328, 43.6206458 ], [ 3.8576737, 43.6209798 ], [ 3.8575603, 43.6213235 ], [ 3.8574939, 43.6216736 ], [ 3.8574751, 43.6220268 ], [ 3.857504, 43.6223796 ], [ 3.8575803, 43.6227286 ], [ 3.8577034, 43.6230706 ], [ 3.857872, 43.6234021 ], [ 3.8580846, 43.62372 ], [ 3.858339, 43.6240213 ] ] ], [ [ [ 3.888446, 43.6250024 ], [ 3.8852622, 43.6250026 ], [ 3.885262, 43.6250025 ], [ 3.888446, 43.6250024 ] ] ] ] } }
]
}
