{
"type": "FeatureCollection",
"features": [
{ "type": "Feature", "properties": { "index": "0", "last_edit_year": 2024, "years_since_edit": 2, "label": "1.0–4.2 yr", "color": "#eff3ff" }, "geometry": { "type": "Point", "coordinates": [ 3.8719821, 43.6041743 ] } },
{ "type": "Feature", "properties": { "index": "1", "last_edit_year": 2025, "years_since_edit": 1, "label": "1.0–4.2 yr", "color": "#eff3ff" }, "geometry": { "type": "Point", "coordinates": [ 3.88948, 43.6076035 ] } },
{ "type": "Feature", "properties": { "index": "2", "last_edit_year": 2024, "years_since_edit": 2, "label": "1.0–4.2 yr", "color": "#eff3ff" }, "geometry": { "type": "Point", "coordinates": [ 3.8937304, 43.6016 ] } },
{ "type": "Feature", "properties": { "index": "3", "last_edit_year": 2024, "years_since_edit": 2, "label": "1.0–4.2 yr", "color": "#eff3ff" }, "geometry": { "type": "Point", "coordinates": [ 3.8891991, 43.6040261 ] } },
{ "type": "Feature", "properties": { "index": "4", "last_edit_year": 2012, "years_since_edit": 14, "label": "10.8–14.0 yr", "color": "#08519c" }, "geometry": { "type": "Point", "coordinates": [ 3.8772545, 43.6063976 ] } },
{ "type": "Feature", "properties": { "index": "5", "last_edit_year": 2025, "years_since_edit": 1, "label": "1.0–4.2 yr", "color": "#eff3ff" }, "geometry": { "type": "Point", "coordinates": [ 3.8825895, 43.6102849 ] } },
{ "type": "Feature", "properties": { "index": "6", "last_edit_year": 2025, "years_since_edit": 1, "label": "1.0–4.2 yr", "color": "#eff3ff" }, "geometry": { "type": "Point", "coordinates": [ 3.8706599, 43.6108055 ] } },
{ "type": "Feature", "properties": { "index": "7", "last_edit_year": 2024, "years_since_edit": 2, "label": "1.0–4.2 yr", "color": "#eff3ff" }, "geometry": { "type": "Point", "coordinates": [ 3.8737843, 43.6140054 ] } },
{ "type": "Feature", "properties": { "index": "8", "last_edit_year": 2024, "years_since_edit": 2, "label": "1.0–4.2 yr", "color": "#eff3ff" }, "geometry": { "type": "Point", "coordinates": [ 3.8756478, 43.6149999 ] } },
{ "type": "Feature", "properties": { "index": "9", "last_edit_year": 2012, "years_since_edit": 14, "label": "10.8–14.0 yr", "color": "#08519c" }, "geometry": { "type": "Point", "coordinates": [ 3.8786293, 43.6170992 ] } },
{ "type": "Feature", "properties": { "index": "10", "last_edit_year": 2024, "years_since_edit": 2, "label": "1.0–4.2 yr", "color": "#eff3ff" }, "geometry": { "type": "Point", "coordinates": [ 3.8994416, 43.6208997 ] } },
{ "type": "Feature", "properties": { "index": "11", "last_edit_year": 2024, "years_since_edit": 2, "label": "1.0–4.2 yr", "color": "#eff3ff" }, "geometry": { "type": "Point", "coordinates": [ 3.8885295, 43.6222997 ] } },
{ "type": "Feature", "properties": { "index": "12", "last_edit_year": 2024, "years_since_edit": 2, "label": "1.0–4.2 yr", "color": "#eff3ff" }, "geometry": { "type": "Point", "coordinates": [ 3.8722725, 43.6242055 ] } },
{ "type": "Feature", "properties": { "index": "13", "last_edit_year": 2025, "years_since_edit": 1, "label": "1.0–4.2 yr", "color": "#eff3ff" }, "geometry": { "type": "Point", "coordinates": [ 3.8969844, 43.6024338 ] } },
{ "type": "Feature", "properties": { "index": "14", "last_edit_year": 2024, "years_since_edit": 2, "label": "1.0–4.2 yr", "color": "#eff3ff" }, "geometry": { "type": "Point", "coordinates": [ 3.8735831, 43.6196022 ] } },
{ "type": "Feature", "properties": { "index": "15", "last_edit_year": 2024, "years_since_edit": 2, "label": "1.0–4.2 yr", "color": "#eff3ff" }, "geometry": { "type": "Point", "coordinates": [ 3.8819538, 43.6168714 ] } },
{ "type": "Feature", "properties": { "index": "16", "last_edit_year": 2025, "years_since_edit": 1, "label": "1.0–4.2 yr", "color": "#eff3ff" }, "geometry": { "type": "Point", "coordinates": [ 3.8707813, 43.6116951 ] } },
{ "type": "Feature", "properties": { "index": "17", "last_edit_year": 2024, "years_since_edit": 2, "label": "1.0–4.2 yr", "color": "#eff3ff" }, "geometry": { "type": "Point", "coordinates": [ 3.8751716, 43.6126312 ] } },
{ "type": "Feature", "properties": { "index": "18", "last_edit_year": 2024, "years_since_edit": 2, "label": "1.0–4.2 yr", "color": "#eff3ff" }, "geometry": { "type": "Point", "coordinates": [ 3.8942664, 43.617777 ] } },
{ "type": "Feature", "properties": { "index": "19", "last_edit_year": 2025, "years_since_edit": 1, "label": "1.0–4.2 yr", "color": "#eff3ff" }, "geometry": { "type": "Point", "coordinates": [ 3.8765754, 43.6088244 ] } },
{ "type": "Feature", "properties": { "index": "20", "last_edit_year": 2018, "years_since_edit": 8, "label": "7.5–10.8 yr", "color": "#4491c5" }, "geometry": { "type": "Point", "coordinates": [ 3.8887276, 43.6037904 ] } },
{ "type": "Feature", "properties": { "index": "21", "last_edit_year": 2025, "years_since_edit": 1, "label": "1.0–4.2 yr", "color": "#eff3ff" }, "geometry": { "type": "Point", "coordinates": [ 3.8783515, 43.6074525 ] } },
{ "type": "Feature", "properties": { "index": "22", "last_edit_year": 2025, "years_since_edit": 1, "label": "1.0–4.2 yr", "color": "#eff3ff" }, "geometry": { "type": "Point", "coordinates": [ 3.8919167, 43.6078055 ] } },
{ "type": "Feature", "properties": { "index": "23", "last_edit_year": 2025, "years_since_edit": 1, "label": "1.0–4.2 yr", "color": "#eff3ff" }, "geometry": { "type": "Point", "coordinates": [ 3.8878889, 43.6079722 ] } },
{ "type": "Feature", "properties": { "index": "24", "last_edit_year": 2025, "years_since_edit": 1, "label": "1.0–4.2 yr", "color": "#eff3ff" }, "geometry": { "type": "Point", "coordinates": [ 3.8971394, 43.6018018 ] } },
{ "type": "Feature", "properties": { "index": "25", "last_edit_year": 2025, "years_since_edit": 1, "label": "1.0–4.2 yr", "color": "#eff3ff" }, "geometry": { "type": "Point", "coordinates": [ 3.8951123, 43.6020006 ] } },
{ "type": "Feature", "properties": { "index": "26", "last_edit_year": 2025, "years_since_edit": 1, "label": "1.0–4.2 yr", "color": "#eff3ff" }, "geometry": { "type": "Point", "coordinates": [ 3.8812224, 43.6097226 ] } },
{ "type": "Feature", "properties": { "index": "27", "last_edit_year": 2024, "years_since_edit": 2, "label": "1.0–4.2 yr", "color": "#eff3ff" }, "geometry": { "type": "Point", "coordinates": [ 3.8730292, 43.6138891 ] } },
{ "type": "Feature", "properties": { "index": "28", "last_edit_year": 2024, "years_since_edit": 2, "label": "1.0–4.2 yr", "color": "#eff3ff" }, "geometry": { "type": "Point", "coordinates": [ 3.8765288, 43.6022205 ] } },
{ "type": "Feature", "properties": { "index": "29", "last_edit_year": 2024, "years_since_edit": 2, "label": "1.0–4.2 yr", "color": "#eff3ff" }, "geometry": { "type": "Point", "coordinates": [ 3.8754644, 43.601488 ] } },
{ "type": "Feature", "properties": { "index": "30", "last_edit_year": 2023, "years_since_edit": 3, "label": "1.0–4.2 yr", "color": "#eff3ff" }, "geometry": { "type": "Point", "coordinates": [ 3.8797954, 43.6033591 ] } },
{ "type": "Feature", "properties": { "index": "31", "last_edit_year": 2024, "years_since_edit": 2, "label": "1.0–4.2 yr", "color": "#eff3ff" }, "geometry": { "type": "Point", "coordinates": [ 3.8741418, 43.6152979 ] } },
{ "type": "Feature", "properties": { "index": "32", "last_edit_year": 2025, "years_since_edit": 1, "label": "1.0–4.2 yr", "color": "#eff3ff" }, "geometry": { "type": "Point", "coordinates": [ 3.880166, 43.6051685 ] } },
{ "type": "Feature", "properties": { "index": "33", "last_edit_year": 2024, "years_since_edit": 2, "label": "1.0–4.2 yr", "color": "#eff3ff" }, "geometry": { "type": "Point", "coordinates": [ 3.9033585, 43.6014722 ] } },
{ "type": "Feature", "properties": { "index": "34", "last_edit_year": 2025, "years_since_edit": 1, "label": "1.0–4.2 yr", "color": "#eff3ff" }, "geometry": { "type": "Point", "coordinates": [ 3.8964516, 43.6041268 ] } },
{ "type": "Feature", "properties": { "index": "35", "last_edit_year": 2025, "years_since_edit": 1, "label": "1.0–4.2 yr", "color": "#eff3ff" }, "geometry": { "type": "Point", "coordinates": [ 3.8982793, 43.6046939 ] } },
{ "type": "Feature", "properties": { "index": "36", "last_edit_year": 2025, "years_since_edit": 1, "label": "1.0–4.2 yr", "color": "#eff3ff" }, "geometry": { "type": "Point", "coordinates": [ 3.8804158, 43.6164199 ] } },
{ "type": "Feature", "properties": { "index": "37", "last_edit_year": 2024, "years_since_edit": 2, "label": "1.0–4.2 yr", "color": "#eff3ff" }, "geometry": { "type": "Point", "coordinates": [ 3.8673321, 43.6214352 ] } },
{ "type": "Feature", "properties": { "index": "38", "last_edit_year": 2025, "years_since_edit": 1, "label": "1.0–4.2 yr", "color": "#eff3ff" }, "geometry": { "type": "Point", "coordinates": [ 3.8808358, 43.6047974 ] } },
{ "type": "Feature", "properties": { "index": "39", "last_edit_year": 2024, "years_since_edit": 2, "label": "1.0–4.2 yr", "color": "#eff3ff" }, "geometry": { "type": "Point", "coordinates": [ 3.8675405, 43.6177665 ] } },
{ "type": "Feature", "properties": { "index": "40", "last_edit_year": 2025, "years_since_edit": 1, "label": "1.0–4.2 yr", "color": "#eff3ff" }, "geometry": { "type": "Point", "coordinates": [ 3.8814149, 43.6112145 ] } },
{ "type": "Feature", "properties": { "index": "41", "last_edit_year": 2025, "years_since_edit": 1, "label": "1.0–4.2 yr", "color": "#eff3ff" }, "geometry": { "type": "Point", "coordinates": [ 3.8672085, 43.6068657 ] } },
{ "type": "Feature", "properties": { "index": "42", "last_edit_year": 2025, "years_since_edit": 1, "label": "1.0–4.2 yr", "color": "#eff3ff" }, "geometry": { "type": "Point", "coordinates": [ 3.8811065, 43.6158712 ] } },
{ "type": "Feature", "properties": { "index": "43", "last_edit_year": 2025, "years_since_edit": 1, "label": "1.0–4.2 yr", "color": "#eff3ff" }, "geometry": { "type": "Point", "coordinates": [ 3.8805775, 43.6042951 ] } },
{ "type": "Feature", "properties": { "index": "44", "last_edit_year": 2024, "years_since_edit": 2, "label": "1.0–4.2 yr", "color": "#eff3ff" }, "geometry": { "type": "Point", "coordinates": [ 3.8632206, 43.6172973 ] } },
{ "type": "Feature", "properties": { "index": "45", "last_edit_year": 2024, "years_since_edit": 2, "label": "1.0–4.2 yr", "color": "#eff3ff" }, "geometry": { "type": "Point", "coordinates": [ 3.8584426, 43.611069 ] } },
{ "type": "Feature", "properties": { "index": "46", "last_edit_year": 2024, "years_since_edit": 2, "label": "1.0–4.2 yr", "color": "#eff3ff" }, "geometry": { "type": "Point", "coordinates": [ 3.8660775, 43.6069015 ] } },
{ "type": "Feature", "properties": { "index": "47", "last_edit_year": 2017, "years_since_edit": 9, "label": "7.5–10.8 yr", "color": "#4491c5" }, "geometry": { "type": "Point", "coordinates": [ 3.8624323, 43.6219895 ] } },
{ "type": "Feature", "properties": { "index": "48", "last_edit_year": 2025, "years_since_edit": 1, "label": "1.0–4.2 yr", "color": "#eff3ff" }, "geometry": { "type": "Point", "coordinates": [ 3.8612791, 43.6120295 ] } },
{ "type": "Feature", "properties": { "index": "49", "last_edit_year": 2023, "years_since_edit": 3, "label": "1.0–4.2 yr", "color": "#eff3ff" }, "geometry": { "type": "Point", "coordinates": [ 3.8618612, 43.6117881 ] } },
{ "type": "Feature", "properties": { "index": "50", "last_edit_year": 2024, "years_since_edit": 2, "label": "1.0–4.2 yr", "color": "#eff3ff" }, "geometry": { "type": "Point", "coordinates": [ 3.8670227, 43.621895 ] } }
]
}
