{
"type": "FeatureCollection",
"features": [
{ "type": "Feature", "properties": { "index": "0", "subarea": "Hôpitaux-Facultés", "count": 0, "population": 917.0, "per_1000_inhabitants": 0.0, "label": "0.0–0.2 /1k", "color": "#eff3ff" }, "geometry": { "type": "MultiPolygon", "coordinates": [ [ [ [ 3.8635615, 43.6248501 ], [ 3.8637998, 43.625 ], [ 3.855, 43.625 ], [ 3.855, 43.6222708 ], [ 3.8550946, 43.6222082 ], [ 3.855281, 43.622085 ], [ 3.8553166, 43.6220614 ], [ 3.8553893, 43.6220178 ], [ 3.8555296, 43.6219336 ], [ 3.8557818, 43.6217747 ], [ 3.8558147, 43.6217542 ], [ 3.856014, 43.6216265 ], [ 3.8561808, 43.6215211 ], [ 3.8562443, 43.621481 ], [ 3.85627, 43.6214637 ], [ 3.8563157, 43.6214328 ], [ 3.8566168, 43.6212449 ], [ 3.8567995, 43.6211604 ], [ 3.8568525, 43.6211382 ], [ 3.8568734, 43.6211295 ], [ 3.8570112, 43.6210647 ], [ 3.8573464, 43.6209195 ], [ 3.8576113, 43.6207817 ], [ 3.8577506, 43.6206979 ], [ 3.8579227, 43.6207289 ], [ 3.8580436, 43.6207882 ], [ 3.858125, 43.6208566 ], [ 3.8582105, 43.6209362 ], [ 3.8583656, 43.6210911 ], [ 3.8585747, 43.6213056 ], [ 3.8587329, 43.6214595 ], [ 3.8588388, 43.6215568 ], [ 3.8591661, 43.6217965 ], [ 3.8595034, 43.6220604 ], [ 3.8597105, 43.6222213 ], [ 3.8599572, 43.6223872 ], [ 3.8601198, 43.6224858 ], [ 3.8603985, 43.6226785 ], [ 3.860942, 43.6230569 ], [ 3.8610849, 43.6231486 ], [ 3.8618561, 43.6236961 ], [ 3.8620137, 43.62381 ], [ 3.8620369, 43.6238268 ], [ 3.8620662, 43.623848 ], [ 3.8621417, 43.6239139 ], [ 3.8622319, 43.6239959 ], [ 3.862289, 43.6240416 ], [ 3.8623349, 43.6240753 ], [ 3.8623802, 43.6241086 ], [ 3.8624365, 43.62415 ], [ 3.8627476, 43.624346 ], [ 3.8632541, 43.6246597 ], [ 3.8635615, 43.6248501 ] ] ], [ [ [ 3.8936184, 43.6247822 ], [ 3.8938478, 43.625 ], [ 3.8880208, 43.625 ], [ 3.8880552, 43.624994 ], [ 3.8881418, 43.6249755 ], [ 3.888599, 43.6248779 ], [ 3.8889803, 43.624785 ], [ 3.8890073, 43.6247812 ], [ 3.8891417, 43.6247621 ], [ 3.8892675, 43.624719 ], [ 3.8892946, 43.6247097 ], [ 3.8893149, 43.6247012 ], [ 3.8912968, 43.6239434 ], [ 3.8919362, 43.6236823 ], [ 3.8920861, 43.6236555 ], [ 3.8921599, 43.6236469 ], [ 3.8922903, 43.623655 ], [ 3.8923245, 43.6236569 ], [ 3.8924357, 43.623652 ], [ 3.8924723, 43.6236906 ], [ 3.8928455, 43.6240424 ], [ 3.8930857, 43.6242678 ], [ 3.8936184, 43.6247822 ] ] ] ] } },
{ "type": "Feature", "properties": { "index": "1", "subarea": "Centre", "count": 43, "population": 70809.0, "per_1000_inhabitants": 0.61, "label": "0.4–0.6 /1k", "color": "#08519c" }, "geometry": { "type": "Polygon", "coordinates": [ [ [ 3.8938744, 43.6058525 ], [ 3.8940988, 43.6059132 ], [ 3.8941505, 43.6059272 ], [ 3.8941964, 43.6059391 ], [ 3.8942349, 43.605949 ], [ 3.894288, 43.6059616 ], [ 3.8943216, 43.6059695 ], [ 3.8946102, 43.6060334 ], [ 3.8951382, 43.6061803 ], [ 3.895316, 43.6062305 ], [ 3.8953487, 43.6062389 ], [ 3.8956586, 43.6063123 ], [ 3.8958156, 43.6063463 ], [ 3.8960132, 43.6063712 ], [ 3.8962316, 43.6063963 ], [ 3.8962906, 43.6063972 ], [ 3.8965409, 43.6063851 ], [ 3.8971977, 43.6063553 ], [ 3.8971984, 43.606818 ], [ 3.8972306, 43.6079133 ], [ 3.8973165, 43.6086164 ], [ 3.8972293, 43.6091068 ], [ 3.8972227, 43.6094986 ], [ 3.8970744, 43.6106835 ], [ 3.8966727, 43.6118784 ], [ 3.8965249, 43.6121859 ], [ 3.8961549, 43.6125934 ], [ 3.8957368, 43.6130007 ], [ 3.8951707, 43.6133549 ], [ 3.8949622, 43.6135269 ], [ 3.8945816, 43.6142249 ], [ 3.893713, 43.6158967 ], [ 3.8933798, 43.616349 ], [ 3.8932569, 43.616626 ], [ 3.8932478, 43.616767 ], [ 3.8933126, 43.6169292 ], [ 3.8934903, 43.6171552 ], [ 3.8936459, 43.6173151 ], [ 3.8939572, 43.617457 ], [ 3.8943436, 43.6175232 ], [ 3.8948834, 43.617533 ], [ 3.8955905, 43.617533 ], [ 3.8959298, 43.6175608 ], [ 3.8962038, 43.6176312 ], [ 3.8963535, 43.6177087 ], [ 3.896472, 43.6178121 ], [ 3.896626, 43.6182207 ], [ 3.8966751, 43.6184024 ], [ 3.8968123, 43.619098 ], [ 3.8968543, 43.6194664 ], [ 3.8968523, 43.6197734 ], [ 3.896814, 43.6199768 ], [ 3.8965657, 43.6205649 ], [ 3.8964152, 43.6212232 ], [ 3.8963984, 43.6214206 ], [ 3.8964249, 43.6215429 ], [ 3.8964845, 43.6216486 ], [ 3.8968593, 43.6220322 ], [ 3.8970321, 43.6223583 ], [ 3.8976804, 43.6233904 ], [ 3.8977822, 43.6237825 ], [ 3.8977273, 43.6244539 ], [ 3.8977882, 43.6248881 ], [ 3.8978186, 43.625 ], [ 3.8938478, 43.625 ], [ 3.8936184, 43.6247822 ], [ 3.8930857, 43.6242678 ], [ 3.8928455, 43.6240424 ], [ 3.8924723, 43.6236906 ], [ 3.8924357, 43.623652 ], [ 3.8923245, 43.6236569 ], [ 3.8922903, 43.623655 ], [ 3.8921599, 43.6236469 ], [ 3.8920861, 43.6236555 ], [ 3.8919362, 43.6236823 ], [ 3.8912968, 43.6239434 ], [ 3.8893149, 43.6247012 ], [ 3.8892946, 43.6247097 ], [ 3.8892675, 43.624719 ], [ 3.8891417, 43.6247621 ], [ 3.8890073, 43.6247812 ], [ 3.8889803, 43.624785 ], [ 3.888599, 43.6248779 ], [ 3.8881418, 43.6249755 ], [ 3.8880552, 43.624994 ], [ 3.8880208, 43.625 ], [ 3.8637998, 43.625 ], [ 3.8635615, 43.6248501 ], [ 3.8632541, 43.6246597 ], [ 3.8627476, 43.624346 ], [ 3.8624365, 43.62415 ], [ 3.8623802, 43.6241086 ], [ 3.8623349, 43.6240753 ], [ 3.862289, 43.6240416 ], [ 3.8622319, 43.6239959 ], [ 3.8621417, 43.6239139 ], [ 3.8620662, 43.623848 ], [ 3.8620369, 43.6238268 ], [ 3.8620137, 43.62381 ], [ 3.8618561, 43.6236961 ], [ 3.8610849, 43.6231486 ], [ 3.860942, 43.6230569 ], [ 3.8603985, 43.6226785 ], [ 3.8601198, 43.6224858 ], [ 3.8599572, 43.6223872 ], [ 3.8597105, 43.6222213 ], [ 3.8595034, 43.6220604 ], [ 3.8591661, 43.6217965 ], [ 3.8588388, 43.6215568 ], [ 3.8587329, 43.6214595 ], [ 3.8585747, 43.6213056 ], [ 3.8583656, 43.6210911 ], [ 3.8582105, 43.6209362 ], [ 3.858125, 43.6208566 ], [ 3.8580436, 43.6207882 ], [ 3.8579227, 43.6207289 ], [ 3.8577506, 43.6206979 ], [ 3.8579082, 43.6206189 ], [ 3.8581382, 43.6205092 ], [ 3.8585483, 43.6203272 ], [ 3.8587177, 43.6202169 ], [ 3.8588729, 43.6200798 ], [ 3.858838, 43.6199169 ], [ 3.8587845, 43.6197208 ], [ 3.8587348, 43.6194445 ], [ 3.8587084, 43.6192516 ], [ 3.858722, 43.6191369 ], [ 3.8587343, 43.6190333 ], [ 3.8588028, 43.6188661 ], [ 3.8588816, 43.6187305 ], [ 3.8589616, 43.6186198 ], [ 3.8590514, 43.6185261 ], [ 3.8590986, 43.618475 ], [ 3.8591329, 43.618448 ], [ 3.859167, 43.6184187 ], [ 3.8592062, 43.6183881 ], [ 3.8593568, 43.6182856 ], [ 3.8594749, 43.6182051 ], [ 3.8602494, 43.6176767 ], [ 3.8609996, 43.6171657 ], [ 3.8610334, 43.6171453 ], [ 3.8612022, 43.617029 ], [ 3.8611026, 43.6169938 ], [ 3.8610721, 43.6169812 ], [ 3.8607033, 43.6168308 ], [ 3.8603394, 43.6167168 ], [ 3.8591303, 43.616417 ], [ 3.8586949, 43.6163091 ], [ 3.8586562, 43.6162983 ], [ 3.858308, 43.6162006 ], [ 3.8582871, 43.6161925 ], [ 3.8580986, 43.6161284 ], [ 3.8582451, 43.6160791 ], [ 3.858296, 43.6160608 ], [ 3.8592605, 43.6157338 ], [ 3.8597691, 43.6154372 ], [ 3.8604095, 43.615009 ], [ 3.8603656, 43.6149891 ], [ 3.8600108, 43.6148279 ], [ 3.8597357, 43.6147066 ], [ 3.8596734, 43.6146428 ], [ 3.8596214, 43.6145781 ], [ 3.8589323, 43.6134233 ], [ 3.858904, 43.6133856 ], [ 3.8588991, 43.6133676 ], [ 3.8589322, 43.6129388 ], [ 3.858946, 43.6127605 ], [ 3.8589294, 43.6126765 ], [ 3.8589234, 43.6126261 ], [ 3.8589042, 43.6125262 ], [ 3.8588878, 43.6124691 ], [ 3.8588315, 43.6123394 ], [ 3.8587702, 43.6122321 ], [ 3.8587096, 43.6121293 ], [ 3.8586504, 43.6120527 ], [ 3.8586151, 43.6120135 ], [ 3.8585539, 43.6119549 ], [ 3.8582323, 43.6117173 ], [ 3.8580111, 43.6115579 ], [ 3.8578462, 43.6114225 ], [ 3.8575372, 43.6111822 ], [ 3.8573706, 43.6111254 ], [ 3.8572887, 43.611084 ], [ 3.8572177, 43.6110407 ], [ 3.8569112, 43.6108228 ], [ 3.8565631, 43.6105777 ], [ 3.8565152, 43.610548 ], [ 3.8564796, 43.6105259 ], [ 3.8564249, 43.6104983 ], [ 3.8563091, 43.6104399 ], [ 3.8553487, 43.6102641 ], [ 3.8554178, 43.6090065 ], [ 3.8559984, 43.6090434 ], [ 3.8553437, 43.6081733 ], [ 3.855, 43.6075765 ], [ 3.855, 43.6075731 ], [ 3.8553906, 43.6072881 ], [ 3.8553551, 43.607245 ], [ 3.855, 43.606846 ], [ 3.855, 43.6060584 ], [ 3.8550395, 43.6060399 ], [ 3.855, 43.605964 ], [ 3.855, 43.6051052 ], [ 3.8555809, 43.6049733 ], [ 3.8559033, 43.6048825 ], [ 3.8560057, 43.6048553 ], [ 3.8562376, 43.604787 ], [ 3.8568507, 43.6046033 ], [ 3.8573041, 43.604459 ], [ 3.8573541, 43.6044431 ], [ 3.8574907, 43.604403 ], [ 3.8576296, 43.6043587 ], [ 3.8581066, 43.6042065 ], [ 3.8581824, 43.6041823 ], [ 3.8582684, 43.6041499 ], [ 3.8583049, 43.6041361 ], [ 3.8586774, 43.6040226 ], [ 3.8591386, 43.6038833 ], [ 3.8593122, 43.6038362 ], [ 3.8594818, 43.6037995 ], [ 3.8603131, 43.6036581 ], [ 3.8608949, 43.6035365 ], [ 3.8614413, 43.6033987 ], [ 3.8615619, 43.6033678 ], [ 3.8616045, 43.6033565 ], [ 3.8622946, 43.603174 ], [ 3.8625714, 43.6031109 ], [ 3.8630812, 43.6029603 ], [ 3.8636454, 43.6028011 ], [ 3.8638007, 43.6027634 ], [ 3.8638294, 43.6027561 ], [ 3.8646755, 43.6025949 ], [ 3.8651584, 43.6024973 ], [ 3.8657109, 43.6023303 ], [ 3.8657905, 43.6023065 ], [ 3.8665584, 43.602081 ], [ 3.8666127, 43.6020653 ], [ 3.8667478, 43.6020278 ], [ 3.8668155, 43.6020196 ], [ 3.8668635, 43.6020138 ], [ 3.8676964, 43.6016596 ], [ 3.8680886, 43.6015913 ], [ 3.8686872, 43.6015027 ], [ 3.8692722, 43.6013133 ], [ 3.869691, 43.601137 ], [ 3.869839, 43.6010621 ], [ 3.8700267, 43.6009671 ], [ 3.8702992, 43.600803 ], [ 3.8705646, 43.6006441 ], [ 3.8707504, 43.6005275 ], [ 3.8709447, 43.6004113 ], [ 3.8710522, 43.6003459 ], [ 3.8716267, 43.6 ], [ 3.8769847, 43.6 ], [ 3.8772407, 43.6000638 ], [ 3.8774923, 43.6001237 ], [ 3.8776583, 43.6001635 ], [ 3.8778084, 43.6001995 ], [ 3.8782622, 43.6003162 ], [ 3.8789376, 43.6004808 ], [ 3.8793384, 43.6005778 ], [ 3.879995, 43.6007546 ], [ 3.8802607, 43.6008262 ], [ 3.88091, 43.6009924 ], [ 3.8814724, 43.601145 ], [ 3.8815764, 43.6011732 ], [ 3.8816453, 43.601195 ], [ 3.8824231, 43.6014696 ], [ 3.882458, 43.6014819 ], [ 3.8826321, 43.601545 ], [ 3.8828279, 43.6015708 ], [ 3.8830299, 43.6015974 ], [ 3.8835166, 43.6016616 ], [ 3.8845583, 43.6017989 ], [ 3.884678, 43.6018143 ], [ 3.8847907, 43.6018318 ], [ 3.8849591, 43.6018577 ], [ 3.8850688, 43.6018848 ], [ 3.8851335, 43.6019073 ], [ 3.885178, 43.601932 ], [ 3.8852224, 43.6019566 ], [ 3.8854044, 43.6020599 ], [ 3.8854848, 43.6021128 ], [ 3.8856496, 43.6022212 ], [ 3.8857138, 43.6022634 ], [ 3.8858088, 43.6023259 ], [ 3.8859638, 43.6024118 ], [ 3.8860011, 43.6024324 ], [ 3.886124, 43.6024812 ], [ 3.8861845, 43.6025005 ], [ 3.8862422, 43.6025162 ], [ 3.8863041, 43.6025301 ], [ 3.886388, 43.6025416 ], [ 3.886483, 43.6025581 ], [ 3.8865625, 43.6025921 ], [ 3.8866094, 43.6026122 ], [ 3.8866709, 43.6026464 ], [ 3.8867379, 43.6026891 ], [ 3.8870305, 43.6028499 ], [ 3.8871473, 43.602918 ], [ 3.8875251, 43.6030637 ], [ 3.8879546, 43.603249 ], [ 3.8882068, 43.6033546 ], [ 3.8882924, 43.6033841 ], [ 3.88838, 43.6034103 ], [ 3.8886721, 43.6035102 ], [ 3.8888148, 43.603536 ], [ 3.8889491, 43.6035489 ], [ 3.8891938, 43.6035623 ], [ 3.8895477, 43.6035826 ], [ 3.889993, 43.6036116 ], [ 3.8900261, 43.6036138 ], [ 3.8900725, 43.6036148 ], [ 3.8901699, 43.6036159 ], [ 3.890317, 43.6036049 ], [ 3.8904657, 43.6036061 ], [ 3.8904172, 43.6036567 ], [ 3.8903912, 43.603686 ], [ 3.8903735, 43.6037049 ], [ 3.890299, 43.6037756 ], [ 3.8902774, 43.6037962 ], [ 3.8902646, 43.6038085 ], [ 3.890008, 43.6040304 ], [ 3.889926, 43.6041017 ], [ 3.8899687, 43.6041232 ], [ 3.8899999, 43.6041425 ], [ 3.8907946, 43.6045684 ], [ 3.8920064, 43.605116 ], [ 3.8920584, 43.6051435 ], [ 3.8920856, 43.6051803 ], [ 3.8922339, 43.6054154 ], [ 3.8923202, 43.6054317 ], [ 3.8932149, 43.6056605 ], [ 3.8938311, 43.6058416 ], [ 3.8938744, 43.6058525 ] ] ] } },
{ "type": "Feature", "properties": { "index": "2", "subarea": "Port Marianne", "count": 8, "population": 13878.0, "per_1000_inhabitants": 0.58, "label": "0.4–0.6 /1k", "color": "#08519c" }, "geometry": { "type": "Polygon", "coordinates": [ [ [ 3.8935221, 43.6001351 ], [ 3.8936481, 43.6 ], [ 3.8956302, 43.6 ], [ 3.895727, 43.6000492 ], [ 3.8960036, 43.6001712 ], [ 3.8961916, 43.6002232 ], [ 3.896563, 43.6004137 ], [ 3.897147, 43.6 ], [ 3.905, 43.6 ], [ 3.905, 43.6217157 ], [ 3.904266, 43.6216521 ], [ 3.9025497, 43.6216943 ], [ 3.8995841, 43.6219476 ], [ 3.8986841, 43.6220697 ], [ 3.8976577, 43.6222245 ], [ 3.8975767, 43.6222557 ], [ 3.8973832, 43.6222797 ], [ 3.8970321, 43.6223583 ], [ 3.8968593, 43.6220322 ], [ 3.8964845, 43.6216486 ], [ 3.8964249, 43.6215429 ], [ 3.8963984, 43.6214206 ], [ 3.8964152, 43.6212232 ], [ 3.8965657, 43.6205649 ], [ 3.896814, 43.6199768 ], [ 3.8968523, 43.6197734 ], [ 3.8968543, 43.6194664 ], [ 3.8968123, 43.619098 ], [ 3.8966751, 43.6184024 ], [ 3.896626, 43.6182207 ], [ 3.896472, 43.6178121 ], [ 3.8963535, 43.6177087 ], [ 3.8962038, 43.6176312 ], [ 3.8959298, 43.6175608 ], [ 3.8955905, 43.617533 ], [ 3.8948834, 43.617533 ], [ 3.8943436, 43.6175232 ], [ 3.8939572, 43.617457 ], [ 3.8936459, 43.6173151 ], [ 3.8934903, 43.6171552 ], [ 3.8933126, 43.6169292 ], [ 3.8932478, 43.616767 ], [ 3.8932569, 43.616626 ], [ 3.8933798, 43.616349 ], [ 3.893713, 43.6158967 ], [ 3.8945816, 43.6142249 ], [ 3.8949622, 43.6135269 ], [ 3.8951707, 43.6133549 ], [ 3.8957368, 43.6130007 ], [ 3.8961549, 43.6125934 ], [ 3.8965249, 43.6121859 ], [ 3.8966727, 43.6118784 ], [ 3.8970744, 43.6106835 ], [ 3.8972227, 43.6094986 ], [ 3.8972293, 43.6091068 ], [ 3.8973165, 43.6086164 ], [ 3.8972306, 43.6079133 ], [ 3.8971984, 43.606818 ], [ 3.8971977, 43.6063553 ], [ 3.8965409, 43.6063851 ], [ 3.8962906, 43.6063972 ], [ 3.8962316, 43.6063963 ], [ 3.8960132, 43.6063712 ], [ 3.8958156, 43.6063463 ], [ 3.8956586, 43.6063123 ], [ 3.8953487, 43.6062389 ], [ 3.895316, 43.6062305 ], [ 3.8951382, 43.6061803 ], [ 3.8946102, 43.6060334 ], [ 3.8943216, 43.6059695 ], [ 3.894288, 43.6059616 ], [ 3.8942349, 43.605949 ], [ 3.8941964, 43.6059391 ], [ 3.8941505, 43.6059272 ], [ 3.8940988, 43.6059132 ], [ 3.8938744, 43.6058525 ], [ 3.8938311, 43.6058416 ], [ 3.8932149, 43.6056605 ], [ 3.8923202, 43.6054317 ], [ 3.8922339, 43.6054154 ], [ 3.8920856, 43.6051803 ], [ 3.8920584, 43.6051435 ], [ 3.8920064, 43.605116 ], [ 3.8907946, 43.6045684 ], [ 3.8899999, 43.6041425 ], [ 3.8899687, 43.6041232 ], [ 3.889926, 43.6041017 ], [ 3.890008, 43.6040304 ], [ 3.8902646, 43.6038085 ], [ 3.8902774, 43.6037962 ], [ 3.890299, 43.6037756 ], [ 3.8903735, 43.6037049 ], [ 3.8903912, 43.603686 ], [ 3.8904172, 43.6036567 ], [ 3.8904657, 43.6036061 ], [ 3.89051, 43.6035586 ], [ 3.8905259, 43.6035397 ], [ 3.890549, 43.6035168 ], [ 3.8906317, 43.6034282 ], [ 3.8910617, 43.6029174 ], [ 3.8911959, 43.6027691 ], [ 3.8913386, 43.6026455 ], [ 3.89166, 43.6022764 ], [ 3.8916892, 43.6022429 ], [ 3.8917032, 43.6022256 ], [ 3.8917305, 43.6021928 ], [ 3.8919124, 43.6019802 ], [ 3.8919671, 43.601918 ], [ 3.8923454, 43.6015145 ], [ 3.8924188, 43.6014342 ], [ 3.8926993, 43.6011337 ], [ 3.8927679, 43.6010612 ], [ 3.8928238, 43.601008 ], [ 3.8929359, 43.6008597 ], [ 3.8929952, 43.6007274 ], [ 3.8931821, 43.6005185 ], [ 3.8934313, 43.6002369 ], [ 3.8935221, 43.6001351 ] ] ] } },
{ "type": "Feature", "properties": { "index": "3", "subarea": "Prés d'Arènes", "count": 0, "population": 2248.0, "per_1000_inhabitants": 0.0, "label": "0.0–0.2 /1k", "color": "#eff3ff" }, "geometry": { "type": "MultiPolygon", "coordinates": [ [ [ [ 3.8772407, 43.6000638 ], [ 3.877239, 43.6 ], [ 3.8936481, 43.6 ], [ 3.8935221, 43.6001351 ], [ 3.8934313, 43.6002369 ], [ 3.8931821, 43.6005185 ], [ 3.8929952, 43.6007274 ], [ 3.8929359, 43.6008597 ], [ 3.8928238, 43.601008 ], [ 3.8927679, 43.6010612 ], [ 3.8926993, 43.6011337 ], [ 3.8924188, 43.6014342 ], [ 3.8923454, 43.6015145 ], [ 3.8919671, 43.601918 ], [ 3.8919124, 43.6019802 ], [ 3.8917305, 43.6021928 ], [ 3.8917032, 43.6022256 ], [ 3.8916892, 43.6022429 ], [ 3.89166, 43.6022764 ], [ 3.8913386, 43.6026455 ], [ 3.8911959, 43.6027691 ], [ 3.8910617, 43.6029174 ], [ 3.8906317, 43.6034282 ], [ 3.890549, 43.6035168 ], [ 3.8905259, 43.6035397 ], [ 3.89051, 43.6035586 ], [ 3.8904657, 43.6036061 ], [ 3.890317, 43.6036049 ], [ 3.8901699, 43.6036159 ], [ 3.8900725, 43.6036148 ], [ 3.8900261, 43.6036138 ], [ 3.889993, 43.6036116 ], [ 3.8895477, 43.6035826 ], [ 3.8891938, 43.6035623 ], [ 3.8889491, 43.6035489 ], [ 3.8888148, 43.603536 ], [ 3.8886721, 43.6035102 ], [ 3.88838, 43.6034103 ], [ 3.8882924, 43.6033841 ], [ 3.8882068, 43.6033546 ], [ 3.8879546, 43.603249 ], [ 3.8875251, 43.6030637 ], [ 3.8871473, 43.602918 ], [ 3.8870305, 43.6028499 ], [ 3.8867379, 43.6026891 ], [ 3.8866709, 43.6026464 ], [ 3.8866094, 43.6026122 ], [ 3.8865625, 43.6025921 ], [ 3.886483, 43.6025581 ], [ 3.886388, 43.6025416 ], [ 3.8863041, 43.6025301 ], [ 3.8862422, 43.6025162 ], [ 3.8861845, 43.6025005 ], [ 3.886124, 43.6024812 ], [ 3.8860011, 43.6024324 ], [ 3.8859638, 43.6024118 ], [ 3.8858088, 43.6023259 ], [ 3.8857138, 43.6022634 ], [ 3.8856496, 43.6022212 ], [ 3.8854848, 43.6021128 ], [ 3.8854044, 43.6020599 ], [ 3.8852224, 43.6019566 ], [ 3.885178, 43.601932 ], [ 3.8851335, 43.6019073 ], [ 3.8850688, 43.6018848 ], [ 3.8849591, 43.6018577 ], [ 3.8847907, 43.6018318 ], [ 3.884678, 43.6018143 ], [ 3.8845583, 43.6017989 ], [ 3.8835166, 43.6016616 ], [ 3.8830299, 43.6015974 ], [ 3.8828279, 43.6015708 ], [ 3.8826321, 43.601545 ], [ 3.882458, 43.6014819 ], [ 3.8824231, 43.6014696 ], [ 3.8816453, 43.601195 ], [ 3.8815764, 43.6011732 ], [ 3.8814724, 43.601145 ], [ 3.88091, 43.6009924 ], [ 3.8802607, 43.6008262 ], [ 3.879995, 43.6007546 ], [ 3.8793384, 43.6005778 ], [ 3.8789376, 43.6004808 ], [ 3.8782622, 43.6003162 ], [ 3.8778084, 43.6001995 ], [ 3.8776583, 43.6001635 ], [ 3.8774923, 43.6001237 ], [ 3.8772407, 43.6000638 ] ] ], [ [ [ 3.895727, 43.6000492 ], [ 3.8956302, 43.6 ], [ 3.897147, 43.6 ], [ 3.896563, 43.6004137 ], [ 3.8961916, 43.6002232 ], [ 3.8960036, 43.6001712 ], [ 3.895727, 43.6000492 ] ] ] ] } },
{ "type": "Feature", "properties": { "index": "4", "subarea": "Croix d'Argent", "count": 0, "population": 3218.0, "per_1000_inhabitants": 0.0, "label": "0.0–0.2 /1k", "color": "#eff3ff" }, "geometry": { "type": "MultiPolygon", "coordinates": [ [ [ [ 3.8772407, 43.6000638 ], [ 3.8769847, 43.6 ], [ 3.877239, 43.6 ], [ 3.8772407, 43.6000638 ] ] ], [ [ [ 3.8550794, 43.6027708 ], [ 3.855, 43.602738 ], [ 3.855, 43.6 ], [ 3.8716267, 43.6 ], [ 3.8710522, 43.6003459 ], [ 3.8709447, 43.6004113 ], [ 3.8707504, 43.6005275 ], [ 3.8705646, 43.6006441 ], [ 3.8702992, 43.600803 ], [ 3.8700267, 43.6009671 ], [ 3.869839, 43.6010621 ], [ 3.869691, 43.601137 ], [ 3.8692722, 43.6013133 ], [ 3.8686872, 43.6015027 ], [ 3.8680886, 43.6015913 ], [ 3.8676964, 43.6016596 ], [ 3.8668635, 43.6020138 ], [ 3.8668155, 43.6020196 ], [ 3.8667478, 43.6020278 ], [ 3.8666127, 43.6020653 ], [ 3.8665584, 43.602081 ], [ 3.8657905, 43.6023065 ], [ 3.8657109, 43.6023303 ], [ 3.8651584, 43.6024973 ], [ 3.8646755, 43.6025949 ], [ 3.8638294, 43.6027561 ], [ 3.8638007, 43.6027634 ], [ 3.8636454, 43.6028011 ], [ 3.8630812, 43.6029603 ], [ 3.8625714, 43.6031109 ], [ 3.8622946, 43.603174 ], [ 3.8616045, 43.6033565 ], [ 3.8615619, 43.6033678 ], [ 3.8614413, 43.6033987 ], [ 3.8608949, 43.6035365 ], [ 3.8603131, 43.6036581 ], [ 3.8594818, 43.6037995 ], [ 3.8593122, 43.6038362 ], [ 3.8591386, 43.6038833 ], [ 3.8586774, 43.6040226 ], [ 3.8583049, 43.6041361 ], [ 3.8581408, 43.6040125 ], [ 3.8581064, 43.603994 ], [ 3.857894, 43.6038793 ], [ 3.8565985, 43.6033692 ], [ 3.8563536, 43.6032803 ], [ 3.856271, 43.6032503 ], [ 3.8561631, 43.6032112 ], [ 3.8555308, 43.6029907 ], [ 3.855393, 43.6029424 ], [ 3.8552444, 43.6029049 ], [ 3.8552173, 43.60288 ], [ 3.8551897, 43.6028555 ], [ 3.8551291, 43.6028017 ], [ 3.8550794, 43.6027708 ] ] ] ] } },
{ "type": "Feature", "properties": { "index": "5", "subarea": "Les Cévennes", "count": 0, "population": 3753.0, "per_1000_inhabitants": 0.0, "label": "0.0–0.2 /1k", "color": "#eff3ff" }, "geometry": { "type": "MultiPolygon", "coordinates": [ [ [ [ 3.8550946, 43.6222082 ], [ 3.855, 43.6222708 ], [ 3.855, 43.6075765 ], [ 3.8553437, 43.6081733 ], [ 3.8559984, 43.6090434 ], [ 3.8554178, 43.6090065 ], [ 3.8553487, 43.6102641 ], [ 3.8563091, 43.6104399 ], [ 3.8564249, 43.6104983 ], [ 3.8564796, 43.6105259 ], [ 3.8565152, 43.610548 ], [ 3.8565631, 43.6105777 ], [ 3.8569112, 43.6108228 ], [ 3.8572177, 43.6110407 ], [ 3.8572887, 43.611084 ], [ 3.8573706, 43.6111254 ], [ 3.8575372, 43.6111822 ], [ 3.8578462, 43.6114225 ], [ 3.8580111, 43.6115579 ], [ 3.8582323, 43.6117173 ], [ 3.8585539, 43.6119549 ], [ 3.8586151, 43.6120135 ], [ 3.8586504, 43.6120527 ], [ 3.8587096, 43.6121293 ], [ 3.8587702, 43.6122321 ], [ 3.8588315, 43.6123394 ], [ 3.8588878, 43.6124691 ], [ 3.8589042, 43.6125262 ], [ 3.8589234, 43.6126261 ], [ 3.8589294, 43.6126765 ], [ 3.858946, 43.6127605 ], [ 3.8589322, 43.6129388 ], [ 3.8588991, 43.6133676 ], [ 3.858904, 43.6133856 ], [ 3.8589323, 43.6134233 ], [ 3.8596214, 43.6145781 ], [ 3.8596734, 43.6146428 ], [ 3.8597357, 43.6147066 ], [ 3.8600108, 43.6148279 ], [ 3.8603656, 43.6149891 ], [ 3.8604095, 43.615009 ], [ 3.8597691, 43.6154372 ], [ 3.8592605, 43.6157338 ], [ 3.858296, 43.6160608 ], [ 3.8582451, 43.6160791 ], [ 3.8580986, 43.6161284 ], [ 3.8582871, 43.6161925 ], [ 3.858308, 43.6162006 ], [ 3.8586562, 43.6162983 ], [ 3.8586949, 43.6163091 ], [ 3.8591303, 43.616417 ], [ 3.8603394, 43.6167168 ], [ 3.8607033, 43.6168308 ], [ 3.8610721, 43.6169812 ], [ 3.8611026, 43.6169938 ], [ 3.8612022, 43.617029 ], [ 3.8610334, 43.6171453 ], [ 3.8609996, 43.6171657 ], [ 3.8602494, 43.6176767 ], [ 3.8594749, 43.6182051 ], [ 3.8593568, 43.6182856 ], [ 3.8592062, 43.6183881 ], [ 3.859167, 43.6184187 ], [ 3.8591329, 43.618448 ], [ 3.8590986, 43.618475 ], [ 3.8590514, 43.6185261 ], [ 3.8589616, 43.6186198 ], [ 3.8588816, 43.6187305 ], [ 3.8588028, 43.6188661 ], [ 3.8587343, 43.6190333 ], [ 3.858722, 43.6191369 ], [ 3.8587084, 43.6192516 ], [ 3.8587348, 43.6194445 ], [ 3.8587845, 43.6197208 ], [ 3.858838, 43.6199169 ], [ 3.8588729, 43.6200798 ], [ 3.8587177, 43.6202169 ], [ 3.8585483, 43.6203272 ], [ 3.8581382, 43.6205092 ], [ 3.8579082, 43.6206189 ], [ 3.8577506, 43.6206979 ], [ 3.8576113, 43.6207817 ], [ 3.8573464, 43.6209195 ], [ 3.8570112, 43.6210647 ], [ 3.8568734, 43.6211295 ], [ 3.8568525, 43.6211382 ], [ 3.8567995, 43.6211604 ], [ 3.8566168, 43.6212449 ], [ 3.8563157, 43.6214328 ], [ 3.85627, 43.6214637 ], [ 3.8562443, 43.621481 ], [ 3.8561808, 43.6215211 ], [ 3.856014, 43.6216265 ], [ 3.8558147, 43.6217542 ], [ 3.8557818, 43.6217747 ], [ 3.8555296, 43.6219336 ], [ 3.8553893, 43.6220178 ], [ 3.8553166, 43.6220614 ], [ 3.855281, 43.622085 ], [ 3.8550946, 43.6222082 ] ] ], [ [ [ 3.8553906, 43.6072881 ], [ 3.855, 43.6075731 ], [ 3.855, 43.606846 ], [ 3.8553551, 43.607245 ], [ 3.8553906, 43.6072881 ] ] ], [ [ [ 3.8550395, 43.6060399 ], [ 3.855, 43.6060584 ], [ 3.855, 43.605964 ], [ 3.8550395, 43.6060399 ] ] ], [ [ [ 3.8555809, 43.6049733 ], [ 3.855, 43.6051052 ], [ 3.855, 43.602738 ], [ 3.8550794, 43.6027708 ], [ 3.8551291, 43.6028017 ], [ 3.8551897, 43.6028555 ], [ 3.8552173, 43.60288 ], [ 3.8552444, 43.6029049 ], [ 3.855393, 43.6029424 ], [ 3.8555308, 43.6029907 ], [ 3.8561631, 43.6032112 ], [ 3.856271, 43.6032503 ], [ 3.8563536, 43.6032803 ], [ 3.8565985, 43.6033692 ], [ 3.857894, 43.6038793 ], [ 3.8581064, 43.603994 ], [ 3.8581408, 43.6040125 ], [ 3.8583049, 43.6041361 ], [ 3.8582684, 43.6041499 ], [ 3.8581824, 43.6041823 ], [ 3.8581066, 43.6042065 ], [ 3.8576296, 43.6043587 ], [ 3.8574907, 43.604403 ], [ 3.8573541, 43.6044431 ], [ 3.8573041, 43.604459 ], [ 3.8568507, 43.6046033 ], [ 3.8562376, 43.604787 ], [ 3.8560057, 43.6048553 ], [ 3.8559033, 43.6048825 ], [ 3.8555809, 43.6049733 ] ] ] ] } }
]
}
