{
"type": "FeatureCollection",
"features": [
{ "type": "Feature", "properties": { "index": "0", "@osmId": "node/2211363402", "name": "Kamaka parking", "opening_hours": null, "label": "Multi-storey car parks", "color": "#525252" }, "geometry": { "type": "Point", "coordinates": [ 39.2273716, -6.819738 ] } },
{ "type": "Feature", "properties": { "index": "1", "@osmId": "way/338010287", "name": null, "opening_hours": null, "label": "Surface car parks", "color": "#969696" }, "geometry": { "type": "Point", "coordinates": [ 39.2753411, -6.78019 ] } },
{ "type": "Feature", "properties": { "index": "2", "@osmId": "way/1148261755", "name": null, "opening_hours": null, "label": "Surface car parks", "color": "#969696" }, "geometry": { "type": "Point", "coordinates": [ 39.2777265, -6.7853435 ] } },
{ "type": "Feature", "properties": { "index": "3", "@osmId": "way/1237519025", "name": null, "opening_hours": null, "label": "Surface car parks", "color": "#969696" }, "geometry": { "type": "Point", "coordinates": [ 39.2803337, -6.7853007 ] } },
{ "type": "Feature", "properties": { "index": "4", "@osmId": "way/1343461988", "name": null, "opening_hours": null, "label": "Surface car parks", "color": "#969696" }, "geometry": { "type": "Point", "coordinates": [ 39.2705602, -6.7807814 ] } },
{ "type": "Feature", "properties": { "index": "5", "@osmId": "way/351566328", "name": null, "opening_hours": null, "label": "Surface car parks", "color": "#969696" }, "geometry": { "type": "Point", "coordinates": [ 39.2557175, -6.8395748 ] } },
{ "type": "Feature", "properties": { "index": "6", "@osmId": "way/381191676", "name": null, "opening_hours": null, "label": "Surface car parks", "color": "#969696" }, "geometry": { "type": "Point", "coordinates": [ 39.2529016, -6.8413535 ] } },
{ "type": "Feature", "properties": { "index": "7", "@osmId": "way/381436301", "name": null, "opening_hours": null, "label": "Surface car parks", "color": "#969696" }, "geometry": { "type": "Point", "coordinates": [ 39.2515341, -6.846365 ] } },
{ "type": "Feature", "properties": { "index": "8", "@osmId": "way/368936167", "name": null, "opening_hours": null, "label": "Surface car parks", "color": "#969696" }, "geometry": { "type": "Point", "coordinates": [ 39.2877512, -6.8014414 ] } },
{ "type": "Feature", "properties": { "index": "9", "@osmId": "way/368936171", "name": null, "opening_hours": null, "label": "Surface car parks", "color": "#969696" }, "geometry": { "type": "Point", "coordinates": [ 39.2882307, -6.8012336 ] } },
{ "type": "Feature", "properties": { "index": "10", "@osmId": "way/368941470", "name": null, "opening_hours": null, "label": "Surface car parks", "color": "#969696" }, "geometry": { "type": "Point", "coordinates": [ 39.2885308, -6.8035868 ] } },
{ "type": "Feature", "properties": { "index": "11", "@osmId": "way/1135198734", "name": null, "opening_hours": null, "label": "Surface car parks", "color": "#969696" }, "geometry": { "type": "Point", "coordinates": [ 39.2876801, -6.8032293 ] } },
{ "type": "Feature", "properties": { "index": "12", "@osmId": "way/1136658143", "name": null, "opening_hours": null, "label": "Surface car parks", "color": "#969696" }, "geometry": { "type": "Point", "coordinates": [ 39.286951, -6.8035577 ] } },
{ "type": "Feature", "properties": { "index": "13", "@osmId": "way/1136658144", "name": null, "opening_hours": null, "label": "Surface car parks", "color": "#969696" }, "geometry": { "type": "Point", "coordinates": [ 39.2872153, -6.8030963 ] } },
{ "type": "Feature", "properties": { "index": "14", "@osmId": "way/366452406", "name": null, "opening_hours": null, "label": "Surface car parks", "color": "#969696" }, "geometry": { "type": "Point", "coordinates": [ 39.2601742, -6.7876187 ] } },
{ "type": "Feature", "properties": { "index": "15", "@osmId": "way/1148522199", "name": null, "opening_hours": null, "label": "Surface car parks", "color": "#969696" }, "geometry": { "type": "Point", "coordinates": [ 39.2797863, -6.8161334 ] } },
{ "type": "Feature", "properties": { "index": "16", "@osmId": "way/1271578106", "name": null, "opening_hours": null, "label": "Surface car parks", "color": "#969696" }, "geometry": { "type": "Point", "coordinates": [ 39.2824356, -6.8254927 ] } },
{ "type": "Feature", "properties": { "index": "17", "@osmId": "way/368936168", "name": null, "opening_hours": null, "label": "Surface car parks", "color": "#969696" }, "geometry": { "type": "Point", "coordinates": [ 39.2859363, -6.8016867 ] } },
{ "type": "Feature", "properties": { "index": "18", "@osmId": "way/368936169", "name": null, "opening_hours": null, "label": "Surface car parks", "color": "#969696" }, "geometry": { "type": "Point", "coordinates": [ 39.2863873, -6.8012067 ] } },
{ "type": "Feature", "properties": { "index": "19", "@osmId": "way/368936728", "name": null, "opening_hours": null, "label": "Surface car parks", "color": "#969696" }, "geometry": { "type": "Point", "coordinates": [ 39.2849275, -6.801574 ] } },
{ "type": "Feature", "properties": { "index": "20", "@osmId": "way/368986391", "name": null, "opening_hours": null, "label": "Surface car parks", "color": "#969696" }, "geometry": { "type": "Point", "coordinates": [ 39.2823955, -6.799436 ] } },
{ "type": "Feature", "properties": { "index": "21", "@osmId": "way/382855883", "name": "Muhimbili Orthopadeic Institute(MOI)-Parking", "opening_hours": null, "label": "Surface car parks", "color": "#969696" }, "geometry": { "type": "Point", "coordinates": [ 39.2710787, -6.8030104 ] } },
{ "type": "Feature", "properties": { "index": "22", "@osmId": "way/364769956", "name": null, "opening_hours": null, "label": "Surface car parks", "color": "#969696" }, "geometry": { "type": "Point", "coordinates": [ 39.2218151, -6.7821511 ] } },
{ "type": "Feature", "properties": { "index": "23", "@osmId": "way/364769960", "name": null, "opening_hours": null, "label": "Surface car parks", "color": "#969696" }, "geometry": { "type": "Point", "coordinates": [ 39.2219413, -6.7816403 ] } },
{ "type": "Feature", "properties": { "index": "24", "@osmId": "way/361400780", "name": null, "opening_hours": null, "label": "Surface car parks", "color": "#969696" }, "geometry": { "type": "Point", "coordinates": [ 39.2451816, -6.8140388 ] } },
{ "type": "Feature", "properties": { "index": "25", "@osmId": "way/335068610", "name": "Oil Com Apartments Parking space", "opening_hours": null, "label": "Surface car parks", "color": "#969696" }, "geometry": { "type": "Point", "coordinates": [ 39.2469003, -6.8028049 ] } },
{ "type": "Feature", "properties": { "index": "26", "@osmId": "way/335876967", "name": "mweka", "opening_hours": null, "label": "Surface car parks", "color": "#969696" }, "geometry": { "type": "Point", "coordinates": [ 39.2484386, -6.8000145 ] } },
{ "type": "Feature", "properties": { "index": "27", "@osmId": "node/9275336438", "name": null, "opening_hours": null, "label": "Surface car parks", "color": "#969696" }, "geometry": { "type": "Point", "coordinates": [ 39.2753873, -6.8129439 ] } },
{ "type": "Feature", "properties": { "index": "28", "@osmId": "node/9275336852", "name": null, "opening_hours": null, "label": "Surface car parks", "color": "#969696" }, "geometry": { "type": "Point", "coordinates": [ 39.2739123, -6.8123802 ] } },
{ "type": "Feature", "properties": { "index": "29", "@osmId": "node/3685124005", "name": null, "opening_hours": null, "label": "Surface car parks", "color": "#969696" }, "geometry": { "type": "Point", "coordinates": [ 39.2771623, -6.7860428 ] } },
{ "type": "Feature", "properties": { "index": "30", "@osmId": "node/3727414931", "name": null, "opening_hours": null, "label": "Surface car parks", "color": "#969696" }, "geometry": { "type": "Point", "coordinates": [ 39.2745667, -6.8094642 ] } },
{ "type": "Feature", "properties": { "index": "31", "@osmId": "node/10581648224", "name": null, "opening_hours": null, "label": "Surface car parks", "color": "#969696" }, "geometry": { "type": "Point", "coordinates": [ 39.2818055, -6.8069049 ] } },
{ "type": "Feature", "properties": { "index": "32", "@osmId": "way/363716654", "name": "Kitete Auto Works", "opening_hours": null, "label": "Surface car parks", "color": "#969696" }, "geometry": { "type": "Point", "coordinates": [ 39.2287402, -6.8054139 ] } },
{ "type": "Feature", "properties": { "index": "33", "@osmId": "node/1399656998", "name": null, "opening_hours": null, "label": "Surface car parks", "color": "#969696" }, "geometry": { "type": "Point", "coordinates": [ 39.2402277, -6.7916688 ] } },
{ "type": "Feature", "properties": { "index": "34", "@osmId": "way/1237515455", "name": null, "opening_hours": null, "label": "Street-side parking", "color": "#bdbdbd" }, "geometry": { "type": "Point", "coordinates": [ 39.2799101, -6.7853777 ] } },
{ "type": "Feature", "properties": { "index": "35", "@osmId": "node/9275336321", "name": null, "opening_hours": null, "label": "Street-side parking", "color": "#bdbdbd" }, "geometry": { "type": "Point", "coordinates": [ 39.2536783, -6.8062097 ] } },
{ "type": "Feature", "properties": { "index": "36", "@osmId": "node/9275336429", "name": null, "opening_hours": null, "label": "Street-side parking", "color": "#bdbdbd" }, "geometry": { "type": "Point", "coordinates": [ 39.2530775, -6.8071045 ] } },
{ "type": "Feature", "properties": { "index": "37", "@osmId": "node/9275336555", "name": "Muhas Parking", "opening_hours": null, "label": "Street-side parking", "color": "#bdbdbd" }, "geometry": { "type": "Point", "coordinates": [ 39.2757221, -6.80817 ] } },
{ "type": "Feature", "properties": { "index": "38", "@osmId": "node/9275336642", "name": null, "opening_hours": null, "label": "Street-side parking", "color": "#bdbdbd" }, "geometry": { "type": "Point", "coordinates": [ 39.2585063, -6.8085321 ] } },
{ "type": "Feature", "properties": { "index": "39", "@osmId": "node/9275336768", "name": null, "opening_hours": null, "label": "Street-side parking", "color": "#bdbdbd" }, "geometry": { "type": "Point", "coordinates": [ 39.2537642, -6.8086386 ] } },
{ "type": "Feature", "properties": { "index": "40", "@osmId": "way/364121176", "name": null, "opening_hours": null, "label": "Street-side parking", "color": "#bdbdbd" }, "geometry": { "type": "Point", "coordinates": [ 39.2540612, -6.8104703 ] } },
{ "type": "Feature", "properties": { "index": "41", "@osmId": "way/371868094", "name": "Msanga Parking", "opening_hours": null, "label": "Street-side parking", "color": "#bdbdbd" }, "geometry": { "type": "Point", "coordinates": [ 39.2545224, -6.8104473 ] } },
{ "type": "Feature", "properties": { "index": "42", "@osmId": "way/683892374", "name": "Mpira Pesa Car Parking Open Space", "opening_hours": null, "label": "Street-side parking", "color": "#bdbdbd" }, "geometry": { "type": "Point", "coordinates": [ 39.2559989, -6.8097751 ] } },
{ "type": "Feature", "properties": { "index": "43", "@osmId": "way/364357496", "name": null, "opening_hours": null, "label": "Marked parking spaces", "color": "#fdae6b" }, "geometry": { "type": "Point", "coordinates": [ 39.2640361, -6.7854331 ] } },
{ "type": "Feature", "properties": { "index": "44", "@osmId": "way/373033348", "name": null, "opening_hours": null, "label": "Marked parking spaces", "color": "#fdae6b" }, "geometry": { "type": "Point", "coordinates": [ 39.2905521, -6.8116029 ] } },
{ "type": "Feature", "properties": { "index": "45", "@osmId": "way/373033349", "name": null, "opening_hours": null, "label": "Marked parking spaces", "color": "#fdae6b" }, "geometry": { "type": "Point", "coordinates": [ 39.2910694, -6.8119108 ] } },
{ "type": "Feature", "properties": { "index": "46", "@osmId": "way/373033350", "name": null, "opening_hours": null, "label": "Marked parking spaces", "color": "#fdae6b" }, "geometry": { "type": "Point", "coordinates": [ 39.2920033, -6.812012 ] } },
{ "type": "Feature", "properties": { "index": "47", "@osmId": "way/1255252975", "name": null, "opening_hours": null, "label": "Marked parking spaces", "color": "#fdae6b" }, "geometry": { "type": "Point", "coordinates": [ 39.2769024, -6.8231115 ] } },
{ "type": "Feature", "properties": { "index": "48", "@osmId": "way/368930138", "name": null, "opening_hours": null, "label": "Marked parking spaces", "color": "#fdae6b" }, "geometry": { "type": "Point", "coordinates": [ 39.2835494, -6.8083313 ] } },
{ "type": "Feature", "properties": { "index": "49", "@osmId": "way/372306571", "name": null, "opening_hours": null, "label": "Marked parking spaces", "color": "#fdae6b" }, "geometry": { "type": "Point", "coordinates": [ 39.2591334, -6.8158386 ] } },
{ "type": "Feature", "properties": { "index": "50", "@osmId": "way/372310296", "name": null, "opening_hours": null, "label": "Marked parking spaces", "color": "#fdae6b" }, "geometry": { "type": "Point", "coordinates": [ 39.2523159, -6.8169761 ] } },
{ "type": "Feature", "properties": { "index": "51", "@osmId": "way/463392599", "name": null, "opening_hours": null, "label": "Marked parking spaces", "color": "#fdae6b" }, "geometry": { "type": "Point", "coordinates": [ 39.2248083, -6.8448788 ] } },
{ "type": "Feature", "properties": { "index": "52", "@osmId": "node/3716620507", "name": "MS Generally Electrical", "opening_hours": null, "label": "Marked parking spaces", "color": "#fdae6b" }, "geometry": { "type": "Point", "coordinates": [ 39.2525157, -6.8322552 ] } },
{ "type": "Feature", "properties": { "index": "53", "@osmId": "node/6227018597", "name": "AAA sun share", "opening_hours": null, "label": "Marked parking spaces", "color": "#fdae6b" }, "geometry": { "type": "Point", "coordinates": [ 39.2472286, -6.8470023 ] } },
{ "type": "Feature", "properties": { "index": "54", "@osmId": "node/6227018598", "name": null, "opening_hours": null, "label": "Marked parking spaces", "color": "#fdae6b" }, "geometry": { "type": "Point", "coordinates": [ 39.2473605, -6.8473737 ] } },
{ "type": "Feature", "properties": { "index": "55", "@osmId": "node/3488659782", "name": null, "opening_hours": null, "label": "Marked parking spaces", "color": "#fdae6b" }, "geometry": { "type": "Point", "coordinates": [ 39.247018, -6.7955431 ] } },
{ "type": "Feature", "properties": { "index": "56", "@osmId": "node/3662823407", "name": null, "opening_hours": null, "label": "Marked parking spaces", "color": "#fdae6b" }, "geometry": { "type": "Point", "coordinates": [ 39.2502903, -6.7835387 ] } },
{ "type": "Feature", "properties": { "index": "57", "@osmId": "node/3704407835", "name": null, "opening_hours": null, "label": "Marked parking spaces", "color": "#fdae6b" }, "geometry": { "type": "Point", "coordinates": [ 39.2603739, -6.8079282 ] } },
{ "type": "Feature", "properties": { "index": "58", "@osmId": "node/3704408826", "name": null, "opening_hours": null, "label": "Marked parking spaces", "color": "#fdae6b" }, "geometry": { "type": "Point", "coordinates": [ 39.2607239, -6.8080035 ] } },
{ "type": "Feature", "properties": { "index": "59", "@osmId": "node/6251554998", "name": "Binzoa garage", "opening_hours": null, "label": "Marked parking spaces", "color": "#fdae6b" }, "geometry": { "type": "Point", "coordinates": [ 39.247614, -6.796399 ] } },
{ "type": "Feature", "properties": { "index": "60", "@osmId": "node/6400359320", "name": "Jarufu Open Space", "opening_hours": null, "label": "Marked parking spaces", "color": "#fdae6b" }, "geometry": { "type": "Point", "coordinates": [ 39.2477788, -6.786292 ] } },
{ "type": "Feature", "properties": { "index": "61", "@osmId": "node/6400359335", "name": "Akida Open Space", "opening_hours": null, "label": "Marked parking spaces", "color": "#fdae6b" }, "geometry": { "type": "Point", "coordinates": [ 39.2472014, -6.7840552 ] } },
{ "type": "Feature", "properties": { "index": "62", "@osmId": "way/334999501", "name": "Gebby", "opening_hours": null, "label": "Marked parking spaces", "color": "#fdae6b" }, "geometry": { "type": "Point", "coordinates": [ 39.2470513, -6.801722 ] } },
{ "type": "Feature", "properties": { "index": "63", "@osmId": "node/6400359374", "name": "Kisiwani OPen Space", "opening_hours": null, "label": "Marked parking spaces", "color": "#fdae6b" }, "geometry": { "type": "Point", "coordinates": [ 39.2526662, -6.7966672 ] } },
{ "type": "Feature", "properties": { "index": "64", "@osmId": "way/335090932", "name": null, "opening_hours": null, "label": "Marked parking spaces", "color": "#fdae6b" }, "geometry": { "type": "Point", "coordinates": [ 39.246651, -6.801792 ] } },
{ "type": "Feature", "properties": { "index": "65", "@osmId": "way/335194239", "name": "Parking Space", "opening_hours": null, "label": "Marked parking spaces", "color": "#fdae6b" }, "geometry": { "type": "Point", "coordinates": [ 39.247534, -6.8008202 ] } },
{ "type": "Feature", "properties": { "index": "66", "@osmId": "way/335881469", "name": null, "opening_hours": null, "label": "Marked parking spaces", "color": "#fdae6b" }, "geometry": { "type": "Point", "coordinates": [ 39.2491484, -6.7998441 ] } },
{ "type": "Feature", "properties": { "index": "67", "@osmId": "way/336058096", "name": "A.Mpemebeni Investment Show Room", "opening_hours": null, "label": "Marked parking spaces", "color": "#fdae6b" }, "geometry": { "type": "Point", "coordinates": [ 39.2442315, -6.8021975 ] } },
{ "type": "Feature", "properties": { "index": "68", "@osmId": "way/346254316", "name": null, "opening_hours": null, "label": "Marked parking spaces", "color": "#fdae6b" }, "geometry": { "type": "Point", "coordinates": [ 39.2453973, -6.7921417 ] } },
{ "type": "Feature", "properties": { "index": "69", "@osmId": "way/360849779", "name": null, "opening_hours": null, "label": "Marked parking spaces", "color": "#fdae6b" }, "geometry": { "type": "Point", "coordinates": [ 39.2519003, -6.7901702 ] } },
{ "type": "Feature", "properties": { "index": "70", "@osmId": "way/366796725", "name": null, "opening_hours": null, "label": "Marked parking spaces", "color": "#fdae6b" }, "geometry": { "type": "Point", "coordinates": [ 39.2628554, -6.7969041 ] } },
{ "type": "Feature", "properties": { "index": "71", "@osmId": "way/346187441", "name": "CCM Parking", "opening_hours": null, "label": "Marked parking spaces", "color": "#fdae6b" }, "geometry": { "type": "Point", "coordinates": [ 39.2373146, -6.7965863 ] } },
{ "type": "Feature", "properties": { "index": "72", "@osmId": "way/360720721", "name": null, "opening_hours": null, "label": "Marked parking spaces", "color": "#fdae6b" }, "geometry": { "type": "Point", "coordinates": [ 39.2242173, -6.8062041 ] } },
{ "type": "Feature", "properties": { "index": "73", "@osmId": "way/360760343", "name": "Gamex", "opening_hours": null, "label": "Marked parking spaces", "color": "#fdae6b" }, "geometry": { "type": "Point", "coordinates": [ 39.224679, -6.8060607 ] } },
{ "type": "Feature", "properties": { "index": "74", "@osmId": "way/360760344", "name": "Gamex", "opening_hours": null, "label": "Marked parking spaces", "color": "#fdae6b" }, "geometry": { "type": "Point", "coordinates": [ 39.2251374, -6.805919 ] } },
{ "type": "Feature", "properties": { "index": "75", "@osmId": "way/362581423", "name": null, "opening_hours": null, "label": "Marked parking spaces", "color": "#fdae6b" }, "geometry": { "type": "Point", "coordinates": [ 39.2272288, -6.8102668 ] } },
{ "type": "Feature", "properties": { "index": "76", "@osmId": "way/362919857", "name": "Facebook", "opening_hours": null, "label": "Marked parking spaces", "color": "#fdae6b" }, "geometry": { "type": "Point", "coordinates": [ 39.2298684, -6.8102182 ] } },
{ "type": "Feature", "properties": { "index": "77", "@osmId": "way/363291626", "name": null, "opening_hours": null, "label": "Marked parking spaces", "color": "#fdae6b" }, "geometry": { "type": "Point", "coordinates": [ 39.2264238, -6.8057006 ] } },
{ "type": "Feature", "properties": { "index": "78", "@osmId": "way/372815240", "name": null, "opening_hours": null, "label": "Marked parking spaces", "color": "#fdae6b" }, "geometry": { "type": "Point", "coordinates": [ 39.2254919, -6.7949861 ] } },
{ "type": "Feature", "properties": { "index": "79", "@osmId": "way/667631774", "name": "CCM car parking", "opening_hours": null, "label": "Marked parking spaces", "color": "#fdae6b" }, "geometry": { "type": "Point", "coordinates": [ 39.2420866, -6.8073774 ] } },
{ "type": "Feature", "properties": { "index": "80", "@osmId": "node/3662727428", "name": null, "opening_hours": null, "label": "Marked parking spaces", "color": "#fdae6b" }, "geometry": { "type": "Point", "coordinates": [ 39.2383086, -6.8104042 ] } },
{ "type": "Feature", "properties": { "index": "81", "@osmId": "node/3662817074", "name": null, "opening_hours": null, "label": "Marked parking spaces", "color": "#fdae6b" }, "geometry": { "type": "Point", "coordinates": [ 39.2396063, -6.8127488 ] } },
{ "type": "Feature", "properties": { "index": "82", "@osmId": "node/3662899026", "name": null, "opening_hours": null, "label": "Marked parking spaces", "color": "#fdae6b" }, "geometry": { "type": "Point", "coordinates": [ 39.2415782, -6.813157 ] } },
{ "type": "Feature", "properties": { "index": "83", "@osmId": "node/3747085491", "name": null, "opening_hours": null, "label": "Marked parking spaces", "color": "#fdae6b" }, "geometry": { "type": "Point", "coordinates": [ 39.2270318, -6.8475647 ] } },
{ "type": "Feature", "properties": { "index": "84", "@osmId": "node/3794252987", "name": "Massawe", "opening_hours": null, "label": "Marked parking spaces", "color": "#fdae6b" }, "geometry": { "type": "Point", "coordinates": [ 39.2359414, -6.8224724 ] } },
{ "type": "Feature", "properties": { "index": "85", "@osmId": "node/6218474925", "name": null, "opening_hours": null, "label": "Marked parking spaces", "color": "#fdae6b" }, "geometry": { "type": "Point", "coordinates": [ 39.2243026, -6.845258 ] } },
{ "type": "Feature", "properties": { "index": "86", "@osmId": "node/6218474926", "name": "Machina Inn", "opening_hours": null, "label": "Marked parking spaces", "color": "#fdae6b" }, "geometry": { "type": "Point", "coordinates": [ 39.2236299, -6.8426648 ] } }
]
}
