{
"type": "FeatureCollection",
"features": [
{ "type": "Feature", "properties": { "index": "0", "subarea": "R1C1", "combined": 0.502, "label": "0.5–0.9/km²", "color": "#ee681d" }, "geometry": { "type": "Polygon", "coordinates": [ [ [ 39.22, -6.789046 ], [ 39.2290219, -6.7890418 ], [ 39.2290176, -6.7800007 ], [ 39.22, -6.78 ], [ 39.22, -6.789046 ] ] ] } },
{ "type": "Feature", "properties": { "index": "1", "subarea": "R1C2", "combined": 0.0, "label": "0.0–0.1/km²", "color": "#feedde" }, "geometry": { "type": "Polygon", "coordinates": [ [ [ 39.2290219, -6.7890418 ], [ 39.2380716, -6.7890374 ], [ 39.2380672, -6.7800012 ], [ 39.2290176, -6.7800007 ], [ 39.2290219, -6.7890418 ] ] ] } },
{ "type": "Feature", "properties": { "index": "2", "subarea": "R1C3", "combined": 0.0, "label": "0.0–0.1/km²", "color": "#feedde" }, "geometry": { "type": "Polygon", "coordinates": [ [ [ 39.2380716, -6.7890374 ], [ 39.2471213, -6.7890329 ], [ 39.2471167, -6.7800015 ], [ 39.2380672, -6.7800012 ], [ 39.2380716, -6.7890374 ] ] ] } },
{ "type": "Feature", "properties": { "index": "3", "subarea": "R1C4", "combined": 0.751, "label": "0.5–0.9/km²", "color": "#ee681d" }, "geometry": { "type": "Polygon", "coordinates": [ [ [ 39.2471213, -6.7890329 ], [ 39.256171, -6.7890282 ], [ 39.2561662, -6.7800016 ], [ 39.2471167, -6.7800015 ], [ 39.2471213, -6.7890329 ] ] ] } },
{ "type": "Feature", "properties": { "index": "4", "subarea": "R1C5", "combined": 0.501, "label": "0.5–0.9/km²", "color": "#ee681d" }, "geometry": { "type": "Polygon", "coordinates": [ [ [ 39.256171, -6.7890282 ], [ 39.2652207, -6.7890234 ], [ 39.2652158, -6.7800016 ], [ 39.2561662, -6.7800016 ], [ 39.256171, -6.7890282 ] ] ] } },
{ "type": "Feature", "properties": { "index": "5", "subarea": "R1C6", "combined": 0.251, "label": "0.1–0.5/km²", "color": "#fdae6d" }, "geometry": { "type": "Polygon", "coordinates": [ [ [ 39.2652207, -6.7890234 ], [ 39.2742704, -6.7890183 ], [ 39.2742653, -6.7800014 ], [ 39.2652158, -6.7800016 ], [ 39.2652207, -6.7890234 ] ] ] } },
{ "type": "Feature", "properties": { "index": "6", "subarea": "R1C7", "combined": 1.003, "label": "0.9–2.3/km²", "color": "#a63603" }, "geometry": { "type": "Polygon", "coordinates": [ [ [ 39.2742704, -6.7890183 ], [ 39.2833201, -6.7890131 ], [ 39.2833148, -6.7800011 ], [ 39.2742653, -6.7800014 ], [ 39.2742704, -6.7890183 ] ] ] } },
{ "type": "Feature", "properties": { "index": "7", "subarea": "R1C8", "combined": 0.0, "label": "0.0–0.1/km²", "color": "#feedde" }, "geometry": { "type": "Polygon", "coordinates": [ [ [ 39.2833201, -6.7890131 ], [ 39.2923697, -6.7890077 ], [ 39.2923643, -6.7800006 ], [ 39.2833148, -6.7800011 ], [ 39.2833201, -6.7890131 ] ] ] } },
{ "type": "Feature", "properties": { "index": "8", "subarea": "R1C9", "combined": 0.0, "label": "0.0–0.1/km²", "color": "#feedde" }, "geometry": { "type": "Polygon", "coordinates": [ [ [ 39.2923643, -6.7800006 ], [ 39.2923697, -6.7890077 ], [ 39.3, -6.7890031 ], [ 39.3, -6.78 ], [ 39.2923643, -6.7800006 ] ] ] } },
{ "type": "Feature", "properties": { "index": "9", "subarea": "R2C1", "combined": 0.251, "label": "0.1–0.5/km²", "color": "#fdae6d" }, "geometry": { "type": "Polygon", "coordinates": [ [ [ 39.2290262, -6.7980878 ], [ 39.2290219, -6.7890418 ], [ 39.22, -6.789046 ], [ 39.22, -6.798092 ], [ 39.2290262, -6.7980878 ] ] ] } },
{ "type": "Feature", "properties": { "index": "10", "subarea": "R2C2", "combined": 0.25, "label": "0.1–0.5/km²", "color": "#fdae6d" }, "geometry": { "type": "Polygon", "coordinates": [ [ [ 39.2290219, -6.7890418 ], [ 39.2290262, -6.7980878 ], [ 39.2380761, -6.7980834 ], [ 39.2380716, -6.7890374 ], [ 39.2290219, -6.7890418 ] ] ] } },
{ "type": "Feature", "properties": { "index": "11", "subarea": "R2C3", "combined": 0.75, "label": "0.5–0.9/km²", "color": "#ee681d" }, "geometry": { "type": "Polygon", "coordinates": [ [ [ 39.2380716, -6.7890374 ], [ 39.2380761, -6.7980834 ], [ 39.2471259, -6.7980789 ], [ 39.2471213, -6.7890329 ], [ 39.2380716, -6.7890374 ] ] ] } },
{ "type": "Feature", "properties": { "index": "12", "subarea": "R2C4", "combined": 0.75, "label": "0.5–0.9/km²", "color": "#ee681d" }, "geometry": { "type": "Polygon", "coordinates": [ [ [ 39.2471213, -6.7890329 ], [ 39.2471259, -6.7980789 ], [ 39.2561758, -6.7980742 ], [ 39.256171, -6.7890282 ], [ 39.2471213, -6.7890329 ] ] ] } },
{ "type": "Feature", "properties": { "index": "13", "subarea": "R2C5", "combined": 0.25, "label": "0.1–0.5/km²", "color": "#fdae6d" }, "geometry": { "type": "Polygon", "coordinates": [ [ [ 39.256171, -6.7890282 ], [ 39.2561758, -6.7980742 ], [ 39.2652257, -6.7980693 ], [ 39.2652207, -6.7890234 ], [ 39.256171, -6.7890282 ] ] ] } },
{ "type": "Feature", "properties": { "index": "14", "subarea": "R2C6", "combined": 0.0, "label": "0.0–0.1/km²", "color": "#feedde" }, "geometry": { "type": "Polygon", "coordinates": [ [ [ 39.2652207, -6.7890234 ], [ 39.2652257, -6.7980693 ], [ 39.2742755, -6.7980643 ], [ 39.2742704, -6.7890183 ], [ 39.2652207, -6.7890234 ] ] ] } },
{ "type": "Feature", "properties": { "index": "15", "subarea": "R2C7", "combined": 0.0, "label": "0.0–0.1/km²", "color": "#feedde" }, "geometry": { "type": "Polygon", "coordinates": [ [ [ 39.2742704, -6.7890183 ], [ 39.2742755, -6.7980643 ], [ 39.2833254, -6.798059 ], [ 39.2833201, -6.7890131 ], [ 39.2742704, -6.7890183 ] ] ] } },
{ "type": "Feature", "properties": { "index": "16", "subarea": "R2C8", "combined": 0.0, "label": "0.0–0.1/km²", "color": "#feedde" }, "geometry": { "type": "Polygon", "coordinates": [ [ [ 39.2833201, -6.7890131 ], [ 39.2833254, -6.798059 ], [ 39.2923752, -6.7980537 ], [ 39.2923697, -6.7890077 ], [ 39.2833201, -6.7890131 ] ] ] } },
{ "type": "Feature", "properties": { "index": "17", "subarea": "R2C9", "combined": 0.0, "label": "0.0–0.1/km²", "color": "#feedde" }, "geometry": { "type": "Polygon", "coordinates": [ [ [ 39.2923697, -6.7890077 ], [ 39.2923752, -6.7980537 ], [ 39.3, -6.798049 ], [ 39.3, -6.7890031 ], [ 39.2923697, -6.7890077 ] ] ] } },
{ "type": "Feature", "properties": { "index": "18", "subarea": "R3C1", "combined": 1.253, "label": "0.9–2.3/km²", "color": "#a63603" }, "geometry": { "type": "Polygon", "coordinates": [ [ [ 39.2290305, -6.8071337 ], [ 39.2290262, -6.7980878 ], [ 39.22, -6.798092 ], [ 39.22, -6.8071379 ], [ 39.2290305, -6.8071337 ] ] ] } },
{ "type": "Feature", "properties": { "index": "19", "subarea": "R3C2", "combined": 0.0, "label": "0.0–0.1/km²", "color": "#feedde" }, "geometry": { "type": "Polygon", "coordinates": [ [ [ 39.2290262, -6.7980878 ], [ 39.2290305, -6.8071337 ], [ 39.2380805, -6.8071294 ], [ 39.2380761, -6.7980834 ], [ 39.2290262, -6.7980878 ] ] ] } },
{ "type": "Feature", "properties": { "index": "20", "subarea": "R3C3", "combined": 1.0, "label": "0.9–2.3/km²", "color": "#a63603" }, "geometry": { "type": "Polygon", "coordinates": [ [ [ 39.2380761, -6.7980834 ], [ 39.2380805, -6.8071294 ], [ 39.2471306, -6.8071248 ], [ 39.2471259, -6.7980789 ], [ 39.2380761, -6.7980834 ] ] ] } },
{ "type": "Feature", "properties": { "index": "21", "subarea": "R3C4", "combined": 0.75, "label": "0.5–0.9/km²", "color": "#ee681d" }, "geometry": { "type": "Polygon", "coordinates": [ [ [ 39.2471259, -6.7980789 ], [ 39.2471306, -6.8071248 ], [ 39.2561806, -6.8071201 ], [ 39.2561758, -6.7980742 ], [ 39.2471259, -6.7980789 ] ] ] } },
{ "type": "Feature", "properties": { "index": "22", "subarea": "R3C5", "combined": 0.0, "label": "0.0–0.1/km²", "color": "#feedde" }, "geometry": { "type": "Polygon", "coordinates": [ [ [ 39.2561758, -6.7980742 ], [ 39.2561806, -6.8071201 ], [ 39.2652306, -6.8071152 ], [ 39.2652257, -6.7980693 ], [ 39.2561758, -6.7980742 ] ] ] } },
{ "type": "Feature", "properties": { "index": "23", "subarea": "R3C6", "combined": 0.25, "label": "0.1–0.5/km²", "color": "#fdae6d" }, "geometry": { "type": "Polygon", "coordinates": [ [ [ 39.2652257, -6.7980693 ], [ 39.2652306, -6.8071152 ], [ 39.2742806, -6.8071102 ], [ 39.2742755, -6.7980643 ], [ 39.2652257, -6.7980693 ] ] ] } },
{ "type": "Feature", "properties": { "index": "24", "subarea": "R3C7", "combined": 0.5, "label": "0.5–0.9/km²", "color": "#ee681d" }, "geometry": { "type": "Polygon", "coordinates": [ [ [ 39.2742755, -6.7980643 ], [ 39.2742806, -6.8071102 ], [ 39.2833307, -6.807105 ], [ 39.2833254, -6.798059 ], [ 39.2742755, -6.7980643 ] ] ] } },
{ "type": "Feature", "properties": { "index": "25", "subarea": "R3C8", "combined": 2.25, "label": "0.9–2.3/km²", "color": "#a63603" }, "geometry": { "type": "Polygon", "coordinates": [ [ [ 39.2833254, -6.798059 ], [ 39.2833307, -6.807105 ], [ 39.2923807, -6.8070996 ], [ 39.2923752, -6.7980537 ], [ 39.2833254, -6.798059 ] ] ] } },
{ "type": "Feature", "properties": { "index": "26", "subarea": "R3C9", "combined": 0.0, "label": "0.0–0.1/km²", "color": "#feedde" }, "geometry": { "type": "Polygon", "coordinates": [ [ [ 39.2923752, -6.7980537 ], [ 39.2923807, -6.8070996 ], [ 39.2999999, -6.8070949 ], [ 39.3, -6.798049 ], [ 39.2923752, -6.7980537 ] ] ] } },
{ "type": "Feature", "properties": { "index": "27", "subarea": "R4C1", "combined": 0.25, "label": "0.1–0.5/km²", "color": "#fdae6d" }, "geometry": { "type": "Polygon", "coordinates": [ [ [ 39.2290348, -6.8161797 ], [ 39.2290305, -6.8071337 ], [ 39.22, -6.8071379 ], [ 39.22, -6.8161839 ], [ 39.2290348, -6.8161797 ] ] ] } },
{ "type": "Feature", "properties": { "index": "28", "subarea": "R4C2", "combined": 0.25, "label": "0.1–0.5/km²", "color": "#fdae6d" }, "geometry": { "type": "Polygon", "coordinates": [ [ [ 39.2290305, -6.8071337 ], [ 39.2290348, -6.8161797 ], [ 39.238085, -6.8161753 ], [ 39.2380805, -6.8071294 ], [ 39.2290305, -6.8071337 ] ] ] } },
{ "type": "Feature", "properties": { "index": "29", "subarea": "R4C3", "combined": 1.25, "label": "0.9–2.3/km²", "color": "#a63603" }, "geometry": { "type": "Polygon", "coordinates": [ [ [ 39.2380805, -6.8071294 ], [ 39.238085, -6.8161753 ], [ 39.2471352, -6.8161708 ], [ 39.2471306, -6.8071248 ], [ 39.2380805, -6.8071294 ] ] ] } },
{ "type": "Feature", "properties": { "index": "30", "subarea": "R4C4", "combined": 0.0, "label": "0.0–0.1/km²", "color": "#feedde" }, "geometry": { "type": "Polygon", "coordinates": [ [ [ 39.2471306, -6.8071248 ], [ 39.2471352, -6.8161708 ], [ 39.2561854, -6.8161661 ], [ 39.2561806, -6.8071201 ], [ 39.2471306, -6.8071248 ] ] ] } },
{ "type": "Feature", "properties": { "index": "31", "subarea": "R4C5", "combined": 0.75, "label": "0.5–0.9/km²", "color": "#ee681d" }, "geometry": { "type": "Polygon", "coordinates": [ [ [ 39.2561806, -6.8071201 ], [ 39.2561854, -6.8161661 ], [ 39.2652356, -6.8161612 ], [ 39.2652306, -6.8071152 ], [ 39.2561806, -6.8071201 ] ] ] } },
{ "type": "Feature", "properties": { "index": "32", "subarea": "R4C6", "combined": 0.25, "label": "0.1–0.5/km²", "color": "#fdae6d" }, "geometry": { "type": "Polygon", "coordinates": [ [ [ 39.2652306, -6.8071152 ], [ 39.2652356, -6.8161612 ], [ 39.2742858, -6.8161561 ], [ 39.2742806, -6.8071102 ], [ 39.2652306, -6.8071152 ] ] ] } },
{ "type": "Feature", "properties": { "index": "33", "subarea": "R4C7", "combined": 0.75, "label": "0.5–0.9/km²", "color": "#ee681d" }, "geometry": { "type": "Polygon", "coordinates": [ [ [ 39.2742806, -6.8071102 ], [ 39.2742858, -6.8161561 ], [ 39.283336, -6.8161509 ], [ 39.2833307, -6.807105 ], [ 39.2742806, -6.8071102 ] ] ] } },
{ "type": "Feature", "properties": { "index": "34", "subarea": "R4C8", "combined": 1.0, "label": "0.9–2.3/km²", "color": "#a63603" }, "geometry": { "type": "Polygon", "coordinates": [ [ [ 39.2833307, -6.807105 ], [ 39.283336, -6.8161509 ], [ 39.2923861, -6.8161455 ], [ 39.2923807, -6.8070996 ], [ 39.2833307, -6.807105 ] ] ] } },
{ "type": "Feature", "properties": { "index": "35", "subarea": "R4C9", "combined": 0.0, "label": "0.0–0.1/km²", "color": "#feedde" }, "geometry": { "type": "Polygon", "coordinates": [ [ [ 39.2923807, -6.8070996 ], [ 39.2923861, -6.8161455 ], [ 39.2999999, -6.8161408 ], [ 39.2999999, -6.8070949 ], [ 39.2923807, -6.8070996 ] ] ] } },
{ "type": "Feature", "properties": { "index": "36", "subarea": "R5C1", "combined": 0.25, "label": "0.1–0.5/km²", "color": "#fdae6d" }, "geometry": { "type": "Polygon", "coordinates": [ [ [ 39.2290391, -6.8252257 ], [ 39.2290348, -6.8161797 ], [ 39.22, -6.8161839 ], [ 39.22, -6.8252299 ], [ 39.2290391, -6.8252257 ] ] ] } },
{ "type": "Feature", "properties": { "index": "37", "subarea": "R5C2", "combined": 0.25, "label": "0.1–0.5/km²", "color": "#fdae6d" }, "geometry": { "type": "Polygon", "coordinates": [ [ [ 39.2290348, -6.8161797 ], [ 39.2290391, -6.8252257 ], [ 39.2380894, -6.8252213 ], [ 39.238085, -6.8161753 ], [ 39.2290348, -6.8161797 ] ] ] } },
{ "type": "Feature", "properties": { "index": "38", "subarea": "R5C3", "combined": 0.0, "label": "0.0–0.1/km²", "color": "#feedde" }, "geometry": { "type": "Polygon", "coordinates": [ [ [ 39.238085, -6.8161753 ], [ 39.2380894, -6.8252213 ], [ 39.2471398, -6.8252167 ], [ 39.2471352, -6.8161708 ], [ 39.238085, -6.8161753 ] ] ] } },
{ "type": "Feature", "properties": { "index": "39", "subarea": "R5C4", "combined": 0.25, "label": "0.1–0.5/km²", "color": "#fdae6d" }, "geometry": { "type": "Polygon", "coordinates": [ [ [ 39.2471352, -6.8161708 ], [ 39.2471398, -6.8252167 ], [ 39.2561902, -6.825212 ], [ 39.2561854, -6.8161661 ], [ 39.2471352, -6.8161708 ] ] ] } },
{ "type": "Feature", "properties": { "index": "40", "subarea": "R5C5", "combined": 0.0, "label": "0.0–0.1/km²", "color": "#feedde" }, "geometry": { "type": "Polygon", "coordinates": [ [ [ 39.2561854, -6.8161661 ], [ 39.2561902, -6.825212 ], [ 39.2652406, -6.8252071 ], [ 39.2652356, -6.8161612 ], [ 39.2561854, -6.8161661 ] ] ] } },
{ "type": "Feature", "properties": { "index": "41", "subarea": "R5C6", "combined": 0.0, "label": "0.0–0.1/km²", "color": "#feedde" }, "geometry": { "type": "Polygon", "coordinates": [ [ [ 39.2652356, -6.8161612 ], [ 39.2652406, -6.8252071 ], [ 39.2742909, -6.8252021 ], [ 39.2742858, -6.8161561 ], [ 39.2652356, -6.8161612 ] ] ] } },
{ "type": "Feature", "properties": { "index": "42", "subarea": "R5C7", "combined": 0.25, "label": "0.1–0.5/km²", "color": "#fdae6d" }, "geometry": { "type": "Polygon", "coordinates": [ [ [ 39.2742858, -6.8161561 ], [ 39.2742909, -6.8252021 ], [ 39.2833413, -6.8251968 ], [ 39.283336, -6.8161509 ], [ 39.2742858, -6.8161561 ] ] ] } },
{ "type": "Feature", "properties": { "index": "43", "subarea": "R5C8", "combined": 0.0, "label": "0.0–0.1/km²", "color": "#feedde" }, "geometry": { "type": "Polygon", "coordinates": [ [ [ 39.283336, -6.8161509 ], [ 39.2833413, -6.8251968 ], [ 39.2923916, -6.8251914 ], [ 39.2923861, -6.8161455 ], [ 39.283336, -6.8161509 ] ] ] } },
{ "type": "Feature", "properties": { "index": "44", "subarea": "R5C9", "combined": 0.0, "label": "0.0–0.1/km²", "color": "#feedde" }, "geometry": { "type": "Polygon", "coordinates": [ [ [ 39.2923861, -6.8161455 ], [ 39.2923916, -6.8251914 ], [ 39.2999999, -6.8251867 ], [ 39.2999999, -6.8161408 ], [ 39.2923861, -6.8161455 ] ] ] } },
{ "type": "Feature", "properties": { "index": "45", "subarea": "R6C1", "combined": 0.0, "label": "0.0–0.1/km²", "color": "#feedde" }, "geometry": { "type": "Polygon", "coordinates": [ [ [ 39.2290434, -6.8342716 ], [ 39.2290391, -6.8252257 ], [ 39.22, -6.8252299 ], [ 39.22, -6.8342758 ], [ 39.2290434, -6.8342716 ] ] ] } },
{ "type": "Feature", "properties": { "index": "46", "subarea": "R6C2", "combined": 0.0, "label": "0.0–0.1/km²", "color": "#feedde" }, "geometry": { "type": "Polygon", "coordinates": [ [ [ 39.2290391, -6.8252257 ], [ 39.2290434, -6.8342716 ], [ 39.2380939, -6.8342672 ], [ 39.2380894, -6.8252213 ], [ 39.2290391, -6.8252257 ] ] ] } },
{ "type": "Feature", "properties": { "index": "47", "subarea": "R6C3", "combined": 0.0, "label": "0.0–0.1/km²", "color": "#feedde" }, "geometry": { "type": "Polygon", "coordinates": [ [ [ 39.2380894, -6.8252213 ], [ 39.2380939, -6.8342672 ], [ 39.2471445, -6.8342627 ], [ 39.2471398, -6.8252167 ], [ 39.2380894, -6.8252213 ] ] ] } },
{ "type": "Feature", "properties": { "index": "48", "subarea": "R6C4", "combined": 0.25, "label": "0.1–0.5/km²", "color": "#fdae6d" }, "geometry": { "type": "Polygon", "coordinates": [ [ [ 39.2471398, -6.8252167 ], [ 39.2471445, -6.8342627 ], [ 39.256195, -6.8342579 ], [ 39.2561902, -6.825212 ], [ 39.2471398, -6.8252167 ] ] ] } },
{ "type": "Feature", "properties": { "index": "49", "subarea": "R6C5", "combined": 0.0, "label": "0.0–0.1/km²", "color": "#feedde" }, "geometry": { "type": "Polygon", "coordinates": [ [ [ 39.2561902, -6.825212 ], [ 39.256195, -6.8342579 ], [ 39.2652455, -6.834253 ], [ 39.2652406, -6.8252071 ], [ 39.2561902, -6.825212 ] ] ] } },
{ "type": "Feature", "properties": { "index": "50", "subarea": "R6C6", "combined": 0.0, "label": "0.0–0.1/km²", "color": "#feedde" }, "geometry": { "type": "Polygon", "coordinates": [ [ [ 39.2652406, -6.8252071 ], [ 39.2652455, -6.834253 ], [ 39.2742961, -6.834248 ], [ 39.2742909, -6.8252021 ], [ 39.2652406, -6.8252071 ] ] ] } },
{ "type": "Feature", "properties": { "index": "51", "subarea": "R6C7", "combined": 0.25, "label": "0.1–0.5/km²", "color": "#fdae6d" }, "geometry": { "type": "Polygon", "coordinates": [ [ [ 39.2742909, -6.8252021 ], [ 39.2742961, -6.834248 ], [ 39.2833466, -6.8342427 ], [ 39.2833413, -6.8251968 ], [ 39.2742909, -6.8252021 ] ] ] } },
{ "type": "Feature", "properties": { "index": "52", "subarea": "R6C8", "combined": 0.0, "label": "0.0–0.1/km²", "color": "#feedde" }, "geometry": { "type": "Polygon", "coordinates": [ [ [ 39.2833413, -6.8251968 ], [ 39.2833466, -6.8342427 ], [ 39.2923971, -6.8342373 ], [ 39.2923916, -6.8251914 ], [ 39.2833413, -6.8251968 ] ] ] } },
{ "type": "Feature", "properties": { "index": "53", "subarea": "R6C9", "combined": 0.0, "label": "0.0–0.1/km²", "color": "#feedde" }, "geometry": { "type": "Polygon", "coordinates": [ [ [ 39.2923916, -6.8251914 ], [ 39.2923971, -6.8342373 ], [ 39.3, -6.8342327 ], [ 39.2999999, -6.8251867 ], [ 39.2923916, -6.8251914 ] ] ] } },
{ "type": "Feature", "properties": { "index": "54", "subarea": "R7C1", "combined": 0.25, "label": "0.1–0.5/km²", "color": "#fdae6d" }, "geometry": { "type": "Polygon", "coordinates": [ [ [ 39.2290477, -6.8433176 ], [ 39.2290434, -6.8342716 ], [ 39.22, -6.8342758 ], [ 39.22, -6.8433218 ], [ 39.2290477, -6.8433176 ] ] ] } },
{ "type": "Feature", "properties": { "index": "55", "subarea": "R7C2", "combined": 0.0, "label": "0.0–0.1/km²", "color": "#feedde" }, "geometry": { "type": "Polygon", "coordinates": [ [ [ 39.2290434, -6.8342716 ], [ 39.2290477, -6.8433176 ], [ 39.2380984, -6.8433132 ], [ 39.2380939, -6.8342672 ], [ 39.2290434, -6.8342716 ] ] ] } },
{ "type": "Feature", "properties": { "index": "56", "subarea": "R7C3", "combined": 0.0, "label": "0.0–0.1/km²", "color": "#feedde" }, "geometry": { "type": "Polygon", "coordinates": [ [ [ 39.2380939, -6.8342672 ], [ 39.2380984, -6.8433132 ], [ 39.2471491, -6.8433086 ], [ 39.2471445, -6.8342627 ], [ 39.2380939, -6.8342672 ] ] ] } },
{ "type": "Feature", "properties": { "index": "57", "subarea": "R7C4", "combined": 0.5, "label": "0.5–0.9/km²", "color": "#ee681d" }, "geometry": { "type": "Polygon", "coordinates": [ [ [ 39.2471445, -6.8342627 ], [ 39.2471491, -6.8433086 ], [ 39.2561998, -6.8433039 ], [ 39.256195, -6.8342579 ], [ 39.2471445, -6.8342627 ] ] ] } },
{ "type": "Feature", "properties": { "index": "58", "subarea": "R7C5", "combined": 0.0, "label": "0.0–0.1/km²", "color": "#feedde" }, "geometry": { "type": "Polygon", "coordinates": [ [ [ 39.256195, -6.8342579 ], [ 39.2561998, -6.8433039 ], [ 39.2652505, -6.843299 ], [ 39.2652455, -6.834253 ], [ 39.256195, -6.8342579 ] ] ] } },
{ "type": "Feature", "properties": { "index": "59", "subarea": "R7C6", "combined": 0.0, "label": "0.0–0.1/km²", "color": "#feedde" }, "geometry": { "type": "Polygon", "coordinates": [ [ [ 39.2652455, -6.834253 ], [ 39.2652505, -6.843299 ], [ 39.2743012, -6.8432939 ], [ 39.2742961, -6.834248 ], [ 39.2652455, -6.834253 ] ] ] } },
{ "type": "Feature", "properties": { "index": "60", "subarea": "R7C7", "combined": 0.0, "label": "0.0–0.1/km²", "color": "#feedde" }, "geometry": { "type": "Polygon", "coordinates": [ [ [ 39.2742961, -6.834248 ], [ 39.2743012, -6.8432939 ], [ 39.2833519, -6.8432887 ], [ 39.2833466, -6.8342427 ], [ 39.2742961, -6.834248 ] ] ] } },
{ "type": "Feature", "properties": { "index": "61", "subarea": "R7C8", "combined": 0.0, "label": "0.0–0.1/km²", "color": "#feedde" }, "geometry": { "type": "Polygon", "coordinates": [ [ [ 39.2833466, -6.8342427 ], [ 39.2833519, -6.8432887 ], [ 39.2924026, -6.8432832 ], [ 39.2923971, -6.8342373 ], [ 39.2833466, -6.8342427 ] ] ] } },
{ "type": "Feature", "properties": { "index": "62", "subarea": "R7C9", "combined": 0.0, "label": "0.0–0.1/km²", "color": "#feedde" }, "geometry": { "type": "Polygon", "coordinates": [ [ [ 39.2923971, -6.8342373 ], [ 39.2924026, -6.8432832 ], [ 39.3, -6.8432786 ], [ 39.3, -6.8342327 ], [ 39.2923971, -6.8342373 ] ] ] } },
{ "type": "Feature", "properties": { "index": "63", "subarea": "R8C1", "combined": 1.016, "label": "0.9–2.3/km²", "color": "#a63603" }, "geometry": { "type": "Polygon", "coordinates": [ [ [ 39.2290509, -6.8500007 ], [ 39.2290477, -6.8433176 ], [ 39.22, -6.8433218 ], [ 39.22, -6.85 ], [ 39.2290509, -6.8500007 ] ] ] } },
{ "type": "Feature", "properties": { "index": "64", "subarea": "R8C2", "combined": 0.0, "label": "0.0–0.1/km²", "color": "#feedde" }, "geometry": { "type": "Polygon", "coordinates": [ [ [ 39.2380984, -6.8433132 ], [ 39.2290477, -6.8433176 ], [ 39.2290509, -6.8500007 ], [ 39.2381017, -6.8500012 ], [ 39.2380984, -6.8433132 ] ] ] } },
{ "type": "Feature", "properties": { "index": "65", "subarea": "R8C3", "combined": 0.0, "label": "0.0–0.1/km²", "color": "#feedde" }, "geometry": { "type": "Polygon", "coordinates": [ [ [ 39.2471491, -6.8433086 ], [ 39.2380984, -6.8433132 ], [ 39.2381017, -6.8500012 ], [ 39.2471526, -6.8500015 ], [ 39.2471491, -6.8433086 ] ] ] } },
{ "type": "Feature", "properties": { "index": "66", "subarea": "R8C4", "combined": 1.013, "label": "0.9–2.3/km²", "color": "#a63603" }, "geometry": { "type": "Polygon", "coordinates": [ [ [ 39.2561998, -6.8433039 ], [ 39.2471491, -6.8433086 ], [ 39.2471526, -6.8500015 ], [ 39.2562034, -6.8500016 ], [ 39.2561998, -6.8433039 ] ] ] } },
{ "type": "Feature", "properties": { "index": "67", "subarea": "R8C5", "combined": 0.0, "label": "0.0–0.1/km²", "color": "#feedde" }, "geometry": { "type": "Polygon", "coordinates": [ [ [ 39.2652505, -6.843299 ], [ 39.2561998, -6.8433039 ], [ 39.2562034, -6.8500016 ], [ 39.2652542, -6.8500016 ], [ 39.2652505, -6.843299 ] ] ] } },
{ "type": "Feature", "properties": { "index": "68", "subarea": "R8C6", "combined": 0.0, "label": "0.0–0.1/km²", "color": "#feedde" }, "geometry": { "type": "Polygon", "coordinates": [ [ [ 39.2743012, -6.8432939 ], [ 39.2652505, -6.843299 ], [ 39.2652542, -6.8500016 ], [ 39.2743051, -6.8500015 ], [ 39.2743012, -6.8432939 ] ] ] } },
{ "type": "Feature", "properties": { "index": "69", "subarea": "R8C7", "combined": 0.0, "label": "0.0–0.1/km²", "color": "#feedde" }, "geometry": { "type": "Polygon", "coordinates": [ [ [ 39.2833519, -6.8432887 ], [ 39.2743012, -6.8432939 ], [ 39.2743051, -6.8500015 ], [ 39.2833559, -6.8500011 ], [ 39.2833519, -6.8432887 ] ] ] } },
{ "type": "Feature", "properties": { "index": "70", "subarea": "R8C8", "combined": 0.0, "label": "0.0–0.1/km²", "color": "#feedde" }, "geometry": { "type": "Polygon", "coordinates": [ [ [ 39.2924026, -6.8432832 ], [ 39.2833519, -6.8432887 ], [ 39.2833559, -6.8500011 ], [ 39.2924067, -6.8500006 ], [ 39.2924026, -6.8432832 ] ] ] } },
{ "type": "Feature", "properties": { "index": "71", "subarea": "R8C9", "combined": 0.0, "label": "0.0–0.1/km²", "color": "#feedde" }, "geometry": { "type": "Polygon", "coordinates": [ [ [ 39.3, -6.8432786 ], [ 39.2924026, -6.8432832 ], [ 39.2924067, -6.8500006 ], [ 39.3, -6.85 ], [ 39.3, -6.8432786 ] ] ] } }
]
}
