{
"type": "FeatureCollection",
"features": [
{ "type": "Feature", "properties": { "index": "0", "last_edit_year": 2023, "years_since_edit": 3, "label": "2.3–3.8 yr", "color": "#fdae6d" }, "geometry": { "type": "Point", "coordinates": [ 39.2753411, -6.78019 ] } },
{ "type": "Feature", "properties": { "index": "1", "last_edit_year": 2023, "years_since_edit": 3, "label": "2.3–3.8 yr", "color": "#fdae6d" }, "geometry": { "type": "Point", "coordinates": [ 39.2777265, -6.7853435 ] } },
{ "type": "Feature", "properties": { "index": "2", "last_edit_year": 2024, "years_since_edit": 2, "label": "1.0–2.3 yr", "color": "#feedde" }, "geometry": { "type": "Point", "coordinates": [ 39.2799101, -6.7853777 ] } },
{ "type": "Feature", "properties": { "index": "3", "last_edit_year": 2024, "years_since_edit": 2, "label": "1.0–2.3 yr", "color": "#feedde" }, "geometry": { "type": "Point", "coordinates": [ 39.2803337, -6.7853007 ] } },
{ "type": "Feature", "properties": { "index": "4", "last_edit_year": 2024, "years_since_edit": 2, "label": "1.0–2.3 yr", "color": "#feedde" }, "geometry": { "type": "Point", "coordinates": [ 39.2705602, -6.7807814 ] } },
{ "type": "Feature", "properties": { "index": "5", "last_edit_year": 2024, "years_since_edit": 2, "label": "1.0–2.3 yr", "color": "#feedde" }, "geometry": { "type": "Point", "coordinates": [ 39.2877512, -6.8014414 ] } },
{ "type": "Feature", "properties": { "index": "6", "last_edit_year": 2024, "years_since_edit": 2, "label": "1.0–2.3 yr", "color": "#feedde" }, "geometry": { "type": "Point", "coordinates": [ 39.2882307, -6.8012336 ] } },
{ "type": "Feature", "properties": { "index": "7", "last_edit_year": 2024, "years_since_edit": 2, "label": "1.0–2.3 yr", "color": "#feedde" }, "geometry": { "type": "Point", "coordinates": [ 39.2885308, -6.8035868 ] } },
{ "type": "Feature", "properties": { "index": "8", "last_edit_year": 2023, "years_since_edit": 3, "label": "2.3–3.8 yr", "color": "#fdae6d" }, "geometry": { "type": "Point", "coordinates": [ 39.2876801, -6.8032293 ] } },
{ "type": "Feature", "properties": { "index": "9", "last_edit_year": 2024, "years_since_edit": 2, "label": "1.0–2.3 yr", "color": "#feedde" }, "geometry": { "type": "Point", "coordinates": [ 39.286951, -6.8035577 ] } },
{ "type": "Feature", "properties": { "index": "10", "last_edit_year": 2024, "years_since_edit": 2, "label": "1.0–2.3 yr", "color": "#feedde" }, "geometry": { "type": "Point", "coordinates": [ 39.2872153, -6.8030963 ] } },
{ "type": "Feature", "properties": { "index": "11", "last_edit_year": 2023, "years_since_edit": 3, "label": "2.3–3.8 yr", "color": "#fdae6d" }, "geometry": { "type": "Point", "coordinates": [ 39.2557175, -6.8395748 ] } },
{ "type": "Feature", "properties": { "index": "12", "last_edit_year": 2023, "years_since_edit": 3, "label": "2.3–3.8 yr", "color": "#fdae6d" }, "geometry": { "type": "Point", "coordinates": [ 39.2529016, -6.8413535 ] } },
{ "type": "Feature", "properties": { "index": "13", "last_edit_year": 2020, "years_since_edit": 6, "label": "5.4–6.0 yr", "color": "#a63603" }, "geometry": { "type": "Point", "coordinates": [ 39.2515341, -6.846365 ] } },
{ "type": "Feature", "properties": { "index": "14", "last_edit_year": 2020, "years_since_edit": 6, "label": "5.4–6.0 yr", "color": "#a63603" }, "geometry": { "type": "Point", "coordinates": [ 39.2640361, -6.7854331 ] } },
{ "type": "Feature", "properties": { "index": "15", "last_edit_year": 2020, "years_since_edit": 6, "label": "5.4–6.0 yr", "color": "#a63603" }, "geometry": { "type": "Point", "coordinates": [ 39.2601742, -6.7876187 ] } },
{ "type": "Feature", "properties": { "index": "16", "last_edit_year": 2020, "years_since_edit": 6, "label": "5.4–6.0 yr", "color": "#a63603" }, "geometry": { "type": "Point", "coordinates": [ 39.2905521, -6.8116029 ] } },
{ "type": "Feature", "properties": { "index": "17", "last_edit_year": 2020, "years_since_edit": 6, "label": "5.4–6.0 yr", "color": "#a63603" }, "geometry": { "type": "Point", "coordinates": [ 39.2910694, -6.8119108 ] } },
{ "type": "Feature", "properties": { "index": "18", "last_edit_year": 2020, "years_since_edit": 6, "label": "5.4–6.0 yr", "color": "#a63603" }, "geometry": { "type": "Point", "coordinates": [ 39.2920033, -6.812012 ] } },
{ "type": "Feature", "properties": { "index": "19", "last_edit_year": 2023, "years_since_edit": 3, "label": "2.3–3.8 yr", "color": "#fdae6d" }, "geometry": { "type": "Point", "coordinates": [ 39.2797863, -6.8161334 ] } },
{ "type": "Feature", "properties": { "index": "20", "last_edit_year": 2024, "years_since_edit": 2, "label": "1.0–2.3 yr", "color": "#feedde" }, "geometry": { "type": "Point", "coordinates": [ 39.2769024, -6.8231115 ] } },
{ "type": "Feature", "properties": { "index": "21", "last_edit_year": 2025, "years_since_edit": 1, "label": "1.0–2.3 yr", "color": "#feedde" }, "geometry": { "type": "Point", "coordinates": [ 39.2824356, -6.8254927 ] } },
{ "type": "Feature", "properties": { "index": "22", "last_edit_year": 2020, "years_since_edit": 6, "label": "5.4–6.0 yr", "color": "#a63603" }, "geometry": { "type": "Point", "coordinates": [ 39.2218151, -6.7821511 ] } },
{ "type": "Feature", "properties": { "index": "23", "last_edit_year": 2020, "years_since_edit": 6, "label": "5.4–6.0 yr", "color": "#a63603" }, "geometry": { "type": "Point", "coordinates": [ 39.2219413, -6.7816403 ] } },
{ "type": "Feature", "properties": { "index": "24", "last_edit_year": 2021, "years_since_edit": 5, "label": "3.8–5.4 yr", "color": "#ee681d" }, "geometry": { "type": "Point", "coordinates": [ 39.2835494, -6.8083313 ] } },
{ "type": "Feature", "properties": { "index": "25", "last_edit_year": 2023, "years_since_edit": 3, "label": "2.3–3.8 yr", "color": "#fdae6d" }, "geometry": { "type": "Point", "coordinates": [ 39.2859363, -6.8016867 ] } },
{ "type": "Feature", "properties": { "index": "26", "last_edit_year": 2023, "years_since_edit": 3, "label": "2.3–3.8 yr", "color": "#fdae6d" }, "geometry": { "type": "Point", "coordinates": [ 39.2863873, -6.8012067 ] } },
{ "type": "Feature", "properties": { "index": "27", "last_edit_year": 2023, "years_since_edit": 3, "label": "2.3–3.8 yr", "color": "#fdae6d" }, "geometry": { "type": "Point", "coordinates": [ 39.2849275, -6.801574 ] } },
{ "type": "Feature", "properties": { "index": "28", "last_edit_year": 2023, "years_since_edit": 3, "label": "2.3–3.8 yr", "color": "#fdae6d" }, "geometry": { "type": "Point", "coordinates": [ 39.2823955, -6.799436 ] } },
{ "type": "Feature", "properties": { "index": "29", "last_edit_year": 2021, "years_since_edit": 5, "label": "3.8–5.4 yr", "color": "#ee681d" }, "geometry": { "type": "Point", "coordinates": [ 39.2710787, -6.8030104 ] } },
{ "type": "Feature", "properties": { "index": "30", "last_edit_year": 2022, "years_since_edit": 4, "label": "3.8–5.4 yr", "color": "#ee681d" }, "geometry": { "type": "Point", "coordinates": [ 39.2451816, -6.8140388 ] } },
{ "type": "Feature", "properties": { "index": "31", "last_edit_year": 2021, "years_since_edit": 5, "label": "3.8–5.4 yr", "color": "#ee681d" }, "geometry": { "type": "Point", "coordinates": [ 39.2591334, -6.8158386 ] } },
{ "type": "Feature", "properties": { "index": "32", "last_edit_year": 2021, "years_since_edit": 5, "label": "3.8–5.4 yr", "color": "#ee681d" }, "geometry": { "type": "Point", "coordinates": [ 39.2523159, -6.8169761 ] } },
{ "type": "Feature", "properties": { "index": "33", "last_edit_year": 2020, "years_since_edit": 6, "label": "5.4–6.0 yr", "color": "#a63603" }, "geometry": { "type": "Point", "coordinates": [ 39.2248083, -6.8448788 ] } },
{ "type": "Feature", "properties": { "index": "34", "last_edit_year": 2020, "years_since_edit": 6, "label": "5.4–6.0 yr", "color": "#a63603" }, "geometry": { "type": "Point", "coordinates": [ 39.2470513, -6.801722 ] } },
{ "type": "Feature", "properties": { "index": "35", "last_edit_year": 2020, "years_since_edit": 6, "label": "5.4–6.0 yr", "color": "#a63603" }, "geometry": { "type": "Point", "coordinates": [ 39.2469003, -6.8028049 ] } },
{ "type": "Feature", "properties": { "index": "36", "last_edit_year": 2020, "years_since_edit": 6, "label": "5.4–6.0 yr", "color": "#a63603" }, "geometry": { "type": "Point", "coordinates": [ 39.246651, -6.801792 ] } },
{ "type": "Feature", "properties": { "index": "37", "last_edit_year": 2020, "years_since_edit": 6, "label": "5.4–6.0 yr", "color": "#a63603" }, "geometry": { "type": "Point", "coordinates": [ 39.247534, -6.8008202 ] } },
{ "type": "Feature", "properties": { "index": "38", "last_edit_year": 2022, "years_since_edit": 4, "label": "3.8–5.4 yr", "color": "#ee681d" }, "geometry": { "type": "Point", "coordinates": [ 39.2484386, -6.8000145 ] } },
{ "type": "Feature", "properties": { "index": "39", "last_edit_year": 2020, "years_since_edit": 6, "label": "5.4–6.0 yr", "color": "#a63603" }, "geometry": { "type": "Point", "coordinates": [ 39.2491484, -6.7998441 ] } },
{ "type": "Feature", "properties": { "index": "40", "last_edit_year": 2020, "years_since_edit": 6, "label": "5.4–6.0 yr", "color": "#a63603" }, "geometry": { "type": "Point", "coordinates": [ 39.2442315, -6.8021975 ] } },
{ "type": "Feature", "properties": { "index": "41", "last_edit_year": 2020, "years_since_edit": 6, "label": "5.4–6.0 yr", "color": "#a63603" }, "geometry": { "type": "Point", "coordinates": [ 39.2453973, -6.7921417 ] } },
{ "type": "Feature", "properties": { "index": "42", "last_edit_year": 2020, "years_since_edit": 6, "label": "5.4–6.0 yr", "color": "#a63603" }, "geometry": { "type": "Point", "coordinates": [ 39.2519003, -6.7901702 ] } },
{ "type": "Feature", "properties": { "index": "43", "last_edit_year": 2022, "years_since_edit": 4, "label": "3.8–5.4 yr", "color": "#ee681d" }, "geometry": { "type": "Point", "coordinates": [ 39.2540612, -6.8104703 ] } },
{ "type": "Feature", "properties": { "index": "44", "last_edit_year": 2020, "years_since_edit": 6, "label": "5.4–6.0 yr", "color": "#a63603" }, "geometry": { "type": "Point", "coordinates": [ 39.2628554, -6.7969041 ] } },
{ "type": "Feature", "properties": { "index": "45", "last_edit_year": 2022, "years_since_edit": 4, "label": "3.8–5.4 yr", "color": "#ee681d" }, "geometry": { "type": "Point", "coordinates": [ 39.2545224, -6.8104473 ] } },
{ "type": "Feature", "properties": { "index": "46", "last_edit_year": 2022, "years_since_edit": 4, "label": "3.8–5.4 yr", "color": "#ee681d" }, "geometry": { "type": "Point", "coordinates": [ 39.2559989, -6.8097751 ] } },
{ "type": "Feature", "properties": { "index": "47", "last_edit_year": 2020, "years_since_edit": 6, "label": "5.4–6.0 yr", "color": "#a63603" }, "geometry": { "type": "Point", "coordinates": [ 39.2373146, -6.7965863 ] } },
{ "type": "Feature", "properties": { "index": "48", "last_edit_year": 2020, "years_since_edit": 6, "label": "5.4–6.0 yr", "color": "#a63603" }, "geometry": { "type": "Point", "coordinates": [ 39.2242173, -6.8062041 ] } },
{ "type": "Feature", "properties": { "index": "49", "last_edit_year": 2020, "years_since_edit": 6, "label": "5.4–6.0 yr", "color": "#a63603" }, "geometry": { "type": "Point", "coordinates": [ 39.224679, -6.8060607 ] } },
{ "type": "Feature", "properties": { "index": "50", "last_edit_year": 2020, "years_since_edit": 6, "label": "5.4–6.0 yr", "color": "#a63603" }, "geometry": { "type": "Point", "coordinates": [ 39.2251374, -6.805919 ] } },
{ "type": "Feature", "properties": { "index": "51", "last_edit_year": 2020, "years_since_edit": 6, "label": "5.4–6.0 yr", "color": "#a63603" }, "geometry": { "type": "Point", "coordinates": [ 39.2272288, -6.8102668 ] } },
{ "type": "Feature", "properties": { "index": "52", "last_edit_year": 2025, "years_since_edit": 1, "label": "1.0–2.3 yr", "color": "#feedde" }, "geometry": { "type": "Point", "coordinates": [ 39.2298684, -6.8102182 ] } },
{ "type": "Feature", "properties": { "index": "53", "last_edit_year": 2020, "years_since_edit": 6, "label": "5.4–6.0 yr", "color": "#a63603" }, "geometry": { "type": "Point", "coordinates": [ 39.2264238, -6.8057006 ] } },
{ "type": "Feature", "properties": { "index": "54", "last_edit_year": 2020, "years_since_edit": 6, "label": "5.4–6.0 yr", "color": "#a63603" }, "geometry": { "type": "Point", "coordinates": [ 39.2287402, -6.8054139 ] } },
{ "type": "Feature", "properties": { "index": "55", "last_edit_year": 2020, "years_since_edit": 6, "label": "5.4–6.0 yr", "color": "#a63603" }, "geometry": { "type": "Point", "coordinates": [ 39.2254919, -6.7949861 ] } },
{ "type": "Feature", "properties": { "index": "56", "last_edit_year": 2020, "years_since_edit": 6, "label": "5.4–6.0 yr", "color": "#a63603" }, "geometry": { "type": "Point", "coordinates": [ 39.2420866, -6.8073774 ] } },
{ "type": "Feature", "properties": { "index": "57", "last_edit_year": 2020, "years_since_edit": 6, "label": "5.4–6.0 yr", "color": "#a63603" }, "geometry": { "type": "Point", "coordinates": [ 39.2525157, -6.8322552 ] } },
{ "type": "Feature", "properties": { "index": "58", "last_edit_year": 2020, "years_since_edit": 6, "label": "5.4–6.0 yr", "color": "#a63603" }, "geometry": { "type": "Point", "coordinates": [ 39.2472286, -6.8470023 ] } },
{ "type": "Feature", "properties": { "index": "59", "last_edit_year": 2020, "years_since_edit": 6, "label": "5.4–6.0 yr", "color": "#a63603" }, "geometry": { "type": "Point", "coordinates": [ 39.2473605, -6.8473737 ] } },
{ "type": "Feature", "properties": { "index": "60", "last_edit_year": 2023, "years_since_edit": 3, "label": "2.3–3.8 yr", "color": "#fdae6d" }, "geometry": { "type": "Point", "coordinates": [ 39.2753873, -6.8129439 ] } },
{ "type": "Feature", "properties": { "index": "61", "last_edit_year": 2023, "years_since_edit": 3, "label": "2.3–3.8 yr", "color": "#fdae6d" }, "geometry": { "type": "Point", "coordinates": [ 39.2739123, -6.8123802 ] } },
{ "type": "Feature", "properties": { "index": "62", "last_edit_year": 2020, "years_since_edit": 6, "label": "5.4–6.0 yr", "color": "#a63603" }, "geometry": { "type": "Point", "coordinates": [ 39.247018, -6.7955431 ] } },
{ "type": "Feature", "properties": { "index": "63", "last_edit_year": 2020, "years_since_edit": 6, "label": "5.4–6.0 yr", "color": "#a63603" }, "geometry": { "type": "Point", "coordinates": [ 39.2502903, -6.7835387 ] } },
{ "type": "Feature", "properties": { "index": "64", "last_edit_year": 2023, "years_since_edit": 3, "label": "2.3–3.8 yr", "color": "#fdae6d" }, "geometry": { "type": "Point", "coordinates": [ 39.2771623, -6.7860428 ] } },
{ "type": "Feature", "properties": { "index": "65", "last_edit_year": 2020, "years_since_edit": 6, "label": "5.4–6.0 yr", "color": "#a63603" }, "geometry": { "type": "Point", "coordinates": [ 39.2603739, -6.8079282 ] } },
{ "type": "Feature", "properties": { "index": "66", "last_edit_year": 2020, "years_since_edit": 6, "label": "5.4–6.0 yr", "color": "#a63603" }, "geometry": { "type": "Point", "coordinates": [ 39.2607239, -6.8080035 ] } },
{ "type": "Feature", "properties": { "index": "67", "last_edit_year": 2023, "years_since_edit": 3, "label": "2.3–3.8 yr", "color": "#fdae6d" }, "geometry": { "type": "Point", "coordinates": [ 39.2745667, -6.8094642 ] } },
{ "type": "Feature", "properties": { "index": "68", "last_edit_year": 2020, "years_since_edit": 6, "label": "5.4–6.0 yr", "color": "#a63603" }, "geometry": { "type": "Point", "coordinates": [ 39.247614, -6.796399 ] } },
{ "type": "Feature", "properties": { "index": "69", "last_edit_year": 2020, "years_since_edit": 6, "label": "5.4–6.0 yr", "color": "#a63603" }, "geometry": { "type": "Point", "coordinates": [ 39.2477788, -6.786292 ] } },
{ "type": "Feature", "properties": { "index": "70", "last_edit_year": 2020, "years_since_edit": 6, "label": "5.4–6.0 yr", "color": "#a63603" }, "geometry": { "type": "Point", "coordinates": [ 39.2472014, -6.7840552 ] } },
{ "type": "Feature", "properties": { "index": "71", "last_edit_year": 2021, "years_since_edit": 5, "label": "3.8–5.4 yr", "color": "#ee681d" }, "geometry": { "type": "Point", "coordinates": [ 39.2526662, -6.7966672 ] } },
{ "type": "Feature", "properties": { "index": "72", "last_edit_year": 2022, "years_since_edit": 4, "label": "3.8–5.4 yr", "color": "#ee681d" }, "geometry": { "type": "Point", "coordinates": [ 39.2536783, -6.8062097 ] } },
{ "type": "Feature", "properties": { "index": "73", "last_edit_year": 2022, "years_since_edit": 4, "label": "3.8–5.4 yr", "color": "#ee681d" }, "geometry": { "type": "Point", "coordinates": [ 39.2530775, -6.8071045 ] } },
{ "type": "Feature", "properties": { "index": "74", "last_edit_year": 2023, "years_since_edit": 3, "label": "2.3–3.8 yr", "color": "#fdae6d" }, "geometry": { "type": "Point", "coordinates": [ 39.2757221, -6.80817 ] } },
{ "type": "Feature", "properties": { "index": "75", "last_edit_year": 2022, "years_since_edit": 4, "label": "3.8–5.4 yr", "color": "#ee681d" }, "geometry": { "type": "Point", "coordinates": [ 39.2585063, -6.8085321 ] } },
{ "type": "Feature", "properties": { "index": "76", "last_edit_year": 2022, "years_since_edit": 4, "label": "3.8–5.4 yr", "color": "#ee681d" }, "geometry": { "type": "Point", "coordinates": [ 39.2537642, -6.8086386 ] } },
{ "type": "Feature", "properties": { "index": "77", "last_edit_year": 2023, "years_since_edit": 3, "label": "2.3–3.8 yr", "color": "#fdae6d" }, "geometry": { "type": "Point", "coordinates": [ 39.2818055, -6.8069049 ] } },
{ "type": "Feature", "properties": { "index": "78", "last_edit_year": 2020, "years_since_edit": 6, "label": "5.4–6.0 yr", "color": "#a63603" }, "geometry": { "type": "Point", "coordinates": [ 39.2402277, -6.7916688 ] } },
{ "type": "Feature", "properties": { "index": "79", "last_edit_year": 2021, "years_since_edit": 5, "label": "3.8–5.4 yr", "color": "#ee681d" }, "geometry": { "type": "Point", "coordinates": [ 39.2273716, -6.819738 ] } },
{ "type": "Feature", "properties": { "index": "80", "last_edit_year": 2020, "years_since_edit": 6, "label": "5.4–6.0 yr", "color": "#a63603" }, "geometry": { "type": "Point", "coordinates": [ 39.2383086, -6.8104042 ] } },
{ "type": "Feature", "properties": { "index": "81", "last_edit_year": 2020, "years_since_edit": 6, "label": "5.4–6.0 yr", "color": "#a63603" }, "geometry": { "type": "Point", "coordinates": [ 39.2396063, -6.8127488 ] } },
{ "type": "Feature", "properties": { "index": "82", "last_edit_year": 2020, "years_since_edit": 6, "label": "5.4–6.0 yr", "color": "#a63603" }, "geometry": { "type": "Point", "coordinates": [ 39.2415782, -6.813157 ] } },
{ "type": "Feature", "properties": { "index": "83", "last_edit_year": 2020, "years_since_edit": 6, "label": "5.4–6.0 yr", "color": "#a63603" }, "geometry": { "type": "Point", "coordinates": [ 39.2270318, -6.8475647 ] } },
{ "type": "Feature", "properties": { "index": "84", "last_edit_year": 2020, "years_since_edit": 6, "label": "5.4–6.0 yr", "color": "#a63603" }, "geometry": { "type": "Point", "coordinates": [ 39.2359414, -6.8224724 ] } },
{ "type": "Feature", "properties": { "index": "85", "last_edit_year": 2020, "years_since_edit": 6, "label": "5.4–6.0 yr", "color": "#a63603" }, "geometry": { "type": "Point", "coordinates": [ 39.2243026, -6.845258 ] } },
{ "type": "Feature", "properties": { "index": "86", "last_edit_year": 2020, "years_since_edit": 6, "label": "5.4–6.0 yr", "color": "#a63603" }, "geometry": { "type": "Point", "coordinates": [ 39.2236299, -6.8426648 ] } }
]
}
