{
"type": "FeatureCollection",
"features": [
{ "type": "Feature", "properties": { "index": "0", "@osmId": "node/2211363402", "name": "Kamaka parking", "opening_hours": null, "label": "Multi-storey car parks", "color": "#525252" }, "geometry": { "type": "Point", "coordinates": [ 39.2273716, -6.819738 ] } },
{ "type": "Feature", "properties": { "index": "1", "@osmId": "way/338010287", "name": null, "opening_hours": null, "label": "Surface car parks", "color": "#969696" }, "geometry": { "type": "Polygon", "coordinates": [ [ [ 39.2756812, -6.7800819 ], [ 39.2756836, -6.78 ], [ 39.2749517, -6.78 ], [ 39.2748821, -6.7800613 ], [ 39.2753365, -6.7804102 ], [ 39.2752788, -6.780598 ], [ 39.2755331, -6.7803903 ], [ 39.2757267, -6.7802424 ], [ 39.275604, -6.7802324 ], [ 39.2756095, -6.780085 ], [ 39.2756812, -6.7800819 ] ] ] } },
{ "type": "Feature", "properties": { "index": "2", "@osmId": "way/1148261755", "name": null, "opening_hours": null, "label": "Surface car parks", "color": "#969696" }, "geometry": { "type": "Polygon", "coordinates": [ [ [ 39.2777901, -6.7850363 ], [ 39.2774525, -6.7852138 ], [ 39.2777096, -6.785656 ], [ 39.2779734, -6.7854987 ], [ 39.2777901, -6.7850363 ] ] ] } },
{ "type": "Feature", "properties": { "index": "3", "@osmId": "way/1237519025", "name": null, "opening_hours": null, "label": "Surface car parks", "color": "#969696" }, "geometry": { "type": "Polygon", "coordinates": [ [ [ 39.2805345, -6.7852184 ], [ 39.2804848, -6.7851241 ], [ 39.2801508, -6.7852955 ], [ 39.2802233, -6.7854131 ], [ 39.2802867, -6.7854293 ], [ 39.2803505, -6.7855283 ], [ 39.2804017, -6.7854961 ], [ 39.280297, -6.785332 ], [ 39.2803976, -6.7852777 ], [ 39.2805345, -6.7852184 ] ] ] } },
{ "type": "Feature", "properties": { "index": "4", "@osmId": "way/1343461988", "name": null, "opening_hours": null, "label": "Surface car parks", "color": "#969696" }, "geometry": { "type": "Polygon", "coordinates": [ [ [ 39.2705228, -6.7805624 ], [ 39.2703028, -6.7807875 ], [ 39.2705645, -6.7810375 ], [ 39.2707423, -6.7809496 ], [ 39.2707826, -6.7809297 ], [ 39.2706983, -6.7807077 ], [ 39.2706266, -6.7805191 ], [ 39.2705901, -6.7804636 ], [ 39.2705029, -6.7805403 ], [ 39.2705228, -6.7805624 ] ] ] } },
{ "type": "Feature", "properties": { "index": "5", "@osmId": "way/351566328", "name": null, "opening_hours": null, "label": "Surface car parks", "color": "#969696" }, "geometry": { "type": "Polygon", "coordinates": [ [ [ 39.2560236, -6.8393766 ], [ 39.2553726, -6.8396951 ], [ 39.2554113, -6.8397731 ], [ 39.2560623, -6.8394546 ], [ 39.2560236, -6.8393766 ] ] ] } },
{ "type": "Feature", "properties": { "index": "6", "@osmId": "way/381191676", "name": null, "opening_hours": null, "label": "Surface car parks", "color": "#969696" }, "geometry": { "type": "Polygon", "coordinates": [ [ [ 39.252762, -6.8409278 ], [ 39.252722, -6.840948 ], [ 39.2527149, -6.8409342 ], [ 39.2526009, -6.8409916 ], [ 39.2526615, -6.8411103 ], [ 39.2526413, -6.8411204 ], [ 39.2526547, -6.8411465 ], [ 39.2526422, -6.8411527 ], [ 39.2529699, -6.8417938 ], [ 39.2532181, -6.8416687 ], [ 39.2528455, -6.8409398 ], [ 39.252741, -6.8409924 ], [ 39.2527404, -6.8409912 ], [ 39.2527833, -6.8409695 ], [ 39.252762, -6.8409278 ] ] ] } },
{ "type": "Feature", "properties": { "index": "7", "@osmId": "way/381436301", "name": null, "opening_hours": null, "label": "Surface car parks", "color": "#969696" }, "geometry": { "type": "Polygon", "coordinates": [ [ [ 39.2512427, -6.8461986 ], [ 39.2515104, -6.846698 ], [ 39.2518256, -6.8465314 ], [ 39.2515579, -6.846032 ], [ 39.2512427, -6.8461986 ] ] ] } },
{ "type": "Feature", "properties": { "index": "8", "@osmId": "way/368936167", "name": null, "opening_hours": null, "label": "Surface car parks", "color": "#969696" }, "geometry": { "type": "Polygon", "coordinates": [ [ [ 39.2875461, -6.8013544 ], [ 39.2875725, -6.8014277 ], [ 39.287619, -6.801589 ], [ 39.2876612, -6.8015789 ], [ 39.2878281, -6.8016056 ], [ 39.287923, -6.8016121 ], [ 39.287942, -6.8016055 ], [ 39.2878718, -6.8014993 ], [ 39.2879056, -6.8014719 ], [ 39.2879144, -6.8014355 ], [ 39.2878993, -6.8013667 ], [ 39.2878651, -6.8012509 ], [ 39.2876394, -6.8013179 ], [ 39.2876385, -6.8013158 ], [ 39.2875461, -6.8013544 ] ] ] } },
{ "type": "Feature", "properties": { "index": "9", "@osmId": "way/368936171", "name": null, "opening_hours": null, "label": "Surface car parks", "color": "#969696" }, "geometry": { "type": "Polygon", "coordinates": [ [ [ 39.2884216, -6.8011061 ], [ 39.2884031, -6.8010427 ], [ 39.288065, -6.8011633 ], [ 39.2881583, -6.8014624 ], [ 39.2882187, -6.8014249 ], [ 39.2882392, -6.8014061 ], [ 39.2882531, -6.8013781 ], [ 39.2882708, -6.8013851 ], [ 39.2882867, -6.8013615 ], [ 39.2883821, -6.8011307 ], [ 39.2884216, -6.8011061 ] ] ] } },
{ "type": "Feature", "properties": { "index": "10", "@osmId": "way/368941470", "name": null, "opening_hours": null, "label": "Surface car parks", "color": "#969696" }, "geometry": { "type": "Polygon", "coordinates": [ [ [ 39.2888131, -6.8037326 ], [ 39.2883073, -6.8033394 ], [ 39.288274, -6.8033817 ], [ 39.2882796, -6.8034011 ], [ 39.2882959, -6.8034305 ], [ 39.2882656, -6.8034689 ], [ 39.2884709, -6.8036285 ], [ 39.2885026, -6.8035883 ], [ 39.2885144, -6.8035966 ], [ 39.2885218, -6.8035873 ], [ 39.2885772, -6.8036304 ], [ 39.2885685, -6.8036414 ], [ 39.2885804, -6.8036506 ], [ 39.2885516, -6.8036872 ], [ 39.2887096, -6.80381 ], [ 39.28873, -6.8037841 ], [ 39.2887685, -6.8038141 ], [ 39.2888253, -6.8037421 ], [ 39.2888131, -6.8037326 ] ] ] } },
{ "type": "Feature", "properties": { "index": "11", "@osmId": "way/1135198734", "name": null, "opening_hours": null, "label": "Surface car parks", "color": "#969696" }, "geometry": { "type": "Polygon", "coordinates": [ [ [ 39.2877738, -6.8031233 ], [ 39.2877132, -6.8031406 ], [ 39.2875833, -6.8033398 ], [ 39.287591, -6.8033511 ], [ 39.2876017, -6.8033591 ], [ 39.2877814, -6.8031302 ], [ 39.2877738, -6.8031233 ] ] ] } },
{ "type": "Feature", "properties": { "index": "12", "@osmId": "way/1136658143", "name": null, "opening_hours": null, "label": "Surface car parks", "color": "#969696" }, "geometry": { "type": "Polygon", "coordinates": [ [ [ 39.2870436, -6.8035669 ], [ 39.2870589, -6.8034485 ], [ 39.2869917, -6.8033204 ], [ 39.2869839, -6.8032733 ], [ 39.2869564, -6.8032302 ], [ 39.2869249, -6.8031979 ], [ 39.2868235, -6.8035256 ], [ 39.2870456, -6.8037069 ], [ 39.2870093, -6.8037814 ], [ 39.2869474, -6.8038433 ], [ 39.2869169, -6.8038816 ], [ 39.2868991, -6.8039004 ], [ 39.2868789, -6.8039363 ], [ 39.2868444, -6.8039837 ], [ 39.2868421, -6.804134 ], [ 39.2868562, -6.8041063 ], [ 39.2870372, -6.8037346 ], [ 39.2871039, -6.8036088 ], [ 39.2870436, -6.8035669 ] ] ] } },
{ "type": "Feature", "properties": { "index": "13", "@osmId": "way/1136658144", "name": null, "opening_hours": null, "label": "Surface car parks", "color": "#969696" }, "geometry": { "type": "Polygon", "coordinates": [ [ [ 39.2871033, -6.8034458 ], [ 39.2871855, -6.8034775 ], [ 39.2875328, -6.8028883 ], [ 39.287264, -6.8027484 ], [ 39.2870477, -6.802994 ], [ 39.2869328, -6.8031582 ], [ 39.2870376, -6.8033739 ], [ 39.2871033, -6.8034458 ] ] ] } },
{ "type": "Feature", "properties": { "index": "14", "@osmId": "way/366452406", "name": null, "opening_hours": null, "label": "Surface car parks", "color": "#969696" }, "geometry": { "type": "Polygon", "coordinates": [ [ [ 39.2603148, -6.7873945 ], [ 39.2597865, -6.7877242 ], [ 39.2598331, -6.7877814 ], [ 39.2599915, -6.7877561 ], [ 39.2604124, -6.7877248 ], [ 39.2604148, -6.7874395 ], [ 39.2603148, -6.7873945 ] ] ] } },
{ "type": "Feature", "properties": { "index": "15", "@osmId": "way/1148522199", "name": null, "opening_hours": null, "label": "Surface car parks", "color": "#969696" }, "geometry": { "type": "Polygon", "coordinates": [ [ [ 39.2796631, -6.8158558 ], [ 39.2794726, -6.8157372 ], [ 39.2793818, -6.8159465 ], [ 39.2799283, -6.8161386 ], [ 39.2797952, -6.8166237 ], [ 39.2799006, -6.8166585 ], [ 39.2799929, -6.8164247 ], [ 39.2800699, -6.8162103 ], [ 39.2800872, -6.8161532 ], [ 39.2800672, -6.8161091 ], [ 39.2799374, -6.8160264 ], [ 39.2796631, -6.8158558 ] ] ] } },
{ "type": "Feature", "properties": { "index": "16", "@osmId": "way/1271578106", "name": null, "opening_hours": null, "label": "Surface car parks", "color": "#969696" }, "geometry": { "type": "Polygon", "coordinates": [ [ [ 39.2823741, -6.8251474 ], [ 39.2821179, -6.825383 ], [ 39.282467, -6.8258425 ], [ 39.2827656, -6.8255791 ], [ 39.2827155, -6.8255239 ], [ 39.2823741, -6.8251474 ] ] ] } },
{ "type": "Feature", "properties": { "index": "17", "@osmId": "way/368936168", "name": null, "opening_hours": null, "label": "Surface car parks", "color": "#969696" }, "geometry": { "type": "Polygon", "coordinates": [ [ [ 39.2858379, -6.8016824 ], [ 39.2857077, -6.8017639 ], [ 39.2857805, -6.8018829 ], [ 39.2858892, -6.8018138 ], [ 39.285884, -6.8018057 ], [ 39.2859086, -6.8017901 ], [ 39.2859172, -6.8018033 ], [ 39.2861453, -6.8016583 ], [ 39.2860039, -6.8014389 ], [ 39.2859468, -6.8014752 ], [ 39.2860133, -6.8015783 ], [ 39.2859792, -6.8016 ], [ 39.2860353, -6.801687 ], [ 39.2858946, -6.8017786 ], [ 39.2858379, -6.8016824 ] ] ] } },
{ "type": "Feature", "properties": { "index": "18", "@osmId": "way/368936169", "name": null, "opening_hours": null, "label": "Surface car parks", "color": "#969696" }, "geometry": { "type": "Polygon", "coordinates": [ [ [ 39.2864231, -6.8009295 ], [ 39.28602, -6.8012098 ], [ 39.2862153, -6.801529 ], [ 39.2866643, -6.8012666 ], [ 39.2867296, -6.8012329 ], [ 39.2866968, -6.8009041 ], [ 39.2865998, -6.8009404 ], [ 39.2865395, -6.8009579 ], [ 39.2865875, -6.8012574 ], [ 39.2863158, -6.8013947 ], [ 39.2861872, -6.8011817 ], [ 39.2864639, -6.8010067 ], [ 39.2864231, -6.8009295 ] ] ] } },
{ "type": "Feature", "properties": { "index": "19", "@osmId": "way/368936728", "name": null, "opening_hours": null, "label": "Surface car parks", "color": "#969696" }, "geometry": { "type": "Polygon", "coordinates": [ [ [ 39.28479, -6.8014548 ], [ 39.2847498, -6.801488 ], [ 39.2849223, -6.8016944 ], [ 39.2850872, -6.8015585 ], [ 39.2850643, -6.8015311 ], [ 39.2850795, -6.8015186 ], [ 39.285051, -6.8014845 ], [ 39.2849428, -6.8015737 ], [ 39.284908, -6.8015321 ], [ 39.2848764, -6.8015582 ], [ 39.28479, -6.8014548 ] ] ] } },
{ "type": "Feature", "properties": { "index": "20", "@osmId": "way/368986391", "name": null, "opening_hours": null, "label": "Surface car parks", "color": "#969696" }, "geometry": { "type": "Polygon", "coordinates": [ [ [ 39.2824515, -6.7990262 ], [ 39.2820787, -6.7994892 ], [ 39.2823459, -6.7998116 ], [ 39.2827023, -6.7994508 ], [ 39.2824515, -6.7990262 ] ] ] } },
{ "type": "Feature", "properties": { "index": "21", "@osmId": "way/382855883", "name": "Muhimbili Orthopadeic Institute(MOI)-Parking", "opening_hours": null, "label": "Surface car parks", "color": "#969696" }, "geometry": { "type": "Polygon", "coordinates": [ [ [ 39.2711621, -6.8029451 ], [ 39.2709988, -6.8028707 ], [ 39.2709889, -6.8028657 ], [ 39.2709458, -6.8029964 ], [ 39.2709981, -6.8030427 ], [ 39.2709735, -6.8031413 ], [ 39.2711323, -6.8031036 ], [ 39.2712333, -6.8030732 ], [ 39.2712135, -6.8029809 ], [ 39.2711621, -6.8029451 ] ] ] } },
{ "type": "Feature", "properties": { "index": "22", "@osmId": "way/364769956", "name": null, "opening_hours": null, "label": "Surface car parks", "color": "#969696" }, "geometry": { "type": "Polygon", "coordinates": [ [ [ 39.2215995, -6.7819208 ], [ 39.2216042, -6.7819577 ], [ 39.2215762, -6.7821193 ], [ 39.2216588, -6.7823982 ], [ 39.2217132, -6.7823824 ], [ 39.2217278, -6.7824256 ], [ 39.2219984, -6.7824264 ], [ 39.2219963, -6.7822974 ], [ 39.2220073, -6.7822785 ], [ 39.2220198, -6.7822561 ], [ 39.2220243, -6.782239 ], [ 39.2220374, -6.7822306 ], [ 39.2220658, -6.7822174 ], [ 39.2220714, -6.7822013 ], [ 39.2220902, -6.7821335 ], [ 39.2220934, -6.7820555 ], [ 39.2219898, -6.7819979 ], [ 39.2219442, -6.7819642 ], [ 39.2219072, -6.781953 ], [ 39.221794, -6.7818779 ], [ 39.2217184, -6.7818678 ], [ 39.2216274, -6.7818471 ], [ 39.2215995, -6.7819208 ] ] ] } },
{ "type": "Feature", "properties": { "index": "23", "@osmId": "way/364769960", "name": null, "opening_hours": null, "label": "Surface car parks", "color": "#969696" }, "geometry": { "type": "Polygon", "coordinates": [ [ [ 39.2219692, -6.7816297 ], [ 39.2219301, -6.7816129 ], [ 39.2219135, -6.781651 ], [ 39.2219525, -6.7816678 ], [ 39.2219692, -6.7816297 ] ] ] } },
{ "type": "Feature", "properties": { "index": "24", "@osmId": "way/361400780", "name": null, "opening_hours": null, "label": "Surface car parks", "color": "#969696" }, "geometry": { "type": "Polygon", "coordinates": [ [ [ 39.2453062, -6.8139312 ], [ 39.2450543, -6.8139327 ], [ 39.2450556, -6.8141444 ], [ 39.2453109, -6.8141459 ], [ 39.2453068, -6.8140364 ], [ 39.2453062, -6.8139312 ] ] ] } },
{ "type": "Feature", "properties": { "index": "25", "@osmId": "way/335068610", "name": "Oil Com Apartments Parking space", "opening_hours": null, "label": "Surface car parks", "color": "#969696" }, "geometry": { "type": "Polygon", "coordinates": [ [ [ 39.2468496, -6.8026679 ], [ 39.2468222, -6.8026581 ], [ 39.2467996, -6.8027204 ], [ 39.2468441, -6.8027363 ], [ 39.2467874, -6.802893 ], [ 39.2467985, -6.8028969 ], [ 39.246817, -6.8028457 ], [ 39.246906, -6.8028775 ], [ 39.2468883, -6.8029264 ], [ 39.2469395, -6.8029447 ], [ 39.2469637, -6.8028781 ], [ 39.246968, -6.802866 ], [ 39.2470169, -6.802731 ], [ 39.2470015, -6.8027255 ], [ 39.2469897, -6.8027581 ], [ 39.2468367, -6.8027035 ], [ 39.2468496, -6.8026679 ] ] ] } },
{ "type": "Feature", "properties": { "index": "26", "@osmId": "way/335876967", "name": "mweka", "opening_hours": null, "label": "Surface car parks", "color": "#969696" }, "geometry": { "type": "Polygon", "coordinates": [ [ [ 39.2487457, -6.7999233 ], [ 39.2485863, -6.7997333 ], [ 39.2481258, -6.8001197 ], [ 39.2482043, -6.800202 ], [ 39.2482932, -6.8002882 ], [ 39.2487457, -6.7999233 ] ] ] } },
{ "type": "Feature", "properties": { "index": "27", "@osmId": "node/9275336438", "name": null, "opening_hours": null, "label": "Surface car parks", "color": "#969696" }, "geometry": { "type": "Point", "coordinates": [ 39.2753873, -6.8129439 ] } },
{ "type": "Feature", "properties": { "index": "28", "@osmId": "node/9275336852", "name": null, "opening_hours": null, "label": "Surface car parks", "color": "#969696" }, "geometry": { "type": "Point", "coordinates": [ 39.2739123, -6.8123802 ] } },
{ "type": "Feature", "properties": { "index": "29", "@osmId": "node/3685124005", "name": null, "opening_hours": null, "label": "Surface car parks", "color": "#969696" }, "geometry": { "type": "Point", "coordinates": [ 39.2771623, -6.7860428 ] } },
{ "type": "Feature", "properties": { "index": "30", "@osmId": "node/3727414931", "name": null, "opening_hours": null, "label": "Surface car parks", "color": "#969696" }, "geometry": { "type": "Point", "coordinates": [ 39.2745667, -6.8094642 ] } },
{ "type": "Feature", "properties": { "index": "31", "@osmId": "node/10581648224", "name": null, "opening_hours": null, "label": "Surface car parks", "color": "#969696" }, "geometry": { "type": "Point", "coordinates": [ 39.2818055, -6.8069049 ] } },
{ "type": "Feature", "properties": { "index": "32", "@osmId": "way/363716654", "name": "Kitete Auto Works", "opening_hours": null, "label": "Surface car parks", "color": "#969696" }, "geometry": { "type": "Polygon", "coordinates": [ [ [ 39.2286689, -6.8053837 ], [ 39.228664, -6.8054446 ], [ 39.2287213, -6.8054492 ], [ 39.2287221, -6.8054391 ], [ 39.2287228, -6.8054294 ], [ 39.2287866, -6.8054345 ], [ 39.2287872, -6.8054273 ], [ 39.2288344, -6.8054311 ], [ 39.2288371, -6.8053972 ], [ 39.2286689, -6.8053837 ] ] ] } },
{ "type": "Feature", "properties": { "index": "33", "@osmId": "node/1399656998", "name": null, "opening_hours": null, "label": "Surface car parks", "color": "#969696" }, "geometry": { "type": "Point", "coordinates": [ 39.2402277, -6.7916688 ] } },
{ "type": "Feature", "properties": { "index": "34", "@osmId": "way/1237515455", "name": null, "opening_hours": null, "label": "Street-side parking", "color": "#bdbdbd" }, "geometry": { "type": "Polygon", "coordinates": [ [ [ 39.279776, -6.7854128 ], [ 39.2798095, -6.7854733 ], [ 39.2800463, -6.7853387 ], [ 39.2800138, -6.7852829 ], [ 39.279776, -6.7854128 ] ] ] } },
{ "type": "Feature", "properties": { "index": "35", "@osmId": "way/364121176", "name": null, "opening_hours": null, "label": "Street-side parking", "color": "#bdbdbd" }, "geometry": { "type": "Polygon", "coordinates": [ [ [ 39.2541744, -6.8105022 ], [ 39.253971, -6.8103954 ], [ 39.2539481, -6.8104385 ], [ 39.2541515, -6.8105453 ], [ 39.2541744, -6.8105022 ] ] ] } },
{ "type": "Feature", "properties": { "index": "36", "@osmId": "way/371868094", "name": "Msanga Parking", "opening_hours": null, "label": "Street-side parking", "color": "#bdbdbd" }, "geometry": { "type": "Polygon", "coordinates": [ [ [ 39.2544033, -6.8102579 ], [ 39.254297, -6.8104588 ], [ 39.2546379, -6.8106382 ], [ 39.2547484, -6.810433 ], [ 39.2544033, -6.8102579 ] ] ] } },
{ "type": "Feature", "properties": { "index": "37", "@osmId": "way/683892374", "name": "Mpira Pesa Car Parking Open Space", "opening_hours": null, "label": "Street-side parking", "color": "#bdbdbd" }, "geometry": { "type": "Polygon", "coordinates": [ [ [ 39.2561624, -6.8095482 ], [ 39.2560533, -6.809546 ], [ 39.255953, -6.8096976 ], [ 39.2559596, -6.8097831 ], [ 39.2559075, -6.8098598 ], [ 39.2558442, -6.8099943 ], [ 39.255929, -6.8100429 ], [ 39.2561624, -6.8095482 ] ] ] } },
{ "type": "Feature", "properties": { "index": "38", "@osmId": "node/9275336321", "name": null, "opening_hours": null, "label": "Street-side parking", "color": "#bdbdbd" }, "geometry": { "type": "Point", "coordinates": [ 39.2536783, -6.8062097 ] } },
{ "type": "Feature", "properties": { "index": "39", "@osmId": "node/9275336429", "name": null, "opening_hours": null, "label": "Street-side parking", "color": "#bdbdbd" }, "geometry": { "type": "Point", "coordinates": [ 39.2530775, -6.8071045 ] } },
{ "type": "Feature", "properties": { "index": "40", "@osmId": "node/9275336555", "name": "Muhas Parking", "opening_hours": null, "label": "Street-side parking", "color": "#bdbdbd" }, "geometry": { "type": "Point", "coordinates": [ 39.2757221, -6.80817 ] } },
{ "type": "Feature", "properties": { "index": "41", "@osmId": "node/9275336642", "name": null, "opening_hours": null, "label": "Street-side parking", "color": "#bdbdbd" }, "geometry": { "type": "Point", "coordinates": [ 39.2585063, -6.8085321 ] } },
{ "type": "Feature", "properties": { "index": "42", "@osmId": "node/9275336768", "name": null, "opening_hours": null, "label": "Street-side parking", "color": "#bdbdbd" }, "geometry": { "type": "Point", "coordinates": [ 39.2537642, -6.8086386 ] } },
{ "type": "Feature", "properties": { "index": "43", "@osmId": "way/364357496", "name": null, "opening_hours": null, "label": "Marked parking spaces", "color": "#fdae6b" }, "geometry": { "type": "Polygon", "coordinates": [ [ [ 39.2641292, -6.7853992 ], [ 39.2639619, -6.7853679 ], [ 39.2639431, -6.785467 ], [ 39.2641104, -6.7854983 ], [ 39.2641292, -6.7853992 ] ] ] } },
{ "type": "Feature", "properties": { "index": "44", "@osmId": "way/373033348", "name": null, "opening_hours": null, "label": "Marked parking spaces", "color": "#fdae6b" }, "geometry": { "type": "Polygon", "coordinates": [ [ [ 39.2904806, -6.8114867 ], [ 39.2904469, -6.8115155 ], [ 39.2906236, -6.8117191 ], [ 39.2906573, -6.8116903 ], [ 39.2904806, -6.8114867 ] ] ] } },
{ "type": "Feature", "properties": { "index": "45", "@osmId": "way/373033349", "name": null, "opening_hours": null, "label": "Marked parking spaces", "color": "#fdae6b" }, "geometry": { "type": "Polygon", "coordinates": [ [ [ 39.2911027, -6.8115517 ], [ 39.2907619, -6.811864 ], [ 39.2911866, -6.8123397 ], [ 39.2912871, -6.8117871 ], [ 39.2911027, -6.8115517 ] ] ] } },
{ "type": "Feature", "properties": { "index": "46", "@osmId": "way/373033350", "name": null, "opening_hours": null, "label": "Marked parking spaces", "color": "#fdae6b" }, "geometry": { "type": "Polygon", "coordinates": [ [ [ 39.29186, -6.8116818 ], [ 39.2917047, -6.8118086 ], [ 39.2921467, -6.8123423 ], [ 39.292302, -6.8122155 ], [ 39.29186, -6.8116818 ] ] ] } },
{ "type": "Feature", "properties": { "index": "47", "@osmId": "way/1255252975", "name": null, "opening_hours": null, "label": "Marked parking spaces", "color": "#fdae6b" }, "geometry": { "type": "Polygon", "coordinates": [ [ [ 39.2768911, -6.8230409 ], [ 39.2768605, -6.8230533 ], [ 39.2769136, -6.8231821 ], [ 39.2769442, -6.8231697 ], [ 39.2768911, -6.8230409 ] ] ] } },
{ "type": "Feature", "properties": { "index": "48", "@osmId": "way/368930138", "name": null, "opening_hours": null, "label": "Marked parking spaces", "color": "#fdae6b" }, "geometry": { "type": "Polygon", "coordinates": [ [ [ 39.2836458, -6.8083638 ], [ 39.2834765, -6.8082609 ], [ 39.2834541, -6.8082974 ], [ 39.2835639, -6.8083705 ], [ 39.2836293, -6.8083959 ], [ 39.2836457, -6.8083707 ], [ 39.2836426, -6.8083688 ], [ 39.2836458, -6.8083638 ] ] ] } },
{ "type": "Feature", "properties": { "index": "49", "@osmId": "way/463392599", "name": null, "opening_hours": null, "label": "Marked parking spaces", "color": "#fdae6b" }, "geometry": { "type": "Polygon", "coordinates": [ [ [ 39.224626, -6.8449084 ], [ 39.224924, -6.8452088 ], [ 39.2251923, -6.8450857 ], [ 39.2248157, -6.8446709 ], [ 39.2246753, -6.8445128 ], [ 39.2245989, -6.8445916 ], [ 39.2244482, -6.8447446 ], [ 39.224626, -6.8449084 ] ] ] } },
{ "type": "Feature", "properties": { "index": "50", "@osmId": "way/372306571", "name": null, "opening_hours": null, "label": "Marked parking spaces", "color": "#fdae6b" }, "geometry": { "type": "Polygon", "coordinates": [ [ [ 39.2593689, -6.8158526 ], [ 39.2589511, -6.8156899 ], [ 39.2588979, -6.8158246 ], [ 39.2593156, -6.8159873 ], [ 39.2593689, -6.8158526 ] ] ] } },
{ "type": "Feature", "properties": { "index": "51", "@osmId": "way/372310296", "name": null, "opening_hours": null, "label": "Marked parking spaces", "color": "#fdae6b" }, "geometry": { "type": "Polygon", "coordinates": [ [ [ 39.2523675, -6.8168816 ], [ 39.2522332, -6.8169054 ], [ 39.2522636, -6.817068 ], [ 39.2522675, -6.8170701 ], [ 39.2523987, -6.8170465 ], [ 39.2523675, -6.8168816 ] ] ] } },
{ "type": "Feature", "properties": { "index": "52", "@osmId": "node/3716620507", "name": "MS Generally Electrical", "opening_hours": null, "label": "Marked parking spaces", "color": "#fdae6b" }, "geometry": { "type": "Point", "coordinates": [ 39.2525157, -6.8322552 ] } },
{ "type": "Feature", "properties": { "index": "53", "@osmId": "node/6227018597", "name": "AAA sun share", "opening_hours": null, "label": "Marked parking spaces", "color": "#fdae6b" }, "geometry": { "type": "Point", "coordinates": [ 39.2472286, -6.8470023 ] } },
{ "type": "Feature", "properties": { "index": "54", "@osmId": "node/6227018598", "name": null, "opening_hours": null, "label": "Marked parking spaces", "color": "#fdae6b" }, "geometry": { "type": "Point", "coordinates": [ 39.2473605, -6.8473737 ] } },
{ "type": "Feature", "properties": { "index": "55", "@osmId": "way/334999501", "name": "Gebby", "opening_hours": null, "label": "Marked parking spaces", "color": "#fdae6b" }, "geometry": { "type": "Polygon", "coordinates": [ [ [ 39.2470723, -6.801848 ], [ 39.2470805, -6.8018289 ], [ 39.2471284, -6.8017169 ], [ 39.2471629, -6.8016362 ], [ 39.2470689, -6.8015974 ], [ 39.2470532, -6.801631 ], [ 39.2470228, -6.8016167 ], [ 39.2470073, -6.8016527 ], [ 39.246958, -6.8017682 ], [ 39.2469272, -6.8017552 ], [ 39.2469157, -6.801782 ], [ 39.2470723, -6.801848 ] ] ] } },
{ "type": "Feature", "properties": { "index": "56", "@osmId": "way/335090932", "name": null, "opening_hours": null, "label": "Marked parking spaces", "color": "#fdae6b" }, "geometry": { "type": "Polygon", "coordinates": [ [ [ 39.2467002, -6.8017892 ], [ 39.2466119, -6.8017621 ], [ 39.2466017, -6.8017947 ], [ 39.2466901, -6.8018218 ], [ 39.2467002, -6.8017892 ] ] ] } },
{ "type": "Feature", "properties": { "index": "57", "@osmId": "way/335194239", "name": "Parking Space", "opening_hours": null, "label": "Marked parking spaces", "color": "#fdae6b" }, "geometry": { "type": "Polygon", "coordinates": [ [ [ 39.247566, -6.8007068 ], [ 39.2474165, -6.8008351 ], [ 39.2475021, -6.8009336 ], [ 39.2476516, -6.8008053 ], [ 39.247566, -6.8007068 ] ] ] } },
{ "type": "Feature", "properties": { "index": "58", "@osmId": "way/335881469", "name": null, "opening_hours": null, "label": "Marked parking spaces", "color": "#fdae6b" }, "geometry": { "type": "Polygon", "coordinates": [ [ [ 39.2492501, -6.7998354 ], [ 39.2491709, -6.7997453 ], [ 39.2490468, -6.7998529 ], [ 39.249126, -6.799943 ], [ 39.2492501, -6.7998354 ] ] ] } },
{ "type": "Feature", "properties": { "index": "59", "@osmId": "way/336058096", "name": "A.Mpemebeni Investment Show Room", "opening_hours": null, "label": "Marked parking spaces", "color": "#fdae6b" }, "geometry": { "type": "Polygon", "coordinates": [ [ [ 39.2442818, -6.8021485 ], [ 39.2442054, -6.8021327 ], [ 39.2441814, -6.8022463 ], [ 39.2442574, -6.8022626 ], [ 39.2442818, -6.8021485 ] ] ] } },
{ "type": "Feature", "properties": { "index": "60", "@osmId": "way/346254316", "name": null, "opening_hours": null, "label": "Marked parking spaces", "color": "#fdae6b" }, "geometry": { "type": "Polygon", "coordinates": [ [ [ 39.2454123, -6.7920589 ], [ 39.2453928, -6.7920427 ], [ 39.2453228, -6.7921679 ], [ 39.2454171, -6.7922347 ], [ 39.2454448, -6.7921841 ], [ 39.245454, -6.7921024 ], [ 39.2454123, -6.7920589 ] ] ] } },
{ "type": "Feature", "properties": { "index": "61", "@osmId": "way/360849779", "name": null, "opening_hours": null, "label": "Marked parking spaces", "color": "#fdae6b" }, "geometry": { "type": "Polygon", "coordinates": [ [ [ 39.2518402, -6.7900523 ], [ 39.2516044, -6.7900631 ], [ 39.2516155, -6.7903039 ], [ 39.2521962, -6.7902774 ], [ 39.2521903, -6.7901501 ], [ 39.252185, -6.7900366 ], [ 39.2518402, -6.7900523 ] ] ] } },
{ "type": "Feature", "properties": { "index": "62", "@osmId": "way/366796725", "name": null, "opening_hours": null, "label": "Marked parking spaces", "color": "#fdae6b" }, "geometry": { "type": "Polygon", "coordinates": [ [ [ 39.2627445, -6.7967844 ], [ 39.2627435, -6.7970237 ], [ 39.2629628, -6.7970212 ], [ 39.2629736, -6.7967906 ], [ 39.2627445, -6.7967844 ] ] ] } },
{ "type": "Feature", "properties": { "index": "63", "@osmId": "node/3488659782", "name": null, "opening_hours": null, "label": "Marked parking spaces", "color": "#fdae6b" }, "geometry": { "type": "Point", "coordinates": [ 39.247018, -6.7955431 ] } },
{ "type": "Feature", "properties": { "index": "64", "@osmId": "node/3662823407", "name": null, "opening_hours": null, "label": "Marked parking spaces", "color": "#fdae6b" }, "geometry": { "type": "Point", "coordinates": [ 39.2502903, -6.7835387 ] } },
{ "type": "Feature", "properties": { "index": "65", "@osmId": "node/3704407835", "name": null, "opening_hours": null, "label": "Marked parking spaces", "color": "#fdae6b" }, "geometry": { "type": "Point", "coordinates": [ 39.2603739, -6.8079282 ] } },
{ "type": "Feature", "properties": { "index": "66", "@osmId": "node/3704408826", "name": null, "opening_hours": null, "label": "Marked parking spaces", "color": "#fdae6b" }, "geometry": { "type": "Point", "coordinates": [ 39.2607239, -6.8080035 ] } },
{ "type": "Feature", "properties": { "index": "67", "@osmId": "node/6251554998", "name": "Binzoa garage", "opening_hours": null, "label": "Marked parking spaces", "color": "#fdae6b" }, "geometry": { "type": "Point", "coordinates": [ 39.247614, -6.796399 ] } },
{ "type": "Feature", "properties": { "index": "68", "@osmId": "node/6400359320", "name": "Jarufu Open Space", "opening_hours": null, "label": "Marked parking spaces", "color": "#fdae6b" }, "geometry": { "type": "Point", "coordinates": [ 39.2477788, -6.786292 ] } },
{ "type": "Feature", "properties": { "index": "69", "@osmId": "node/6400359335", "name": "Akida Open Space", "opening_hours": null, "label": "Marked parking spaces", "color": "#fdae6b" }, "geometry": { "type": "Point", "coordinates": [ 39.2472014, -6.7840552 ] } },
{ "type": "Feature", "properties": { "index": "70", "@osmId": "node/6400359374", "name": "Kisiwani OPen Space", "opening_hours": null, "label": "Marked parking spaces", "color": "#fdae6b" }, "geometry": { "type": "Point", "coordinates": [ 39.2526662, -6.7966672 ] } },
{ "type": "Feature", "properties": { "index": "71", "@osmId": "way/346187441", "name": "CCM Parking", "opening_hours": null, "label": "Marked parking spaces", "color": "#fdae6b" }, "geometry": { "type": "Polygon", "coordinates": [ [ [ 39.2375093, -6.7964742 ], [ 39.2370489, -6.796449 ], [ 39.2370469, -6.7965292 ], [ 39.2370797, -6.7965268 ], [ 39.2370858, -6.7965969 ], [ 39.2370491, -6.7966022 ], [ 39.2370659, -6.7967204 ], [ 39.2371509, -6.7967134 ], [ 39.2371353, -6.7966852 ], [ 39.2373128, -6.7965864 ], [ 39.2373781, -6.7967078 ], [ 39.2374013, -6.7966941 ], [ 39.2373922, -6.7966738 ], [ 39.2374353, -6.7966564 ], [ 39.237458, -6.7966456 ], [ 39.2374674, -6.7966642 ], [ 39.2374973, -6.7966517 ], [ 39.2375119, -6.7966801 ], [ 39.2374868, -6.7966934 ], [ 39.2375022, -6.7967268 ], [ 39.2374802, -6.7967376 ], [ 39.2374996, -6.7967775 ], [ 39.237484, -6.7967853 ], [ 39.2375037, -6.7968274 ], [ 39.2375283, -6.796817 ], [ 39.2375238, -6.7968057 ], [ 39.237579, -6.796784 ], [ 39.237572, -6.796763 ], [ 39.2376007, -6.7967534 ], [ 39.2375104, -6.7965007 ], [ 39.2375093, -6.7964742 ] ] ] } },
{ "type": "Feature", "properties": { "index": "72", "@osmId": "way/360720721", "name": null, "opening_hours": null, "label": "Marked parking spaces", "color": "#fdae6b" }, "geometry": { "type": "Polygon", "coordinates": [ [ [ 39.2241739, -6.8061084 ], [ 39.2238781, -6.806522 ], [ 39.2240173, -6.8066153 ], [ 39.2241606, -6.8064046 ], [ 39.2242249, -6.8064477 ], [ 39.2244114, -6.8061735 ], [ 39.2243311, -6.8061197 ], [ 39.2245331, -6.8058225 ], [ 39.2244098, -6.8057398 ], [ 39.2241739, -6.8061084 ] ] ] } },
{ "type": "Feature", "properties": { "index": "73", "@osmId": "way/360760343", "name": "Gamex", "opening_hours": null, "label": "Marked parking spaces", "color": "#fdae6b" }, "geometry": { "type": "Polygon", "coordinates": [ [ [ 39.2248209, -6.8063407 ], [ 39.2248751, -6.8062637 ], [ 39.2248915, -6.8062209 ], [ 39.2248955, -6.8062154 ], [ 39.224915, -6.806214 ], [ 39.2249517, -6.8061497 ], [ 39.2249067, -6.8061139 ], [ 39.2248839, -6.806008 ], [ 39.2249316, -6.805975 ], [ 39.2248877, -6.8058352 ], [ 39.2248797, -6.8058065 ], [ 39.2248426, -6.805802 ], [ 39.224755, -6.8057836 ], [ 39.2246183, -6.8057631 ], [ 39.2245368, -6.8058739 ], [ 39.2243775, -6.8060589 ], [ 39.2243588, -6.8061208 ], [ 39.2244087, -6.806168 ], [ 39.2244557, -6.8062424 ], [ 39.2245952, -6.8062861 ], [ 39.2246969, -6.8063429 ], [ 39.2248209, -6.8063407 ] ] ] } },
{ "type": "Feature", "properties": { "index": "74", "@osmId": "way/360760344", "name": "Gamex", "opening_hours": null, "label": "Marked parking spaces", "color": "#fdae6b" }, "geometry": { "type": "Polygon", "coordinates": [ [ [ 39.2250437, -6.8059873 ], [ 39.225184, -6.8060094 ], [ 39.2251933, -6.8060115 ], [ 39.2251989, -6.8059823 ], [ 39.2252125, -6.8059309 ], [ 39.225229, -6.8058422 ], [ 39.2251194, -6.8058255 ], [ 39.2251143, -6.8058609 ], [ 39.2250629, -6.8058536 ], [ 39.2250437, -6.8059873 ] ] ] } },
{ "type": "Feature", "properties": { "index": "75", "@osmId": "way/362581423", "name": null, "opening_hours": null, "label": "Marked parking spaces", "color": "#fdae6b" }, "geometry": { "type": "Polygon", "coordinates": [ [ [ 39.2272617, -6.8103525 ], [ 39.2273206, -6.8102766 ], [ 39.2271959, -6.8101812 ], [ 39.227137, -6.8102571 ], [ 39.2272617, -6.8103525 ] ] ] } },
{ "type": "Feature", "properties": { "index": "76", "@osmId": "way/362919857", "name": "Facebook", "opening_hours": null, "label": "Marked parking spaces", "color": "#fdae6b" }, "geometry": { "type": "Polygon", "coordinates": [ [ [ 39.2298412, -6.810166 ], [ 39.229757, -6.8101903 ], [ 39.2297796, -6.8103004 ], [ 39.2298217, -6.8102895 ], [ 39.229859, -6.8102797 ], [ 39.2299602, -6.8102589 ], [ 39.229957, -6.8102238 ], [ 39.2299771, -6.8102208 ], [ 39.2299642, -6.8101358 ], [ 39.2298823, -6.8101579 ], [ 39.2298412, -6.810166 ] ] ] } },
{ "type": "Feature", "properties": { "index": "77", "@osmId": "way/363291626", "name": null, "opening_hours": null, "label": "Marked parking spaces", "color": "#fdae6b" }, "geometry": { "type": "Polygon", "coordinates": [ [ [ 39.2265003, -6.8056285 ], [ 39.2263833, -6.8056018 ], [ 39.2263511, -6.8057785 ], [ 39.2264609, -6.8057982 ], [ 39.2265003, -6.8056285 ] ] ] } },
{ "type": "Feature", "properties": { "index": "78", "@osmId": "way/372815240", "name": null, "opening_hours": null, "label": "Marked parking spaces", "color": "#fdae6b" }, "geometry": { "type": "Polygon", "coordinates": [ [ [ 39.2253045, -6.79478 ], [ 39.2251672, -6.7950102 ], [ 39.2255309, -6.7952277 ], [ 39.2256606, -6.795267 ], [ 39.2257153, -6.7952143 ], [ 39.2257757, -6.7951394 ], [ 39.2258153, -6.7950766 ], [ 39.2257289, -6.794942 ], [ 39.2256125, -6.7948802 ], [ 39.2254611, -6.7947135 ], [ 39.225413, -6.7946512 ], [ 39.2253498, -6.7946564 ], [ 39.2253045, -6.79478 ] ] ] } },
{ "type": "Feature", "properties": { "index": "79", "@osmId": "way/667631774", "name": "CCM car parking", "opening_hours": null, "label": "Marked parking spaces", "color": "#fdae6b" }, "geometry": { "type": "Polygon", "coordinates": [ [ [ 39.2421348, -6.807305 ], [ 39.24201, -6.807394 ], [ 39.2420853, -6.8074506 ], [ 39.2421025, -6.8074282 ], [ 39.2420929, -6.80742 ], [ 39.242157, -6.807325 ], [ 39.2421348, -6.807305 ] ] ] } },
{ "type": "Feature", "properties": { "index": "80", "@osmId": "node/3662727428", "name": null, "opening_hours": null, "label": "Marked parking spaces", "color": "#fdae6b" }, "geometry": { "type": "Point", "coordinates": [ 39.2383086, -6.8104042 ] } },
{ "type": "Feature", "properties": { "index": "81", "@osmId": "node/3662817074", "name": null, "opening_hours": null, "label": "Marked parking spaces", "color": "#fdae6b" }, "geometry": { "type": "Point", "coordinates": [ 39.2396063, -6.8127488 ] } },
{ "type": "Feature", "properties": { "index": "82", "@osmId": "node/3662899026", "name": null, "opening_hours": null, "label": "Marked parking spaces", "color": "#fdae6b" }, "geometry": { "type": "Point", "coordinates": [ 39.2415782, -6.813157 ] } },
{ "type": "Feature", "properties": { "index": "83", "@osmId": "node/3747085491", "name": null, "opening_hours": null, "label": "Marked parking spaces", "color": "#fdae6b" }, "geometry": { "type": "Point", "coordinates": [ 39.2270318, -6.8475647 ] } },
{ "type": "Feature", "properties": { "index": "84", "@osmId": "node/3794252987", "name": "Massawe", "opening_hours": null, "label": "Marked parking spaces", "color": "#fdae6b" }, "geometry": { "type": "Point", "coordinates": [ 39.2359414, -6.8224724 ] } },
{ "type": "Feature", "properties": { "index": "85", "@osmId": "node/6218474925", "name": null, "opening_hours": null, "label": "Marked parking spaces", "color": "#fdae6b" }, "geometry": { "type": "Point", "coordinates": [ 39.2243026, -6.845258 ] } },
{ "type": "Feature", "properties": { "index": "86", "@osmId": "node/6218474926", "name": "Machina Inn", "opening_hours": null, "label": "Marked parking spaces", "color": "#fdae6b" }, "geometry": { "type": "Point", "coordinates": [ 39.2236299, -6.8426648 ] } }
]
}
